<?xml version="1.0" encoding="UTF-8" standalone="yes"?>
<!DOCTYPE earthquake SYSTEM "stationlist.dtd">
<stationlist created="" xmlns="ch.ethz.sed.shakemap.usgs.xml">
  <station code="SNT1" name="SNT1" netid="HA" insttype="30" lat="36.4159" lon="25.4282">
    <comp name="--.HHZ">
      <acc value="0.0188221842" flag="0"/>
      <vel value="0.0042775671" flag="0"/>
      <psa03 value="0.0205176839" flag="0"/>
      <psa10 value="0.0045568689" flag="0"/>
      <psa30 value="0.0002401494" flag="0"/>
    </comp>
    <comp name="--.HHN">
      <acc value="0.0311377296" flag="0"/>
      <vel value="0.0084334346" flag="0"/>
      <psa03 value="0.0249200244" flag="0"/>
      <psa10 value="0.0080015536" flag="0"/>
      <psa30 value="0.0003993301" flag="0"/>
    </comp>
    <comp name="--.HHE">
      <acc value="0.0296866056" flag="0"/>
      <vel value="0.0063944570" flag="0"/>
      <psa03 value="0.0149346023" flag="0"/>
      <psa10 value="0.0184236504" flag="0"/>
      <psa30 value="0.0007132570" flag="0"/>
    </comp>
  </station>
  <station code="SNT5" name="SNT5" netid="HA" insttype="1s-100Hz," lat="36.4037" lon="25.3953">
    <comp name="--.HHN">
      <acc value="0.0632652281" flag="0"/>
      <vel value="0.0119772547" flag="0"/>
      <psa03 value="0.0683798736" flag="0"/>
      <psa10 value="0.0057600189" flag="0"/>
      <psa30 value="0.0005609985" flag="0"/>
    </comp>
    <comp name="--.HHZ">
      <acc value="0.0423536672" flag="0"/>
      <vel value="0.0080429805" flag="0"/>
      <psa03 value="0.0228096094" flag="0"/>
      <psa10 value="0.0043501958" flag="0"/>
      <psa30 value="0.0002522920" flag="0"/>
    </comp>
    <comp name="--.HHE">
      <acc value="0.1166764583" flag="0"/>
      <vel value="0.0233104071" flag="0"/>
      <psa03 value="0.0713095229" flag="0"/>
      <psa10 value="0.0099830908" flag="0"/>
      <psa30 value="0.0010058190" flag="0"/>
    </comp>
  </station>
  <station code="IMOD" name="IMOD" netid="HC" insttype="120" lat="34.9731" lon="24.7995">
    <comp name="--.HHN">
      <acc value="0.0089636241" flag="0"/>
      <vel value="0.0063880565" flag="0"/>
      <psa03 value="0.0363541032" flag="0"/>
      <psa10 value="0.0065080200" flag="0"/>
      <psa30 value="0.0004266968" flag="0"/>
    </comp>
    <comp name="--.HHE">
      <acc value="0.0092955659" flag="0"/>
      <vel value="0.0052043875" flag="0"/>
      <psa03 value="0.0337990457" flag="0"/>
      <psa10 value="0.0053703217" flag="0"/>
      <psa30 value="0.0002532051" flag="0"/>
    </comp>
    <comp name="--.HHZ">
      <acc value="0.0074699497" flag="0"/>
      <vel value="0.0037887359" flag="0"/>
      <psa03 value="0.0166645230" flag="0"/>
      <psa10 value="0.0025293768" flag="0"/>
      <psa30 value="0.0002542462" flag="0"/>
    </comp>
  </station>
  <station code="IPPL" name="IPPL" netid="HC" insttype="60" lat="35.3486" lon="24.4632">
    <comp name="--.HHN">
      <acc value="0.0000000000" flag="0"/>
      <vel value="-100.0000000000" flag="0"/>
      <psa03 value="0.0000000000" flag="0"/>
      <psa10 value="0.0000000000" flag="0"/>
      <psa30 value="0.0000000000" flag="0"/>
    </comp>
    <comp name="--.HHE">
      <acc value="0.0000000000" flag="0"/>
      <vel value="-100.0000000000" flag="0"/>
      <psa03 value="0.0000000000" flag="0"/>
      <psa10 value="0.0000000000" flag="0"/>
      <psa30 value="0.0000000000" flag="0"/>
    </comp>
    <comp name="--.HHZ">
      <acc value="0.0097626517" flag="0"/>
      <vel value="0.0041254378" flag="0"/>
      <psa03 value="0.0332992662" flag="0"/>
      <psa10 value="0.0038293975" flag="0"/>
      <psa30 value="0.0002137825" flag="0"/>
    </comp>
  </station>
  <station code="KNSS" name="KNSS" netid="HC" insttype="60" lat="35.3042" lon="25.1802">
    <comp name="--.HHN">
      <acc value="0.0236416560" flag="0"/>
      <vel value="0.0081464220" flag="0"/>
      <psa03 value="0.0463008173" flag="0"/>
      <psa10 value="0.0050346845" flag="0"/>
      <psa30 value="0.0004514848" flag="0"/>
    </comp>
    <comp name="--.HHZ">
      <acc value="0.0236268963" flag="0"/>
      <vel value="0.0091044488" flag="0"/>
      <psa03 value="0.0426624041" flag="0"/>
      <psa10 value="0.0074638425" flag="0"/>
      <psa30 value="0.0003992188" flag="0"/>
    </comp>
    <comp name="--.HHE">
      <acc value="0.0298171743" flag="0"/>
      <vel value="0.0082236117" flag="0"/>
      <psa03 value="0.0498739967" flag="0"/>
      <psa10 value="0.0048645110" flag="0"/>
      <psa30 value="0.0005806932" flag="0"/>
    </comp>
  </station>
  <station code="PFKS" name="PFKS" netid="HC" insttype="120" lat="35.0429" lon="25.4733">
    <comp name="--.HHZ">
      <acc value="0.0209023393" flag="0"/>
      <vel value="0.0065403451" flag="0"/>
      <psa03 value="0.0319323789" flag="0"/>
      <psa10 value="0.0047039090" flag="0"/>
      <psa30 value="0.0002785927" flag="0"/>
    </comp>
    <comp name="--.HHE">
      <acc value="0.0348848132" flag="0"/>
      <vel value="0.0128854810" flag="0"/>
      <psa03 value="0.0600911889" flag="0"/>
      <psa10 value="0.0121768887" flag="0"/>
      <psa30 value="0.0005502134" flag="0"/>
    </comp>
    <comp name="--.HHN">
      <acc value="0.0464473981" flag="0"/>
      <vel value="0.0123535874" flag="0"/>
      <psa03 value="0.0514425500" flag="0"/>
      <psa10 value="0.0071012913" flag="0"/>
      <psa30 value="0.0006638608" flag="0"/>
    </comp>
  </station>
  <station code="STIA" name="STIA" netid="HC" insttype="120" lat="35.2021" lon="26.0909">
    <comp name="--.HHN">
      <acc value="0.0000000000" flag="0"/>
      <vel value="-100.0000000000" flag="0"/>
      <psa03 value="0.0000000000" flag="0"/>
      <psa10 value="0.0000000000" flag="0"/>
      <psa30 value="0.0000000000" flag="0"/>
    </comp>
    <comp name="--.HHE">
      <acc value="0.0132709778" flag="0"/>
      <vel value="0.0067799277" flag="0"/>
      <psa03 value="0.0208736147" flag="0"/>
      <psa10 value="0.0095239127" flag="0"/>
      <psa30 value="0.0005140356" flag="0"/>
    </comp>
    <comp name="--.HHZ">
      <acc value="0.0204610868" flag="0"/>
      <vel value="0.0048042290" flag="0"/>
      <psa03 value="0.0214779858" flag="0"/>
      <psa10 value="0.0029681939" flag="0"/>
      <psa30 value="0.0003002513" flag="0"/>
    </comp>
  </station>
  <station code="IACM" name="IACM" netid="HL" insttype="120" lat="35.3058" lon="25.0709">
    <comp name="--.HHE">
      <acc value="0.0697946761" flag="0"/>
      <vel value="0.0324226337" flag="0"/>
      <psa03 value="0.1513249327" flag="0"/>
      <psa10 value="0.0532064341" flag="0"/>
      <psa30 value="0.0019058579" flag="0"/>
    </comp>
    <comp name="--.HHN">
      <acc value="0.0587501407" flag="0"/>
      <vel value="0.0248382457" flag="0"/>
      <psa03 value="0.1749308870" flag="0"/>
      <psa10 value="0.0271627584" flag="0"/>
      <psa30 value="0.0016365588" flag="0"/>
    </comp>
    <comp name="--.HHZ">
      <acc value="0.0569581567" flag="0"/>
      <vel value="0.0267620058" flag="0"/>
      <psa03 value="0.1054293263" flag="0"/>
      <psa10 value="0.0140232268" flag="0"/>
      <psa30 value="0.0008202190" flag="0"/>
    </comp>
  </station>
  <station code="IDI" name="IDI" netid="HL" insttype="120" lat="35.288" lon="24.89">
    <comp name="--.HHN">
      <acc value="0.0186744801" flag="0"/>
      <vel value="0.0065644079" flag="0"/>
      <psa03 value="0.0436517568" flag="0"/>
      <psa10 value="0.0045131327" flag="0"/>
      <psa30 value="0.0003887153" flag="0"/>
    </comp>
    <comp name="--.HHE">
      <acc value="0.0147193076" flag="0"/>
      <vel value="0.0060421072" flag="0"/>
      <psa03 value="0.0204472909" flag="0"/>
      <psa10 value="0.0038620808" flag="0"/>
      <psa30 value="0.0002822849" flag="0"/>
    </comp>
    <comp name="--.HHZ">
      <acc value="0.0140661731" flag="0"/>
      <vel value="0.0044328803" flag="0"/>
      <psa03 value="0.0295728584" flag="0"/>
      <psa10 value="0.0029982515" flag="0"/>
      <psa30 value="0.0001712392" flag="0"/>
    </comp>
  </station>
  <station code="SIVA" name="SIVA" netid="HL" insttype="60" lat="35.0178" lon="24.812">
    <comp name="--.HHE">
      <acc value="0.0145878425" flag="0"/>
      <vel value="0.0098999013" flag="0"/>
      <psa03 value="0.0409443650" flag="0"/>
      <psa10 value="0.0097583465" flag="0"/>
      <psa30 value="0.0004916243" flag="0"/>
    </comp>
    <comp name="--.HHZ">
      <acc value="0.0135449654" flag="0"/>
      <vel value="0.0069564903" flag="0"/>
      <psa03 value="0.0272641303" flag="0"/>
      <psa10 value="0.0044212911" flag="0"/>
      <psa30 value="0.0002634937" flag="0"/>
    </comp>
    <comp name="--.HHN">
      <acc value="0.0121518910" flag="0"/>
      <vel value="0.0058912815" flag="0"/>
      <psa03 value="0.0393659935" flag="0"/>
      <psa10 value="0.0053574897" flag="0"/>
      <psa30 value="0.0003729027" flag="0"/>
    </comp>
  </station>
  <station code="THERA" name="THERA" netid="HL" insttype="120" lat="36.367" lon="25.4753">
    <comp name="--.HHN">
      <acc value="0.0388362628" flag="0"/>
      <vel value="0.0053723675" flag="0"/>
      <psa03 value="0.0191757625" flag="0"/>
      <psa10 value="0.0015540014" flag="0"/>
      <psa30 value="0.0001068660" flag="0"/>
    </comp>
    <comp name="--.HHZ">
      <acc value="0.0376801999" flag="0"/>
      <vel value="0.0086097347" flag="0"/>
      <psa03 value="0.0345898101" flag="0"/>
      <psa10 value="0.0033487581" flag="0"/>
      <psa30 value="0.0002480726" flag="0"/>
    </comp>
    <comp name="--.HHE">
      <acc value="0.0448084839" flag="0"/>
      <vel value="0.0101756715" flag="0"/>
      <psa03 value="0.0265065810" flag="0"/>
      <psa10 value="0.0064221184" flag="0"/>
      <psa30 value="0.0003474551" flag="0"/>
    </comp>
  </station>
  <station code="ZKR" name="ZKR" netid="HL" insttype="120" lat="35.1147" lon="26.2169">
    <comp name="--.HHN">
      <acc value="0.0057488256" flag="0"/>
      <vel value="0.0023060554" flag="0"/>
      <psa03 value="0.0108284584" flag="0"/>
      <psa10 value="0.0047096286" flag="0"/>
      <psa30 value="0.0001729490" flag="0"/>
    </comp>
    <comp name="--.HHZ">
      <acc value="0.0069619751" flag="0"/>
      <vel value="0.0042449239" flag="0"/>
      <psa03 value="0.0137365774" flag="0"/>
      <psa10 value="0.0040936721" flag="0"/>
      <psa30 value="0.0002225493" flag="0"/>
    </comp>
    <comp name="--.HHE">
      <acc value="0.0080816067" flag="0"/>
      <vel value="0.0057089972" flag="0"/>
      <psa03 value="0.0183014125" flag="0"/>
      <psa10 value="0.0048811510" flag="0"/>
      <psa30 value="0.0004549014" flag="0"/>
    </comp>
  </station>
  <station code="CMBO" name="CMBO" netid="HT" insttype="120P," lat="36.4709" lon="25.4056">
    <comp name="--.HHZ">
      <acc value="0.0743962043" flag="0"/>
      <vel value="0.0173428577" flag="0"/>
      <psa03 value="0.0939714051" flag="0"/>
      <psa10 value="0.0096085942" flag="0"/>
      <psa30 value="0.0006717272" flag="0"/>
    </comp>
    <comp name="--.HHE">
      <acc value="0.0631899851" flag="0"/>
      <vel value="0.0233497359" flag="0"/>
      <psa03 value="0.0815679240" flag="0"/>
      <psa10 value="0.0338378216" flag="0"/>
      <psa30 value="0.0013005198" flag="0"/>
    </comp>
    <comp name="--.HHN">
      <acc value="0.0926496263" flag="0"/>
      <vel value="0.0253375310" flag="0"/>
      <psa03 value="0.0907845845" flag="0"/>
      <psa10 value="0.0250037993" flag="0"/>
      <psa30 value="0.0010061404" flag="0"/>
    </comp>
  </station>
  <station code="IDI" name="IDI" netid="MN" insttype="" lat="35.288" lon="24.89">
    <comp name="--.HHZ">
      <acc value="0.0148538275" flag="0"/>
      <vel value="0.0045519058" flag="0"/>
      <psa03 value="0.0299775363" flag="0"/>
      <psa10 value="0.0029782498" flag="0"/>
      <psa30 value="0.0001704834" flag="0"/>
    </comp>
    <comp name="--.HHE">
      <acc value="0.0157963245" flag="0"/>
      <vel value="0.0060873965" flag="0"/>
      <psa03 value="0.0205416314" flag="0"/>
      <psa10 value="0.0038422347" flag="0"/>
      <psa30 value="0.0002819097" flag="0"/>
    </comp>
    <comp name="--.HHN">
      <acc value="0.0195718738" flag="0"/>
      <vel value="0.0067416355" flag="0"/>
      <psa03 value="0.0440324595" flag="0"/>
      <psa10 value="0.0044949278" flag="0"/>
      <psa30 value="0.0003861740" flag="0"/>
    </comp>
  </station>
</stationlist>
