<?xml version="1.0" encoding="UTF-8" standalone="yes"?>
<!DOCTYPE earthquake SYSTEM "stationlist.dtd">
<stationlist created="" xmlns="ch.ethz.sed.shakemap.usgs.xml">
  <station code="KLV" name="KLV" netid="MN" insttype="" lat="38.0437" lon="22.1504">
    <comp name="--.HHE">
      <acc value="0.0065859384" flag="0"/>
      <vel value="0.0053440289" flag="0"/>
      <psa03 value="0.0102322284" flag="0"/>
      <psa10 value="0.0062396491" flag="0"/>
      <psa30 value="0.0006300636" flag="0"/>
    </comp>
    <comp name="--.HHZ">
      <acc value="0.0070521042" flag="0"/>
      <vel value="0.0064408853" flag="0"/>
      <psa03 value="0.0140287438" flag="0"/>
      <psa10 value="0.0113332117" flag="0"/>
      <psa30 value="0.0007161978" flag="0"/>
    </comp>
    <comp name="--.HHN">
      <acc value="0.0098827630" flag="0"/>
      <vel value="0.0073732420" flag="0"/>
      <psa03 value="0.0146847260" flag="0"/>
      <psa10 value="0.0149753210" flag="0"/>
      <psa30 value="0.0006570285" flag="0"/>
    </comp>
  </station>
</stationlist>
