<?xml version="1.0" encoding="UTF-8" standalone="yes"?>
<!DOCTYPE earthquake SYSTEM "stationlist.dtd">
<stationlist created="" xmlns="ch.ethz.sed.shakemap.usgs.xml">
  <station code="GIL" name="GIL" netid="VI" source="ODC" insttype="CMG-3ESP" lat="66.0773" lon="-16.3513">
    <comp name="--.HHN">
      <acc value="0.0791633111" flag="0"/>
      <vel value="0.0255893501" flag="0"/>
      <psa03 value="0.0969727068" flag="0"/>
      <psa10 value="0.0365006447" flag="0"/>
      <psa30 value="0.0041324993" flag="0"/>
    </comp>
    <comp name="--.HHZ">
      <acc value="0.0756775687" flag="0"/>
      <vel value="0.0169722740" flag="0"/>
      <psa03 value="0.0600660103" flag="0"/>
      <psa10 value="0.0138830902" flag="0"/>
      <psa30 value="0.0013105077" flag="0"/>
    </comp>
    <comp name="--.HHE">
      <acc value="0.0614302986" flag="0"/>
      <vel value="0.0276696443" flag="0"/>
      <psa03 value="0.1017457354" flag="0"/>
      <psa10 value="0.0281545855" flag="0"/>
      <psa30 value="0.0035164813" flag="0"/>
    </comp>
  </station>
</stationlist>
