<?xml version="1.0" encoding="UTF-8" standalone="yes"?>
<!DOCTYPE earthquake SYSTEM "stationlist.dtd">
<stationlist created="" xmlns="ch.ethz.sed.shakemap.usgs.xml">
  <station code="CEYT" name="CEYT" netid="KO" insttype="CMG-3ESP" lat="37.0105" lon="35.7478">
    <comp name="--.HHE">
      <acc value="0.0063923622" flag="0"/>
      <vel value="0.0028790798" flag="0"/>
      <psa03 value="0.0207367732" flag="0"/>
      <psa10 value="0.0027451014" flag="0"/>
      <psa30 value="0.0002317070" flag="0"/>
    </comp>
    <comp name="--.HHN">
      <acc value="0.0056693185" flag="0"/>
      <vel value="0.0024803240" flag="0"/>
      <psa03 value="0.0156503747" flag="0"/>
      <psa10 value="0.0027222924" flag="0"/>
      <psa30 value="0.0001477974" flag="0"/>
    </comp>
    <comp name="--.HHZ">
      <acc value="0.0038716206" flag="0"/>
      <vel value="0.0017242649" flag="0"/>
      <psa03 value="0.0100342031" flag="0"/>
      <psa10 value="0.0017225570" flag="0"/>
      <psa30 value="0.0001234197" flag="0"/>
    </comp>
  </station>
  <station code="TAHT" name="TAHT" netid="KO" insttype="CMG-3ESPC" lat="36.3755" lon="36.1855">
    <comp name="--.HHZ">
      <acc value="0.2420891415" flag="0"/>
      <vel value="0.0333888069" flag="0"/>
      <psa03 value="0.1361883702" flag="0"/>
      <psa10 value="0.0235888443" flag="0"/>
      <psa30 value="0.0012209167" flag="0"/>
    </comp>
    <comp name="--.HHE">
      <acc value="0.3346889650" flag="0"/>
      <vel value="0.0597427450" flag="0"/>
      <psa03 value="0.3395206667" flag="0"/>
      <psa10 value="0.0216006646" flag="0"/>
      <psa30 value="0.0018013896" flag="0"/>
    </comp>
    <comp name="--.HHN">
      <acc value="0.3707561443" flag="0"/>
      <vel value="0.0655785105" flag="0"/>
      <psa03 value="0.2593162895" flag="0"/>
      <psa10 value="0.0394947797" flag="0"/>
      <psa30 value="0.0017869152" flag="0"/>
    </comp>
  </station>
</stationlist>
