<?xml version="1.0" encoding="UTF-8" standalone="yes"?>
<!DOCTYPE earthquake SYSTEM "stationlist.dtd">
<stationlist created="" xmlns="ch.ethz.sed.shakemap.usgs.xml">
  <station code="CEYT" name="CEYT" netid="KO" insttype="CMG-3ESP" lat="37.0105" lon="35.7478">
    <comp name="--.HHN">
      <acc value="0.0056693186" flag="0"/>
      <vel value="0.0024803242" flag="0"/>
      <psa03 value="0.0156503747" flag="0"/>
      <psa10 value="0.0027222924" flag="0"/>
      <psa30 value="0.0001477984" flag="0"/>
    </comp>
    <comp name="--.HHZ">
      <acc value="0.0038716207" flag="0"/>
      <vel value="0.0017242645" flag="0"/>
      <psa03 value="0.0100342031" flag="0"/>
      <psa10 value="0.0017225570" flag="0"/>
      <psa30 value="0.0001235199" flag="0"/>
    </comp>
    <comp name="--.HHE">
      <acc value="0.0063923622" flag="0"/>
      <vel value="0.0028790817" flag="0"/>
      <psa03 value="0.0207367732" flag="0"/>
      <psa10 value="0.0027451014" flag="0"/>
      <psa30 value="0.0002317192" flag="0"/>
    </comp>
  </station>
  <station code="TAHT" name="TAHT" netid="KO" insttype="CMG-3ESPC" lat="36.3755" lon="36.1855">
    <comp name="--.HHE">
      <acc value="0.3346889647" flag="0"/>
      <vel value="0.0597427480" flag="0"/>
      <psa03 value="0.3395206667" flag="0"/>
      <psa10 value="0.0216006656" flag="0"/>
      <psa30 value="0.0018013690" flag="0"/>
    </comp>
    <comp name="--.HHZ">
      <acc value="0.2420891417" flag="0"/>
      <vel value="0.0333888057" flag="0"/>
      <psa03 value="0.1361883702" flag="0"/>
      <psa10 value="0.0235888463" flag="0"/>
      <psa30 value="0.0012207489" flag="0"/>
    </comp>
    <comp name="--.HHN">
      <acc value="0.3707561442" flag="0"/>
      <vel value="0.0655785107" flag="0"/>
      <psa03 value="0.2593162895" flag="0"/>
      <psa10 value="0.0394947802" flag="0"/>
      <psa30 value="0.0017869627" flag="0"/>
    </comp>
  </station>
</stationlist>
