<?xml version="1.0" encoding="UTF-8" standalone="yes"?>
<!DOCTYPE earthquake SYSTEM "stationlist.dtd">
<stationlist created="" xmlns="ch.ethz.sed.shakemap.usgs.xml">
  <station code="VOL2" name="VOL2" netid="HI" insttype="CMG-5TD,ACCELEROMETER,GURALP" lat="39.366" lon="22.9506">
    <comp name="--.HNN">
      <acc value="0.0451220207" flag="0"/>
      <vel value="0.0217667973" flag="0"/>
      <psa03 value="0.1594656421" flag="0"/>
      <psa10 value="0.0149185582" flag="0"/>
      <psa30 value="0.0009928035" flag="0"/>
    </comp>
    <comp name="--.HNE">
      <acc value="0.0435632794" flag="0"/>
      <vel value="0.0212020134" flag="0"/>
      <psa03 value="0.1246494351" flag="0"/>
      <psa10 value="0.0103295071" flag="0"/>
      <psa30 value="0.0008283216" flag="0"/>
    </comp>
    <comp name="--.HNZ">
      <acc value="0.0249778357" flag="0"/>
      <vel value="0.0082124165" flag="0"/>
      <psa03 value="0.0466746555" flag="0"/>
      <psa10 value="0.0055434213" flag="0"/>
      <psa30 value="0.0006070102" flag="0"/>
    </comp>
  </station>
  <station code="EVR" name="EVR" netid="HL" insttype="DR24" lat="38.9166" lon="21.8105">
    <comp name="--.HHN">
      <acc value="0.0384158583" flag="0"/>
      <vel value="0.0164058659" flag="0"/>
      <psa03 value="0.0933608457" flag="0"/>
      <psa10 value="0.0124356436" flag="0"/>
      <psa30 value="0.0011534708" flag="0"/>
    </comp>
    <comp name="--.HHZ">
      <acc value="0.0209913204" flag="0"/>
      <vel value="0.0105131535" flag="0"/>
      <psa03 value="0.0664730232" flag="0"/>
      <psa10 value="0.0107801206" flag="0"/>
      <psa30 value="0.0006722421" flag="0"/>
    </comp>
    <comp name="--.HHE">
      <acc value="0.0327530937" flag="0"/>
      <vel value="0.0122730915" flag="0"/>
      <psa03 value="0.0881203752" flag="0"/>
      <psa10 value="0.0152388999" flag="0"/>
      <psa30 value="0.0008863460" flag="0"/>
    </comp>
  </station>
  <station code="JAN" name="JAN" netid="HL" insttype="CMG3EPSC60_DR24" lat="39.6562" lon="20.8487">
    <comp name="--.HHN">
      <acc value="0.0113488580" flag="0"/>
      <vel value="0.0073520054" flag="0"/>
      <psa03 value="0.0373217013" flag="0"/>
      <psa10 value="0.0059434383" flag="0"/>
      <psa30 value="0.0004445337" flag="0"/>
    </comp>
    <comp name="--.HHE">
      <acc value="0.0129977901" flag="0"/>
      <vel value="0.0074720390" flag="0"/>
      <psa03 value="0.0407820657" flag="0"/>
      <psa10 value="0.0073071688" flag="0"/>
      <psa30 value="0.0004543862" flag="0"/>
    </comp>
    <comp name="--.HHZ">
      <acc value="0.0070581471" flag="0"/>
      <vel value="0.0033688879" flag="0"/>
      <psa03 value="0.0227008236" flag="0"/>
      <psa10 value="0.0037592438" flag="0"/>
      <psa30 value="0.0004954057" flag="0"/>
    </comp>
  </station>
  <station code="KZN" name="KZN" netid="HL" insttype="120" lat="40.3033" lon="21.7821">
    <comp name="--.HHN">
      <acc value="0.0349673801" flag="0"/>
      <vel value="0.0321528580" flag="0"/>
      <psa03 value="0.1144296913" flag="0"/>
      <psa10 value="0.0208256792" flag="0"/>
      <psa30 value="0.0015364748" flag="0"/>
    </comp>
    <comp name="--.HHE">
      <acc value="0.0549529986" flag="0"/>
      <vel value="0.0222890613" flag="0"/>
      <psa03 value="0.1651497089" flag="0"/>
      <psa10 value="0.0136386744" flag="0"/>
      <psa30 value="0.0008152289" flag="0"/>
    </comp>
    <comp name="--.HHZ">
      <acc value="0.0233145779" flag="0"/>
      <vel value="0.0090210220" flag="0"/>
      <psa03 value="0.0437926457" flag="0"/>
      <psa10 value="0.0067219717" flag="0"/>
      <psa30 value="0.0007842941" flag="0"/>
    </comp>
  </station>
  <station code="NEO" name="NEO" netid="HL" insttype="120" lat="39.3057" lon="23.2219">
    <comp name="--.HHN">
      <acc value="0.0228091446" flag="0"/>
      <vel value="0.0167495227" flag="0"/>
      <psa03 value="0.0502013883" flag="0"/>
      <psa10 value="0.0248405257" flag="0"/>
      <psa30 value="0.0009354225" flag="0"/>
    </comp>
    <comp name="--.HHE">
      <acc value="0.0240301567" flag="0"/>
      <vel value="0.0127135690" flag="0"/>
      <psa03 value="0.0655806391" flag="0"/>
      <psa10 value="0.0100401992" flag="0"/>
      <psa30 value="0.0006194364" flag="0"/>
    </comp>
    <comp name="--.HHZ">
      <acc value="0.0210253206" flag="0"/>
      <vel value="0.0105008879" flag="0"/>
      <psa03 value="0.0414065186" flag="0"/>
      <psa10 value="0.0089504996" flag="0"/>
      <psa30 value="0.0007895343" flag="0"/>
    </comp>
  </station>
  <station code="PENT" name="PENT" netid="HL" insttype="30" lat="40.1959" lon="21.1384">
    <comp name="--.HHE">
      <acc value="0.0103083247" flag="0"/>
      <vel value="0.0048841386" flag="0"/>
      <psa03 value="0.0238480417" flag="0"/>
      <psa10 value="0.0053418320" flag="0"/>
      <psa30 value="0.0006903859" flag="0"/>
    </comp>
    <comp name="--.HHZ">
      <acc value="0.0089865690" flag="0"/>
      <vel value="0.0049855922" flag="0"/>
      <psa03 value="0.0240877634" flag="0"/>
      <psa10 value="0.0064789677" flag="0"/>
      <psa30 value="0.0007035598" flag="0"/>
    </comp>
    <comp name="--.HHN">
      <acc value="0.0004514336" flag="0"/>
      <vel value="0.0003443682" flag="0"/>
      <psa03 value="0.0013514094" flag="0"/>
      <psa10 value="0.0003913942" flag="0"/>
      <psa30 value="0.0001409704" flag="0"/>
    </comp>
  </station>
  <station code="TETR" name="TETR" netid="HL" insttype="60" lat="39.3445" lon="21.2747">
    <comp name="--.HHZ">
      <acc value="0.0531984207" flag="0"/>
      <vel value="0.0263122790" flag="0"/>
      <psa03 value="0.1789509304" flag="0"/>
      <psa10 value="0.0108910279" flag="0"/>
      <psa30 value="0.0008273197" flag="0"/>
    </comp>
    <comp name="--.HHE">
      <acc value="0.1768789374" flag="0"/>
      <vel value="0.0594550415" flag="0"/>
      <psa03 value="0.4221847498" flag="0"/>
      <psa10 value="0.0214521091" flag="0"/>
      <psa30 value="0.0013668621" flag="0"/>
    </comp>
    <comp name="--.HHN">
      <acc value="0.1459302889" flag="0"/>
      <vel value="0.0463101433" flag="0"/>
      <psa03 value="0.3244920326" flag="0"/>
      <psa10 value="0.0204086901" flag="0"/>
      <psa30 value="0.0011941899" flag="0"/>
    </comp>
  </station>
  <station code="THL" name="THL" netid="HL" insttype="120" lat="39.5647" lon="22.0144">
    <comp name="--.HHE">
      <acc value="0.4220528659" flag="0"/>
      <vel value="0.1577444284" flag="0"/>
      <psa03 value="0.3815390293" flag="0"/>
      <psa10 value="0.1106695687" flag="0"/>
      <psa30 value="0.0080703994" flag="0"/>
    </comp>
    <comp name="--.HHN">
      <acc value="0.4831704336" flag="0"/>
      <vel value="0.1165852621" flag="0"/>
      <psa03 value="0.1658650203" flag="0"/>
      <psa10 value="0.0419057345" flag="0"/>
      <psa30 value="0.0031738527" flag="0"/>
    </comp>
    <comp name="--.HHZ">
      <acc value="0.4823052817" flag="0"/>
      <vel value="0.1029707730" flag="0"/>
      <psa03 value="0.3051415001" flag="0"/>
      <psa10 value="0.0276709603" flag="0"/>
      <psa30 value="0.0018840052" flag="0"/>
    </comp>
  </station>
  <station code="AMPL" name="AMPL" netid="HP" insttype="Compact," lat="38.9224" lon="21.2135">
    <comp name="--.HHZ">
      <acc value="0.0079518152" flag="0"/>
      <vel value="0.0033880070" flag="0"/>
      <psa03 value="0.0185398600" flag="0"/>
      <psa10 value="0.0041846623" flag="0"/>
      <psa30 value="0.0002918800" flag="0"/>
    </comp>
    <comp name="--.HHN">
      <acc value="0.0079817413" flag="0"/>
      <vel value="0.0048238633" flag="0"/>
      <psa03 value="0.0211696877" flag="0"/>
      <psa10 value="0.0049981878" flag="0"/>
      <psa30 value="0.0002994870" flag="0"/>
    </comp>
    <comp name="--.HHE">
      <acc value="0.0135659619" flag="0"/>
      <vel value="0.0064858726" flag="0"/>
      <psa03 value="0.0366144427" flag="0"/>
      <psa10 value="0.0064183763" flag="0"/>
      <psa30 value="0.0003894984" flag="0"/>
    </comp>
  </station>
  <station code="PRMD" name="PRMD" netid="HP" insttype="120P," lat="39.5299" lon="21.0965">
    <comp name="--.HHE">
      <acc value="0.0350317741" flag="0"/>
      <vel value="0.0180521325" flag="0"/>
      <psa03 value="0.1000606396" flag="0"/>
      <psa10 value="0.0129331559" flag="0"/>
      <psa30 value="0.0008937518" flag="0"/>
    </comp>
    <comp name="--.HHN">
      <acc value="0.0318564705" flag="0"/>
      <vel value="0.0175427423" flag="0"/>
      <psa03 value="0.1418708921" flag="0"/>
      <psa10 value="0.0124136087" flag="0"/>
      <psa30 value="0.0006863319" flag="0"/>
    </comp>
    <comp name="--.HHZ">
      <acc value="0.0229927489" flag="0"/>
      <vel value="0.0090810196" flag="0"/>
      <psa03 value="0.0505262035" flag="0"/>
      <psa10 value="0.0069119560" flag="0"/>
      <psa30 value="0.0005550359" flag="0"/>
    </comp>
  </station>
  <station code="AGG" name="AGG" netid="HT" insttype="120P," lat="39.0211" lon="22.336">
    <comp name="--.HHE">
      <acc value="0.0515925361" flag="0"/>
      <vel value="0.0193582138" flag="0"/>
      <psa03 value="0.1370833052" flag="0"/>
      <psa10 value="0.0169696726" flag="0"/>
      <psa30 value="0.0008116529" flag="0"/>
    </comp>
    <comp name="--.HHZ">
      <acc value="0.0402008213" flag="0"/>
      <vel value="0.0145145725" flag="0"/>
      <psa03 value="0.0588711308" flag="0"/>
      <psa10 value="0.0102104188" flag="0"/>
      <psa30 value="0.0006586483" flag="0"/>
    </comp>
    <comp name="--.HHN">
      <acc value="0.0608551935" flag="0"/>
      <vel value="0.0358739587" flag="0"/>
      <psa03 value="0.3052308853" flag="0"/>
      <psa10 value="0.0179243940" flag="0"/>
      <psa30 value="0.0011531778" flag="0"/>
    </comp>
  </station>
  <station code="KPRO" name="KPRO" netid="HT" insttype="100" lat="39.9549" lon="21.3632">
    <comp name="--.HHE">
      <acc value="0.0467665271" flag="0"/>
      <vel value="0.0245417311" flag="0"/>
      <psa03 value="0.1400807471" flag="0"/>
      <psa10 value="0.0452104336" flag="0"/>
      <psa30 value="0.0015065587" flag="0"/>
    </comp>
    <comp name="--.HHN">
      <acc value="0.0419918111" flag="0"/>
      <vel value="0.0268925041" flag="0"/>
      <psa03 value="0.1287692590" flag="0"/>
      <psa10 value="0.0224497415" flag="0"/>
      <psa30 value="0.0018368292" flag="0"/>
    </comp>
    <comp name="--.HHZ">
      <acc value="0.0219762463" flag="0"/>
      <vel value="0.0164059230" flag="0"/>
      <psa03 value="0.0556916588" flag="0"/>
      <psa10 value="0.0148764322" flag="0"/>
      <psa30 value="0.0016503353" flag="0"/>
    </comp>
  </station>
  <station code="LIT" name="LIT" netid="HT" insttype="100" lat="40.1033" lon="22.4892">
    <comp name="--.HHE">
      <acc value="0.0834891359" flag="0"/>
      <vel value="0.0310506064" flag="0"/>
      <psa03 value="0.0824623555" flag="0"/>
      <psa10 value="0.0219015298" flag="0"/>
      <psa30 value="0.0010300103" flag="0"/>
    </comp>
    <comp name="--.HHZ">
      <acc value="0.0293106757" flag="0"/>
      <vel value="0.0195039404" flag="0"/>
      <psa03 value="0.0627077097" flag="0"/>
      <psa10 value="0.0160812511" flag="0"/>
      <psa30 value="0.0009123210" flag="0"/>
    </comp>
    <comp name="--.HHN">
      <acc value="0.0941880087" flag="0"/>
      <vel value="0.0318943684" flag="0"/>
      <psa03 value="0.1164651339" flag="0"/>
      <psa10 value="0.0170698993" flag="0"/>
      <psa30 value="0.0008361991" flag="0"/>
    </comp>
  </station>
  <station code="TYRN" name="TYRN" netid="HT" insttype="120P," lat="39.711" lon="22.2325">
    <comp name="--.HHN">
      <acc value="0.3280166407" flag="0"/>
      <vel value="0.1798410658" flag="0"/>
      <psa03 value="0.6404046394" flag="0"/>
      <psa10 value="0.1592685235" flag="0"/>
      <psa30 value="0.0144286068" flag="0"/>
    </comp>
    <comp name="--.HHZ">
      <acc value="0.5786693951" flag="0"/>
      <vel value="0.1674731800" flag="0"/>
      <psa03 value="0.8522383969" flag="0"/>
      <psa10 value="0.1267978111" flag="0"/>
      <psa30 value="0.0117088302" flag="0"/>
    </comp>
    <comp name="--.HHE">
      <acc value="0.4989781998" flag="0"/>
      <vel value="0.3180872302" flag="0"/>
      <psa03 value="1.0068834760" flag="0"/>
      <psa10 value="0.1476574055" flag="0"/>
      <psa30 value="0.0096708511" flag="0"/>
    </comp>
  </station>
  <station code="XOR" name="XOR" netid="HT" insttype="Compact," lat="39.366" lon="23.1918">
    <comp name="--.HHE">
      <acc value="0.0269166075" flag="0"/>
      <vel value="0.0207744390" flag="0"/>
      <psa03 value="0.0673683077" flag="0"/>
      <psa10 value="0.0234257578" flag="0"/>
      <psa30 value="0.0028646305" flag="0"/>
    </comp>
    <comp name="--.HHZ">
      <acc value="0.0244461878" flag="0"/>
      <vel value="0.0154752602" flag="0"/>
      <psa03 value="0.0626462601" flag="0"/>
      <psa10 value="0.0269060454" flag="0"/>
      <psa30 value="0.0014489569" flag="0"/>
    </comp>
    <comp name="--.HHN">
      <acc value="0.0498942035" flag="0"/>
      <vel value="0.0247207174" flag="0"/>
      <psa03 value="0.0949399512" flag="0"/>
      <psa10 value="0.0375109523" flag="0"/>
      <psa30 value="0.0017366746" flag="0"/>
    </comp>
  </station>
  <station code="THL" name="THL" netid="MN" insttype="" lat="39.5647" lon="22.0144">
    <comp name="--.HHN">
      <acc value="0.4831704336" flag="0"/>
      <vel value="0.1165852621" flag="0"/>
      <psa03 value="0.1658650203" flag="0"/>
      <psa10 value="0.0419057345" flag="0"/>
      <psa30 value="0.0031738527" flag="0"/>
    </comp>
    <comp name="--.HHZ">
      <acc value="0.4823052817" flag="0"/>
      <vel value="0.1029707730" flag="0"/>
      <psa03 value="0.3051415001" flag="0"/>
      <psa10 value="0.0276709603" flag="0"/>
      <psa30 value="0.0018840052" flag="0"/>
    </comp>
    <comp name="--.HHE">
      <acc value="0.4220528659" flag="0"/>
      <vel value="0.1577444284" flag="0"/>
      <psa03 value="0.3815390293" flag="0"/>
      <psa10 value="0.1106695687" flag="0"/>
      <psa30 value="0.0080703994" flag="0"/>
    </comp>
  </station>
</stationlist>
