<stationlist created="1778136309">
	<station code="MALA" name="MALA" netid="CL" source="Corinth Riff Laboratory (CRLNET)" insttype="" lat="38.39341" lon="21.87263">
		<comp name="01.HNE" depth="0.0">
			<acc value="0.0203365226737293" flag="0"/>
			<vel value="0.0201376313807832" flag="0"/>
			<psa03 value="0.0542275544213454" flag="0"/>
			<psa10 value="0.0300117299333381" flag="0"/>
			<psa30 value="0.0021538898266036" flag="0"/>
		</comp>
		<comp name="01.HNN" depth="0.0">
			<acc value="0.0161661978706196" flag="0"/>
			<vel value="0.0167921008551082" flag="0"/>
			<psa03 value="0.0453685975109276" flag="0"/>
			<psa10 value="0.0380532467288401" flag="0"/>
			<psa30 value="0.00219639492289096" flag="0"/>
		</comp>
		<comp name="01.HNZ" depth="0.0">
			<acc value="0.00791305374062531" flag="0"/>
			<vel value="0.00727341787730744" flag="0"/>
			<psa03 value="0.0150333814237393" flag="0"/>
			<psa10 value="0.0114562420046085" flag="0"/>
			<psa30 value="0.000910951326748013" flag="0"/>
		</comp>
	</station>
	<station code="ROD3" name="ROD3" netid="CL" source="Corinth Riff Laboratory (CRLNET)" insttype="" lat="38.30811" lon="21.89204">
		<comp name="00.HNE" depth="0.0">
			<acc value="0.0129221287365133" flag="0"/>
			<vel value="0.0079859492439096" flag="0"/>
			<psa03 value="0.0464424104697661" flag="0"/>
			<psa10 value="0.00530329375046375" flag="0"/>
			<psa30 value="0.00063712902224419" flag="0"/>
		</comp>
		<comp name="00.HNN" depth="0.0">
			<acc value="0.0146307882768771" flag="0"/>
			<vel value="0.00766828714135741" flag="0"/>
			<psa03 value="0.0502902402389375" flag="0"/>
			<psa10 value="0.00872607255676154" flag="0"/>
			<psa30 value="0.00063712902224419" flag="0"/>
		</comp>
		<comp name="00.HNZ" depth="0.0">
			<acc value="0.00415603801200862" flag="0"/>
			<vel value="0.00303606721576048" flag="0"/>
			<psa03 value="0.011364520481041" flag="0"/>
			<psa10 value="0.00647911894039193" flag="0"/>
			<psa30 value="0.000283665589959843" flag="0"/>
		</comp>
	</station>
	<station code="STC" name="STC" netid="EG" source="EUROSEISTEST Strong Motion Network" insttype="" lat="40.64865" lon="23.304856">
		<comp name="--.EN1" depth="0.0">
			<acc value="0.00950179657667629" flag="0"/>
			<vel value="0.00670298278519668" flag="0"/>
			<psa03 value="0.022906775273939" flag="0"/>
			<psa10 value="0.00642760470353476" flag="0"/>
			<psa30 value="0.000532398810477043" flag="0"/>
		</comp>
		<comp name="--.EN2" depth="0.0">
			<acc value="0.00920079821341251" flag="0"/>
			<vel value="0.0043978003628501" flag="0"/>
			<psa03 value="0.0161379271313811" flag="0"/>
			<psa10 value="0.00688880088051896" flag="0"/>
			<psa30 value="0.0004126118908043" flag="0"/>
		</comp>
		<comp name="--.EN3" depth="0.0">
			<acc value="0.00393350619981777" flag="0"/>
			<vel value="0.00404972726935806" flag="0"/>
			<psa03 value="0.0106557416978831" flag="0"/>
			<psa10 value="0.00475941591295521" flag="0"/>
			<psa30 value="0.000417232900048402" flag="0"/>
		</comp>
	</station>
	<station code="TST" name="TST" netid="EG" source="EUROSEISTEST Strong Motion Network" insttype="" lat="40.6638" lon="23.2906">
		<comp name="00.EN1" depth="0.0">
			<acc value="0.00558639190342991" flag="0"/>
			<vel value="0.00465425494686418" flag="0"/>
			<psa03 value="0.0170343576092414" flag="0"/>
			<psa10 value="0.00546381054437223" flag="0"/>
			<psa30 value="0.000383317163714017" flag="0"/>
		</comp>
		<comp name="00.EN2" depth="0.0">
			<acc value="0.0032479580612606" flag="0"/>
			<vel value="0.00243628932268357" flag="0"/>
			<psa03 value="0.00602417250935881" flag="0"/>
			<psa10 value="0.00345322594677141" flag="0"/>
			<psa30 value="0.000283207979888741" flag="0"/>
		</comp>
		<comp name="00.EN3" depth="0.0">
			<acc value="0.00598076366783929" flag="0"/>
			<vel value="0.00633919153807303" flag="0"/>
			<psa03 value="0.0132033381980054" flag="0"/>
			<psa10 value="0.00519958632206366" flag="0"/>
			<psa30 value="0.000400869029564147" flag="0"/>
		</comp>
	</station>
	<station code="VOL2" name="VOL2" netid="HI" source="ITSAK Strong Motion Network" insttype="" lat="39.366" lon="22.9506">
		<comp name="--.HNE" depth="0.0">
			<acc value="0.0433460834433186" flag="0"/>
			<vel value="0.0212820181336558" flag="0"/>
			<psa03 value="0.12322003702672" flag="0"/>
			<psa10 value="0.0103649795851888" flag="0"/>
			<psa30 value="0.000863524587732645" flag="0"/>
		</comp>
		<comp name="--.HNN" depth="0.0">
			<acc value="0.0451126836399354" flag="0"/>
			<vel value="0.0217944006770346" flag="0"/>
			<psa03 value="0.160356068519886" flag="0"/>
			<psa10 value="0.0149877443729887" flag="0"/>
			<psa30 value="0.00102504395362461" flag="0"/>
		</comp>
		<comp name="--.HNZ" depth="0.0">
			<acc value="0.0249506518246846" flag="0"/>
			<vel value="0.00829043253585472" flag="0"/>
			<psa03 value="0.0470240591558036" flag="0"/>
			<psa10 value="0.00560530364513709" flag="0"/>
			<psa30 value="0.00062728573678817" flag="0"/>
		</comp>
	</station>
	<station code="DLFA" name="DLFA" netid="HL" source="National Observatory of Athens Seismic Network" insttype="" lat="38.47836" lon="22.49583">
		<comp name="00.HNE" depth="0.0">
			<acc value="0.0112650600476061" flag="0"/>
			<vel value="0.00782464557126666" flag="0"/>
			<psa03 value="0.0251003779128505" flag="0"/>
			<psa10 value="0.012458914854924" flag="0"/>
			<psa30 value="0.000848312237482432" flag="0"/>
		</comp>
		<comp name="00.HNN" depth="0.0">
			<acc value="0.0108845301877647" flag="0"/>
			<vel value="0.0115791486436957" flag="0"/>
			<psa03 value="0.0294851141614411" flag="0"/>
			<psa10 value="0.0115528851709039" flag="0"/>
			<psa30 value="0.000525720927764693" flag="0"/>
		</comp>
		<comp name="00.HNZ" depth="0.0">
			<acc value="0.00744522159907827" flag="0"/>
			<vel value="0.005725238407681" flag="0"/>
			<psa03 value="0.0167783274818519" flag="0"/>
			<psa10 value="0.00623751102465326" flag="0"/>
			<psa30 value="0.00059596619215538" flag="0"/>
		</comp>
	</station>
	<station code="PATC" name="PATC" netid="HL" source="National Observatory of Athens Seismic Network" insttype="" lat="38.26933" lon="21.76001">
		<comp name="00.HNE" depth="0.0">
			<acc value="0.00619276396013508" flag="0"/>
			<vel value="0.00679230149645397" flag="0"/>
			<psa03 value="0.0234449162679744" flag="0"/>
			<psa10 value="0.0164494722632076" flag="0"/>
			<psa30 value="0.00159595451007375" flag="0"/>
		</comp>
		<comp name="00.HNN" depth="0.0">
			<acc value="0.00817276831044883" flag="0"/>
			<vel value="0.00846396362903052" flag="0"/>
			<psa03 value="0.0181653358870183" flag="0"/>
			<psa10 value="0.0177299942166225" flag="0"/>
			<psa30 value="0.00132168478350375" flag="0"/>
		</comp>
		<comp name="00.HNZ" depth="0.0">
			<acc value="0.00547650133442094" flag="0"/>
			<vel value="0.00487192239529391" flag="0"/>
			<psa03 value="0.0117672003406055" flag="0"/>
			<psa10 value="0.0100267285031547" flag="0"/>
			<psa30 value="0.000489479740403893" flag="0"/>
		</comp>
	</station>
	<station code="PATG" name="PATG" netid="HL" source="National Observatory of Athens Seismic Network" insttype="" lat="38.23865" lon="21.72657">
		<comp name="00.HNE" depth="0.0">
			<acc value="0.00761499839386436" flag="0"/>
			<vel value="0.00716854716780019" flag="0"/>
			<psa03 value="0.0265321285246352" flag="0"/>
			<psa10 value="0.011053562145044" flag="0"/>
			<psa30 value="0.00185993352912156" flag="0"/>
		</comp>
		<comp name="00.HNN" depth="0.0">
			<acc value="0.00792021770488257" flag="0"/>
			<vel value="0.00737780742119183" flag="0"/>
			<psa03 value="0.0234896584745927" flag="0"/>
			<psa10 value="0.0104213547655279" flag="0"/>
			<psa30 value="0.00191675613152676" flag="0"/>
		</comp>
		<comp name="00.HNZ" depth="0.0">
			<acc value="0.0089156505201243" flag="0"/>
			<vel value="0.00419313285527617" flag="0"/>
			<psa03 value="0.0204024462179319" flag="0"/>
			<psa10 value="0.00860929539748785" flag="0"/>
			<psa30 value="0.000696636157046491" flag="0"/>
		</comp>
	</station>
	<station code="PLG" name="PLG" netid="HL" source="National Observatory of Athens Seismic Network" insttype="" lat="40.37328" lon="23.44443">
		<comp name="--.HNE" depth="0.0">
			<acc value="0.0" flag="1"/>
			<vel value="0.0" flag="1"/>
			<psa03 value="0.0" flag="1"/>
			<psa10 value="0.0" flag="1"/>
			<psa30 value="0.0" flag="1"/>
		</comp>
		<comp name="--.HNN" depth="0.0">
			<acc value="0.0" flag="1"/>
			<vel value="0.0" flag="1"/>
			<psa03 value="0.0" flag="1"/>
			<psa10 value="0.0" flag="1"/>
			<psa30 value="0.0" flag="1"/>
		</comp>
		<comp name="--.HNZ" depth="0.0">
			<acc value="0.0" flag="1"/>
			<vel value="0.0" flag="1"/>
			<psa03 value="0.0" flag="1"/>
			<psa10 value="0.0" flag="1"/>
			<psa30 value="0.0" flag="1"/>
		</comp>
	</station>
	<station code="RIOA" name="RIOA" netid="HL" source="National Observatory of Athens Seismic Network" insttype="" lat="38.29585" lon="21.79118">
		<comp name="00.HNE" depth="0.0">
			<acc value="0.00714648401719159" flag="0"/>
			<vel value="0.00706759651780311" flag="0"/>
			<psa03 value="0.018433789126728" flag="0"/>
			<psa10 value="0.0111300713183613" flag="0"/>
			<psa30 value="0.000873815295254847" flag="0"/>
		</comp>
		<comp name="00.HNN" depth="0.0">
			<acc value="0.00699041297473312" flag="0"/>
			<vel value="0.00765554787397816" flag="0"/>
			<psa03 value="0.015480803489922" flag="0"/>
			<psa10 value="0.00996632652422003" flag="0"/>
			<psa30 value="0.000717217572090896" flag="0"/>
		</comp>
		<comp name="00.HNZ" depth="0.0">
			<acc value="0.00409609328547065" flag="0"/>
			<vel value="0.00331738871221928" flag="0"/>
			<psa03 value="0.0103354497288208" flag="0"/>
			<psa10 value="0.00434894248329601" flag="0"/>
			<psa30 value="0.000559277582728397" flag="0"/>
		</comp>
	</station>
	<station code="ANX" name="ANX" netid="HP" source="University of Patras, Seismological Laboratory (PSLNET)" insttype="" lat="38.5933" lon="21.9209">
		<comp name="--.HNE" depth="0.0">
			<acc value="0.0295238361664329" flag="0"/>
			<vel value="0.0230052695465435" flag="0"/>
			<psa03 value="0.0820080784662023" flag="0"/>
			<psa10 value="0.0395079222059704" flag="0"/>
			<psa30 value="0.0012119326804258" flag="0"/>
		</comp>
		<comp name="--.HNN" depth="0.0">
			<acc value="0.0515749909413724" flag="0"/>
			<vel value="0.0355542544954552" flag="0"/>
			<psa03 value="0.244112962952459" flag="0"/>
			<psa10 value="0.024759271430214" flag="0"/>
			<psa30 value="0.00151476107465581" flag="0"/>
		</comp>
		<comp name="--.HNZ" depth="0.0">
			<acc value="0.0186464439107696" flag="0"/>
			<vel value="0.0123066486990254" flag="0"/>
			<psa03 value="0.0767450214810307" flag="0"/>
			<psa10 value="0.0129352884618907" flag="0"/>
			<psa30 value="0.000682274936951625" flag="0"/>
		</comp>
	</station>
	<station code="LTK" name="LTK" netid="HP" source="University of Patras, Seismological Laboratory (PSLNET)" insttype="" lat="38.0228" lon="22.9673">
		<comp name="--.HNE" depth="0.0">
			<acc value="0.00207396194957044" flag="0"/>
			<vel value="0.00133890885378186" flag="0"/>
			<psa03 value="0.00737901421410678" flag="0"/>
			<psa10 value="0.00168129227579842" flag="0"/>
			<psa30 value="0.000155286341645317" flag="0"/>
		</comp>
		<comp name="--.HNN" depth="0.0">
			<acc value="0.00271069684100066" flag="0"/>
			<vel value="0.00254758324993762" flag="0"/>
			<psa03 value="0.00764087531109571" flag="0"/>
			<psa10 value="0.00358597114673921" flag="0"/>
			<psa30 value="0.000142269997605758" flag="0"/>
		</comp>
		<comp name="--.HNZ" depth="0.0">
			<acc value="0.00150448288038032" flag="0"/>
			<vel value="0.00126766598498624" flag="0"/>
			<psa03 value="0.00697094811921047" flag="0"/>
			<psa10 value="0.00164215632385892" flag="0"/>
			<psa30 value="0.000136823569098343" flag="0"/>
		</comp>
	</station>
	<station code="PDO" name="PDO" netid="HP" source="University of Patras, Seismological Laboratory (PSLNET)" insttype="" lat="38.5986" lon="21.1833">
		<comp name="--.HNE" depth="0.0">
			<acc value="0.0116624387034304" flag="0"/>
			<vel value="0.00507298169495163" flag="0"/>
			<psa03 value="0.0449886104829048" flag="0"/>
			<psa10 value="0.00738280282444695" flag="0"/>
			<psa30 value="0.000551378296937988" flag="0"/>
		</comp>
		<comp name="--.HNN" depth="0.0">
			<acc value="0.01070292703892" flag="0"/>
			<vel value="0.00672974976445" flag="0"/>
			<psa03 value="0.0397241106940514" flag="0"/>
			<psa10 value="0.00748556713207955" flag="0"/>
			<psa30 value="0.000605228635094915" flag="0"/>
		</comp>
		<comp name="--.HNZ" depth="0.0">
			<acc value="0.00505597713349169" flag="0"/>
			<vel value="0.00359906558502014" flag="0"/>
			<psa03 value="0.0151713448709017" flag="0"/>
			<psa10 value="0.00327585677505824" flag="0"/>
			<psa30 value="0.000207036983413235" flag="0"/>
		</comp>
	</station>
	<station code="PVO" name="PVO" netid="HP" source="University of Patras, Seismological Laboratory (PSLNET)" insttype="" lat="38.616" lon="21.525">
		<comp name="--.HNE" depth="0.0">
			<acc value="0.00751616600820386" flag="0"/>
			<vel value="0.00439348927600163" flag="0"/>
			<psa03 value="0.0342771248579793" flag="0"/>
			<psa10 value="0.00431795916860556" flag="0"/>
			<psa30 value="0.000313026934414616" flag="0"/>
		</comp>
		<comp name="--.HNN" depth="0.0">
			<acc value="0.00895475241336809" flag="0"/>
			<vel value="0.00539192918452715" flag="0"/>
			<psa03 value="0.0202675366352726" flag="0"/>
			<psa10 value="0.00562409475619241" flag="0"/>
			<psa30 value="0.000350497020790962" flag="0"/>
		</comp>
		<comp name="--.HNZ" depth="0.0">
			<acc value="0.00478753775544515" flag="0"/>
			<vel value="0.00471378571531891" flag="0"/>
			<psa03 value="0.0140895323206839" flag="0"/>
			<psa10 value="0.00558035654623897" flag="0"/>
			<psa30 value="0.000341234532196479" flag="0"/>
		</comp>
	</station>
	<station code="SERG" name="SERG" netid="HP" source="University of Patras, Seismological Laboratory (PSLNET)" insttype="" lat="38.4133" lon="22.0566">
		<comp name="--.HNE" depth="0.0">
			<acc value="0.0312605518186764" flag="0"/>
			<vel value="0.0153902132427015" flag="0"/>
			<psa03 value="0.0881932486199865" flag="0"/>
			<psa10 value="0.0223939447389327" flag="0"/>
			<psa30 value="0.00103388369805253" flag="0"/>
		</comp>
		<comp name="--.HNN" depth="0.0">
			<acc value="0.0257923359638669" flag="0"/>
			<vel value="0.0140288842449156" flag="0"/>
			<psa03 value="0.0531264672844855" flag="0"/>
			<psa10 value="0.0117518291260053" flag="0"/>
			<psa30 value="0.000862661001226172" flag="0"/>
		</comp>
		<comp name="--.HNZ" depth="0.0">
			<acc value="0.0186576619124773" flag="0"/>
			<vel value="0.0102322597704255" flag="0"/>
			<psa03 value="0.0347552346553705" flag="0"/>
			<psa10 value="0.00849174097367017" flag="0"/>
			<psa30 value="0.000496235946111771" flag="0"/>
		</comp>
	</station>
</stationlist>
