<?xml version="1.0" encoding="UTF-8" standalone="yes"?>
<!DOCTYPE earthquake SYSTEM "stationlist.dtd">
<stationlist created="" xmlns="ch.ethz.sed.shakemap.usgs.xml">
  <station code="KARP" name="KARP" netid="GE" source="GFZ" insttype="STS-2/N" lat="35.5471" lon="27.1611">
    <comp name="--.HHE">
      <acc value="0.2432014917" flag="0"/>
      <vel value="0.0607794672" flag="0"/>
      <psa03 value="0.2380631206" flag="0"/>
      <psa10 value="0.0422447275" flag="0"/>
      <psa30 value="0.0048620814" flag="0"/>
    </comp>
    <comp name="--.HHN">
      <acc value="0.2479913356" flag="0"/>
      <vel value="0.0600389533" flag="0"/>
      <psa03 value="0.2684492891" flag="0"/>
      <psa10 value="0.0377037053" flag="0"/>
      <psa30 value="0.0033625407" flag="0"/>
    </comp>
    <comp name="--.HHZ">
      <acc value="0.1343952415" flag="0"/>
      <vel value="0.0340588651" flag="0"/>
      <psa03 value="0.1916705255" flag="0"/>
      <psa10 value="0.0136022646" flag="0"/>
      <psa30 value="0.0012744419" flag="0"/>
    </comp>
  </station>
  <station code="ZKR" name="ZKR" netid="GE" source="GFZ" insttype="STS-2/N" lat="35.1147" lon="26.2169">
    <comp name="--.HHE">
      <acc value="0.0365910165" flag="0"/>
      <vel value="0.0194643498" flag="0"/>
      <psa03 value="0.1286498231" flag="0"/>
      <psa10 value="0.0177310395" flag="0"/>
      <psa30 value="0.0009496044" flag="0"/>
    </comp>
    <comp name="--.HHN">
      <acc value="0.0220025236" flag="0"/>
      <vel value="0.0118092186" flag="0"/>
      <psa03 value="0.0609707062" flag="0"/>
      <psa10 value="0.0052712068" flag="0"/>
      <psa30 value="0.0006190545" flag="0"/>
    </comp>
    <comp name="--.HHZ">
      <acc value="0.0212453698" flag="0"/>
      <vel value="0.0099972837" flag="0"/>
      <psa03 value="0.0483703904" flag="0"/>
      <psa10 value="0.0102897609" flag="0"/>
      <psa30 value="0.0006861858" flag="0"/>
    </comp>
  </station>
  <station code="KARP" name="KARP" netid="HL" source="NOA" insttype="120" lat="35.5471" lon="27.1611">
    <comp name="--.HHE">
      <acc value="0.2251235489" flag="0"/>
      <vel value="0.0574085223" flag="0"/>
      <psa03 value="0.2303138990" flag="0"/>
      <psa10 value="0.0419446487" flag="0"/>
      <psa30 value="0.0048128050" flag="0"/>
    </comp>
    <comp name="--.HHN">
      <acc value="0.2399080557" flag="0"/>
      <vel value="0.0581056534" flag="0"/>
      <psa03 value="0.2627635387" flag="0"/>
      <psa10 value="0.0373105146" flag="0"/>
      <psa30 value="0.0033159311" flag="0"/>
    </comp>
    <comp name="--.HHZ">
      <acc value="0.1264790847" flag="0"/>
      <vel value="0.0325791809" flag="0"/>
      <psa03 value="0.1873463816" flag="0"/>
      <psa10 value="0.0134169406" flag="0"/>
      <psa30 value="0.0012662848" flag="0"/>
    </comp>
  </station>
</stationlist>
