<stationlist xmlns:esm="https://esm-db.eu/esmws/shakemap/1/" created="1783475668">
	<station code="KARP" name="KARP" netid="GE" source="GEOFON" insttype="" lat="35.5471" lon="27.16106" esm:processing="manual (Paolucci et al 2011)" esm:quality="good">
		<comp name="--.HNE" depth="0.0">
			<acc value="0.219028807248899" flag="0"/>
			<vel value="0.0620586711315988" flag="0"/>
			<psa03 value="0.248900895417446" flag="0"/>
			<psa10 value="0.0351700589343587" flag="0"/>
			<psa30 value="0.00450419794026142" flag="0"/>
		</comp>
		<comp name="--.HNN" depth="0.0">
			<acc value="0.230029190450167" flag="0"/>
			<vel value="0.0582891792086103" flag="0"/>
			<psa03 value="0.22523226811638" flag="0"/>
			<psa10 value="0.0418666249989154" flag="0"/>
			<psa30 value="0.00384514523677427" flag="0"/>
		</comp>
		<comp name="--.HNZ" depth="0.0">
			<acc value="0.129358883610291" flag="0"/>
			<vel value="0.0346756955760169" flag="0"/>
			<psa03 value="0.197044677946869" flag="0"/>
			<psa10 value="0.0139488303353124" flag="0"/>
			<psa30 value="0.00138521871690169" flag="0"/>
		</comp>
	</station>
	<station code="KSS1" name="KSS1" netid="HI" source="ITSAK Strong Motion Network" insttype="" lat="35.4189" lon="26.9207" esm:processing="manual (Paolucci et al 2011)" esm:quality="best">
		<comp name="--.HNE" depth="0.0">
			<acc value="0.139668014061679" flag="0"/>
			<vel value="0.0377502773203617" flag="0"/>
			<psa03 value="0.176105325249518" flag="0"/>
			<psa10 value="0.0238265672904283" flag="0"/>
			<psa30 value="0.00238162765829061" flag="0"/>
		</comp>
		<comp name="--.HNN" depth="0.0">
			<acc value="0.166097615155248" flag="0"/>
			<vel value="0.0590612313271828" flag="0"/>
			<psa03 value="0.328989445264152" flag="0"/>
			<psa10 value="0.0177219406194313" flag="0"/>
			<psa30 value="0.00183711500374624" flag="0"/>
		</comp>
		<comp name="--.HNZ" depth="0.0">
			<acc value="0.117734723992647" flag="0"/>
			<vel value="0.0372882351800692" flag="0"/>
			<psa03 value="0.139774653475481" flag="0"/>
			<psa10 value="0.0146494932909545" flag="0"/>
			<psa30 value="0.00144427842963781" flag="0"/>
		</comp>
	</station>
	<station code="RGE1" name="RGE1" netid="HI" source="ITSAK Strong Motion Network" insttype="" lat="36.0269" lon="27.9306" esm:processing="manual (Paolucci et al 2011)" esm:quality="good">
		<comp name="--.HNE" depth="0.0">
			<acc value="0.0118882545993083" flag="0"/>
			<vel value="0.0146175334040038" flag="0"/>
			<psa03 value="0.037516771760353" flag="0"/>
			<psa10 value="0.0131728273226549" flag="0"/>
			<psa30 value="0.00172235315994485" flag="0"/>
		</comp>
		<comp name="--.HNN" depth="0.0">
			<acc value="0.0128164452565814" flag="0"/>
			<vel value="0.0116265097563877" flag="0"/>
			<psa03 value="0.0264041527913534" flag="0"/>
			<psa10 value="0.023235528614722" flag="0"/>
			<psa30 value="0.000817046052373935" flag="0"/>
		</comp>
		<comp name="--.HNZ" depth="0.0">
			<acc value="0.00595889767688452" flag="0"/>
			<vel value="0.0048932640926698" flag="0"/>
			<psa03 value="0.022627496356402" flag="0"/>
			<psa10 value="0.0115402813620102" flag="0"/>
			<psa30 value="0.000625252253228332" flag="0"/>
		</comp>
	</station>
	<station code="SIT2" name="SIT2" netid="HI" source="ITSAK Strong Motion Network" insttype="" lat="35.2059" lon="26.107" esm:processing="manual (Paolucci et al 2011)" esm:quality="good">
		<comp name="--.HNE" depth="0.0">
			<acc value="0.0920996767027087" flag="0"/>
			<vel value="0.0543971207470587" flag="0"/>
			<psa03 value="0.235254522398873" flag="0"/>
			<psa10 value="0.0336398754680138" flag="0"/>
			<psa30 value="0.00205187759551394" flag="0"/>
		</comp>
		<comp name="--.HNN" depth="0.0">
			<acc value="0.113985925101377" flag="0"/>
			<vel value="0.0626258402846245" flag="0"/>
			<psa03 value="0.404066867969612" flag="0"/>
			<psa10 value="0.0418505178045328" flag="0"/>
			<psa30 value="0.00276596321314156" flag="0"/>
		</comp>
		<comp name="--.HNZ" depth="0.0">
			<acc value="0.0542079290491846" flag="0"/>
			<vel value="0.0215849334553222" flag="0"/>
			<psa03 value="0.131094665391536" flag="0"/>
			<psa10 value="0.0105341051262059" flag="0"/>
			<psa30 value="0.000795069011606689" flag="0"/>
		</comp>
	</station>
	<station code="IACM" name="IACM" netid="HL" source="National Observatory of Athens Seismic Network" insttype="" lat="35.3058" lon="25.0709" esm:processing="manual (Paolucci et al 2011)" esm:quality="bad">
		<comp name="--.HNE" depth="0.0">
			<acc value="0.0222108970471614" flag="0"/>
			<vel value="0.021481729343952" flag="0"/>
			<psa03 value="0.0577174465375706" flag="0"/>
			<psa10 value="0.0379566035625447" flag="0"/>
			<psa30 value="0.00136508472392347" flag="0"/>
		</comp>
		<comp name="--.HNN" depth="0.0">
			<acc value="0.0262967586215525" flag="0"/>
			<vel value="0.0212835517976767" flag="0"/>
			<psa03 value="0.0662184657950422" flag="0"/>
			<psa10 value="0.0300278371277207" flag="0"/>
			<psa30 value="0.00181250679010619" flag="0"/>
		</comp>
		<comp name="--.HNZ" depth="0.0">
			<acc value="0.0146268539621707" flag="0"/>
			<vel value="0.0103938330746056" flag="0"/>
			<psa03 value="0.029798309607769" flag="0"/>
			<psa10 value="0.0142629206257727" flag="0"/>
			<psa30 value="0.00059596619215538" flag="0"/>
		</comp>
	</station>
	<station code="KARP" name="KARP" netid="HL" source="National Observatory of Athens Seismic Network" insttype="" lat="35.5471" lon="27.16106" esm:processing="manual (Paolucci et al 2011)" esm:quality="good">
		<comp name="--.HNE" depth="0.0">
			<acc value="0.214581989548762" flag="0"/>
			<vel value="0.0607986399028378" flag="0"/>
			<psa03 value="0.243845026069581" flag="0"/>
			<psa10 value="0.0344573155829296" flag="0"/>
			<psa30 value="0.00441292383876014" flag="0"/>
		</comp>
		<comp name="--.HNN" depth="0.0">
			<acc value="0.225359250439231" flag="0"/>
			<vel value="0.0571059739912515" flag="0"/>
			<psa03 value="0.220668563041316" flag="0"/>
			<psa10 value="0.0410169704952345" flag="0"/>
			<psa30 value="0.00376729379725848" flag="0"/>
		</comp>
		<comp name="--.HNZ" depth="0.0">
			<acc value="0.126732679300989" flag="0"/>
			<vel value="0.0339717103828134" flag="0"/>
			<psa03 value="0.193017879351224" flag="0"/>
			<psa10 value="0.0136669544336173" flag="0"/>
			<psa30 value="0.00135703112673218" flag="0"/>
		</comp>
	</station>
	<station code="ZKR" name="ZKR" netid="HL" source="National Observatory of Athens Seismic Network" insttype="" lat="35.1147" lon="26.21691" esm:processing="manual (Paolucci et al 2011)" esm:quality="best">
		<comp name="00.HNE" depth="0.0">
			<acc value="0.0336219788131104" flag="0"/>
			<vel value="0.019073918926692" flag="0"/>
			<psa03 value="0.128768070647386" flag="0"/>
			<psa10 value="0.0179232805492135" flag="0"/>
			<psa30 value="0.000904239995755272" flag="0"/>
		</comp>
		<comp name="00.HNN" depth="0.0">
			<acc value="0.0425028485417015" flag="0"/>
			<vel value="0.0236966961160182" flag="0"/>
			<psa03 value="0.110647476966986" flag="0"/>
			<psa10 value="0.0113434916439304" flag="0"/>
			<psa30 value="0.00140758982021083" flag="0"/>
		</comp>
		<comp name="00.HNZ" depth="0.0">
			<acc value="0.0202471203142316" flag="0"/>
			<vel value="0.0095550203789489" flag="0"/>
			<psa03 value="0.0461739572300565" flag="0"/>
			<psa10 value="0.00990189774668972" flag="0"/>
			<psa30 value="0.000749431960856052" flag="0"/>
		</comp>
	</station>
	<station code="RDI1" name="RDI1" netid="HI" source="ITSAK Strong Motion Network" insttype="" lat="36.4514" lon="28.224" esm:processing="discarded" esm:quality="good">
		<comp name="--.HNE" depth="0.0">
			<acc value="0" flag="1"/>
			<vel value="0" flag="1"/>
			<psa03 value="0" flag="1"/>
			<psa10 value="0" flag="1"/>
			<psa30 value="0" flag="1"/>
		</comp>
		<comp name="--.HNN" depth="0.0">
			<acc value="0" flag="1"/>
			<vel value="0" flag="1"/>
			<psa03 value="0" flag="1"/>
			<psa10 value="0" flag="1"/>
			<psa30 value="0" flag="1"/>
		</comp>
		<comp name="--.HNZ" depth="0.0">
			<acc value="0" flag="1"/>
			<vel value="0" flag="1"/>
			<psa03 value="0" flag="1"/>
			<psa10 value="0" flag="1"/>
			<psa30 value="0" flag="1"/>
		</comp>
	</station>
	<station code="AGNA" name="AGNA" netid="HL" source="National Observatory of Athens Seismic Network" insttype="" lat="35.1895" lon="25.71853" esm:processing="discarded" esm:quality="bad">
		<comp name="00.HNE" depth="0.0">
			<acc value="0" flag="1"/>
			<vel value="0" flag="1"/>
			<psa03 value="0" flag="1"/>
			<psa10 value="0" flag="1"/>
			<psa30 value="0" flag="1"/>
		</comp>
		<comp name="00.HNN" depth="0.0">
			<acc value="0" flag="1"/>
			<vel value="0" flag="1"/>
			<psa03 value="0" flag="1"/>
			<psa10 value="0" flag="1"/>
			<psa30 value="0" flag="1"/>
		</comp>
		<comp name="00.HNZ" depth="0.0">
			<acc value="0" flag="1"/>
			<vel value="0" flag="1"/>
			<psa03 value="0" flag="1"/>
			<psa10 value="0" flag="1"/>
			<psa30 value="0" flag="1"/>
		</comp>
	</station>
	<station code="ASTA" name="ASTA" netid="HL" source="National Observatory of Athens Seismic Network" insttype="" lat="36.54552" lon="26.35295" esm:processing="discarded" esm:quality="bad">
		<comp name="00.HNE" depth="0.0">
			<acc value="0" flag="1"/>
			<vel value="0" flag="1"/>
			<psa03 value="0" flag="1"/>
			<psa10 value="0" flag="1"/>
			<psa30 value="0" flag="1"/>
		</comp>
		<comp name="00.HNN" depth="0.0">
			<acc value="0" flag="1"/>
			<vel value="0" flag="1"/>
			<psa03 value="0" flag="1"/>
			<psa10 value="0" flag="1"/>
			<psa30 value="0" flag="1"/>
		</comp>
		<comp name="00.HNZ" depth="0.0">
			<acc value="0" flag="1"/>
			<vel value="0" flag="1"/>
			<psa03 value="0" flag="1"/>
			<psa10 value="0" flag="1"/>
			<psa30 value="0" flag="1"/>
		</comp>
	</station>
	<station code="KLNA" name="KLNA" netid="HL" source="National Observatory of Athens Seismic Network" insttype="" lat="36.95708" lon="26.97274" esm:processing="discarded" esm:quality="bad">
		<comp name="00.HNE" depth="0.0">
			<acc value="0" flag="1"/>
			<vel value="0" flag="1"/>
			<psa03 value="0" flag="1"/>
			<psa10 value="0" flag="1"/>
			<psa30 value="0" flag="1"/>
		</comp>
		<comp name="00.HNN" depth="0.0">
			<acc value="0" flag="1"/>
			<vel value="0" flag="1"/>
			<psa03 value="0" flag="1"/>
			<psa10 value="0" flag="1"/>
			<psa30 value="0" flag="1"/>
		</comp>
		<comp name="00.HNZ" depth="0.0">
			<acc value="0" flag="1"/>
			<vel value="0" flag="1"/>
			<psa03 value="0" flag="1"/>
			<psa10 value="0" flag="1"/>
			<psa30 value="0" flag="1"/>
		</comp>
	</station>
	<station code="RODB" name="RODB" netid="HL" source="National Observatory of Athens Seismic Network" insttype="" lat="36.4471" lon="28.22116" esm:processing="discarded" esm:quality="bad">
		<comp name="00.HNE" depth="0.0">
			<acc value="0" flag="1"/>
			<vel value="0" flag="1"/>
			<psa03 value="0" flag="1"/>
			<psa10 value="0" flag="1"/>
			<psa30 value="0" flag="1"/>
		</comp>
		<comp name="00.HNN" depth="0.0">
			<acc value="0" flag="1"/>
			<vel value="0" flag="1"/>
			<psa03 value="0" flag="1"/>
			<psa10 value="0" flag="1"/>
			<psa30 value="0" flag="1"/>
		</comp>
		<comp name="00.HNZ" depth="0.0">
			<acc value="0" flag="1"/>
			<vel value="0" flag="1"/>
			<psa03 value="0" flag="1"/>
			<psa10 value="0" flag="1"/>
			<psa30 value="0" flag="1"/>
		</comp>
	</station>
	<station code="THRA" name="THRA" netid="HL" source="National Observatory of Athens Seismic Network" insttype="" lat="36.41502" lon="25.43244" esm:processing="discarded" esm:quality="bad">
		<comp name="00.HNE" depth="0.0">
			<acc value="0" flag="1"/>
			<vel value="0" flag="1"/>
			<psa03 value="0" flag="1"/>
			<psa10 value="0" flag="1"/>
			<psa30 value="0" flag="1"/>
		</comp>
		<comp name="00.HNN" depth="0.0">
			<acc value="0" flag="1"/>
			<vel value="0" flag="1"/>
			<psa03 value="0" flag="1"/>
			<psa10 value="0" flag="1"/>
			<psa30 value="0" flag="1"/>
		</comp>
		<comp name="00.HNZ" depth="0.0">
			<acc value="0" flag="1"/>
			<vel value="0" flag="1"/>
			<psa03 value="0" flag="1"/>
			<psa10 value="0" flag="1"/>
			<psa30 value="0" flag="1"/>
		</comp>
	</station>
	<station code="DATC" name="DATC" netid="KO" source="Bogazici University Kandilli Observatory And Earthquake Research Institute (KOERI)" insttype="" lat="36.7584" lon="27.6602" esm:processing="automatic (Paolucci et al 2011)" esm:quality="bad">
		<comp name="--.HNE" depth="0.0">
			<acc value="0" flag="1"/>
			<vel value="0" flag="1"/>
			<psa03 value="0" flag="1"/>
			<psa10 value="0" flag="1"/>
			<psa30 value="0" flag="1"/>
		</comp>
		<comp name="--.HNN" depth="0.0">
			<acc value="0" flag="1"/>
			<vel value="0" flag="1"/>
			<psa03 value="0" flag="1"/>
			<psa10 value="0" flag="1"/>
			<psa30 value="0" flag="1"/>
		</comp>
		<comp name="--.HNZ" depth="0.0">
			<acc value="0" flag="1"/>
			<vel value="0" flag="1"/>
			<psa03 value="0" flag="1"/>
			<psa10 value="0" flag="1"/>
			<psa30 value="0" flag="1"/>
		</comp>
	</station>
	<station code="MRSB" name="MRSB" netid="KO" source="Bogazici University Kandilli Observatory And Earthquake Research Institute (KOERI)" insttype="" lat="36.7161" lon="28.1969" esm:processing="discarded" esm:quality="bad">
		<comp name="--.HNE" depth="0.0">
			<acc value="0" flag="1"/>
			<vel value="0" flag="1"/>
			<psa03 value="0" flag="1"/>
			<psa10 value="0" flag="1"/>
			<psa30 value="0" flag="1"/>
		</comp>
		<comp name="--.HNN" depth="0.0">
			<acc value="0" flag="1"/>
			<vel value="0" flag="1"/>
			<psa03 value="0" flag="1"/>
			<psa10 value="0" flag="1"/>
			<psa30 value="0" flag="1"/>
		</comp>
		<comp name="--.HNZ" depth="0.0">
			<acc value="0" flag="1"/>
			<vel value="0" flag="1"/>
			<psa03 value="0" flag="1"/>
			<psa10 value="0" flag="1"/>
			<psa30 value="0" flag="1"/>
		</comp>
	</station>
	<station code="YKAV" name="YKAV" netid="KO" source="Bogazici University Kandilli Observatory And Earthquake Research Institute (KOERI)" insttype="" lat="37.1246" lon="27.2801" esm:processing="discarded" esm:quality="bad">
		<comp name="--.HNE" depth="0.0">
			<acc value="0" flag="1"/>
			<vel value="0" flag="1"/>
			<psa03 value="0" flag="1"/>
			<psa10 value="0" flag="1"/>
			<psa30 value="0" flag="1"/>
		</comp>
		<comp name="--.HNN" depth="0.0">
			<acc value="0" flag="1"/>
			<vel value="0" flag="1"/>
			<psa03 value="0" flag="1"/>
			<psa10 value="0" flag="1"/>
			<psa30 value="0" flag="1"/>
		</comp>
		<comp name="--.HNZ" depth="0.0">
			<acc value="0" flag="1"/>
			<vel value="0" flag="1"/>
			<psa03 value="0" flag="1"/>
			<psa10 value="0" flag="1"/>
			<psa30 value="0" flag="1"/>
		</comp>
	</station>
</stationlist>
