<?xml version="1.0" encoding="UTF-8" standalone="yes"?>
<!DOCTYPE earthquake SYSTEM "stationlist.dtd">
<stationlist created="" xmlns="ch.ethz.sed.shakemap.usgs.xml">
  <station code="ARPRA" name="ARPRA" netid="KO" insttype="CMG-5T" lat="39.0929" lon="38.3356">
    <comp name="--.HNN">
      <acc value="0.0702617152" flag="0"/>
      <vel value="0.0278935080" flag="0"/>
      <psa03 value="0.2328590239" flag="0"/>
      <psa10 value="0.0208215334" flag="0"/>
      <psa30 value="0.0018029755" flag="0"/>
    </comp>
    <comp name="--.HNZ">
      <acc value="0.0323802539" flag="0"/>
      <vel value="0.0134150680" flag="0"/>
      <psa03 value="0.0950408093" flag="0"/>
      <psa10 value="0.0084489089" flag="0"/>
      <psa30 value="0.0018696971" flag="0"/>
    </comp>
    <comp name="--.HNE">
      <acc value="0.0841887814" flag="0"/>
      <vel value="0.0347763001" flag="0"/>
      <psa03 value="0.2470245391" flag="0"/>
      <psa10 value="0.0238219523" flag="0"/>
      <psa30 value="0.0027707451" flag="0"/>
    </comp>
  </station>
  <station code="DARE" name="DARE" netid="KO" insttype="CMG-3ESP" lat="38.5712" lon="37.4832">
    <comp name="--.HHN">
      <acc value="0.0341247824" flag="0"/>
      <vel value="0.0124480043" flag="0"/>
      <psa03 value="0.0938758570" flag="0"/>
      <psa10 value="0.0114248564" flag="0"/>
      <psa30 value="0.0023237960" flag="0"/>
    </comp>
    <comp name="--.HHZ">
      <acc value="0.0275890789" flag="0"/>
      <vel value="0.0089747656" flag="0"/>
      <psa03 value="0.0679267889" flag="0"/>
      <psa10 value="0.0092527782" flag="0"/>
      <psa30 value="0.0032924730" flag="0"/>
    </comp>
    <comp name="--.HHE">
      <acc value="0.0409197216" flag="0"/>
      <vel value="0.0144418361" flag="0"/>
      <psa03 value="0.0705840198" flag="0"/>
      <psa10 value="0.0080924950" flag="0"/>
      <psa30 value="0.0020931498" flag="0"/>
    </comp>
  </station>
  <station code="GAZ" name="GAZ" netid="KO" insttype="CMG-3T" lat="37.1721" lon="37.2096">
    <comp name="--.HHN">
      <acc value="0.0199940897" flag="0"/>
      <vel value="0.0092615317" flag="0"/>
      <psa03 value="0.0476799563" flag="0"/>
      <psa10 value="0.0077900607" flag="0"/>
      <psa30 value="0.0009723978" flag="0"/>
    </comp>
    <comp name="--.HHE">
      <acc value="0.0313512279" flag="0"/>
      <vel value="0.0131790495" flag="0"/>
      <psa03 value="0.0934322262" flag="0"/>
      <psa10 value="0.0108519817" flag="0"/>
      <psa30 value="0.0022723299" flag="0"/>
    </comp>
  </station>
  <station code="KHMN" name="KHMN" netid="KO" insttype="CMG-5T" lat="37.3916" lon="37.1574">
    <comp name="--.HNE">
      <acc value="0.0453893331" flag="0"/>
      <vel value="0.0133641425" flag="0"/>
      <psa03 value="0.0842458970" flag="0"/>
      <psa10 value="0.0069251442" flag="0"/>
      <psa30 value="0.0017515184" flag="0"/>
    </comp>
    <comp name="--.HNN">
      <acc value="0.0385522346" flag="0"/>
      <vel value="0.0126567294" flag="0"/>
      <psa03 value="0.0877061652" flag="0"/>
      <psa10 value="0.0093265370" flag="0"/>
      <psa30 value="0.0014025594" flag="0"/>
    </comp>
    <comp name="--.HNZ">
      <acc value="0.0208420319" flag="0"/>
      <vel value="0.0079523006" flag="0"/>
      <psa03 value="0.0448806082" flag="0"/>
      <psa10 value="0.0054612133" flag="0"/>
      <psa30 value="0.0027038647" flag="0"/>
    </comp>
  </station>
  <station code="KMRS" name="KMRS" netid="KO" insttype="CMG-3T" lat="37.5053" lon="36.9">
    <comp name="--.HHE">
      <acc value="0.0228334527" flag="0"/>
      <vel value="0.0129053576" flag="0"/>
      <psa03 value="0.0888912479" flag="0"/>
      <psa10 value="0.0114146422" flag="0"/>
      <psa30 value="0.0012334802" flag="0"/>
    </comp>
    <comp name="--.HHN">
      <acc value="0.0299676913" flag="0"/>
      <vel value="0.0197747454" flag="0"/>
      <psa03 value="0.1060572179" flag="0"/>
      <psa10 value="0.0158689493" flag="0"/>
      <psa30 value="0.0016495765" flag="0"/>
    </comp>
    <comp name="--.HHZ">
      <acc value="0.0180229879" flag="0"/>
      <vel value="0.0084632607" flag="0"/>
      <psa03 value="0.0492026079" flag="0"/>
      <psa10 value="0.0056013280" flag="0"/>
      <psa30 value="0.0010086901" flag="0"/>
    </comp>
  </station>
  <station code="URFA" name="URFA" netid="KO" insttype="CMG-3ESP" lat="37.4409" lon="38.8213">
    <comp name="--.HHZ">
      <acc value="0.1509778742" flag="0"/>
      <vel value="0.0378004516" flag="0"/>
      <psa03 value="0.0842644164" flag="0"/>
      <psa10 value="0.0095422124" flag="0"/>
      <psa30 value="0.0027996267" flag="0"/>
    </comp>
    <comp name="--.HHE">
      <acc value="0.2995001201" flag="0"/>
      <vel value="0.0524955887" flag="0"/>
      <psa03 value="0.1794102719" flag="0"/>
      <psa10 value="0.0158028346" flag="0"/>
      <psa30 value="0.0047318078" flag="0"/>
    </comp>
  </station>
</stationlist>
