<?xml version="1.0" encoding="UTF-8" standalone="yes"?>
<!DOCTYPE earthquake SYSTEM "stationlist.dtd">
<stationlist created="" xmlns="ch.ethz.sed.shakemap.usgs.xml">
  <station code="ARPRA" name="ARPRA" netid="KO" insttype="CMG-5T" lat="39.0929" lon="38.3356">
    <comp name="--.HNE">
      <acc value="0.0841887891" flag="0"/>
      <vel value="0.0347763017" flag="0"/>
      <psa03 value="0.2470245391" flag="0"/>
      <psa10 value="0.0238219524" flag="0"/>
      <psa30 value="0.0027710535" flag="0"/>
    </comp>
    <comp name="--.HNN">
      <acc value="0.0702617081" flag="0"/>
      <vel value="0.0278935056" flag="0"/>
      <psa03 value="0.2328590239" flag="0"/>
      <psa10 value="0.0208215334" flag="0"/>
      <psa30 value="0.0018029750" flag="0"/>
    </comp>
    <comp name="--.HNZ">
      <acc value="0.0323802478" flag="0"/>
      <vel value="0.0134150683" flag="0"/>
      <psa03 value="0.0950408093" flag="0"/>
      <psa10 value="0.0084489088" flag="0"/>
      <psa30 value="0.0018696998" flag="0"/>
    </comp>
  </station>
  <station code="DARE" name="DARE" netid="KO" insttype="CMG-3ESP" lat="38.5712" lon="37.4832">
    <comp name="--.HHN">
      <acc value="0.0341247821" flag="0"/>
      <vel value="0.0124480040" flag="0"/>
      <psa03 value="0.0938758570" flag="0"/>
      <psa10 value="0.0114248564" flag="0"/>
      <psa30 value="0.0023237969" flag="0"/>
    </comp>
    <comp name="--.HHZ">
      <acc value="0.0275890792" flag="0"/>
      <vel value="0.0089747658" flag="0"/>
      <psa03 value="0.0679267889" flag="0"/>
      <psa10 value="0.0092527783" flag="0"/>
      <psa30 value="0.0032924776" flag="0"/>
    </comp>
    <comp name="--.HHE">
      <acc value="0.0409197214" flag="0"/>
      <vel value="0.0144418352" flag="0"/>
      <psa03 value="0.0705840198" flag="0"/>
      <psa10 value="0.0080924950" flag="0"/>
      <psa30 value="0.0020931453" flag="0"/>
    </comp>
  </station>
  <station code="KHMN" name="KHMN" netid="KO" insttype="CMG-5T" lat="37.3916" lon="37.1574">
    <comp name="--.HNE">
      <acc value="0.0453894079" flag="0"/>
      <vel value="0.0133641449" flag="0"/>
      <psa03 value="0.0842458970" flag="0"/>
      <psa10 value="0.0069251454" flag="0"/>
      <psa30 value="0.0017514806" flag="0"/>
    </comp>
    <comp name="--.HNZ">
      <acc value="0.0208419194" flag="0"/>
      <vel value="0.0079523078" flag="0"/>
      <psa03 value="0.0448806082" flag="0"/>
      <psa10 value="0.0054612132" flag="0"/>
      <psa30 value="0.0027038890" flag="0"/>
    </comp>
    <comp name="--.HNN">
      <acc value="0.0385522200" flag="0"/>
      <vel value="0.0126567437" flag="0"/>
      <psa03 value="0.0877061652" flag="0"/>
      <psa10 value="0.0093265372" flag="0"/>
      <psa30 value="0.0014026414" flag="0"/>
    </comp>
  </station>
  <station code="URFA" name="URFA" netid="KO" insttype="CMG-3ESP" lat="37.4409" lon="38.8213">
    <comp name="--.HHE">
      <acc value="0.2995001205" flag="0"/>
      <vel value="0.0524955887" flag="0"/>
      <psa03 value="0.1794102719" flag="0"/>
      <psa10 value="0.0158028346" flag="0"/>
      <psa30 value="0.0047318076" flag="0"/>
    </comp>
    <comp name="--.HHZ">
      <acc value="0.1509778743" flag="0"/>
      <vel value="0.0378004492" flag="0"/>
      <psa03 value="0.0842644164" flag="0"/>
      <psa10 value="0.0095422124" flag="0"/>
      <psa30 value="0.0027996228" flag="0"/>
    </comp>
  </station>
</stationlist>
