<?xml version="1.0" encoding="UTF-8" standalone="yes"?>
<!DOCTYPE earthquake SYSTEM "stationlist.dtd">
<stationlist created="" xmlns="ch.ethz.sed.shakemap.usgs.xml">
  <station code="ARPRA" name="ARPRA" netid="KO" insttype="CMG-5T" lat="39.0929" lon="38.3356">
    <comp name="--.HNE">
      <acc value="0.0841887792" flag="0"/>
      <vel value="0.0347763092" flag="0"/>
      <psa03 value="0.2470245391" flag="0"/>
      <psa10 value="0.0238219518" flag="0"/>
      <psa30 value="0.0027698301" flag="0"/>
    </comp>
    <comp name="--.HNZ">
      <acc value="0.0323802514" flag="0"/>
      <vel value="0.0134150643" flag="0"/>
      <psa03 value="0.0950408093" flag="0"/>
      <psa10 value="0.0084489090" flag="0"/>
      <psa30 value="0.0018696932" flag="0"/>
    </comp>
    <comp name="--.HNN">
      <acc value="0.0702617171" flag="0"/>
      <vel value="0.0278935110" flag="0"/>
      <psa03 value="0.2328590239" flag="0"/>
      <psa10 value="0.0208215334" flag="0"/>
      <psa30 value="0.0018029684" flag="0"/>
    </comp>
  </station>
  <station code="GAZ" name="GAZ" netid="KO" insttype="CMG-3T" lat="37.1721" lon="37.2096">
    <comp name="--.HHE">
      <acc value="0.0313512276" flag="0"/>
      <vel value="0.0131790495" flag="0"/>
      <psa03 value="0.0934322262" flag="0"/>
      <psa10 value="0.0108519817" flag="0"/>
      <psa30 value="0.0022723305" flag="0"/>
    </comp>
    <comp name="--.HHN">
      <acc value="0.0199940899" flag="0"/>
      <vel value="0.0092615320" flag="0"/>
      <psa03 value="0.0476799563" flag="0"/>
      <psa10 value="0.0077900607" flag="0"/>
      <psa30 value="0.0009723983" flag="0"/>
    </comp>
  </station>
  <station code="KHMN" name="KHMN" netid="KO" insttype="CMG-5T" lat="37.3916" lon="37.1574">
    <comp name="--.HNE">
      <acc value="0.0453893159" flag="0"/>
      <vel value="0.0133641401" flag="0"/>
      <psa03 value="0.0842458970" flag="0"/>
      <psa10 value="0.0069251461" flag="0"/>
      <psa30 value="0.0017514956" flag="0"/>
    </comp>
    <comp name="--.HNN">
      <acc value="0.0385522225" flag="0"/>
      <vel value="0.0126567471" flag="0"/>
      <psa03 value="0.0877061652" flag="0"/>
      <psa10 value="0.0093265372" flag="0"/>
      <psa30 value="0.0014026585" flag="0"/>
    </comp>
    <comp name="--.HNZ">
      <acc value="0.0208420363" flag="0"/>
      <vel value="0.0079523108" flag="0"/>
      <psa03 value="0.0448806082" flag="0"/>
      <psa10 value="0.0054612132" flag="0"/>
      <psa30 value="0.0027038833" flag="0"/>
    </comp>
  </station>
  <station code="KMRS" name="KMRS" netid="KO" insttype="CMG-3T" lat="37.5053" lon="36.9">
    <comp name="--.HHE">
      <acc value="0.0228334528" flag="0"/>
      <vel value="0.0129053575" flag="0"/>
      <psa03 value="0.0888912479" flag="0"/>
      <psa10 value="0.0114146422" flag="0"/>
      <psa30 value="0.0012334807" flag="0"/>
    </comp>
    <comp name="--.HHN">
      <acc value="0.0299676911" flag="0"/>
      <vel value="0.0197747452" flag="0"/>
      <psa03 value="0.1060572179" flag="0"/>
      <psa10 value="0.0158689493" flag="0"/>
      <psa30 value="0.0016495600" flag="0"/>
    </comp>
    <comp name="--.HHZ">
      <acc value="0.0180229879" flag="0"/>
      <vel value="0.0084632603" flag="0"/>
      <psa03 value="0.0492026079" flag="0"/>
      <psa10 value="0.0056013280" flag="0"/>
      <psa30 value="0.0010086851" flag="0"/>
    </comp>
  </station>
  <station code="SARI" name="SARI" netid="KO" insttype="CMG-3T" lat="38.4072" lon="36.4181">
    <comp name="--.HHN">
      <acc value="0.0294777352" flag="0"/>
      <vel value="0.0125102880" flag="0"/>
      <psa03 value="0.0530605073" flag="0"/>
      <psa10 value="0.0087529937" flag="0"/>
      <psa30 value="0.0015318828" flag="0"/>
    </comp>
    <comp name="--.HHE">
      <acc value="0.0337860802" flag="0"/>
      <vel value="0.0153141271" flag="0"/>
      <psa03 value="0.0908744141" flag="0"/>
      <psa10 value="0.0227834788" flag="0"/>
      <psa30 value="0.0009749174" flag="0"/>
    </comp>
    <comp name="--.HHZ">
      <acc value="0.0175622911" flag="0"/>
      <vel value="0.0166968050" flag="0"/>
      <psa03 value="0.0625926868" flag="0"/>
      <psa10 value="0.0248577210" flag="0"/>
      <psa30 value="0.0017252576" flag="0"/>
    </comp>
  </station>
  <station code="URFA" name="URFA" netid="KO" insttype="CMG-3ESP" lat="37.4409" lon="38.8213">
    <comp name="--.HHZ">
      <acc value="0.1509778742" flag="0"/>
      <vel value="0.0378004518" flag="0"/>
      <psa03 value="0.0842644164" flag="0"/>
      <psa10 value="0.0095422124" flag="0"/>
      <psa30 value="0.0027996255" flag="0"/>
    </comp>
    <comp name="--.HHE">
      <acc value="0.2995001200" flag="0"/>
      <vel value="0.0524955878" flag="0"/>
      <psa03 value="0.1794102719" flag="0"/>
      <psa10 value="0.0158028346" flag="0"/>
      <psa30 value="0.0047318087" flag="0"/>
    </comp>
  </station>
</stationlist>
