<?xml version="1.0" encoding="UTF-8" standalone="yes"?>
<!DOCTYPE earthquake SYSTEM "stationlist.dtd">
<stationlist created="" xmlns="ch.ethz.sed.shakemap.usgs.xml">
  <station code="IT08A" name="IT08A" netid="4P" insttype="" lat="44.9839" lon="12.0697">
    <comp name="--.HHE">
      <acc value="0.2744652861" flag="0"/>
      <vel value="0.1290562421" flag="0"/>
      <psa03 value="0.9044994739" flag="0"/>
      <psa10 value="0.0405025759" flag="0"/>
      <psa30 value="0.0043872192" flag="0"/>
    </comp>
    <comp name="--.HHN">
      <acc value="0.3567491628" flag="0"/>
      <vel value="0.1397881581" flag="0"/>
      <psa03 value="0.7842632043" flag="0"/>
      <psa10 value="0.0708200368" flag="0"/>
      <psa30 value="0.0066420280" flag="0"/>
    </comp>
    <comp name="--.HHZ">
      <acc value="0.1044190140" flag="0"/>
      <vel value="0.0277886699" flag="0"/>
      <psa03 value="0.1721687521" flag="0"/>
      <psa10 value="0.0102068928" flag="0"/>
      <psa30 value="0.0006077194" flag="0"/>
    </comp>
  </station>
  <station code="IT09A" name="IT09A" netid="4P" insttype="" lat="44.6605" lon="11.4359">
    <comp name="--.HHN">
      <acc value="0.5797590913" flag="0"/>
      <vel value="0.2449749833" flag="0"/>
      <psa03 value="0.8480865576" flag="0"/>
      <psa10 value="0.1126098040" flag="0"/>
      <psa30 value="0.0054704149" flag="0"/>
    </comp>
    <comp name="--.HHZ">
      <acc value="0.1104555307" flag="0"/>
      <vel value="0.0339571000" flag="0"/>
      <psa03 value="0.1392049841" flag="0"/>
      <psa10 value="0.0148958558" flag="0"/>
      <psa30 value="0.0007986563" flag="0"/>
    </comp>
    <comp name="--.HHE">
      <acc value="0.5325198360" flag="0"/>
      <vel value="0.1603405650" flag="0"/>
      <psa03 value="0.6230976875" flag="0"/>
      <psa10 value="0.0670931497" flag="0"/>
      <psa30 value="0.0070513549" flag="0"/>
    </comp>
  </station>
  <station code="GRAM" name="GRAM" netid="GU" insttype="" lat="44.4904" lon="10.065">
    <comp name="--.HHE">
      <acc value="0.0489286669" flag="0"/>
      <vel value="0.0167980309" flag="0"/>
      <psa03 value="0.1249049215" flag="0"/>
      <psa10 value="0.0064111253" flag="0"/>
      <psa30 value="0.0004656235" flag="0"/>
    </comp>
    <comp name="--.HHN">
      <acc value="0.0330885959" flag="0"/>
      <vel value="0.0146793099" flag="0"/>
      <psa03 value="0.0996309984" flag="0"/>
      <psa10 value="0.0103981792" flag="0"/>
      <psa30 value="0.0006200461" flag="0"/>
    </comp>
    <comp name="--.HHZ">
      <acc value="0.0201632078" flag="0"/>
      <vel value="0.0062649298" flag="0"/>
      <psa03 value="0.0344403427" flag="0"/>
      <psa10 value="0.0031002617" flag="0"/>
      <psa30 value="0.0002731129" flag="0"/>
    </comp>
  </station>
  <station code="GSCL" name="GSCL" netid="GU" insttype="" lat="44.3506" lon="10.588">
    <comp name="--.HHE">
      <acc value="0.0378026660" flag="0"/>
      <vel value="0.0178779746" flag="0"/>
      <psa03 value="0.1043373928" flag="0"/>
      <psa10 value="0.0073913714" flag="0"/>
      <psa30 value="0.0005614332" flag="0"/>
    </comp>
    <comp name="--.HHN">
      <acc value="0.0270705783" flag="0"/>
      <vel value="0.0130210426" flag="0"/>
      <psa03 value="0.0538840969" flag="0"/>
      <psa10 value="0.0094233324" flag="0"/>
      <psa30 value="0.0005697474" flag="0"/>
    </comp>
    <comp name="--.HHZ">
      <acc value="0.0104427578" flag="0"/>
      <vel value="0.0046500362" flag="0"/>
      <psa03 value="0.0261902966" flag="0"/>
      <psa10 value="0.0031433591" flag="0"/>
      <psa30 value="0.0002249383" flag="0"/>
    </comp>
  </station>
  <station code="POPM" name="POPM" netid="GU" insttype="" lat="44.045" lon="10.757">
    <comp name="--.HHE">
      <acc value="0.0260790974" flag="0"/>
      <vel value="0.0097733679" flag="0"/>
      <psa03 value="0.0512969901" flag="0"/>
      <psa10 value="0.0041694226" flag="0"/>
      <psa30 value="0.0002475008" flag="0"/>
    </comp>
    <comp name="--.HHN">
      <acc value="0.0295744788" flag="0"/>
      <vel value="0.0105442146" flag="0"/>
      <psa03 value="0.0575203631" flag="0"/>
      <psa10 value="0.0058965110" flag="0"/>
      <psa30 value="0.0003847947" flag="0"/>
    </comp>
    <comp name="--.HHZ">
      <acc value="0.0146766423" flag="0"/>
      <vel value="0.0044612379" flag="0"/>
      <psa03 value="0.0336004227" flag="0"/>
      <psa10 value="0.0031077799" flag="0"/>
      <psa30 value="0.0001455220" flag="0"/>
    </comp>
  </station>
  <station code="ASOL" name="ASOL" netid="IV" insttype="" lat="45.8003" lon="11.9023">
    <comp name="--.HNE">
      <acc value="0.1876262537" flag="0"/>
      <vel value="0.0751105763" flag="0"/>
      <psa03 value="0.3896262137" flag="0"/>
      <psa10 value="0.0268803033" flag="0"/>
      <psa30 value="0.0029305481" flag="0"/>
    </comp>
    <comp name="--.HNN">
      <acc value="0.1886597169" flag="0"/>
      <vel value="0.0658937223" flag="0"/>
      <psa03 value="0.2357160235" flag="0"/>
      <psa10 value="0.0328794435" flag="0"/>
      <psa30 value="0.0020099457" flag="0"/>
    </comp>
    <comp name="--.HNZ">
      <acc value="0.1351051648" flag="0"/>
      <vel value="0.0339773780" flag="0"/>
      <psa03 value="0.1476629701" flag="0"/>
      <psa10 value="0.0130907620" flag="0"/>
      <psa30 value="0.0017630401" flag="0"/>
    </comp>
  </station>
  <station code="BAG8" name="BAG8" netid="IV" insttype="" lat="45.8228" lon="10.4664">
    <comp name="--.HNE">
      <acc value="0.0674684145" flag="0"/>
      <vel value="0.0135194959" flag="0"/>
      <psa03 value="0.0476842647" flag="0"/>
      <psa10 value="0.0082080127" flag="0"/>
      <psa30 value="0.0006263085" flag="0"/>
    </comp>
    <comp name="--.HNN">
      <acc value="0.0684150737" flag="0"/>
      <vel value="0.0119690829" flag="0"/>
      <psa03 value="0.0516357317" flag="0"/>
      <psa10 value="0.0053072119" flag="0"/>
      <psa30 value="0.0002862507" flag="0"/>
    </comp>
    <comp name="--.HNZ">
      <acc value="0.0396283616" flag="0"/>
      <vel value="0.0102560115" flag="0"/>
      <psa03 value="0.0269179188" flag="0"/>
      <psa10 value="0.0034620640" flag="0"/>
      <psa30 value="0.0003206013" flag="0"/>
    </comp>
  </station>
  <station code="BDI" name="BDI" netid="IV" insttype="" lat="44.0624" lon="10.597">
    <comp name="--.HHE">
      <acc value="0.0179853674" flag="0"/>
      <vel value="0.0063499016" flag="0"/>
      <psa03 value="0.0490847826" flag="0"/>
      <psa10 value="0.0032117831" flag="0"/>
      <psa30 value="0.0001918928" flag="0"/>
    </comp>
    <comp name="--.HHN">
      <acc value="0.0184450805" flag="0"/>
      <vel value="0.0075745042" flag="0"/>
      <psa03 value="0.0553909400" flag="0"/>
      <psa10 value="0.0035039859" flag="0"/>
      <psa30 value="0.0003883107" flag="0"/>
    </comp>
    <comp name="--.HHZ">
      <acc value="0.0106503058" flag="0"/>
      <vel value="0.0051166971" flag="0"/>
      <psa03 value="0.0243251116" flag="0"/>
      <psa10 value="0.0019640680" flag="0"/>
      <psa30 value="0.0001442249" flag="0"/>
    </comp>
  </station>
  <station code="BOSL" name="BOSL" netid="IV" insttype="" lat="43.931" lon="11.3743">
    <comp name="--.HHE">
      <acc value="0.0047673789" flag="0"/>
      <vel value="0.0022220686" flag="0"/>
      <psa03 value="0.0114409521" flag="0"/>
      <psa10 value="0.0015138123" flag="0"/>
      <psa30 value="0.0001130828" flag="0"/>
    </comp>
    <comp name="--.HHN">
      <acc value="0.0037372490" flag="0"/>
      <vel value="0.0016342715" flag="0"/>
      <psa03 value="0.0094887097" flag="0"/>
      <psa10 value="0.0014043019" flag="0"/>
      <psa30 value="0.0001079559" flag="0"/>
    </comp>
    <comp name="--.HHZ">
      <acc value="0.0031078934" flag="0"/>
      <vel value="0.0008670223" flag="0"/>
      <psa03 value="0.0050093239" flag="0"/>
      <psa10 value="0.0006540917" flag="0"/>
      <psa30 value="0.0000791750" flag="0"/>
    </comp>
  </station>
  <station code="BOZZ" name="BOZZ" netid="IV" insttype="" lat="45.1071" lon="10.482">
    <comp name="--.HHE">
      <acc value="0.0445182948" flag="0"/>
      <vel value="0.0205792485" flag="0"/>
      <psa03 value="0.1257581410" flag="0"/>
      <psa10 value="0.0311030460" flag="0"/>
      <psa30 value="0.0032447548" flag="0"/>
    </comp>
    <comp name="--.HHN">
      <acc value="0.0582970215" flag="0"/>
      <vel value="0.0236202310" flag="0"/>
      <psa03 value="0.1414771363" flag="0"/>
      <psa10 value="0.0195679363" flag="0"/>
      <psa30 value="0.0028558692" flag="0"/>
    </comp>
    <comp name="--.HHZ">
      <acc value="0.0458141999" flag="0"/>
      <vel value="0.0106014872" flag="0"/>
      <psa03 value="0.0630114594" flag="0"/>
      <psa10 value="0.0066423417" flag="0"/>
      <psa30 value="0.0005869327" flag="0"/>
    </comp>
  </station>
  <station code="CNCS" name="CNCS" netid="IV" insttype="" lat="45.606" lon="10.217">
    <comp name="--.HNE">
      <acc value="0.0622370279" flag="0"/>
      <vel value="0.0241711191" flag="0"/>
      <psa03 value="0.1762545358" flag="0"/>
      <psa10 value="0.0114625107" flag="0"/>
      <psa30 value="0.0007077823" flag="0"/>
    </comp>
    <comp name="--.HNN">
      <acc value="0.0533160575" flag="0"/>
      <vel value="0.0210451002" flag="0"/>
      <psa03 value="0.1334564085" flag="0"/>
      <psa10 value="0.0086268953" flag="0"/>
      <psa30 value="0.0005665188" flag="0"/>
    </comp>
    <comp name="--.HNZ">
      <acc value="0.0335822952" flag="0"/>
      <vel value="0.0133412806" flag="0"/>
      <psa03 value="0.0918582184" flag="0"/>
      <psa10 value="0.0046422262" flag="0"/>
      <psa30 value="0.0004887537" flag="0"/>
    </comp>
  </station>
  <station code="CRND" name="CRND" netid="IV" insttype="" lat="45.8361" lon="12.0131">
    <comp name="--.HNE">
      <acc value="0.0507579641" flag="0"/>
      <vel value="0.0113649675" flag="0"/>
      <psa03 value="0.0890973207" flag="0"/>
      <psa10 value="0.0074321873" flag="0"/>
      <psa30 value="0.0005072011" flag="0"/>
    </comp>
    <comp name="--.HNN">
      <acc value="0.0547214485" flag="0"/>
      <vel value="0.0147846819" flag="0"/>
      <psa03 value="0.0707833279" flag="0"/>
      <psa10 value="0.0082804677" flag="0"/>
      <psa30 value="0.0004772322" flag="0"/>
    </comp>
    <comp name="--.HNZ">
      <acc value="0.1254309406" flag="0"/>
      <vel value="0.0234120744" flag="0"/>
      <psa03 value="0.0410187659" flag="0"/>
      <psa10 value="0.0038720619" flag="0"/>
      <psa30 value="0.0003597485" flag="0"/>
    </comp>
  </station>
  <station code="CTI" name="CTI" netid="IV" insttype="" lat="46.0482" lon="11.6497">
    <comp name="--.HHE">
      <acc value="0.1440142284" flag="0"/>
      <vel value="0.0195144356" flag="0"/>
      <psa03 value="0.0713034383" flag="0"/>
      <psa10 value="0.0118639427" flag="0"/>
      <psa30 value="0.0004819203" flag="0"/>
    </comp>
    <comp name="--.HHZ">
      <acc value="0.0387751206" flag="0"/>
      <vel value="0.0078009412" flag="0"/>
      <psa03 value="0.0361247146" flag="0"/>
      <psa10 value="0.0037141400" flag="0"/>
      <psa30 value="0.0002960681" flag="0"/>
    </comp>
    <comp name="--.HHN">
      <acc value="0.0875800260" flag="0"/>
      <vel value="0.0184978836" flag="0"/>
      <psa03 value="0.0709977122" flag="0"/>
      <psa10 value="0.0054952755" flag="0"/>
      <psa30 value="0.0004364074" flag="0"/>
    </comp>
  </station>
  <station code="FERS" name="FERS" netid="IV" insttype="" lat="44.9035" lon="11.5406">
    <comp name="--.HNE">
      <acc value="0.5169478650" flag="0"/>
      <vel value="0.1959287742" flag="0"/>
      <psa03 value="0.6993524996" flag="0"/>
      <psa10 value="0.1107052791" flag="0"/>
      <psa30 value="0.0074789545" flag="0"/>
    </comp>
    <comp name="--.HNN">
      <acc value="0.5053745054" flag="0"/>
      <vel value="0.0837461783" flag="0"/>
      <psa03 value="0.5214033312" flag="0"/>
      <psa10 value="0.0483829489" flag="0"/>
      <psa30 value="0.0036585267" flag="0"/>
    </comp>
    <comp name="--.HNZ">
      <acc value="0.2762625759" flag="0"/>
      <vel value="0.0538717397" flag="0"/>
      <psa03 value="0.1971769907" flag="0"/>
      <psa10 value="0.0211599416" flag="0"/>
      <psa30 value="0.0010975435" flag="0"/>
    </comp>
  </station>
  <station code="LMD" name="LMD" netid="IV" insttype="" lat="44.0775" lon="11.7073">
    <comp name="--.HHE">
      <acc value="0.0497713552" flag="0"/>
      <vel value="0.0151309669" flag="0"/>
      <psa03 value="0.0808881148" flag="0"/>
      <psa10 value="0.0072571194" flag="0"/>
      <psa30 value="0.0003747898" flag="0"/>
    </comp>
    <comp name="--.HHN">
      <acc value="0.0514804893" flag="0"/>
      <vel value="0.0166217546" flag="0"/>
      <psa03 value="0.0857954460" flag="0"/>
      <psa10 value="0.0077531381" flag="0"/>
      <psa30 value="0.0004943423" flag="0"/>
    </comp>
    <comp name="--.HHZ">
      <acc value="0.0173035776" flag="0"/>
      <vel value="0.0065149787" flag="0"/>
      <psa03 value="0.0322455470" flag="0"/>
      <psa10 value="0.0036959871" flag="0"/>
      <psa30 value="0.0003777531" flag="0"/>
    </comp>
  </station>
  <station code="MAGA" name="MAGA" netid="IV" insttype="" lat="45.7753" lon="10.6286">
    <comp name="--.HHE">
      <acc value="0.1262731641" flag="0"/>
      <vel value="0.0489161335" flag="0"/>
      <psa03 value="0.1989068299" flag="0"/>
      <psa10 value="0.0447017349" flag="0"/>
      <psa30 value="0.0021908093" flag="0"/>
    </comp>
    <comp name="--.HHZ">
      <acc value="0.0398760647" flag="0"/>
      <vel value="0.0119887187" flag="0"/>
      <psa03 value="0.0626531772" flag="0"/>
      <psa10 value="0.0061838050" flag="0"/>
      <psa30 value="0.0003990497" flag="0"/>
    </comp>
    <comp name="--.HHN">
      <acc value="0.1079937077" flag="0"/>
      <vel value="0.0485886757" flag="0"/>
      <psa03 value="0.1965819350" flag="0"/>
      <psa10 value="0.0162470647" flag="0"/>
      <psa30 value="0.0011631527" flag="0"/>
    </comp>
  </station>
  <station code="MBAL" name="MBAL" netid="IV" insttype="" lat="45.6975" lon="10.8589">
    <comp name="--.HHE">
      <acc value="0.2914192100" flag="0"/>
      <vel value="0.0472927533" flag="0"/>
      <psa03 value="0.0676158712" flag="0"/>
      <psa10 value="0.0063633179" flag="0"/>
      <psa30 value="0.0004908839" flag="0"/>
    </comp>
    <comp name="--.HHN">
      <acc value="0.1083303045" flag="0"/>
      <vel value="0.0221214480" flag="0"/>
      <psa03 value="0.0921593472" flag="0"/>
      <psa10 value="0.0068084740" flag="0"/>
      <psa30 value="0.0004265822" flag="0"/>
    </comp>
    <comp name="--.HHZ">
      <acc value="0.0644009612" flag="0"/>
      <vel value="0.0091341947" flag="0"/>
      <psa03 value="0.0485930048" flag="0"/>
      <psa10 value="0.0072884723" flag="0"/>
      <psa30 value="0.0002466486" flag="0"/>
    </comp>
  </station>
  <station code="MODE" name="MODE" netid="IV" insttype="" lat="44.6297" lon="10.9492">
    <comp name="--.HNE">
      <acc value="0.1660257523" flag="0"/>
      <vel value="0.0796640064" flag="0"/>
      <psa03 value="0.3745760267" flag="0"/>
      <psa10 value="0.0715834463" flag="0"/>
      <psa30 value="0.0047794131" flag="0"/>
    </comp>
    <comp name="--.HNN">
      <acc value="0.1188071067" flag="0"/>
      <vel value="0.0555378530" flag="0"/>
      <psa03 value="0.2505754770" flag="0"/>
      <psa10 value="0.0347712535" flag="0"/>
      <psa30 value="0.0020566074" flag="0"/>
    </comp>
    <comp name="--.HNZ">
      <acc value="0.1897078761" flag="0"/>
      <vel value="0.0725033826" flag="0"/>
      <psa03 value="0.5639837073" flag="0"/>
      <psa10 value="0.0256203608" flag="0"/>
      <psa30 value="0.0024257104" flag="0"/>
    </comp>
  </station>
  <station code="MTRZ" name="MTRZ" netid="IV" insttype="" lat="44.3128" lon="11.4248">
    <comp name="--.HHN">
      <acc value="0.0597005650" flag="0"/>
      <vel value="0.0273368801" flag="0"/>
      <psa03 value="0.1376362103" flag="0"/>
      <psa10 value="0.0195569359" flag="0"/>
      <psa30 value="0.0017304525" flag="0"/>
    </comp>
    <comp name="--.HHE">
      <acc value="0.0467680248" flag="0"/>
      <vel value="0.0257319615" flag="0"/>
      <psa03 value="0.1142731725" flag="0"/>
      <psa10 value="0.0151192469" flag="0"/>
      <psa30 value="0.0017277304" flag="0"/>
    </comp>
    <comp name="--.HHZ">
      <acc value="0.0197197799" flag="0"/>
      <vel value="0.0105118304" flag="0"/>
      <psa03 value="0.0491199320" flag="0"/>
      <psa10 value="0.0081590106" flag="0"/>
      <psa30 value="0.0006055289" flag="0"/>
    </comp>
  </station>
  <station code="NDIM" name="NDIM" netid="IV" insttype="" lat="44.8873" lon="10.8987">
    <comp name="--.HHE">
      <acc value="0.1053296533" flag="0"/>
      <vel value="0.0414542069" flag="0"/>
      <psa03 value="0.1973699313" flag="0"/>
      <psa10 value="0.0096368336" flag="0"/>
      <psa30 value="0.0013311546" flag="0"/>
    </comp>
    <comp name="--.HHN">
      <acc value="0.3199296071" flag="0"/>
      <vel value="0.1313305801" flag="0"/>
      <psa03 value="0.9127577719" flag="0"/>
      <psa10 value="0.0567361912" flag="0"/>
      <psa30 value="0.0055872910" flag="0"/>
    </comp>
    <comp name="--.HHZ">
      <acc value="0.0857389797" flag="0"/>
      <vel value="0.0260060450" flag="0"/>
      <psa03 value="0.1404464438" flag="0"/>
      <psa10 value="0.0139296603" flag="0"/>
      <psa30 value="0.0009846158" flag="0"/>
    </comp>
  </station>
  <station code="NEVI" name="NEVI" netid="IV" insttype="" lat="44.5834" lon="10.3163">
    <comp name="--.HNZ">
      <acc value="0.0162633522" flag="0"/>
      <vel value="0.0041343647" flag="0"/>
      <psa03 value="0.0373407097" flag="0"/>
      <psa10 value="0.0044714387" flag="0"/>
      <psa30 value="0.0003389516" flag="0"/>
    </comp>
    <comp name="--.HNE">
      <acc value="0.0348196712" flag="0"/>
      <vel value="0.0151969011" flag="0"/>
      <psa03 value="0.1097727790" flag="0"/>
      <psa10 value="0.0065018939" flag="0"/>
      <psa30 value="0.0004360714" flag="0"/>
    </comp>
    <comp name="--.HNN">
      <acc value="0.0392733831" flag="0"/>
      <vel value="0.0165141152" flag="0"/>
      <psa03 value="0.1013384853" flag="0"/>
      <psa10 value="0.0115620481" flag="0"/>
      <psa30 value="0.0009888457" flag="0"/>
    </comp>
  </station>
  <station code="PRMA" name="PRMA" netid="IV" insttype="" lat="44.7637" lon="10.3131">
    <comp name="--.HNE">
      <acc value="0.0361799117" flag="0"/>
      <vel value="0.0123635398" flag="0"/>
      <psa03 value="0.0674823949" flag="0"/>
      <psa10 value="0.0071230147" flag="0"/>
      <psa30 value="0.0005646057" flag="0"/>
    </comp>
    <comp name="--.HNN">
      <acc value="0.0451796752" flag="0"/>
      <vel value="0.0138660222" flag="0"/>
      <psa03 value="0.0929262603" flag="0"/>
      <psa10 value="0.0092077096" flag="0"/>
      <psa30 value="0.0007871942" flag="0"/>
    </comp>
    <comp name="--.HNZ">
      <acc value="0.0208433660" flag="0"/>
      <vel value="0.0053489466" flag="0"/>
      <psa03 value="0.0300939162" flag="0"/>
      <psa10 value="0.0031124547" flag="0"/>
      <psa30 value="0.0002751929" flag="0"/>
    </comp>
  </station>
  <station code="ROVR" name="ROVR" netid="IV" insttype="" lat="45.6468" lon="11.0721">
    <comp name="--.HHE">
      <acc value="0.0831538695" flag="0"/>
      <vel value="0.0244356105" flag="0"/>
      <psa03 value="0.2517638630" flag="0"/>
      <psa10 value="0.0135356998" flag="0"/>
      <psa30 value="0.0007082202" flag="0"/>
    </comp>
    <comp name="--.HHN">
      <acc value="0.1797962132" flag="0"/>
      <vel value="0.0533583528" flag="0"/>
      <psa03 value="0.5488641726" flag="0"/>
      <psa10 value="0.0189161773" flag="0"/>
      <psa30 value="0.0011977618" flag="0"/>
    </comp>
