<?xml version="1.0" encoding="UTF-8" standalone="yes"?>
<!DOCTYPE earthquake SYSTEM "stationlist.dtd">
<stationlist created="" xmlns="ch.ethz.sed.shakemap.usgs.xml">
  <station code="IT08A" name="IT08A" netid="4P" insttype="" lat="44.9839" lon="12.0697">
    <comp name="--.HHN">
      <acc value="0.3567491627" flag="0"/>
      <vel value="0.1397881589" flag="0"/>
      <psa03 value="0.7842632043" flag="0"/>
      <psa10 value="0.0708200374" flag="0"/>
      <psa30 value="0.0066421941" flag="0"/>
    </comp>
    <comp name="--.HHZ">
      <acc value="0.1044190140" flag="0"/>
      <vel value="0.0277886718" flag="0"/>
      <psa03 value="0.1721687521" flag="0"/>
      <psa10 value="0.0102068927" flag="0"/>
      <psa30 value="0.0006077870" flag="0"/>
    </comp>
    <comp name="--.HHE">
      <acc value="0.2744652862" flag="0"/>
      <vel value="0.1290562440" flag="0"/>
      <psa03 value="0.9044994739" flag="0"/>
      <psa10 value="0.0405025799" flag="0"/>
      <psa30 value="0.0043872150" flag="0"/>
    </comp>
  </station>
  <station code="IT09A" name="IT09A" netid="4P" insttype="" lat="44.6605" lon="11.4359">
    <comp name="--.HHE">
      <acc value="0.5325198360" flag="0"/>
      <vel value="0.1603405666" flag="0"/>
      <psa03 value="0.6230976875" flag="0"/>
      <psa10 value="0.0670931581" flag="0"/>
      <psa30 value="0.0070509232" flag="0"/>
    </comp>
    <comp name="--.HHN">
      <acc value="0.5797590912" flag="0"/>
      <vel value="0.2449749869" flag="0"/>
      <psa03 value="0.8480865576" flag="0"/>
      <psa10 value="0.1126098018" flag="0"/>
      <psa30 value="0.0054697102" flag="0"/>
    </comp>
    <comp name="--.HHZ">
      <acc value="0.1104555306" flag="0"/>
      <vel value="0.0339571002" flag="0"/>
      <psa03 value="0.1392049841" flag="0"/>
      <psa10 value="0.0148958555" flag="0"/>
      <psa30 value="0.0007993312" flag="0"/>
    </comp>
  </station>
  <station code="GRAM" name="GRAM" netid="GU" insttype="" lat="44.4904" lon="10.065">
    <comp name="--.HHE">
      <acc value="0.0489286644" flag="0"/>
      <vel value="0.0167980297" flag="0"/>
      <psa03 value="0.1249049215" flag="0"/>
      <psa10 value="0.0064111253" flag="0"/>
      <psa30 value="0.0004656182" flag="0"/>
    </comp>
    <comp name="--.HHZ">
      <acc value="0.0201632079" flag="0"/>
      <vel value="0.0062649294" flag="0"/>
      <psa03 value="0.0344403427" flag="0"/>
      <psa10 value="0.0031002617" flag="0"/>
      <psa30 value="0.0002730968" flag="0"/>
    </comp>
    <comp name="--.HHN">
      <acc value="0.0330885948" flag="0"/>
      <vel value="0.0146793103" flag="0"/>
      <psa03 value="0.0996309984" flag="0"/>
      <psa10 value="0.0103981792" flag="0"/>
      <psa30 value="0.0006200378" flag="0"/>
    </comp>
  </station>
  <station code="GSCL" name="GSCL" netid="GU" insttype="" lat="44.3506" lon="10.588">
    <comp name="--.HHE">
      <acc value="0.0378026660" flag="0"/>
      <vel value="0.0178779743" flag="0"/>
      <psa03 value="0.1043373928" flag="0"/>
      <psa10 value="0.0073913714" flag="0"/>
      <psa30 value="0.0005614165" flag="0"/>
    </comp>
    <comp name="--.HHN">
      <acc value="0.0270705783" flag="0"/>
      <vel value="0.0130210425" flag="0"/>
      <psa03 value="0.0538840969" flag="0"/>
      <psa10 value="0.0094233325" flag="0"/>
      <psa30 value="0.0005697315" flag="0"/>
    </comp>
    <comp name="--.HHZ">
      <acc value="0.0104427578" flag="0"/>
      <vel value="0.0046500371" flag="0"/>
      <psa03 value="0.0261902966" flag="0"/>
      <psa10 value="0.0031433591" flag="0"/>
      <psa30 value="0.0002249461" flag="0"/>
    </comp>
  </station>
  <station code="POPM" name="POPM" netid="GU" insttype="" lat="44.045" lon="10.757">
    <comp name="--.HHE">
      <acc value="0.0260790974" flag="0"/>
      <vel value="0.0097733680" flag="0"/>
      <psa03 value="0.0512969901" flag="0"/>
      <psa10 value="0.0041694226" flag="0"/>
      <psa30 value="0.0002475022" flag="0"/>
    </comp>
    <comp name="--.HHN">
      <acc value="0.0295744788" flag="0"/>
      <vel value="0.0105442146" flag="0"/>
      <psa03 value="0.0575203631" flag="0"/>
      <psa10 value="0.0058965110" flag="0"/>
      <psa30 value="0.0003847966" flag="0"/>
    </comp>
    <comp name="--.HHZ">
      <acc value="0.0146766423" flag="0"/>
      <vel value="0.0044612378" flag="0"/>
      <psa03 value="0.0336004227" flag="0"/>
      <psa10 value="0.0031077799" flag="0"/>
      <psa30 value="0.0001455279" flag="0"/>
    </comp>
  </station>
  <station code="ASOL" name="ASOL" netid="IV" insttype="" lat="45.8003" lon="11.9023">
    <comp name="--.HNE">
      <acc value="0.1876262537" flag="0"/>
      <vel value="0.0751105765" flag="0"/>
      <psa03 value="0.3896262137" flag="0"/>
      <psa10 value="0.0268803033" flag="0"/>
      <psa30 value="0.0029305289" flag="0"/>
    </comp>
    <comp name="--.HNN">
      <acc value="0.1886597169" flag="0"/>
      <vel value="0.0658937222" flag="0"/>
      <psa03 value="0.2357160235" flag="0"/>
      <psa10 value="0.0328794435" flag="0"/>
      <psa30 value="0.0020099748" flag="0"/>
    </comp>
    <comp name="--.HNZ">
      <acc value="0.1351051646" flag="0"/>
      <vel value="0.0339773804" flag="0"/>
      <psa03 value="0.1476629701" flag="0"/>
      <psa10 value="0.0130907795" flag="0"/>
      <psa30 value="0.0017642256" flag="0"/>
    </comp>
  </station>
  <station code="BAG8" name="BAG8" netid="IV" insttype="" lat="45.8228" lon="10.4664">
    <comp name="--.HNE">
      <acc value="0.0674684128" flag="0"/>
      <vel value="0.0135194982" flag="0"/>
      <psa03 value="0.0476842647" flag="0"/>
      <psa10 value="0.0082080129" flag="0"/>
      <psa30 value="0.0006261546" flag="0"/>
    </comp>
    <comp name="--.HNZ">
      <acc value="0.0396283622" flag="0"/>
      <vel value="0.0102560103" flag="0"/>
      <psa03 value="0.0269179188" flag="0"/>
      <psa10 value="0.0034620649" flag="0"/>
      <psa30 value="0.0003205938" flag="0"/>
    </comp>
    <comp name="--.HNN">
      <acc value="0.0684150738" flag="0"/>
      <vel value="0.0119690821" flag="0"/>
      <psa03 value="0.0516357317" flag="0"/>
      <psa10 value="0.0053072120" flag="0"/>
      <psa30 value="0.0002861654" flag="0"/>
    </comp>
  </station>
  <station code="BDI" name="BDI" netid="IV" insttype="" lat="44.0624" lon="10.597">
    <comp name="--.HHE">
      <acc value="0.0179853674" flag="0"/>
      <vel value="0.0063499017" flag="0"/>
      <psa03 value="0.0490847826" flag="0"/>
      <psa10 value="0.0032117831" flag="0"/>
      <psa30 value="0.0001918882" flag="0"/>
    </comp>
    <comp name="--.HHZ">
      <acc value="0.0106503058" flag="0"/>
      <vel value="0.0051166974" flag="0"/>
      <psa03 value="0.0243251116" flag="0"/>
      <psa10 value="0.0019640680" flag="0"/>
      <psa30 value="0.0001442244" flag="0"/>
    </comp>
    <comp name="--.HHN">
      <acc value="0.0184450805" flag="0"/>
      <vel value="0.0075745044" flag="0"/>
      <psa03 value="0.0553909400" flag="0"/>
      <psa10 value="0.0035039859" flag="0"/>
      <psa30 value="0.0003883124" flag="0"/>
    </comp>
  </station>
  <station code="BOSL" name="BOSL" netid="IV" insttype="" lat="43.931" lon="11.3743">
    <comp name="--.HHN">
      <acc value="0.0037372489" flag="0"/>
      <vel value="0.0016342713" flag="0"/>
      <psa03 value="0.0094887097" flag="0"/>
      <psa10 value="0.0014043019" flag="0"/>
      <psa30 value="0.0001079578" flag="0"/>
    </comp>
    <comp name="--.HHE">
      <acc value="0.0047673785" flag="0"/>
      <vel value="0.0022220683" flag="0"/>
      <psa03 value="0.0114409521" flag="0"/>
      <psa10 value="0.0015138123" flag="0"/>
      <psa30 value="0.0001130912" flag="0"/>
    </comp>
    <comp name="--.HHZ">
      <acc value="0.0031078923" flag="0"/>
      <vel value="0.0008670225" flag="0"/>
      <psa03 value="0.0050093239" flag="0"/>
      <psa10 value="0.0006540917" flag="0"/>
      <psa30 value="0.0000791746" flag="0"/>
    </comp>
  </station>
  <station code="BOZZ" name="BOZZ" netid="IV" insttype="" lat="45.1071" lon="10.482">
    <comp name="--.HHE">
      <acc value="0.0445182954" flag="0"/>
      <vel value="0.0205792525" flag="0"/>
      <psa03 value="0.1257581410" flag="0"/>
      <psa10 value="0.0311031354" flag="0"/>
      <psa30 value="0.0032447926" flag="0"/>
    </comp>
    <comp name="--.HHZ">
      <acc value="0.0458141998" flag="0"/>
      <vel value="0.0106014897" flag="0"/>
      <psa03 value="0.0630114594" flag="0"/>
      <psa10 value="0.0066423417" flag="0"/>
      <psa30 value="0.0005870598" flag="0"/>
    </comp>
    <comp name="--.HHN">
      <acc value="0.0582970215" flag="0"/>
      <vel value="0.0236202306" flag="0"/>
      <psa03 value="0.1414771363" flag="0"/>
      <psa10 value="0.0195821151" flag="0"/>
      <psa30 value="0.0028558268" flag="0"/>
    </comp>
  </station>
  <station code="CNCS" name="CNCS" netid="IV" insttype="" lat="45.606" lon="10.217">
    <comp name="--.HNE">
      <acc value="0.0622370275" flag="0"/>
      <vel value="0.0241711186" flag="0"/>
      <psa03 value="0.1762545358" flag="0"/>
      <psa10 value="0.0114625107" flag="0"/>
      <psa30 value="0.0007081809" flag="0"/>
    </comp>
    <comp name="--.HNN">
      <acc value="0.0533160566" flag="0"/>
      <vel value="0.0210451022" flag="0"/>
      <psa03 value="0.1334564085" flag="0"/>
      <psa10 value="0.0086268954" flag="0"/>
      <psa30 value="0.0005666663" flag="0"/>
    </comp>
    <comp name="--.HNZ">
      <acc value="0.0335822956" flag="0"/>
      <vel value="0.0133412801" flag="0"/>
      <psa03 value="0.0918582184" flag="0"/>
      <psa10 value="0.0046422262" flag="0"/>
      <psa30 value="0.0004885911" flag="0"/>
    </comp>
  </station>
  <station code="CRND" name="CRND" netid="IV" insttype="" lat="45.8361" lon="12.0131">
    <comp name="--.HNE">
      <acc value="0.0507579642" flag="0"/>
      <vel value="0.0113649671" flag="0"/>
      <psa03 value="0.0890973207" flag="0"/>
      <psa10 value="0.0074321873" flag="0"/>
      <psa30 value="0.0005072629" flag="0"/>
    </comp>
    <comp name="--.HNN">
      <acc value="0.0547214483" flag="0"/>
      <vel value="0.0147846823" flag="0"/>
      <psa03 value="0.0707833279" flag="0"/>
      <psa10 value="0.0082804677" flag="0"/>
      <psa30 value="0.0004772233" flag="0"/>
    </comp>
    <comp name="--.HNZ">
      <acc value="0.1254309408" flag="0"/>
      <vel value="0.0234120742" flag="0"/>
      <psa03 value="0.0410187659" flag="0"/>
      <psa10 value="0.0038720681" flag="0"/>
      <psa30 value="0.0003592126" flag="0"/>
    </comp>
  </station>
  <station code="CTI" name="CTI" netid="IV" insttype="" lat="46.0482" lon="11.6497">
    <comp name="--.HHN">
      <acc value="0.0875800259" flag="0"/>
      <vel value="0.0184978839" flag="0"/>
      <psa03 value="0.0709977122" flag="0"/>
      <psa10 value="0.0054952755" flag="0"/>
      <psa30 value="0.0004364036" flag="0"/>
    </comp>
    <comp name="--.HHE">
      <acc value="0.1440142283" flag="0"/>
      <vel value="0.0195144358" flag="0"/>
      <psa03 value="0.0713034383" flag="0"/>
      <psa10 value="0.0118639427" flag="0"/>
      <psa30 value="0.0004819307" flag="0"/>
    </comp>
    <comp name="--.HHZ">
      <acc value="0.0387751206" flag="0"/>
      <vel value="0.0078009413" flag="0"/>
      <psa03 value="0.0361247146" flag="0"/>
      <psa10 value="0.0037141400" flag="0"/>
      <psa30 value="0.0002960667" flag="0"/>
    </comp>
  </station>
  <station code="FERS" name="FERS" netid="IV" insttype="" lat="44.9035" lon="11.5406">
    <comp name="--.HNE">
      <acc value="0.5169478642" flag="0"/>
      <vel value="0.1959287725" flag="0"/>
      <psa03 value="0.6993524996" flag="0"/>
      <psa10 value="0.1107052685" flag="0"/>
      <psa30 value="0.0074784193" flag="0"/>
    </comp>
    <comp name="--.HNN">
      <acc value="0.5053745052" flag="0"/>
      <vel value="0.0837461897" flag="0"/>
      <psa03 value="0.5214033311" flag="0"/>
      <psa10 value="0.0483829484" flag="0"/>
      <psa30 value="0.0036655794" flag="0"/>
    </comp>
    <comp name="--.HNZ">
      <acc value="0.2762625725" flag="0"/>
      <vel value="0.0538717375" flag="0"/>
      <psa03 value="0.1971769907" flag="0"/>
      <psa10 value="0.0211599287" flag="0"/>
      <psa30 value="0.0010956924" flag="0"/>
    </comp>
  </station>
  <station code="LMD" name="LMD" netid="IV" insttype="" lat="44.0775" lon="11.7073">
    <comp name="--.HHE">
      <acc value="0.0497713553" flag="0"/>
      <vel value="0.0151309669" flag="0"/>
      <psa03 value="0.0808881148" flag="0"/>
      <psa10 value="0.0072571194" flag="0"/>
      <psa30 value="0.0003747685" flag="0"/>
    </comp>
    <comp name="--.HHN">
      <acc value="0.0514804893" flag="0"/>
      <vel value="0.0166217551" flag="0"/>
      <psa03 value="0.0857954460" flag="0"/>
      <psa10 value="0.0077531381" flag="0"/>
      <psa30 value="0.0004943506" flag="0"/>
    </comp>
    <comp name="--.HHZ">
      <acc value="0.0173035777" flag="0"/>
      <vel value="0.0065149787" flag="0"/>
      <psa03 value="0.0322455470" flag="0"/>
      <psa10 value="0.0036959871" flag="0"/>
      <psa30 value="0.0003777467" flag="0"/>
    </comp>
  </station>
  <station code="MAGA" name="MAGA" netid="IV" insttype="" lat="45.7753" lon="10.6286">
    <comp name="--.HHE">
      <acc value="0.1262731641" flag="0"/>
      <vel value="0.0489161338" flag="0"/>
      <psa03 value="0.1989068299" flag="0"/>
      <psa10 value="0.0447017348" flag="0"/>
      <psa30 value="0.0021908942" flag="0"/>
    </comp>
    <comp name="--.HHN">
      <acc value="0.1079937076" flag="0"/>
      <vel value="0.0485886756" flag="0"/>
      <psa03 value="0.1965819350" flag="0"/>
      <psa10 value="0.0162470647" flag="0"/>
      <psa30 value="0.0011631829" flag="0"/>
    </comp>
    <comp name="--.HHZ">
      <acc value="0.0398760647" flag="0"/>
      <vel value="0.0119887167" flag="0"/>
      <psa03 value="0.0626531772" flag="0"/>
      <psa10 value="0.0061838050" flag="0"/>
      <psa30 value="0.0003990340" flag="0"/>
    </comp>
  </station>
  <station code="MBAL" name="MBAL" netid="IV" insttype="" lat="45.6975" lon="10.8589">
    <comp name="--.HHN">
      <acc value="0.1083303042" flag="0"/>
      <vel value="0.0221214474" flag="0"/>
      <psa03 value="0.0921593472" flag="0"/>
      <psa10 value="0.0068084741" flag="0"/>
      <psa30 value="0.0004265928" flag="0"/>
    </comp>
    <comp name="--.HHZ">
      <acc value="0.0644009610" flag="0"/>
      <vel value="0.0091341959" flag="0"/>
      <psa03 value="0.0485930048" flag="0"/>
      <psa10 value="0.0072884724" flag="0"/>
      <psa30 value="0.0002465145" flag="0"/>
    </comp>
    <comp name="--.HHE">
      <acc value="0.2914192103" flag="0"/>
      <vel value="0.0472927530" flag="0"/>
      <psa03 value="0.0676158712" flag="0"/>
      <psa10 value="0.0063633179" flag="0"/>
      <psa30 value="0.0004910036" flag="0"/>
    </comp>
  </station>
  <station code="MODE" name="MODE" netid="IV" insttype="" lat="44.6297" lon="10.9492">
    <comp name="--.HNN">
      <acc value="0.1188071070" flag="0"/>
      <vel value="0.0555378498" flag="0"/>
      <psa03 value="0.2505754770" flag="0"/>
      <psa10 value="0.0347712507" flag="0"/>
      <psa30 value="0.0020564707" flag="0"/>
    </comp>
    <comp name="--.HNE">
      <acc value="0.1660257520" flag="0"/>
      <vel value="0.0796640023" flag="0"/>
      <psa03 value="0.3745760267" flag="0"/>
      <psa10 value="0.0715834461" flag="0"/>
      <psa30 value="0.0047793354" flag="0"/>
    </comp>
    <comp name="--.HNZ">
      <acc value="0.1897078765" flag="0"/>
      <vel value="0.0725033824" flag="0"/>
      <psa03 value="0.5639837073" flag="0"/>
      <psa10 value="0.0256203601" flag="0"/>
      <psa30 value="0.0024256947" flag="0"/>
    </comp>
  </station>
  <station code="MTRZ" name="MTRZ" netid="IV" insttype="" lat="44.3128" lon="11.4248">
    <comp name="--.HHE">
      <acc value="0.0467680249" flag="0"/>
      <vel value="0.0257319615" flag="0"/>
      <psa03 value="0.1142731725" flag="0"/>
      <psa10 value="0.0151192469" flag="0"/>
      <psa30 value="0.0017276091" flag="0"/>
    </comp>
    <comp name="--.HHZ">
      <acc value="0.0197197799" flag="0"/>
      <vel value="0.0105118308" flag="0"/>
      <psa03 value="0.0491199320" flag="0"/>
      <psa10 value="0.0081590106" flag="0"/>
      <psa30 value="0.0006055170" flag="0"/>
    </comp>
    <comp name="--.HHN">
      <acc value="0.0597005651" flag="0"/>
      <vel value="0.0273368768" flag="0"/>
      <psa03 value="0.1376362103" flag="0"/>
      <psa10 value="0.0195569358" flag="0"/>
      <psa30 value="0.0017304211" flag="0"/>
    </comp>
  </station>
  <station code="NDIM" name="NDIM" netid="IV" insttype="" lat="44.8873" lon="10.8987">
    <comp name="--.HHN">
      <acc value="0.3199296072" flag="0"/>
      <vel value="0.1313305792" flag="0"/>
      <psa03 value="0.9127577719" flag="0"/>
      <psa10 value="0.0567361902" flag="0"/>
      <psa30 value="0.0055881911" flag="0"/>
    </comp>
    <comp name="--.HHE">
      <acc value="0.1053296532" flag="0"/>
      <vel value="0.0414542031" flag="0"/>
      <psa03 value="0.1973699313" flag="0"/>
      <psa10 value="0.0096368335" flag="0"/>
      <psa30 value="0.0013312259" flag="0"/>
    </comp>
    <comp name="--.HHZ">
      <acc value="0.0857389798" flag="0"/>
      <vel value="0.0260060430" flag="0"/>
      <psa03 value="0.1404464438" flag="0"/>
      <psa10 value="0.0139296605" flag="0"/>
      <psa30 value="0.0009847624" flag="0"/>
    </comp>
  </station>
  <station code="NEVI" name="NEVI" netid="IV" insttype="" lat="44.5834" lon="10.3163">
    <comp name="--.HNE">
      <acc value="0.0348196716" flag="0"/>
      <vel value="0.0151969033" flag="0"/>
      <psa03 value="0.1097727790" flag="0"/>
      <psa10 value="0.0065018939" flag="0"/>
      <psa30 value="0.0004362439" flag="0"/>
    </comp>
    <comp name="--.HNN">
      <acc value="0.0392733841" flag="0"/>
      <vel value="0.0165141204" flag="0"/>
      <psa03 value="0.1013384853" flag="0"/>
      <psa10 value="0.0115620482" flag="0"/>
      <psa30 value="0.0009888906" flag="0"/>
    </comp>
    <comp name="--.HNZ">
      <acc value="0.0162633519" flag="0"/>
      <vel value="0.0041343604" flag="0"/>
      <psa03 value="0.0373407097" flag="0"/>
      <psa10 value="0.0044714387" flag="0"/>
      <psa30 value="0.0003390162" flag="0"/>
    </comp>
  </station>
  <station code="PRMA" name="PRMA" netid="IV" insttype="" lat="44.7637" lon="10.3131">
    <comp name="--.HNE">
      <acc value="0.0361799105" flag="0"/>
      <vel value="0.0123635455" flag="0"/>
      <psa03 value="0.0674823949" flag="0"/>
      <psa10 value="0.0071230149" flag="0"/>
      <psa30 value="0.0005647694" flag="0"/>
    </comp>
    <comp name="--.HNN">
      <acc value="0.0451796748" flag="0"/>
      <vel value="0.0138660231" flag="0"/>
      <psa03 value="0.0929262603" flag="0"/>
      <psa10 value="0.0092077096" flag="0"/>
      <psa30 value="0.0007872743" flag="0"/>
    </comp>
    <comp name="--.HNZ">
      <acc value="0.0208433652" flag="0"/>
      <vel value="0.0053489420" flag="0"/>
      <psa03 value="0.0300939162" flag="0"/>
      <psa10 value="0.0031124546" flag="0"/>
      <psa30 value="0.0002751757" flag="0"/>
    </comp>
  </station>
  <station code="ROVR" name="ROVR" netid="IV" insttype="" lat="45.6468" lon="11.0721">
    <comp name="--.HHE">
      <acc value="0.0831538694" flag="0"/>
      <vel value="0.0244356108" flag="0"/>
      <psa03 value="0.2517638630" flag="0"/>
      <psa10 value="0.0135356998" flag="0"/>
      <psa30 value="0.0007081779" flag="0"/>
    </comp>
    <comp name="--.HHN">
      <acc value="0.1797962133" flag="0"/>
      <vel value="0.0533583524" flag="0"/>
      <psa03 value="0.5488641726" flag="0"/>
      <psa10 value="0.0189161774" flag="0"/>
      <psa30 value="0.0011977386" flag="0"/>
    </comp>
