<stationlist created="1698314487">
	<station code="FIVI" name="FIVI" netid="GU" source="Regional Seismic Network of North Western Italy (RSNI)" insttype="" lat="44.2394" lon="10.1271">
		<comp name=".HNE" depth="0.0">
			<acc value="0.018126608742942" flag="0"/>
			<vel value="0.00656371751718" flag="0"/>
			<psa03 value="0.0483089189789006" flag="0"/>
			<psa10 value="0.00366004042846584" flag="0"/>
			<psa30 value="0.00042150862600269" flag="0"/>
		</comp>
		<comp name=".HNN" depth="0.0">
			<acc value="0.025550357204772" flag="0"/>
			<vel value="0.00780081228953" flag="0"/>
			<psa03 value="0.039710474374025" flag="0"/>
			<psa10 value="0.00506053882961458" flag="0"/>
			<psa30 value="0.000433987421411942" flag="0"/>
		</comp>
		<comp name=".HNZ" depth="0.0">
			<acc value="0.034207753405146" flag="0"/>
			<vel value="0.00632005083151" flag="0"/>
			<psa03 value="0.0165065947829592" flag="0"/>
			<psa10 value="0.00294220232833863" flag="0"/>
			<psa30 value="0.000453892568154423" flag="0"/>
		</comp>
	</station>
	<station code="BOZL" name="BOZL" netid="IT" source="Italian Strong Motion Network (RAN)" insttype="" lat="45.0994987488" lon="10.4798002243">
		<comp name="00.HNE" depth="0.0">
			<acc value="0.10213602800682" flag="0"/>
			<vel value="0.0253871531259" flag="0"/>
			<psa03 value="0.151497535968269" flag="0"/>
			<psa10 value="0.0202552661869856" flag="0"/>
			<psa30 value="0.00287413893926596" flag="0"/>
		</comp>
		<comp name="00.HNN" depth="0.0">
			<acc value="0.13987690590654" flag="0"/>
			<vel value="0.0401698006687" flag="0"/>
			<psa03 value="0.232043746759308" flag="0"/>
			<psa10 value="0.0211026591976093" flag="0"/>
			<psa30 value="0.00383263722673898" flag="0"/>
		</comp>
		<comp name="00.HNZ" depth="0.0">
			<acc value="0.053827603811082" flag="0"/>
			<vel value="0.0158658776967" flag="0"/>
			<psa03 value="0.0551704151860586" flag="0"/>
			<psa10 value="0.00650397851291658" flag="0"/>
			<psa30 value="0.000543308231088978" flag="0"/>
		</comp>
	</station>
	<station code="CNT" name="CNT" netid="IT" source="Italian Strong Motion Network (RAN)" insttype="" lat="44.7234" lon="11.2867">
		<comp name="00.HNE" depth="0.0">
			<acc value="0.49076909626314" flag="0"/>
			<vel value="0.156249697062" flag="0"/>
			<psa03 value="0.463101053173972" flag="0"/>
			<psa10 value="0.0520190172545757" flag="0"/>
			<psa30 value="0.00497814602774705" flag="0"/>
		</comp>
		<comp name="00.HNN" depth="0.0">
			<acc value="0.28684787519814" flag="0"/>
			<vel value="0.0763755098183" flag="0"/>
			<psa03 value="0.312411779080637" flag="0"/>
			<psa10 value="0.0651349298693421" flag="0"/>
			<psa30 value="0.00530759535215781" flag="0"/>
		</comp>
		<comp name="00.HNZ" depth="0.0">
			<acc value="0.23641063107918" flag="0"/>
			<vel value="0.0478942062026" flag="0"/>
			<psa03 value="0.190662567959551" flag="0"/>
			<psa10 value="0.0166587479352895" flag="0"/>
			<psa30 value="0.00191827249280559" flag="0"/>
		</comp>
	</station>
	<station code="CPC" name="CPC" netid="IT" source="Italian Strong Motion Network (RAN)" insttype="" lat="44.921448" lon="11.875613">
		<comp name="00.HGE" depth="0.0">
			<acc value="0.24922960193694" flag="0"/>
			<vel value="0.130047641429" flag="0"/>
			<psa03 value="0.399928409961171" flag="0"/>
			<psa10 value="0.0780999887410457" flag="0"/>
			<psa30 value="0.00502352320041507" flag="0"/>
		</comp>
		<comp name="00.HGN" depth="0.0">
			<acc value="0.30807555346068" flag="0"/>
			<vel value="0.179566843038" flag="0"/>
			<psa03 value="0.670145227163607" flag="0"/>
			<psa10 value="0.161963179265581" flag="0"/>
			<psa30 value="0.0112060298444648" flag="0"/>
		</comp>
		<comp name="00.HGZ" depth="0.0">
			<acc value="0.068915588804388" flag="0"/>
			<vel value="0.0245723890828" flag="0"/>
			<psa03 value="0.0926781290543756" flag="0"/>
			<psa10 value="0.0117458634182886" flag="0"/>
			<psa30 value="0.00133343114577011" flag="0"/>
		</comp>
	</station>
	<station code="CRP" name="CRP" netid="IT" source="Italian Strong Motion Network (RAN)" insttype="" lat="44.7823" lon="10.8703">
		<comp name="00.HNE" depth="0.0">
			<acc value="0.15273932702418" flag="0"/>
			<vel value="0.0492108347169" flag="0"/>
			<psa03 value="0.178472572932174" flag="0"/>
			<psa10 value="0.0321650820288321" flag="0"/>
			<psa30 value="0.00283158716208769" flag="0"/>
		</comp>
		<comp name="00.HNN" depth="0.0">
			<acc value="0.12976995647958" flag="0"/>
			<vel value="0.0641814207634" flag="0"/>
			<psa03 value="0.227292640355387" flag="0"/>
			<psa10 value="0.0350814589745034" flag="0"/>
			<psa30 value="0.00289630499099292" flag="0"/>
		</comp>
		<comp name="00.HNZ" depth="0.0">
			<acc value="0.076182619236372" flag="0"/>
			<vel value="0.0184214574787" flag="0"/>
			<psa03 value="0.0618942043540656" flag="0"/>
			<psa10 value="0.0103445118356398" flag="0"/>
			<psa30 value="0.00197481915540977" flag="0"/>
		</comp>
	</station>
	<station code="CSP" name="CSP" netid="IT" source="Italian Strong Motion Network (RAN)" insttype="" lat="44.378487" lon="11.580113">
		<comp name="00.HGE" depth="0.0">
			<acc value="0.13562515259352" flag="0"/>
			<vel value="0.0524113558538" flag="0"/>
			<psa03 value="0.365377912826988" flag="0"/>
			<psa10 value="0.0250119162917146" flag="0"/>
			<psa30 value="0.00234818118047827" flag="0"/>
		</comp>
		<comp name="00.HGN" depth="0.0">
			<acc value="0.10634601727806" flag="0"/>
			<vel value="0.046090544536" flag="0"/>
			<psa03 value="0.301494597537443" flag="0"/>
			<psa10 value="0.0251575928170709" flag="0"/>
			<psa30 value="0.00231477959278581" flag="0"/>
		</comp>
		<comp name="00.HGZ" depth="0.0">
			<acc value="0.052206908489952" flag="0"/>
			<vel value="0.0266496463031" flag="0"/>
			<psa03 value="0.142544776225265" flag="0"/>
			<psa10 value="0.0153405168589511" flag="0"/>
			<psa30 value="0.000993537066956672" flag="0"/>
		</comp>
	</station>
	<station code="ISD" name="ISD" netid="IT" source="Italian Strong Motion Network (RAN)" insttype="" lat="45.273386" lon="10.960213">
		<comp name="00.HGE" depth="0.0">
			<acc value="0.09882018163836" flag="0"/>
			<vel value="0.0504575800657" flag="0"/>
			<psa03 value="0.144456090340277" flag="0"/>
			<psa10 value="0.0319959758263543" flag="0"/>
			<psa30 value="0.00250735526664973" flag="0"/>
		</comp>
		<comp name="00.HGN" depth="0.0">
			<acc value="0.074582375546418" flag="0"/>
			<vel value="0.0279158299672" flag="0"/>
			<psa03 value="0.110436659636512" flag="0"/>
			<psa10 value="0.0244784115746492" flag="0"/>
			<psa30 value="0.00255944767584876" flag="0"/>
		</comp>
		<comp name="00.HGZ" depth="0.0">
			<acc value="0.06178252368708" flag="0"/>
			<vel value="0.012254362697" flag="0"/>
			<psa03 value="0.0578371230920557" flag="0"/>
			<psa10 value="0.00783626505159292" flag="0"/>
			<psa30 value="0.000774006899157762" flag="0"/>
		</comp>
	</station>
	<station code="MDN" name="MDN" netid="IT" source="Italian Strong Motion Network (RAN)" insttype="" lat="44.646988" lon="10.889912">
		<comp name="00.HNE" depth="0.0">
			<acc value="0.13277579633088" flag="0"/>
			<vel value="0.0848443713086" flag="0"/>
			<psa03 value="0.452477849437628" flag="0"/>
			<psa10 value="0.0401918850151368" flag="0"/>
			<psa30 value="0.00306855015138694" flag="0"/>
		</comp>
		<comp name="00.HNN" depth="0.0">
			<acc value="0.095302511121558" flag="0"/>
			<vel value="0.0412028107827" flag="0"/>
			<psa03 value="0.218933503269947" flag="0"/>
			<psa10 value="0.0245172078946973" flag="0"/>
			<psa30 value="0.00224573960256093" flag="0"/>
		</comp>
		<comp name="00.HNZ" depth="0.0">
			<acc value="0.10933123652172" flag="0"/>
			<vel value="0.0273531385433" flag="0"/>
			<psa03 value="0.0941676339771441" flag="0"/>
			<psa10 value="0.00942703418222999" flag="0"/>
			<psa30 value="0.00072549993580879" flag="0"/>
		</comp>
	</station>
	<station code="MNOV" name="MNOV" netid="IT" source="Italian Strong Motion Network (RAN)" insttype="" lat="45.145198822" lon="10.7882003784">
		<comp name="00.HNE" depth="0.0">
			<acc value="0.091291819233852" flag="0"/>
			<vel value="0.0416018246871" flag="0"/>
			<psa03 value="0.222413983834823" flag="0"/>
			<psa10 value="0.0363714469298714" flag="0"/>
			<psa30 value="0.00280265482879293" flag="0"/>
		</comp>
		<comp name="00.HNN" depth="0.0">
			<acc value="0.12215544114024" flag="0"/>
			<vel value="0.0312468156" flag="0"/>
			<psa03 value="0.214788957881166" flag="0"/>
			<psa10 value="0.0395618170262385" flag="0"/>
			<psa30 value="0.00278409255746694" flag="0"/>
		</comp>
		<comp name="00.HNZ" depth="0.0">
			<acc value="0.09482113702896" flag="0"/>
			<vel value="0.0217377955012" flag="0"/>
			<psa03 value="0.119765996409344" flag="0"/>
			<psa10 value="0.00826705515184123" flag="0"/>
			<psa30 value="0.0011178514480044" flag="0"/>
		</comp>
	</station>
	<station code="MNS" name="MNS" netid="IT" source="Italian Strong Motion Network (RAN)" insttype="" lat="45.251733" lon="11.722134">
		<comp name="00.HGE" depth="0.0">
			<acc value="0.22066964660988" flag="0"/>
			<vel value="0.0392657486438" flag="0"/>
			<psa03 value="0.0992286879968789" flag="0"/>
			<psa10 value="0.0127461446820465" flag="0"/>
			<psa30 value="0.000749582572832588" flag="0"/>
		</comp>
		<comp name="00.HGN" depth="0.0">
			<acc value="0.18252080183772" flag="0"/>
			<vel value="0.0266682100238" flag="0"/>
			<psa03 value="0.115534757777404" flag="0"/>
			<psa10 value="0.00990584152586596" flag="0"/>
			<psa30 value="0.000679021596429894" flag="0"/>
		</comp>
		<comp name="00.HGZ" depth="0.0">
			<acc value="0.10491608143128" flag="0"/>
			<vel value="0.0161211944655" flag="0"/>
			<psa03 value="0.090261302285141" flag="0"/>
			<psa10 value="0.00729897914656592" flag="0"/>
			<psa30 value="0.000550735910634878" flag="0"/>
		</comp>
	</station>
	<station code="MRN" name="MRN" netid="IT" source="Italian Strong Motion Network (RAN)" insttype="" lat="44.878231" lon="11.061743">
		<comp name="00.HGE" depth="0.0">
			<acc value="0.87627097895304" flag="0"/>
			<vel value="0.358358968222" flag="0"/>
			<psa03 value="2.43425609085185" flag="0"/>
			<psa10 value="0.134804930165043" flag="0"/>
			<psa30 value="0.00873258432417958" flag="0"/>
		</comp>
		<comp name="00.HGN" depth="0.0">
			<acc value="0.65495895910344" flag="0"/>
			<vel value="0.268212940918" flag="0"/>
			<psa03 value="0.802461659145734" flag="0"/>
			<psa10 value="0.0950671777341601" flag="0"/>
			<psa30 value="0.00838090186026184" flag="0"/>
		</comp>
		<comp name="00.HGZ" depth="0.0">
			<acc value="0.45025494525228" flag="0"/>
			<vel value="0.115237443935" flag="0"/>
			<psa03 value="0.334570121962087" flag="0"/>
			<psa10 value="0.025316421463694" flag="0"/>
			<psa30 value="0.0018894174562991" flag="0"/>
		</comp>
	</station>
	<station code="MTVA" name="MTVA" netid="IT" source="Italian Strong Motion Network (RAN)" insttype="" lat="45.157902" lon="10.7849">
		<comp name="00.HNE" depth="0.0">
			<acc value="0.093693531122322" flag="0"/>
			<vel value="0.0267283253793" flag="0"/>
			<psa03 value="0.150044252195512" flag="0"/>
			<psa10 value="0.0267607471431556" flag="0"/>
			<psa30 value="0.00226830172218891" flag="0"/>
		</comp>
		<comp name="00.HNN" depth="0.0">
			<acc value="0.079942967031684" flag="0"/>
			<vel value="0.0204211111649" flag="0"/>
			<psa03 value="0.147909767046021" flag="0"/>
			<psa10 value="0.0200947593041962" flag="0"/>
			<psa30 value="0.00328757966101676" flag="0"/>
		</comp>
		<comp name="00.HNZ" depth="0.0">
			<acc value="0.081762645850422" flag="0"/>
			<vel value="0.0149904102869" flag="0"/>
			<psa03 value="0.087236841512406" flag="0"/>
			<psa10 value="0.00925889273119307" flag="0"/>
			<psa30 value="0.000681270703757121" flag="0"/>
		</comp>
	</station>
	<station code="PVF" name="PVF" netid="IT" source="Italian Strong Motion Network (RAN)" insttype="" lat="44.333096" lon="10.825229">
		<comp name="00.HNE" depth="0.0">
			<acc value="0.014025095073486" flag="0"/>
			<vel value="0.00607931195541" flag="0"/>
			<psa03 value="0.0357084201950827" flag="0"/>
			<psa10 value="0.00396099739663969" flag="0"/>
			<psa30 value="0.000487784813349814" flag="0"/>
		</comp>
		<comp name="00.HNN" depth="0.0">
			<acc value="0.01350086982933" flag="0"/>
			<vel value="0.00625784802666" flag="0"/>
			<psa03 value="0.0370377374224874" flag="0"/>
			<psa10 value="0.00475295001584694" flag="0"/>
			<psa30 value="0.000764827645246394" flag="0"/>
		</comp>
		<comp name="00.HNZ" depth="0.0">
			<acc value="0.0089556015018276" flag="0"/>
			<vel value="0.00359984418016" flag="0"/>
			<psa03 value="0.0246223420468104" flag="0"/>
			<psa10 value="0.00320671133513773" flag="0"/>
			<psa30 value="0.000484681951548906" flag="0"/>
		</comp>
	</station>
	<station code="SLOB" name="SLOB" netid="IT" source="Italian Strong Motion Network (RAN)" insttype="" lat="45.604401" lon="10.5165">
		<comp name="00.HNE" depth="0.0">
			<acc value="0.06635016900549" flag="0"/>
			<vel value="0.0441044667284" flag="0"/>
			<psa03 value="0.166865824875519" flag="0"/>
			<psa10 value="0.0379351167653299" flag="0"/>
			<psa30 value="0.00231985117875544" flag="0"/>
		</comp>
		<comp name="00.HNN" depth="0.0">
			<acc value="0.075453146077194" flag="0"/>
			<vel value="0.0393711162218" flag="0"/>
			<psa03 value="0.171222738499252" flag="0"/>
			<psa10 value="0.0394769789061011" flag="0"/>
			<psa30 value="0.0020893925786696" flag="0"/>
		</comp>
		<comp name="00.HNZ" depth="0.0">
			<acc value="0.044192995696176" flag="0"/>
			<vel value="0.0191172977292" flag="0"/>
			<psa03 value="0.17338045435409" flag="0"/>
			<psa10 value="0.0130427612064243" flag="0"/>
			<psa30 value="0.000869313629428182" flag="0"/>
		</comp>
	</station>
	<station code="SSU" name="SSU" netid="IT" source="Italian Strong Motion Network (RAN)" insttype="" lat="44.507027" lon="10.784814">
		<comp name="00.HNE" depth="0.0">
			<acc value="0.056291925700938" flag="0"/>
			<vel value="0.0215751668574" flag="0"/>
			<psa03 value="0.152058541882037" flag="0"/>
			<psa10 value="0.0129622114953968" flag="0"/>
			<psa30 value="0.00127442536192524" flag="0"/>
		</comp>
		<comp name="00.HNN" depth="0.0">
			<acc value="0.05000377573947" flag="0"/>
			<vel value="0.0181561668863" flag="0"/>
			<psa03 value="0.174644642267002" flag="0"/>
			<psa10 value="0.0103961836961321" flag="0"/>
			<psa30 value="0.000961828612258713" flag="0"/>
		</comp>
		<comp name="00.HNZ" depth="0.0">
			<acc value="0.038728482612204" flag="0"/>
			<vel value="0.0136449859022" flag="0"/>
			<psa03 value="0.0628695085464791" flag="0"/>
			<psa10 value="0.00586588405476514" flag="0"/>
			<psa30 value="0.00049976753422859" flag="0"/>
		</comp>
	</station>
	<station code="SUZR" name="SUZR" netid="IT" source="Italian Strong Motion Network (RAN)" insttype="" lat="44.9878997803" lon="10.7441997528">
		<comp name="00.HNE" depth="0.0">
			<acc value="0.14517904260624" flag="0"/>
			<vel value="0.0823400045245" flag="0"/>
			<psa03 value="0.389001436102844" flag="0"/>
			<psa10 value="0.0579085836592959" flag="0"/>
			<psa30 value="0.00458259732456168" flag="0"/>
		</comp>
		<comp name="00.HNN" depth="0.0">
			<acc value="0.19463026129626" flag="0"/>
			<vel value="0.0944351474753" flag="0"/>
			<psa03 value="0.332487921526181" flag="0"/>
			<psa10 value="0.0758760539161682" flag="0"/>
			<psa30 value="0.00646044963974357" flag="0"/>
		</comp>
		<comp name="00.HNZ" depth="0.0">
			<acc value="0.11574754962966" flag="0"/>
			<vel value="0.0254852829909" flag="0"/>
			<psa03 value="0.141234814446645" flag="0"/>
			<psa10 value="0.013014590277738" flag="0"/>
			<psa30 value="0.000959234794596051" flag="0"/>
		</comp>
	</station>
	<station code="TGG" name="TGG" netid="IT" source="Italian Strong Motion Network (RAN)" insttype="" lat="45.562015" lon="11.182743">
		<comp name="00.HGE" depth="0.0">
			<acc value="0.18190042560792" flag="0"/>
			<vel value="0.0238224370038" flag="0"/>
			<psa03 value="0.0848561056754642" flag="0"/>
			<psa10 value="0.0054260019459934" flag="0"/>
			<psa30 value="0.000519927984342925" flag="0"/>
		</comp>
		<comp name="00.HGN" depth="0.0">
			<acc value="0.077336676098802" flag="0"/>
			<vel value="0.0128565215723" flag="0"/>
			<psa03 value="0.0686869303802719" flag="0"/>
			<psa10 value="0.00588086723484246" flag="0"/>
			<psa30 value="0.000492103016075888" flag="0"/>
		</comp>
		<comp name="00.HGZ" depth="0.0">
			<acc value="0.15329359745892" flag="0"/>
			<vel value="0.0262148014793" flag="0"/>
			<psa03 value="0.135885272565768" flag="0"/>
			<psa10 value="0.00703298574453604" flag="0"/>
			<psa30 value="0.000529885050201281" flag="0"/>
		</comp>
	</station>
	<station code="VCNZ" name="VCNZ" netid="IT" source="Italian Strong Motion Network (RAN)" insttype="" lat="45.5270004272" lon="11.5894002914">
		<comp name="00.HNE" depth="0.0">
			<acc value="0.093453819017268" flag="0"/>
			<vel value="0.0290160883052" flag="0"/>
			<psa03 value="0.174892585775394" flag="0"/>
			<psa10 value="0.0253703894138058" flag="0"/>
			<psa30 value="0.00171445930367938" flag="0"/>
		</comp>
		<comp name="00.HNN" depth="0.0">
			<acc value="0.078039877721718" flag="0"/>
			<vel value="0.0284056857961" flag="0"/>
			<psa03 value="0.15802329118398" flag="0"/>
			<psa10 value="0.0251426237004266" flag="0"/>
			<psa30 value="0.00162161138212981" flag="0"/>
		</comp>
		<comp name="00.HNZ" depth="0.0">
			<acc value="0.057829599066792" flag="0"/>
			<vel value="0.0188900318797" flag="0"/>
			<psa03 value="0.108366574587034" flag="0"/>
			<psa10 value="0.0145545126025128" flag="0"/>
			<psa30 value="0.000677529987201954" flag="0"/>
		</comp>
	</station>
	<station code="ZPP" name="ZPP" netid="IT" source="Italian Strong Motion Network (RAN)" insttype="" lat="44.524391" lon="11.204494">
		<comp name="00.HNE" depth="0.0">
			<acc value="0.1574729998188" flag="0"/>
			<vel value="0.0515113251237" flag="0"/>
			<psa03 value="0.205145152359655" flag="0"/>
			<psa10 value="0.046514271342218" flag="0"/>
			<psa30 value="0.00259221442981654" flag="0"/>
		</comp>
		<comp name="00.HNN" depth="0.0">
			<acc value="0.11234437834188" flag="0"/>
			<vel value="0.0443719359752" flag="0"/>
			<psa03 value="0.176474815590322" flag="0"/>
			<psa10 value="0.0275205849786717" flag="0"/>
			<psa30 value="0.00220428227288345" flag="0"/>
		</comp>
		<comp name="00.HNZ" depth="0.0">
			<acc value="0.06425436667005" flag="0"/>
			<vel value="0.0154147867984" flag="0"/>
			<psa03 value="0.0837864202308233" flag="0"/>
			<psa10 value="0.0114309400561645" flag="0"/>
			<psa30 value="0.000885412195880233" flag="0"/>
		</comp>
	</station>
	<station code="BAG8" name="BAG8" netid="IV" source="Italian National Seismic Network (INSN)" insttype="" lat="45.8228" lon="10.4664">
		<comp name=".HNE" depth="0.0">
			<acc value="0.066876117785568" flag="0"/>
			<vel value="0.0135293066191" flag="0"/>
			<psa03 value="0.0480123576662133" flag="0"/>
			<psa10 value="0.00820037948488172" flag="0"/>
			<psa30 value="0.000615827201781266" flag="0"/>
		</comp>
		<comp name=".HNN" depth="0.0">
			<acc value="0.067714382786514" flag="0"/>
			<vel value="0.0120195074578" flag="0"/>
			<psa03 value="0.0517649552159172" flag="0"/>
			<psa10 value="0.00531162640044878" flag="0"/>
			<psa30 value="0.000278712968574493" flag="0"/>
		</comp>
		<comp name=".HNZ" depth="0.0">
			<acc value="0.038969791020216" flag="0"/>
			<vel value="0.0102778049674" flag="0"/>
			<psa03 value="0.0270631495716907" flag="0"/>
			<psa10 value="0.00345179475821033" flag="0"/>
			<psa30 value="0.00031285973583856" flag="0"/>
		</comp>
	</station>
	<station code="BDI" name="BDI" netid="IV" source="Italian National Seismic Network (INSN)" insttype="" lat="44.0628" lon="10.5956">
		<comp name=".HNE" depth="0.0">
			<acc value="0.015951568476174" flag="0"/>
			<vel value="0.00674589903407" flag="0"/>
			<psa03 value="0.0503882546411154" flag="0"/>
			<psa10 value="0.00400611429166019" flag="0"/>
