<?xml version="1.0" encoding="UTF-8" standalone="yes"?>
<!DOCTYPE earthquake SYSTEM "stationlist.dtd">
<stationlist created="" xmlns="ch.ethz.sed.shakemap.usgs.xml">
  <station code="TAHT" name="TAHT" netid="KO" insttype="CMG-3ESPC" lat="36.3755" lon="36.1855">
    <comp name="--.HHE">
      <acc value="1.3200224837" flag="0"/>
      <vel value="0.2334577553" flag="0"/>
      <psa03 value="1.9569329982" flag="0"/>
      <psa10 value="0.1216424472" flag="0"/>
      <psa30 value="0.0081440452" flag="0"/>
    </comp>
  </station>
</stationlist>
