<?xml version="1.0" encoding="UTF-8" standalone="yes"?>
<!DOCTYPE earthquake SYSTEM "stationlist.dtd">
<stationlist created="" xmlns="ch.ethz.sed.shakemap.usgs.xml">
  <station code="GVD" name="GVD" netid="GE" source="GFZ" insttype="STS-2/N" lat="34.8391" lon="24.0874">
    <comp name="--.HHE">
      <acc value="0.0240562410" flag="0"/>
      <vel value="0.0131200644" flag="0"/>
      <psa03 value="0.0937900020" flag="0"/>
      <psa10 value="0.0067961976" flag="0"/>
      <psa30 value="0.0006526878" flag="0"/>
    </comp>
    <comp name="--.HHN">
      <acc value="0.0217056097" flag="0"/>
      <vel value="0.0130845826" flag="0"/>
      <psa03 value="0.0797737759" flag="0"/>
      <psa10 value="0.0063173906" flag="0"/>
      <psa30 value="0.0007561710" flag="0"/>
    </comp>
    <comp name="--.HHZ">
      <acc value="0.0157778546" flag="0"/>
      <vel value="0.0062367348" flag="0"/>
      <psa03 value="0.0288782531" flag="0"/>
      <psa10 value="0.0047734151" flag="0"/>
      <psa30 value="0.0003960141" flag="0"/>
    </comp>
  </station>
  <station code="IMMV" name="IMMV" netid="GE" source="GFZ" insttype="STS-2/N" lat="35.4606" lon="23.9811">
    <comp name="--.HHE">
      <acc value="0.0665003011" flag="0"/>
      <vel value="0.0365853238" flag="0"/>
      <psa03 value="0.2175032807" flag="0"/>
      <psa10 value="0.0195947835" flag="0"/>
      <psa30 value="0.0014447638" flag="0"/>
    </comp>
    <comp name="--.HHN">
      <acc value="0.0884242927" flag="0"/>
      <vel value="0.0482558472" flag="0"/>
      <psa03 value="0.2188039583" flag="0"/>
      <psa10 value="0.0340487350" flag="0"/>
      <psa30 value="0.0016491337" flag="0"/>
    </comp>
    <comp name="--.HHZ">
      <acc value="0.0530208144" flag="0"/>
      <vel value="0.0321879083" flag="0"/>
      <psa03 value="0.1396876068" flag="0"/>
      <psa10 value="0.0114932446" flag="0"/>
      <psa30 value="0.0010787279" flag="0"/>
    </comp>
  </station>
  <station code="CHAN" name="CHAN" netid="HC" source="NOA" insttype="120" lat="35.5193" lon="24.0428">
    <comp name="--.HHE">
      <acc value="0.0941989163" flag="0"/>
      <vel value="0.0563011409" flag="0"/>
      <psa03 value="0.3081741382" flag="0"/>
      <psa10 value="0.0462654598" flag="0"/>
      <psa30 value="0.0035605007" flag="0"/>
    </comp>
    <comp name="--.HHN">
      <acc value="0.0981851899" flag="0"/>
      <vel value="0.0499937689" flag="0"/>
      <psa03 value="0.3577605901" flag="0"/>
      <psa10 value="0.0746893166" flag="0"/>
      <psa30 value="0.0028779565" flag="0"/>
    </comp>
    <comp name="--.HHZ">
      <acc value="0.0718391076" flag="0"/>
      <vel value="0.0303528380" flag="0"/>
      <psa03 value="0.2417841227" flag="0"/>
      <psa10 value="0.0232777842" flag="0"/>
      <psa30 value="0.0014018033" flag="0"/>
    </comp>
  </station>
  <station code="KTHR" name="KTHR" netid="HC" source="NOA" insttype="120" lat="36.2447" lon="22.9939">
    <comp name="--.HHE">
      <acc value="0.0974553726" flag="0"/>
      <vel value="0.0662570237" flag="0"/>
      <psa03 value="0.4468216512" flag="0"/>
      <psa10 value="0.0498254765" flag="0"/>
      <psa30 value="0.0033692909" flag="0"/>
    </comp>
    <comp name="--.HHN">
      <acc value="0.0872600799" flag="0"/>
      <vel value="0.0442811867" flag="0"/>
      <psa03 value="0.3585760595" flag="0"/>
      <psa10 value="0.0377619111" flag="0"/>
      <psa30 value="0.0017874796" flag="0"/>
    </comp>
    <comp name="--.HHZ">
      <acc value="0.0691099393" flag="0"/>
      <vel value="0.0257110684" flag="0"/>
      <psa03 value="0.2045122361" flag="0"/>
      <psa10 value="0.0222983060" flag="0"/>
      <psa30 value="0.0014911792" flag="0"/>
    </comp>
  </station>
  <station code="PRNS" name="PRNS" netid="HC" source="NOA" insttype="120" lat="35.3445" lon="24.4266">
    <comp name="--.HHE">
      <acc value="0.0688010106" flag="0"/>
      <vel value="0.0330313319" flag="0"/>
      <psa03 value="0.1463519212" flag="0"/>
      <psa10 value="0.0287865231" flag="0"/>
      <psa30 value="0.0014869308" flag="0"/>
    </comp>
    <comp name="--.HHN">
      <acc value="0.0353162457" flag="0"/>
      <vel value="0.0158696991" flag="0"/>
      <psa03 value="0.0498845051" flag="0"/>
      <psa10 value="0.0115859677" flag="0"/>
      <psa30 value="0.0007519106" flag="0"/>
    </comp>
    <comp name="--.HHZ">
      <acc value="0.0439426004" flag="0"/>
      <vel value="0.0143991055" flag="0"/>
      <psa03 value="0.1345059943" flag="0"/>
      <psa10 value="0.0119162439" flag="0"/>
      <psa30 value="0.0009603299" flag="0"/>
    </comp>
  </station>
  <station code="ANKY" name="ANKY" netid="HL" source="NOA" insttype="60" lat="35.867" lon="23.3012">
    <comp name="--.HHE">
      <acc value="0.0247982178" flag="0"/>
      <vel value="0.0182139849" flag="0"/>
      <psa03 value="0.0978504323" flag="0"/>
      <psa10 value="0.0226372352" flag="0"/>
      <psa30 value="0.0011602859" flag="0"/>
    </comp>
    <comp name="--.HHN">
      <acc value="0.0335022064" flag="0"/>
      <vel value="0.0203741338" flag="0"/>
      <psa03 value="0.0830962147" flag="0"/>
      <psa10 value="0.0160285790" flag="0"/>
      <psa30 value="0.0012969428" flag="0"/>
    </comp>
    <comp name="--.HHZ">
      <acc value="0.0288207585" flag="0"/>
      <vel value="0.0134987615" flag="0"/>
      <psa03 value="0.0733187380" flag="0"/>
      <psa10 value="0.0074544340" flag="0"/>
      <psa30 value="0.0008400912" flag="0"/>
    </comp>
  </station>
  <station code="GVD" name="GVD" netid="HL" source="NOA" insttype="120" lat="34.8391" lon="24.0874">
    <comp name="--.HHE">
      <acc value="0.0234373358" flag="0"/>
      <vel value="0.0128413538" flag="0"/>
      <psa03 value="0.0911771447" flag="0"/>
      <psa10 value="0.0066897368" flag="0"/>
      <psa30 value="0.0006503683" flag="0"/>
    </comp>
    <comp name="--.HHN">
      <acc value="0.0210788225" flag="0"/>
      <vel value="0.0128122308" flag="0"/>
      <psa03 value="0.0774788481" flag="0"/>
      <psa10 value="0.0062430873" flag="0"/>
      <psa30 value="0.0007504518" flag="0"/>
    </comp>
    <comp name="--.HHZ">
      <acc value="0.0152425509" flag="0"/>
      <vel value="0.0060748150" flag="0"/>
      <psa03 value="0.0279991399" flag="0"/>
      <psa10 value="0.0047094178" flag="0"/>
      <psa30 value="0.0003945332" flag="0"/>
    </comp>
  </station>
  <station code="IMMV" name="IMMV" netid="HL" source="NOA" insttype="120" lat="35.4606" lon="23.9811">
    <comp name="--.HHE">
      <acc value="0.0645775873" flag="0"/>
      <vel value="0.0357521613" flag="0"/>
      <psa03 value="0.2116177803" flag="0"/>
      <psa10 value="0.0193702860" flag="0"/>
      <psa30 value="0.0014270511" flag="0"/>
    </comp>
    <comp name="--.HHN">
      <acc value="0.0864103630" flag="0"/>
      <vel value="0.0469744770" flag="0"/>
      <psa03 value="0.2130576744" flag="0"/>
      <psa10 value="0.0337112216" flag="0"/>
      <psa30 value="0.0016384457" flag="0"/>
    </comp>
    <comp name="--.HHZ">
      <acc value="0.0516961465" flag="0"/>
      <vel value="0.0314511306" flag="0"/>
      <psa03 value="0.1356686139" flag="0"/>
      <psa10 value="0.0113806306" flag="0"/>
      <psa30 value="0.0010614336" flag="0"/>
    </comp>
  </station>
  <station code="VAM" name="VAM" netid="HL" source="NOA" insttype="120" lat="35.407" lon="24.1997">
    <comp name="--.HHE">
      <acc value="0.0435047874" flag="0"/>
      <vel value="0.0175428647" flag="0"/>
      <psa03 value="0.0805439815" flag="0"/>
      <psa10 value="0.0165302853" flag="0"/>
      <psa30 value="0.0006898273" flag="0"/>
    </comp>
    <comp name="--.HHN">
      <acc value="0.0606198767" flag="0"/>
      <vel value="0.0275842023" flag="0"/>
      <psa03 value="0.0973004086" flag="0"/>
      <psa10 value="0.0201027248" flag="0"/>
      <psa30 value="0.0013950957" flag="0"/>
    </comp>
    <comp name="--.HHZ">
      <acc value="0.0254994258" flag="0"/>
      <vel value="0.0140941842" flag="0"/>
      <psa03 value="0.0477156095" flag="0"/>
      <psa10 value="0.0102490996" flag="0"/>
      <psa30 value="0.0006864254" flag="0"/>
    </comp>
  </station>
</stationlist>
