<stationlist xmlns:esm="https://esm-db.eu/esmws/shakemap/1/" created="1783475689">
	<station code="IMMV" name="IMMV" netid="GE" source="GEOFON" insttype="" lat="35.4606" lon="23.9811" esm:processing="manual (Paolucci et al 2011)" esm:quality="best">
		<comp name="--.HNE" depth="0.0">
			<acc value="0.0644557712672732" flag="0"/>
			<vel value="0.035713214770599" flag="0"/>
			<psa03 value="0.211093730825006" flag="0"/>
			<psa10 value="0.0195339999874713" flag="0"/>
			<psa30 value="0.00143667225451271" flag="0"/>
		</comp>
		<comp name="--.HNN" depth="0.0">
			<acc value="0.086692579433339" flag="0"/>
			<vel value="0.0471344336608549" flag="0"/>
			<psa03 value="0.21435991190814" flag="0"/>
			<psa10 value="0.0340828233135347" flag="0"/>
			<psa30 value="0.00156955660816897" flag="0"/>
		</comp>
		<comp name="--.HNZ" depth="0.0">
			<acc value="0.051987026929195" flag="0"/>
			<vel value="0.0322485917917364" flag="0"/>
			<psa03 value="0.136732183425438" flag="0"/>
			<psa10 value="0.0113797328312912" flag="0"/>
			<psa30 value="0.00115703346314851" flag="0"/>
		</comp>
	</station>
	<station code="CH01" name="CH01" netid="HI" source="ITSAK Strong Motion Network" insttype="" lat="35.517" lon="24.0208" esm:processing="manual (Paolucci et al 2011)" esm:quality="best">
		<comp name="--.HNE" depth="0.0">
			<acc value="0.0664736331506536" flag="0"/>
			<vel value="0.0400613055614468" flag="0"/>
			<psa03 value="0.154713957373646" flag="0"/>
			<psa10 value="0.0246227023831736" flag="0"/>
			<psa30 value="0.00208417244119601" flag="0"/>
		</comp>
		<comp name="--.HNN" depth="0.0">
			<acc value="0.06132078959107" flag="0"/>
			<vel value="0.0285655540691142" flag="0"/>
			<psa03 value="0.217379400318382" flag="0"/>
			<psa10 value="0.0389247810757214" flag="0"/>
			<psa30 value="0.00261380127650678" flag="0"/>
		</comp>
		<comp name="--.HNZ" depth="0.0">
			<acc value="0.0521001104891276" flag="0"/>
			<vel value="0.0157935395355361" flag="0"/>
			<psa03 value="0.0903126598538508" flag="0"/>
			<psa10 value="0.0194775902947703" flag="0"/>
			<psa30 value="0.00130709638038503" flag="0"/>
		</comp>
	</station>
	<station code="NPS1" name="NPS1" netid="HI" source="ITSAK Strong Motion Network" insttype="" lat="36.51263" lon="23.06248" esm:processing="manual (Paolucci et al 2011)" esm:quality="good">
		<comp name="--.HNE" depth="0.0">
			<acc value="0.0226273239688513" flag="0"/>
			<vel value="0.0190022217895246" flag="0"/>
			<psa03 value="0.0593271957607644" flag="0"/>
			<psa10 value="0.0200613952189694" flag="0"/>
			<psa30 value="0.000792868200708541" flag="0"/>
		</comp>
		<comp name="--.HNN" depth="0.0">
			<acc value="0.0192368654966713" flag="0"/>
			<vel value="0.0118398718950894" flag="0"/>
			<psa03 value="0.0574463315790676" flag="0"/>
			<psa10 value="0.00768543380975719" flag="0"/>
			<psa30 value="0.000729489523018117" flag="0"/>
		</comp>
		<comp name="--.HNZ" depth="0.0">
			<acc value="0.0154025165431606" flag="0"/>
			<vel value="0.00609795528831516" flag="0"/>
			<psa03 value="0.030635430488564" flag="0"/>
			<psa10 value="0.00597646856795314" flag="0"/>
			<psa30 value="0.000630367435834069" flag="0"/>
		</comp>
	</station>
	<station code="ANKY" name="ANKY" netid="HL" source="National Observatory of Athens Seismic Network" insttype="" lat="35.86704" lon="23.30117" esm:processing="manual (Paolucci et al 2011)" esm:quality="good">
		<comp name="00.HNE" depth="0.0">
			<acc value="0.0281834795081525" flag="0"/>
			<vel value="0.0196146530850833" flag="0"/>
			<psa03 value="0.105224960220531" flag="0"/>
			<psa10 value="0.020240540836495" flag="0"/>
			<psa30 value="0.00108591339476635" flag="0"/>
		</comp>
		<comp name="00.HNN" depth="0.0">
			<acc value="0.0355300422544512" flag="0"/>
			<vel value="0.020029924806577" flag="0"/>
			<psa03 value="0.0850244241174862" flag="0"/>
			<psa10 value="0.0193685818234897" flag="0"/>
			<psa30 value="0.00142743487305485" flag="0"/>
		</comp>
		<comp name="00.HNZ" depth="0.0">
			<acc value="0.032200761526585" flag="0"/>
			<vel value="0.013336772518476" flag="0"/>
			<psa03 value="0.0736111472105712" flag="0"/>
			<psa10 value="0.00751927952161559" flag="0"/>
			<psa30 value="0.000803124817660971" flag="0"/>
		</comp>
	</station>
	<station code="CHNB" name="CHNB" netid="HL" source="National Observatory of Athens Seismic Network" insttype="" lat="35.48765" lon="24.06605" esm:processing="manual (Paolucci et al 2011)" esm:quality="good">
		<comp name="00.HNE" depth="0.0">
			<acc value="0.149133111902975" flag="0"/>
			<vel value="0.0970302642204868" flag="0"/>
			<psa03 value="0.456393817183857" flag="0"/>
			<psa10 value="0.0632381517171945" flag="0"/>
			<psa30 value="0.00417990064790403" flag="0"/>
		</comp>
		<comp name="00.HNN" depth="0.0">
			<acc value="0.14471053869428" flag="0"/>
			<vel value="0.0850725095725712" flag="0"/>
			<psa03 value="0.270005678217729" flag="0"/>
			<psa10 value="0.0720203934976114" flag="0"/>
			<psa30 value="0.00379748198121085" flag="0"/>
		</comp>
		<comp name="00.HNZ" depth="0.0">
			<acc value="0.122499516648943" flag="0"/>
			<vel value="0.0689506282065702" flag="0"/>
			<psa03 value="0.424331693225498" flag="0"/>
			<psa10 value="0.0252186674879543" flag="0"/>
			<psa30 value="0.00194889472971116" flag="0"/>
		</comp>
	</station>
	<station code="GVD" name="GVD" netid="HL" source="National Observatory of Athens Seismic Network" insttype="" lat="34.83914" lon="24.08738" esm:processing="automatic (Paolucci et al 2011)" esm:quality="best">
		<comp name="00.HNE" depth="1.0">
			<acc value="0.0228611652494201" flag="0"/>
			<vel value="0.0126402085768072" flag="0"/>
			<psa03 value="0.0905461440712037" flag="0"/>
			<psa10 value="0.00668223672788805" flag="0"/>
			<psa30 value="0.000656118672975655" flag="0"/>
		</comp>
		<comp name="00.HNN" depth="1.0">
			<acc value="0.0206500537095903" flag="0"/>
			<vel value="0.0125831786611855" flag="0"/>
			<psa03 value="0.0768656544722172" flag="0"/>
			<psa10 value="0.00615481913279879" flag="0"/>
			<psa30 value="0.000784806312482118" flag="0"/>
		</comp>
		<comp name="00.HNZ" depth="1.0">
			<acc value="0.0149141168813092" flag="0"/>
			<vel value="0.00592323076824267" flag="0"/>
			<psa03 value="0.026923340830873" flag="0"/>
			<psa10 value="0.00459761097541055" flag="0"/>
			<psa30 value="0.00044684579925797" flag="0"/>
		</comp>
	</station>
	<station code="HERG" name="HERG" netid="HL" source="National Observatory of Athens Seismic Network" insttype="" lat="35.32622" lon="25.06586" esm:processing="manual (Paolucci et al 2011)" esm:quality="good">
		<comp name="00.HNE" depth="0.0">
			<acc value="0.0124676855961548" flag="0"/>
			<vel value="0.00721922593473167" flag="0"/>
			<psa03 value="0.0544673165257414" flag="0"/>
			<psa10 value="0.0164786403790521" flag="0"/>
			<psa30 value="0.000606165780508051" flag="0"/>
		</comp>
		<comp name="00.HNN" depth="0.0">
			<acc value="0.0110876610546354" flag="0"/>
			<vel value="0.00668032625929486" flag="0"/>
			<psa03 value="0.0427197284098496" flag="0"/>
			<psa10 value="0.0120484822153159" flag="0"/>
			<psa30 value="0.000580803735813727" flag="0"/>
		</comp>
		<comp name="00.HNZ" depth="0.0">
			<acc value="0.0121558960468446" flag="0"/>
			<vel value="0.00642738015769431" flag="0"/>
			<psa03 value="0.0262040640156382" flag="0"/>
			<psa10 value="0.00762157411063008" flag="0"/>
			<psa30 value="0.000352049206948859" flag="0"/>
		</comp>
	</station>
	<station code="IACM" name="IACM" netid="HL" source="National Observatory of Athens Seismic Network" insttype="" lat="35.3058" lon="25.0709" esm:processing="manual (Paolucci et al 2011)" esm:quality="good">
		<comp name="--.HNE" depth="0.0">
			<acc value="0.0255175698018437" flag="0"/>
			<vel value="0.0139205583887634" flag="0"/>
			<psa03 value="0.0849588208132559" flag="0"/>
			<psa10 value="0.0190056290296484" flag="0"/>
			<psa30 value="0.000731510177709207" flag="0"/>
		</comp>
		<comp name="--.HNN" depth="0.0">
			<acc value="0.0259727025705375" flag="0"/>
			<vel value="0.0154840689133781" flag="0"/>
			<psa03 value="0.0911473505646469" flag="0"/>
			<psa10 value="0.0209624824115812" flag="0"/>
			<psa30 value="0.000725250804723133" flag="0"/>
		</comp>
		<comp name="--.HNZ" depth="0.0">
			<acc value="0.0192761326698685" flag="0"/>
			<vel value="0.00753288247658813" flag="0"/>
			<psa03 value="0.0423548787195149" flag="0"/>
			<psa10 value="0.00663462122984544" flag="0"/>
			<psa30 value="0.000397712596507646" flag="0"/>
		</comp>
	</station>
	<station code="IMMV" name="IMMV" netid="HL" source="National Observatory of Athens Seismic Network" insttype="" lat="35.4606" lon="23.9811" esm:processing="manual (Paolucci et al 2011)" esm:quality="best">
		<comp name="--.HNE" depth="0.0">
			<acc value="0.0644557712672732" flag="0"/>
			<vel value="0.035713214770599" flag="0"/>
			<psa03 value="0.211093730825006" flag="0"/>
			<psa10 value="0.0195339999874713" flag="0"/>
			<psa30 value="0.00143667225451271" flag="0"/>
		</comp>
		<comp name="--.HNN" depth="0.0">
			<acc value="0.086692579433339" flag="0"/>
			<vel value="0.0471344336608549" flag="0"/>
			<psa03 value="0.21435991190814" flag="0"/>
			<psa10 value="0.0340828233135347" flag="0"/>
			<psa30 value="0.00156955660816897" flag="0"/>
		</comp>
		<comp name="--.HNZ" depth="0.0">
			<acc value="0.051987026929195" flag="0"/>
			<vel value="0.0322485917917364" flag="0"/>
			<psa03 value="0.136732183425438" flag="0"/>
			<psa10 value="0.0113797328312912" flag="0"/>
			<psa30 value="0.00115703346314851" flag="0"/>
		</comp>
	</station>
	<station code="MNVA" name="MNVA" netid="HL" source="National Observatory of Athens Seismic Network" insttype="" lat="36.68709" lon="23.03734" esm:processing="automatic (Paolucci et al 2011)" esm:quality="bad">
		<comp name="00.HNE" depth="0.0">
			<acc value="0" flag="1"/>
			<vel value="0" flag="1"/>
			<psa03 value="0" flag="1"/>
			<psa10 value="0" flag="1"/>
			<psa30 value="0" flag="1"/>
		</comp>
		<comp name="00.HNN" depth="0.0">
			<acc value="0" flag="1"/>
			<vel value="0" flag="1"/>
			<psa03 value="0" flag="1"/>
			<psa10 value="0" flag="1"/>
			<psa30 value="0" flag="1"/>
		</comp>
		<comp name="00.HNZ" depth="0.0">
			<acc value="0" flag="1"/>
			<vel value="0" flag="1"/>
			<psa03 value="0" flag="1"/>
			<psa10 value="0" flag="1"/>
			<psa30 value="0" flag="1"/>
		</comp>
	</station>
</stationlist>
