<?xml version="1.0" encoding="UTF-8" standalone="yes"?>
<!DOCTYPE earthquake SYSTEM "stationlist.dtd">
<stationlist created="" xmlns="ch.ethz.sed.shakemap.usgs.xml">
  <station code="DYBB" name="DYBB" netid="KO" insttype="CMG-3T" lat="37.9532" lon="40.1393">
    <comp name="--.HHZ">
      <acc value="0.0208023802" flag="0"/>
      <vel value="0.0048030355" flag="0"/>
      <psa03 value="0.0255200905" flag="0"/>
      <psa10 value="0.0068762930" flag="0"/>
      <psa30 value="0.0005488253" flag="0"/>
    </comp>
    <comp name="--.HHN">
      <acc value="0.0308935070" flag="0"/>
      <vel value="0.0102923521" flag="0"/>
      <psa03 value="0.0692426243" flag="0"/>
      <psa10 value="0.0112593522" flag="0"/>
      <psa30 value="0.0017741601" flag="0"/>
    </comp>
  </station>
  <station code="URFA" name="URFA" netid="KO" insttype="CMG-3ESP" lat="37.4409" lon="38.8213">
    <comp name="--.HHE">
      <acc value="0.0244731488" flag="0"/>
      <vel value="0.0084587539" flag="0"/>
      <psa03 value="0.0440829402" flag="0"/>
      <psa10 value="0.0064293089" flag="0"/>
      <psa30 value="0.0006258292" flag="0"/>
    </comp>
    <comp name="--.HHN">
      <acc value="0.0261492891" flag="0"/>
      <vel value="0.0147969942" flag="0"/>
      <psa03 value="0.0366001270" flag="0"/>
      <psa10 value="0.0135170079" flag="0"/>
      <psa30 value="0.0006837403" flag="0"/>
    </comp>
  </station>
</stationlist>
