<?xml version="1.0" encoding="UTF-8" standalone="yes"?>
<!DOCTYPE earthquake SYSTEM "stationlist.dtd">
<stationlist created="" xmlns="ch.ethz.sed.shakemap.usgs.xml">
  <station code="THERA" name="THERA" netid="GE" insttype="STS-2/N" lat="36.367" lon="25.4753">
    <comp name="--.HHE">
      <acc value="0.3754104024" flag="0"/>
      <vel value="0.1333945916" flag="0"/>
      <psa03 value="0.4657015001" flag="0"/>
      <psa10 value="0.0812512833" flag="0"/>
      <psa30 value="0.0092270382" flag="0"/>
    </comp>
    <comp name="--.HHN">
      <acc value="0.3287892587" flag="0"/>
      <vel value="0.0939670211" flag="0"/>
      <psa03 value="0.3278092865" flag="0"/>
      <psa10 value="0.0419559561" flag="0"/>
      <psa30 value="0.0031442371" flag="0"/>
    </comp>
    <comp name="--.HHZ">
      <acc value="0.3095486083" flag="0"/>
      <vel value="0.0768525320" flag="0"/>
      <psa03 value="0.2114476461" flag="0"/>
      <psa10 value="0.0592000516" flag="0"/>
      <psa30 value="0.0068994329" flag="0"/>
    </comp>
  </station>
</stationlist>
