<?xml version="1.0" encoding="UTF-8" standalone="yes"?>
<!DOCTYPE earthquake SYSTEM "stationlist.dtd">
<stationlist created="" xmlns="ch.ethz.sed.shakemap.usgs.xml">
  <station code="THERA" name="THERA" netid="GE" insttype="STS-2/N" lat="36.367" lon="25.4753">
    <comp name="--.HHE">
      <acc value="0.3754104022" flag="0"/>
      <vel value="0.1333945893" flag="0"/>
      <psa03 value="0.4657015001" flag="0"/>
      <psa10 value="0.0812512930" flag="0"/>
      <psa30 value="0.0092258568" flag="0"/>
    </comp>
    <comp name="--.HHZ">
      <acc value="0.3095486091" flag="0"/>
      <vel value="0.0768525310" flag="0"/>
      <psa03 value="0.2114476461" flag="0"/>
      <psa10 value="0.0592000451" flag="0"/>
      <psa30 value="0.0068997406" flag="0"/>
    </comp>
    <comp name="--.HHN">
      <acc value="0.3287892592" flag="0"/>
      <vel value="0.0939670247" flag="0"/>
      <psa03 value="0.3278092865" flag="0"/>
      <psa10 value="0.0419559544" flag="0"/>
      <psa30 value="0.0031445425" flag="0"/>
    </comp>
  </station>
</stationlist>
