<stationlist created="1741951764">
	<station code="ABEA" name="ABEA" netid="HC" source="Seismological Network of Crete (HC)" insttype="" lat="35.5163" lon="24.0113">
		<comp name=".HNE" depth="0.0">
			<acc value="0.0019039501182702" flag="0"/>
			<vel value="0.0021439255136" flag="0"/>
			<psa03 value="0.0023060708973907" flag="0"/>
			<psa10 value="0.00132384918288767" flag="0"/>
			<psa30 value="0.00110012423199693" flag="0"/>
		</comp>
		<comp name=".HNN" depth="0.0">
			<acc value="0.0019108051940202" flag="0"/>
			<vel value="0.00246466262468" flag="0"/>
			<psa03 value="0.00211625363542768" flag="0"/>
			<psa10 value="0.000958238869245881" flag="0"/>
			<psa30 value="0.00101128813870782" flag="0"/>
		</comp>
		<comp name=".HNZ" depth="0.0">
			<acc value="0.002766354110052" flag="0"/>
			<vel value="0.00202608754404" flag="0"/>
			<psa03 value="0.00123973902766653" flag="0"/>
			<psa10 value="0.000909599436187178" flag="0"/>
			<psa30 value="0.000865568954279439" flag="0"/>
		</comp>
	</station>
	<station code="ATEI" name="ATEI" netid="HC" source="Seismological Network of Crete (HC)" insttype="" lat="35.5193" lon="24.0432">
		<comp name=".HNE" depth="0.0">
			<acc value="0.015956823522702" flag="0"/>
			<vel value="0.0102216642631" flag="0"/>
			<psa03 value="0.0424752695073" flag="0"/>
			<psa10 value="0.015558990394266" flag="0"/>
			<psa30 value="0.00157846925334257" flag="0"/>
		</comp>
		<comp name=".HNN" depth="0.0">
			<acc value="0.01572690756405" flag="0"/>
			<vel value="0.00920430784042" flag="0"/>
			<psa03 value="0.0373051301359734" flag="0"/>
			<psa10 value="0.0142077261921366" flag="0"/>
			<psa30 value="0.00199642537838371" flag="0"/>
		</comp>
		<comp name=".HNZ" depth="0.0">
			<acc value="0.01304882117421" flag="0"/>
			<vel value="0.00658432145308" flag="0"/>
			<psa03 value="0.0244471273146915" flag="0"/>
			<psa10 value="0.0114376605013864" flag="0"/>
			<psa30 value="0.00129592397360151" flag="0"/>
		</comp>
	</station>
	<station code="G0LD" name="G0LD" netid="HC" source="Seismological Network of Crete (HC)" insttype="" lat="35.4955" lon="24.0306">
		<comp name=".HNE" depth="0.0">
			<acc value="0.0027921752047668" flag="0"/>
			<vel value="0.00334700208726" flag="0"/>
			<psa03 value="0.00384315693403786" flag="0"/>
			<psa10 value="0.00196210595645431" flag="0"/>
			<psa30 value="0.00143580553173862" flag="0"/>
		</comp>
		<comp name=".HNN" depth="0.0">
			<acc value="0.0026680641965052" flag="0"/>
			<vel value="0.00306320752341" flag="0"/>
			<psa03 value="0.00255194981586992" flag="0"/>
			<psa10 value="0.00191943785646135" flag="0"/>
			<psa30 value="0.00147948915472797" flag="0"/>
		</comp>
		<comp name=".HNZ" depth="0.0">
			<acc value="0.003755581608468" flag="0"/>
			<vel value="0.00642043323761" flag="0"/>
			<psa03 value="0.00265219213351529" flag="0"/>
			<psa10 value="0.0017099904659748" flag="0"/>
			<psa30 value="0.00218120928607812" flag="0"/>
		</comp>
	</station>
	<station code="PASK" name="PASK" netid="HC" source="Seismological Network of Crete (HC)" insttype="" lat="35.4996" lon="24.0121">
		<comp name=".HNE" depth="0.0">
			<acc value="0.030777525774846" flag="0"/>
			<vel value="0.0213323893915" flag="0"/>
			<psa03 value="0.0691014526321397" flag="0"/>
			<psa10 value="0.0331786504227494" flag="0"/>
			<psa30 value="0.00358145350371709" flag="0"/>
		</comp>
		<comp name=".HNN" depth="0.0">
			<acc value="0.028913043293724" flag="0"/>
			<vel value="0.0153379225604" flag="0"/>
			<psa03 value="0.0612979565222474" flag="0"/>
			<psa10 value="0.0278673985783948" flag="0"/>
			<psa30 value="0.0035040412922066" flag="0"/>
		</comp>
		<comp name=".HNZ" depth="0.0">
			<acc value="0.014934552605004" flag="0"/>
			<vel value="0.012083118548" flag="0"/>
			<psa03 value="0.0495229004407522" flag="0"/>
			<psa10 value="0.0183373160071932" flag="0"/>
			<psa30 value="0.00184673692058923" flag="0"/>
		</comp>
	</station>
	<station code="ARK1" name="ARK1" netid="HI" source="ITSAK Strong Motion Network" insttype="" lat="35.148777" lon="25.264194">
		<comp name=".HNE" depth="0.0">
			<acc value="0.039859388060844" flag="0"/>
			<vel value="0.0270282233439" flag="0"/>
			<psa03 value="0.125098891354044" flag="0"/>
			<psa10 value="0.0276596854434147" flag="0"/>
			<psa30 value="0.00633757775010385" flag="0"/>
		</comp>
		<comp name=".HNN" depth="0.0">
			<acc value="0.042244451502276" flag="0"/>
			<vel value="0.0242376524656" flag="0"/>
			<psa03 value="0.125679481898976" flag="0"/>
			<psa10 value="0.0246692692180019" flag="0"/>
			<psa30 value="0.00339580745557986" flag="0"/>
		</comp>
		<comp name=".HNZ" depth="0.0">
			<acc value="0.033845642563362" flag="0"/>
			<vel value="0.014812754907" flag="0"/>
			<psa03 value="0.105328987945267" flag="0"/>
			<psa10 value="0.0285941685983371" flag="0"/>
			<psa30 value="0.00233480175248883" flag="0"/>
		</comp>
	</station>
	<station code="CH02" name="CH02" netid="HI" source="ITSAK Strong Motion Network" insttype="" lat="35.5145" lon="24.0315">
		<comp name=".HNE" depth="0.0">
			<acc value="0.016615113714012" flag="0"/>
			<vel value="0.0124529823055" flag="0"/>
			<psa03 value="0.0335873291623634" flag="0"/>
			<psa10 value="0.0188143326071987" flag="0"/>
			<psa30 value="0.00213332986430187" flag="0"/>
		</comp>
		<comp name=".HNN" depth="0.0">
			<acc value="0.018685534215636" flag="0"/>
			<vel value="0.0105593809416" flag="0"/>
			<psa03 value="0.0526457427303922" flag="0"/>
			<psa10 value="0.019162065017745" flag="0"/>
			<psa30 value="0.0019761667446826" flag="0"/>
		</comp>
		<comp name=".HNZ" depth="0.0">
			<acc value="0.0098214738633492" flag="0"/>
			<vel value="0.00671708985274" flag="0"/>
			<psa03 value="0.0176371944192535" flag="0"/>
			<psa10 value="0.0124562645414023" flag="0"/>
			<psa30 value="0.00101946232604292" flag="0"/>
		</comp>
	</station>
	<station code="CH03" name="CH03" netid="HI" source="ITSAK Strong Motion Network" insttype="" lat="35.53303" lon="24.0705">
		<comp name=".HNE" depth="0.0">
			<acc value="0.013754745962628" flag="0"/>
			<vel value="0.0125246416515" flag="0"/>
			<psa03 value="0.033009040853624" flag="0"/>
			<psa10 value="0.0193426844829037" flag="0"/>
			<psa30 value="0.00160134045594591" flag="0"/>
		</comp>
		<comp name=".HNN" depth="0.0">
			<acc value="0.016851190014174" flag="0"/>
			<vel value="0.0119287175901" flag="0"/>
			<psa03 value="0.0422314955459931" flag="0"/>
			<psa10 value="0.0209382201793332" flag="0"/>
			<psa30 value="0.00217347564875972" flag="0"/>
		</comp>
		<comp name=".HNZ" depth="0.0">
			<acc value="0.0074104543604148" flag="0"/>
			<vel value="0.00497352301415" flag="0"/>
			<psa03 value="0.0213590776944797" flag="0"/>
			<psa10 value="0.00728940101204367" flag="0"/>
			<psa30 value="0.000863903114760274" flag="0"/>
		</comp>
	</station>
	<station code="GOR1" name="GOR1" netid="HI" source="ITSAK Strong Motion Network" insttype="" lat="35.0582" lon="24.9628">
		<comp name=".HNE" depth="0.0">
			<acc value="0.015300258453822" flag="0"/>
			<vel value="0.0137815208398" flag="0"/>
			<psa03 value="0.057724818777621" flag="0"/>
			<psa10 value="0.0206740301780477" flag="0"/>
			<psa30 value="0.00354579489151025" flag="0"/>
		</comp>
		<comp name=".HNN" depth="0.0">
			<acc value="0.014741519125416" flag="0"/>
			<vel value="0.0163283955516" flag="0"/>
			<psa03 value="0.0361499520485549" flag="0"/>
			<psa10 value="0.0180466961300364" flag="0"/>
			<psa30 value="0.00357626816021287" flag="0"/>
		</comp>
		<comp name=".HNZ" depth="0.0">
			<acc value="0.015014963472174" flag="0"/>
			<vel value="0.00911378506229" flag="0"/>
			<psa03 value="0.0272471565529088" flag="0"/>
			<psa10 value="0.0191834808114671" flag="0"/>
			<psa30 value="0.00135737064830944" flag="0"/>
		</comp>
	</station>
	<station code="HER3" name="HER3" netid="HI" source="ITSAK Strong Motion Network" insttype="" lat="35.3296" lon="25.1065">
		<comp name=".HNE" depth="0.0">
			<acc value="0.100999668846456" flag="0"/>
			<vel value="0.0528245484476" flag="0"/>
			<psa03 value="0.241108097228216" flag="0"/>
			<psa10 value="0.113184297904132" flag="0"/>
			<psa30 value="0.00849243508213863" flag="0"/>
		</comp>
		<comp name=".HNN" depth="0.0">
			<acc value="0.10967739557514" flag="0"/>
			<vel value="0.0607440981931" flag="0"/>
			<psa03 value="0.321324744520742" flag="0"/>
			<psa10 value="0.0729222682423997" flag="0"/>
			<psa30 value="0.00439396899554599" flag="0"/>
		</comp>
		<comp name=".HNZ" depth="0.0">
			<acc value="0.077357216362062" flag="0"/>
			<vel value="0.0330016160208" flag="0"/>
			<psa03 value="0.193831236201538" flag="0"/>
			<psa10 value="0.0286057756172514" flag="0"/>
			<psa30 value="0.00216515426417777" flag="0"/>
		</comp>
	</station>
	<station code="KIS1" name="KIS1" netid="HI" source="ITSAK Strong Motion Network" insttype="" lat="35.493933" lon="23.658993">
		<comp name=".HNE" depth="0.0">
			<acc value="0.008449418922636" flag="0"/>
			<vel value="0.00922888134188" flag="0"/>
			<psa03 value="0.023008352315437" flag="0"/>
			<psa10 value="0.0160189030487279" flag="0"/>
			<psa30 value="0.00167463635310559" flag="0"/>
		</comp>
		<comp name=".HNN" depth="0.0">
			<acc value="0.010225466702202" flag="0"/>
			<vel value="0.00949080657208" flag="0"/>
			<psa03 value="0.0264210809961" flag="0"/>
			<psa10 value="0.0152015204636366" flag="0"/>
			<psa30 value="0.00165201995904678" flag="0"/>
		</comp>
		<comp name=".HNZ" depth="0.0">
			<acc value="0.0072013271436834" flag="0"/>
			<vel value="0.00559478630381" flag="0"/>
			<psa03 value="0.0136134226557657" flag="0"/>
			<psa10 value="0.0088230247945873" flag="0"/>
			<psa30 value="0.00120049900633205" flag="0"/>
		</comp>
	</station>
	<station code="KRL1" name="KRL1" netid="HI" source="ITSAK Strong Motion Network" insttype="" lat="37.7951" lon="26.7065">
		<comp name=".HNE" depth="0.0">
			<acc value="0.030821657499582" flag="0"/>
			<vel value="0.0153933875876" flag="0"/>
			<psa03 value="0.0730680643590882" flag="0"/>
			<psa10 value="0.0246298634825765" flag="0"/>
			<psa30 value="0.0028329562111143" flag="0"/>
		</comp>
		<comp name=".HNN" depth="0.0">
			<acc value="0.039177541025022" flag="0"/>
			<vel value="0.0195178503803" flag="0"/>
			<psa03 value="0.0978454817830886" flag="0"/>
			<psa10 value="0.02478840898542" flag="0"/>
			<psa30 value="0.00298360952448724" flag="0"/>
		</comp>
		<comp name=".HNZ" depth="0.0">
			<acc value="0.014664850935678" flag="0"/>
			<vel value="0.00941196244066" flag="0"/>
			<psa03 value="0.0347488123549609" flag="0"/>
			<psa10 value="0.0123909839668698" flag="0"/>
			<psa30 value="0.00210620640083746" flag="0"/>
		</comp>
	</station>
	<station code="KTL1" name="KTL1" netid="HI" source="ITSAK Strong Motion Network" insttype="" lat="35.20778" lon="25.34272">
		<comp name=".HNE" depth="0.0">
			<acc value="0.033818230470342" flag="0"/>
			<vel value="0.0219903604745" flag="0"/>
			<psa03 value="0.124513394234665" flag="0"/>
			<psa10 value="0.0247374131072321" flag="0"/>
			<psa30 value="0.00370668721650373" flag="0"/>
		</comp>
		<comp name=".HNN" depth="0.0">
			<acc value="0.041332244506596" flag="0"/>
			<vel value="0.0201711308707" flag="0"/>
			<psa03 value="0.134305136639578" flag="0"/>
			<psa10 value="0.0332977808145724" flag="0"/>
			<psa30 value="0.002339544358333" flag="0"/>
		</comp>
		<comp name=".HNZ" depth="0.0">
			<acc value="0.018632026336638" flag="0"/>
			<vel value="0.00700638773167" flag="0"/>
			<psa03 value="0.0355042061460801" flag="0"/>
			<psa10 value="0.0127045431761517" flag="0"/>
			<psa30 value="0.00107005119813994" flag="0"/>
		</comp>
	</station>
	<station code="NAX1" name="NAX1" netid="HI" source="ITSAK Strong Motion Network" insttype="" lat="37.101394" lon="25.374103">
		<comp name=".HNE" depth="0.0">
			<acc value="0.31038078461556" flag="0"/>
			<vel value="0.0861964080076" flag="0"/>
			<psa03 value="0.60387175354138" flag="0"/>
			<psa10 value="0.0453159469591571" flag="0"/>
			<psa30 value="0.00409707224426284" flag="0"/>
		</comp>
		<comp name=".HNN" depth="0.0">
			<acc value="0.33467277591648" flag="0"/>
			<vel value="0.0627772328638" flag="0"/>
			<psa03 value="0.313149598790573" flag="0"/>
			<psa10 value="0.0333443401488843" flag="0"/>
			<psa30 value="0.00516094605402698" flag="0"/>
		</comp>
		<comp name=".HNZ" depth="0.0">
			<acc value="0.16621784682924" flag="0"/>
			<vel value="0.0466967799329" flag="0"/>
			<psa03 value="0.250220117521442" flag="0"/>
			<psa10 value="0.0418173514443385" flag="0"/>
			<psa30 value="0.00490849349692409" flag="0"/>
		</comp>
	</station>
	<station code="RTH1" name="RTH1" netid="HI" source="ITSAK Strong Motion Network" insttype="" lat="35.365393" lon="24.471773">
		<comp name=".HNE" depth="0.0">
			<acc value="0.014379469498116" flag="0"/>
			<vel value="0.0078536419551" flag="0"/>
			<psa03 value="0.0424722458695132" flag="0"/>
			<psa10 value="0.00694689551022067" flag="0"/>
			<psa30 value="0.00334875621366331" flag="0"/>
		</comp>
		<comp name=".HNN" depth="0.0">
			<acc value="0.015568531514718" flag="0"/>
			<vel value="0.00931499215651" flag="0"/>
			<psa03 value="0.0533892034393055" flag="0"/>
			<psa10 value="0.00650557471240366" flag="0"/>
			<psa30 value="0.00248968347097917" flag="0"/>
		</comp>
		<comp name=".HNZ" depth="0.0">
			<acc value="0.011604157206648" flag="0"/>
			<vel value="0.00542199058204" flag="0"/>
			<psa03 value="0.0188686106299566" flag="0"/>
			<psa10 value="0.00606801353859879" flag="0"/>
			<psa30 value="0.0013501748591239" flag="0"/>
		</comp>
	</station>
	<station code="SFR2" name="SFR2" netid="HI" source="ITSAK Strong Motion Network" insttype="" lat="36.399841" lon="25.438209">
		<comp name=".HNE" depth="0.0">
			<acc value="0.67501638043158" flag="0"/>
			<vel value="0.302285144167" flag="0"/>
			<psa03 value="1.15299313013827" flag="0"/>
			<psa10 value="0.277252686629888" flag="0"/>
			<psa30 value="0.0276905393623416" flag="0"/>
		</comp>
		<comp name=".HNN" depth="0.0">
			<acc value="0.66805696850418" flag="0"/>
			<vel value="0.290340491332" flag="0"/>
			<psa03 value="1.2755393315559" flag="0"/>
			<psa10 value="0.480001857765959" flag="0"/>
			<psa30 value="0.0217719839537717" flag="0"/>
		</comp>
		<comp name=".HNZ" depth="0.0">
			<acc value="0.95950227787542" flag="0"/>
			<vel value="0.214593906503" flag="0"/>
			<psa03 value="0.795827136307158" flag="0"/>
			<psa10 value="0.169026502176208" flag="0"/>
			<psa30 value="0.0108258854951031" flag="0"/>
		</comp>
	</station>
	<station code="ANAF" name="ANAF" netid="HL" source="National Observatory of Athens Seismic Network" insttype="" lat="36.35675" lon="25.77262">
		<comp name=".HNE" depth="0.0">
			<acc value="2.6828383036914" flag="0"/>
			<vel value="1.20522272951" flag="0"/>
			<psa03 value="7.18394323431079" flag="0"/>
			<psa10 value="0.329206798334785" flag="0"/>
			<psa30 value="0.0329314082108363" flag="0"/>
		</comp>
		<comp name=".HNN" depth="0.0">
			<acc value="4.0086879553242" flag="0"/>
			<vel value="1.0177927229" flag="0"/>
			<psa03 value="6.76661892197816" flag="0"/>
			<psa10 value="0.222246607747193" flag="0"/>
			<psa30 value="0.0273006201987599" flag="0"/>
		</comp>
		<comp name=".HNZ" depth="0.0">
			<acc value="1.9862158423128" flag="0"/>
			<vel value="0.573963137333" flag="0"/>
			<psa03 value="2.47907639330947" flag="0"/>
			<psa10 value="0.109233793702837" flag="0"/>
			<psa30 value="0.0175092999052019" flag="0"/>
		</comp>
	</station>
	<station code="TNSA" name="TNSA" netid="HL" source="National Observatory of Athens Seismic Network" insttype="" lat="37.53942" lon="25.1631">
		<comp name="00.HNE" depth="0.0">
			<acc value="0.0" flag="1"/>
			<vel value="0.0" flag="1"/>
			<psa03 value="0.0" flag="1"/>
			<psa10 value="0.0" flag="1"/>
			<psa30 value="0.0" flag="1"/>
		</comp>
		<comp name="00.HNN" depth="0.0">
			<acc value="0.0016226352200334" flag="0"/>
			<vel value="0.00052087139119" flag="0"/>
			<psa03 value="0.00174062312023826" flag="0"/>
			<psa10 value="0.000144048712442263" flag="0"/>
			<psa30 value="0.000129275582101972" flag="0"/>
		</comp>
		<comp name="00.HNZ" depth="0.0">
			<acc value="0.038937543821502" flag="0"/>
			<vel value="0.012026109239" flag="0"/>
			<psa03 value="0.0601556204314726" flag="0"/>
			<psa10 value="0.00524383503460364" flag="0"/>
			<psa30 value="0.00166376834148642" flag="0"/>
		</comp>
	</station>
	<station code="BODA" name="BODA" netid="KO" source="Bogazici University Kandilli Observatory And Earthquake Research Institute (KOERI)" insttype="" lat="37.0348" lon="27.4304">
		<comp name=".HNE" depth="0.0">
			<acc value="0.011534867629182" flag="0"/>
			<vel value="0.00618142445283" flag="0"/>
			<psa03 value="0.0281245714481705" flag="0"/>
			<psa10 value="0.00543813446848682" flag="0"/>
			<psa30 value="0.000889130775548594" flag="0"/>
		</comp>
		<comp name=".HNN" depth="0.0">
			<acc value="0.012333552701496" flag="0"/>
			<vel value="0.0057162857888" flag="0"/>
			<psa03 value="0.0271521372374866" flag="0"/>
			<psa10 value="0.00638619258518593" flag="0"/>
			<psa30 value="0.00105009320935615" flag="0"/>
		</comp>
		<comp name=".HNZ" depth="0.0">
			<acc value="0.011183886189774" flag="0"/>
			<vel value="0.0034719203867" flag="0"/>
			<psa03 value="0.00720980508816013" flag="0"/>
			<psa10 value="0.00344849805544796" flag="0"/>
			<psa30 value="0.000822750440678099" flag="0"/>
		</comp>
	</station>
	<station code="BODM" name="BODM" netid="KO" source="Bogazici University Kandilli Observatory And Earthquake Research Institute (KOERI)" insttype="" lat="37.031" lon="27.4247">
		<comp name=".HNE" depth="0.0">
			<acc value="0.016905709596594" flag="0"/>
			<vel value="0.0106524576193" flag="0"/>
			<psa03 value="0.0455508925231519" flag="0"/>
			<psa10 value="0.00631464581428608" flag="0"/>
			<psa30 value="0.000979158614454618" flag="0"/>
		</comp>
		<comp name=".HNN" depth="0.0">
			<acc value="0.013054994104458" flag="0"/>
			<vel value="0.00922429953189" flag="0"/>
			<psa03 value="0.0263753175478551" flag="0"/>
			<psa10 value="0.0110780576169363" flag="0"/>
			<psa30 value="0.00134935376306511" flag="0"/>
		</comp>
		<comp name=".HNZ" depth="0.0">
			<acc value="0.0099986175415032" flag="0"/>
			<vel value="0.00329888330945" flag="0"/>
			<psa03 value="0.0085295090485403" flag="0"/>
			<psa10 value="0.00384619901055692" flag="0"/>
			<psa30 value="0.000863583614425632" flag="0"/>
		</comp>
	</station>
	<station code="CESE" name="CESE" netid="KO" source="Bogazici University Kandilli Observatory And Earthquake Research Institute (KOERI)" insttype="" lat="38.3306" lon="26.2997">
		<comp name=".HNE" depth="0.0">
			<acc value="0.07094631330393" flag="0"/>
			<vel value="0.00551604043734" flag="0"/>
			<psa03 value="0.00910830259911783" flag="0"/>
			<psa10 value="0.00578571405642922" flag="0"/>
			<psa30 value="0.00176453751695008" flag="0"/>
		</comp>
		<comp name=".HNN" depth="0.0">
			<acc value="0.052504013374932" flag="0"/>
			<vel value="0.00651726035115" flag="0"/>
			<psa03 value="0.012020009808304" flag="0"/>
			<psa10 value="0.00793448593324241" flag="0"/>
			<psa30 value="0.00196149889800874" flag="0"/>
		</comp>
		<comp name=".HNZ" depth="0.0">
			<acc value="0.010717750582506" flag="0"/>
			<vel value="0.0030661129827" flag="0"/>
			<psa03 value="0.00526803257505469" flag="0"/>
			<psa10 value="0.00390365351976082" flag="0"/>
			<psa30 value="0.00155610558435822" flag="0"/>
		</comp>
	</station>
	<station code="DATC" name="DATC" netid="KO" source="Bogazici University Kandilli Observatory And Earthquake Research Institute (KOERI)" insttype="" lat="36.7584" lon="27.6602">
		<comp name=".HNE" depth="0.0">
			<acc value="0.2874162111075" flag="0"/>
			<vel value="0.0230946561402" flag="0"/>
			<psa03 value="0.0224313896153279" flag="0"/>
			<psa10 value="0.0163503762571909" flag="0"/>
			<psa30 value="0.0027735360248175" flag="0"/>
		</comp>
		<comp name=".HNN" depth="0.0">
