<?xml version="1.0" encoding="UTF-8" standalone="yes"?>
<!DOCTYPE earthquake SYSTEM "stationlist.dtd">
<stationlist created="" xmlns="ch.ethz.sed.shakemap.usgs.xml">
  <station code="MDNY" name="MDNY" netid="KO" insttype="CMG-5T" commtype="DIG" lat="40.3709" lon="28.8846">
    <comp name="--.HNE">
      <acc value="0.0500365646" flag="0"/>
      <vel value="0.0215866875" flag="0"/>
      <psa03 value="0.1036316834" flag="0"/>
      <psa10 value="0.0117297965" flag="0"/>
      <psa30 value="0.0188532624" flag="0"/>
    </comp>
    <comp name="--.HNN">
      <acc value="0.0609904319" flag="0"/>
      <vel value="0.0235186401" flag="0"/>
      <psa03 value="0.1015993049" flag="0"/>
      <psa10 value="0.0092889891" flag="0"/>
      <psa30 value="0.0203323497" flag="0"/>
    </comp>
    <comp name="--.HNZ">
      <acc value="0.0752029665" flag="0"/>
      <vel value="0.0185478130" flag="0"/>
      <psa03 value="0.0467972234" flag="0"/>
      <psa10 value="0.0047938409" flag="0"/>
      <psa30 value="0.0081786986" flag="0"/>
    </comp>
  </station>
</stationlist>
