<?xml version="1.0" encoding="UTF-8" standalone="yes"?>
<!DOCTYPE earthquake SYSTEM "stationlist.dtd">
<stationlist created="" xmlns="ch.ethz.sed.shakemap.usgs.xml">
  <station code="ARPRA" name="ARPRA" netid="KO" insttype="CMG-5T" lat="39.0929" lon="38.3356">
    <comp name="--.HNE">
      <acc value="0.0475400339" flag="0"/>
      <vel value="0.0622050138" flag="0"/>
      <psa03 value="0.1991772548" flag="0"/>
      <psa10 value="0.1379846802" flag="0"/>
      <psa30 value="0.0190633755" flag="0"/>
    </comp>
    <comp name="--.HNN">
      <acc value="0.0691907454" flag="0"/>
      <vel value="0.0706456056" flag="0"/>
      <psa03 value="0.1871913885" flag="0"/>
      <psa10 value="0.1278081217" flag="0"/>
      <psa30 value="0.0138263699" flag="0"/>
    </comp>
    <comp name="--.HNZ">
      <acc value="0.0307741715" flag="0"/>
      <vel value="0.0463603225" flag="0"/>
      <psa03 value="0.1092307601" flag="0"/>
      <psa10 value="0.0989149160" flag="0"/>
      <psa30 value="0.0103764947" flag="0"/>
    </comp>
  </station>
  <station code="SARI" name="SARI" netid="KO" insttype="CMG-3T" lat="38.4072" lon="36.4181">
    <comp name="--.HHZ">
      <acc value="0.1309991708" flag="0"/>
      <vel value="0.0551429931" flag="0"/>
      <psa03 value="0.3532932688" flag="0"/>
      <psa10 value="0.0488351571" flag="0"/>
      <psa30 value="0.0073706603" flag="0"/>
    </comp>
  </station>
  <station code="URFA" name="URFA" netid="KO" insttype="CMG-3ESP" lat="37.4409" lon="38.8213">
    <comp name="--.HHE">
      <acc value="0.0672470044" flag="0"/>
      <vel value="0.0383193233" flag="0"/>
      <psa03 value="0.1343276112" flag="0"/>
      <psa10 value="0.0404037359" flag="0"/>
      <psa30 value="0.0070695521" flag="0"/>
    </comp>
    <comp name="--.HHZ">
      <acc value="0.1280813630" flag="0"/>
      <vel value="0.0714250249" flag="0"/>
      <psa03 value="0.2286475191" flag="0"/>
      <psa10 value="0.0425537979" flag="0"/>
      <psa30 value="0.0054620794" flag="0"/>
    </comp>
  </station>
  <station code="ANDN" name="ANDN" netid="TU" insttype="T" lat="37.58" lon="36.3452">
    <comp name="--.HHZ">
      <acc value="0.2549763660" flag="0"/>
      <vel value="0.1158177390" flag="0"/>
      <psa03 value="0.3442684860" flag="0"/>
      <psa10 value="0.1931519431" flag="0"/>
      <psa30 value="0.0282452375" flag="0"/>
    </comp>
    <comp name="--.HHE">
      <acc value="0.4575400558" flag="0"/>
      <vel value="0.1490951024" flag="0"/>
      <psa03 value="0.5895667454" flag="0"/>
      <psa10 value="0.2568085422" flag="0"/>
      <psa30 value="0.0167006836" flag="0"/>
    </comp>
    <comp name="--.HHN">
      <acc value="0.4297693740" flag="0"/>
      <vel value="0.1926166911" flag="0"/>
      <psa03 value="0.9054341392" flag="0"/>
      <psa10 value="0.2352182722" flag="0"/>
      <psa30 value="0.0276459495" flag="0"/>
    </comp>
  </station>
</stationlist>
