<?xml version="1.0" encoding="UTF-8" standalone="yes"?>
<!DOCTYPE earthquake SYSTEM "stationlist.dtd">
<stationlist created="" xmlns="ch.ethz.sed.shakemap.usgs.xml">
  <station code="ARPRA" name="ARPRA" netid="KO" insttype="CMG-5T" lat="39.0929" lon="38.3356">
    <comp name="--.HNE">
      <acc value="0.0475400326" flag="0"/>
      <vel value="0.0622050156" flag="0"/>
      <psa03 value="0.1991772548" flag="0"/>
      <psa10 value="0.1379846801" flag="0"/>
      <psa30 value="0.0190635674" flag="0"/>
    </comp>
    <comp name="--.HNN">
      <acc value="0.0691907432" flag="0"/>
      <vel value="0.0706455980" flag="0"/>
      <psa03 value="0.1871913886" flag="0"/>
      <psa10 value="0.1278081217" flag="0"/>
      <psa30 value="0.0138264153" flag="0"/>
    </comp>
    <comp name="--.HNZ">
      <acc value="0.0307741712" flag="0"/>
      <vel value="0.0463603155" flag="0"/>
      <psa03 value="0.1092307601" flag="0"/>
      <psa10 value="0.0989149160" flag="0"/>
      <psa30 value="0.0103764793" flag="0"/>
    </comp>
  </station>
  <station code="GAZ" name="GAZ" netid="KO" insttype="CMG-3T" lat="37.1721" lon="37.2096">
    <comp name="--.HHZ">
      <acc value="0.0468019445" flag="0"/>
      <vel value="0.0367014484" flag="0"/>
      <psa03 value="0.1229256025" flag="0"/>
      <psa10 value="0.0483809427" flag="0"/>
      <psa30 value="0.0112223060" flag="0"/>
    </comp>
  </station>
  <station code="KMRS" name="KMRS" netid="KO" insttype="CMG-3T" lat="37.5053" lon="36.9">
    <comp name="--.HHZ">
      <acc value="0.1001492784" flag="0"/>
      <vel value="0.0622321086" flag="0"/>
      <psa03 value="0.1773100703" flag="0"/>
      <psa10 value="0.0811823359" flag="0"/>
      <psa30 value="0.0116710554" flag="0"/>
    </comp>
    <comp name="--.HHN">
      <acc value="0.1623569771" flag="0"/>
      <vel value="0.1254649885" flag="0"/>
      <psa03 value="0.4054907046" flag="0"/>
      <psa10 value="0.1478539672" flag="0"/>
      <psa30 value="0.0227822415" flag="0"/>
    </comp>
    <comp name="--.HHE">
      <acc value="0.1126570689" flag="0"/>
      <vel value="0.0748262276" flag="0"/>
      <psa03 value="0.2305576664" flag="0"/>
      <psa10 value="0.0869364243" flag="0"/>
      <psa30 value="0.0120733593" flag="0"/>
    </comp>
  </station>
  <station code="SARI" name="SARI" netid="KO" insttype="CMG-3T" lat="38.4072" lon="36.4181">
    <comp name="--.HHZ">
      <acc value="0.1309991709" flag="0"/>
      <vel value="0.0551429922" flag="0"/>
      <psa03 value="0.3532932688" flag="0"/>
      <psa10 value="0.0488351561" flag="0"/>
      <psa30 value="0.0073706162" flag="0"/>
    </comp>
  </station>
  <station code="URFA" name="URFA" netid="KO" insttype="CMG-3ESP" lat="37.4409" lon="38.8213">
    <comp name="--.HHZ">
      <acc value="0.1280813630" flag="0"/>
      <vel value="0.0714250206" flag="0"/>
      <psa03 value="0.2286475190" flag="0"/>
      <psa10 value="0.0425539795" flag="0"/>
      <psa30 value="0.0054624255" flag="0"/>
    </comp>
    <comp name="--.HHE">
      <acc value="0.0672470044" flag="0"/>
      <vel value="0.0383193182" flag="0"/>
      <psa03 value="0.1343276113" flag="0"/>
      <psa10 value="0.0404037361" flag="0"/>
      <psa30 value="0.0070696300" flag="0"/>
    </comp>
  </station>
  <station code="ANDN" name="ANDN" netid="TU" insttype="T" lat="37.58" lon="36.3452">
    <comp name="--.HHE">
      <acc value="0.4575400556" flag="0"/>
      <vel value="0.1490950895" flag="0"/>
      <psa03 value="0.5895667454" flag="0"/>
      <psa10 value="0.2568085422" flag="0"/>
      <psa30 value="0.0167007305" flag="0"/>
    </comp>
    <comp name="--.HHZ">
      <acc value="0.2549763664" flag="0"/>
      <vel value="0.1158177335" flag="0"/>
      <psa03 value="0.3442684860" flag="0"/>
      <psa10 value="0.1931519431" flag="0"/>
      <psa30 value="0.0282453044" flag="0"/>
    </comp>
    <comp name="--.HHN">
      <acc value="0.4297693738" flag="0"/>
      <vel value="0.1926166833" flag="0"/>
      <psa03 value="0.9054341392" flag="0"/>
      <psa10 value="0.2352182739" flag="0"/>
      <psa30 value="0.0276459707" flag="0"/>
    </comp>
  </station>
</stationlist>
