<?xml version="1.0" encoding="UTF-8" standalone="yes"?>
<!DOCTYPE earthquake SYSTEM "stationlist.dtd">
<stationlist created="" xmlns="ch.ethz.sed.shakemap.usgs.xml">
  <station code="DARE" name="DARE" netid="KO" insttype="CMG-3ESP" lat="38.5712" lon="37.4832">
    <comp name="--.HHN">
      <acc value="0.0155966778" flag="0"/>
      <vel value="0.0065898207" flag="0"/>
      <psa03 value="0.0308938863" flag="0"/>
      <psa10 value="0.0113112395" flag="0"/>
      <psa30 value="0.0011322381" flag="0"/>
    </comp>
    <comp name="--.HHZ">
      <acc value="0.0164862955" flag="0"/>
      <vel value="0.0113962552" flag="0"/>
      <psa03 value="0.0380953707" flag="0"/>
      <psa10 value="0.0123442428" flag="0"/>
      <psa30 value="0.0012266324" flag="0"/>
    </comp>
    <comp name="--.HHE">
      <acc value="0.0155905479" flag="0"/>
      <vel value="0.0112906347" flag="0"/>
      <psa03 value="0.0471976015" flag="0"/>
      <psa10 value="0.0148781265" flag="0"/>
      <psa30 value="0.0013507248" flag="0"/>
    </comp>
  </station>
  <station code="GAZ" name="GAZ" netid="KO" insttype="CMG-3T" lat="37.1721" lon="37.2096">
    <comp name="--.HHN">
      <acc value="0.0325268265" flag="0"/>
      <vel value="0.0241933313" flag="0"/>
      <psa03 value="0.0615709139" flag="0"/>
      <psa10 value="0.0254980601" flag="0"/>
      <psa30 value="0.0032026426" flag="0"/>
    </comp>
    <comp name="--.HHZ">
      <acc value="0.0206752808" flag="0"/>
      <vel value="0.0136197321" flag="0"/>
      <psa03 value="0.0412237011" flag="0"/>
      <psa10 value="0.0123235083" flag="0"/>
      <psa30 value="0.0024770796" flag="0"/>
    </comp>
    <comp name="--.HHE">
      <acc value="0.0408881731" flag="0"/>
      <vel value="0.0259781429" flag="0"/>
      <psa03 value="0.0798961564" flag="0"/>
      <psa10 value="0.0248956172" flag="0"/>
      <psa30 value="0.0020192150" flag="0"/>
    </comp>
  </station>
  <station code="KMRS" name="KMRS" netid="KO" insttype="CMG-3T" lat="37.5053" lon="36.9">
    <comp name="--.HHE">
      <acc value="0.0189928048" flag="0"/>
      <vel value="0.0184648156" flag="0"/>
      <psa03 value="0.0495316345" flag="0"/>
      <psa10 value="0.0231223641" flag="0"/>
      <psa30 value="0.0057185819" flag="0"/>
    </comp>
    <comp name="--.HHZ">
      <acc value="0.0144411069" flag="0"/>
      <vel value="0.0088052911" flag="0"/>
      <psa03 value="0.0360918094" flag="0"/>
      <psa10 value="0.0086357175" flag="0"/>
      <psa30 value="0.0033701796" flag="0"/>
    </comp>
  </station>
  <station code="SARI" name="SARI" netid="KO" insttype="CMG-3T" lat="38.4072" lon="36.4181">
    <comp name="--.HHN">
      <acc value="0.2958282493" flag="0"/>
      <vel value="0.0902625627" flag="0"/>
      <psa03 value="0.6214391028" flag="0"/>
      <psa10 value="0.0644775659" flag="0"/>
      <psa30 value="0.0067092058" flag="0"/>
    </comp>
    <comp name="--.HHE">
      <acc value="0.3172052774" flag="0"/>
      <vel value="0.1271898639" flag="0"/>
      <psa03 value="0.5441008303" flag="0"/>
      <psa10 value="0.0617377822" flag="0"/>
      <psa30 value="0.0043394896" flag="0"/>
    </comp>
    <comp name="--.HHZ">
      <acc value="0.1764465262" flag="0"/>
      <vel value="0.0727669474" flag="0"/>
      <psa03 value="0.3206792349" flag="0"/>
      <psa10 value="0.0653331673" flag="0"/>
      <psa30 value="0.0057225726" flag="0"/>
    </comp>
  </station>
  <station code="ANDN" name="ANDN" netid="TU" insttype="T" lat="37.58" lon="36.3452">
    <comp name="--.HHE">
      <acc value="0.1767603917" flag="0"/>
      <vel value="0.0672694565" flag="0"/>
      <psa03 value="0.3378204676" flag="0"/>
      <psa10 value="0.0928405528" flag="0"/>
      <psa30 value="0.0090615114" flag="0"/>
    </comp>
    <comp name="--.HHZ">
      <acc value="0.0876632267" flag="0"/>
      <vel value="0.0595277151" flag="0"/>
      <psa03 value="0.2770624234" flag="0"/>
      <psa10 value="0.1031263174" flag="0"/>
      <psa30 value="0.0106587425" flag="0"/>
    </comp>
    <comp name="--.HHN">
      <acc value="0.3451328731" flag="0"/>
      <vel value="0.0864164713" flag="0"/>
      <psa03 value="0.3153659540" flag="0"/>
      <psa10 value="0.0799291644" flag="0"/>
      <psa30 value="0.0167656051" flag="0"/>
    </comp>
  </station>
</stationlist>
