<?xml version="1.0" encoding="UTF-8" standalone="yes"?>
<!DOCTYPE earthquake SYSTEM "stationlist.dtd">
<stationlist created="" xmlns="ch.ethz.sed.shakemap.usgs.xml">
  <station code="BEHE" name="BEHE" netid="HU" insttype="" lat="46.4703" lon="16.7755">
    <comp name="--.HHZ">
      <acc value="0.0073677826" flag="0"/>
      <vel value="0.0041187838" flag="0"/>
      <psa03 value="0.0227593180" flag="0"/>
      <psa10 value="0.0065084339" flag="0"/>
      <psa30 value="0.0008781456" flag="0"/>
    </comp>
    <comp name="--.HHE">
      <acc value="0.0087346884" flag="0"/>
      <vel value="0.0066321858" flag="0"/>
      <psa03 value="0.0274747119" flag="0"/>
      <psa10 value="0.0165410941" flag="0"/>
      <psa30 value="0.0017459513" flag="0"/>
    </comp>
    <comp name="--.HHN">
      <acc value="0.0077480684" flag="0"/>
      <vel value="0.0065242116" flag="0"/>
      <psa03 value="0.0367891341" flag="0"/>
      <psa10 value="0.0094634959" flag="0"/>
      <psa30 value="0.0015016275" flag="0"/>
    </comp>
  </station>
  <station code="BLY" name="BLY" netid="MN" insttype="" lat="44.7488" lon="17.1839">
    <comp name="--.HHN">
      <acc value="0.0152186536" flag="0"/>
      <vel value="0.0089429158" flag="0"/>
      <psa03 value="0.0336810777" flag="0"/>
      <psa10 value="0.0134867176" flag="0"/>
      <psa30 value="0.0007976333" flag="0"/>
    </comp>
    <comp name="--.HHE">
      <acc value="0.0297112297" flag="0"/>
      <vel value="0.0173145900" flag="0"/>
      <psa03 value="0.0582986266" flag="0"/>
      <psa10 value="0.0139499730" flag="0"/>
      <psa30 value="0.0025957141" flag="0"/>
    </comp>
    <comp name="--.HHZ">
      <acc value="0.0180422135" flag="0"/>
      <vel value="0.0088614896" flag="0"/>
      <psa03 value="0.0292286995" flag="0"/>
      <psa10 value="0.0085777653" flag="0"/>
      <psa30 value="0.0020066625" flag="0"/>
    </comp>
  </station>
</stationlist>
