<stationlist created="1779846891">
	<station code="BLY" name="BLY" netid="MN" source="Mediterranean Very Broadband Seismographic Network (MedNet)" insttype="" lat="44.7488" lon="17.1839">
		<comp name="--.HNE" depth="1.0">
			<acc value="0.0285055537469289" flag="0"/>
			<vel value="0.0175000607306792" flag="0"/>
			<psa03 value="0.0564199225456407" flag="0"/>
			<psa10 value="0.0136790348294042" flag="0"/>
			<psa30 value="0.00309750296418295" flag="0"/>
		</comp>
		<comp name="--.HNN" depth="1.0">
			<acc value="0.0155391130351388" flag="0"/>
			<vel value="0.00911633471926913" flag="0"/>
			<psa03 value="0.0337356237901769" flag="0"/>
			<psa10 value="0.0139488303353124" flag="0"/>
			<psa30 value="0.00097806463667542" flag="0"/>
		</comp>
		<comp name="--.HNZ" depth="1.0">
			<acc value="0.0176075918039859" flag="0"/>
			<vel value="0.00905880831104912" flag="0"/>
			<psa03 value="0.029306145334968" flag="0"/>
			<psa10 value="0.00864150978625301" flag="0"/>
			<psa30 value="0.00225813916802418" flag="0"/>
		</comp>
	</station>
	<station code="BOJS" name="BOJS" netid="SL" source="Seismic Network of the Republic of Slovenia (SNRS)" insttype="" lat="45.5043" lon="15.2518">
		<comp name="--.HNE" depth="0.0">
			<acc value="0.0252987624855634" flag="0"/>
			<vel value="0.0080874156403295" flag="0"/>
			<psa03 value="0.0473885715520764" flag="0"/>
			<psa10 value="0.00755144212099678" flag="0"/>
			<psa30 value="0.00144406180784181" flag="0"/>
		</comp>
		<comp name="--.HNN" depth="0.0">
			<acc value="0.0215237364830792" flag="0"/>
			<vel value="0.0106047585187439" flag="0"/>
			<psa03 value="0.0498069348818841" flag="0"/>
			<psa10 value="0.0103922431226097" flag="0"/>
			<psa30 value="0.00231017907969332" flag="0"/>
		</comp>
		<comp name="--.HNZ" depth="0.0">
			<acc value="0.0194304163640323" flag="0"/>
			<vel value="0.0105925441579533" flag="0"/>
			<psa03 value="0.0611527698210347" flag="0"/>
			<psa10 value="0.0101400661045966" flag="0"/>
			<psa30 value="0.000979138196433637" flag="0"/>
		</comp>
	</station>
	<station code="CEY" name="CEY" netid="SL" source="Seismic Network of the Republic of Slovenia (SNRS)" insttype="" lat="45.7381" lon="14.4221">
		<comp name="--.HNE" depth="0.0">
			<acc value="0.00953239987824466" flag="0"/>
			<vel value="0.00475746320384146" flag="0"/>
			<psa03 value="0.0157519002569149" flag="0"/>
			<psa10 value="0.00720866331982961" flag="0"/>
			<psa30 value="0.000396005400081009" flag="0"/>
		</comp>
		<comp name="--.HNN" depth="0.0">
			<acc value="0.008754747800083" flag="0"/>
			<vel value="0.00669181437407543" flag="0"/>
			<psa03 value="0.0217746677252828" flag="0"/>
			<psa10 value="0.0112179625099596" flag="0"/>
			<psa30 value="0.000632211985108909" flag="0"/>
		</comp>
		<comp name="--.HNZ" depth="0.0">
			<acc value="0.00622286144022855" flag="0"/>
			<vel value="0.00734873882345819" flag="0"/>
			<psa03 value="0.0224734444845707" flag="0"/>
			<psa10 value="0.0130727678817187" flag="0"/>
			<psa30 value="0.000621513880578669" flag="0"/>
		</comp>
	</station>
	<station code="CRES" name="CRES" netid="SL" source="Seismic Network of the Republic of Slovenia (SNRS)" insttype="" lat="45.826" lon="15.4569">
		<comp name="--.HNE" depth="0.0">
			<acc value="0.0218301868433572" flag="0"/>
			<vel value="0.00789389345216055" flag="0"/>
			<psa03 value="0.0463772389313379" flag="0"/>
			<psa10 value="0.00687867005315138" flag="0"/>
			<psa30 value="0.000560058819897116" flag="0"/>
		</comp>
		<comp name="--.HNN" depth="0.0">
			<acc value="0.0241948791938477" flag="0"/>
			<vel value="0.00852531983240232" flag="0"/>
			<psa03 value="0.047308014132092" flag="0"/>
			<psa10 value="0.00658762921060364" flag="0"/>
			<psa30 value="0.000618449771345179" flag="0"/>
		</comp>
		<comp name="--.HNZ" depth="0.0">
			<acc value="0.011195486361881" flag="0"/>
			<vel value="0.00433200405198664" flag="0"/>
			<psa03 value="0.0165018093096919" flag="0"/>
			<psa10 value="0.00388346522926121" flag="0"/>
			<psa30 value="0.000544442212459009" flag="0"/>
		</comp>
	</station>
	<station code="CRNS" name="CRNS" netid="SL" source="Seismic Network of the Republic of Slovenia (SNRS)" insttype="" lat="46.0807" lon="14.2613">
		<comp name="--.HNE" depth="0.0">
			<acc value="0.0111530634741568" flag="0"/>
			<vel value="0.00527738215266387" flag="0"/>
			<psa03 value="0.0281207248391924" flag="0"/>
			<psa10 value="0.00715429831215496" flag="0"/>
			<psa30 value="0.000771554080420626" flag="0"/>
		</comp>
		<comp name="--.HNN" depth="0.0">
			<acc value="0.00854763026989793" flag="0"/>
			<vel value="0.00417028326347988" flag="0"/>
			<psa03 value="0.0229470149187947" flag="0"/>
			<psa10 value="0.00476530005275232" flag="0"/>
			<psa30 value="0.000800468183337756" flag="0"/>
		</comp>
		<comp name="--.HNZ" depth="0.0">
			<acc value="0.00418826893496385" flag="0"/>
			<vel value="0.00245837314558328" flag="0"/>
			<psa03 value="0.0134861967797643" flag="0"/>
			<psa10 value="0.00301013760996828" flag="0"/>
			<psa30 value="0.00041924285090642" flag="0"/>
		</comp>
	</station>
	<station code="DOBS" name="DOBS" netid="SL" source="Seismic Network of the Republic of Slovenia (SNRS)" insttype="" lat="46.1495" lon="15.4695">
		<comp name="--.HNE" depth="0.0">
			<acc value="0.0216451572530567" flag="0"/>
			<vel value="0.00852187955337936" flag="0"/>
			<psa03 value="0.0252923968513436" flag="0"/>
			<psa10 value="0.00912564265402403" flag="0"/>
			<psa30 value="0.000949385496297523" flag="0"/>
		</comp>
		<comp name="--.HNN" depth="0.0">
			<acc value="0.0160788711276973" flag="0"/>
			<vel value="0.00573830946410899" flag="0"/>
			<psa03 value="0.0207981186586874" flag="0"/>
			<psa10 value="0.00806598745708004" flag="0"/>
			<psa30 value="0.000739055260866396" flag="0"/>
		</comp>
		<comp name="--.HNZ" depth="0.0">
			<acc value="0.0078358095298403" flag="0"/>
			<vel value="0.00397116400478598" flag="0"/>
			<psa03 value="0.00785040286317018" flag="0"/>
			<psa10 value="0.00539438078874094" flag="0"/>
			<psa30 value="0.000630752357162838" flag="0"/>
		</comp>
	</station>
	<station code="GBAS" name="GBAS" netid="SL" source="Seismic Network of the Republic of Slovenia (SNRS)" insttype="" lat="45.9348" lon="14.4434">
		<comp name="--.HNE" depth="0.0">
			<acc value="0.00383698748858593" flag="0"/>
			<vel value="0.0025089446523404" flag="0"/>
			<psa03 value="0.00806258488794817" flag="0"/>
			<psa10 value="0.00481259302941982" flag="0"/>
			<psa30 value="0.000485837392677189" flag="0"/>
		</comp>
		<comp name="--.HNN" depth="0.0">
			<acc value="0.0051148138374838" flag="0"/>
			<vel value="0.00324565943321818" flag="0"/>
			<psa03 value="0.0126751170080399" flag="0"/>
			<psa10 value="0.00517917653252212" flag="0"/>
			<psa30 value="0.000492788530237584" flag="0"/>
		</comp>
		<comp name="--.HNZ" depth="0.0">
			<acc value="0.00359649234153272" flag="0"/>
			<vel value="0.00262968940745832" flag="0"/>
			<psa03 value="0.00848550938899687" flag="0"/>
			<psa10 value="0.00385288804742219" flag="0"/>
			<psa30 value="0.000373661732422728" flag="0"/>
		</comp>
	</station>
	<station code="GBRS" name="GBRS" netid="SL" source="Seismic Network of the Republic of Slovenia (SNRS)" insttype="" lat="45.5311" lon="14.8101">
		<comp name="--.HNE" depth="0.0">
			<acc value="0.0151537361739704" flag="0"/>
			<vel value="0.0074957748134784" flag="0"/>
			<psa03 value="0.0216876867028011" flag="0"/>
			<psa10 value="0.0102247485894113" flag="0"/>
			<psa30 value="0.000578049178338326" flag="0"/>
		</comp>
		<comp name="--.HNN" depth="0.0">
			<acc value="0.0154729616356563" flag="0"/>
			<vel value="0.00694478400168778" flag="0"/>
			<psa03 value="0.0225791051299068" flag="0"/>
			<psa10 value="0.00756974380214557" flag="0"/>
			<psa30 value="0.000866397342490171" flag="0"/>
		</comp>
		<comp name="--.HNZ" depth="0.0">
			<acc value="0.0092092363088495" flag="0"/>
			<vel value="0.00631460687793641" flag="0"/>
			<psa03 value="0.0139514815088598" flag="0"/>
			<psa10 value="0.00898172687031316" flag="0"/>
			<psa30 value="0.000479033660710205" flag="0"/>
		</comp>
	</station>
	<station code="GCIS" name="GCIS" netid="SL" source="Seismic Network of the Republic of Slovenia (SNRS)" insttype="" lat="45.8672" lon="15.6275">
		<comp name="--.HNE" depth="0.0">
			<acc value="0.0206954449336471" flag="0"/>
			<vel value="0.00715918209635348" flag="0"/>
			<psa03 value="0.0420977158504026" flag="0"/>
			<psa10 value="0.00715380421692038" flag="0"/>
			<psa30 value="0.000435912939592786" flag="0"/>
		</comp>
		<comp name="--.HNN" depth="0.0">
			<acc value="0.02084412643849" flag="0"/>
			<vel value="0.00839080757783254" flag="0"/>
			<psa03 value="0.0404389991977357" flag="0"/>
			<psa10 value="0.011120792635428" flag="0"/>
			<psa30 value="0.000501170856358165" flag="0"/>
		</comp>
		<comp name="--.HNZ" depth="0.0">
			<acc value="0.0115929156572902" flag="0"/>
			<vel value="0.004737198633918" flag="0"/>
			<psa03 value="0.0269299402263949" flag="0"/>
			<psa10 value="0.00608637616131753" flag="0"/>
			<psa30 value="0.000397267879547213" flag="0"/>
		</comp>
	</station>
	<station code="GOLS" name="GOLS" netid="SL" source="Seismic Network of the Republic of Slovenia (SNRS)" insttype="" lat="46.0108" lon="15.6245">
		<comp name="--.HNE" depth="0.0">
			<acc value="0.0225046612213875" flag="0"/>
			<vel value="0.0103997155807155" flag="0"/>
			<psa03 value="0.0562812387724862" flag="0"/>
			<psa10 value="0.0208016173800696" flag="0"/>
			<psa30 value="0.000775522780826977" flag="0"/>
		</comp>
		<comp name="--.HNN" depth="0.0">
			<acc value="0.0171935076467925" flag="0"/>
			<vel value="0.00810529650644939" flag="0"/>
			<psa03 value="0.0334455098717" flag="0"/>
			<psa10 value="0.0111815391596128" flag="0"/>
			<psa30 value="0.000652214560181668" flag="0"/>
		</comp>
		<comp name="--.HNZ" depth="0.0">
			<acc value="0.00762632947620742" flag="0"/>
			<vel value="0.0050647193250585" flag="0"/>
			<psa03 value="0.0228460108319456" flag="0"/>
			<psa10 value="0.00922171183066256" flag="0"/>
			<psa30 value="0.000455597368587566" flag="0"/>
		</comp>
	</station>
	<station code="GORS" name="GORS" netid="SL" source="Seismic Network of the Republic of Slovenia (SNRS)" insttype="" lat="46.3174" lon="13.9999">
		<comp name="--.HNE" depth="0.0">
			<acc value="0.00254753393048713" flag="0"/>
			<vel value="0.00188429913899988" flag="0"/>
			<psa03 value="0.00682297998373491" flag="0"/>
			<psa10 value="0.00210142264643776" flag="0"/>
			<psa30 value="0.00022315618925236" flag="0"/>
		</comp>
		<comp name="--.HNN" depth="0.0">
			<acc value="0.00260796141738607" flag="0"/>
			<vel value="0.00164438069852122" flag="0"/>
			<psa03 value="0.00506204855200899" flag="0"/>
			<psa10 value="0.00301498457168059" flag="0"/>
			<psa30 value="0.000235259907731039" flag="0"/>
		</comp>
		<comp name="--.HNZ" depth="0.0">
			<acc value="0.00247756295938047" flag="0"/>
			<vel value="0.00217556590839828" flag="0"/>
			<psa03 value="0.00840206245475938" flag="0"/>
			<psa10 value="0.00275117803329255" flag="0"/>
			<psa30 value="0.000199706120175231" flag="0"/>
		</comp>
	</station>
	<station code="GROS" name="GROS" netid="SL" source="Seismic Network of the Republic of Slovenia (SNRS)" insttype="" lat="46.461" lon="15.5018">
		<comp name="--.HNE" depth="0.0">
			<acc value="0.00695095606156654" flag="0"/>
			<vel value="0.00315273478344406" flag="0"/>
			<psa03 value="0.0117317224815533" flag="0"/>
			<psa10 value="0.00542568504999075" flag="0"/>
			<psa30 value="0.000265359245414526" flag="0"/>
		</comp>
		<comp name="--.HNN" depth="0.0">
			<acc value="0.00783834442196623" flag="0"/>
			<vel value="0.00305039925984865" flag="0"/>
			<psa03 value="0.00695339291981987" flag="0"/>
			<psa10 value="0.00581756913540533" flag="0"/>
			<psa30 value="0.000344566888365154" flag="0"/>
		</comp>
		<comp name="--.HNZ" depth="0.0">
			<acc value="0.00438519048235022" flag="0"/>
			<vel value="0.00316077630935392" flag="0"/>
			<psa03 value="0.0120083540882718" flag="0"/>
			<psa10 value="0.00594115341601581" flag="0"/>
			<psa30 value="0.000391998910712537" flag="0"/>
		</comp>
	</station>
	<station code="JAVS" name="JAVS" netid="SL" source="Seismic Network of the Republic of Slovenia (SNRS)" insttype="" lat="45.8934" lon="14.0643">
		<comp name="--.HNE" depth="0.0">
			<acc value="0.00793526695001662" flag="0"/>
			<vel value="0.00659561195805629" flag="0"/>
			<psa03 value="0.0175761070391536" flag="0"/>
			<psa10 value="0.00757698975086595" flag="0"/>
			<psa30 value="0.000861996478036257" flag="0"/>
		</comp>
		<comp name="--.HNN" depth="0.0">
			<acc value="0.00528854377428125" flag="0"/>
			<vel value="0.00511682602799084" flag="0"/>
			<psa03 value="0.0164337175593828" flag="0"/>
			<psa10 value="0.00781881983345888" flag="0"/>
			<psa30 value="0.000944141086378181" flag="0"/>
		</comp>
		<comp name="--.HNZ" depth="0.0">
			<acc value="0.00384065646124153" flag="0"/>
			<vel value="0.00316405073015075" flag="0"/>
			<psa03 value="0.00840981817690702" flag="0"/>
			<psa10 value="0.0042320953555377" flag="0"/>
			<psa30 value="0.000435223571009004" flag="0"/>
		</comp>
	</station>
	<station code="KNDS" name="KNDS" netid="SL" source="Seismic Network of the Republic of Slovenia (SNRS)" insttype="" lat="45.5278" lon="14.3807">
		<comp name="--.HNE" depth="0.0">
			<acc value="0.0134587674914185" flag="0"/>
			<vel value="0.0101207229012115" flag="0"/>
			<psa03 value="0.0236714092605126" flag="0"/>
			<psa10 value="0.0150126345133441" flag="0"/>
			<psa30 value="0.00188039685873114" flag="0"/>
		</comp>
		<comp name="--.HNN" depth="0.0">
			<acc value="0.0114493840992426" flag="0"/>
			<vel value="0.00745823992175368" flag="0"/>
			<psa03 value="0.0333927277293415" flag="0"/>
			<psa10 value="0.00725104628373614" flag="0"/>
			<psa30 value="0.00149292014863402" flag="0"/>
		</comp>
		<comp name="--.HNZ" depth="0.0">
			<acc value="0.00575774321788753" flag="0"/>
			<vel value="0.00544570768256136" flag="0"/>
			<psa03 value="0.0169528665338106" flag="0"/>
			<psa10 value="0.00869096635886638" flag="0"/>
			<psa30 value="0.00179013108740112" flag="0"/>
		</comp>
	</station>
	<station code="KOGS" name="KOGS" netid="SL" source="Seismic Network of the Republic of Slovenia (SNRS)" insttype="" lat="46.4481" lon="16.2504">
		<comp name="--.HNE" depth="0.0">
			<acc value="0.0188448090819674" flag="0"/>
			<vel value="0.0124843956737367" flag="0"/>
			<psa03 value="0.0475399357457756" flag="0"/>
			<psa10 value="0.0175242077677788" flag="0"/>
			<psa30 value="0.00238940432797877" flag="0"/>
		</comp>
		<comp name="--.HNN" depth="0.0">
			<acc value="0.0190527595454318" flag="0"/>
			<vel value="0.00994695367493265" flag="0"/>
			<psa03 value="0.0458703876462212" flag="0"/>
			<psa10 value="0.0133498784264261" flag="0"/>
			<psa30 value="0.00143708478314759" flag="0"/>
		</comp>
		<comp name="--.HNZ" depth="0.0">
			<acc value="0.0143055580768258" flag="0"/>
			<vel value="0.00762563663162933" flag="0"/>
			<psa03 value="0.0249853921387792" flag="0"/>
			<psa10 value="0.0095740739229092" flag="0"/>
			<psa30 value="0.00137774970665742" flag="0"/>
		</comp>
	</station>
	<station code="LEGS" name="LEGS" netid="SL" source="Seismic Network of the Republic of Slovenia (SNRS)" insttype="" lat="45.9488" lon="15.3177">
		<comp name="--.HNE" depth="0.0">
			<acc value="0.026049850897295" flag="0"/>
			<vel value="0.01209960150497" flag="0"/>
			<psa03 value="0.0639166716658639" flag="0"/>
			<psa10 value="0.0177461268438221" flag="0"/>
			<psa30 value="0.000995412295345147" flag="0"/>
		</comp>
		<comp name="--.HNN" depth="0.0">
			<acc value="0.0145968680222792" flag="0"/>
			<vel value="0.00837372923511653" flag="0"/>
			<psa03 value="0.0374176662367383" flag="0"/>
			<psa10 value="0.00776800584226021" flag="0"/>
			<psa30 value="0.000556536451140156" flag="0"/>
		</comp>
		<comp name="--.HNZ" depth="0.0">
			<acc value="0.00904836757794834" flag="0"/>
			<vel value="0.00872592339307455" flag="0"/>
			<psa03 value="0.0228249781886155" flag="0"/>
			<psa10 value="0.0125734438664341" flag="0"/>
			<psa30 value="0.000489872920428128" flag="0"/>
		</comp>
	</station>
	<station code="LJU" name="LJU" netid="SL" source="Seismic Network of the Republic of Slovenia (SNRS)" insttype="" lat="46.0438" lon="14.5278">
		<comp name="--.HNE" depth="0.0">
			<acc value="0.00788471666339354" flag="0"/>
			<vel value="0.00658516040550445" flag="0"/>
			<psa03 value="0.0154526942380767" flag="0"/>
			<psa10 value="0.0102382382330304" flag="0"/>
			<psa30 value="0.00120480002042223" flag="0"/>
		</comp>
		<comp name="--.HNN" depth="0.0">
			<acc value="0.0105856146777048" flag="0"/>
			<vel value="0.0065336818203769" flag="0"/>
			<psa03 value="0.0178474726720436" flag="0"/>
			<psa10 value="0.00596825411755373" flag="0"/>
			<psa30 value="0.000755163202940463" flag="0"/>
		</comp>
		<comp name="--.HNZ" depth="0.0">
			<acc value="0.00362685297588337" flag="0"/>
			<vel value="0.00382524572954799" flag="0"/>
			<psa03 value="0.00974303735550685" flag="0"/>
			<psa10 value="0.00585334603671351" flag="0"/>
			<psa30 value="0.000454652618505775" flag="0"/>
		</comp>
	</station>
	<station code="MOZS" name="MOZS" netid="SL" source="Seismic Network of the Republic of Slovenia (SNRS)" insttype="" lat="46.2941" lon="14.4433">
		<comp name="--.HNE" depth="0.0">
			<acc value="0.00821102414591024" flag="0"/>
			<vel value="0.00547374339132797" flag="0"/>
			<psa03 value="0.0161722145590158" flag="0"/>
			<psa10 value="0.00661954757502836" flag="0"/>
			<psa30 value="0.00110122263809576" flag="0"/>
		</comp>
		<comp name="--.HNN" depth="0.0">
			<acc value="0.00430487969963075" flag="0"/>
			<vel value="0.00404862943894264" flag="0"/>
			<psa03 value="0.0104010692281455" flag="0"/>
			<psa10 value="0.00637399302700585" flag="0"/>
			<psa30 value="0.00105952227148567" flag="0"/>
		</comp>
		<comp name="--.HNZ" depth="0.0">
			<acc value="0.00239990282382842" flag="0"/>
			<vel value="0.00240475398983376" flag="0"/>
			<psa03 value="0.00777546495619505" flag="0"/>
			<psa10 value="0.00343124081848835" flag="0"/>
			<psa30 value="0.000770868149565811" flag="0"/>
		</comp>
	</station>
	<station code="PDKS" name="PDKS" netid="SL" source="Seismic Network of the Republic of Slovenia (SNRS)" insttype="" lat="46.0612" lon="14.9977">
		<comp name="--.HNE" depth="0.0">
			<acc value="0.00764462800750277" flag="0"/>
			<vel value="0.00662080060480158" flag="0"/>
			<psa03 value="0.0146744499748861" flag="0"/>
			<psa10 value="0.010984889257497" flag="0"/>
			<psa30 value="0.000956722857359394" flag="0"/>
		</comp>
		<comp name="--.HNN" depth="0.0">
			<acc value="0.00717748831482774" flag="0"/>
			<vel value="0.00505552284324445" flag="0"/>
			<psa03 value="0.015151587051605" flag="0"/>
			<psa10 value="0.00528742089067248" flag="0"/>
			<psa30 value="0.000761039060937229" flag="0"/>
		</comp>
		<comp name="--.HNZ" depth="0.0">
			<acc value="0.00604008649718876" flag="0"/>
			<vel value="0.00529672201465623" flag="0"/>
			<psa03 value="0.0155181490949848" flag="0"/>
			<psa10 value="0.0190830266568468" flag="0"/>
			<psa30 value="0.000847612660594639" flag="0"/>
		</comp>
	</station>
	<station code="SKDS" name="SKDS" netid="SL" source="Seismic Network of the Republic of Slovenia (SNRS)" insttype="" lat="45.5464" lon="14.0143">
		<comp name="--.HNE" depth="0.0">
			<acc value="0.00786910230513271" flag="0"/>
			<vel value="0.00629049224949289" flag="0"/>
			<psa03 value="0.0166418185846323" flag="0"/>
			<psa10 value="0.00833788328133775" flag="0"/>
			<psa30 value="0.0004414093453696" flag="0"/>
		</comp>
		<comp name="--.HNN" depth="0.0">
			<acc value="0.00633895780796113" flag="0"/>
			<vel value="0.00834109792485835" flag="0"/>
			<psa03 value="0.0112508507823781" flag="0"/>
			<psa10 value="0.0143847641700342" flag="0"/>
			<psa30 value="0.00169319695765464" flag="0"/>
		</comp>
