<?xml version="1.0" encoding="UTF-8" standalone="yes"?>
<!DOCTYPE earthquake SYSTEM "stationlist.dtd">
<stationlist created="" xmlns="ch.ethz.sed.shakemap.usgs.xml">
  <station code="BODT" name="BODT" netid="KO" insttype="CMG-3ESP" commtype="DIG" lat="37.0622" lon="27.3103">
    <comp name="--.HHZ">
      <acc value="0.0079587626" flag="0"/>
      <vel value="0.0045073594" flag="0"/>
      <psa03 value="0.0150962146" flag="0"/>
      <psa10 value="0.0048580461" flag="0"/>
      <psa30 value="0.0004102092" flag="0"/>
    </comp>
    <comp name="--.HHE">
      <acc value="0.0198059069" flag="0"/>
      <vel value="0.0075633851" flag="0"/>
      <psa03 value="0.0384429552" flag="0"/>
      <psa10 value="0.0057615624" flag="0"/>
      <psa30 value="0.0003650526" flag="0"/>
    </comp>
    <comp name="--.HHN">
      <acc value="0.0139469589" flag="0"/>
      <vel value="0.0078151571" flag="0"/>
      <psa03 value="0.0433100197" flag="0"/>
      <psa10 value="0.0048925716" flag="0"/>
      <psa30 value="0.0004217294" flag="0"/>
    </comp>
  </station>
</stationlist>
