<?xml version="1.0" encoding="UTF-8" standalone="yes"?>
<!DOCTYPE earthquake SYSTEM "stationlist.dtd">
<stationlist created="" xmlns="ch.ethz.sed.shakemap.usgs.xml">
  <station code="IOSI" name="IOSI" netid="HA" insttype="60s," commtype="DIG" lat="36.7225" lon="25.2887">
    <comp name="--.HHN">
      <acc value="0.2119415527" flag="0"/>
      <vel value="0.0334836388" flag="0"/>
      <psa03 value="0.1681484969" flag="0"/>
      <psa10 value="0.0102421032" flag="0"/>
      <psa30 value="0.0012670390" flag="0"/>
    </comp>
    <comp name="--.HHE">
      <acc value="0.2219787787" flag="0"/>
      <vel value="0.0441568201" flag="0"/>
      <psa03 value="0.1814246683" flag="0"/>
      <psa10 value="0.0200245779" flag="0"/>
      <psa30 value="0.0015625851" flag="0"/>
    </comp>
    <comp name="--.HHZ">
      <acc value="0.1872870028" flag="0"/>
      <vel value="0.0350494813" flag="0"/>
      <psa03 value="0.1317190492" flag="0"/>
      <psa10 value="0.0157661127" flag="0"/>
      <psa30 value="0.0011726655" flag="0"/>
    </comp>
  </station>
  <station code="SERI" name="SERI" netid="HA" insttype="30" commtype="DIG" lat="37.1609" lon="24.4853">
    <comp name="--.HHE">
      <acc value="0.0161486454" flag="0"/>
      <vel value="0.0052001212" flag="0"/>
      <psa03 value="0.0270181186" flag="0"/>
      <psa10 value="0.0033614002" flag="0"/>
      <psa30 value="0.0004282534" flag="0"/>
    </comp>
    <comp name="--.HHN">
      <acc value="0.0233172441" flag="0"/>
      <vel value="0.0087835365" flag="0"/>
      <psa03 value="0.0205153151" flag="0"/>
      <psa10 value="0.0087061117" flag="0"/>
      <psa30 value="0.0007618005" flag="0"/>
    </comp>
    <comp name="--.HHZ">
      <acc value="0.0239493948" flag="0"/>
      <vel value="0.0060411069" flag="0"/>
      <psa03 value="0.0269211070" flag="0"/>
      <psa10 value="0.0047981360" flag="0"/>
      <psa30 value="0.0005124751" flag="0"/>
    </comp>
  </station>
  <station code="SNT1" name="SNT1" netid="HA" insttype="30" commtype="DIG" lat="36.4159" lon="25.4282">
    <comp name="--.HHE">
      <acc value="0.0384483075" flag="0"/>
      <vel value="0.0168771622" flag="0"/>
      <psa03 value="0.0673270661" flag="0"/>
      <psa10 value="0.0115515696" flag="0"/>
      <psa30 value="0.0016211018" flag="0"/>
    </comp>
    <comp name="--.HHN">
      <acc value="0.0413021521" flag="0"/>
      <vel value="0.0137367503" flag="0"/>
      <psa03 value="0.0374481029" flag="0"/>
      <psa10 value="0.0099524939" flag="0"/>
      <psa30 value="0.0013027174" flag="0"/>
    </comp>
    <comp name="--.HHZ">
      <acc value="0.0437831902" flag="0"/>
      <vel value="0.0104681225" flag="0"/>
      <psa03 value="0.0379041815" flag="0"/>
      <psa10 value="0.0121945843" flag="0"/>
      <psa30 value="0.0007054664" flag="0"/>
    </comp>
  </station>
  <station code="SNT5" name="SNT5" netid="HA" insttype="1s-100Hz," commtype="DIG" lat="36.4037" lon="25.3953">
    <comp name="--.HHE">
      <acc value="0.1943994540" flag="0"/>
      <vel value="0.0434162006" flag="0"/>
      <psa03 value="0.1661611367" flag="0"/>
      <psa10 value="0.0162158826" flag="0"/>
      <psa30 value="0.0020041442" flag="0"/>
    </comp>
    <comp name="--.HHN">
      <acc value="0.1585677627" flag="0"/>
      <vel value="0.0434482597" flag="0"/>
      <psa03 value="0.1451813171" flag="0"/>
      <psa10 value="0.0109613074" flag="0"/>
      <psa30 value="0.0018124808" flag="0"/>
    </comp>
    <comp name="--.HHZ">
      <acc value="0.1016654900" flag="0"/>
      <vel value="0.0172462077" flag="0"/>
      <psa03 value="0.0458311963" flag="0"/>
      <psa10 value="0.0056443175" flag="0"/>
      <psa30 value="0.0004788326" flag="0"/>
    </comp>
  </station>
  <station code="NAX1" name="NAX1" netid="HI" insttype="CMG-5TD,ACCELEROMETER,GURALP" commtype="DIG" lat="37.1014" lon="25.3741">
    <comp name="--.HNE">
      <acc value="0.0693326856" flag="0"/>
      <vel value="0.0180106913" flag="0"/>
      <psa03 value="0.0576897013" flag="0"/>
      <psa10 value="0.0113609445" flag="0"/>
      <psa30 value="0.0010744475" flag="0"/>
    </comp>
    <comp name="--.HNN">
      <acc value="0.0662392291" flag="0"/>
      <vel value="0.0224380747" flag="0"/>
      <psa03 value="0.0744805125" flag="0"/>
      <psa10 value="0.0093246058" flag="0"/>
      <psa30 value="0.0014538148" flag="0"/>
    </comp>
    <comp name="--.HNZ">
      <acc value="0.0425558004" flag="0"/>
      <vel value="0.0110044209" flag="0"/>
      <psa03 value="0.0510032034" flag="0"/>
      <psa10 value="0.0098666799" flag="0"/>
      <psa30 value="0.0014673532" flag="0"/>
    </comp>
  </station>
  <station code="SFR2" name="SFR2" netid="HI" insttype="unknown" commtype="DIG" lat="36.3998" lon="25.4382">
    <comp name="--.HNE">
      <acc value="0.3420936132" flag="0"/>
      <vel value="0.1064067013" flag="0"/>
      <psa03 value="0.4359023840" flag="0"/>
      <psa10 value="0.0490111822" flag="0"/>
      <psa30 value="0.0042680302" flag="0"/>
    </comp>
    <comp name="--.HNN">
      <acc value="0.2943283197" flag="0"/>
      <vel value="0.1076634390" flag="0"/>
      <psa03 value="0.3877663542" flag="0"/>
      <psa10 value="0.0804304810" flag="0"/>
      <psa30 value="0.0034476780" flag="0"/>
    </comp>
    <comp name="--.HNZ">
      <acc value="0.2399184755" flag="0"/>
      <vel value="0.0600557493" flag="0"/>
      <psa03 value="0.2334585266" flag="0"/>
      <psa10 value="0.0237032606" flag="0"/>
      <psa30 value="0.0020286985" flag="0"/>
    </comp>
  </station>
  <station code="AMGA" name="AMGA" netid="HL" insttype="LE3D20_SMART24" commtype="DIG" lat="36.8316" lon="25.8938">
    <comp name="--.HHE">
      <acc value="1.6180065671" flag="0"/>
      <vel value="0.2546642344" flag="0"/>
      <psa03 value="0.9941380323" flag="0"/>
      <psa10 value="0.0839907972" flag="0"/>
      <psa30 value="0.0041828513" flag="0"/>
    </comp>
    <comp name="--.HHN">
      <acc value="1.9237514242" flag="0"/>
      <vel value="0.4054992510" flag="0"/>
      <psa03 value="1.3356507424" flag="0"/>
      <psa10 value="0.1018897246" flag="0"/>
      <psa30 value="0.0091146330" flag="0"/>
    </comp>
    <comp name="--.HHZ">
      <acc value="0.9368506215" flag="0"/>
      <vel value="0.2144712486" flag="0"/>
      <psa03 value="0.5601314504" flag="0"/>
      <psa10 value="0.0866441404" flag="0"/>
      <psa30 value="0.0070305793" flag="0"/>
    </comp>
  </station>
  <station code="APE" name="APE" netid="HL" insttype="120" commtype="DIG" lat="37.0727" lon="25.523">
    <comp name="--.HHE">
      <acc value="0.1166775453" flag="0"/>
      <vel value="0.0331258550" flag="0"/>
      <psa03 value="0.1865470988" flag="0"/>
      <psa10 value="0.0089325705" flag="0"/>
      <psa30 value="0.0013440749" flag="0"/>
    </comp>
    <comp name="--.HHN">
      <acc value="0.1489776902" flag="0"/>
      <vel value="0.0324581498" flag="0"/>
      <psa03 value="0.1579523117" flag="0"/>
      <psa10 value="0.0110867115" flag="0"/>
      <psa30 value="0.0021290922" flag="0"/>
    </comp>
    <comp name="--.HHZ">
      <acc value="0.0799812217" flag="0"/>
      <vel value="0.0136216339" flag="0"/>
      <psa03 value="0.0729643086" flag="0"/>
      <psa10 value="0.0107196947" flag="0"/>
      <psa30 value="0.0012274267" flag="0"/>
    </comp>
  </station>
  <station code="ASTA" name="ASTA" netid="HL" insttype="LE3D20_SMART24" commtype="DIG" lat="36.5475" lon="26.3471">
    <comp name="--.HHE">
      <acc value="0.0763068820" flag="0"/>
      <vel value="0.0211391797" flag="0"/>
      <psa03 value="0.1428444182" flag="0"/>
      <psa10 value="0.0099826343" flag="0"/>
      <psa30 value="0.0008124378" flag="0"/>
    </comp>
    <comp name="--.HHN">
      <acc value="0.1011639373" flag="0"/>
      <vel value="0.0237710307" flag="0"/>
      <psa03 value="0.1164022128" flag="0"/>
      <psa10 value="0.0142235243" flag="0"/>
      <psa30 value="0.0010619400" flag="0"/>
    </comp>
    <comp name="--.HHZ">
      <acc value="0.0681986329" flag="0"/>
      <vel value="0.0137040999" flag="0"/>
      <psa03 value="0.0948082225" flag="0"/>
      <psa10 value="0.0065600953" flag="0"/>
      <psa30 value="0.0006471418" flag="0"/>
    </comp>
  </station>
  <station code="MHLO" name="MHLO" netid="HL" insttype="20" commtype="DIG" lat="36.6898" lon="24.4017">
    <comp name="--.HHE">
      <acc value="0.0748010061" flag="0"/>
      <vel value="0.0361944327" flag="0"/>
      <psa03 value="0.2744231411" flag="0"/>
      <psa10 value="0.0195302393" flag="0"/>
      <psa30 value="0.0014595652" flag="0"/>
    </comp>
    <comp name="--.HHZ">
      <acc value="0.0313171160" flag="0"/>
      <vel value="0.0138886533" flag="0"/>
      <psa03 value="0.1195443309" flag="0"/>
      <psa10 value="0.0186630885" flag="0"/>
      <psa30 value="0.0008413712" flag="0"/>
    </comp>
    <comp name="--.HHN">
      <acc value="0.0593975920" flag="0"/>
      <vel value="0.0217412076" flag="0"/>
      <psa03 value="0.2077099925" flag="0"/>
      <psa10 value="0.0343142730" flag="0"/>
      <psa30 value="0.0014297558" flag="0"/>
    </comp>
  </station>
  <station code="MILA" name="MILA" netid="HL" insttype="CMG-5" commtype="DIG" lat="36.7429" lon="24.4282">
    <comp name="00.HNN">
      <acc value="0.0723766068" flag="0"/>
      <vel value="0.0287767564" flag="0"/>
      <psa03 value="0.1918313762" flag="0"/>
      <psa10 value="0.0233229863" flag="0"/>
      <psa30 value="0.0014197701" flag="0"/>
    </comp>
    <comp name="00.HNE">
      <acc value="0.0507128313" flag="0"/>
      <vel value="0.0280252573" flag="0"/>
      <psa03 value="0.1360579511" flag="0"/>
      <psa10 value="0.0195459126" flag="0"/>
      <psa30 value="0.0017726569" flag="0"/>
    </comp>
    <comp name="00.HNZ">
      <acc value="0.0458276120" flag="0"/>
      <vel value="0.0172104617" flag="0"/>
      <psa03 value="0.1110598401" flag="0"/>
      <psa10 value="0.0154623721" flag="0"/>
      <psa30 value="0.0008955641" flag="0"/>
    </comp>
  </station>
  <station code="SANT" name="SANT" netid="HL" insttype="30" commtype="DIG" lat="36.3705" lon="25.4593">
    <comp name="--.HHN">
      <acc value="0.2040881391" flag="0"/>
      <vel value="0.0403461829" flag="0"/>
      <psa03 value="0.1058232900" flag="0"/>
      <psa10 value="0.0125564672" flag="0"/>
      <psa30 value="0.0011246359" flag="0"/>
    </comp>
    <comp name="--.HHE">
      <acc value="0.3707892890" flag="0"/>
      <vel value="0.0643628038" flag="0"/>
      <psa03 value="0.2883510932" flag="0"/>
      <psa10 value="0.0184602060" flag="0"/>
      <psa30 value="0.0020265691" flag="0"/>
    </comp>
    <comp name="--.HHZ">
      <acc value="0.3841930203" flag="0"/>
      <vel value="0.0621841902" flag="0"/>
      <psa03 value="0.1188043250" flag="0"/>
      <psa10 value="0.0085358114" flag="0"/>
      <psa30 value="0.0010748814" flag="0"/>
    </comp>
  </station>
  <station code="THERA" name="THERA" netid="HL" insttype="120" commtype="DIG" lat="36.367" lon="25.4753">
    <comp name="--.HHE">
      <acc value="0.1238717661" flag="0"/>
      <vel value="0.0254541714" flag="0"/>
      <psa03 value="0.0991992888" flag="0"/>
      <psa10 value="0.0087966375" flag="0"/>
      <psa30 value="0.0014247915" flag="0"/>
    </comp>
    <comp name="--.HHN">
      <acc value="0.1483122343" flag="0"/>
      <vel value="0.0298507963" flag="0"/>
      <psa03 value="0.1385637894" flag="0"/>
      <psa10 value="0.0175461236" flag="0"/>
      <psa30 value="0.0012121827" flag="0"/>
    </comp>
    <comp name="--.HHZ">
      <acc value="0.0802159708" flag="0"/>
      <vel value="0.0185024549" flag="0"/>
      <psa03 value="0.1296588625" flag="0"/>
      <psa10 value="0.0101048098" flag="0"/>
      <psa30 value="0.0009855376" flag="0"/>
    </comp>
  </station>
  <station code="THRA" name="THRA" netid="HL" insttype="CMG-5" commtype="DIG" lat="36.415" lon="25.4324">
    <comp name="00.HNN">
      <acc value="0.3072952190" flag="0"/>
      <vel value="0.0988080124" flag="0"/>
      <psa03 value="0.4130437882" flag="0"/>
      <psa10 value="0.0655315826" flag="0"/>
      <psa30 value="0.0062614189" flag="0"/>
    </comp>
    <comp name="00.HNE">
      <acc value="0.3264953319" flag="0"/>
      <vel value="0.1205545977" flag="0"/>
      <psa03 value="0.4637942602" flag="0"/>
      <psa10 value="0.0816413349" flag="0"/>
      <psa30 value="0.0047688443" flag="0"/>
    </comp>
    <comp name="00.HNZ">
      <acc value="0.2514144247" flag="0"/>
      <vel value="0.0836853579" flag="0"/>
      <psa03 value="0.2966450474" flag="0"/>
      <psa10 value="0.0397940801" flag="0"/>
      <psa30 value="0.0030263905" flag="0"/>
    </comp>
  </station>
  <station code="AKRO" name="AKRO" netid="HT" insttype="Compact," commtype="DIG" lat="36.3584" lon="25.3967">
    <comp name="--.HHN">
      <acc value="0.4845720236" flag="0"/>
      <vel value="0.0768018408" flag="0"/>
      <psa03 value="0.2855530458" flag="0"/>
      <psa10 value="0.0475890200" flag="0"/>
      <psa30 value="0.0043245100" flag="0"/>
    </comp>
    <comp name="--.HHZ">
      <acc value="0.3280870170" flag="0"/>
      <vel value="0.0596183021" flag="0"/>
      <psa03 value="0.2979325859" flag="0"/>
      <psa10 value="0.0227634466" flag="0"/>
      <psa30 value="0.0019663658" flag="0"/>
    </comp>
    <comp name="--.HHE">
      <acc value="0.4905977737" flag="0"/>
      <vel value="0.1400776096" flag="0"/>
      <psa03 value="0.5972254901" flag="0"/>
      <psa10 value="0.0567763174" flag="0"/>
      <psa30 value="0.0039110576" flag="0"/>
    </comp>
  </station>
  <station code="ANYD" name="ANYD" netid="HT" insttype="120" commtype="DIG" lat="36.63" lon="25.6779">
    <comp name="--.HHE">
      <acc value="3.7311879639" flag="0"/>
      <vel value="1.4946830010" flag="0"/>
      <psa03 value="8.4252580776" flag="0"/>
      <psa10 value="0.5549600655" flag="0"/>
      <psa30 value="0.0429656916" flag="0"/>
    </comp>
    <comp name="--.HHN">
      <acc value="2.4036975665" flag="0"/>
      <vel value="0.8718758718" flag="0"/>
      <psa03 value="2.4593544975" flag="0"/>
      <psa10 value="0.5362534367" flag="0"/>
      <psa30 value="0.0530525849" flag="0"/>
    </comp>
    <comp name="--.HHZ">
      <acc value="1.4932868622" flag="0"/>
      <vel value="0.3877323399" flag="0"/>
      <psa03 value="2.0294361224" flag="0"/>
      <psa10 value="0.2193855714" flag="0"/>
      <psa30 value="0.0153146427" flag="0"/>
    </comp>
  </station>
  <station code="CHRI" name="CHRI" netid="HT" insttype="120s," commtype="DIG" lat="36.2491" lon="25.2076">
    <comp name="--.HHE">
      <acc value="0.0582427734" flag="0"/>
      <vel value="0.0237506733" flag="0"/>
      <psa03 value="0.1606635461" flag="0"/>
      <psa10 value="0.0172159975" flag="0"/>
      <psa30 value="0.0016753510" flag="0"/>
    </comp>
    <comp name="--.HHN">
      <acc value="0.0319890327" flag="0"/>
      <vel value="0.0166258585" flag="0"/>
      <psa03 value="0.0831968700" flag="0"/>
      <psa10 value="0.0083380005" flag="0"/>
      <psa30 value="0.0012877704" flag="0"/>
    </comp>
    <comp name="--.HHZ">
      <acc value="0.0478275429" flag="0"/>
      <vel value="0.0155854490" flag="0"/>
      <psa03 value="0.0931793755" flag="0"/>
      <psa10 value="0.0059707003" flag="0"/>
      <psa30 value="0.0006070074" flag="0"/>
    </comp>
  </station>
  <station code="CMBO" name="CMBO" netid="HT" insttype="120P," commtype="DIG" lat="36.4709" lon="25.4056">
    <comp name="--.HHE">
      <acc value="0.1412474674" flag="0"/>
      <vel value="0.0455832413" flag="0"/>
      <psa03 value="0.2286338636" flag="0"/>
      <psa10 value="0.0335702577" flag="0"/>
      <psa30 value="0.0025122528" flag="0"/>
    </comp>
    <comp name="--.HHN">
      <acc value="0.1625371144" flag="0"/>
      <vel value="0.0790849522" flag="0"/>
      <psa03 value="0.2198156713" flag="0"/>
      <psa10 value="0.0575004353" flag="0"/>
      <psa30 value="0.0030165061" flag="0"/>
    </comp>
    <comp name="--.HHZ">
      <acc value="0.1706750555" flag="0"/>
      <vel value="0.0414132191" flag="0"/>
      <psa03 value="0.2290192628" flag="0"/>
      <psa10 value="0.0128597752" flag="0"/>
      <psa30 value="0.0014659945" flag="0"/>
    </comp>
  </station>
  <station code="GVRL" name="GVRL" netid="HT" insttype="" commtype="DIG" lat="36.3456" lon="25.4383">
    <comp name="--.HHE">
      <acc value="0.2117816265" flag="0"/>
      <vel value="0.0485485165" flag="0"/>
      <psa03 value="0.1983087110" flag="0"/>
      <psa10 value="0.0250915379" flag="0"/>
      <psa30 value="0.0016808747" flag="0"/>
    </comp>
    <comp name="--.HHN">
      <acc value="0.1383550592" flag="0"/>
      <vel value="0.0275181214" flag="0"/>
      <psa03 value="0.0902697354" flag="0"/>
      <psa10 value="0.0082384824" flag="0"/>
      <psa30 value="0.0009766444" flag="0"/>
    </comp>
    <comp name="--.HHZ">
      <acc value="0.1085603563" flag="0"/>
      <vel value="0.0197758882" flag="0"/>
      <psa03 value="0.1055034873" flag="0"/>
      <psa10 value="0.0102450404" flag="0"/>
      <psa30 value="0.0007591648" flag="0"/>
    </comp>
  </station>
  <station code="THR3" name="THR3" netid="HT" insttype="" commtype="DIG" lat="36.4091" lon="25.4008">
    <comp name="--.HHE">
      <acc value="0.2016791357" flag="0"/>
      <vel value="0.0599558142" flag="0"/>
      <psa03 value="0.3079144477" flag="0"/>
      <psa10 value="0.0237995277" flag="0"/>
      <psa30 value="0.0024240596" flag="0"/>
    </comp>
    <comp name="--.HHN">
      <acc value="0.3394968609" flag="0"/>
      <vel value="0.0953402726" flag="0"/>
      <psa03 value="0.4425409998" flag="0"/>
      <psa10 value="0.0323843871" flag="0"/>
      <psa30 value="0.0034815882" flag="0"/>
    </comp>
    <comp name="--.HHZ">
      <acc value="0.1446203265" flag="0"/>
      <vel value="0.0349046910" flag="0"/>
      <psa03 value="0.0959242918" flag="0"/>
      <psa10 value="0.0100657688" flag="0"/>
      <psa30 value="0.0010662249" flag="0"/>
    </comp>
  </station>
  <station code="THR5" name="THR5" netid="HT" insttype="" commtype="DIG" lat="36.4172" lon="25.3479">
    <comp name="--.HHE">
      <acc value="0.1163594383" flag="0"/>
      <vel value="0.0525839500" flag="0"/>
      <psa03 value="0.2502449235" flag="0"/>
      <psa10 value="0.0227778263" flag="0"/>
      <psa30 value="0.0030028633" flag="0"/>
    </comp>
    <comp name="--.HHN">
      <acc value="0.0863551668" flag="0"/>
      <vel value="0.0298921434" flag="0"/>
      <psa03 value="0.1456941112" flag="0"/>
      <psa10 value="0.0164919812" flag="0"/>
      <psa30 value="0.0024180916" flag="0"/>
    </comp>
    <comp name="--.HHZ">
      <acc value="0.0670594680" flag="0"/>
      <vel value="0.0183265442" flag="0"/>
      <psa03 value="0.1565505258" flag="0"/>
      <psa10 value="0.0099958399" flag="0"/>
      <psa30 value="0.0011754982" flag="0"/>
    </comp>
  </station>
  <station code="THR8" name="THR8" netid="HT" insttype="" commtype="DIG" lat="36.407" lon="25.4788">
    <comp name="--.HHE">
      <acc value="0.0998813418" flag="0"/>
      <vel value="0.0297956338" flag="0"/>
      <psa03 value="0.1987512799" flag="0"/>
      <psa10 value="0.0097235036" flag="0"/>
      <psa30 value="0.0014578971" flag="0"/>
    </comp>
    <comp name="--.HHN">
      <acc value="0.0833853053" flag="0"/>
      <vel value="0.0190992411" flag="0"/>
      <psa03 value="0.0941176383" flag="0"/>
      <psa10 value="0.0211463126" flag="0"/>
      <psa30 value="0.0015761422" flag="0"/>
    </comp>
    <comp name="--.HHZ">
      <acc value="0.0678368815" flag="0"/>
      <vel value="0.0145837888" flag="0"/>
      <psa03 value="0.0628583670" flag="0"/>
      <psa10 value="0.0054861773" flag="0"/>
      <psa30 value="0.0011938600" flag="0"/>
    </comp>
  </station>
</stationlist>
