<?xml version="1.0" encoding="UTF-8" standalone="yes"?>
<!DOCTYPE earthquake SYSTEM "stationlist.dtd">
<stationlist created="" xmlns="ch.ethz.sed.shakemap.usgs.xml">
  <station code="APE" name="APE" netid="GE" insttype="STS-2/N" commtype="DIG" lat="37.0727" lon="25.523">
    <comp name="--.HHN">
      <acc value="0.1559644313" flag="0"/>
      <vel value="0.0341426640" flag="0"/>
      <psa03 value="0.1615356196" flag="0"/>
      <psa10 value="0.0111776690" flag="0"/>
      <psa30 value="0.0021389230" flag="0"/>
    </comp>
    <comp name="--.HHZ">
      <acc value="0.0832974344" flag="0"/>
      <vel value="0.0139330199" flag="0"/>
      <psa03 value="0.0754504840" flag="0"/>
      <psa10 value="0.0107782952" flag="0"/>
      <psa30 value="0.0012342630" flag="0"/>
    </comp>
    <comp name="--.HHE">
      <acc value="0.1419800428" flag="0"/>
      <vel value="0.0349503305" flag="0"/>
      <psa03 value="0.1908080762" flag="0"/>
      <psa10 value="0.0090442353" flag="0"/>
      <psa30 value="0.0013464427" flag="0"/>
    </comp>
  </station>
  <station code="THERA" name="THERA" netid="GE" insttype="STS-2/N" commtype="DIG" lat="36.367" lon="25.4753">
    <comp name="--.HHE">
      <acc value="0.1266624237" flag="0"/>
      <vel value="0.0259869645" flag="0"/>
      <psa03 value="0.1021095191" flag="0"/>
      <psa10 value="0.0089391602" flag="0"/>
      <psa30 value="0.0014339844" flag="0"/>
    </comp>
    <comp name="--.HHN">
      <acc value="0.0754634605" flag="0"/>
      <vel value="0.0154160520" flag="0"/>
      <psa03 value="0.0714813388" flag="0"/>
      <psa10 value="0.0088564030" flag="0"/>
      <psa30 value="0.0006100351" flag="0"/>
    </comp>
    <comp name="--.HHZ">
      <acc value="0.0793625740" flag="0"/>
      <vel value="0.0187579753" flag="0"/>
      <psa03 value="0.1337276230" flag="0"/>
      <psa10 value="0.0102154384" flag="0"/>
      <psa30 value="0.0009909162" flag="0"/>
    </comp>
  </station>
  <station code="IOSI" name="IOSI" netid="HA" insttype="60s," commtype="DIG" lat="36.7225" lon="25.2887">
    <comp name="--.HHE">
      <acc value="0.2219787757" flag="0"/>
      <vel value="0.0441568201" flag="0"/>
      <psa03 value="0.1814246683" flag="0"/>
      <psa10 value="0.0200245779" flag="0"/>
      <psa30 value="0.0015625851" flag="0"/>
    </comp>
    <comp name="--.HHN">
      <acc value="0.2119415513" flag="0"/>
      <vel value="0.0334836388" flag="0"/>
      <psa03 value="0.1681484969" flag="0"/>
      <psa10 value="0.0102421032" flag="0"/>
      <psa30 value="0.0012670390" flag="0"/>
    </comp>
    <comp name="--.HHZ">
      <acc value="0.1872870019" flag="0"/>
      <vel value="0.0350494813" flag="0"/>
      <psa03 value="0.1317190492" flag="0"/>
      <psa10 value="0.0157661127" flag="0"/>
      <psa30 value="0.0011726655" flag="0"/>
    </comp>
  </station>
  <station code="SERI" name="SERI" netid="HA" insttype="30" commtype="DIG" lat="37.1609" lon="24.4853">
    <comp name="--.HHE">
      <acc value="0.0161486468" flag="0"/>
      <vel value="0.0052001216" flag="0"/>
      <psa03 value="0.0270181186" flag="0"/>
      <psa10 value="0.0033614002" flag="0"/>
      <psa30 value="0.0004282534" flag="0"/>
    </comp>
    <comp name="--.HHN">
      <acc value="0.0233172419" flag="0"/>
      <vel value="0.0087835368" flag="0"/>
      <psa03 value="0.0205153151" flag="0"/>
      <psa10 value="0.0087061117" flag="0"/>
      <psa30 value="0.0007618005" flag="0"/>
    </comp>
    <comp name="--.HHZ">
      <acc value="0.0239493972" flag="0"/>
      <vel value="0.0060411070" flag="0"/>
      <psa03 value="0.0269211070" flag="0"/>
      <psa10 value="0.0047981360" flag="0"/>
      <psa30 value="0.0005124751" flag="0"/>
    </comp>
  </station>
  <station code="SNT1" name="SNT1" netid="HA" insttype="30" commtype="DIG" lat="36.4159" lon="25.4282">
    <comp name="--.HHE">
      <acc value="0.0384483066" flag="0"/>
      <vel value="0.0168771622" flag="0"/>
      <psa03 value="0.0673270661" flag="0"/>
      <psa10 value="0.0115515696" flag="0"/>
      <psa30 value="0.0016211018" flag="0"/>
    </comp>
    <comp name="--.HHN">
      <acc value="0.0413021523" flag="0"/>
      <vel value="0.0137367502" flag="0"/>
      <psa03 value="0.0374481029" flag="0"/>
      <psa10 value="0.0099524939" flag="0"/>
      <psa30 value="0.0013027174" flag="0"/>
    </comp>
    <comp name="--.HHZ">
      <acc value="0.0437831907" flag="0"/>
      <vel value="0.0104681225" flag="0"/>
      <psa03 value="0.0379041815" flag="0"/>
      <psa10 value="0.0121945843" flag="0"/>
      <psa30 value="0.0007054664" flag="0"/>
    </comp>
  </station>
  <station code="SNT5" name="SNT5" netid="HA" insttype="1s-100Hz," commtype="DIG" lat="36.4037" lon="25.3953">
    <comp name="--.HHN">
      <acc value="0.1585677624" flag="0"/>
      <vel value="0.0434481107" flag="0"/>
      <psa03 value="0.1451813175" flag="0"/>
      <psa10 value="0.0109613070" flag="0"/>
      <psa30 value="0.0018124813" flag="0"/>
    </comp>
    <comp name="--.HHE">
      <acc value="0.1943994538" flag="0"/>
      <vel value="0.0434164237" flag="0"/>
      <psa03 value="0.1661611374" flag="0"/>
      <psa10 value="0.0162158832" flag="0"/>
      <psa30 value="0.0020041451" flag="0"/>
    </comp>
    <comp name="--.HHZ">
      <acc value="0.1016654902" flag="0"/>
      <vel value="0.0172463332" flag="0"/>
      <psa03 value="0.0458311967" flag="0"/>
      <psa10 value="0.0056443178" flag="0"/>
      <psa30 value="0.0004788330" flag="0"/>
    </comp>
  </station>
  <station code="THNO" name="THNO" netid="HC" insttype="60" commtype="DIG" lat="37.6541" lon="25.0221">
    <comp name="--.HHE">
      <acc value="0.0273685901" flag="0"/>
      <vel value="0.0086354242" flag="0"/>
      <psa03 value="0.0562868011" flag="0"/>
      <psa10 value="0.0049235801" flag="0"/>
      <psa30 value="0.0004596947" flag="0"/>
    </comp>
    <comp name="--.HHN">
      <acc value="0.0299451257" flag="0"/>
      <vel value="0.0078842479" flag="0"/>
      <psa03 value="0.0320507981" flag="0"/>
      <psa10 value="0.0046301135" flag="0"/>
      <psa30 value="0.0004841528" flag="0"/>
    </comp>
    <comp name="--.HHZ">
      <acc value="0.0265494974" flag="0"/>
      <vel value="0.0114127252" flag="0"/>
      <psa03 value="0.0581445291" flag="0"/>
      <psa10 value="0.0052610745" flag="0"/>
      <psa30 value="0.0005409115" flag="0"/>
    </comp>
  </station>
  <station code="NAX1" name="NAX1" netid="HI" insttype="CMG-5TD,ACCELEROMETER,GURALP" commtype="DIG" lat="37.1014" lon="25.3741">
    <comp name="--.HNE">
      <acc value="0.0693326941" flag="0"/>
      <vel value="0.0180106914" flag="0"/>
      <psa03 value="0.0576897013" flag="0"/>
      <psa10 value="0.0113609445" flag="0"/>
      <psa30 value="0.0010744475" flag="0"/>
    </comp>
    <comp name="--.HNN">
      <acc value="0.0662392268" flag="0"/>
      <vel value="0.0224380747" flag="0"/>
      <psa03 value="0.0744805125" flag="0"/>
      <psa10 value="0.0093246058" flag="0"/>
      <psa30 value="0.0014538148" flag="0"/>
    </comp>
    <comp name="--.HNZ">
      <acc value="0.0425558002" flag="0"/>
      <vel value="0.0110044208" flag="0"/>
      <psa03 value="0.0510032034" flag="0"/>
      <psa10 value="0.0098666799" flag="0"/>
      <psa30 value="0.0014673532" flag="0"/>
    </comp>
  </station>
  <station code="SFR2" name="SFR2" netid="HI" insttype="unknown" commtype="DIG" lat="36.3998" lon="25.4382">
    <comp name="--.HNZ">
      <acc value="0.2399184736" flag="0"/>
      <vel value="0.0600557493" flag="0"/>
      <psa03 value="0.2334585266" flag="0"/>
      <psa10 value="0.0237032606" flag="0"/>
      <psa30 value="0.0020286985" flag="0"/>
    </comp>
    <comp name="--.HNE">
      <acc value="0.3420936163" flag="0"/>
      <vel value="0.1064067013" flag="0"/>
      <psa03 value="0.4359023840" flag="0"/>
      <psa10 value="0.0490111822" flag="0"/>
      <psa30 value="0.0042680302" flag="0"/>
    </comp>
    <comp name="--.HNN">
      <acc value="0.2943283169" flag="0"/>
      <vel value="0.1076634387" flag="0"/>
      <psa03 value="0.3877663542" flag="0"/>
      <psa10 value="0.0804304810" flag="0"/>
      <psa30 value="0.0034476780" flag="0"/>
    </comp>
  </station>
  <station code="AMGA" name="AMGA" netid="HL" insttype="LE3D20_SMART24" commtype="DIG" lat="36.8316" lon="25.8938">
    <comp name="--.HHE">
      <acc value="1.6180065677" flag="0"/>
      <vel value="0.2546642337" flag="0"/>
      <psa03 value="0.9941380323" flag="0"/>
      <psa10 value="0.0839907972" flag="0"/>
      <psa30 value="0.0041828513" flag="0"/>
    </comp>
    <comp name="--.HHN">
      <acc value="1.9237514226" flag="0"/>
      <vel value="0.4054992509" flag="0"/>
      <psa03 value="1.3356507424" flag="0"/>
      <psa10 value="0.1018897246" flag="0"/>
      <psa30 value="0.0091146330" flag="0"/>
    </comp>
    <comp name="--.HHZ">
      <acc value="0.9368506230" flag="0"/>
      <vel value="0.2144712493" flag="0"/>
      <psa03 value="0.5601314504" flag="0"/>
      <psa10 value="0.0866441404" flag="0"/>
      <psa30 value="0.0070305793" flag="0"/>
    </comp>
  </station>
  <station code="APE" name="APE" netid="HL" insttype="120" commtype="DIG" lat="37.0727" lon="25.523">
    <comp name="--.HHE">
      <acc value="0.1166775451" flag="0"/>
      <vel value="0.0331258550" flag="0"/>
      <psa03 value="0.1865470988" flag="0"/>
      <psa10 value="0.0089325705" flag="0"/>
      <psa30 value="0.0013440749" flag="0"/>
    </comp>
    <comp name="--.HHN">
      <acc value="0.1489776899" flag="0"/>
      <vel value="0.0324581498" flag="0"/>
      <psa03 value="0.1579523117" flag="0"/>
      <psa10 value="0.0110867115" flag="0"/>
      <psa30 value="0.0021290922" flag="0"/>
    </comp>
    <comp name="--.HHZ">
      <acc value="0.0799812210" flag="0"/>
      <vel value="0.0136216339" flag="0"/>
      <psa03 value="0.0729643086" flag="0"/>
      <psa10 value="0.0107196947" flag="0"/>
      <psa30 value="0.0012274267" flag="0"/>
    </comp>
  </station>
  <station code="ASTA" name="ASTA" netid="HL" insttype="LE3D20_SMART24" commtype="DIG" lat="36.5475" lon="26.3471">
    <comp name="--.HHN">
      <acc value="0.1011639388" flag="0"/>
      <vel value="0.0237710303" flag="0"/>
      <psa03 value="0.1164022128" flag="0"/>
      <psa10 value="0.0142235243" flag="0"/>
      <psa30 value="0.0010619400" flag="0"/>
    </comp>
    <comp name="--.HHE">
      <acc value="0.0763068843" flag="0"/>
      <vel value="0.0211391796" flag="0"/>
      <psa03 value="0.1428444182" flag="0"/>
      <psa10 value="0.0099826343" flag="0"/>
      <psa30 value="0.0008124378" flag="0"/>
    </comp>
    <comp name="--.HHZ">
      <acc value="0.0681986327" flag="0"/>
      <vel value="0.0137041002" flag="0"/>
      <psa03 value="0.0948082225" flag="0"/>
      <psa10 value="0.0065600953" flag="0"/>
      <psa30 value="0.0006471418" flag="0"/>
    </comp>
  </station>
  <station code="MHLO" name="MHLO" netid="HL" insttype="20" commtype="DIG" lat="36.6898" lon="24.4017">
    <comp name="--.HHE">
      <acc value="0.0748010060" flag="0"/>
      <vel value="0.0361944326" flag="0"/>
      <psa03 value="0.2744231411" flag="0"/>
      <psa10 value="0.0195302393" flag="0"/>
      <psa30 value="0.0014595652" flag="0"/>
    </comp>
    <comp name="--.HHN">
      <acc value="0.0593975901" flag="0"/>
      <vel value="0.0217412087" flag="0"/>
      <psa03 value="0.2077099925" flag="0"/>
      <psa10 value="0.0343142730" flag="0"/>
      <psa30 value="0.0014297559" flag="0"/>
    </comp>
    <comp name="--.HHZ">
      <acc value="0.0313171166" flag="0"/>
      <vel value="0.0138886529" flag="0"/>
      <psa03 value="0.1195443309" flag="0"/>
      <psa10 value="0.0186630885" flag="0"/>
      <psa30 value="0.0008413712" flag="0"/>
    </comp>
  </station>
  <station code="MILA" name="MILA" netid="HL" insttype="CMG-5" commtype="DIG" lat="36.7429" lon="24.4282">
    <comp name="00.HNE">
      <acc value="0.0507128308" flag="0"/>
      <vel value="0.0280252573" flag="0"/>
      <psa03 value="0.1360579511" flag="0"/>
      <psa10 value="0.0195459126" flag="0"/>
      <psa30 value="0.0017726569" flag="0"/>
    </comp>
    <comp name="00.HNN">
      <acc value="0.0723766089" flag="0"/>
      <vel value="0.0287767565" flag="0"/>
      <psa03 value="0.1918313762" flag="0"/>
      <psa10 value="0.0233229863" flag="0"/>
      <psa30 value="0.0014197701" flag="0"/>
    </comp>
    <comp name="00.HNZ">
      <acc value="0.0458276127" flag="0"/>
      <vel value="0.0172104619" flag="0"/>
      <psa03 value="0.1110598401" flag="0"/>
      <psa10 value="0.0154623721" flag="0"/>
      <psa30 value="0.0008955641" flag="0"/>
    </comp>
  </station>
  <station code="SANT" name="SANT" netid="HL" insttype="30" commtype="DIG" lat="36.3705" lon="25.4593">
    <comp name="--.HHN">
      <acc value="0.2040881390" flag="0"/>
      <vel value="0.0403461830" flag="0"/>
      <psa03 value="0.1058232900" flag="0"/>
      <psa10 value="0.0125564672" flag="0"/>
      <psa30 value="0.0011246359" flag="0"/>
    </comp>
    <comp name="--.HHE">
      <acc value="0.3707892885" flag="0"/>
      <vel value="0.0643628027" flag="0"/>
      <psa03 value="0.2883510932" flag="0"/>
      <psa10 value="0.0184602060" flag="0"/>
      <psa30 value="0.0020265691" flag="0"/>
    </comp>
    <comp name="--.HHZ">
      <acc value="0.3841930198" flag="0"/>
      <vel value="0.0621841900" flag="0"/>
      <psa03 value="0.1188043250" flag="0"/>
      <psa10 value="0.0085358114" flag="0"/>
      <psa30 value="0.0010748814" flag="0"/>
    </comp>
  </station>
  <station code="THERA" name="THERA" netid="HL" insttype="120" commtype="DIG" lat="36.367" lon="25.4753">
    <comp name="--.HHE">
      <acc value="0.1238717662" flag="0"/>
      <vel value="0.0254541714" flag="0"/>
      <psa03 value="0.0991992888" flag="0"/>
      <psa10 value="0.0087966375" flag="0"/>
      <psa30 value="0.0014247915" flag="0"/>
    </comp>
    <comp name="--.HHN">
      <acc value="0.1483122356" flag="0"/>
      <vel value="0.0298507963" flag="0"/>
      <psa03 value="0.1385637894" flag="0"/>
      <psa10 value="0.0175461236" flag="0"/>
      <psa30 value="0.0012121827" flag="0"/>
    </comp>
    <comp name="--.HHZ">
      <acc value="0.0802159705" flag="0"/>
      <vel value="0.0185024549" flag="0"/>
      <psa03 value="0.1296588625" flag="0"/>
      <psa10 value="0.0101048098" flag="0"/>
      <psa30 value="0.0009855376" flag="0"/>
    </comp>
  </station>
  <station code="THRA" name="THRA" netid="HL" insttype="CMG-5" commtype="DIG" lat="36.415" lon="25.4324">
    <comp name="00.HNE">
      <acc value="0.3264953317" flag="0"/>
      <vel value="0.1205545975" flag="0"/>
      <psa03 value="0.4637942602" flag="0"/>
      <psa10 value="0.0816413349" flag="0"/>
      <psa30 value="0.0047688443" flag="0"/>
    </comp>
    <comp name="00.HNN">
      <acc value="0.3072952201" flag="0"/>
      <vel value="0.0988080125" flag="0"/>
      <psa03 value="0.4130437882" flag="0"/>
      <psa10 value="0.0655315826" flag="0"/>
      <psa30 value="0.0062614189" flag="0"/>
    </comp>
    <comp name="00.HNZ">
      <acc value="0.2514144252" flag="0"/>
      <vel value="0.0836853578" flag="0"/>
      <psa03 value="0.2966450474" flag="0"/>
      <psa10 value="0.0397940801" flag="0"/>
      <psa30 value="0.0030263905" flag="0"/>
    </comp>
  </station>
  <station code="AKRO" name="AKRO" netid="HT" insttype="Compact," commtype="DIG" lat="36.3584" lon="25.3967">
    <comp name="--.HHE">
      <acc value="0.4905977746" flag="0"/>
      <vel value="0.1400776098" flag="0"/>
      <psa03 value="0.5972254901" flag="0"/>
      <psa10 value="0.0567763174" flag="0"/>
      <psa30 value="0.0039110576" flag="0"/>
    </comp>
    <comp name="--.HHN">
      <acc value="0.4845720243" flag="0"/>
      <vel value="0.0768018411" flag="0"/>
      <psa03 value="0.2855530458" flag="0"/>
      <psa10 value="0.0475890200" flag="0"/>
      <psa30 value="0.0043245100" flag="0"/>
    </comp>
    <comp name="--.HHZ">
      <acc value="0.3280870182" flag="0"/>
      <vel value="0.0596183021" flag="0"/>
      <psa03 value="0.2979325859" flag="0"/>
      <psa10 value="0.0227634466" flag="0"/>
      <psa30 value="0.0019663658" flag="0"/>
    </comp>
  </station>
  <station code="ANYD" name="ANYD" netid="HT" insttype="120" commtype="DIG" lat="36.63" lon="25.6779">
    <comp name="--.HHE">
      <acc value="3.7311879643" flag="0"/>
      <vel value="1.4946830011" flag="0"/>
      <psa03 value="8.4252580776" flag="0"/>
      <psa10 value="0.5549600655" flag="0"/>
      <psa30 value="0.0429656916" flag="0"/>
    </comp>
    <comp name="--.HHN">
      <acc value="2.4036975659" flag="0"/>
      <vel value="0.8718758717" flag="0"/>
      <psa03 value="2.4593544975" flag="0"/>
      <psa10 value="0.5362534367" flag="0"/>
      <psa30 value="0.0530525849" flag="0"/>
    </comp>
    <comp name="--.HHZ">
      <acc value="1.4932868616" flag="0"/>
      <vel value="0.3877323399" flag="0"/>
      <psa03 value="2.0294361224" flag="0"/>
      <psa10 value="0.2193855714" flag="0"/>
      <psa30 value="0.0153146427" flag="0"/>
    </comp>
  </station>
  <station code="CHRI" name="CHRI" netid="HT" insttype="120s," commtype="DIG" lat="36.2491" lon="25.2076">
    <comp name="--.HHE">
      <acc value="0.0582427742" flag="0"/>
      <vel value="0.0237506733" flag="0"/>
      <psa03 value="0.1606635461" flag="0"/>
      <psa10 value="0.0172159975" flag="0"/>
      <psa30 value="0.0016753510" flag="0"/>
    </comp>
    <comp name="--.HHN">
      <acc value="0.0319890314" flag="0"/>
      <vel value="0.0166258585" flag="0"/>
      <psa03 value="0.0831968700" flag="0"/>
      <psa10 value="0.0083380005" flag="0"/>
      <psa30 value="0.0012877704" flag="0"/>
    </comp>
    <comp name="--.HHZ">
      <acc value="0.0478275442" flag="0"/>
      <vel value="0.0155854490" flag="0"/>
      <psa03 value="0.0931793755" flag="0"/>
      <psa10 value="0.0059707003" flag="0"/>
      <psa30 value="0.0006070074" flag="0"/>
    </comp>
  </station>
  <station code="CMBO" name="CMBO" netid="HT" insttype="120P," commtype="DIG" lat="36.4709" lon="25.4056">
    <comp name="--.HHE">
      <acc value="0.1412474673" flag="0"/>
      <vel value="0.0455832413" flag="0"/>
      <psa03 value="0.2286338636" flag="0"/>
      <psa10 value="0.0335702577" flag="0"/>
      <psa30 value="0.0025122528" flag="0"/>
    </comp>
    <comp name="--.HHN">
      <acc value="0.1625371144" flag="0"/>
      <vel value="0.0790849522" flag="0"/>
      <psa03 value="0.2198156713" flag="0"/>
      <psa10 value="0.0575004353" flag="0"/>
      <psa30 value="0.0030165061" flag="0"/>
    </comp>
    <comp name="--.HHZ">
      <acc value="0.1706750558" flag="0"/>
      <vel value="0.0414132192" flag="0"/>
      <psa03 value="0.2290192628" flag="0"/>
      <psa10 value="0.0128597752" flag="0"/>
      <psa30 value="0.0014659945" flag="0"/>
    </comp>
  </station>
  <station code="GVRL" name="GVRL" netid="HT" insttype="" commtype="DIG" lat="36.3456" lon="25.4383">
    <comp name="--.HHE">
      <acc value="0.2117816221" flag="0"/>
      <vel value="0.0485484907" flag="0"/>
      <psa03 value="0.1983087108" flag="0"/>
      <psa10 value="0.0250915377" flag="0"/>
      <psa30 value="0.0016808745" flag="0"/>
    </comp>
    <comp name="--.HHN">
      <acc value="0.1383550613" flag="0"/>
      <vel value="0.0275181102" flag="0"/>
      <psa03 value="0.0902697356" flag="0"/>
      <psa10 value="0.0082384822" flag="0"/>
      <psa30 value="0.0009766445" flag="0"/>
    </comp>
    <comp name="--.HHZ">
      <acc value="0.1085603579" flag="0"/>
      <vel value="0.0197758924" flag="0"/>
      <psa03 value="0.1055034872" flag="0"/>
      <psa10 value="0.0102450404" flag="0"/>
      <psa30 value="0.0007591647" flag="0"/>
    </comp>
  </station>
  <station code="THR3" name="THR3" netid="HT" insttype="" commtype="DIG" lat="36.4091" lon="25.4008">
    <comp name="--.HHE">
