<?xml version="1.0" encoding="UTF-8" standalone="yes"?>
<!DOCTYPE earthquake SYSTEM "stationlist.dtd">
<stationlist created="" xmlns="ch.ethz.sed.shakemap.usgs.xml">
  <station code="IOSI" name="IOSI" netid="HA" insttype="60s," commtype="DIG" lat="36.7225" lon="25.2887">
    <comp name="--.HHE">
      <acc value="0.2219787757" flag="0"/>
      <vel value="0.0441568201" flag="0"/>
      <psa03 value="0.1814246683" flag="0"/>
      <psa10 value="0.0200245779" flag="0"/>
      <psa30 value="0.0015625851" flag="0"/>
    </comp>
    <comp name="--.HHN">
      <acc value="0.2119415513" flag="0"/>
      <vel value="0.0334836388" flag="0"/>
      <psa03 value="0.1681484969" flag="0"/>
      <psa10 value="0.0102421032" flag="0"/>
      <psa30 value="0.0012670390" flag="0"/>
    </comp>
    <comp name="--.HHZ">
      <acc value="0.1872870019" flag="0"/>
      <vel value="0.0350494813" flag="0"/>
      <psa03 value="0.1317190492" flag="0"/>
      <psa10 value="0.0157661127" flag="0"/>
      <psa30 value="0.0011726655" flag="0"/>
    </comp>
  </station>
  <station code="SERI" name="SERI" netid="HA" insttype="30" commtype="DIG" lat="37.1609" lon="24.4853">
    <comp name="--.HHE">
      <acc value="0.0161486468" flag="0"/>
      <vel value="0.0052001216" flag="0"/>
      <psa03 value="0.0270181186" flag="0"/>
      <psa10 value="0.0033614002" flag="0"/>
      <psa30 value="0.0004282534" flag="0"/>
    </comp>
    <comp name="--.HHN">
      <acc value="0.0233172419" flag="0"/>
      <vel value="0.0087835368" flag="0"/>
      <psa03 value="0.0205153151" flag="0"/>
      <psa10 value="0.0087061117" flag="0"/>
      <psa30 value="0.0007618005" flag="0"/>
    </comp>
    <comp name="--.HHZ">
      <acc value="0.0239493972" flag="0"/>
      <vel value="0.0060411070" flag="0"/>
      <psa03 value="0.0269211070" flag="0"/>
      <psa10 value="0.0047981360" flag="0"/>
      <psa30 value="0.0005124751" flag="0"/>
    </comp>
  </station>
  <station code="SNT1" name="SNT1" netid="HA" insttype="30" commtype="DIG" lat="36.4159" lon="25.4282">
    <comp name="--.HHE">
      <acc value="0.0384483066" flag="0"/>
      <vel value="0.0168771622" flag="0"/>
      <psa03 value="0.0673270661" flag="0"/>
      <psa10 value="0.0115515696" flag="0"/>
      <psa30 value="0.0016211018" flag="0"/>
    </comp>
    <comp name="--.HHN">
      <acc value="0.0413021523" flag="0"/>
      <vel value="0.0137367502" flag="0"/>
      <psa03 value="0.0374481029" flag="0"/>
      <psa10 value="0.0099524939" flag="0"/>
      <psa30 value="0.0013027174" flag="0"/>
    </comp>
    <comp name="--.HHZ">
      <acc value="0.0437831907" flag="0"/>
      <vel value="0.0104681225" flag="0"/>
      <psa03 value="0.0379041815" flag="0"/>
      <psa10 value="0.0121945843" flag="0"/>
      <psa30 value="0.0007054664" flag="0"/>
    </comp>
  </station>
  <station code="SNT5" name="SNT5" netid="HA" insttype="1s-100Hz," commtype="DIG" lat="36.4037" lon="25.3953">
    <comp name="--.HHN">
      <acc value="0.1585677624" flag="0"/>
      <vel value="0.0434481107" flag="0"/>
      <psa03 value="0.1451813175" flag="0"/>
      <psa10 value="0.0109613070" flag="0"/>
      <psa30 value="0.0018124813" flag="0"/>
    </comp>
    <comp name="--.HHE">
      <acc value="0.1943994538" flag="0"/>
      <vel value="0.0434164237" flag="0"/>
      <psa03 value="0.1661611374" flag="0"/>
      <psa10 value="0.0162158832" flag="0"/>
      <psa30 value="0.0020041451" flag="0"/>
    </comp>
    <comp name="--.HHZ">
      <acc value="0.1016654902" flag="0"/>
      <vel value="0.0172463332" flag="0"/>
      <psa03 value="0.0458311967" flag="0"/>
      <psa10 value="0.0056443178" flag="0"/>
      <psa30 value="0.0004788330" flag="0"/>
    </comp>
  </station>
  <station code="THNO" name="THNO" netid="HC" insttype="60" commtype="DIG" lat="37.6541" lon="25.0221">
    <comp name="--.HHE">
      <acc value="0.0273685901" flag="0"/>
      <vel value="0.0086354242" flag="0"/>
      <psa03 value="0.0562868011" flag="0"/>
      <psa10 value="0.0049235801" flag="0"/>
      <psa30 value="0.0004596947" flag="0"/>
    </comp>
    <comp name="--.HHN">
      <acc value="0.0299451257" flag="0"/>
      <vel value="0.0078842479" flag="0"/>
      <psa03 value="0.0320507981" flag="0"/>
      <psa10 value="0.0046301135" flag="0"/>
      <psa30 value="0.0004841528" flag="0"/>
    </comp>
    <comp name="--.HHZ">
      <acc value="0.0265494974" flag="0"/>
      <vel value="0.0114127252" flag="0"/>
      <psa03 value="0.0581445291" flag="0"/>
      <psa10 value="0.0052610745" flag="0"/>
      <psa30 value="0.0005409115" flag="0"/>
    </comp>
  </station>
  <station code="NAX1" name="NAX1" netid="HI" insttype="CMG-5TD,ACCELEROMETER,GURALP" commtype="DIG" lat="37.1014" lon="25.3741">
    <comp name="--.HNE">
      <acc value="0.0693326941" flag="0"/>
      <vel value="0.0180106914" flag="0"/>
      <psa03 value="0.0576897013" flag="0"/>
      <psa10 value="0.0113609445" flag="0"/>
      <psa30 value="0.0010744475" flag="0"/>
    </comp>
    <comp name="--.HNN">
      <acc value="0.0662392268" flag="0"/>
      <vel value="0.0224380747" flag="0"/>
      <psa03 value="0.0744805125" flag="0"/>
      <psa10 value="0.0093246058" flag="0"/>
      <psa30 value="0.0014538148" flag="0"/>
    </comp>
    <comp name="--.HNZ">
      <acc value="0.0425558002" flag="0"/>
      <vel value="0.0110044208" flag="0"/>
      <psa03 value="0.0510032034" flag="0"/>
      <psa10 value="0.0098666799" flag="0"/>
      <psa30 value="0.0014673532" flag="0"/>
    </comp>
  </station>
  <station code="SFR2" name="SFR2" netid="HI" insttype="unknown" commtype="DIG" lat="36.3998" lon="25.4382">
    <comp name="--.HNZ">
      <acc value="0.2399184736" flag="0"/>
      <vel value="0.0600557493" flag="0"/>
      <psa03 value="0.2334585266" flag="0"/>
      <psa10 value="0.0237032606" flag="0"/>
      <psa30 value="0.0020286985" flag="0"/>
    </comp>
    <comp name="--.HNE">
      <acc value="0.3420936163" flag="0"/>
      <vel value="0.1064067013" flag="0"/>
      <psa03 value="0.4359023840" flag="0"/>
      <psa10 value="0.0490111822" flag="0"/>
      <psa30 value="0.0042680302" flag="0"/>
    </comp>
    <comp name="--.HNN">
      <acc value="0.2943283169" flag="0"/>
      <vel value="0.1076634387" flag="0"/>
      <psa03 value="0.3877663542" flag="0"/>
      <psa10 value="0.0804304810" flag="0"/>
      <psa30 value="0.0034476780" flag="0"/>
    </comp>
  </station>
  <station code="AMGA" name="AMGA" netid="HL" insttype="LE3D20_SMART24" commtype="DIG" lat="36.8316" lon="25.8938">
    <comp name="--.HHE">
      <acc value="1.6180065677" flag="0"/>
      <vel value="0.2546642337" flag="0"/>
      <psa03 value="0.9941380323" flag="0"/>
      <psa10 value="0.0839907972" flag="0"/>
      <psa30 value="0.0041828513" flag="0"/>
    </comp>
    <comp name="--.HHN">
      <acc value="1.9237514226" flag="0"/>
      <vel value="0.4054992509" flag="0"/>
      <psa03 value="1.3356507424" flag="0"/>
      <psa10 value="0.1018897246" flag="0"/>
      <psa30 value="0.0091146330" flag="0"/>
    </comp>
    <comp name="--.HHZ">
      <acc value="0.9368506230" flag="0"/>
      <vel value="0.2144712493" flag="0"/>
      <psa03 value="0.5601314504" flag="0"/>
      <psa10 value="0.0866441404" flag="0"/>
      <psa30 value="0.0070305793" flag="0"/>
    </comp>
  </station>
  <station code="BODT" name="BODT" netid="KO" insttype="CMG-3ESP" commtype="DIG" lat="37.0622" lon="27.3103">
    <comp name="--.HHZ">
      <acc value="0.0079587626" flag="0"/>
      <vel value="0.0045073594" flag="0"/>
      <psa03 value="0.0150962146" flag="0"/>
      <psa10 value="0.0048580461" flag="0"/>
      <psa30 value="0.0004102092" flag="0"/>
    </comp>
    <comp name="--.HHE">
      <acc value="0.0198059069" flag="0"/>
      <vel value="0.0075633851" flag="0"/>
      <psa03 value="0.0384429552" flag="0"/>
      <psa10 value="0.0057615624" flag="0"/>
      <psa30 value="0.0003650526" flag="0"/>
    </comp>
    <comp name="--.HHN">
      <acc value="0.0139469589" flag="0"/>
      <vel value="0.0078151571" flag="0"/>
      <psa03 value="0.0433100197" flag="0"/>
      <psa10 value="0.0048925716" flag="0"/>
      <psa30 value="0.0004217294" flag="0"/>
    </comp>
  </station>
</stationlist>
