<?xml version="1.0" encoding="UTF-8" standalone="yes"?>
<!DOCTYPE earthquake SYSTEM "stationlist.dtd">
<stationlist created="" xmlns="ch.ethz.sed.shakemap.usgs.xml">
  <station code="IOSI" name="IOSI" netid="HA" insttype="60s," commtype="DIG" lat="36.7225" lon="25.2887">
    <comp name="--.HHN">
      <acc value="0.2119415530" flag="0"/>
      <vel value="0.0334836392" flag="0"/>
      <psa03 value="0.1681484969" flag="0"/>
      <psa10 value="0.0102421069" flag="0"/>
      <psa30 value="0.0012672359" flag="0"/>
    </comp>
    <comp name="--.HHZ">
      <acc value="0.1872870027" flag="0"/>
      <vel value="0.0350494796" flag="0"/>
      <psa03 value="0.1317190492" flag="0"/>
      <psa10 value="0.0157661122" flag="0"/>
      <psa30 value="0.0011727948" flag="0"/>
    </comp>
    <comp name="--.HHE">
      <acc value="0.2219787789" flag="0"/>
      <vel value="0.0441568198" flag="0"/>
      <psa03 value="0.1814246683" flag="0"/>
      <psa10 value="0.0200245788" flag="0"/>
      <psa30 value="0.0015625511" flag="0"/>
    </comp>
  </station>
  <station code="SERI" name="SERI" netid="HA" insttype="30" commtype="DIG" lat="37.1609" lon="24.4853">
    <comp name="--.HHE">
      <acc value="0.0161486453" flag="0"/>
      <vel value="0.0052001285" flag="0"/>
      <psa03 value="0.0270181186" flag="0"/>
      <psa10 value="0.0033614002" flag="0"/>
      <psa30 value="0.0004282584" flag="0"/>
    </comp>
    <comp name="--.HHN">
      <acc value="0.0233172443" flag="0"/>
      <vel value="0.0087835388" flag="0"/>
      <psa03 value="0.0205153151" flag="0"/>
      <psa10 value="0.0087061118" flag="0"/>
      <psa30 value="0.0007618283" flag="0"/>
    </comp>
    <comp name="--.HHZ">
      <acc value="0.0239493942" flag="0"/>
      <vel value="0.0060411102" flag="0"/>
      <psa03 value="0.0269211070" flag="0"/>
      <psa10 value="0.0047981360" flag="0"/>
      <psa30 value="0.0005124867" flag="0"/>
    </comp>
  </station>
  <station code="SNT1" name="SNT1" netid="HA" insttype="30" commtype="DIG" lat="36.4159" lon="25.4282">
    <comp name="--.HHE">
      <acc value="0.0384483077" flag="0"/>
      <vel value="0.0168771649" flag="0"/>
      <psa03 value="0.0673270661" flag="0"/>
      <psa10 value="0.0115515691" flag="0"/>
      <psa30 value="0.0016213445" flag="0"/>
    </comp>
    <comp name="--.HHN">
      <acc value="0.0413021520" flag="0"/>
      <vel value="0.0137367530" flag="0"/>
      <psa03 value="0.0374481029" flag="0"/>
      <psa10 value="0.0099524911" flag="0"/>
      <psa30 value="0.0013029399" flag="0"/>
    </comp>
    <comp name="--.HHZ">
      <acc value="0.0437831904" flag="0"/>
      <vel value="0.0104681218" flag="0"/>
      <psa03 value="0.0379041815" flag="0"/>
      <psa10 value="0.0121945847" flag="0"/>
      <psa30 value="0.0007053614" flag="0"/>
    </comp>
  </station>
  <station code="SNT5" name="SNT5" netid="HA" insttype="1s-100Hz," commtype="DIG" lat="36.4037" lon="25.3953">
    <comp name="--.HHN">
      <acc value="0.1585677514" flag="0"/>
      <vel value="0.0434452390" flag="0"/>
      <psa03 value="0.1451813285" flag="0"/>
      <psa10 value="0.0109612951" flag="0"/>
      <psa30 value="0.0018131163" flag="0"/>
    </comp>
    <comp name="--.HHE">
      <acc value="0.1943994519" flag="0"/>
      <vel value="0.0434164537" flag="0"/>
      <psa03 value="0.1661611390" flag="0"/>
      <psa10 value="0.0162158841" flag="0"/>
      <psa30 value="0.0020038511" flag="0"/>
    </comp>
    <comp name="--.HHZ">
      <acc value="0.1016654978" flag="0"/>
      <vel value="0.0172482361" flag="0"/>
      <psa03 value="0.0458312041" flag="0"/>
      <psa10 value="0.0056443261" flag="0"/>
      <psa30 value="0.0004783524" flag="0"/>
    </comp>
  </station>
  <station code="NAX1" name="NAX1" netid="HI" insttype="CMG-5TD,ACCELEROMETER,GURALP" commtype="DIG" lat="37.1014" lon="25.3741">
    <comp name="--.HNE">
      <acc value="0.0693326846" flag="0"/>
      <vel value="0.0180106901" flag="0"/>
      <psa03 value="0.0576897013" flag="0"/>
      <psa10 value="0.0113609452" flag="0"/>
      <psa30 value="0.0010743951" flag="0"/>
    </comp>
    <comp name="--.HNN">
      <acc value="0.0662392292" flag="0"/>
      <vel value="0.0224380766" flag="0"/>
      <psa03 value="0.0744805125" flag="0"/>
      <psa10 value="0.0093246046" flag="0"/>
      <psa30 value="0.0014535850" flag="0"/>
    </comp>
    <comp name="--.HNZ">
      <acc value="0.0425558022" flag="0"/>
      <vel value="0.0110044235" flag="0"/>
      <psa03 value="0.0510032034" flag="0"/>
      <psa10 value="0.0098666816" flag="0"/>
      <psa30 value="0.0014674250" flag="0"/>
    </comp>
  </station>
  <station code="SFR2" name="SFR2" netid="HI" insttype="unknown" commtype="DIG" lat="36.3998" lon="25.4382">
    <comp name="--.HNE">
      <acc value="0.3420936140" flag="0"/>
      <vel value="0.1064066957" flag="0"/>
      <psa03 value="0.4359023840" flag="0"/>
      <psa10 value="0.0490111791" flag="0"/>
      <psa30 value="0.0042671284" flag="0"/>
    </comp>
    <comp name="--.HNN">
      <acc value="0.2943283198" flag="0"/>
      <vel value="0.1076634400" flag="0"/>
      <psa03 value="0.3877663542" flag="0"/>
      <psa10 value="0.0804304812" flag="0"/>
      <psa30 value="0.0034481736" flag="0"/>
    </comp>
    <comp name="--.HNZ">
      <acc value="0.2399184756" flag="0"/>
      <vel value="0.0600557429" flag="0"/>
      <psa03 value="0.2334585266" flag="0"/>
      <psa10 value="0.0237032609" flag="0"/>
      <psa30 value="0.0020281996" flag="0"/>
    </comp>
  </station>
  <station code="AMGA" name="AMGA" netid="HL" insttype="LE3D20_SMART24" commtype="DIG" lat="36.8316" lon="25.8938">
    <comp name="--.HHZ">
      <acc value="0.9368506211" flag="0"/>
      <vel value="0.2144712383" flag="0"/>
      <psa03 value="0.5601314504" flag="0"/>
      <psa10 value="0.0866441334" flag="0"/>
      <psa30 value="0.0070299685" flag="0"/>
    </comp>
    <comp name="--.HHN">
      <acc value="1.9237514243" flag="0"/>
      <vel value="0.4054992614" flag="0"/>
      <psa03 value="1.3356507423" flag="0"/>
      <psa10 value="0.1018897208" flag="0"/>
      <psa30 value="0.0091148901" flag="0"/>
    </comp>
    <comp name="--.HHE">
      <acc value="1.6180065673" flag="0"/>
      <vel value="0.2546642190" flag="0"/>
      <psa03 value="0.9941380323" flag="0"/>
      <psa10 value="0.0839907992" flag="0"/>
      <psa30 value="0.0041830417" flag="0"/>
    </comp>
  </station>
  <station code="APE" name="APE" netid="HL" insttype="120" commtype="DIG" lat="37.0727" lon="25.523">
    <comp name="--.HHN">
      <acc value="0.1489776901" flag="0"/>
      <vel value="0.0324581528" flag="0"/>
      <psa03 value="0.1579523117" flag="0"/>
      <psa10 value="0.0110867120" flag="0"/>
      <psa30 value="0.0021292846" flag="0"/>
    </comp>
    <comp name="--.HHE">
      <acc value="0.1166775454" flag="0"/>
      <vel value="0.0331258560" flag="0"/>
      <psa03 value="0.1865470988" flag="0"/>
      <psa10 value="0.0089325699" flag="0"/>
      <psa30 value="0.0013441703" flag="0"/>
    </comp>
    <comp name="--.HHZ">
      <acc value="0.0799812218" flag="0"/>
      <vel value="0.0136216321" flag="0"/>
      <psa03 value="0.0729643086" flag="0"/>
      <psa10 value="0.0107196926" flag="0"/>
      <psa30 value="0.0012277602" flag="0"/>
    </comp>
  </station>
  <station code="ASTA" name="ASTA" netid="HL" insttype="LE3D20_SMART24" commtype="DIG" lat="36.5475" lon="26.3471">
    <comp name="--.HHZ">
      <acc value="0.0681986327" flag="0"/>
      <vel value="0.0137041138" flag="0"/>
      <psa03 value="0.0948082226" flag="0"/>
      <psa10 value="0.0065600951" flag="0"/>
      <psa30 value="0.0006470572" flag="0"/>
    </comp>
    <comp name="--.HHE">
      <acc value="0.0763068819" flag="0"/>
      <vel value="0.0211391790" flag="0"/>
      <psa03 value="0.1428444182" flag="0"/>
      <psa10 value="0.0099826329" flag="0"/>
      <psa30 value="0.0008123749" flag="0"/>
    </comp>
    <comp name="--.HHN">
      <acc value="0.1011639374" flag="0"/>
      <vel value="0.0237710256" flag="0"/>
      <psa03 value="0.1164022128" flag="0"/>
      <psa10 value="0.0142235243" flag="0"/>
      <psa30 value="0.0010622164" flag="0"/>
    </comp>
  </station>
  <station code="MHLO" name="MHLO" netid="HL" insttype="20" commtype="DIG" lat="36.6898" lon="24.4017">
    <comp name="--.HHE">
      <acc value="0.0748010063" flag="0"/>
      <vel value="0.0361944287" flag="0"/>
      <psa03 value="0.2744231411" flag="0"/>
      <psa10 value="0.0195302408" flag="0"/>
      <psa30 value="0.0014595367" flag="0"/>
    </comp>
    <comp name="--.HHZ">
      <acc value="0.0313171161" flag="0"/>
      <vel value="0.0138886415" flag="0"/>
      <psa03 value="0.1195443308" flag="0"/>
      <psa10 value="0.0186630886" flag="0"/>
      <psa30 value="0.0008413478" flag="0"/>
    </comp>
    <comp name="--.HHN">
      <acc value="0.0593975921" flag="0"/>
      <vel value="0.0217412275" flag="0"/>
      <psa03 value="0.2077099925" flag="0"/>
      <psa10 value="0.0343142729" flag="0"/>
      <psa30 value="0.0014297734" flag="0"/>
    </comp>
  </station>
  <station code="MILA" name="MILA" netid="HL" insttype="CMG-5" commtype="DIG" lat="36.7429" lon="24.4282">
    <comp name="00.HNE">
      <acc value="0.0507128324" flag="0"/>
      <vel value="0.0280252592" flag="0"/>
      <psa03 value="0.1360579511" flag="0"/>
      <psa10 value="0.0195459126" flag="0"/>
      <psa30 value="0.0017725541" flag="0"/>
    </comp>
    <comp name="00.HNN">
      <acc value="0.0723766052" flag="0"/>
      <vel value="0.0287767576" flag="0"/>
      <psa03 value="0.1918313762" flag="0"/>
      <psa10 value="0.0233229863" flag="0"/>
      <psa30 value="0.0014200397" flag="0"/>
    </comp>
    <comp name="00.HNZ">
      <acc value="0.0458276120" flag="0"/>
      <vel value="0.0172104663" flag="0"/>
      <psa03 value="0.1110598401" flag="0"/>
      <psa10 value="0.0154623721" flag="0"/>
      <psa30 value="0.0008949343" flag="0"/>
    </comp>
  </station>
  <station code="SANT" name="SANT" netid="HL" insttype="30" commtype="DIG" lat="36.3705" lon="25.4593">
    <comp name="--.HHZ">
      <acc value="0.3841930203" flag="0"/>
      <vel value="0.0621841557" flag="0"/>
      <psa03 value="0.1188043250" flag="0"/>
      <psa10 value="0.0085358163" flag="0"/>
      <psa30 value="0.0010751683" flag="0"/>
    </comp>
    <comp name="--.HHE">
      <acc value="0.3707892890" flag="0"/>
      <vel value="0.0643627983" flag="0"/>
      <psa03 value="0.2883510932" flag="0"/>
      <psa10 value="0.0184602065" flag="0"/>
      <psa30 value="0.0020262297" flag="0"/>
    </comp>
    <comp name="--.HHN">
      <acc value="0.2040881392" flag="0"/>
      <vel value="0.0403461658" flag="0"/>
      <psa03 value="0.1058232901" flag="0"/>
      <psa10 value="0.0125564695" flag="0"/>
      <psa30 value="0.0011244063" flag="0"/>
    </comp>
  </station>
  <station code="THERA" name="THERA" netid="HL" insttype="120" commtype="DIG" lat="36.367" lon="25.4753">
    <comp name="--.HHE">
      <acc value="0.1238717664" flag="0"/>
      <vel value="0.0254541735" flag="0"/>
      <psa03 value="0.0991992888" flag="0"/>
      <psa10 value="0.0087966321" flag="0"/>
      <psa30 value="0.0014251935" flag="0"/>
    </comp>
    <comp name="--.HHN">
      <acc value="0.1483122337" flag="0"/>
      <vel value="0.0298507988" flag="0"/>
      <psa03 value="0.1385637894" flag="0"/>
      <psa10 value="0.0175461242" flag="0"/>
      <psa30 value="0.0012123737" flag="0"/>
    </comp>
    <comp name="--.HHZ">
      <acc value="0.0802159707" flag="0"/>
      <vel value="0.0185024543" flag="0"/>
      <psa03 value="0.1296588625" flag="0"/>
      <psa10 value="0.0101048075" flag="0"/>
      <psa30 value="0.0009855821" flag="0"/>
    </comp>
  </station>
  <station code="THRA" name="THRA" netid="HL" insttype="CMG-5" commtype="DIG" lat="36.415" lon="25.4324">
    <comp name="00.HNE">
      <acc value="0.3264953318" flag="0"/>
      <vel value="0.1205545972" flag="0"/>
      <psa03 value="0.4637942602" flag="0"/>
      <psa10 value="0.0816413353" flag="0"/>
      <psa30 value="0.0047699532" flag="0"/>
    </comp>
    <comp name="00.HNN">
      <acc value="0.3072952171" flag="0"/>
      <vel value="0.0988080205" flag="0"/>
      <psa03 value="0.4130437882" flag="0"/>
      <psa10 value="0.0655316010" flag="0"/>
      <psa30 value="0.0062618463" flag="0"/>
    </comp>
    <comp name="00.HNZ">
      <acc value="0.2514144258" flag="0"/>
      <vel value="0.0836853581" flag="0"/>
      <psa03 value="0.2966450474" flag="0"/>
      <psa10 value="0.0397940709" flag="0"/>
      <psa30 value="0.0030260576" flag="0"/>
    </comp>
  </station>
  <station code="AKRO" name="AKRO" netid="HT" insttype="Compact," commtype="DIG" lat="36.3584" lon="25.3967">
    <comp name="--.HHE">
      <acc value="0.4905977740" flag="0"/>
      <vel value="0.1400776031" flag="0"/>
      <psa03 value="0.5972254901" flag="0"/>
      <psa10 value="0.0567763155" flag="0"/>
      <psa30 value="0.0039115484" flag="0"/>
    </comp>
    <comp name="--.HHN">
      <acc value="0.4845720235" flag="0"/>
      <vel value="0.0768018759" flag="0"/>
      <psa03 value="0.2855530458" flag="0"/>
      <psa10 value="0.0475890205" flag="0"/>
      <psa30 value="0.0043258916" flag="0"/>
    </comp>
    <comp name="--.HHZ">
      <acc value="0.3280870168" flag="0"/>
      <vel value="0.0596182982" flag="0"/>
      <psa03 value="0.2979325859" flag="0"/>
      <psa10 value="0.0227634318" flag="0"/>
      <psa30 value="0.0019654164" flag="0"/>
    </comp>
  </station>
  <station code="ANYD" name="ANYD" netid="HT" insttype="120" commtype="DIG" lat="36.63" lon="25.6779">
    <comp name="--.HHE">
      <acc value="3.7311879637" flag="0"/>
      <vel value="1.4946830008" flag="0"/>
      <psa03 value="8.4252580776" flag="0"/>
      <psa10 value="0.5549600483" flag="0"/>
      <psa30 value="0.0429656207" flag="0"/>
    </comp>
    <comp name="--.HHN">
      <acc value="2.4036975662" flag="0"/>
      <vel value="0.8718758596" flag="0"/>
      <psa03 value="2.4593544975" flag="0"/>
      <psa10 value="0.5362534418" flag="0"/>
      <psa30 value="0.0530543476" flag="0"/>
    </comp>
    <comp name="--.HHZ">
      <acc value="1.4932868622" flag="0"/>
      <vel value="0.3877323400" flag="0"/>
      <psa03 value="2.0294361224" flag="0"/>
      <psa10 value="0.2193855724" flag="0"/>
      <psa30 value="0.0153150270" flag="0"/>
    </comp>
  </station>
  <station code="CHRI" name="CHRI" netid="HT" insttype="120s," commtype="DIG" lat="36.2491" lon="25.2076">
    <comp name="--.HHE">
      <acc value="0.0582427731" flag="0"/>
      <vel value="0.0237506724" flag="0"/>
      <psa03 value="0.1606635461" flag="0"/>
      <psa10 value="0.0172159962" flag="0"/>
      <psa30 value="0.0016755088" flag="0"/>
    </comp>
    <comp name="--.HHN">
      <acc value="0.0319890328" flag="0"/>
      <vel value="0.0166258561" flag="0"/>
      <psa03 value="0.0831968700" flag="0"/>
      <psa10 value="0.0083380019" flag="0"/>
      <psa30 value="0.0012874871" flag="0"/>
    </comp>
    <comp name="--.HHZ">
      <acc value="0.0478275429" flag="0"/>
      <vel value="0.0155854490" flag="0"/>
      <psa03 value="0.0931793755" flag="0"/>
      <psa10 value="0.0059706998" flag="0"/>
      <psa30 value="0.0006068052" flag="0"/>
    </comp>
  </station>
  <station code="CMBO" name="CMBO" netid="HT" insttype="120P," commtype="DIG" lat="36.4709" lon="25.4056">
    <comp name="--.HHZ">
      <acc value="0.1706750555" flag="0"/>
      <vel value="0.0414132212" flag="0"/>
      <psa03 value="0.2290192628" flag="0"/>
      <psa10 value="0.0128597751" flag="0"/>
      <psa30 value="0.0014655123" flag="0"/>
    </comp>
    <comp name="--.HHN">
      <acc value="0.1625371144" flag="0"/>
      <vel value="0.0790849478" flag="0"/>
      <psa03 value="0.2198156713" flag="0"/>
      <psa10 value="0.0575004424" flag="0"/>
      <psa30 value="0.0030168779" flag="0"/>
    </comp>
    <comp name="--.HHE">
      <acc value="0.1412474674" flag="0"/>
      <vel value="0.0455832394" flag="0"/>
      <psa03 value="0.2286338636" flag="0"/>
      <psa10 value="0.0335702594" flag="0"/>
      <psa30 value="0.0025121222" flag="0"/>
    </comp>
  </station>
  <station code="GVRL" name="GVRL" netid="HT" insttype="" commtype="DIG" lat="36.3456" lon="25.4383">
    <comp name="--.HHE">
      <acc value="0.2117816253" flag="0"/>
      <vel value="0.0485477105" flag="0"/>
      <psa03 value="0.1983087112" flag="0"/>
      <psa10 value="0.0250915330" flag="0"/>
      <psa30 value="0.0016802068" flag="0"/>
    </comp>
    <comp name="--.HHN">
      <acc value="0.1383550575" flag="0"/>
      <vel value="0.0275171588" flag="0"/>
      <psa03 value="0.0902697355" flag="0"/>
      <psa10 value="0.0082384779" flag="0"/>
      <psa30 value="0.0009770642" flag="0"/>
    </comp>
    <comp name="--.HHZ">
      <acc value="0.1085603567" flag="0"/>
      <vel value="0.0197755454" flag="0"/>
      <psa03 value="0.1055034873" flag="0"/>
      <psa10 value="0.0102450410" flag="0"/>
      <psa30 value="0.0007591175" flag="0"/>
    </comp>
  </station>
  <station code="THR3" name="THR3" netid="HT" insttype="" commtype="DIG" lat="36.4091" lon="25.4008">
    <comp name="--.HHE">
      <acc value="0.2016791414" flag="0"/>
      <vel value="0.0599513208" flag="0"/>
      <psa03 value="0.3079144480" flag="0"/>
      <psa10 value="0.0237995336" flag="0"/>
      <psa30 value="0.0024242909" flag="0"/>
    </comp>
    <comp name="--.HHN">
      <acc value="0.3394968607" flag="0"/>
      <vel value="0.0953391691" flag="0"/>
      <psa03 value="0.4425409989" flag="0"/>
      <psa10 value="0.0323843859" flag="0"/>
      <psa30 value="0.0034836255" flag="0"/>
    </comp>
    <comp name="--.HHZ">
      <acc value="0.1446203275" flag="0"/>
      <vel value="0.0349058150" flag="0"/>
      <psa03 value="0.0959242920" flag="0"/>
      <psa10 value="0.0100657688" flag="0"/>
      <psa30 value="0.0010663017" flag="0"/>
    </comp>
  </station>
  <station code="THR5" name="THR5" netid="HT" insttype="" commtype="DIG" lat="36.4172" lon="25.3479">
    <comp name="--.HHE">
      <acc value="0.1163594438" flag="0"/>
      <vel value="0.0525885260" flag="0"/>
      <psa03 value="0.2502449229" flag="0"/>
      <psa10 value="0.0227778250" flag="0"/>
      <psa30 value="0.0030027709" flag="0"/>
    </comp>
    <comp name="--.HHN">
      <acc value="0.0863551719" flag="0"/>
      <vel value="0.0298878434" flag="0"/>
      <psa03 value="0.1456941111" flag="0"/>
      <psa10 value="0.0164919798" flag="0"/>
      <psa30 value="0.0024181086" flag="0"/>
    </comp>
    <comp name="--.HHZ">
      <acc value="0.0670594678" flag="0"/>
      <vel value="0.0183265691" flag="0"/>
      <psa03 value="0.1565505256" flag="0"/>
      <psa10 value="0.0099958425" flag="0"/>
      <psa30 value="0.0011753785" flag="0"/>
    </comp>
  </station>
  <station code="THR8" name="THR8" netid="HT" insttype="" commtype="DIG" lat="36.407" lon="25.4788">
    <comp name="--.HHZ">
      <acc value="0.0678368813" flag="0"/>
      <vel value="0.0145834467" flag="0"/>
      <psa03 value="0.0628583672" flag="0"/>
      <psa10 value="0.0054861819" flag="0"/>
      <psa30 value="0.0011937947" flag="0"/>
    </comp>
    <comp name="--.HHE">
      <acc value="0.0998813398" flag="0"/>
      <vel value="0.0297937344" flag="0"/>
      <psa03 value="0.1987512797" flag="0"/>
      <psa10 value="0.0097235039" flag="0"/>
      <psa30 value="0.0014577567" flag="0"/>
    </comp>
    <comp name="--.HHN">
      <acc value="0.0833853057" flag="0"/>
      <vel value="0.0190992798" flag="0"/>
      <psa03 value="0.0941176384" flag="0"/>
      <psa10 value="0.0211463128" flag="0"/>
      <psa30 value="0.0015765743" flag="0"/>
    </comp>
  </station>
</stationlist>
