<?xml version="1.0" encoding="UTF-8" standalone="yes"?>
<!DOCTYPE earthquake SYSTEM "stationlist.dtd">
<stationlist created="" xmlns="ch.ethz.sed.shakemap.usgs.xml">
  <station code="TASB" name="TASB" netid="KO" insttype="120s," lat="39.9839" lon="44.2384">
    <comp name="--.HHE">
      <acc value="0.0117892873" flag="0"/>
      <vel value="0.0088672595" flag="0"/>
      <psa03 value="0.0292337035" flag="0"/>
      <psa10 value="0.0076570100" flag="0"/>
      <psa30 value="0.0026413116" flag="0"/>
    </comp>
    <comp name="--.HHZ">
      <acc value="0.0099511237" flag="0"/>
      <vel value="0.0049536037" flag="0"/>
      <psa03 value="0.0278442436" flag="0"/>
      <psa10 value="0.0076396745" flag="0"/>
      <psa30 value="0.0022905110" flag="0"/>
    </comp>
    <comp name="--.HHN">
      <acc value="0.0174671506" flag="0"/>
      <vel value="0.0079234524" flag="0"/>
      <psa03 value="0.0554618980" flag="0"/>
      <psa10 value="0.0071316874" flag="0"/>
      <psa30 value="0.0019129344" flag="0"/>
    </comp>
  </station>
</stationlist>
