<?xml version="1.0" encoding="UTF-8" standalone="yes"?>
<!DOCTYPE earthquake SYSTEM "stationlist.dtd">
<stationlist created="" xmlns="ch.ethz.sed.shakemap.usgs.xml">
  <station code="ERCV" name="ERCV" netid="KO" insttype="100" lat="39.0198" lon="43.3381">
    <comp name="--.HNE">
      <acc value="0.2872623963" flag="0"/>
      <vel value="0.3214064028" flag="0"/>
      <psa03 value="0.7329386516" flag="0"/>
      <psa10 value="0.3597983928" flag="0"/>
      <psa30 value="0.1650950752" flag="0"/>
    </comp>
    <comp name="--.HNZ">
      <acc value="0.1449382920" flag="0"/>
      <vel value="0.1649175178" flag="0"/>
      <psa03 value="0.4002119133" flag="0"/>
      <psa10 value="0.2704024574" flag="0"/>
      <psa30 value="0.0317495176" flag="0"/>
    </comp>
    <comp name="--.HNN">
      <acc value="0.3251970372" flag="0"/>
      <vel value="0.4331462974" flag="0"/>
      <psa03 value="0.7929326941" flag="0"/>
      <psa10 value="0.5819649079" flag="0"/>
      <psa30 value="0.2009242212" flag="0"/>
    </comp>
  </station>
</stationlist>
