<stationlist created="1778069306">
	<station code="ERCV" name="ERCV" netid="KO" source="Bogazici University Kandilli Observatory And Earthquake Research Institute (KOERI)" insttype="" lat="39.0198" lon="43.3381">
		<comp name="--.HNE" depth="0.0">
			<acc value="0.290789564239288" flag="0"/>
			<vel value="0.319375520726511" flag="0"/>
			<psa03 value="0.725047458249094" flag="0"/>
			<psa10 value="0.366837325264614" flag="0"/>
			<psa30 value="0.178096800866097" flag="0"/>
		</comp>
		<comp name="--.HNN" depth="0.0">
			<acc value="0.328003648898324" flag="0"/>
			<vel value="0.472254064122" flag="0"/>
			<psa03 value="0.796813957664802" flag="0"/>
			<psa10 value="0.580201275653432" flag="0"/>
			<psa30 value="0.218291409603687" flag="0"/>
		</comp>
		<comp name="--.HNZ" depth="0.0">
			<acc value="0.145452180779913" flag="0"/>
			<vel value="0.164928069778204" flag="0"/>
			<psa03 value="0.39686337270407" flag="0"/>
			<psa10 value="0.270467981273651" flag="0"/>
			<psa30 value="0.0334157170128563" flag="0"/>
		</comp>
	</station>
</stationlist>
