<?xml version="1.0" encoding="UTF-8" standalone="yes"?>
<!DOCTYPE earthquake SYSTEM "stationlist.dtd">
<stationlist created="" xmlns="ch.ethz.sed.shakemap.usgs.xml">
  <station code="IMMV" name="IMMV" netid="GE" insttype="STS-2/N" lat="35.4606" lon="23.9811">
    <comp name="--.HHE">
      <acc value="0.0181658326" flag="0"/>
      <vel value="0.0090690785" flag="0"/>
      <psa03 value="0.0492999039" flag="0"/>
      <psa10 value="0.0154797205" flag="0"/>
      <psa30 value="0.0009884489" flag="0"/>
    </comp>
    <comp name="--.HHN">
      <acc value="0.0164101717" flag="0"/>
      <vel value="0.0108211798" flag="0"/>
      <psa03 value="0.0475639068" flag="0"/>
      <psa10 value="0.0116002536" flag="0"/>
      <psa30 value="0.0012087148" flag="0"/>
    </comp>
    <comp name="--.HHZ">
      <acc value="0.0146669247" flag="0"/>
      <vel value="0.0064452635" flag="0"/>
      <psa03 value="0.0361908646" flag="0"/>
      <psa10 value="0.0064733729" flag="0"/>
      <psa30 value="0.0004721268" flag="0"/>
    </comp>
  </station>
  <station code="IDI" name="IDI" netid="MN" insttype="" lat="35.288" lon="24.89">
    <comp name="--.HHN">
      <acc value="0.0491194459" flag="0"/>
      <vel value="0.0151900075" flag="0"/>
      <psa03 value="0.0978720081" flag="0"/>
      <psa10 value="0.0075508512" flag="0"/>
      <psa30 value="0.0007629289" flag="0"/>
    </comp>
    <comp name="--.HHZ">
      <acc value="0.0420509477" flag="0"/>
      <vel value="0.0139768123" flag="0"/>
      <psa03 value="0.0847483157" flag="0"/>
      <psa10 value="0.0061339478" flag="0"/>
      <psa30 value="0.0006024160" flag="0"/>
    </comp>
    <comp name="--.HHE">
      <acc value="0.0689708965" flag="0"/>
      <vel value="0.0233202645" flag="0"/>
      <psa03 value="0.0988641773" flag="0"/>
      <psa10 value="0.0120906905" flag="0"/>
      <psa30 value="0.0009355610" flag="0"/>
    </comp>
  </station>
</stationlist>
