<?xml version="1.0" encoding="UTF-8" standalone="yes"?>
<!DOCTYPE earthquake SYSTEM "stationlist.dtd">
<stationlist created="" xmlns="ch.ethz.sed.shakemap.usgs.xml">
  <station code="GAZ" name="GAZ" netid="KO" insttype="CMG-3T" lat="37.1721" lon="37.2096">
    <comp name="--.HHZ">
      <acc value="0.1215308457" flag="0"/>
      <vel value="0.0474834773" flag="0"/>
      <psa03 value="0.2321981620" flag="0"/>
      <psa10 value="0.0325731708" flag="0"/>
      <psa30 value="0.0032819237" flag="0"/>
    </comp>
    <comp name="--.HHE">
      <acc value="0.2029218374" flag="0"/>
      <vel value="0.0842378657" flag="0"/>
      <psa03 value="0.5773186363" flag="0"/>
      <psa10 value="0.0620159790" flag="0"/>
      <psa30 value="0.0071997286" flag="0"/>
    </comp>
    <comp name="--.HHN">
      <acc value="0.1825848717" flag="0"/>
      <vel value="0.0687407595" flag="0"/>
      <psa03 value="0.4185617041" flag="0"/>
      <psa10 value="0.0651416416" flag="0"/>
      <psa30 value="0.0064652891" flag="0"/>
    </comp>
  </station>
  <station code="ANDN" name="ANDN" netid="TU" insttype="T" lat="37.58" lon="36.3452">
    <comp name="--.HHZ">
      <acc value="0.2549205248" flag="0"/>
      <vel value="0.1302188081" flag="0"/>
      <psa03 value="0.5891517828" flag="0"/>
      <psa10 value="0.1998437366" flag="0"/>
      <psa30 value="0.0119456087" flag="0"/>
    </comp>
    <comp name="--.HHE">
      <acc value="0.4711019383" flag="0"/>
      <vel value="0.2108228614" flag="0"/>
      <psa03 value="1.0747157226" flag="0"/>
      <psa10 value="0.1424154722" flag="0"/>
      <psa30 value="0.0077475301" flag="0"/>
    </comp>
    <comp name="--.HHN">
      <acc value="0.5902737748" flag="0"/>
      <vel value="0.1940801536" flag="0"/>
      <psa03 value="1.4366781649" flag="0"/>
      <psa10 value="0.1357380516" flag="0"/>
      <psa30 value="0.0091649695" flag="0"/>
    </comp>
  </station>
</stationlist>
