<?xml version="1.0" encoding="UTF-8" standalone="yes"?>
<!DOCTYPE earthquake SYSTEM "stationlist.dtd">
<stationlist created="" xmlns="ch.ethz.sed.shakemap.usgs.xml">
  <station code="ANDN" name="ANDN" netid="TU" insttype="T" lat="37.58" lon="36.3452">
    <comp name="--.HHZ">
      <acc value="0.0053250755" flag="0"/>
      <vel value="0.0034870823" flag="0"/>
      <psa03 value="0.0081429465" flag="0"/>
      <psa10 value="0.0056827606" flag="0"/>
      <psa30 value="0.0004010292" flag="0"/>
    </comp>
    <comp name="--.HHE">
      <acc value="0.0128750281" flag="0"/>
      <vel value="0.0064137984" flag="0"/>
      <psa03 value="0.0265428924" flag="0"/>
      <psa10 value="0.0108848103" flag="0"/>
      <psa30 value="0.0008396751" flag="0"/>
    </comp>
    <comp name="--.HHN">
      <acc value="0.0123415314" flag="0"/>
      <vel value="0.0052854534" flag="0"/>
      <psa03 value="0.0250125592" flag="0"/>
      <psa10 value="0.0102559218" flag="0"/>
      <psa30 value="0.0006892996" flag="0"/>
    </comp>
  </station>
</stationlist>
