<?xml version="1.0" encoding="UTF-8" standalone="yes"?>
<!DOCTYPE earthquake SYSTEM "stationlist.dtd">
<stationlist created="" xmlns="ch.ethz.sed.shakemap.usgs.xml">
  <station code="LAM2" name="LAM2" netid="HI" insttype="CMG-5TD,ACCELEROMETER,GURALP" lat="38.902" lon="22.4313">
    <comp name="--.HNE">
      <acc value="0.0171137790" flag="0"/>
      <vel value="0.0076184185" flag="0"/>
      <psa03 value="0.0726252863" flag="0"/>
      <psa10 value="0.0121941494" flag="0"/>
      <psa30 value="0.0008965018" flag="0"/>
    </comp>
    <comp name="--.HNN">
      <acc value="0.0183731972" flag="0"/>
      <vel value="0.0114478468" flag="0"/>
      <psa03 value="0.0433740801" flag="0"/>
      <psa10 value="0.0179785299" flag="0"/>
      <psa30 value="0.0012720802" flag="0"/>
    </comp>
    <comp name="--.HNZ">
      <acc value="0.0123041438" flag="0"/>
      <vel value="0.0065740185" flag="0"/>
      <psa03 value="0.0193077104" flag="0"/>
      <psa10 value="0.0040223933" flag="0"/>
      <psa30 value="0.0004341250" flag="0"/>
    </comp>
  </station>
  <station code="VOL2" name="VOL2" netid="HI" insttype="CMG-5TD,ACCELEROMETER,GURALP" lat="39.366" lon="22.9506">
    <comp name="--.HNE">
      <acc value="0.0338575721" flag="0"/>
      <vel value="0.0183857147" flag="0"/>
      <psa03 value="0.1165547719" flag="0"/>
      <psa10 value="0.0062638792" flag="0"/>
      <psa30 value="0.0005692776" flag="0"/>
    </comp>
    <comp name="--.HNZ">
      <acc value="0.0271864883" flag="0"/>
      <vel value="0.0095688980" flag="0"/>
      <psa03 value="0.0511311795" flag="0"/>
      <psa10 value="0.0042369325" flag="0"/>
      <psa30 value="0.0005423868" flag="0"/>
    </comp>
    <comp name="--.HNN">
      <acc value="0.0352753633" flag="0"/>
      <vel value="0.0150689230" flag="0"/>
      <psa03 value="0.1132043307" flag="0"/>
      <psa10 value="0.0089902590" flag="0"/>
      <psa30 value="0.0007614201" flag="0"/>
    </comp>
  </station>
  <station code="EVR" name="EVR" netid="HL" insttype="DR24" lat="38.9166" lon="21.8105">
    <comp name="--.HHZ">
      <acc value="0.0082086883" flag="0"/>
      <vel value="0.0050336536" flag="0"/>
      <psa03 value="0.0184728060" flag="0"/>
      <psa10 value="0.0052468581" flag="0"/>
      <psa30 value="0.0005013549" flag="0"/>
    </comp>
    <comp name="--.HHN">
      <acc value="0.0128320367" flag="0"/>
      <vel value="0.0048170160" flag="0"/>
      <psa03 value="0.0227706939" flag="0"/>
      <psa10 value="0.0049693757" flag="0"/>
      <psa30 value="0.0008172331" flag="0"/>
    </comp>
    <comp name="--.HHE">
      <acc value="0.0112584006" flag="0"/>
      <vel value="0.0061056352" flag="0"/>
      <psa03 value="0.0185052570" flag="0"/>
      <psa10 value="0.0091452769" flag="0"/>
      <psa30 value="0.0005129512" flag="0"/>
    </comp>
  </station>
  <station code="KZN" name="KZN" netid="HL" insttype="120" lat="40.3033" lon="21.7821">
    <comp name="--.HHE">
      <acc value="0.0582010963" flag="0"/>
      <vel value="0.0221188253" flag="0"/>
      <psa03 value="0.1541519330" flag="0"/>
      <psa10 value="0.0133220318" flag="0"/>
      <psa30 value="0.0006561028" flag="0"/>
    </comp>
    <comp name="--.HHN">
      <acc value="0.0261148687" flag="0"/>
      <vel value="0.0156422839" flag="0"/>
      <psa03 value="0.0637615025" flag="0"/>
      <psa10 value="0.0116156333" flag="0"/>
      <psa30 value="0.0007866382" flag="0"/>
    </comp>
    <comp name="--.HHZ">
      <acc value="0.0132005773" flag="0"/>
      <vel value="0.0069884802" flag="0"/>
      <psa03 value="0.0270315586" flag="0"/>
      <psa10 value="0.0090920026" flag="0"/>
      <psa30 value="0.0006337606" flag="0"/>
    </comp>
  </station>
  <station code="NEO" name="NEO" netid="HL" insttype="120" lat="39.3057" lon="23.2219">
    <comp name="--.HHE">
      <acc value="0.0365318796" flag="0"/>
      <vel value="0.0157519224" flag="0"/>
      <psa03 value="0.0650495298" flag="0"/>
      <psa10 value="0.0108672955" flag="0"/>
      <psa30 value="0.0008145573" flag="0"/>
    </comp>
    <comp name="--.HHN">
      <acc value="0.0216283289" flag="0"/>
      <vel value="0.0166206695" flag="0"/>
      <psa03 value="0.0628564845" flag="0"/>
      <psa10 value="0.0165842220" flag="0"/>
      <psa30 value="0.0009631606" flag="0"/>
    </comp>
    <comp name="--.HHZ">
      <acc value="0.0191584830" flag="0"/>
      <vel value="0.0077490944" flag="0"/>
      <psa03 value="0.0277181272" flag="0"/>
      <psa10 value="0.0072320792" flag="0"/>
      <psa30 value="0.0005802138" flag="0"/>
    </comp>
  </station>
  <station code="TETR" name="TETR" netid="HL" insttype="60" lat="39.3445" lon="21.2747">
    <comp name="--.HHE">
      <acc value="0.0620595116" flag="0"/>
      <vel value="0.0226962668" flag="0"/>
      <psa03 value="0.1320499131" flag="0"/>
      <psa10 value="0.0210405834" flag="0"/>
      <psa30 value="0.0009125657" flag="0"/>
    </comp>
    <comp name="--.HHN">
      <acc value="0.0404414783" flag="0"/>
      <vel value="0.0134745711" flag="0"/>
      <psa03 value="0.0671612338" flag="0"/>
      <psa10 value="0.0079619364" flag="0"/>
      <psa30 value="0.0007121313" flag="0"/>
    </comp>
    <comp name="--.HHZ">
      <acc value="0.0216482164" flag="0"/>
      <vel value="0.0090530485" flag="0"/>
      <psa03 value="0.0563942747" flag="0"/>
      <psa10 value="0.0108420807" flag="0"/>
      <psa30 value="0.0004057341" flag="0"/>
    </comp>
  </station>
  <station code="THL" name="THL" netid="HL" insttype="120" lat="39.5647" lon="22.0144">
    <comp name="--.HHN">
      <acc value="0.2695179800" flag="0"/>
      <vel value="0.0661374446" flag="0"/>
      <psa03 value="0.1705049598" flag="0"/>
      <psa10 value="0.0468456701" flag="0"/>
      <psa30 value="0.0030826231" flag="0"/>
    </comp>
    <comp name="--.HHE">
      <acc value="0.1747448891" flag="0"/>
      <vel value="0.0422838408" flag="0"/>
      <psa03 value="0.1265617713" flag="0"/>
      <psa10 value="0.0290777098" flag="0"/>
      <psa30 value="0.0019183240" flag="0"/>
    </comp>
    <comp name="--.HHZ">
      <acc value="0.2081997703" flag="0"/>
      <vel value="0.1020447060" flag="0"/>
      <psa03 value="0.1926477954" flag="0"/>
      <psa10 value="0.0524035355" flag="0"/>
      <psa30 value="0.0041577561" flag="0"/>
    </comp>
  </station>
  <station code="AMPL" name="AMPL" netid="HP" insttype="Compact," lat="38.9224" lon="21.2135">
    <comp name="--.HHE">
      <acc value="0.0041629593" flag="0"/>
      <vel value="0.0030525389" flag="0"/>
      <psa03 value="0.0122029046" flag="0"/>
      <psa10 value="0.0035898202" flag="0"/>
      <psa30 value="0.0003906190" flag="0"/>
    </comp>
    <comp name="--.HHN">
      <acc value="0.0045098365" flag="0"/>
      <vel value="0.0023430824" flag="0"/>
      <psa03 value="0.0094360355" flag="0"/>
      <psa10 value="0.0035687635" flag="0"/>
      <psa30 value="0.0003324685" flag="0"/>
    </comp>
    <comp name="--.HHZ">
      <acc value="0.0032516569" flag="0"/>
      <vel value="0.0019654580" flag="0"/>
      <psa03 value="0.0076710356" flag="0"/>
      <psa10 value="0.0033090357" flag="0"/>
      <psa30 value="0.0002690445" flag="0"/>
    </comp>
  </station>
  <station code="ANX" name="ANX" netid="HP" insttype="120" lat="38.5933" lon="21.9209">
    <comp name="--.HHN">
      <acc value="0.0207616202" flag="0"/>
      <vel value="0.0127202129" flag="0"/>
      <psa03 value="0.0637839760" flag="0"/>
      <psa10 value="0.0097797765" flag="0"/>
      <psa30 value="0.0007724986" flag="0"/>
    </comp>
    <comp name="--.HHZ">
      <acc value="0.0071237577" flag="0"/>
      <vel value="0.0064837715" flag="0"/>
      <psa03 value="0.0166324025" flag="0"/>
      <psa10 value="0.0098238580" flag="0"/>
      <psa30 value="0.0006502094" flag="0"/>
    </comp>
    <comp name="--.HHE">
      <acc value="0.0108410720" flag="0"/>
      <vel value="0.0095526492" flag="0"/>
      <psa03 value="0.0376276733" flag="0"/>
      <psa10 value="0.0111955712" flag="0"/>
      <psa30 value="0.0005182432" flag="0"/>
    </comp>
  </station>
  <station code="PRMD" name="PRMD" netid="HP" insttype="120P," lat="39.5299" lon="21.0965">
    <comp name="--.HHN">
      <acc value="0.0105412883" flag="0"/>
      <vel value="0.0071645201" flag="0"/>
      <psa03 value="0.0477334507" flag="0"/>
      <psa10 value="0.0112856894" flag="0"/>
      <psa30 value="0.0004999870" flag="0"/>
    </comp>
    <comp name="--.HHZ">
      <acc value="0.0096203664" flag="0"/>
      <vel value="0.0049148752" flag="0"/>
      <psa03 value="0.0154324732" flag="0"/>
      <psa10 value="0.0051618781" flag="0"/>
      <psa30 value="0.0004212656" flag="0"/>
    </comp>
    <comp name="--.HHE">
      <acc value="0.0100429559" flag="0"/>
      <vel value="0.0062394692" flag="0"/>
      <psa03 value="0.0272096065" flag="0"/>
      <psa10 value="0.0095573721" flag="0"/>
      <psa30 value="0.0005927875" flag="0"/>
    </comp>
  </station>
  <station code="AGG" name="AGG" netid="HT" insttype="120P," lat="39.0211" lon="22.336">
    <comp name="--.HHE">
      <acc value="0.0250835660" flag="0"/>
      <vel value="0.0115053536" flag="0"/>
      <psa03 value="0.0499343363" flag="0"/>
      <psa10 value="0.0057581736" flag="0"/>
      <psa30 value="0.0010838903" flag="0"/>
    </comp>
    <comp name="--.HHN">
      <acc value="0.0214335249" flag="0"/>
      <vel value="0.0131809938" flag="0"/>
      <psa03 value="0.0792691768" flag="0"/>
      <psa10 value="0.0104361015" flag="0"/>
      <psa30 value="0.0007105783" flag="0"/>
    </comp>
    <comp name="--.HHZ">
      <acc value="0.0120024560" flag="0"/>
      <vel value="0.0053961619" flag="0"/>
      <psa03 value="0.0254226081" flag="0"/>
      <psa10 value="0.0088870482" flag="0"/>
      <psa30 value="0.0004774025" flag="0"/>
    </comp>
  </station>
  <station code="KPRO" name="KPRO" netid="HT" insttype="100" lat="39.9549" lon="21.3632">
    <comp name="--.HHN">
      <acc value="0.0169641101" flag="0"/>
      <vel value="0.0106277031" flag="0"/>
      <psa03 value="0.0513996603" flag="0"/>
      <psa10 value="0.0095666557" flag="0"/>
      <psa30 value="0.0007259604" flag="0"/>
    </comp>
    <comp name="--.HHZ">
      <acc value="0.0091292240" flag="0"/>
      <vel value="0.0068018603" flag="0"/>
      <psa03 value="0.0338139274" flag="0"/>
      <psa10 value="0.0061070463" flag="0"/>
      <psa30 value="0.0008713079" flag="0"/>
    </comp>
    <comp name="--.HHE">
      <acc value="0.0180220855" flag="0"/>
      <vel value="0.0093182475" flag="0"/>
      <psa03 value="0.0476932354" flag="0"/>
      <psa10 value="0.0089450255" flag="0"/>
      <psa30 value="0.0007232709" flag="0"/>
    </comp>
  </station>
  <station code="LIT" name="LIT" netid="HT" insttype="100" lat="40.1033" lon="22.4892">
    <comp name="--.HHE">
      <acc value="0.1621214001" flag="0"/>
      <vel value="0.0443955620" flag="0"/>
      <psa03 value="0.2268305226" flag="0"/>
      <psa10 value="0.0167511660" flag="0"/>
      <psa30 value="0.0012705146" flag="0"/>
    </comp>
    <comp name="--.HHN">
      <acc value="0.1292123165" flag="0"/>
      <vel value="0.0391392917" flag="0"/>
      <psa03 value="0.2256432223" flag="0"/>
      <psa10 value="0.0141920692" flag="0"/>
      <psa30 value="0.0009987207" flag="0"/>
    </comp>
    <comp name="--.HHZ">
      <acc value="0.0753625329" flag="0"/>
      <vel value="0.0263753872" flag="0"/>
      <psa03 value="0.1318522232" flag="0"/>
      <psa10 value="0.0085570047" flag="0"/>
      <psa30 value="0.0010801506" flag="0"/>
    </comp>
  </station>
  <station code="TYRN" name="TYRN" netid="HT" insttype="120P," lat="39.711" lon="22.2325">
    <comp name="--.HHE">
      <acc value="1.7038438626" flag="0"/>
      <vel value="0.6928160522" flag="0"/>
      <psa03 value="2.2044369618" flag="0"/>
      <psa10 value="0.2839240389" flag="0"/>
      <psa30 value="0.0231774716" flag="0"/>
    </comp>
    <comp name="--.HHZ">
      <acc value="1.6434205445" flag="0"/>
      <vel value="0.3348440321" flag="0"/>
      <psa03 value="1.7630340720" flag="0"/>
      <psa10 value="0.1114848067" flag="0"/>
      <psa30 value="0.0155752272" flag="0"/>
    </comp>
    <comp name="--.HHN">
      <acc value="1.1786206457" flag="0"/>
      <vel value="0.4860119199" flag="0"/>
      <psa03 value="1.8880615426" flag="0"/>
      <psa10 value="0.1952858346" flag="0"/>
      <psa30 value="0.0220554657" flag="0"/>
    </comp>
  </station>
  <station code="XOR" name="XOR" netid="HT" insttype="Compact," lat="39.366" lon="23.1918">
    <comp name="--.HHZ">
      <acc value="0.0222361229" flag="0"/>
      <vel value="0.0121344061" flag="0"/>
      <psa03 value="0.0700107400" flag="0"/>
      <psa10 value="0.0092877040" flag="0"/>
      <psa30 value="0.0011880554" flag="0"/>
    </comp>
    <comp name="--.HHN">
      <acc value="0.0593918119" flag="0"/>
      <vel value="0.0245174168" flag="0"/>
      <psa03 value="0.1216353828" flag="0"/>
      <psa10 value="0.0161347714" flag="0"/>
      <psa30 value="0.0011350994" flag="0"/>
    </comp>
    <comp name="--.HHE">
      <acc value="0.0325824552" flag="0"/>
      <vel value="0.0133589381" flag="0"/>
      <psa03 value="0.0711071526" flag="0"/>
      <psa10 value="0.0150704744" flag="0"/>
      <psa30 value="0.0010913482" flag="0"/>
    </comp>
  </station>
  <station code="THL" name="THL" netid="MN" insttype="" lat="39.5647" lon="22.0144">
    <comp name="--.HHZ">
      <acc value="0.2081997703" flag="0"/>
      <vel value="0.1020447060" flag="0"/>
      <psa03 value="0.1926477954" flag="0"/>
      <psa10 value="0.0524035355" flag="0"/>
      <psa30 value="0.0041577561" flag="0"/>
    </comp>
    <comp name="--.HHN">
      <acc value="0.2695179800" flag="0"/>
      <vel value="0.0661374446" flag="0"/>
      <psa03 value="0.1705049598" flag="0"/>
      <psa10 value="0.0468456701" flag="0"/>
      <psa30 value="0.0030826231" flag="0"/>
    </comp>
    <comp name="--.HHE">
      <acc value="0.1747448891" flag="0"/>
      <vel value="0.0422838408" flag="0"/>
      <psa03 value="0.1265617713" flag="0"/>
      <psa10 value="0.0290777098" flag="0"/>
      <psa30 value="0.0019183240" flag="0"/>
    </comp>
  </station>
</stationlist>
