<stationlist created="1778136494">
	<station code="ROD3" name="ROD3" netid="CL" source="Corinth Riff Laboratory (CRLNET)" insttype="" lat="38.30811" lon="21.89204">
		<comp name="00.HNE" depth="0.0">
			<acc value="0.0057950251105455" flag="0"/>
			<vel value="0.00416991798950566" flag="0"/>
			<psa03 value="0.0261294486650707" flag="0"/>
			<psa10 value="0.00463081838499113" flag="0"/>
			<psa30 value="0.000557487894463666" flag="0"/>
		</comp>
		<comp name="00.HNN" depth="0.0">
			<acc value="0.0061768703714563" flag="0"/>
			<vel value="0.00482348262460818" flag="0"/>
			<psa03 value="0.0225948143422272" flag="0"/>
			<psa10 value="0.00662005689123949" flag="0"/>
			<psa30 value="0.000553908517934204" flag="0"/>
		</comp>
		<comp name="00.HNZ" depth="0.0">
			<acc value="0.004028824707043" flag="0"/>
			<vel value="0.00170437656523006" flag="0"/>
			<psa03 value="0.010201223108966" flag="0"/>
			<psa10 value="0.00199729210343965" flag="0"/>
			<psa30 value="0.000273822304503823" flag="0"/>
		</comp>
	</station>
	<station code="E02" name="E02" netid="EG" source="EUROSEISTEST Strong Motion Network" insttype="" lat="40.674206" lon="23.315498">
		<comp name="--.EN1" depth="0.0">
			<acc value="0.0190392093546947" flag="0"/>
			<vel value="0.0145531103547194" flag="0"/>
			<psa03 value="0.0492829522537227" flag="0"/>
			<psa10 value="0.0241902256087233" flag="0"/>
			<psa30 value="0.00104111313530137" flag="0"/>
		</comp>
		<comp name="--.EN2" depth="0.0">
			<acc value="0.0183225950982071" flag="0"/>
			<vel value="0.0127566671098166" flag="0"/>
			<psa03 value="0.0402531457400126" flag="0"/>
			<psa10 value="0.0186813487976573" flag="0"/>
			<psa30 value="0.000731037333884798" flag="0"/>
		</comp>
		<comp name="--.EN3" depth="0.0">
			<acc value="0.00874334168613999" flag="0"/>
			<vel value="0.00708697586358131" flag="0"/>
			<psa03 value="0.0241266164991029" flag="0"/>
			<psa10 value="0.0112067333285776" flag="0"/>
			<psa30 value="0.000425409222939763" flag="0"/>
		</comp>
	</station>
	<station code="STC" name="STC" netid="EG" source="EUROSEISTEST Strong Motion Network" insttype="" lat="40.64865" lon="23.304856">
		<comp name="--.EN1" depth="0.0">
			<acc value="0.0176765694526362" flag="0"/>
			<vel value="0.0107385828430085" flag="0"/>
			<psa03 value="0.0616424897622119" flag="0"/>
			<psa10 value="0.0105930304862699" flag="0"/>
			<psa30 value="0.000564780174329591" flag="0"/>
		</comp>
		<comp name="--.EN2" depth="0.0">
			<acc value="0.0129737514518937" flag="0"/>
			<vel value="0.00810962405468841" flag="0"/>
			<psa03 value="0.0495358335889932" flag="0"/>
			<psa10 value="0.00896789314142516" flag="0"/>
			<psa30 value="0.000529046661328856" flag="0"/>
		</comp>
		<comp name="--.EN3" depth="0.0">
			<acc value="0.00949013621623584" flag="0"/>
			<vel value="0.00578770337776761" flag="0"/>
			<psa03 value="0.0227719251949693" flag="0"/>
			<psa10 value="0.00634900465289864" flag="0"/>
			<psa30 value="0.000460908553762619" flag="0"/>
		</comp>
	</station>
	<station code="KRK1" name="KRK1" netid="HI" source="ITSAK Strong Motion Network" insttype="" lat="39.618861" lon="19.9202">
		<comp name="--.HNE" depth="0.0">
			<acc value="0.00602490979837968" flag="0"/>
			<vel value="0.00290558928887605" flag="0"/>
			<psa03 value="0.0152123502502124" flag="0"/>
			<psa10 value="0.00308452772426365" flag="0"/>
			<psa30 value="0.000263979019047803" flag="0"/>
		</comp>
		<comp name="--.HNN" depth="0.0">
			<acc value="0.00722654217442175" flag="0"/>
			<vel value="0.00384918504890469" flag="0"/>
			<psa03 value="0.0144517327377018" flag="0"/>
			<psa10 value="0.00314492970319832" flag="0"/>
			<psa30 value="0.000282323323761295" flag="0"/>
		</comp>
		<comp name="--.HNZ" depth="0.0">
			<acc value="0.00228232590120858" flag="0"/>
			<vel value="0.00127919066849749" flag="0"/>
			<psa03 value="0.0096643166295467" flag="0"/>
			<psa10 value="0.000873815295254847" flag="0"/>
			<psa30 value="0.000134674041920998" flag="0"/>
		</comp>
	</station>
	<station code="LAM2" name="LAM2" netid="HI" source="ITSAK Strong Motion Network" insttype="" lat="38.90203" lon="22.431301">
		<comp name="--.HNE" depth="0.0">
			<acc value="0.0170117776738167" flag="0"/>
			<vel value="0.00777444627401401" flag="0"/>
			<psa03 value="0.0727060857546916" flag="0"/>
			<psa10 value="0.0122293873349722" flag="0"/>
			<psa30 value="0.000922584300468763" flag="0"/>
		</comp>
		<comp name="--.HNN" depth="0.0">
			<acc value="0.0183164963425774" flag="0"/>
			<vel value="0.0113932578833137" flag="0"/>
			<psa03 value="0.0430867449733957" flag="0"/>
			<psa10 value="0.018007843319722" flag="0"/>
			<psa30 value="0.00127515288862074" flag="0"/>
		</comp>
		<comp name="--.HNZ" depth="0.0">
			<acc value="0.0122265204092218" flag="0"/>
			<vel value="0.00677298911692293" flag="0"/>
			<psa03 value="0.0195523442921848" flag="0"/>
			<psa10 value="0.0039945842068793" flag="0"/>
			<psa30 value="0.000494401383131903" flag="0"/>
		</comp>
	</station>
	<station code="LMS2" name="LMS2" netid="HI" source="ITSAK Strong Motion Network" insttype="" lat="40.834985" lon="21.141815">
		<comp name="--.HNE" depth="0.0">
			<acc value="0.00361754541027792" flag="0"/>
			<vel value="0.00214559835384611" flag="0"/>
			<psa03 value="0.00917215235674571" flag="0"/>
			<psa10 value="0.00173555019472276" flag="0"/>
			<psa30 value="0.000254135733591784" flag="0"/>
		</comp>
		<comp name="--.HNN" depth="0.0">
			<acc value="0.00570935540638441" flag="0"/>
			<vel value="0.0028971142832053" flag="0"/>
			<psa03 value="0.0133779197788633" flag="0"/>
			<psa10 value="0.00202950649220481" flag="0"/>
			<psa30 value="0.000344514990960692" flag="0"/>
		</comp>
		<comp name="--.HNZ" depth="0.0">
			<acc value="0.00205099378635702" flag="0"/>
			<vel value="0.00260752746316396" flag="0"/>
			<psa03 value="0.00510061155448298" flag="0"/>
			<psa10 value="0.00300399175235077" flag="0"/>
			<psa30 value="0.000182995625068731" flag="0"/>
		</comp>
	</station>
	<station code="MSL1" name="MSL1" netid="HI" source="ITSAK Strong Motion Network" insttype="" lat="38.3727" lon="21.4243">
		<comp name="--.HNE" depth="0.0">
			<acc value="0.00735394114636367" flag="0"/>
			<vel value="0.00794483548442748" flag="0"/>
			<psa03 value="0.0159282255561047" flag="0"/>
			<psa10 value="0.0136387668434478" flag="0"/>
			<psa30 value="0.00159640193213994" flag="0"/>
		</comp>
		<comp name="--.HNN" depth="0.0">
			<acc value="0.0102058446319195" flag="0"/>
			<vel value="0.0112622665951056" flag="0"/>
			<psa03 value="0.0199102819451309" flag="0"/>
			<psa10 value="0.0150763339420928" flag="0"/>
			<psa30 value="0.00164964515801568" flag="0"/>
		</comp>
		<comp name="--.HNZ" depth="0.0">
			<acc value="0.00404494391130608" flag="0"/>
			<vel value="0.0042943687000993" flag="0"/>
			<psa03 value="0.00894844132365435" flag="0"/>
			<psa10 value="0.00956364666465559" flag="0"/>
			<psa30 value="0.00056151469305931" flag="0"/>
		</comp>
	</station>
	<station code="SKO1" name="SKO1" netid="HI" source="ITSAK Strong Motion Network" insttype="" lat="39.123383" lon="23.728705">
		<comp name="--.HNE" depth="0.0">
			<acc value="0.00410950319745609" flag="0"/>
			<vel value="0.00214373326710966" flag="0"/>
			<psa03 value="0.00805359719128892" flag="0"/>
			<psa10 value="0.00209796206833076" flag="0"/>
			<psa30 value="0.000151228658369759" flag="0"/>
		</comp>
		<comp name="--.HNN" depth="0.0">
			<acc value="0.0034325998794696" flag="0"/>
			<vel value="0.00189933801669616" flag="0"/>
			<psa03 value="0.0105591607619121" flag="0"/>
			<psa10 value="0.00201339929782223" flag="0"/>
			<psa30 value="0.000153018346634489" flag="0"/>
		</comp>
		<comp name="--.HNZ" depth="0.0">
			<acc value="0.00253714136786964" flag="0"/>
			<vel value="0.00165204492127703" flag="0"/>
			<psa03 value="0.00577174465375706" flag="0"/>
			<psa10 value="0.00199326530484401" flag="0"/>
			<psa30 value="0.000201339929782223" flag="0"/>
		</comp>
	</station>
	<station code="VAS2" name="VAS2" netid="HI" source="ITSAK Strong Motion Network" insttype="" lat="38.630558" lon="20.608081">
		<comp name="--.HNE" depth="0.0">
			<acc value="0.0108514896994271" flag="0"/>
			<vel value="0.0155066934542778" flag="0"/>
			<psa03 value="0.0206261572510233" flag="0"/>
			<psa10 value="0.0339499389598784" flag="0"/>
			<psa30 value="0.00138924551549734" flag="0"/>
		</comp>
		<comp name="--.HNN" depth="0.0">
			<acc value="0.0109801168991865" flag="0"/>
			<vel value="0.0158662777481128" flag="0"/>
			<psa03 value="0.0246082136400495" flag="0"/>
			<psa10 value="0.0384881409771697" flag="0"/>
			<psa30 value="0.00190378089160746" flag="0"/>
		</comp>
		<comp name="--.HNZ" depth="0.0">
			<acc value="0.00578639229007439" flag="0"/>
			<vel value="0.00599770201023415" flag="0"/>
			<psa03 value="0.0105144185552939" flag="0"/>
			<psa10 value="0.0119918062178292" flag="0"/>
			<psa30 value="0.000526615771897058" flag="0"/>
		</comp>
	</station>
	<station code="VOL2" name="VOL2" netid="HI" source="ITSAK Strong Motion Network" insttype="" lat="39.366" lon="22.9506">
		<comp name="--.HNE" depth="0.0">
			<acc value="0.0338605517622321" flag="0"/>
			<vel value="0.0184607005113382" flag="0"/>
			<psa03 value="0.116598190447216" flag="0"/>
			<psa10 value="0.00630193980218358" flag="0"/>
			<psa30 value="0.000600440412817207" flag="0"/>
		</comp>
		<comp name="--.HNN" depth="0.0">
			<acc value="0.0351295819125999" flag="0"/>
			<vel value="0.0151441576813184" flag="0"/>
			<psa03 value="0.114987471008958" flag="0"/>
			<psa10 value="0.00897976086828714" flag="0"/>
			<psa30 value="0.000784330882018304" flag="0"/>
		</comp>
		<comp name="--.HNZ" depth="0.0">
			<acc value="0.0270296788643723" flag="0"/>
			<vel value="0.00955045579958291" flag="0"/>
			<psa03 value="0.0511850843713029" flag="0"/>
			<psa10 value="0.00420800453244846" flag="0"/>
			<psa30 value="0.000629970269185266" flag="0"/>
		</comp>
	</station>
	<station code="DLFA" name="DLFA" netid="HL" source="National Observatory of Athens Seismic Network" insttype="" lat="38.47836" lon="22.49583">
		<comp name="00.HNE" depth="0.0">
			<acc value="0.00429980223516356" flag="0"/>
			<vel value="0.00513090592320742" flag="0"/>
			<psa03 value="0.0100222542824929" flag="0"/>
			<psa10 value="0.00825896391966678" flag="0"/>
			<psa30 value="0.000538696167683992" flag="0"/>
		</comp>
		<comp name="00.HNN" depth="0.0">
			<acc value="0.00468610660241387" flag="0"/>
			<vel value="0.00383917131262527" flag="0"/>
			<psa03 value="0.0109618406214766" flag="0"/>
			<psa10 value="0.00805359719128892" flag="0"/>
			<psa30 value="0.000388809775512781" flag="0"/>
		</comp>
		<comp name="00.HNZ" depth="0.0">
			<acc value="0.00323712296005969" flag="0"/>
			<vel value="0.00345246134940715" flag="0"/>
			<psa03 value="0.00635339333979459" flag="0"/>
			<psa10 value="0.00542409770833309" flag="0"/>
			<psa30 value="0.000261294486650707" flag="0"/>
		</comp>
	</station>
	<station code="ANX" name="ANX" netid="HP" source="University of Patras, Seismological Laboratory (PSLNET)" insttype="" lat="38.5933" lon="21.9209">
		<comp name="--.HNE" depth="0.0">
			<acc value="0.0135435542784475" flag="0"/>
			<vel value="0.0114336873443495" flag="0"/>
			<psa03 value="0.0455325215144998" flag="0"/>
			<psa10 value="0.0143761292230035" flag="0"/>
			<psa30 value="0.000672254221044896" flag="0"/>
		</comp>
		<comp name="--.HNN" depth="0.0">
			<acc value="0.0259156428643798" flag="0"/>
			<vel value="0.0157818975516639" flag="0"/>
			<psa03 value="0.0812155207545646" flag="0"/>
			<psa10 value="0.012380123247425" flag="0"/>
			<psa30 value="0.000969287856397838" flag="0"/>
		</comp>
		<comp name="--.HNZ" depth="0.0">
			<acc value="0.00873378548980439" flag="0"/>
			<vel value="0.00767532444983309" flag="0"/>
			<psa03 value="0.0194144814266214" flag="0"/>
			<psa10 value="0.0120176973634571" flag="0"/>
			<psa30 value="0.000781341812145324" flag="0"/>
		</comp>
	</station>
	<station code="FSK" name="FSK" netid="HP" source="University of Patras, Seismological Laboratory (PSLNET)" insttype="" lat="38.4593" lon="20.5623">
		<comp name="--.HNE" depth="0.0">
			<acc value="0.00223093917439419" flag="0"/>
			<vel value="0.00145305745744623" flag="0"/>
			<psa03 value="0.00555533481053939" flag="0"/>
			<psa10 value="0.00312126731551743" flag="0"/>
			<psa30 value="0.000380552006577812" flag="0"/>
		</comp>
		<comp name="--.HNN" depth="0.0">
			<acc value="0.00152448015889994" flag="0"/>
			<vel value="0.00217854156450809" flag="0"/>
			<psa03 value="0.00398950451946964" flag="0"/>
			<psa10 value="0.00310464363615512" flag="0"/>
			<psa30 value="0.000554283749828068" flag="0"/>
		</comp>
		<comp name="--.HNZ" depth="0.0">
			<acc value="0.00136544731040621" flag="0"/>
			<vel value="0.00110163895219139" flag="0"/>
			<psa03 value="0.00352045456700454" flag="0"/>
			<psa10 value="0.00198170745026941" flag="0"/>
			<psa30 value="0.00026215192356996" flag="0"/>
		</comp>
	</station>
	<station code="LTK" name="LTK" netid="HP" source="University of Patras, Seismological Laboratory (PSLNET)" insttype="" lat="38.0228" lon="22.9673">
		<comp name="--.HNE" depth="0.0">
			<acc value="0.000845281548123078" flag="0"/>
			<vel value="0.000877826854622056" flag="0"/>
			<psa03 value="0.0021227534149634" flag="0"/>
			<psa10 value="0.00107499043159041" flag="0"/>
			<psa30 value="0.000143681835924883" flag="0"/>
		</comp>
		<comp name="--.HNN" depth="0.0">
			<acc value="0.00110320622961207" flag="0"/>
			<vel value="0.00109325198288499" flag="0"/>
			<psa03 value="0.0031763220693965" flag="0"/>
			<psa10 value="0.00149428297328993" flag="0"/>
			<psa30 value="0.000127007332883375" flag="0"/>
		</comp>
		<comp name="--.HNZ" depth="0.0">
			<acc value="0.000748192937831858" flag="0"/>
			<vel value="0.000656915752970297" flag="0"/>
			<psa03 value="0.00207530170381471" flag="0"/>
			<psa10 value="0.000914354751200994" flag="0"/>
			<psa30 value="0.000100325786715903" flag="0"/>
		</comp>
	</station>
	<station code="PDO" name="PDO" netid="HP" source="University of Patras, Seismological Laboratory (PSLNET)" insttype="" lat="38.5986" lon="21.1833">
		<comp name="--.HNE" depth="0.0">
			<acc value="0.00475740577137324" flag="0"/>
			<vel value="0.00431772169564159" flag="0"/>
			<psa03 value="0.0138520048669408" flag="0"/>
			<psa10 value="0.00665161360549982" flag="0"/>
			<psa30 value="0.000484671846713932" flag="0"/>
		</comp>
		<comp name="--.HNN" depth="0.0">
			<acc value="0.00689807946549025" flag="0"/>
			<vel value="0.00426175195419087" flag="0"/>
			<psa03 value="0.0200406570222398" flag="0"/>
			<psa10 value="0.00412563799077974" flag="0"/>
			<psa30 value="0.000252986733087589" flag="0"/>
		</comp>
		<comp name="--.HNZ" depth="0.0">
			<acc value="0.0062718247545942" flag="0"/>
			<vel value="0.00215697001958184" flag="0"/>
			<psa03 value="0.0136589360874683" flag="0"/>
			<psa10 value="0.00268350362832132" flag="0"/>
			<psa30 value="0.000235973887320375" flag="0"/>
		</comp>
	</station>
	<station code="PVO" name="PVO" netid="HP" source="University of Patras, Seismological Laboratory (PSLNET)" insttype="" lat="38.616" lon="21.525">
		<comp name="--.HNE" depth="0.0">
			<acc value="0.00332929262851326" flag="0"/>
			<vel value="0.00205679218141862" flag="0"/>
			<psa03 value="0.0101398468453057" flag="0"/>
			<psa10 value="0.00273821154932555" flag="0"/>
			<psa30 value="0.000396808656417551" flag="0"/>
		</comp>
		<comp name="--.HNN" depth="0.0">
			<acc value="0.00319201585983133" flag="0"/>
			<vel value="0.00251311615516912" flag="0"/>
			<psa03 value="0.0103797097402668" flag="0"/>
			<psa10 value="0.00267405136152865" flag="0"/>
			<psa30 value="0.000315184030436874" flag="0"/>
		</comp>
		<comp name="--.HNZ" depth="0.0">
			<acc value="0.00246380204665929" flag="0"/>
			<vel value="0.0021952199135442" flag="0"/>
			<psa03 value="0.00780906874479157" flag="0"/>
			<psa10 value="0.00291828230625674" flag="0"/>
			<psa30 value="0.000591501944517985" flag="0"/>
		</comp>
	</station>
	<station code="SERG" name="SERG" netid="HP" source="University of Patras, Seismological Laboratory (PSLNET)" insttype="" lat="38.4133" lon="22.0566">
		<comp name="--.HNE" depth="0.0">
			<acc value="0.00958999204887933" flag="0"/>
			<vel value="0.00673776140032533" flag="0"/>
			<psa03 value="0.0225452148639858" flag="0"/>
			<psa10 value="0.011215171387546" flag="0"/>
			<psa30 value="0.000588667798436941" flag="0"/>
		</comp>
		<comp name="--.HNN" depth="0.0">
			<acc value="0.00850208769518069" flag="0"/>
			<vel value="0.00531246582988101" flag="0"/>
			<psa03 value="0.0211725158565308" flag="0"/>
			<psa10 value="0.00904738340725891" flag="0"/>
			<psa30 value="0.000941607481041188" flag="0"/>
		</comp>
		<comp name="--.HNZ" depth="0.0">
			<acc value="0.00428493856096042" flag="0"/>
			<vel value="0.00322492474598574" flag="0"/>
			<psa03 value="0.0139119281073966" flag="0"/>
			<psa10 value="0.00542205902855207" flag="0"/>
			<psa30 value="0.000699911834475062" flag="0"/>
		</comp>
	</station>
	<station code="VRKS" name="VRKS" netid="HP" source="University of Patras, Seismological Laboratory (PSLNET)" insttype="" lat="39.78398" lon="21.97651">
		<comp name="--.HNE" depth="0.0">
			<acc value="0.344915020491201" flag="0"/>
			<vel value="0.0670499914194056" flag="0"/>
			<psa03 value="0.338149921606069" flag="0"/>
			<psa10 value="0.0349167105607008" flag="0"/>
			<psa30 value="0.00194884597648065" flag="0"/>
		</comp>
		<comp name="--.HNN" depth="0.0">
			<acc value="0.636028979850608" flag="0"/>
			<vel value="0.12533507329193" flag="0"/>
			<psa03 value="0.386166081607729" flag="0"/>
			<psa10 value="0.0266217216834156" flag="0"/>
			<psa30 value="0.00184879789045436" flag="0"/>
		</comp>
		<comp name="--.HNZ" depth="0.0">
			<acc value="0.400745055530871" flag="0"/>
			<vel value="0.0754280511888308" flag="0"/>
			<psa03 value="0.238705958931682" flag="0"/>
			<psa10 value="0.0362952756338687" flag="0"/>
			<psa30 value="0.00308503999376019" flag="0"/>
		</comp>
	</station>
</stationlist>
