<?xml version="1.0" encoding="UTF-8" standalone="yes"?>
<!DOCTYPE earthquake SYSTEM "stationlist.dtd">
<stationlist created="" xmlns="ch.ethz.sed.shakemap.usgs.xml">
  <station code="APE" name="APE" netid="GE" insttype="STS-2/N" lat="37.0727" lon="25.523">
    <comp name="--.HHN">
      <acc value="0.1804182889" flag="0"/>
      <vel value="0.0370953831" flag="0"/>
      <psa03 value="0.1041818603" flag="0"/>
      <psa10 value="0.0080833737" flag="0"/>
      <psa30 value="0.0013229100" flag="0"/>
    </comp>
    <comp name="--.HHZ">
      <acc value="0.0644125338" flag="0"/>
      <vel value="0.0114442410" flag="0"/>
      <psa03 value="0.0411879652" flag="0"/>
      <psa10 value="0.0069413046" flag="0"/>
      <psa30 value="0.0012521405" flag="0"/>
    </comp>
    <comp name="--.HHE">
      <acc value="0.1438807113" flag="0"/>
      <vel value="0.0316007128" flag="0"/>
      <psa03 value="0.1331641394" flag="0"/>
      <psa10 value="0.0079811997" flag="0"/>
      <psa30 value="0.0019017328" flag="0"/>
    </comp>
  </station>
  <station code="THERA" name="THERA" netid="GE" insttype="STS-2/N" lat="36.367" lon="25.4753">
    <comp name="--.HHZ">
      <acc value="0.0916793573" flag="0"/>
      <vel value="0.0171939352" flag="0"/>
      <psa03 value="0.0717863309" flag="0"/>
      <psa10 value="0.0057348138" flag="0"/>
      <psa30 value="0.0013943783" flag="0"/>
    </comp>
    <comp name="--.HHN">
      <acc value="0.0588093827" flag="0"/>
      <vel value="0.0140873986" flag="0"/>
      <psa03 value="0.0846356075" flag="0"/>
      <psa10 value="0.0056792939" flag="0"/>
      <psa30 value="0.0010194513" flag="0"/>
    </comp>
    <comp name="--.HHE">
      <acc value="0.0977037430" flag="0"/>
      <vel value="0.0234692726" flag="0"/>
      <psa03 value="0.1302761602" flag="0"/>
      <psa10 value="0.0084287343" flag="0"/>
      <psa30 value="0.0020441637" flag="0"/>
    </comp>
  </station>
</stationlist>
