<?xml version="1.0" encoding="UTF-8" standalone="yes"?>
<!DOCTYPE earthquake SYSTEM "stationlist.dtd">
<stationlist created="" xmlns="ch.ethz.sed.shakemap.usgs.xml">
  <station code="THERA" name="THERA" netid="GE" insttype="STS-2/N" lat="36.367" lon="25.4753">
    <comp name="--.HHE">
      <acc value="0.0977037430" flag="0"/>
      <vel value="0.0234692743" flag="0"/>
      <psa03 value="0.1302761602" flag="0"/>
      <psa10 value="0.0084287303" flag="0"/>
      <psa30 value="0.0020440773" flag="0"/>
    </comp>
    <comp name="--.HHN">
      <acc value="0.0588093828" flag="0"/>
      <vel value="0.0140873991" flag="0"/>
      <psa03 value="0.0846356075" flag="0"/>
      <psa10 value="0.0056792944" flag="0"/>
      <psa30 value="0.0010190013" flag="0"/>
    </comp>
    <comp name="--.HHZ">
      <acc value="0.0916793572" flag="0"/>
      <vel value="0.0171939389" flag="0"/>
      <psa03 value="0.0717863309" flag="0"/>
      <psa10 value="0.0057348148" flag="0"/>
      <psa30 value="0.0013948543" flag="0"/>
    </comp>
  </station>
</stationlist>
