<stationlist created="1741951962">
	<station code="ABEA" name="ABEA" netid="HC" source="Seismological Network of Crete (HC)" insttype="" lat="35.5163" lon="24.0113">
		<comp name=".HNE" depth="0.0">
			<acc value="0.001314677851794" flag="0"/>
			<vel value="0.00182693707874" flag="0"/>
			<psa03 value="0.00157056823514735" flag="0"/>
			<psa10 value="0.00163102523491621" flag="0"/>
			<psa30 value="0.00121211342156714" flag="0"/>
		</comp>
		<comp name=".HNN" depth="0.0">
			<acc value="0.0018600259140642" flag="0"/>
			<vel value="0.00209525116824" flag="0"/>
			<psa03 value="0.0021963137892795" flag="0"/>
			<psa10 value="0.00154580916008267" flag="0"/>
			<psa30 value="0.00085507101925865" flag="0"/>
		</comp>
		<comp name=".HNZ" depth="0.0">
			<acc value="0.0015138599000112" flag="0"/>
			<vel value="0.00155054960092" flag="0"/>
			<psa03 value="0.00146598204250311" flag="0"/>
			<psa10 value="0.00167491837699661" flag="0"/>
			<psa30 value="0.000690456833127318" flag="0"/>
		</comp>
	</station>
	<station code="ATEI" name="ATEI" netid="HC" source="Seismological Network of Crete (HC)" insttype="" lat="35.5193" lon="24.0432">
		<comp name=".HNE" depth="0.0">
			<acc value="0.0062176235140296" flag="0"/>
			<vel value="0.00331364778342" flag="0"/>
			<psa03 value="0.0196828546737533" flag="0"/>
			<psa10 value="0.00376075827240299" flag="0"/>
			<psa30 value="0.00106293135148556" flag="0"/>
		</comp>
		<comp name=".HNN" depth="0.0">
			<acc value="0.0049297258334724" flag="0"/>
			<vel value="0.00344455547631" flag="0"/>
			<psa03 value="0.0114162250188965" flag="0"/>
			<psa10 value="0.00271433793656861" flag="0"/>
			<psa30 value="0.00109769636282962" flag="0"/>
		</comp>
		<comp name=".HNZ" depth="0.0">
			<acc value="0.0037321762426056" flag="0"/>
			<vel value="0.0024481119136" flag="0"/>
			<psa03 value="0.00927776629918221" flag="0"/>
			<psa10 value="0.00241798932054958" flag="0"/>
			<psa30 value="0.000904905049686191" flag="0"/>
		</comp>
	</station>
	<station code="G0LD" name="G0LD" netid="HC" source="Seismological Network of Crete (HC)" insttype="" lat="35.4955" lon="24.0306">
		<comp name=".HNE" depth="0.0">
			<acc value="0.0024110696943804" flag="0"/>
			<vel value="0.00272641477615" flag="0"/>
			<psa03 value="0.00241947945181582" flag="0"/>
			<psa10 value="0.00215265432153279" flag="0"/>
			<psa30 value="0.00142015699509857" flag="0"/>
		</comp>
		<comp name=".HNN" depth="0.0">
			<acc value="0.0024723827658276" flag="0"/>
			<vel value="0.0021658619745" flag="0"/>
			<psa03 value="0.00162970952275599" flag="0"/>
			<psa10 value="0.00171820667432147" flag="0"/>
			<psa30 value="0.00134142594622099" flag="0"/>
		</comp>
		<comp name=".HNZ" depth="0.0">
			<acc value="0.0025388335346898" flag="0"/>
			<vel value="0.00373024652161" flag="0"/>
			<psa03 value="0.0022787113375569" flag="0"/>
			<psa10 value="0.00203878130925437" flag="0"/>
			<psa30 value="0.00157278148071902" flag="0"/>
		</comp>
	</station>
	<station code="PASK" name="PASK" netid="HC" source="Seismological Network of Crete (HC)" insttype="" lat="35.4996" lon="24.0121">
		<comp name=".HNE" depth="0.0">
			<acc value="0.0069114509289558" flag="0"/>
			<vel value="0.00449027923742" flag="0"/>
			<psa03 value="0.0263764868961632" flag="0"/>
			<psa10 value="0.00710593885857715" flag="0"/>
			<psa30 value="0.000993861150924568" flag="0"/>
		</comp>
		<comp name=".HNN" depth="0.0">
			<acc value="0.0074330130593448" flag="0"/>
			<vel value="0.00485181945504" flag="0"/>
			<psa03 value="0.0204123795637229" flag="0"/>
			<psa10 value="0.00802630139059394" flag="0"/>
			<psa30 value="0.00127498904509856" flag="0"/>
		</comp>
		<comp name=".HNZ" depth="0.0">
			<acc value="0.0061885910657172" flag="0"/>
			<vel value="0.00362131442979" flag="0"/>
			<psa03 value="0.014384932097813" flag="0"/>
			<psa10 value="0.0034119804800878" flag="0"/>
			<psa30 value="0.00113267399242809" flag="0"/>
		</comp>
	</station>
	<station code="POLY" name="POLY" netid="HC" source="Seismological Network of Crete (HC)" insttype="" lat="35.5226" lon="24.0602">
		<comp name=".HNE" depth="0.0">
			<acc value="0.00098441763877158" flag="0"/>
			<vel value="0.00216140981341" flag="0"/>
			<psa03 value="0.00124169667688185" flag="0"/>
			<psa10 value="0.0012952203723048" flag="0"/>
			<psa30 value="0.00126302898197299" flag="0"/>
		</comp>
		<comp name=".HNN" depth="0.0">
			<acc value="0.0012519900178596" flag="0"/>
			<vel value="0.00258076092154" flag="0"/>
			<psa03 value="0.0016807361777611" flag="0"/>
			<psa10 value="0.00164791342399114" flag="0"/>
			<psa30 value="0.00126206766829051" flag="0"/>
		</comp>
		<comp name=".HNZ" depth="0.0">
			<acc value="0.0012148418738796" flag="0"/>
			<vel value="0.00167722718411" flag="0"/>
			<psa03 value="0.00145821036881027" flag="0"/>
			<psa10 value="0.00095400729986389" flag="0"/>
			<psa30 value="0.000635926658268097" flag="0"/>
		</comp>
	</station>
	<station code="ARK1" name="ARK1" netid="HI" source="ITSAK Strong Motion Network" insttype="" lat="35.148777" lon="25.264194">
		<comp name=".HNE" depth="0.0">
			<acc value="0.014798700953328" flag="0"/>
			<vel value="0.00667035479011" flag="0"/>
			<psa03 value="0.0355560585393895" flag="0"/>
			<psa10 value="0.00433053000136109" flag="0"/>
			<psa30 value="0.00116652394315113" flag="0"/>
		</comp>
		<comp name=".HNN" depth="0.0">
			<acc value="0.011087606805918" flag="0"/>
			<vel value="0.00633861879152" flag="0"/>
			<psa03 value="0.0330524734183158" flag="0"/>
			<psa10 value="0.00525014576514876" flag="0"/>
			<psa30 value="0.000799465877355638" flag="0"/>
		</comp>
		<comp name=".HNZ" depth="0.0">
			<acc value="0.008565912880998" flag="0"/>
			<vel value="0.00398176207219" flag="0"/>
			<psa03 value="0.0245547099623618" flag="0"/>
			<psa10 value="0.00357433951682513" flag="0"/>
			<psa30 value="0.000623771894741442" flag="0"/>
		</comp>
	</station>
	<station code="CH01" name="CH01" netid="HI" source="ITSAK Strong Motion Network" insttype="" lat="35.517" lon="24.0208">
		<comp name=".HNE" depth="0.0">
			<acc value="0.0067180686980976" flag="0"/>
			<vel value="0.00307582452204" flag="0"/>
			<psa03 value="0.0198964248113083" flag="0"/>
			<psa10 value="0.00478832235911615" flag="0"/>
			<psa30 value="0.000566744106514023" flag="0"/>
		</comp>
		<comp name=".HNN" depth="0.0">
			<acc value="0.008394894871749" flag="0"/>
			<vel value="0.00323918427964" flag="0"/>
			<psa03 value="0.0219805941273014" flag="0"/>
			<psa10 value="0.00419384188393988" flag="0"/>
			<psa30 value="0.000603229700590081" flag="0"/>
		</comp>
		<comp name=".HNZ" depth="0.0">
			<acc value="0.008694962639316" flag="0"/>
			<vel value="0.00151935356835" flag="0"/>
			<psa03 value="0.00765208959565846" flag="0"/>
			<psa10 value="0.00340782895507004" flag="0"/>
			<psa30 value="0.000299351210756821" flag="0"/>
		</comp>
	</station>
	<station code="CH02" name="CH02" netid="HI" source="ITSAK Strong Motion Network" insttype="" lat="35.5145" lon="24.0315">
		<comp name=".HNE" depth="0.0">
			<acc value="0.0054465095897616" flag="0"/>
			<vel value="0.00301587339423" flag="0"/>
			<psa03 value="0.0147539148744345" flag="0"/>
			<psa10 value="0.00444346170126297" flag="0"/>
			<psa30 value="0.000739326164229608" flag="0"/>
		</comp>
		<comp name=".HNN" depth="0.0">
			<acc value="0.0055442115471768" flag="0"/>
			<vel value="0.00349264108891" flag="0"/>
			<psa03 value="0.0193146531989216" flag="0"/>
			<psa10 value="0.0031142353653105" flag="0"/>
			<psa30 value="0.000812690763857393" flag="0"/>
		</comp>
		<comp name=".HNZ" depth="0.0">
			<acc value="0.002822629855185" flag="0"/>
			<vel value="0.00140593250528" flag="0"/>
			<psa03 value="0.00569011978105264" flag="0"/>
			<psa10 value="0.00181296924094087" flag="0"/>
			<psa30 value="0.000229136038513025" flag="0"/>
		</comp>
	</station>
	<station code="CH03" name="CH03" netid="HI" source="ITSAK Strong Motion Network" insttype="" lat="35.53303" lon="24.0705">
		<comp name=".HNE" depth="0.0">
			<acc value="0.0044442107879694" flag="0"/>
			<vel value="0.0029409135371" flag="0"/>
			<psa03 value="0.0108206692901787" flag="0"/>
			<psa10 value="0.00484404214403782" flag="0"/>
			<psa30 value="0.000398618984676508" flag="0"/>
		</comp>
		<comp name=".HNN" depth="0.0">
			<acc value="0.0049768261052532" flag="0"/>
			<vel value="0.00366526269915" flag="0"/>
			<psa03 value="0.0159344631320503" flag="0"/>
			<psa10 value="0.00491114815194315" flag="0"/>
			<psa30 value="0.000475454777794663" flag="0"/>
		</comp>
		<comp name=".HNZ" depth="0.0">
			<acc value="0.003300294876699" flag="0"/>
			<vel value="0.00158589929388" flag="0"/>
			<psa03 value="0.00773644674642144" flag="0"/>
			<psa10 value="0.00157831959498935" flag="0"/>
			<psa30 value="0.000300396175814188" flag="0"/>
		</comp>
	</station>
	<station code="GOR1" name="GOR1" netid="HI" source="ITSAK Strong Motion Network" insttype="" lat="35.0582" lon="24.9628">
		<comp name=".HNE" depth="0.0">
			<acc value="0.005782278754596" flag="0"/>
			<vel value="0.00353661945848" flag="0"/>
			<psa03 value="0.0200527984515867" flag="0"/>
			<psa10 value="0.0035482033323081" flag="0"/>
			<psa30 value="0.000743957096004774" flag="0"/>
		</comp>
		<comp name=".HNN" depth="0.0">
			<acc value="0.00478869710466" flag="0"/>
			<vel value="0.0030320226967" flag="0"/>
			<psa03 value="0.0140922798985637" flag="0"/>
			<psa10 value="0.00410995538936987" flag="0"/>
			<psa30 value="0.000821862881883443" flag="0"/>
		</comp>
		<comp name=".HNZ" depth="0.0">
			<acc value="0.0036925140759228" flag="0"/>
			<vel value="0.00290537183533" flag="0"/>
			<psa03 value="0.0149234833991804" flag="0"/>
			<psa10 value="0.0033280053858978" flag="0"/>
			<psa30 value="0.000371707566510334" flag="0"/>
		</comp>
	</station>
	<station code="HER3" name="HER3" netid="HI" source="ITSAK Strong Motion Network" insttype="" lat="35.3296" lon="25.1065">
		<comp name=".HNE" depth="0.0">
			<acc value="0.033631138487694" flag="0"/>
			<vel value="0.0151092498998" flag="0"/>
			<psa03 value="0.0936447972581911" flag="0"/>
			<psa10 value="0.0121622084991123" flag="0"/>
			<psa30 value="0.00123809316343078" flag="0"/>
		</comp>
		<comp name=".HNN" depth="0.0">
			<acc value="0.035982278001678" flag="0"/>
			<vel value="0.0218301236366" flag="0"/>
			<psa03 value="0.101985735221114" flag="0"/>
			<psa10 value="0.0173588255620112" flag="0"/>
			<psa30 value="0.000935928042306856" flag="0"/>
		</comp>
		<comp name=".HNZ" depth="0.0">
			<acc value="0.020296801445634" flag="0"/>
			<vel value="0.00784718900615" flag="0"/>
			<psa03 value="0.0637567027351032" flag="0"/>
			<psa10 value="0.00750269826692976" flag="0"/>
			<psa30 value="0.00044807655787461" flag="0"/>
		</comp>
	</station>
	<station code="KIS1" name="KIS1" netid="HI" source="ITSAK Strong Motion Network" insttype="" lat="35.493933" lon="23.658993">
		<comp name=".HNE" depth="0.0">
			<acc value="0.0025667998603158" flag="0"/>
			<vel value="0.00177766742783" flag="0"/>
			<psa03 value="0.00702138765851063" flag="0"/>
			<psa10 value="0.00336213358422488" flag="0"/>
			<psa30 value="0.000418065168723868" flag="0"/>
		</comp>
		<comp name=".HNN" depth="0.0">
			<acc value="0.0030906840038952" flag="0"/>
			<vel value="0.00261874573165" flag="0"/>
			<psa03 value="0.00810120007621072" flag="0"/>
			<psa10 value="0.00322237213821434" flag="0"/>
			<psa30 value="0.000578520876250667" flag="0"/>
		</comp>
		<comp name=".HNZ" depth="0.0">
			<acc value="0.0022662103102086" flag="0"/>
			<vel value="0.00128466369941" flag="0"/>
			<psa03 value="0.00608205525007276" flag="0"/>
			<psa10 value="0.00144849982319237" flag="0"/>
			<psa30 value="0.000334103903577232" flag="0"/>
		</comp>
	</station>
	<station code="KRL1" name="KRL1" netid="HI" source="ITSAK Strong Motion Network" insttype="" lat="37.7951" lon="26.7065">
		<comp name=".HNE" depth="0.0">
			<acc value="0.017623873367562" flag="0"/>
			<vel value="0.00715375306502" flag="0"/>
			<psa03 value="0.0621386372130891" flag="0"/>
			<psa10 value="0.00809680137337361" flag="0"/>
			<psa30 value="0.000716135461291635" flag="0"/>
		</comp>
		<comp name=".HNN" depth="0.0">
			<acc value="0.013030959599658" flag="0"/>
			<vel value="0.0053693586247" flag="0"/>
			<psa03 value="0.0356970626718801" flag="0"/>
			<psa10 value="0.00921971013553673" flag="0"/>
			<psa30 value="0.000613314952020296" flag="0"/>
		</comp>
		<comp name=".HNZ" depth="0.0">
			<acc value="0.0065376095942466" flag="0"/>
			<vel value="0.00377329527728" flag="0"/>
			<psa03 value="0.0180190960204355" flag="0"/>
			<psa10 value="0.00398232552827309" flag="0"/>
			<psa30 value="0.000534056680715705" flag="0"/>
		</comp>
	</station>
	<station code="KTL1" name="KTL1" netid="HI" source="ITSAK Strong Motion Network" insttype="" lat="35.20778" lon="25.34272">
		<comp name=".HNE" depth="0.0">
			<acc value="0.010780007337492" flag="0"/>
			<vel value="0.00553331922832" flag="0"/>
			<psa03 value="0.0303319989293803" flag="0"/>
			<psa10 value="0.00347310531055648" flag="0"/>
			<psa30 value="0.000899241132810797" flag="0"/>
		</comp>
		<comp name=".HNN" depth="0.0">
			<acc value="0.018640426694538" flag="0"/>
			<vel value="0.0100297231725" flag="0"/>
			<psa03 value="0.0527916690641277" flag="0"/>
			<psa10 value="0.00349730308541642" flag="0"/>
			<psa30 value="0.000557174253810011" flag="0"/>
		</comp>
		<comp name=".HNZ" depth="0.0">
			<acc value="0.00528835628295" flag="0"/>
			<vel value="0.0021495426883" flag="0"/>
			<psa03 value="0.0141794289009175" flag="0"/>
			<psa10 value="0.00188692695277491" flag="0"/>
			<psa30 value="0.000395846665607415" flag="0"/>
		</comp>
	</station>
	<station code="NAX1" name="NAX1" netid="HI" source="ITSAK Strong Motion Network" insttype="" lat="37.101394" lon="25.374103">
		<comp name=".HNE" depth="0.0">
			<acc value="0.09119887814139" flag="0"/>
			<vel value="0.0317299826721" flag="0"/>
			<psa03 value="0.277109044614343" flag="0"/>
			<psa10 value="0.0114911774841222" flag="0"/>
			<psa30 value="0.00134443197868775" flag="0"/>
		</comp>
		<comp name=".HNN" depth="0.0">
			<acc value="0.10876203044322" flag="0"/>
			<vel value="0.0251486116689" flag="0"/>
			<psa03 value="0.0923076670130664" flag="0"/>
			<psa10 value="0.00582142626592939" flag="0"/>
			<psa30 value="0.00144828125402583" flag="0"/>
		</comp>
		<comp name=".HNZ" depth="0.0">
			<acc value="0.061949320138842" flag="0"/>
			<vel value="0.0147671724737" flag="0"/>
			<psa03 value="0.120437655486813" flag="0"/>
			<psa10 value="0.00786347872935465" flag="0"/>
			<psa30 value="0.0015074809048766" flag="0"/>
		</comp>
	</station>
	<station code="RTH1" name="RTH1" netid="HI" source="ITSAK Strong Motion Network" insttype="" lat="35.365393" lon="24.471773">
		<comp name=".HNE" depth="0.0">
			<acc value="0.0046552142124888" flag="0"/>
			<vel value="0.00209097067975" flag="0"/>
			<psa03 value="0.0193933875813217" flag="0"/>
			<psa10 value="0.00163649075322924" flag="0"/>
			<psa30 value="0.000708177746635706" flag="0"/>
		</comp>
		<comp name=".HNN" depth="0.0">
			<acc value="0.005150649376326" flag="0"/>
			<vel value="0.002587406241" flag="0"/>
			<psa03 value="0.0157952638066189" flag="0"/>
			<psa10 value="0.00124457350157528" flag="0"/>
			<psa30 value="0.000510952598103622" flag="0"/>
		</comp>
		<comp name=".HNZ" depth="0.0">
			<acc value="0.0054346084798554" flag="0"/>
			<vel value="0.00144126198165" flag="0"/>
			<psa03 value="0.00932955814161065" flag="0"/>
			<psa10 value="0.0010978392889644" flag="0"/>
			<psa30 value="0.000300849487093898" flag="0"/>
		</comp>
	</station>
	<station code="SFR2" name="SFR2" netid="HI" source="ITSAK Strong Motion Network" insttype="" lat="36.399841" lon="25.438209">
		<comp name=".HNE" depth="0.0">
			<acc value="0.2924505850113" flag="0"/>
			<vel value="0.0715255916395" flag="0"/>
			<psa03 value="0.330954319932877" flag="0"/>
			<psa10 value="0.0582722527505658" flag="0"/>
			<psa30 value="0.00367781947082133" flag="0"/>
		</comp>
		<comp name=".HNN" depth="0.0">
			<acc value="0.3218969451876" flag="0"/>
			<vel value="0.0734436563527" flag="0"/>
			<psa03 value="0.394330705807121" flag="0"/>
			<psa10 value="0.0356587572176546" flag="0"/>
			<psa30 value="0.00346889438056336" flag="0"/>
		</comp>
		<comp name=".HNZ" depth="0.0">
			<acc value="0.23034907671504" flag="0"/>
			<vel value="0.0546560972225" flag="0"/>
			<psa03 value="0.278193449784117" flag="0"/>
			<psa10 value="0.0251997099821094" flag="0"/>
			<psa30 value="0.00313733637480457" flag="0"/>
		</comp>
	</station>
	<station code="AMGA" name="AMGA" netid="HL" source="National Observatory of Athens Seismic Network" insttype="" lat="36.831561" lon="25.893836">
		<comp name="00.HNE" depth="0.0">
			<acc value="0.44567174115834" flag="0"/>
			<vel value="0.0727044624927" flag="0"/>
			<psa03 value="0.205750421622549" flag="0"/>
			<psa10 value="0.0156237618725311" flag="0"/>
			<psa30 value="0.00309084767015526" flag="0"/>
		</comp>
		<comp name="00.HNN" depth="0.0">
			<acc value="0.42390506692026" flag="0"/>
			<vel value="0.0745705915329" flag="0"/>
			<psa03 value="0.34091143787653" flag="0"/>
			<psa10 value="0.0283714788462366" flag="0"/>
			<psa30 value="0.00201490035225974" flag="0"/>
		</comp>
		<comp name="00.HNZ" depth="0.0">
			<acc value="0.29645611902492" flag="0"/>
			<vel value="0.0772794470424" flag="0"/>
			<psa03 value="0.241690948339132" flag="0"/>
			<psa10 value="0.0256281139867829" flag="0"/>
			<psa30 value="0.00184122384704337" flag="0"/>
		</comp>
	</station>
	<station code="ANAF" name="ANAF" netid="HL" source="National Observatory of Athens Seismic Network" insttype="" lat="36.35675" lon="25.77262">
		<comp name=".HNE" depth="0.0">
			<acc value="1.35226988733" flag="0"/>
			<vel value="0.521058576982" flag="0"/>
			<psa03 value="2.9953090911929" flag="0"/>
			<psa10 value="0.157591469661276" flag="0"/>
			<psa30 value="0.0121022233795897" flag="0"/>
		</comp>
		<comp name=".HNN" depth="0.0">
			<acc value="1.5942895514094" flag="0"/>
			<vel value="0.446306886181" flag="0"/>
			<psa03 value="2.56250758688521" flag="0"/>
			<psa10 value="0.100449969317658" flag="0"/>
			<psa30 value="0.00982328157753943" flag="0"/>
		</comp>
		<comp name=".HNZ" depth="0.0">
			<acc value="0.75382738132764" flag="0"/>
			<vel value="0.162851114722" flag="0"/>
			<psa03 value="0.737756706094562" flag="0"/>
			<psa10 value="0.0448267983055789" flag="0"/>
			<psa30 value="0.00562970919058546" flag="0"/>
		</comp>
	</station>
	<station code="CHNB" name="CHNB" netid="HL" source="National Observatory of Athens Seismic Network" insttype="" lat="35.48765" lon="24.06605">
		<comp name="00.HNE" depth="0.0">
			<acc value="0.0089522770800774" flag="0"/>
			<vel value="0.00685396106925" flag="0"/>
			<psa03 value="0.0285689576573803" flag="0"/>
			<psa10 value="0.00808340173570975" flag="0"/>
			<psa30 value="0.000516840904840865" flag="0"/>
		</comp>
		<comp name="00.HNN" depth="0.0">
			<acc value="0.0101142879521508" flag="0"/>
			<vel value="0.00767105449657" flag="0"/>
			<psa03 value="0.0387997239371449" flag="0"/>
			<psa10 value="0.00813514391336716" flag="0"/>
			<psa30 value="0.00090497755449018" flag="0"/>
		</comp>
		<comp name="00.HNZ" depth="0.0">
			<acc value="0.0077451536297256" flag="0"/>
			<vel value="0.0038984828122" flag="0"/>
			<psa03 value="0.0285036616651935" flag="0"/>
			<psa10 value="0.00305601369590767" flag="0"/>
			<psa30 value="0.000254962541058565" flag="0"/>
		</comp>
	</station>
	<station code="HERG" name="HERG" netid="HL" source="National Observatory of Athens Seismic Network" insttype="" lat="35.32622" lon="25.06586">
		<comp name="00.HNE" depth="0.0">
			<acc value="0.013817245863378" flag="0"/>
			<vel value="0.00976837251918" flag="0"/>
			<psa03 value="0.0399424142180997" flag="0"/>
			<psa10 value="0.0145704961613733" flag="0"/>
			<psa30 value="0.00129828110891953" flag="0"/>
		</comp>
