<stationlist created="1778069678">
	<station code="BLKB" name="BLKB" netid="BS" source="National Seismic Network of Bulgaria (BS)" insttype="" lat="43.6227" lon="22.675">
		<comp name="--.HNE" depth="0.0">
			<acc value="0.208080773841138" flag="0"/>
			<vel value="0.0485214797862537" flag="0"/>
			<psa03 value="0.151899791469033" flag="0"/>
			<psa10 value="0.0180682452986567" flag="0"/>
			<psa30 value="0.00144472585170399" flag="0"/>
		</comp>
		<comp name="--.HNN" depth="0.0">
			<acc value="0.142153154420449" flag="0"/>
			<vel value="0.0244643822533507" flag="0"/>
			<psa03 value="0.0860840055335549" flag="0"/>
			<psa10 value="0.00831533910000581" flag="0"/>
			<psa30 value="0.000519457018838135" flag="0"/>
		</comp>
		<comp name="--.HNZ" depth="0.0">
			<acc value="0.163438253481926" flag="0"/>
			<vel value="0.0312759649029804" flag="0"/>
			<psa03 value="0.12505446749807" flag="0"/>
			<psa10 value="0.00836768748174918" flag="0"/>
			<psa30 value="0.000785673148216852" flag="0"/>
		</comp>
	</station>
	<station code="MNNAM" name="MNNAM" netid="BS" source="National Seismic Network of Bulgaria (BS)" insttype="" lat="43.4111" lon="23.2262">
		<comp name="--.HNE" depth="0.0">
			<acc value="0.0570228057279811" flag="0"/>
			<vel value="0.0190185805743687" flag="0"/>
			<psa03 value="0.0945402825844082" flag="0"/>
			<psa10 value="0.0265164687523188" flag="0"/>
			<psa30 value="0.00262726237262492" flag="0"/>
		</comp>
		<comp name="--.HNN" depth="0.0">
			<acc value="0.0409136509711915" flag="0"/>
			<vel value="0.0238746595705298" flag="0"/>
			<psa03 value="0.103443981701444" flag="0"/>
			<psa10 value="0.0306318569170674" flag="0"/>
			<psa30 value="0.00182950882862113" flag="0"/>
		</comp>
		<comp name="--.HNZ" depth="0.0">
			<acc value="0.0389595494098273" flag="0"/>
			<vel value="0.0103849574765236" flag="0"/>
			<psa03 value="0.0561067270993128" flag="0"/>
			<psa10 value="0.0183823355891169" flag="0"/>
			<psa30 value="0.00122548903927446" flag="0"/>
		</comp>
	</station>
	<station code="BAIL" name="BAIL" netid="RO" source="Romanian Seismic Network (NIEP)" insttype="" lat="44.0201" lon="23.345">
		<comp name="--.HNE" depth="0.0">
			<acc value="0.307985520229041" flag="0"/>
			<vel value="0.0797591940882369" flag="0"/>
			<psa03 value="0.393105027348136" flag="0"/>
			<psa10 value="0.0653187000199487" flag="0"/>
			<psa30 value="0.00654533740618697" flag="0"/>
		</comp>
		<comp name="--.HNN" depth="0.0">
			<acc value="0.309471931618322" flag="0"/>
			<vel value="0.149196469797298" flag="0"/>
			<psa03 value="0.832965660612365" flag="0"/>
			<psa10 value="0.0900875381817578" flag="0"/>
			<psa30 value="0.0061408678583578" flag="0"/>
		</comp>
		<comp name="--.HNZ" depth="0.0">
			<acc value="0.17824668111433" flag="0"/>
			<vel value="0.0358567086809312" flag="0"/>
			<psa03 value="0.158297927015445" flag="0"/>
			<psa10 value="0.0104938371402495" flag="0"/>
			<psa30 value="0.00166172555380261" flag="0"/>
		</comp>
	</station>
	<station code="BANR" name="BANR" netid="RO" source="Romanian Seismic Network (NIEP)" insttype="" lat="45.3828" lon="21.137">
		<comp name="--.HNE" depth="0.0">
			<acc value="0.142037431355497" flag="0"/>
			<vel value="0.0502849430579107" flag="0"/>
			<psa03 value="0.164830289181713" flag="0"/>
			<psa10 value="0.0554006950788764" flag="0"/>
			<psa30 value="0.00370062790939726" flag="0"/>
		</comp>
		<comp name="--.HNN" depth="0.0">
			<acc value="0.119562139826865" flag="0"/>
			<vel value="0.0690611833130898" flag="0"/>
			<psa03 value="0.159953388660322" flag="0"/>
			<psa10 value="0.0584006600326316" flag="0"/>
			<psa30 value="0.00463037096292494" flag="0"/>
		</comp>
		<comp name="--.HNZ" depth="0.0">
			<acc value="0.0357161376453081" flag="0"/>
			<vel value="0.00849076060436667" flag="0"/>
			<psa03 value="0.0225053299289907" flag="0"/>
			<psa10 value="0.00705092434097344" flag="0"/>
			<psa30 value="0.00117179839133254" flag="0"/>
		</comp>
	</station>
	<station code="BZS" name="BZS" netid="RO" source="Romanian Seismic Network (NIEP)" insttype="" lat="45.6188" lon="21.6401">
		<comp name="--.HNE" depth="0.0">
			<acc value="0.0535232341098469" flag="0"/>
			<vel value="0.0124616480729363" flag="0"/>
			<psa03 value="0.0680976384730096" flag="0"/>
			<psa10 value="0.0115246975807344" flag="0"/>
			<psa30 value="0.000898870930961079" flag="0"/>
		</comp>
		<comp name="--.HNN" depth="0.0">
			<acc value="0.0585047182587452" flag="0"/>
			<vel value="0.0179151669591004" flag="0"/>
			<psa03 value="0.121072411109043" flag="0"/>
			<psa10 value="0.0154910941974442" flag="0"/>
			<psa30 value="0.000846969971283884" flag="0"/>
		</comp>
		<comp name="--.HNZ" depth="0.0">
			<acc value="0.060140659459936" flag="0"/>
			<vel value="0.0259385691465016" flag="0"/>
			<psa03 value="0.0470688013624219" flag="0"/>
			<psa10 value="0.0178548249730875" flag="0"/>
			<psa30 value="0.00179371506332651" flag="0"/>
		</comp>
	</station>
	<station code="DEV" name="DEV" netid="RO" source="Romanian Seismic Network (NIEP)" insttype="" lat="45.887" lon="22.898">
		<comp name="--.HNE" depth="0.0">
			<acc value="0.0783632840135591" flag="0"/>
			<vel value="0.0177056781833288" flag="0"/>
			<psa03 value="0.0988802766263806" flag="0"/>
			<psa10 value="0.0127609247495973" flag="0"/>
			<psa30 value="0.000646077463567844" flag="0"/>
		</comp>
		<comp name="--.HNN" depth="0.0">
			<acc value="0.0976262111069872" flag="0"/>
			<vel value="0.0247029897410446" flag="0"/>
			<psa03 value="0.110244797107422" flag="0"/>
			<psa10 value="0.0196709111397232" flag="0"/>
			<psa30 value="0.000831757621033672" flag="0"/>
		</comp>
		<comp name="--.HNZ" depth="0.0">
			<acc value="0.0588031249074222" flag="0"/>
			<vel value="0.0132072806318053" flag="0"/>
			<psa03 value="0.0568226024052051" flag="0"/>
			<psa10 value="0.00639858296847904" flag="0"/>
			<psa30 value="0.000340935614431231" flag="0"/>
		</comp>
	</station>
	<station code="DJISU" name="DJISU" netid="RO" source="Romanian Seismic Network (NIEP)" insttype="" lat="44.2971" lon="23.8363">
		<comp name="--.HNE" depth="0.0">
			<acc value="0.0463176340008866" flag="0"/>
			<vel value="0.0158821370716405" flag="0"/>
			<psa03 value="0.102862333015407" flag="0"/>
			<psa10 value="0.0137112492181694" flag="0"/>
			<psa30 value="0.00102817590808788" flag="0"/>
		</comp>
		<comp name="--.HNN" depth="0.0">
			<acc value="0.0443716215029641" flag="0"/>
			<vel value="0.0265568062426923" flag="0"/>
			<psa03 value="0.106217998511777" flag="0"/>
			<psa10 value="0.0333499459691274" flag="0"/>
			<psa30 value="0.00211899090544135" flag="0"/>
		</comp>
		<comp name="--.HNZ" depth="0.0">
			<acc value="0.0615545562633777" flag="0"/>
			<vel value="0.014214557666331" flag="0"/>
			<psa03 value="0.0413865411219014" flag="0"/>
			<psa10 value="0.00446974644116535" flag="0"/>
			<psa30 value="0.000567331179919686" flag="0"/>
		</comp>
	</station>
	<station code="GZR" name="GZR" netid="RO" source="Romanian Seismic Network (NIEP)" insttype="" lat="45.3933" lon="22.7767">
		<comp name="--.HNE" depth="0.0">
			<acc value="0.314318023889367" flag="0"/>
			<vel value="0.0611351609025945" flag="0"/>
			<psa03 value="0.206261572510233" flag="0"/>
			<psa10 value="0.0120562349953595" flag="0"/>
			<psa30 value="0.000811176205989267" flag="0"/>
		</comp>
		<comp name="--.HNN" depth="0.0">
			<acc value="0.274604402965161" flag="0"/>
			<vel value="0.0463885342818391" flag="0"/>
			<psa03 value="0.197044677946869" flag="0"/>
			<psa10 value="0.00961599504639896" flag="0"/>
			<psa30 value="0.000739141253333849" flag="0"/>
		</comp>
		<comp name="--.HNZ" depth="0.0">
			<acc value="0.207802210112716" flag="0"/>
			<vel value="0.0354352064380042" flag="0"/>
			<psa03 value="0.0805807141195074" flag="0"/>
			<psa10 value="0.00813815996179745" flag="0"/>
			<psa30 value="0.000627733158854353" flag="0"/>
		</comp>
	</station>
	<station code="HERR" name="HERR" netid="RO" source="Romanian Seismic Network (NIEP)" insttype="" lat="44.881" lon="22.416">
		<comp name="--.HNE" depth="0.0">
			<acc value="6.88791813990302" flag="0"/>
			<vel value="0.650079947419381" flag="0"/>
			<psa03 value="1.13730215002985" flag="0"/>
			<psa10 value="0.0878607185583664" flag="0"/>
			<psa30 value="0.0081081826833632" flag="0"/>
		</comp>
		<comp name="--.HNN" depth="0.0">
			<acc value="6.4148574169728" flag="0"/>
			<vel value="0.850899175802384" flag="0"/>
			<psa03 value="1.31197572466758" flag="0"/>
			<psa10 value="0.142194312009397" flag="0"/>
			<psa30 value="0.0115680975211542" flag="0"/>
		</comp>
		<comp name="--.HNZ" depth="0.0">
			<acc value="2.48204378009794" flag="0"/>
			<vel value="0.3302955644706" flag="0"/>
			<psa03 value="0.311405758063171" flag="0"/>
			<psa10 value="0.0556503565918064" flag="0"/>
			<psa30 value="0.00579501060119856" flag="0"/>
		</comp>
	</station>
	<station code="LOT" name="LOT" netid="RO" source="Romanian Seismic Network (NIEP)" insttype="" lat="45.446" lon="23.7698">
		<comp name="--.HNE" depth="0.0">
			<acc value="0.0497517925665382" flag="0"/>
			<vel value="0.013533059084268" flag="0"/>
			<psa03 value="0.0692609358450847" flag="0"/>
			<psa10 value="0.00985760296213763" flag="0"/>
			<psa30 value="0.000656368171090046" flag="0"/>
		</comp>
		<comp name="--.HNN" depth="0.0">
			<acc value="0.0560168553394344" flag="0"/>
			<vel value="0.0229225125113291" flag="0"/>
			<psa03 value="0.0682766072994827" flag="0"/>
			<psa10 value="0.00966834342814234" flag="0"/>
			<psa30 value="0.000753906181517879" flag="0"/>
		</comp>
		<comp name="--.HNZ" depth="0.0">
			<acc value="0.0437419151810248" flag="0"/>
			<vel value="0.00928300312912987" flag="0"/>
			<psa03 value="0.0206708994576416" flag="0"/>
			<psa10 value="0.00498920346000348" flag="0"/>
			<psa30 value="0.000398205638902619" flag="0"/>
		</comp>
	</station>
	<station code="MDVR" name="MDVR" netid="RO" source="Romanian Seismic Network (NIEP)" insttype="" lat="44.7815" lon="21.7128">
		<comp name="--.HNE" depth="0.0">
			<acc value="0.167242360872913" flag="0"/>
			<vel value="0.0201317581132389" flag="0"/>
			<psa03 value="0.0459502461969651" flag="0"/>
			<psa10 value="0.0036321723332713" flag="0"/>
			<psa30 value="0.000578069309508071" flag="0"/>
		</comp>
		<comp name="--.HNN" depth="0.0">
			<acc value="0.195534286837597" flag="0"/>
			<vel value="0.0272041813082768" flag="0"/>
			<psa03 value="0.0572252822647696" flag="0"/>
			<psa10 value="0.00514222180663797" flag="0"/>
			<psa30 value="0.000654131060759133" flag="0"/>
		</comp>
		<comp name="--.HNZ" depth="0.0">
			<acc value="0.173875015236792" flag="0"/>
			<vel value="0.0245230588782449" flag="0"/>
			<psa03 value="0.0296193407812959" flag="0"/>
			<psa10 value="0.00320533168213299" flag="0"/>
			<psa30 value="0.000446974644116535" flag="0"/>
		</comp>
	</station>
	<station code="MHISU" name="MHISU" netid="RO" source="Romanian Seismic Network (NIEP)" insttype="" lat="44.6227" lon="22.6535">
		<comp name="--.HNE" depth="0.0">
			<acc value="0.519266892683472" flag="0"/>
			<vel value="0.18879454721064" flag="0"/>
			<psa03 value="1.19161918886443" flag="0"/>
			<psa10 value="0.0572570492314685" flag="0"/>
			<psa30 value="0.00504781575067342" flag="0"/>
		</comp>
		<comp name="--.HNN" depth="0.0">
			<acc value="0.466780070620147" flag="0"/>
			<vel value="0.244246398709535" flag="0"/>
			<psa03 value="1.35197525738432" flag="0"/>
			<psa10 value="0.110451058679932" flag="0"/>
			<psa30 value="0.011452662628079" flag="0"/>
		</comp>
		<comp name="--.HNZ" depth="0.0">
			<acc value="0.425939421253711" flag="0"/>
			<vel value="0.103340882950207" flag="0"/>
			<psa03 value="1.00338872562136" flag="0"/>
			<psa10 value="0.0484383603070072" flag="0"/>
			<psa30 value="0.00251093263541741" flag="0"/>
		</comp>
	</station>
	<station code="OTISU" name="OTISU" netid="RO" source="Romanian Seismic Network (NIEP)" insttype="" lat="44.4278" lon="24.3755">
		<comp name="--.HNE" depth="0.0">
			<acc value="0.042785502638506" flag="0"/>
			<vel value="0.0136256344292224" flag="0"/>
			<psa03 value="0.0599992990751024" flag="0"/>
			<psa10 value="0.00625361821903584" flag="0"/>
			<psa30 value="0.000408496346424821" flag="0"/>
		</comp>
		<comp name="--.HNN" depth="0.0">
			<acc value="0.0361910242362325" flag="0"/>
			<vel value="0.0103312581830894" flag="0"/>
			<psa03 value="0.0593281659758284" flag="0"/>
			<psa10 value="0.0035234487711889" flag="0"/>
			<psa30 value="0.000474714812219863" flag="0"/>
		</comp>
		<comp name="--.HNZ" depth="0.0">
			<acc value="0.0340349833992192" flag="0"/>
			<vel value="0.0069897599066518" flag="0"/>
			<psa03 value="0.0318564511122095" flag="0"/>
			<psa10 value="0.00194897052029192" flag="0"/>
			<psa30 value="0.000317669666989729" flag="0"/>
		</comp>
	</station>
	<station code="PUNG" name="PUNG" netid="RO" source="Romanian Seismic Network (NIEP)" insttype="" lat="44.2782" lon="22.9325">
		<comp name="--.HNE" depth="0.0">
			<acc value="0.423810106893057" flag="0"/>
			<vel value="0.107335877711151" flag="0"/>
			<psa03 value="0.299504331102711" flag="0"/>
			<psa10 value="0.0468034800771755" flag="0"/>
			<psa30 value="0.00347512718804117" flag="0"/>
		</comp>
		<comp name="--.HNN" depth="0.0">
			<acc value="0.340778421966585" flag="0"/>
			<vel value="0.0970084129900713" flag="0"/>
			<psa03 value="0.397310794770253" flag="0"/>
			<psa10 value="0.0314331898376006" flag="0"/>
			<psa30 value="0.00301651957020388" flag="0"/>
		</comp>
		<comp name="--.HNZ" depth="0.0">
			<acc value="0.205663182556924" flag="0"/>
			<vel value="0.0234877869786066" flag="0"/>
			<psa03 value="0.0551223985537108" flag="0"/>
			<psa10 value="0.0111421517141482" flag="0"/>
			<psa30 value="0.000901555463358176" flag="0"/>
		</comp>
	</station>
	<station code="SIRR" name="SIRR" netid="RO" source="Romanian Seismic Network (NIEP)" insttype="" lat="46.2653" lon="21.663">
		<comp name="--.HNE" depth="0.0">
			<acc value="0.0426153923467109" flag="0"/>
			<vel value="0.0173673677083799" flag="0"/>
			<psa03 value="0.0668895988943163" flag="0"/>
			<psa10 value="0.00853681302276625" flag="0"/>
			<psa30 value="0.000929295631461504" flag="0"/>
		</comp>
		<comp name="--.HNN" depth="0.0">
			<acc value="0.0164358076644287" flag="0"/>
			<vel value="0.00574326454179757" flag="0"/>
			<psa03 value="0.0310510913930806" flag="0"/>
			<psa10 value="0.00403485219283575" flag="0"/>
			<psa30 value="0.000330197484842846" flag="0"/>
		</comp>
		<comp name="--.HNZ" depth="0.0">
			<acc value="0.0123185565120719" flag="0"/>
			<vel value="0.00542608633899729" flag="0"/>
			<psa03 value="0.0254135733591784" flag="0"/>
			<psa10 value="0.00488047989792108" flag="0"/>
			<psa30 value="0.000336461393769404" flag="0"/>
		</comp>
	</station>
	<station code="VLAD" name="VLAD" netid="RO" source="Romanian Seismic Network (NIEP)" insttype="" lat="43.9986" lon="24.4038">
		<comp name="--.HNE" depth="0.0">
			<acc value="0.0362329276520419" flag="0"/>
			<vel value="0.0125199277571142" flag="0"/>
			<psa03 value="0.0899318353027262" flag="0"/>
			<psa10 value="0.0117501983020905" flag="0"/>
			<psa30 value="0.00180490061498108" flag="0"/>
		</comp>
		<comp name="--.HNN" depth="0.0">
			<acc value="0.0443783508440607" flag="0"/>
			<vel value="0.0183388768205805" flag="0"/>
			<psa03 value="0.109484179594911" flag="0"/>
			<psa10 value="0.00777977488678509" flag="0"/>
			<psa30 value="0.00275433023942081" flag="0"/>
		</comp>
		<comp name="--.HNZ" depth="0.0">
			<acc value="0.0239035233597376" flag="0"/>
			<vel value="0.00666113404975783" flag="0"/>
			<psa03 value="0.0307378959467527" flag="0"/>
			<psa10 value="0.00302412574532899" flag="0"/>
			<psa30 value="0.000600440412817207" flag="0"/>
		</comp>
	</station>
</stationlist>
