<?xml version="1.0" encoding="UTF-8" standalone="yes"?>
<!DOCTYPE earthquake SYSTEM "stationlist.dtd">
<stationlist created="" xmlns="ch.ethz.sed.shakemap.usgs.xml">
  <station code="ZKR" name="ZKR" netid="GE" source="GFZ" insttype="STS-2/N" lat="35.1147" lon="26.2169">
    <comp name="--.HHE">
      <acc value="0.2456101311" flag="0"/>
      <vel value="0.1139806489" flag="0"/>
      <psa03 value="0.7796235313" flag="0"/>
      <psa10 value="0.0299713379" flag="0"/>
      <psa30 value="0.0036009115" flag="0"/>
    </comp>
    <comp name="--.HHN">
      <acc value="0.1089063849" flag="0"/>
      <vel value="0.0362826458" flag="0"/>
      <psa03 value="0.1912086136" flag="0"/>
      <psa10 value="0.0104627269" flag="0"/>
      <psa30 value="0.0012905187" flag="0"/>
    </comp>
    <comp name="--.HHZ">
      <acc value="0.3115431796" flag="0"/>
      <vel value="0.0415107306" flag="0"/>
      <psa03 value="0.1370500534" flag="0"/>
      <psa10 value="0.0132389564" flag="0"/>
      <psa30 value="0.0008668887" flag="0"/>
    </comp>
  </station>
  <station code="FRMA" name="FRMA" netid="HC" source="NOA" insttype="60" lat="35.0187" lon="25.8555">
    <comp name="--.HHE">
      <acc value="0.0715278630" flag="0"/>
      <vel value="0.0224565021" flag="0"/>
      <psa03 value="0.0846661701" flag="0"/>
      <psa10 value="0.0144917497" flag="0"/>
      <psa30 value="0.0011253935" flag="0"/>
    </comp>
    <comp name="--.HHN">
      <acc value="0.0607617507" flag="0"/>
      <vel value="0.0209376183" flag="0"/>
      <psa03 value="0.1472656304" flag="0"/>
      <psa10 value="0.0144038255" flag="0"/>
      <psa30 value="0.0008066783" flag="0"/>
    </comp>
    <comp name="--.HHZ">
      <acc value="0.0383698072" flag="0"/>
      <vel value="0.0103734191" flag="0"/>
      <psa03 value="0.0516412015" flag="0"/>
      <psa10 value="0.0075306574" flag="0"/>
      <psa30 value="0.0009968950" flag="0"/>
    </comp>
  </station>
  <station code="KSTL" name="KSTL" netid="HC" source="NOA" insttype="120" lat="35.2092" lon="25.3374">
    <comp name="--.HHE">
      <acc value="0.0089055146" flag="0"/>
      <vel value="0.0059625073" flag="0"/>
      <psa03 value="0.0239102111" flag="0"/>
      <psa10 value="0.0046290427" flag="0"/>
      <psa30 value="0.0007502397" flag="0"/>
    </comp>
    <comp name="--.HHN">
      <acc value="0.0195338616" flag="0"/>
      <vel value="0.0094190768" flag="0"/>
      <psa03 value="0.0681378274" flag="0"/>
      <psa10 value="0.0114636940" flag="0"/>
      <psa30 value="0.0006804864" flag="0"/>
    </comp>
    <comp name="--.HHZ">
      <acc value="0.0189036520" flag="0"/>
      <vel value="0.0132993577" flag="0"/>
      <psa03 value="0.0410387994" flag="0"/>
      <psa10 value="0.0109195392" flag="0"/>
      <psa30 value="0.0010184231" flag="0"/>
    </comp>
  </station>
  <station code="KARP" name="KARP" netid="HL" source="NOA" insttype="120" lat="35.5471" lon="27.1611">
    <comp name="--.HHE">
      <acc value="0.0117107899" flag="0"/>
      <vel value="0.0060318377" flag="0"/>
      <psa03 value="0.0266581194" flag="0"/>
      <psa10 value="0.0066348606" flag="0"/>
      <psa30 value="0.0003303855" flag="0"/>
    </comp>
    <comp name="--.HHN">
      <acc value="0.0097559072" flag="0"/>
      <vel value="0.0053661178" flag="0"/>
      <psa03 value="0.0230631346" flag="0"/>
      <psa10 value="0.0049224935" flag="0"/>
      <psa30 value="0.0002958731" flag="0"/>
    </comp>
    <comp name="--.HHZ">
      <acc value="0.0071040821" flag="0"/>
      <vel value="0.0042981115" flag="0"/>
      <psa03 value="0.0229688616" flag="0"/>
      <psa10 value="0.0032244596" flag="0"/>
      <psa30 value="0.0002743863" flag="0"/>
    </comp>
  </station>
  <station code="NPS" name="NPS" netid="HL" source="NOA" insttype="120" lat="35.2613" lon="25.6104">
    <comp name="--.HHE">
      <acc value="0.0385920460" flag="0"/>
      <vel value="0.0152590211" flag="0"/>
      <psa03 value="0.0846645169" flag="0"/>
      <psa10 value="0.0110899158" flag="0"/>
      <psa30 value="0.0005534428" flag="0"/>
    </comp>
    <comp name="--.HHN">
      <acc value="0.0285714088" flag="0"/>
      <vel value="0.0132472603" flag="0"/>
      <psa03 value="0.0658991381" flag="0"/>
      <psa10 value="0.0080545405" flag="0"/>
      <psa30 value="0.0004066441" flag="0"/>
    </comp>
    <comp name="--.HHZ">
      <acc value="0.0234104589" flag="0"/>
      <vel value="0.0067644805" flag="0"/>
      <psa03 value="0.0448973573" flag="0"/>
      <psa10 value="0.0036335797" flag="0"/>
      <psa30 value="0.0002995226" flag="0"/>
    </comp>
  </station>
  <station code="ZKR" name="ZKR" netid="HL" source="NOA" insttype="120" lat="35.1147" lon="26.2169">
    <comp name="--.HHE">
      <acc value="0.2358112443" flag="0"/>
      <vel value="0.1107974749" flag="0"/>
      <psa03 value="0.7574598719" flag="0"/>
      <psa10 value="0.0294660865" flag="0"/>
      <psa30 value="0.0035400067" flag="0"/>
    </comp>
  </station>
</stationlist>
