<stationlist xmlns:esm="https://esm-db.eu/esmws/shakemap/1/" created="1780970071">
	<station code="AGN1" name="AGN1" netid="HI" source="ITSAK Strong Motion Network" insttype="" lat="35.1879" lon="25.7155" esm:processing="automatic (Paolucci et al 2011)" esm:quality="best">
		<comp name="--.HNE" depth="0.0">
			<acc value="0.0545815533616732" flag="0"/>
			<vel value="0.0185350937453955" flag="0"/>
			<psa03 value="0.182301659923613" flag="0"/>
			<psa10 value="0.0106657346775777" flag="0"/>
			<psa30 value="0.000776358044493613" flag="0"/>
		</comp>
		<comp name="--.HNN" depth="0.0">
			<acc value="0.0470692519051007" flag="0"/>
			<vel value="0.0192557829956051" flag="0"/>
			<psa03 value="0.139480448228494" flag="0"/>
			<psa10 value="0.0137683133331869" flag="0"/>
			<psa30 value="0.00102807695921967" flag="0"/>
		</comp>
		<comp name="--.HNZ" depth="0.0">
			<acc value="0.0226720582466274" flag="0"/>
			<vel value="0.00833502250589879" flag="0"/>
			<psa03 value="0.056599541108489" flag="0"/>
			<psa10 value="0.00426145605054921" flag="0"/>
			<psa30 value="0.000554707059120305" flag="0"/>
		</comp>
	</station>
	<station code="ARK1" name="ARK1" netid="HI" source="ITSAK Strong Motion Network" insttype="" lat="35.148777" lon="25.264194" esm:processing="automatic (Paolucci et al 2011)" esm:quality="best">
		<comp name="--.HNE" depth="0.0">
			<acc value="0.009464391054956" flag="0"/>
			<vel value="0.00607599475481697" flag="0"/>
			<psa03 value="0.024211549208811" flag="0"/>
			<psa10 value="0.00698195001992318" flag="0"/>
			<psa30 value="0.000635249686340743" flag="0"/>
		</comp>
		<comp name="--.HNN" depth="0.0">
			<acc value="0.0101961233057685" flag="0"/>
			<vel value="0.00698009483558633" flag="0"/>
			<psa03 value="0.0226124094194814" flag="0"/>
			<psa10 value="0.00903479757349875" flag="0"/>
			<psa30 value="0.000686302651682475" flag="0"/>
		</comp>
		<comp name="--.HNZ" depth="0.0">
			<acc value="0.00728848648196426" flag="0"/>
			<vel value="0.00568808175752057" flag="0"/>
			<psa03 value="0.0165210137069105" flag="0"/>
			<psa10 value="0.00835268551192231" flag="0"/>
			<psa30 value="0.000628077492468098" flag="0"/>
		</comp>
	</station>
	<station code="HER2" name="HER2" netid="HI" source="ITSAK Strong Motion Network" insttype="" lat="35.337866" lon="25.135624" esm:processing="manual (Paolucci et al 2011)" esm:quality="good">
		<comp name="--.HNE" depth="0.0">
			<acc value="0.0144027104778934" flag="0"/>
			<vel value="0.00791521403503777" flag="0"/>
			<psa03 value="0.0367918695724607" flag="0"/>
			<psa10 value="0.00724531027874783" flag="0"/>
			<psa30 value="0.00054894157301848" flag="0"/>
		</comp>
		<comp name="--.HNN" depth="0.0">
			<acc value="0.0125565259149302" flag="0"/>
			<vel value="0.00770425982832214" flag="0"/>
			<psa03 value="0.0394876028390596" flag="0"/>
			<psa10 value="0.0124852023958845" flag="0"/>
			<psa30 value="0.000509257850416615" flag="0"/>
		</comp>
		<comp name="--.HNZ" depth="0.0">
			<acc value="0.0102378143372322" flag="0"/>
			<vel value="0.00513265967430863" flag="0"/>
			<psa03 value="0.0313703359432986" flag="0"/>
			<psa10 value="0.00292666317394696" flag="0"/>
			<psa30 value="0.000241178398760276" flag="0"/>
		</comp>
	</station>
	<station code="KSS1" name="KSS1" netid="HI" source="ITSAK Strong Motion Network" insttype="" lat="35.4189" lon="26.9207" esm:processing="automatic (Paolucci et al 2011)" esm:quality="best">
		<comp name="--.HNE" depth="0.0">
			<acc value="0.00613331119150426" flag="0"/>
			<vel value="0.00358191759979651" flag="0"/>
			<psa03 value="0.0176876352606963" flag="0"/>
			<psa10 value="0.00272981896210898" flag="0"/>
			<psa30 value="0.000219942226343075" flag="0"/>
		</comp>
		<comp name="--.HNN" depth="0.0">
			<acc value="0.00796541190668071" flag="0"/>
			<vel value="0.00410546598757502" flag="0"/>
			<psa03 value="0.0183639847530308" flag="0"/>
			<psa10 value="0.00388937327689154" flag="0"/>
			<psa30 value="0.000306364097201216" flag="0"/>
		</comp>
		<comp name="--.HNZ" depth="0.0">
			<acc value="0.00655257676414248" flag="0"/>
			<vel value="0.00275611503989457" flag="0"/>
			<psa03 value="0.0190261432011116" flag="0"/>
			<psa10 value="0.00246527198404501" flag="0"/>
			<psa30 value="0.000299346575033146" flag="0"/>
		</comp>
	</station>
	<station code="SIT2" name="SIT2" netid="HI" source="ITSAK Strong Motion Network" insttype="" lat="35.2059" lon="26.107" esm:processing="manual (Paolucci et al 2011)" esm:quality="good">
		<comp name="--.HNE" depth="0.0">
			<acc value="0.515252804257923" flag="0"/>
			<vel value="0.265750627129203" flag="0"/>
			<psa03 value="1.75782778079684" flag="0"/>
			<psa10 value="0.127907728259259" flag="0"/>
			<psa30 value="0.00733014141922789" flag="0"/>
		</comp>
		<comp name="--.HNN" depth="0.0">
			<acc value="0.535589974467037" flag="0"/>
			<vel value="0.23549194927497" flag="0"/>
			<psa03 value="1.6152676702225" flag="0"/>
			<psa10 value="0.102428352875686" flag="0"/>
			<psa30 value="0.0069151222595787" flag="0"/>
		</comp>
		<comp name="--.HNZ" depth="0.0">
			<acc value="0.330925404787115" flag="0"/>
			<vel value="0.13588498277465" flag="0"/>
			<psa03 value="0.826739100741332" flag="0"/>
			<psa10 value="0.0426355506459859" flag="0"/>
			<psa30 value="0.00357968963687024" flag="0"/>
		</comp>
	</station>
</stationlist>
