<?xml version="1.0" encoding="UTF-8" standalone="yes"?>
<!DOCTYPE earthquake SYSTEM "stationlist.dtd">
<stationlist created="" xmlns="ch.ethz.sed.shakemap.usgs.xml">
  <station code="CI18" name="CI18" netid="8C" insttype="" lat="45.8997" lon="6.76995">
    <comp name="00.HHE">
      <acc value="0.0121906925" flag="0"/>
      <vel value="0.0055173859" flag="0"/>
      <psa03 value="0.0145446693" flag="0"/>
      <psa10 value="0.0059674533" flag="0"/>
      <psa30 value="0.0007272760" flag="0"/>
    </comp>
    <comp name="00.HHN">
      <acc value="0.0152700965" flag="0"/>
      <vel value="0.0048266658" flag="0"/>
      <psa03 value="0.0161935615" flag="0"/>
      <psa10 value="0.0078248754" flag="0"/>
      <psa30 value="0.0003824106" flag="0"/>
    </comp>
    <comp name="00.HHZ">
      <acc value="0.0123656512" flag="0"/>
      <vel value="0.0067095242" flag="0"/>
      <psa03 value="0.0242299820" flag="0"/>
      <psa10 value="0.0065717714" flag="0"/>
      <psa30 value="0.0009278360" flag="0"/>
    </comp>
  </station>
  <station code="CI19" name="CI19" netid="8C" insttype="" lat="45.9449" lon="6.89867">
    <comp name="00.HHE">
      <acc value="0.0311593361" flag="0"/>
      <vel value="0.0123660905" flag="0"/>
      <psa03 value="0.0508434964" flag="0"/>
      <psa10 value="0.0196923870" flag="0"/>
      <psa30 value="0.0019250049" flag="0"/>
    </comp>
    <comp name="00.HHN">
      <acc value="0.0397002370" flag="0"/>
      <vel value="0.0119001641" flag="0"/>
      <psa03 value="0.0467227011" flag="0"/>
      <psa10 value="0.0102010130" flag="0"/>
      <psa30 value="0.0013328433" flag="0"/>
    </comp>
    <comp name="00.HHZ">
      <acc value="0.0357707336" flag="0"/>
      <vel value="0.0096132757" flag="0"/>
      <psa03 value="0.0386578452" flag="0"/>
      <psa10 value="0.0068422501" flag="0"/>
      <psa30 value="0.0020892066" flag="0"/>
    </comp>
  </station>
  <station code="CI20" name="CI20" netid="8C" insttype="" lat="45.8203" lon="6.96349">
    <comp name="00.HHE">
      <acc value="0.0844876438" flag="0"/>
      <vel value="0.0244873619" flag="0"/>
      <psa03 value="0.1382873385" flag="0"/>
      <psa10 value="0.0077863414" flag="0"/>
      <psa30 value="0.0005288404" flag="0"/>
    </comp>
    <comp name="00.HHN">
      <acc value="0.1049030849" flag="0"/>
      <vel value="0.0268744453" flag="0"/>
      <psa03 value="0.1780019490" flag="0"/>
      <psa10 value="0.0107705116" flag="0"/>
      <psa30 value="0.0008544415" flag="0"/>
    </comp>
    <comp name="00.HHZ">
      <acc value="0.0949682090" flag="0"/>
      <vel value="0.0313403715" flag="0"/>
      <psa03 value="0.1808000333" flag="0"/>
      <psa10 value="0.0072760640" flag="0"/>
      <psa30 value="0.0006642440" flag="0"/>
    </comp>
  </station>
  <station code="CERN1" name="CERN1" netid="C4" insttype="CMG-6T" lat="46.2359" lon="6.05484">
    <comp name="--.HH2">
      <acc value="0.0082290120" flag="0"/>
      <vel value="0.0044148784" flag="0"/>
      <psa03 value="0.0107945993" flag="0"/>
      <psa10 value="0.0086913647" flag="0"/>
      <psa30 value="0.0005193608" flag="0"/>
    </comp>
    <comp name="--.HHZ">
      <acc value="0.0045192589" flag="0"/>
      <vel value="0.0027079309" flag="0"/>
      <psa03 value="0.0065625989" flag="0"/>
      <psa10 value="0.0036144395" flag="0"/>
      <psa30 value="0.0008587454" flag="0"/>
    </comp>
    <comp name="--.HH3">
      <acc value="0.0078338893" flag="0"/>
      <vel value="0.0039448012" flag="0"/>
      <psa03 value="0.0142583331" flag="0"/>
      <psa10 value="0.0050056624" flag="0"/>
      <psa30 value="0.0005847884" flag="0"/>
    </comp>
  </station>
  <station code="CERN5" name="CERN5" netid="C4" insttype="CMG-6T" lat="46.3099" lon="6.07608">
    <comp name="--.HHZ">
      <acc value="0.0079029643" flag="0"/>
      <vel value="0.0035381828" flag="0"/>
      <psa03 value="0.0162619476" flag="0"/>
      <psa10 value="0.0036110238" flag="0"/>
      <psa30 value="0.0009167357" flag="0"/>
    </comp>
    <comp name="--.HH2">
      <acc value="0.0069991840" flag="0"/>
      <vel value="0.0046565716" flag="0"/>
      <psa03 value="0.0127557929" flag="0"/>
      <psa10 value="0.0100685276" flag="0"/>
      <psa30 value="0.0005050661" flag="0"/>
    </comp>
    <comp name="--.HH3">
      <acc value="0.0061673149" flag="0"/>
      <vel value="0.0032836142" flag="0"/>
      <psa03 value="0.0130382354" flag="0"/>
      <psa10 value="0.0063572333" flag="0"/>
      <psa30 value="0.0006911994" flag="0"/>
    </comp>
  </station>
  <station code="CERNS" name="CERNS" netid="C4" insttype="CMG-40T" lat="46.2669" lon="6.06621">
    <comp name="--.HHZ">
      <acc value="0.0141279449" flag="0"/>
      <vel value="0.0038590881" flag="0"/>
      <psa03 value="0.0127589532" flag="0"/>
      <psa10 value="0.0026988354" flag="0"/>
      <psa30 value="0.0010954847" flag="0"/>
    </comp>
    <comp name="--.HHN">
      <acc value="0.0173926436" flag="0"/>
      <vel value="0.0082876982" flag="0"/>
      <psa03 value="0.0462155890" flag="0"/>
      <psa10 value="0.0092328743" flag="0"/>
      <psa30 value="0.0006737363" flag="0"/>
    </comp>
    <comp name="--.HHE">
      <acc value="0.0136033127" flag="0"/>
      <vel value="0.0068825184" flag="0"/>
      <psa03 value="0.0345520677" flag="0"/>
      <psa10 value="0.0064059491" flag="0"/>
      <psa30 value="0.0008554686" flag="0"/>
    </comp>
  </station>
  <station code="AIGLE" name="AIGLE" netid="CH" insttype="Trillium 240s_g2" lat="46.3418" lon="6.95295">
    <comp name="--.HHZ">
      <acc value="0.0063498037" flag="0"/>
      <vel value="0.0024538877" flag="0"/>
      <psa03 value="0.0104282797" flag="0"/>
      <psa10 value="0.0018015183" flag="0"/>
      <psa30 value="0.0005645427" flag="0"/>
    </comp>
    <comp name="--.HHE">
      <acc value="0.0077038378" flag="0"/>
      <vel value="0.0033132035" flag="0"/>
      <psa03 value="0.0158596020" flag="0"/>
      <psa10 value="0.0059380101" flag="0"/>
      <psa30 value="0.0008381148" flag="0"/>
    </comp>
    <comp name="--.HHN">
      <acc value="0.0064566358" flag="0"/>
      <vel value="0.0026236560" flag="0"/>
      <psa03 value="0.0066618015" flag="0"/>
      <psa10 value="0.0033025805" flag="0"/>
      <psa30 value="0.0007232878" flag="0"/>
    </comp>
  </station>
  <station code="BIBA" name="BIBA" netid="CH" insttype="EpiSensor ES-T" lat="46.3025" lon="7.93038">
    <comp name="--.HGN">
      <acc value="0.0370425479" flag="0"/>
      <vel value="0.0136662331" flag="0"/>
      <psa03 value="0.0536289555" flag="0"/>
      <psa10 value="0.0049962400" flag="0"/>
      <psa30 value="0.0010991758" flag="0"/>
    </comp>
    <comp name="--.HGZ">
      <acc value="0.0394000854" flag="0"/>
      <vel value="0.0128152357" flag="0"/>
      <psa03 value="0.0315027040" flag="0"/>
      <psa10 value="0.0052230700" flag="0"/>
      <psa30 value="0.0017887373" flag="0"/>
    </comp>
    <comp name="--.HGE">
      <acc value="0.0527755055" flag="0"/>
      <vel value="0.0156513952" flag="0"/>
      <psa03 value="0.0828243356" flag="0"/>
      <psa10 value="0.0053695048" flag="0"/>
      <psa30 value="0.0007442366" flag="0"/>
    </comp>
  </station>
  <station code="BNALP" name="BNALP" netid="CH" insttype="STS2_gen3" lat="46.8703" lon="8.4249">
    <comp name="--.HHE">
      <acc value="0.0071618762" flag="0"/>
      <vel value="0.0037070330" flag="0"/>
      <psa03 value="0.0141009345" flag="0"/>
      <psa10 value="0.0049904603" flag="0"/>
      <psa30 value="0.0008168149" flag="0"/>
    </comp>
    <comp name="--.HHN">
      <acc value="0.0056589712" flag="0"/>
      <vel value="0.0036540658" flag="0"/>
      <psa03 value="0.0206453305" flag="0"/>
      <psa10 value="0.0043351981" flag="0"/>
      <psa30 value="0.0006076213" flag="0"/>
    </comp>
    <comp name="--.HHZ">
      <acc value="0.0051639110" flag="0"/>
      <vel value="0.0034422799" flag="0"/>
      <psa03 value="0.0159053965" flag="0"/>
      <psa10 value="0.0036822671" flag="0"/>
      <psa30 value="0.0009815544" flag="0"/>
    </comp>
  </station>
  <station code="COLLE" name="COLLE" netid="CH" insttype="Trillium Compact 120s" lat="46.2925" lon="6.12055">
    <comp name="--.HHN">
      <acc value="0.0170474278" flag="0"/>
      <vel value="0.0089718093" flag="0"/>
      <psa03 value="0.0303509118" flag="0"/>
      <psa10 value="0.0108079205" flag="0"/>
      <psa30 value="0.0006841457" flag="0"/>
    </comp>
    <comp name="--.HHZ">
      <acc value="0.0097891588" flag="0"/>
      <vel value="0.0036566705" flag="0"/>
      <psa03 value="0.0090940015" flag="0"/>
      <psa10 value="0.0021266639" flag="0"/>
      <psa30 value="0.0009190564" flag="0"/>
    </comp>
    <comp name="--.HHE">
      <acc value="0.0153227893" flag="0"/>
      <vel value="0.0071058265" flag="0"/>
      <psa03 value="0.0365083852" flag="0"/>
      <psa10 value="0.0055940863" flag="0"/>
      <psa30 value="0.0009467283" flag="0"/>
    </comp>
  </station>
  <station code="DIX" name="DIX" netid="CH" insttype="STS2.5" lat="46.0811" lon="7.40839">
    <comp name="--.HHE">
      <acc value="0.3332371688" flag="0"/>
      <vel value="0.0587837639" flag="0"/>
      <psa03 value="0.3743403146" flag="0"/>
      <psa10 value="0.0619195737" flag="0"/>
      <psa30 value="0.0029660779" flag="0"/>
    </comp>
    <comp name="--.HHN">
      <acc value="0.4391671519" flag="0"/>
      <vel value="0.0763128519" flag="0"/>
      <psa03 value="0.2370128384" flag="0"/>
      <psa10 value="0.0739647960" flag="0"/>
      <psa30 value="0.0075401661" flag="0"/>
    </comp>
    <comp name="--.HHZ">
      <acc value="0.3025850318" flag="0"/>
      <vel value="0.0598093074" flag="0"/>
      <psa03 value="0.2313417069" flag="0"/>
      <psa10 value="0.0742158953" flag="0"/>
      <psa30 value="0.0044825148" flag="0"/>
    </comp>
  </station>
  <station code="EMBD" name="EMBD" netid="CH" insttype="Trillium 40s" lat="46.2165" lon="7.83223">
    <comp name="--.HHE">
      <acc value="0.0331192173" flag="0"/>
      <vel value="0.0140420237" flag="0"/>
      <psa03 value="0.0435257178" flag="0"/>
      <psa10 value="0.0106379266" flag="0"/>
      <psa30 value="0.0010481150" flag="0"/>
    </comp>
    <comp name="--.HHZ">
      <acc value="0.0480098977" flag="0"/>
      <vel value="0.0198473876" flag="0"/>
      <psa03 value="0.0487060105" flag="0"/>
      <psa10 value="0.0099945450" flag="0"/>
      <psa30 value="0.0023165487" flag="0"/>
    </comp>
    <comp name="--.HHN">
      <acc value="0.0369940773" flag="0"/>
      <vel value="0.0140233785" flag="0"/>
      <psa03 value="0.0298272152" flag="0"/>
      <psa10 value="0.0098388381" flag="0"/>
      <psa30 value="0.0013344780" flag="0"/>
    </comp>
  </station>
  <station code="FIESA" name="FIESA" netid="CH" insttype="STS2_gen2" lat="46.4352" lon="8.11051">
    <comp name="--.HHE">
      <acc value="0.0078827261" flag="0"/>
      <vel value="0.0049889108" flag="0"/>
      <psa03 value="0.0262894536" flag="0"/>
      <psa10 value="0.0038915171" flag="0"/>
      <psa30 value="0.0019135107" flag="0"/>
    </comp>
    <comp name="--.HHZ">
      <acc value="0.0096251845" flag="0"/>
      <vel value="0.0062565275" flag="0"/>
      <psa03 value="0.0182031222" flag="0"/>
      <psa10 value="0.0046560052" flag="0"/>
      <psa30 value="0.0014596741" flag="0"/>
    </comp>
    <comp name="--.HHN">
      <acc value="0.0109905939" flag="0"/>
      <vel value="0.0043523162" flag="0"/>
      <psa03 value="0.0182495362" flag="0"/>
      <psa10 value="0.0043409072" flag="0"/>
      <psa30 value="0.0013735586" flag="0"/>
    </comp>
  </station>
  <station code="FULLY" name="FULLY" netid="CH" insttype="Trillium Compact 120s" lat="46.1563" lon="7.13579">
    <comp name="--.HHE">
      <acc value="0.0158872730" flag="0"/>
      <vel value="0.0064679024" flag="0"/>
      <psa03 value="0.0214449281" flag="0"/>
      <psa10 value="0.0068957326" flag="0"/>
      <psa30 value="0.0013274188" flag="0"/>
    </comp>
    <comp name="--.HHN">
      <acc value="0.0174246642" flag="0"/>
      <vel value="0.0060497416" flag="0"/>
      <psa03 value="0.0365597408" flag="0"/>
      <psa10 value="0.0054329523" flag="0"/>
      <psa30 value="0.0020820061" flag="0"/>
    </comp>
    <comp name="--.HHZ">
      <acc value="0.0195085095" flag="0"/>
      <vel value="0.0053052395" flag="0"/>
      <psa03 value="0.0196818400" flag="0"/>
      <psa10 value="0.0071856645" flag="0"/>
      <psa30 value="0.0011127688" flag="0"/>
    </comp>
  </station>
  <station code="FUSIO" name="FUSIO" netid="CH" insttype="STS2.5" lat="46.4548" lon="8.6629">
    <comp name="--.HHN">
      <acc value="0.0051574565" flag="0"/>
      <vel value="0.0017969251" flag="0"/>
      <psa03 value="0.0092419105" flag="0"/>
      <psa10 value="0.0011723993" flag="0"/>
      <psa30 value="0.0003454654" flag="0"/>
    </comp>
    <comp name="--.HHZ">
      <acc value="0.0047023771" flag="0"/>
      <vel value="0.0020185204" flag="0"/>
      <psa03 value="0.0054914869" flag="0"/>
      <psa10 value="0.0015825666" flag="0"/>
      <psa30 value="0.0005299370" flag="0"/>
    </comp>
    <comp name="--.HHE">
      <acc value="0.0043450552" flag="0"/>
      <vel value="0.0019404622" flag="0"/>
      <psa03 value="0.0071669649" flag="0"/>
      <psa10 value="0.0017559025" flag="0"/>
      <psa30 value="0.0004195496" flag="0"/>
    </comp>
  </station>
  <station code="GIMEL" name="GIMEL" netid="CH" insttype="Trillium 240s_g2" lat="46.5336" lon="6.26545">
    <comp name="--.HHE">
      <acc value="0.0047924913" flag="0"/>
      <vel value="0.0022863843" flag="0"/>
      <psa03 value="0.0111017682" flag="0"/>
      <psa10 value="0.0028239002" flag="0"/>
      <psa30 value="0.0002332556" flag="0"/>
    </comp>
    <comp name="--.HHZ">
      <acc value="0.0037859529" flag="0"/>
      <vel value="0.0014238337" flag="0"/>
      <psa03 value="0.0068583549" flag="0"/>
      <psa10 value="0.0016549414" flag="0"/>
      <psa30 value="0.0003463862" flag="0"/>
    </comp>
    <comp name="--.HHN">
      <acc value="0.0040915081" flag="0"/>
      <vel value="0.0026671407" flag="0"/>
      <psa03 value="0.0111229574" flag="0"/>
      <psa10 value="0.0028543807" flag="0"/>
      <psa30 value="0.0004386543" flag="0"/>
    </comp>
  </station>
  <station code="GRIMS" name="GRIMS" netid="CH" insttype="STS2_gen3" lat="46.5781" lon="8.31886">
    <comp name="--.HHE">
      <acc value="0.0040801305" flag="0"/>
      <vel value="0.0025273697" flag="0"/>
      <psa03 value="0.0111800497" flag="0"/>
      <psa10 value="0.0022434001" flag="0"/>
      <psa30 value="0.0003578458" flag="0"/>
    </comp>
    <comp name="--.HHZ">
      <acc value="0.0044803389" flag="0"/>
      <vel value="0.0017819668" flag="0"/>
      <psa03 value="0.0091385774" flag="0"/>
      <psa10 value="0.0020379031" flag="0"/>
      <psa30 value="0.0006670659" flag="0"/>
    </comp>
    <comp name="--.HHN">
      <acc value="0.0032113845" flag="0"/>
      <vel value="0.0015856508" flag="0"/>
      <psa03 value="0.0106929877" flag="0"/>
      <psa10 value="0.0015264459" flag="0"/>
      <psa30 value="0.0009035145" flag="0"/>
    </comp>
  </station>
  <station code="GRYON" name="GRYON" netid="CH" insttype="Trillium 240s_g2" lat="46.2505" lon="7.11106">
    <comp name="--.HHE">
      <acc value="0.0308072237" flag="0"/>
      <vel value="0.0071830902" flag="0"/>
      <psa03 value="0.0400924618" flag="0"/>
      <psa10 value="0.0054650625" flag="0"/>
      <psa30 value="0.0011536634" flag="0"/>
    </comp>
    <comp name="--.HHZ">
      <acc value="0.0209068396" flag="0"/>
      <vel value="0.0067952908" flag="0"/>
      <psa03 value="0.0408037895" flag="0"/>
      <psa10 value="0.0063662794" flag="0"/>
      <psa30 value="0.0014189898" flag="0"/>
    </comp>
    <comp name="--.HHN">
      <acc value="0.0347614755" flag="0"/>
      <vel value="0.0082578835" flag="0"/>
      <psa03 value="0.0588693826" flag="0"/>
      <psa10 value="0.0064541181" flag="0"/>
      <psa30 value="0.0014288750" flag="0"/>
    </comp>
  </station>
  <station code="ILLEZ" name="ILLEZ" netid="CH" insttype="Trillium Compact 120s" lat="46.2193" lon="6.94038">
    <comp name="--.HHN">
      <acc value="0.0570598745" flag="0"/>
      <vel value="0.0131465204" flag="0"/>
      <psa03 value="0.0450598795" flag="0"/>
      <psa10 value="0.0046170768" flag="0"/>
      <psa30 value="0.0011740334" flag="0"/>
    </comp>
    <comp name="--.HHZ">
      <acc value="0.0361082154" flag="0"/>
      <vel value="0.0084218643" flag="0"/>
      <psa03 value="0.0465600928" flag="0"/>
      <psa10 value="0.0035836750" flag="0"/>
      <psa30 value="0.0011911136" flag="0"/>
    </comp>
    <comp name="--.HHE">
      <acc value="0.0695163360" flag="0"/>
      <vel value="0.0129882402" flag="0"/>
      <psa03 value="0.0588599923" flag="0"/>
      <psa10 value="0.0045861416" flag="0"/>
      <psa30 value="0.0007674513" flag="0"/>
    </comp>
  </station>
  <station code="LADOL" name="LADOL" netid="CH" insttype="Trillium 240s_g2" lat="46.4321" lon="6.13151">
    <comp name="--.HHN">
      <acc value="0.0071962790" flag="0"/>
      <vel value="0.0063876960" flag="0"/>
      <psa03 value="0.0197079985" flag="0"/>
      <psa10 value="0.0115153479" flag="0"/>
      <psa30 value="0.0006397116" flag="0"/>
    </comp>
    <comp name="--.HHE">
      <acc value="0.0096368780" flag="0"/>
      <vel value="0.0063845177" flag="0"/>
      <psa03 value="0.0293677088" flag="0"/>
      <psa10 value="0.0078869912" flag="0"/>
      <psa30 value="0.0007912385" flag="0"/>
    </comp>
    <comp name="--.HHZ">
      <acc value="0.0052750850" flag="0"/>
      <vel value="0.0023697032" flag="0"/>
      <psa03 value="0.0160092797" flag="0"/>
      <psa10 value="0.0038273336" flag="0"/>
      <psa30 value="0.0007151477" flag="0"/>
    </comp>
  </station>
  <station code="LAUCH" name="LAUCH" netid="CH" insttype="Trillium 40s" lat="46.4155" lon="7.77166">
    <comp name="--.HHZ">
      <acc value="0.0129419910" flag="0"/>
      <vel value="0.0050505556" flag="0"/>
      <psa03 value="0.0152042793" flag="0"/>
      <psa10 value="0.0039707160" flag="0"/>
      <psa30 value="0.0010683101" flag="0"/>
    </comp>
    <comp name="--.HHE">
      <acc value="0.0208320089" flag="0"/>
      <vel value="0.0068298944" flag="0"/>
      <psa03 value="0.0443044405" flag="0"/>
      <psa10 value="0.0080010617" flag="0"/>
      <psa30 value="0.0010521877" flag="0"/>
    </comp>
    <comp name="--.HHN">
      <acc value="0.0151372678" flag="0"/>
      <vel value="0.0059871712" flag="0"/>
      <psa03 value="0.0180378452" flag="0"/>
      <psa10 value="0.0066853927" flag="0"/>
      <psa30 value="0.0008022354" flag="0"/>
    </comp>
  </station>
  <station code="LKBD2" name="LKBD2" netid="CH" insttype="Trillium 240s_g2" lat="46.3745" lon="7.64433">
    <comp name="--.HHN">
      <acc value="0.0234830006" flag="0"/>
      <vel value="0.0077386518" flag="0"/>
      <psa03 value="0.0351657920" flag="0"/>
      <psa10 value="0.0061526947" flag="0"/>
      <psa30 value="0.0020050502" flag="0"/>
    </comp>
    <comp name="--.HHE">
      <acc value="0.0242948243" flag="0"/>
      <vel value="0.0113641512" flag="0"/>
      <psa03 value="0.0636888865" flag="0"/>
      <psa10 value="0.0076096912" flag="0"/>
      <psa30 value="0.0026802548" flag="0"/>
    </comp>
    <comp name="--.HHZ">
      <acc value="0.0251670226" flag="0"/>
      <vel value="0.0061674891" flag="0"/>
      <psa03 value="0.0282762969" flag="0"/>
      <psa10 value="0.0048136558" flag="0"/>
      <psa30 value="0.0010231261" flag="0"/>
    </comp>
  </station>
  <station code="MESRY" name="MESRY" netid="CH" insttype="Trillium Compact 120s" lat="46.3465" lon="6.30845">
    <comp name="--.HHE">
      <acc value="0.0122239462" flag="0"/>
      <vel value="0.0044431205" flag="0"/>
      <psa03 value="0.0258122279" flag="0"/>
      <psa10 value="0.0043990937" flag="0"/>
