<stationlist created="1778032501">
	<station code="ACB" name="ACB" netid="CH" source="Switzerland Seismological Network" insttype="" lat="47.58772" lon="8.25474">
		<comp name="--.HGE" depth="0.0">
			<acc value="0.012397496378175" flag="0"/>
			<vel value="0.00739001025788192" flag="0"/>
			<psa03 value="0.0369957763094648" flag="0"/>
			<psa10 value="0.00517018671822765" flag="0"/>
			<psa30 value="0.000476565684722847" flag="0"/>
		</comp>
		<comp name="--.HGN" depth="0.0">
			<acc value="0.00889131903579517" flag="0"/>
			<vel value="0.00500379877201323" flag="0"/>
			<psa03 value="0.0337044489001406" flag="0"/>
			<psa10 value="0.00935551506947683" flag="0"/>
			<psa30 value="0.000503065929816819" flag="0"/>
		</comp>
		<comp name="--.HGZ" depth="0.0">
			<acc value="0.00716722476184331" flag="0"/>
			<vel value="0.00319757609069206" flag="0"/>
			<psa03 value="0.0233659801731656" flag="0"/>
			<psa10 value="0.00312435236363695" flag="0"/>
			<psa30 value="0.000315716878235296" flag="0"/>
		</comp>
	</station>
	<station code="AIGLE" name="AIGLE" netid="CH" source="Switzerland Seismological Network" insttype="" lat="46.34176" lon="6.95295">
		<comp name="--.HGE" depth="0.0">
			<acc value="0.00740271122119279" flag="0"/>
			<vel value="0.00333041513409153" flag="0"/>
			<psa03 value="0.0159221654423813" flag="0"/>
			<psa10 value="0.00586917536657035" flag="0"/>
			<psa30 value="0.000867786288666883" flag="0"/>
		</comp>
		<comp name="--.HGN" depth="0.0">
			<acc value="0.00640575035828073" flag="0"/>
			<vel value="0.00289082118220285" flag="0"/>
			<psa03 value="0.00708355128174235" flag="0"/>
			<psa10 value="0.00382909998720675" flag="0"/>
			<psa30 value="0.00089763310962292" flag="0"/>
		</comp>
		<comp name="--.HGZ" depth="0.0">
			<acc value="0.00637612925442918" flag="0"/>
			<vel value="0.00267041647037686" flag="0"/>
			<psa03 value="0.0107789041536586" flag="0"/>
			<psa10 value="0.00180267773886509" flag="0"/>
			<psa30 value="0.000648862150598044" flag="0"/>
		</comp>
	</station>
	<station code="BIBA" name="BIBA" netid="CH" source="Switzerland Seismological Network" insttype="" lat="46.30255" lon="7.93038">
		<comp name="--.HGE" depth="0.0">
			<acc value="0.0526186870944836" flag="0"/>
			<vel value="0.0157035386929772" flag="0"/>
			<psa03 value="0.0827068174622177" flag="0"/>
			<psa10 value="0.00541167084039237" flag="0"/>
			<psa30 value="0.000837610279238823" flag="0"/>
		</comp>
		<comp name="--.HGN" depth="0.0">
			<acc value="0.0359993155476297" flag="0"/>
			<vel value="0.0137204193887193" flag="0"/>
			<psa03 value="0.053690853630351" flag="0"/>
			<psa10 value="0.00497986067257078" flag="0"/>
			<psa30 value="0.00120381370508105" flag="0"/>
		</comp>
		<comp name="--.HGZ" depth="0.0">
			<acc value="0.0381463953699976" flag="0"/>
			<vel value="0.013186989840111" flag="0"/>
			<psa03 value="0.0315090977397318" flag="0"/>
			<psa10 value="0.00524510777513118" flag="0"/>
			<psa30 value="0.00203043429797448" flag="0"/>
		</comp>
	</station>
	<station code="BLOTZ" name="BLOTZ" netid="CH" source="Switzerland Seismological Network" insttype="" lat="47.620722" lon="7.44">
		<comp name="SF.HGE" depth="1.0">
			<acc value="0.00358287104828149" flag="0"/>
			<vel value="0.00191738712861421" flag="0"/>
			<psa03 value="0.00893709203847631" flag="0"/>
			<psa10 value="0.00183033382875914" flag="0"/>
			<psa30 value="0.000114829612106792" flag="0"/>
		</comp>
		<comp name="SF.HGN" depth="1.0">
			<acc value="0.00265241410325242" flag="0"/>
			<vel value="0.00139100534202294" flag="0"/>
			<psa03 value="0.00593155179034517" flag="0"/>
			<psa10 value="0.00159133143352181" flag="0"/>
			<psa30 value="0.000126425718833622" flag="0"/>
		</comp>
		<comp name="SF.HGZ" depth="1.0">
			<acc value="0.0012795647673442" flag="0"/>
			<vel value="0.000598101902099051" flag="0"/>
			<psa03 value="0.00308042671940291" flag="0"/>
			<psa10 value="0.00045190684090559" flag="0"/>
			<psa30 value="7.6862656878153e-05" flag="0"/>
		</comp>
	</station>
	<station code="BNALP" name="BNALP" netid="CH" source="Switzerland Seismological Network" insttype="" lat="46.87034" lon="8.4249">
		<comp name="--.HGE" depth="0.0">
			<acc value="0.00707101741473146" flag="0"/>
			<vel value="0.00398785443636757" flag="0"/>
			<psa03 value="0.0155300730619504" flag="0"/>
			<psa10 value="0.00559226452256363" flag="0"/>
			<psa30 value="0.000922078479008752" flag="0"/>
		</comp>
		<comp name="--.HGN" depth="0.0">
			<acc value="0.00583604248797093" flag="0"/>
			<vel value="0.00390983201783339" flag="0"/>
			<psa03 value="0.020117426430772" flag="0"/>
			<psa10 value="0.00397859028082853" flag="0"/>
			<psa30 value="0.000605765181055056" flag="0"/>
		</comp>
		<comp name="--.HGZ" depth="0.0">
			<acc value="0.00522809356752794" flag="0"/>
			<vel value="0.00363394062604062" flag="0"/>
			<psa03 value="0.0160411824412605" flag="0"/>
			<psa10 value="0.00373465044913987" flag="0"/>
			<psa30 value="0.00110594242992456" flag="0"/>
		</comp>
	</station>
	<station code="BOBI" name="BOBI" netid="CH" source="Switzerland Seismological Network" insttype="" lat="47.54631" lon="8.33985">
		<comp name="SF.HGE" depth="1.0">
			<acc value="0.0049717380845682" flag="0"/>
			<vel value="0.00335448070504644" flag="0"/>
			<psa03 value="0.0131379132910383" flag="0"/>
			<psa10 value="0.00595477103685125" flag="0"/>
			<psa30 value="0.000444810508179651" flag="0"/>
		</comp>
		<comp name="SF.HGN" depth="1.0">
			<acc value="0.00926791992649305" flag="0"/>
			<vel value="0.0048412861224362" flag="0"/>
			<psa03 value="0.0228922222265459" flag="0"/>
			<psa10 value="0.00654173648292041" flag="0"/>
			<psa30 value="0.000449419250985397" flag="0"/>
		</comp>
		<comp name="SF.HGZ" depth="1.0">
			<acc value="0.00415387269748079" flag="0"/>
			<vel value="0.00219360235531841" flag="0"/>
			<psa03 value="0.012133178763555" flag="0"/>
			<psa10 value="0.00200306745901498" flag="0"/>
			<psa30 value="0.000304575775608668" flag="0"/>
		</comp>
	</station>
	<station code="DAVOX" name="DAVOX" netid="CH" source="Switzerland Seismological Network" insttype="" lat="46.7805" lon="9.87952">
		<comp name="--.HGE" depth="0.0">
			<acc value="0.00202518542030145" flag="0"/>
			<vel value="0.00195706116953739" flag="0"/>
			<psa03 value="0.00611694297785347" flag="0"/>
			<psa10 value="0.00466446196648296" flag="0"/>
			<psa30 value="0.000206616408677264" flag="0"/>
		</comp>
		<comp name="--.HGN" depth="0.0">
			<acc value="0.00270484767863513" flag="0"/>
			<vel value="0.00243174559614223" flag="0"/>
			<psa03 value="0.00640953918384185" flag="0"/>
			<psa10 value="0.00373727679499524" flag="0"/>
			<psa30 value="0.000294647539786668" flag="0"/>
		</comp>
		<comp name="--.HGZ" depth="0.0">
			<acc value="0.00190628604567567" flag="0"/>
			<vel value="0.00188423961059222" flag="0"/>
			<psa03 value="0.00556714939529288" flag="0"/>
			<psa10 value="0.00258732077230344" flag="0"/>
			<psa30 value="0.000238211327206275" flag="0"/>
		</comp>
	</station>
	<station code="DIX" name="DIX" netid="CH" source="Switzerland Seismological Network" insttype="" lat="46.081053" lon="7.408391">
		<comp name="--.HGE" depth="0.0">
			<acc value="0.322256994236963" flag="0"/>
			<vel value="0.0575251473797235" flag="0"/>
			<psa03 value="0.37748238135507" flag="0"/>
			<psa10 value="0.062678517144349" flag="0"/>
			<psa30 value="0.0030903230520692" flag="0"/>
		</comp>
		<comp name="--.HGN" depth="0.0">
			<acc value="0.409731167239858" flag="0"/>
			<vel value="0.0778916630837994" flag="0"/>
			<psa03 value="0.237728852536609" flag="0"/>
			<psa10 value="0.074870364794378" flag="0"/>
			<psa30 value="0.00806390086053889" flag="0"/>
		</comp>
		<comp name="--.HGZ" depth="0.0">
			<acc value="0.289480290547794" flag="0"/>
			<vel value="0.0609107169221343" flag="0"/>
			<psa03 value="0.231199774183881" flag="0"/>
			<psa10 value="0.0752497999300562" flag="0"/>
			<psa30 value="0.00437212004816376" flag="0"/>
		</comp>
	</station>
	<station code="FIESA" name="FIESA" netid="CH" source="Switzerland Seismological Network" insttype="" lat="46.43521" lon="8.11051">
		<comp name="--.HGE" depth="0.0">
			<acc value="0.00803639914024334" flag="0"/>
			<vel value="0.0051156645757547" flag="0"/>
			<psa03 value="0.0264546353022769" flag="0"/>
			<psa10 value="0.0037915424210792" flag="0"/>
			<psa30 value="0.00203800834138547" flag="0"/>
		</comp>
		<comp name="--.HGN" depth="0.0">
			<acc value="0.0112876353124447" flag="0"/>
			<vel value="0.00479815724259936" flag="0"/>
			<psa03 value="0.0195299265742971" flag="0"/>
			<psa10 value="0.00450262983963176" flag="0"/>
			<psa30 value="0.00158155966639853" flag="0"/>
		</comp>
		<comp name="--.HGZ" depth="0.0">
			<acc value="0.00980501540677749" flag="0"/>
			<vel value="0.00596108440984552" flag="0"/>
			<psa03 value="0.0184631137156506" flag="0"/>
			<psa10 value="0.00468073148172095" flag="0"/>
			<psa30 value="0.00166320820021356" flag="0"/>
		</comp>
	</station>
	<station code="FUSIO" name="FUSIO" netid="CH" source="Switzerland Seismological Network" insttype="" lat="46.45481" lon="8.6629">
		<comp name="--.HGE" depth="0.0">
			<acc value="0.00441926881737182" flag="0"/>
			<vel value="0.00216973921294719" flag="0"/>
			<psa03 value="0.00725205658503872" flag="0"/>
			<psa10 value="0.00183404434799996" flag="0"/>
			<psa30 value="0.000480842843060401" flag="0"/>
		</comp>
		<comp name="--.HGN" depth="0.0">
			<acc value="0.00499448377188497" flag="0"/>
			<vel value="0.00209625052935181" flag="0"/>
			<psa03 value="0.00928805669440381" flag="0"/>
			<psa10 value="0.00118641488322513" flag="0"/>
			<psa30 value="0.000397976598371609" flag="0"/>
		</comp>
		<comp name="--.HGZ" depth="0.0">
			<acc value="0.00480920058080483" flag="0"/>
			<vel value="0.00280003084566872" flag="0"/>
			<psa03 value="0.00562022517690551" flag="0"/>
			<psa10 value="0.00165864511147223" flag="0"/>
			<psa30 value="0.000641280658781898" flag="0"/>
		</comp>
	</station>
	<station code="GIMEL" name="GIMEL" netid="CH" source="Switzerland Seismological Network" insttype="" lat="46.53364" lon="6.26545">
		<comp name="--.HGE" depth="0.0">
			<acc value="0.00485586882511855" flag="0"/>
			<vel value="0.00245957408440059" flag="0"/>
			<psa03 value="0.0113247254679037" flag="0"/>
			<psa10 value="0.00291901571421642" flag="0"/>
			<psa30 value="0.000276657702214988" flag="0"/>
		</comp>
		<comp name="--.HGN" depth="0.0">
			<acc value="0.0041964133791292" flag="0"/>
			<vel value="0.00291269582148883" flag="0"/>
			<psa03 value="0.0113604452820712" flag="0"/>
			<psa10 value="0.00293264927362003" flag="0"/>
			<psa30 value="0.000541442065798205" flag="0"/>
		</comp>
		<comp name="--.HGZ" depth="0.0">
			<acc value="0.00383502357890059" flag="0"/>
			<vel value="0.00154162154802528" flag="0"/>
			<psa03 value="0.00697755142126389" flag="0"/>
			<psa10 value="0.00169051800414763" flag="0"/>
			<psa30 value="0.000384280196260529" flag="0"/>
		</comp>
	</station>
	<station code="GRIMS" name="GRIMS" netid="CH" source="Switzerland Seismological Network" insttype="" lat="46.578146" lon="8.318864">
		<comp name="--.HGE" depth="0.0">
			<acc value="0.00433929505820006" flag="0"/>
			<vel value="0.002679133034405" flag="0"/>
			<psa03 value="0.0112006977204023" flag="0"/>
			<psa10 value="0.00227861016548915" flag="0"/>
			<psa30 value="0.000413374024625271" flag="0"/>
		</comp>
		<comp name="--.HGN" depth="0.0">
			<acc value="0.00330039815132523" flag="0"/>
			<vel value="0.00170950683487049" flag="0"/>
			<psa03 value="0.010803117346231" flag="0"/>
			<psa10 value="0.00155789527322697" flag="0"/>
			<psa30 value="0.00107592627483487" flag="0"/>
		</comp>
		<comp name="--.HGZ" depth="0.0">
			<acc value="0.00470567691051497" flag="0"/>
			<vel value="0.00210020391357282" flag="0"/>
			<psa03 value="0.00920669388266479" flag="0"/>
			<psa10 value="0.0020742952243771" flag="0"/>
			<psa30 value="0.00077838666846214" flag="0"/>
		</comp>
	</station>
	<station code="GRYON" name="GRYON" netid="CH" source="Switzerland Seismological Network" insttype="" lat="46.25053" lon="7.11106">
		<comp name="--.HGE" depth="0.0">
			<acc value="0.0328380391152802" flag="0"/>
			<vel value="0.00745336894043239" flag="0"/>
			<psa03 value="0.0372239763224192" flag="0"/>
			<psa10 value="0.00598462020170385" flag="0"/>
			<psa30 value="0.0012726248259841" flag="0"/>
		</comp>
		<comp name="--.HGN" depth="0.0">
			<acc value="0.0352319701349978" flag="0"/>
			<vel value="0.00846886491383331" flag="0"/>
			<psa03 value="0.0620597309442853" flag="0"/>
			<psa10 value="0.00624632144438574" flag="0"/>
			<psa30 value="0.00168998820342636" flag="0"/>
		</comp>
		<comp name="--.HGZ" depth="0.0">
			<acc value="0.0213206972510109" flag="0"/>
			<vel value="0.00717877702614636" flag="0"/>
			<psa03 value="0.0415092992665164" flag="0"/>
			<psa10 value="0.00645396098072223" flag="0"/>
			<psa30 value="0.00155329102290745" flag="0"/>
		</comp>
	</station>
	<station code="HAUIG" name="HAUIG" netid="CH" source="Switzerland Seismological Network" insttype="" lat="47.66038" lon="7.70018">
		<comp name="--.HGE" depth="0.0">
			<acc value="0.0219091018820642" flag="0"/>
			<vel value="0.00762447825706396" flag="0"/>
			<psa03 value="0.0495070035544273" flag="0"/>
			<psa10 value="0.00373002850233178" flag="0"/>
			<psa30 value="0.000295068114522639" flag="0"/>
		</comp>
		<comp name="--.HGN" depth="0.0">
			<acc value="0.0114077805148147" flag="0"/>
			<vel value="0.0053977702029175" flag="0"/>
			<psa03 value="0.033834215309058" flag="0"/>
			<psa10 value="0.00409618447713057" flag="0"/>
			<psa30 value="0.000282335213738724" flag="0"/>
		</comp>
		<comp name="--.HGZ" depth="0.0">
			<acc value="0.00585709675302138" flag="0"/>
			<vel value="0.00246370630981954" flag="0"/>
			<psa03 value="0.00796017901550633" flag="0"/>
			<psa10 value="0.001853056115248" flag="0"/>
			<psa30 value="0.000180497855534573" flag="0"/>
		</comp>
	</station>
	<station code="JAUN" name="JAUN" netid="CH" source="Switzerland Seismological Network" insttype="" lat="46.63395" lon="7.29096">
		<comp name="--.HGE" depth="0.0">
			<acc value="0.00495556361767226" flag="0"/>
			<vel value="0.00383484263653638" flag="0"/>
			<psa03 value="0.0095298572177358" flag="0"/>
			<psa10 value="0.0126866985565359" flag="0"/>
			<psa30 value="0.0008138101088436" flag="0"/>
		</comp>
		<comp name="--.HGN" depth="0.0">
			<acc value="0.00428713896022538" flag="0"/>
			<vel value="0.00370436010791928" flag="0"/>
			<psa03 value="0.0131813523665713" flag="0"/>
			<psa10 value="0.00636176674831912" flag="0"/>
			<psa30 value="0.00103899070303568" flag="0"/>
		</comp>
		<comp name="--.HGZ" depth="0.0">
			<acc value="0.00293925675156019" flag="0"/>
			<vel value="0.00241108767498243" flag="0"/>
			<psa03 value="0.0090491391746179" flag="0"/>
			<psa10 value="0.00430871386863802" flag="0"/>
			<psa30 value="0.000567235493234386" flag="0"/>
		</comp>
	</station>
	<station code="LADOL" name="LADOL" netid="CH" source="Switzerland Seismological Network" insttype="" lat="46.43213" lon="6.13151">
		<comp name="--.HGE" depth="0.0">
			<acc value="0.00985849507011647" flag="0"/>
			<vel value="0.00655851681487452" flag="0"/>
			<psa03 value="0.0303793952983254" flag="0"/>
			<psa10 value="0.00800211510084815" flag="0"/>
			<psa30 value="0.000948235628455362" flag="0"/>
		</comp>
		<comp name="--.HGN" depth="0.0">
			<acc value="0.00743699247308439" flag="0"/>
			<vel value="0.00667830371422138" flag="0"/>
			<psa03 value="0.0192013904874504" flag="0"/>
			<psa10 value="0.0115312151363936" flag="0"/>
			<psa30 value="0.000691104011414715" flag="0"/>
		</comp>
		<comp name="--.HGZ" depth="0.0">
			<acc value="0.00527247068716864" flag="0"/>
			<vel value="0.00239679496256666" flag="0"/>
			<psa03 value="0.0162360911863522" flag="0"/>
			<psa10 value="0.00389258138003683" flag="0"/>
			<psa30 value="0.000827516173052991" flag="0"/>
		</comp>
	</station>
	<station code="LIENZ" name="LIENZ" netid="CH" source="Switzerland Seismological Network" insttype="" lat="47.294601" lon="9.4927">
		<comp name="--.HGE" depth="0.0">
			<acc value="0.00120841043009037" flag="0"/>
			<vel value="0.00113705419018112" flag="0"/>
			<psa03 value="0.00206652003482914" flag="0"/>
			<psa10 value="0.00287799268414231" flag="0"/>
			<psa30 value="0.000225429881539808" flag="0"/>
		</comp>
		<comp name="--.HGN" depth="0.0">
			<acc value="0.00149691932970125" flag="0"/>
			<vel value="0.00172978754736679" flag="0"/>
			<psa03 value="0.0040723941250815" flag="0"/>
			<psa10 value="0.00198877760612934" flag="0"/>
			<psa30 value="0.000232446987013668" flag="0"/>
		</comp>
		<comp name="--.HGZ" depth="0.0">
			<acc value="0.00140682047327121" flag="0"/>
			<vel value="0.00134509706697624" flag="0"/>
			<psa03 value="0.00220209900325241" flag="0"/>
			<psa10 value="0.00297386169124409" flag="0"/>
			<psa30 value="0.000210619629600249" flag="0"/>
		</comp>
	</station>
	<station code="LKBD2" name="LKBD2" netid="CH" source="Switzerland Seismological Network" insttype="" lat="46.37455" lon="7.64433">
		<comp name="--.HGE" depth="0.0">
			<acc value="0.0249497945964074" flag="0"/>
			<vel value="0.0123135539986303" flag="0"/>
			<psa03 value="0.0659043450060568" flag="0"/>
			<psa10 value="0.00806209844945187" flag="0"/>
			<psa30 value="0.00306717318516871" flag="0"/>
		</comp>
		<comp name="--.HGN" depth="0.0">
			<acc value="0.0235048500663431" flag="0"/>
			<vel value="0.00740648129111169" flag="0"/>
			<psa03 value="0.0357501417089356" flag="0"/>
			<psa10 value="0.00613103130697523" flag="0"/>
			<psa30 value="0.00216741024695935" flag="0"/>
		</comp>
		<comp name="--.HGZ" depth="0.0">
			<acc value="0.0250601697290985" flag="0"/>
			<vel value="0.00612577373832996" flag="0"/>
			<psa03 value="0.0286552915016059" flag="0"/>
			<psa10 value="0.00493181248963852" flag="0"/>
			<psa30 value="0.00110568022505481" flag="0"/>
		</comp>
	</station>
	<station code="LLS" name="LLS" netid="CH" source="Switzerland Seismological Network" insttype="" lat="46.84676" lon="9.00825">
		<comp name="--.HGE" depth="0.0">
			<acc value="0.00273046411225992" flag="0"/>
			<vel value="0.00208788286933351" flag="0"/>
			<psa03 value="0.00559648271868067" flag="0"/>
			<psa10 value="0.00276656155237526" flag="0"/>
			<psa30 value="0.000221116184320363" flag="0"/>
		</comp>
		<comp name="--.HGN" depth="0.0">
			<acc value="0.00262284642815415" flag="0"/>
			<vel value="0.00171773208788784" flag="0"/>
			<psa03 value="0.00706153550040401" flag="0"/>
			<psa10 value="0.0018920112348963" flag="0"/>
			<psa30 value="0.00027152452362545" flag="0"/>
		</comp>
		<comp name="--.HGZ" depth="0.0">
			<acc value="0.00304769729300666" flag="0"/>
			<vel value="0.00215821708769234" flag="0"/>
			<psa03 value="0.00856287844658932" flag="0"/>
			<psa10 value="0.00223344568919073" flag="0"/>
			<psa30 value="0.000342274184401589" flag="0"/>
		</comp>
	</station>
	<station code="MUGIO" name="MUGIO" netid="CH" source="Switzerland Seismological Network" insttype="" lat="45.92184" lon="9.04171">
		<comp name="--.HGE" depth="0.0">
			<acc value="0.0061800645034505" flag="0"/>
			<vel value="0.00231890480134804" flag="0"/>
			<psa03 value="0.00957395519107477" flag="0"/>
			<psa10 value="0.00147658777763189" flag="0"/>
			<psa30 value="0.000479843401854659" flag="0"/>
		</comp>
		<comp name="--.HGN" depth="0.0">
			<acc value="0.00716229256913353" flag="0"/>
			<vel value="0.00255546798953789" flag="0"/>
			<psa03 value="0.0121867265816666" flag="0"/>
			<psa10 value="0.00154273723783262" flag="0"/>
			<psa30 value="0.000339846549624169" flag="0"/>
		</comp>
		<comp name="--.HGZ" depth="0.0">
			<acc value="0.00575065014048574" flag="0"/>
			<vel value="0.00165285364149808" flag="0"/>
			<psa03 value="0.00609575146984682" flag="0"/>
			<psa10 value="0.00155022824188752" flag="0"/>
			<psa30 value="0.000525309174154307" flag="0"/>
		</comp>
	</station>
