<?xml version="1.0" encoding="UTF-8" standalone="yes"?>
<!DOCTYPE earthquake SYSTEM "stationlist.dtd">
<stationlist created="" xmlns="ch.ethz.sed.shakemap.usgs.xml">
  <station code="PRK" name="PRK" netid="HL" insttype="120" lat="39.2456" lon="26.265">
    <comp name="--.HHZ">
      <acc value="0.0614916654" flag="0"/>
      <vel value="0.0422092893" flag="0"/>
      <psa03 value="0.1189183844" flag="0"/>
      <psa10 value="0.0253268176" flag="0"/>
      <psa30 value="0.0016105689" flag="0"/>
    </comp>
    <comp name="--.HHN">
      <acc value="0.0937219142" flag="0"/>
      <vel value="0.0609136705" flag="0"/>
      <psa03 value="0.2865191423" flag="0"/>
      <psa10 value="0.0418997182" flag="0"/>
      <psa30 value="0.0023580782" flag="0"/>
    </comp>
    <comp name="--.HHE">
      <acc value="0.1376025575" flag="0"/>
      <vel value="0.0545797263" flag="0"/>
      <psa03 value="0.4200203500" flag="0"/>
      <psa10 value="0.0609536848" flag="0"/>
      <psa30 value="0.0034216907" flag="0"/>
    </comp>
  </station>
  <station code="SMTH" name="SMTH" netid="HL" insttype="CMG3ESPC60_P6C" lat="40.4709" lon="25.5304">
    <comp name="--.HHE">
      <acc value="0.0518038598" flag="0"/>
      <vel value="0.0242413123" flag="0"/>
      <psa03 value="0.0991899513" flag="0"/>
      <psa10 value="0.0154061364" flag="0"/>
      <psa30 value="0.0009101575" flag="0"/>
    </comp>
    <comp name="--.HHZ">
      <acc value="0.0659302288" flag="0"/>
      <vel value="0.0241825782" flag="0"/>
      <psa03 value="0.1283085784" flag="0"/>
      <psa10 value="0.0107765560" flag="0"/>
      <psa30 value="0.0007130648" flag="0"/>
    </comp>
    <comp name="--.HHN">
      <acc value="0.0676691493" flag="0"/>
      <vel value="0.0309900709" flag="0"/>
      <psa03 value="0.1481559507" flag="0"/>
      <psa10 value="0.0145927813" flag="0"/>
      <psa30 value="0.0012176600" flag="0"/>
    </comp>
  </station>
  <station code="ALN" name="ALN" netid="HT" insttype="100" lat="40.885" lon="26.046">
    <comp name="--.HHE">
      <acc value="0.0520781510" flag="0"/>
      <vel value="0.0222215777" flag="0"/>
      <psa03 value="0.1013016434" flag="0"/>
      <psa10 value="0.0124042265" flag="0"/>
      <psa30 value="0.0009715574" flag="0"/>
    </comp>
    <comp name="--.HHZ">
      <acc value="0.0299160146" flag="0"/>
      <vel value="0.0129146887" flag="0"/>
      <psa03 value="0.0821510952" flag="0"/>
      <psa10 value="0.0108062521" flag="0"/>
      <psa30 value="0.0006120764" flag="0"/>
    </comp>
    <comp name="--.HHN">
      <acc value="0.0520837019" flag="0"/>
      <vel value="0.0217979788" flag="0"/>
      <psa03 value="0.1042325311" flag="0"/>
      <psa10 value="0.0255792145" flag="0"/>
      <psa30 value="0.0012053307" flag="0"/>
    </comp>
  </station>
  <station code="ARMT" name="ARMT" netid="KO" insttype="CMG-3ESP" lat="40.5683" lon="28.866">
    <comp name="--.HHE">
      <acc value="0.0594506039" flag="0"/>
      <vel value="0.0230390943" flag="0"/>
      <psa03 value="0.1221079393" flag="0"/>
      <psa10 value="0.0076105038" flag="0"/>
      <psa30 value="0.0007456724" flag="0"/>
    </comp>
    <comp name="--.HHN">
      <acc value="0.0993454730" flag="0"/>
      <vel value="0.0278793178" flag="0"/>
      <psa03 value="0.2594361283" flag="0"/>
      <psa10 value="0.0111758560" flag="0"/>
      <psa30 value="0.0015718198" flag="0"/>
    </comp>
    <comp name="--.HHZ">
      <acc value="0.0358351677" flag="0"/>
      <vel value="0.0123030413" flag="0"/>
      <psa03 value="0.0850209868" flag="0"/>
      <psa10 value="0.0070176892" flag="0"/>
      <psa30 value="0.0005173768" flag="0"/>
    </comp>
  </station>
  <station code="BIGA" name="BIGA" netid="KO" insttype="CMG-5T" lat="40.2813" lon="27.1505">
    <comp name="--.HNE">
      <acc value="1.6881451733" flag="0"/>
      <vel value="0.6468590694" flag="0"/>
      <psa03 value="2.0065342346" flag="0"/>
      <psa10 value="0.3000339003" flag="0"/>
      <psa30 value="0.0253987167" flag="0"/>
    </comp>
    <comp name="--.HNN">
      <acc value="2.5833231190" flag="0"/>
      <vel value="0.7556950293" flag="0"/>
      <psa03 value="2.5517010287" flag="0"/>
      <psa10 value="0.1574648939" flag="0"/>
      <psa30 value="0.0124200149" flag="0"/>
    </comp>
    <comp name="--.HNZ">
      <acc value="2.1303523246" flag="0"/>
      <vel value="0.4166417025" flag="0"/>
      <psa03 value="0.7647110122" flag="0"/>
      <psa10 value="0.0776338427" flag="0"/>
      <psa30 value="0.0083916611" flag="0"/>
    </comp>
  </station>
  <station code="BOTS" name="BOTS" netid="KO" insttype="CMG-5T" lat="40.9902" lon="27.981">
    <comp name="--.HNN">
      <acc value="0.1588361052" flag="0"/>
      <vel value="0.0441066944" flag="0"/>
      <psa03 value="0.1695918075" flag="0"/>
      <psa10 value="0.0177002345" flag="0"/>
      <psa30 value="0.0010509184" flag="0"/>
    </comp>
    <comp name="--.HNE">
      <acc value="0.1360463157" flag="0"/>
      <vel value="0.0426742436" flag="0"/>
      <psa03 value="0.3482809223" flag="0"/>
      <psa10 value="0.0243590692" flag="0"/>
      <psa30 value="0.0016764825" flag="0"/>
    </comp>
    <comp name="--.HNZ">
      <acc value="0.0625193487" flag="0"/>
      <vel value="0.0154795277" flag="0"/>
      <psa03 value="0.1016719965" flag="0"/>
      <psa10 value="0.0057628084" flag="0"/>
      <psa30 value="0.0003650843" flag="0"/>
    </comp>
  </station>
  <station code="CANM" name="CANM" netid="KO" insttype="CMG-5T" lat="40.0113" lon="27.0529">
    <comp name="--.HNE">
      <acc value="0.4234149426" flag="0"/>
      <vel value="0.1542103739" flag="0"/>
      <psa03 value="0.8310251828" flag="0"/>
      <psa10 value="0.0846238580" flag="0"/>
      <psa30 value="0.0074629944" flag="0"/>
    </comp>
    <comp name="--.HNZ">
      <acc value="0.3886695815" flag="0"/>
      <vel value="0.0876345029" flag="0"/>
      <psa03 value="0.4629155939" flag="0"/>
      <psa10 value="0.0433428856" flag="0"/>
      <psa30 value="0.0027498039" flag="0"/>
    </comp>
    <comp name="--.HNN">
      <acc value="0.4024323726" flag="0"/>
      <vel value="0.1526809261" flag="0"/>
      <psa03 value="0.7563462080" flag="0"/>
      <psa10 value="0.1101601678" flag="0"/>
      <psa30 value="0.0049420089" flag="0"/>
    </comp>
  </station>
  <station code="CRLT" name="CRLT" netid="KO" insttype="30s," lat="41.129" lon="27.736">
    <comp name="--.HHE">
      <acc value="0.0630312617" flag="0"/>
      <vel value="0.0152239407" flag="0"/>
      <psa03 value="0.0968606107" flag="0"/>
      <psa10 value="0.0041908717" flag="0"/>
      <psa30 value="0.0007594548" flag="0"/>
    </comp>
    <comp name="--.HHN">
      <acc value="0.0556852900" flag="0"/>
      <vel value="0.0159319340" flag="0"/>
      <psa03 value="0.0700663591" flag="0"/>
      <psa10 value="0.0066263660" flag="0"/>
      <psa30 value="0.0006580497" flag="0"/>
    </comp>
    <comp name="--.HHZ">
      <acc value="0.0721901562" flag="0"/>
      <vel value="0.0148831601" flag="0"/>
      <psa03 value="0.0690971308" flag="0"/>
      <psa10 value="0.0096534912" flag="0"/>
      <psa30 value="0.0005416250" flag="0"/>
    </comp>
  </station>
  <station code="EDC" name="EDC" netid="KO" insttype="120s," lat="40.3465" lon="27.8618">
    <comp name="--.HHE">
      <acc value="0.1376850281" flag="0"/>
      <vel value="0.0421739459" flag="0"/>
      <psa03 value="0.2277431417" flag="0"/>
      <psa10 value="0.0163034999" flag="0"/>
      <psa30 value="0.0010611657" flag="0"/>
    </comp>
    <comp name="--.HHN">
      <acc value="0.1492828860" flag="0"/>
      <vel value="0.0489465695" flag="0"/>
      <psa03 value="0.2377965459" flag="0"/>
      <psa10 value="0.0395718588" flag="0"/>
      <psa30 value="0.0021997132" flag="0"/>
    </comp>
    <comp name="--.HHZ">
      <acc value="0.1309102261" flag="0"/>
      <vel value="0.0282440545" flag="0"/>
      <psa03 value="0.0969067349" flag="0"/>
      <psa10 value="0.0170410451" flag="0"/>
      <psa30 value="0.0008871410" flag="0"/>
    </comp>
  </station>
  <station code="ENEZ" name="ENEZ" netid="KO" insttype="120s," lat="40.7362" lon="26.153">
    <comp name="--.HHN">
      <acc value="0.0931089235" flag="0"/>
      <vel value="0.0465233208" flag="0"/>
      <psa03 value="0.2322628735" flag="0"/>
      <psa10 value="0.0210989353" flag="0"/>
      <psa30 value="0.0018089036" flag="0"/>
    </comp>
    <comp name="--.HHZ">
      <acc value="0.0550598545" flag="0"/>
      <vel value="0.0139421850" flag="0"/>
      <psa03 value="0.0768745674" flag="0"/>
      <psa10 value="0.0074563408" flag="0"/>
      <psa30 value="0.0008841522" flag="0"/>
    </comp>
    <comp name="--.HHE">
      <acc value="0.0932620329" flag="0"/>
      <vel value="0.0281141175" flag="0"/>
      <psa03 value="0.1749658981" flag="0"/>
      <psa10 value="0.0223218415" flag="0"/>
      <psa30 value="0.0011160992" flag="0"/>
    </comp>
  </station>
  <station code="ERIK" name="ERIK" netid="KO" insttype="120s," lat="40.6708" lon="26.5132">
    <comp name="--.HHE">
      <acc value="0.0713492158" flag="0"/>
      <vel value="0.0239467471" flag="0"/>
      <psa03 value="0.1556322137" flag="0"/>
      <psa10 value="0.0181126474" flag="0"/>
      <psa30 value="0.0015087519" flag="0"/>
    </comp>
    <comp name="--.HHN">
      <acc value="0.0746998531" flag="0"/>
      <vel value="0.0267104273" flag="0"/>
      <psa03 value="0.1712786740" flag="0"/>
      <psa10 value="0.0180130552" flag="0"/>
      <psa30 value="0.0012040973" flag="0"/>
    </comp>
    <comp name="--.HHZ">
      <acc value="0.0425023870" flag="0"/>
      <vel value="0.0132682784" flag="0"/>
      <psa03 value="0.0633099510" flag="0"/>
      <psa10 value="0.0126355362" flag="0"/>
      <psa30 value="0.0012275771" flag="0"/>
    </comp>
  </station>
  <station code="EZN" name="EZN" netid="KO" insttype="120s," lat="39.8255" lon="26.3247">
    <comp name="--.HHN">
      <acc value="0.1125026933" flag="0"/>
      <vel value="0.0169859568" flag="0"/>
      <psa03 value="0.0900074048" flag="0"/>
      <psa10 value="0.0084314830" flag="0"/>
      <psa30 value="0.0009031932" flag="0"/>
    </comp>
    <comp name="--.HHE">
      <acc value="0.1125497263" flag="0"/>
      <vel value="0.0260268689" flag="0"/>
      <psa03 value="0.0920804121" flag="0"/>
      <psa10 value="0.0103441649" flag="0"/>
      <psa30 value="0.0005038332" flag="0"/>
    </comp>
    <comp name="--.HHZ">
      <acc value="0.0694213518" flag="0"/>
      <vel value="0.0133749130" flag="0"/>
      <psa03 value="0.0561035304" flag="0"/>
      <psa10 value="0.0061010057" flag="0"/>
      <psa30 value="0.0005342375" flag="0"/>
    </comp>
  </station>
  <station code="EZNE" name="EZNE" netid="KO" insttype="CMG-5T" lat="39.756" lon="26.3655">
    <comp name="--.HNE">
      <acc value="0.0741282180" flag="0"/>
      <vel value="0.0194055913" flag="0"/>
      <psa03 value="0.1282010771" flag="0"/>
      <psa10 value="0.0111305220" flag="0"/>
      <psa30 value="0.0006582023" flag="0"/>
    </comp>
    <comp name="--.HNZ">
      <acc value="0.1027694581" flag="0"/>
      <vel value="0.0326959819" flag="0"/>
      <psa03 value="0.1348034753" flag="0"/>
      <psa10 value="0.0095911344" flag="0"/>
      <psa30 value="0.0007261111" flag="0"/>
    </comp>
    <comp name="--.HNN">
      <acc value="0.1132966486" flag="0"/>
      <vel value="0.0424319292" flag="0"/>
      <psa03 value="0.3843497589" flag="0"/>
      <psa10 value="0.0219480265" flag="0"/>
      <psa30 value="0.0011780406" flag="0"/>
    </comp>
  </station>
  <station code="GAZK" name="GAZK" netid="KO" insttype="CMG-6T" lat="40.7479" lon="27.3275">
    <comp name="--.HHE">
      <acc value="0.3781852880" flag="0"/>
      <vel value="0.1411580757" flag="0"/>
      <psa03 value="0.7476146733" flag="0"/>
      <psa10 value="0.0632774982" flag="0"/>
      <psa30 value="0.0045140863" flag="0"/>
    </comp>
    <comp name="--.HHN">
      <acc value="0.3968468619" flag="0"/>
      <vel value="0.1240190092" flag="0"/>
      <psa03 value="0.5822259658" flag="0"/>
      <psa10 value="0.0729345823" flag="0"/>
      <psa30 value="0.0057322916" flag="0"/>
    </comp>
    <comp name="--.HHZ">
      <acc value="0.2690644065" flag="0"/>
      <vel value="0.0829825779" flag="0"/>
      <psa03 value="0.3013415092" flag="0"/>
      <psa10 value="0.0419224157" flag="0"/>
      <psa30 value="0.0031863868" flag="0"/>
    </comp>
  </station>
  <station code="GELI" name="GELI" netid="KO" insttype="30s," lat="40.398" lon="26.4742">
    <comp name="--.HHE">
      <acc value="0.1010062581" flag="0"/>
      <vel value="0.0393723134" flag="0"/>
      <psa03 value="0.2127445523" flag="0"/>
      <psa10 value="0.0311002600" flag="0"/>
      <psa30 value="0.0018403562" flag="0"/>
    </comp>
    <comp name="--.HHZ">
      <acc value="0.0536887933" flag="0"/>
      <vel value="0.0182833724" flag="0"/>
      <psa03 value="0.0861778461" flag="0"/>
      <psa10 value="0.0185393906" flag="0"/>
      <psa30 value="0.0011087960" flag="0"/>
    </comp>
    <comp name="--.HHN">
      <acc value="0.1137208106" flag="0"/>
      <vel value="0.0541506186" flag="0"/>
      <psa03 value="0.2032341759" flag="0"/>
      <psa10 value="0.0559348011" flag="0"/>
      <psa30 value="0.0033845473" flag="0"/>
    </comp>
  </station>
  <station code="KCTX" name="KCTX" netid="KO" insttype="CMG-3ESP" lat="40.2626" lon="28.3353">
    <comp name="--.HHN">
      <acc value="0.1238145998" flag="0"/>
      <vel value="0.0339335501" flag="0"/>
      <psa03 value="0.1094676958" flag="0"/>
      <psa10 value="0.0346296818" flag="0"/>
      <psa30 value="0.0023297987" flag="0"/>
    </comp>
    <comp name="--.HHZ">
      <acc value="0.0594180719" flag="0"/>
      <vel value="0.0134078085" flag="0"/>
      <psa03 value="0.0620479923" flag="0"/>
      <psa10 value="0.0116508249" flag="0"/>
      <psa30 value="0.0005327508" flag="0"/>
    </comp>
    <comp name="--.HHE">
      <acc value="0.0688144427" flag="0"/>
      <vel value="0.0309917876" flag="0"/>
      <psa03 value="0.1550412350" flag="0"/>
      <psa10 value="0.0159497851" flag="0"/>
      <psa30 value="0.0013377245" flag="0"/>
    </comp>
  </station>
  <station code="KRBG" name="KRBG" netid="KO" insttype="30s," lat="40.3932" lon="27.2977">
    <comp name="--.HHE">
      <acc value="0.8894557959" flag="0"/>
      <vel value="0.2289723315" flag="0"/>
      <psa03 value="0.8386168670" flag="0"/>
      <psa10 value="0.0977066012" flag="0"/>
      <psa30 value="0.0069183481" flag="0"/>
    </comp>
    <comp name="--.HHN">
      <acc value="1.2445923826" flag="0"/>
      <vel value="0.2570748947" flag="0"/>
      <psa03 value="0.9235575977" flag="0"/>
      <psa10 value="0.1241829586" flag="0"/>
      <psa30 value="0.0124006773" flag="0"/>
    </comp>
    <comp name="--.HHZ">
      <acc value="0.5753134542" flag="0"/>
      <vel value="0.1171345656" flag="0"/>
      <psa03 value="0.6322698091" flag="0"/>
      <psa10 value="0.0315789287" flag="0"/>
      <psa30 value="0.0037065496" flag="0"/>
    </comp>
  </station>
  <station code="LAPK" name="LAPK" netid="KO" insttype="CMG-5T" lat="40.3151" lon="26.6425">
    <comp name="--.HNN">
      <acc value="0.6845776034" flag="0"/>
      <vel value="0.3136714675" flag="0"/>
      <psa03 value="0.6931882408" flag="0"/>
      <psa10 value="0.2361363645" flag="0"/>
      <psa30 value="0.0138994224" flag="0"/>
    </comp>
    <comp name="--.HNE">
      <acc value="0.9508595541" flag="0"/>
      <vel value="0.3397047875" flag="0"/>
      <psa03 value="1.5290006947" flag="0"/>
      <psa10 value="0.2608015584" flag="0"/>
      <psa30 value="0.0120451286" flag="0"/>
    </comp>
    <comp name="--.HNZ">
      <acc value="0.2333724634" flag="0"/>
      <vel value="0.1389569467" flag="0"/>
      <psa03 value="0.4150261121" flag="0"/>
      <psa10 value="0.1160628832" flag="0"/>
      <psa30 value="0.0092540599" flag="0"/>
    </comp>
  </station>
  <station code="MDNY" name="MDNY" netid="KO" insttype="30s," lat="40.371" lon="28.8847">
    <comp name="--.HHN">
      <acc value="0.2383651276" flag="0"/>
      <vel value="0.0944242590" flag="0"/>
      <psa03 value="0.6164608147" flag="0"/>
      <psa10 value="0.0287491847" flag="0"/>
      <psa30 value="0.0028900435" flag="0"/>
    </comp>
    <comp name="--.HHE">
      <acc value="0.2456900659" flag="0"/>
      <vel value="0.0992575979" flag="0"/>
      <psa03 value="0.9229986353" flag="0"/>
      <psa10 value="0.0301331640" flag="0"/>
      <psa30 value="0.0029625509" flag="0"/>
    </comp>
  </station>
  <station code="MRMT" name="MRMT" netid="KO" insttype="CMG-3T" lat="40.609" lon="27.5832">
    <comp name="--.HHZ">
      <acc value="0.1866543840" flag="0"/>
      <vel value="0.0436139424" flag="0"/>
      <psa03 value="0.1842084808" flag="0"/>
      <psa10 value="0.0122447333" flag="0"/>
      <psa30 value="0.0010184139" flag="0"/>
    </comp>
    <comp name="--.HHN">
      <acc value="0.2964522426" flag="0"/>
      <vel value="0.0635897947" flag="0"/>
      <psa03 value="0.3114872480" flag="0"/>
      <psa10 value="0.0227303444" flag="0"/>
      <psa30 value="0.0020270606" flag="0"/>
    </comp>
    <comp name="--.HHE">
      <acc value="0.2448313666" flag="0"/>
      <vel value="0.0603624367" flag="0"/>
      <psa03 value="0.3082467972" flag="0"/>
      <psa10 value="0.0213924728" flag="0"/>
      <psa30 value="0.0015287100" flag="0"/>
    </comp>
  </station>
  <station code="PHSR" name="PHSR" netid="KO" insttype="30s," lat="41.6308" lon="27.5238">
    <comp name="--.HHN">
      <acc value="0.0323253706" flag="0"/>
      <vel value="0.0121062591" flag="0"/>
      <psa03 value="0.0972117364" flag="0"/>
      <psa10 value="0.0085550199" flag="0"/>
      <psa30 value="0.0005381355" flag="0"/>
    </comp>
    <comp name="--.HHE">
      <acc value="0.0332820092" flag="0"/>
      <vel value="0.0142697460" flag="0"/>
      <psa03 value="0.0518985885" flag="0"/>
      <psa10 value="0.0124604305" flag="0"/>
      <psa30 value="0.0011771805" flag="0"/>
    </comp>
    <comp name="--.HHZ">
      <acc value="0.0250905863" flag="0"/>
      <vel value="0.0092262123" flag="0"/>
      <psa03 value="0.0493803986" flag="0"/>
      <psa10 value="0.0028568385" flag="0"/>
      <psa30 value="0.0003355019" flag="0"/>
    </comp>
  </station>
  <station code="SINB" name="SINB" netid="KO" insttype="CMG-5T" lat="40.9998" lon="28.5392">
    <comp name="--.HNZ">
      <acc value="0.0473196825" flag="0"/>
      <vel value="0.0166839656" flag="0"/>
      <psa03 value="0.0811706331" flag="0"/>
      <psa10 value="0.0108342422" flag="0"/>
      <psa30 value="0.0009307080" flag="0"/>
    </comp>
    <comp name="--.HNE">
      <acc value="0.1048967526" flag="0"/>
      <vel value="0.0434762150" flag="0"/>
      <psa03 value="0.2139450305" flag="0"/>
      <psa10 value="0.0238425275" flag="0"/>
      <psa30 value="0.0027217578" flag="0"/>
    </comp>
    <comp name="--.HNN">
      <acc value="0.0803828541" flag="0"/>
      <vel value="0.0398220344" flag="0"/>
      <psa03 value="0.2287271660" flag="0"/>
      <psa10 value="0.0284201247" flag="0"/>
      <psa30 value="0.0021074904" flag="0"/>
    </comp>
  </station>
  <station code="SLVT" name="SLVT" netid="KO" insttype="30s," lat="41.23" lon="28.21">
    <comp name="--.HHE">
      <acc value="0.0700181692" flag="0"/>
      <vel value="0.0327057964" flag="0"/>
      <psa03 value="0.1637976815" flag="0"/>
      <psa10 value="0.0159743916" flag="0"/>
      <psa30 value="0.0014809334" flag="0"/>
    </comp>
    <comp name="--.HHN">
      <acc value="0.0706479080" flag="0"/>
      <vel value="0.0315631869" flag="0"/>
      <psa03 value="0.1847039327" flag="0"/>
      <psa10 value="0.0255559252" flag="0"/>
      <psa30 value="0.0019530749" flag="0"/>
    </comp>
    <comp name="--.HHZ">
      <acc value="0.0400314819" flag="0"/>
      <vel value="0.0133968671" flag="0"/>
      <psa03 value="0.0760449025" flag="0"/>
