<?xml version="1.0" encoding="UTF-8" standalone="yes"?>
<!DOCTYPE earthquake SYSTEM "stationlist.dtd">
<stationlist created="" xmlns="ch.ethz.sed.shakemap.usgs.xml">
  <station code="PRK" name="PRK" netid="HL" insttype="120" lat="39.2456" lon="26.265">
    <comp name="--.HHE">
      <acc value="0.1376025575" flag="0"/>
      <vel value="0.0545797265" flag="0"/>
      <psa03 value="0.4200203500" flag="0"/>
      <psa10 value="0.0609536848" flag="0"/>
      <psa30 value="0.0034216320" flag="0"/>
    </comp>
    <comp name="--.HHZ">
      <acc value="0.0614916653" flag="0"/>
      <vel value="0.0422092888" flag="0"/>
      <psa03 value="0.1189183844" flag="0"/>
      <psa10 value="0.0253268176" flag="0"/>
      <psa30 value="0.0016105553" flag="0"/>
    </comp>
    <comp name="--.HHN">
      <acc value="0.0937219142" flag="0"/>
      <vel value="0.0609136703" flag="0"/>
      <psa03 value="0.2865191423" flag="0"/>
      <psa10 value="0.0418997183" flag="0"/>
      <psa30 value="0.0023581263" flag="0"/>
    </comp>
  </station>
  <station code="SMTH" name="SMTH" netid="HL" insttype="CMG3ESPC60_P6C" lat="40.4709" lon="25.5304">
    <comp name="--.HHE">
      <acc value="0.0518038598" flag="0"/>
      <vel value="0.0242413123" flag="0"/>
      <psa03 value="0.0991899513" flag="0"/>
      <psa10 value="0.0154061364" flag="0"/>
      <psa30 value="0.0009101046" flag="0"/>
    </comp>
    <comp name="--.HHZ">
      <acc value="0.0659302289" flag="0"/>
      <vel value="0.0241825783" flag="0"/>
      <psa03 value="0.1283085784" flag="0"/>
      <psa10 value="0.0107765560" flag="0"/>
      <psa30 value="0.0007130820" flag="0"/>
    </comp>
    <comp name="--.HHN">
      <acc value="0.0676691493" flag="0"/>
      <vel value="0.0309900719" flag="0"/>
      <psa03 value="0.1481559507" flag="0"/>
      <psa10 value="0.0145927814" flag="0"/>
      <psa30 value="0.0012176351" flag="0"/>
    </comp>
  </station>
  <station code="ALN" name="ALN" netid="HT" insttype="100" lat="40.885" lon="26.046">
    <comp name="--.HHN">
      <acc value="0.0520837019" flag="0"/>
      <vel value="0.0217979801" flag="0"/>
      <psa03 value="0.1042325311" flag="0"/>
      <psa10 value="0.0255792145" flag="0"/>
      <psa30 value="0.0012052595" flag="0"/>
    </comp>
    <comp name="--.HHZ">
      <acc value="0.0299160146" flag="0"/>
      <vel value="0.0129146898" flag="0"/>
      <psa03 value="0.0821510952" flag="0"/>
      <psa10 value="0.0108062522" flag="0"/>
      <psa30 value="0.0006120268" flag="0"/>
    </comp>
    <comp name="--.HHE">
      <acc value="0.0520781510" flag="0"/>
      <vel value="0.0222215780" flag="0"/>
      <psa03 value="0.1013016434" flag="0"/>
      <psa10 value="0.0124042265" flag="0"/>
      <psa30 value="0.0009715539" flag="0"/>
    </comp>
  </station>
  <station code="BIGA" name="BIGA" netid="KO" insttype="CMG-5T" lat="40.2813" lon="27.1505">
    <comp name="--.HNZ">
      <acc value="2.1303523244" flag="0"/>
      <vel value="0.4166417034" flag="0"/>
      <psa03 value="0.7647110122" flag="0"/>
      <psa10 value="0.0776338384" flag="0"/>
      <psa30 value="0.0083955495" flag="0"/>
    </comp>
    <comp name="--.HNN">
      <acc value="2.5833231206" flag="0"/>
      <vel value="0.7556950343" flag="0"/>
      <psa03 value="2.5517010287" flag="0"/>
      <psa10 value="0.1574648898" flag="0"/>
      <psa30 value="0.0124192248" flag="0"/>
    </comp>
    <comp name="--.HNE">
      <acc value="1.6881451747" flag="0"/>
      <vel value="0.6468590725" flag="0"/>
      <psa03 value="2.0065342346" flag="0"/>
      <psa10 value="0.3000338978" flag="0"/>
      <psa30 value="0.0253987814" flag="0"/>
    </comp>
  </station>
  <station code="BOTS" name="BOTS" netid="KO" insttype="CMG-5T" lat="40.9902" lon="27.981">
    <comp name="--.HNE">
      <acc value="0.1360463192" flag="0"/>
      <vel value="0.0426742485" flag="0"/>
      <psa03 value="0.3482809223" flag="0"/>
      <psa10 value="0.0243590687" flag="0"/>
      <psa30 value="0.0016753487" flag="0"/>
    </comp>
    <comp name="--.HNZ">
      <acc value="0.0625193498" flag="0"/>
      <vel value="0.0154795262" flag="0"/>
      <psa03 value="0.1016719965" flag="0"/>
      <psa10 value="0.0057628074" flag="0"/>
      <psa30 value="0.0003640928" flag="0"/>
    </comp>
    <comp name="--.HNN">
      <acc value="0.1588361093" flag="0"/>
      <vel value="0.0441066916" flag="0"/>
      <psa03 value="0.1695918075" flag="0"/>
      <psa10 value="0.0177002354" flag="0"/>
      <psa30 value="0.0010510155" flag="0"/>
    </comp>
  </station>
  <station code="CANM" name="CANM" netid="KO" insttype="CMG-5T" lat="40.0113" lon="27.0529">
    <comp name="--.HNE">
      <acc value="0.4234149431" flag="0"/>
      <vel value="0.1542103739" flag="0"/>
      <psa03 value="0.8310251828" flag="0"/>
      <psa10 value="0.0846238581" flag="0"/>
      <psa30 value="0.0074627950" flag="0"/>
    </comp>
    <comp name="--.HNN">
      <acc value="0.4024323719" flag="0"/>
      <vel value="0.1526809262" flag="0"/>
      <psa03 value="0.7563462080" flag="0"/>
      <psa10 value="0.1101601692" flag="0"/>
      <psa30 value="0.0049419695" flag="0"/>
    </comp>
    <comp name="--.HNZ">
      <acc value="0.3886695808" flag="0"/>
      <vel value="0.0876345015" flag="0"/>
      <psa03 value="0.4629155939" flag="0"/>
      <psa10 value="0.0433428848" flag="0"/>
      <psa30 value="0.0027503844" flag="0"/>
    </comp>
  </station>
  <station code="CRLT" name="CRLT" netid="KO" insttype="30s," lat="41.129" lon="27.736">
    <comp name="--.HHE">
      <acc value="0.0630312618" flag="0"/>
      <vel value="0.0152239244" flag="0"/>
      <psa03 value="0.0968606107" flag="0"/>
      <psa10 value="0.0041908717" flag="0"/>
      <psa30 value="0.0007594790" flag="0"/>
    </comp>
    <comp name="--.HHN">
      <acc value="0.0556852901" flag="0"/>
      <vel value="0.0159319148" flag="0"/>
      <psa03 value="0.0700663591" flag="0"/>
      <psa10 value="0.0066263660" flag="0"/>
      <psa30 value="0.0006580860" flag="0"/>
    </comp>
    <comp name="--.HHZ">
      <acc value="0.0721901562" flag="0"/>
      <vel value="0.0148831653" flag="0"/>
      <psa03 value="0.0690971308" flag="0"/>
      <psa10 value="0.0096534913" flag="0"/>
      <psa30 value="0.0005421119" flag="0"/>
    </comp>
  </station>
  <station code="EDC" name="EDC" netid="KO" insttype="120s," lat="40.3465" lon="27.8618">
    <comp name="--.HHE">
      <acc value="0.1376850278" flag="0"/>
      <vel value="0.0421739475" flag="0"/>
      <psa03 value="0.2277431417" flag="0"/>
      <psa10 value="0.0163035000" flag="0"/>
      <psa30 value="0.0010612314" flag="0"/>
    </comp>
    <comp name="--.HHN">
      <acc value="0.1492828857" flag="0"/>
      <vel value="0.0489465697" flag="0"/>
      <psa03 value="0.2377965459" flag="0"/>
      <psa10 value="0.0395718590" flag="0"/>
      <psa30 value="0.0021996778" flag="0"/>
    </comp>
    <comp name="--.HHZ">
      <acc value="0.1309102261" flag="0"/>
      <vel value="0.0282440546" flag="0"/>
      <psa03 value="0.0969067349" flag="0"/>
      <psa10 value="0.0170410450" flag="0"/>
      <psa30 value="0.0008871533" flag="0"/>
    </comp>
  </station>
  <station code="ENEZ" name="ENEZ" netid="KO" insttype="120s," lat="40.7362" lon="26.153">
    <comp name="--.HHZ">
      <acc value="0.0550598545" flag="0"/>
      <vel value="0.0139421850" flag="0"/>
      <psa03 value="0.0768745674" flag="0"/>
      <psa10 value="0.0074563407" flag="0"/>
      <psa30 value="0.0008843824" flag="0"/>
    </comp>
    <comp name="--.HHN">
      <acc value="0.0931089235" flag="0"/>
      <vel value="0.0465233197" flag="0"/>
      <psa03 value="0.2322628735" flag="0"/>
      <psa10 value="0.0210989354" flag="0"/>
      <psa30 value="0.0018085183" flag="0"/>
    </comp>
    <comp name="--.HHE">
      <acc value="0.0932620329" flag="0"/>
      <vel value="0.0281141219" flag="0"/>
      <psa03 value="0.1749658981" flag="0"/>
      <psa10 value="0.0223218417" flag="0"/>
      <psa30 value="0.0011158532" flag="0"/>
    </comp>
  </station>
  <station code="ERIK" name="ERIK" netid="KO" insttype="120s," lat="40.6708" lon="26.5132">
    <comp name="--.HHN">
      <acc value="0.0746998531" flag="0"/>
      <vel value="0.0267104310" flag="0"/>
      <psa03 value="0.1712786740" flag="0"/>
      <psa10 value="0.0180130551" flag="0"/>
      <psa30 value="0.0012043337" flag="0"/>
    </comp>
    <comp name="--.HHE">
      <acc value="0.0713492158" flag="0"/>
      <vel value="0.0239467659" flag="0"/>
      <psa03 value="0.1556322137" flag="0"/>
      <psa10 value="0.0181126473" flag="0"/>
      <psa30 value="0.0015086507" flag="0"/>
    </comp>
    <comp name="--.HHZ">
      <acc value="0.0425023870" flag="0"/>
      <vel value="0.0132682796" flag="0"/>
      <psa03 value="0.0633099510" flag="0"/>
      <psa10 value="0.0126355361" flag="0"/>
      <psa30 value="0.0012277692" flag="0"/>
    </comp>
  </station>
  <station code="EZN" name="EZN" netid="KO" insttype="120s," lat="39.8255" lon="26.3247">
    <comp name="--.HHN">
      <acc value="0.1125026933" flag="0"/>
      <vel value="0.0169859567" flag="0"/>
      <psa03 value="0.0900074048" flag="0"/>
      <psa10 value="0.0084314830" flag="0"/>
      <psa30 value="0.0009031844" flag="0"/>
    </comp>
    <comp name="--.HHE">
      <acc value="0.1125497263" flag="0"/>
      <vel value="0.0260268670" flag="0"/>
      <psa03 value="0.0920804121" flag="0"/>
      <psa10 value="0.0103441649" flag="0"/>
      <psa30 value="0.0005038125" flag="0"/>
    </comp>
    <comp name="--.HHZ">
      <acc value="0.0694213519" flag="0"/>
      <vel value="0.0133749130" flag="0"/>
      <psa03 value="0.0561035304" flag="0"/>
      <psa10 value="0.0061010075" flag="0"/>
      <psa30 value="0.0005342353" flag="0"/>
    </comp>
  </station>
  <station code="EZNE" name="EZNE" netid="KO" insttype="CMG-5T" lat="39.756" lon="26.3655">
    <comp name="--.HNE">
      <acc value="0.0741282173" flag="0"/>
      <vel value="0.0194055945" flag="0"/>
      <psa03 value="0.1282010771" flag="0"/>
      <psa10 value="0.0111305220" flag="0"/>
      <psa30 value="0.0006586796" flag="0"/>
    </comp>
    <comp name="--.HNN">
      <acc value="0.1132966484" flag="0"/>
      <vel value="0.0424319277" flag="0"/>
      <psa03 value="0.3843497589" flag="0"/>
      <psa10 value="0.0219480253" flag="0"/>
      <psa30 value="0.0011776002" flag="0"/>
    </comp>
    <comp name="--.HNZ">
      <acc value="0.1027694571" flag="0"/>
      <vel value="0.0326959853" flag="0"/>
      <psa03 value="0.1348034753" flag="0"/>
      <psa10 value="0.0095911342" flag="0"/>
      <psa30 value="0.0007260756" flag="0"/>
    </comp>
  </station>
  <station code="GAZK" name="GAZK" netid="KO" insttype="CMG-6T" lat="40.7479" lon="27.3275">
    <comp name="--.HHN">
      <acc value="0.3968468656" flag="0"/>
      <vel value="0.1240190096" flag="0"/>
      <psa03 value="0.5822259658" flag="0"/>
      <psa10 value="0.0729345825" flag="0"/>
      <psa30 value="0.0057323269" flag="0"/>
    </comp>
    <comp name="--.HHE">
      <acc value="0.3781852890" flag="0"/>
      <vel value="0.1411580807" flag="0"/>
      <psa03 value="0.7476146733" flag="0"/>
      <psa10 value="0.0632774983" flag="0"/>
      <psa30 value="0.0045141209" flag="0"/>
    </comp>
    <comp name="--.HHZ">
      <acc value="0.2690644034" flag="0"/>
      <vel value="0.0829825696" flag="0"/>
      <psa03 value="0.3013415092" flag="0"/>
      <psa10 value="0.0419224165" flag="0"/>
      <psa30 value="0.0031864427" flag="0"/>
    </comp>
  </station>
  <station code="GELI" name="GELI" netid="KO" insttype="30s," lat="40.398" lon="26.4742">
    <comp name="--.HHE">
      <acc value="0.1010062580" flag="0"/>
      <vel value="0.0393723003" flag="0"/>
      <psa03 value="0.2127445522" flag="0"/>
      <psa10 value="0.0311002601" flag="0"/>
      <psa30 value="0.0018402036" flag="0"/>
    </comp>
    <comp name="--.HHZ">
      <acc value="0.0536887933" flag="0"/>
      <vel value="0.0182833711" flag="0"/>
      <psa03 value="0.0861778462" flag="0"/>
      <psa10 value="0.0185393904" flag="0"/>
      <psa30 value="0.0011088018" flag="0"/>
    </comp>
    <comp name="--.HHN">
      <acc value="0.1137208106" flag="0"/>
      <vel value="0.0541506207" flag="0"/>
      <psa03 value="0.2032341758" flag="0"/>
      <psa10 value="0.0559348011" flag="0"/>
      <psa30 value="0.0033840969" flag="0"/>
    </comp>
  </station>
  <station code="KCTX" name="KCTX" netid="KO" insttype="CMG-3ESP" lat="40.2626" lon="28.3353">
    <comp name="--.HHZ">
      <acc value="0.0594180718" flag="0"/>
      <vel value="0.0134078081" flag="0"/>
      <psa03 value="0.0620479923" flag="0"/>
      <psa10 value="0.0116508249" flag="0"/>
      <psa30 value="0.0005327498" flag="0"/>
    </comp>
    <comp name="--.HHN">
      <acc value="0.1238145998" flag="0"/>
      <vel value="0.0339335504" flag="0"/>
      <psa03 value="0.1094676958" flag="0"/>
      <psa10 value="0.0346296818" flag="0"/>
      <psa30 value="0.0023298231" flag="0"/>
    </comp>
    <comp name="--.HHE">
      <acc value="0.0688144427" flag="0"/>
      <vel value="0.0309917868" flag="0"/>
      <psa03 value="0.1550412350" flag="0"/>
      <psa10 value="0.0159497851" flag="0"/>
      <psa30 value="0.0013377394" flag="0"/>
    </comp>
  </station>
  <station code="KRBG" name="KRBG" netid="KO" insttype="30s," lat="40.3932" lon="27.2977">
    <comp name="--.HHZ">
      <acc value="0.5753134542" flag="0"/>
      <vel value="0.1171345656" flag="0"/>
      <psa03 value="0.6322698091" flag="0"/>
      <psa10 value="0.0315789300" flag="0"/>
      <psa30 value="0.0037066097" flag="0"/>
    </comp>
    <comp name="--.HHE">
      <acc value="0.8894557960" flag="0"/>
      <vel value="0.2289723297" flag="0"/>
      <psa03 value="0.8386168670" flag="0"/>
      <psa10 value="0.0977066036" flag="0"/>
      <psa30 value="0.0069182890" flag="0"/>
    </comp>
    <comp name="--.HHN">
      <acc value="1.2445923825" flag="0"/>
      <vel value="0.2570748954" flag="0"/>
      <psa03 value="0.9235575977" flag="0"/>
      <psa10 value="0.1241829588" flag="0"/>
      <psa30 value="0.0124007412" flag="0"/>
    </comp>
  </station>
  <station code="LAPK" name="LAPK" netid="KO" insttype="CMG-5T" lat="40.3151" lon="26.6425">
    <comp name="--.HNN">
      <acc value="0.6845776081" flag="0"/>
      <vel value="0.3136714761" flag="0"/>
      <psa03 value="0.6931882408" flag="0"/>
      <psa10 value="0.2361363640" flag="0"/>
      <psa30 value="0.0139005794" flag="0"/>
    </comp>
    <comp name="--.HNE">
      <acc value="0.9508595504" flag="0"/>
      <vel value="0.3397047864" flag="0"/>
      <psa03 value="1.5290006947" flag="0"/>
      <psa10 value="0.2608015565" flag="0"/>
      <psa30 value="0.0120451549" flag="0"/>
    </comp>
    <comp name="--.HNZ">
      <acc value="0.2333724778" flag="0"/>
      <vel value="0.1389569482" flag="0"/>
      <psa03 value="0.4150261121" flag="0"/>
      <psa10 value="0.1160628846" flag="0"/>
      <psa30 value="0.0092542829" flag="0"/>
    </comp>
  </station>
  <station code="MRMT" name="MRMT" netid="KO" insttype="CMG-3T" lat="40.609" lon="27.5832">
    <comp name="--.HHZ">
      <acc value="0.1866543840" flag="0"/>
      <vel value="0.0436139424" flag="0"/>
      <psa03 value="0.1842084808" flag="0"/>
      <psa10 value="0.0122447336" flag="0"/>
      <psa30 value="0.0010183496" flag="0"/>
    </comp>
    <comp name="--.HHE">
      <acc value="0.2448313667" flag="0"/>
      <vel value="0.0603624363" flag="0"/>
      <psa03 value="0.3082467972" flag="0"/>
      <psa10 value="0.0213924729" flag="0"/>
      <psa30 value="0.0015286126" flag="0"/>
    </comp>
    <comp name="--.HHN">
      <acc value="0.2964522429" flag="0"/>
      <vel value="0.0635897946" flag="0"/>
      <psa03 value="0.3114872480" flag="0"/>
      <psa10 value="0.0227303444" flag="0"/>
      <psa30 value="0.0020270277" flag="0"/>
    </comp>
  </station>
  <station code="PHSR" name="PHSR" netid="KO" insttype="30s," lat="41.6308" lon="27.5238">
    <comp name="--.HHE">
      <acc value="0.0332820092" flag="0"/>
      <vel value="0.0142697419" flag="0"/>
      <psa03 value="0.0518985885" flag="0"/>
      <psa10 value="0.0124604305" flag="0"/>
      <psa30 value="0.0011771791" flag="0"/>
    </comp>
    <comp name="--.HHZ">
      <acc value="0.0250905863" flag="0"/>
      <vel value="0.0092262198" flag="0"/>
      <psa03 value="0.0493803986" flag="0"/>
      <psa10 value="0.0028568385" flag="0"/>
      <psa30 value="0.0003355207" flag="0"/>
    </comp>
    <comp name="--.HHN">
      <acc value="0.0323253705" flag="0"/>
      <vel value="0.0121062625" flag="0"/>
      <psa03 value="0.0972117364" flag="0"/>
      <psa10 value="0.0085550199" flag="0"/>
      <psa30 value="0.0005381443" flag="0"/>
    </comp>
  </station>
  <station code="SINB" name="SINB" netid="KO" insttype="CMG-5T" lat="40.9998" lon="28.5392">
    <comp name="--.HNN">
      <acc value="0.0803828564" flag="0"/>
      <vel value="0.0398220218" flag="0"/>
      <psa03 value="0.2287271660" flag="0"/>
      <psa10 value="0.0284201245" flag="0"/>
      <psa30 value="0.0021065435" flag="0"/>
    </comp>
    <comp name="--.HNE">
      <acc value="0.1048967551" flag="0"/>
      <vel value="0.0434762020" flag="0"/>
      <psa03 value="0.2139450305" flag="0"/>
      <psa10 value="0.0238425276" flag="0"/>
      <psa30 value="0.0027220120" flag="0"/>
    </comp>
    <comp name="--.HNZ">
      <acc value="0.0473196854" flag="0"/>
      <vel value="0.0166839625" flag="0"/>
      <psa03 value="0.0811706331" flag="0"/>
      <psa10 value="0.0108342421" flag="0"/>
      <psa30 value="0.0009311957" flag="0"/>
    </comp>
  </station>
  <station code="SLVT" name="SLVT" netid="KO" insttype="30s," lat="41.23" lon="28.21">
    <comp name="--.HHE">
      <acc value="0.0700181692" flag="0"/>
      <vel value="0.0327058010" flag="0"/>
      <psa03 value="0.1637976815" flag="0"/>
      <psa10 value="0.0159743916" flag="0"/>
      <psa30 value="0.0014808665" flag="0"/>
    </comp>
    <comp name="--.HHN">
      <acc value="0.0706479081" flag="0"/>
      <vel value="0.0315631937" flag="0"/>
      <psa03 value="0.1847039327" flag="0"/>
      <psa10 value="0.0255559250" flag="0"/>
      <psa30 value="0.0019528418" flag="0"/>
    </comp>
    <comp name="--.HHZ">
      <acc value="0.0400314819" flag="0"/>
      <vel value="0.0133968677" flag="0"/>
      <psa03 value="0.0760449026" flag="0"/>
      <psa10 value="0.0125443457" flag="0"/>
      <psa30 value="0.0007084678" flag="0"/>
    </comp>
  </station>
  <station code="SOMA" name="SOMA" netid="KO" insttype="CMG-5T" lat="39.1564" lon="27.5341">
    <comp name="--.HNE">
      <acc value="0.0535664122" flag="0"/>
      <vel value="0.0248959250" flag="0"/>
      <psa03 value="0.1686265018" flag="0"/>
      <psa10 value="0.0172406926" flag="0"/>
      <psa30 value="0.0013725942" flag="0"/>
    </comp>
    <comp name="--.HNN">
      <acc value="0.0462720660" flag="0"/>
      <vel value="0.0281355285" flag="0"/>
      <psa03 value="0.1413942092" flag="0"/>
      <psa10 value="0.0312186991" flag="0"/>
      <psa30 value="0.0018457046" flag="0"/>
    </comp>
    <comp name="--.HNZ">
      <acc value="0.0406246020" flag="0"/>
      <vel value="0.0188759803" flag="0"/>
      <psa03 value="0.1534810139" flag="0"/>
      <psa10 value="0.0105498691" flag="0"/>
      <psa30 value="0.0007882386" flag="0"/>
    </comp>
  </station>
  <station code="SUSR" name="SUSR" netid="KO" insttype="CMG-5T" lat="39.9627" lon="28.0835">
    <comp name="--.HNN">
      <acc value="0.0675043245" flag="0"/>
      <vel value="0.0192020204" flag="0"/>
      <psa03 value="0.0620273442" flag="0"/>
      <psa10 value="0.0068100957" flag="0"/>
      <psa30 value="0.0008149416" flag="0"/>
    </comp>
    <comp name="--.HNZ">
      <acc value="0.0520486136" flag="0"/>
      <vel value="0.0129016498" flag="0"/>
