<?xml version="1.0" encoding="UTF-8" standalone="yes"?>
<!DOCTYPE earthquake SYSTEM "stationlist.dtd">
<stationlist created="" xmlns="ch.ethz.sed.shakemap.usgs.xml">
  <station code="ALAN" name="ALAN" netid="KO" insttype="CMG-5T" commtype="DIG" lat="36.557" lon="32.0327">
    <comp name="--.HNZ">
      <acc value="0.6383814271" flag="0"/>
      <vel value="0.1329456866" flag="0"/>
      <psa03 value="0.2745428619" flag="0"/>
      <psa10 value="0.0365372702" flag="0"/>
      <psa30 value="0.0025407327" flag="0"/>
    </comp>
    <comp name="--.HNE">
      <acc value="1.6151807625" flag="0"/>
      <vel value="0.4440589908" flag="0"/>
      <psa03 value="1.6313428177" flag="0"/>
      <psa10 value="0.0990070492" flag="0"/>
      <psa30 value="0.0114945045" flag="0"/>
    </comp>
    <comp name="--.HNN">
      <acc value="0.9698570943" flag="0"/>
      <vel value="0.2641772761" flag="0"/>
      <psa03 value="1.2535033686" flag="0"/>
      <psa10 value="0.0674211826" flag="0"/>
      <psa30 value="0.0046323386" flag="0"/>
    </comp>
  </station>
  <station code="LMOS" name="LMOS" netid="KO" insttype="CMG-6T" commtype="DIG" lat="36.6021" lon="32.6962">
    <comp name="--.HHN">
      <acc value="0.0172594025" flag="0"/>
      <vel value="0.0073554608" flag="0"/>
      <psa03 value="0.0385103528" flag="0"/>
      <psa10 value="0.0066543149" flag="0"/>
      <psa30 value="0.0005213446" flag="0"/>
    </comp>
    <comp name="--.HHE">
      <acc value="0.0168128320" flag="0"/>
      <vel value="0.0051995391" flag="0"/>
      <psa03 value="0.0290182092" flag="0"/>
      <psa10 value="0.0050702293" flag="0"/>
      <psa30 value="0.0008767374" flag="0"/>
    </comp>
    <comp name="--.HHZ">
      <acc value="0.0154535705" flag="0"/>
      <vel value="0.0040208722" flag="0"/>
      <psa03 value="0.0292477530" flag="0"/>
      <psa10 value="0.0035474917" flag="0"/>
      <psa30 value="0.0009297711" flag="0"/>
    </comp>
  </station>
  <station code="MNVG" name="MNVG" netid="KO" insttype="CMG-5T" commtype="DIG" lat="36.7935" lon="31.4161">
    <comp name="--.HNE">
      <acc value="0.1811399338" flag="0"/>
      <vel value="0.0879459881" flag="0"/>
      <psa03 value="0.4858515897" flag="0"/>
      <psa10 value="0.0717253742" flag="0"/>
      <psa30 value="0.0035832415" flag="0"/>
    </comp>
    <comp name="--.HNN">
      <acc value="0.1523091945" flag="0"/>
      <vel value="0.1122876812" flag="0"/>
      <psa03 value="0.6391048169" flag="0"/>
      <psa10 value="0.0741917784" flag="0"/>
      <psa30 value="0.0053699729" flag="0"/>
    </comp>
    <comp name="--.HNZ">
      <acc value="0.1673312715" flag="0"/>
      <vel value="0.0529803557" flag="0"/>
      <psa03 value="0.4493599911" flag="0"/>
      <psa10 value="0.0499981566" flag="0"/>
      <psa30 value="0.0027044222" flag="0"/>
    </comp>
  </station>
  <station code="SEYD" name="SEYD" netid="KO" insttype="CMG-5T" commtype="DIG" lat="37.4056" lon="31.8379">
    <comp name="--.HNE">
      <acc value="0.0192406158" flag="0"/>
      <vel value="0.0069720693" flag="0"/>
      <psa03 value="0.0456196550" flag="0"/>
      <psa10 value="0.0055811054" flag="0"/>
      <psa30 value="0.0003867769" flag="0"/>
    </comp>
    <comp name="--.HNZ">
      <acc value="0.0115286469" flag="0"/>
      <vel value="0.0045290070" flag="0"/>
      <psa03 value="0.0179490775" flag="0"/>
      <psa10 value="0.0053461156" flag="0"/>
      <psa30 value="0.0005040700" flag="0"/>
    </comp>
    <comp name="--.HNN">
      <acc value="0.0170768564" flag="0"/>
      <vel value="0.0045142937" flag="0"/>
      <psa03 value="0.0300622183" flag="0"/>
      <psa10 value="0.0059094303" flag="0"/>
      <psa30 value="0.0003479269" flag="0"/>
    </comp>
  </station>
</stationlist>
