<?xml version="1.0" encoding="UTF-8" standalone="yes"?>
<!DOCTYPE earthquake SYSTEM "stationlist.dtd">
<stationlist created="" xmlns="ch.ethz.sed.shakemap.usgs.xml">
  <station code="GIL" name="GIL" netid="VI" source="ODC" insttype="CMG-3ESP" lat="66.0773" lon="-16.3513">
    <comp name="--.HHN">
      <acc value="0.0417988988" flag="0"/>
      <vel value="0.0181802493" flag="0"/>
      <psa03 value="0.0339096506" flag="0"/>
      <psa10 value="0.0227150709" flag="0"/>
      <psa30 value="0.0026548723" flag="0"/>
    </comp>
    <comp name="--.HHZ">
      <acc value="0.0599935097" flag="0"/>
      <vel value="0.0086266007" flag="0"/>
      <psa03 value="0.0303569923" flag="0"/>
      <psa10 value="0.0084833915" flag="0"/>
      <psa30 value="0.0009230465" flag="0"/>
    </comp>
    <comp name="--.HHE">
      <acc value="0.0306628652" flag="0"/>
      <vel value="0.0138500028" flag="0"/>
      <psa03 value="0.0479966811" flag="0"/>
      <psa10 value="0.0229237478" flag="0"/>
      <psa30 value="0.0018926919" flag="0"/>
    </comp>
  </station>
</stationlist>
