<?xml version="1.0" encoding="UTF-8" standalone="yes"?>
<!DOCTYPE earthquake SYSTEM "stationlist.dtd">
<stationlist created="" xmlns="ch.ethz.sed.shakemap.usgs.xml">
  <station code="AIGS" name="AIGS" netid="HA" insttype="DC" lat="38.25" lon="22.0878">
    <comp name="--.HNZ">
      <acc value="0.0217375979" flag="0"/>
      <vel value="0.0068934004" flag="0"/>
      <psa03 value="0.0401156005" flag="0"/>
      <psa10 value="0.0046389458" flag="0"/>
      <psa30 value="0.0004456296" flag="0"/>
    </comp>
    <comp name="--.HNE">
      <acc value="0.0510095651" flag="0"/>
      <vel value="0.0158852358" flag="0"/>
      <psa03 value="0.0828424762" flag="0"/>
      <psa10 value="0.0057444569" flag="0"/>
      <psa30 value="0.0006471884" flag="0"/>
    </comp>
    <comp name="--.HNN">
      <acc value="0.0488986168" flag="0"/>
      <vel value="0.0171847240" flag="0"/>
      <psa03 value="0.0898637354" flag="0"/>
      <psa10 value="0.0061233405" flag="0"/>
      <psa30 value="0.0007159559" flag="0"/>
    </comp>
  </station>
  <station code="CORS" name="CORS" netid="HA" insttype="DC" lat="38.2562" lon="22.0748">
    <comp name="00.HNZ">
      <acc value="0.0281093352" flag="0"/>
      <vel value="0.0117342255" flag="0"/>
      <psa03 value="0.0800578593" flag="0"/>
      <psa10 value="0.0041471503" flag="0"/>
      <psa30 value="0.0003770206" flag="0"/>
    </comp>
    <comp name="00.HNN">
      <acc value="0.0264499533" flag="0"/>
      <vel value="0.0136673568" flag="0"/>
      <psa03 value="0.0972982193" flag="0"/>
      <psa10 value="0.0077251802" flag="0"/>
      <psa30 value="0.0004139358" flag="0"/>
    </comp>
    <comp name="00.HNE">
      <acc value="0.0288500785" flag="0"/>
      <vel value="0.0093286481" flag="0"/>
      <psa03 value="0.0477076739" flag="0"/>
      <psa10 value="0.0074273915" flag="0"/>
      <psa30 value="0.0004704699" flag="0"/>
    </comp>
  </station>
  <station code="KALE" name="KALE" netid="HA" insttype="40," lat="38.3911" lon="22.1398">
    <comp name="--.HHN">
      <acc value="0.0127616174" flag="0"/>
      <vel value="0.0046431681" flag="0"/>
      <psa03 value="0.0342718057" flag="0"/>
      <psa10 value="0.0020159879" flag="0"/>
      <psa30 value="0.0001723097" flag="0"/>
    </comp>
    <comp name="--.HHE">
      <acc value="0.0126800403" flag="0"/>
      <vel value="0.0056938256" flag="0"/>
      <psa03 value="0.0373094358" flag="0"/>
      <psa10 value="0.0039061586" flag="0"/>
      <psa30 value="0.0001602480" flag="0"/>
    </comp>
    <comp name="--.HHZ">
      <acc value="0.0084594899" flag="0"/>
      <vel value="0.0032468439" flag="0"/>
      <psa03 value="0.0166836006" flag="0"/>
      <psa10 value="0.0016338173" flag="0"/>
      <psa30 value="0.0001028845" flag="0"/>
    </comp>
  </station>
  <station code="LAKA" name="LAKA" netid="HA" insttype="120s" lat="38.2401" lon="21.9785">
    <comp name="--.HHN">
      <acc value="0.0000341844" flag="0"/>
      <vel value="0.0000258498" flag="0"/>
      <psa03 value="0.0000330890" flag="0"/>
      <psa10 value="0.0000259999" flag="0"/>
      <psa30 value="0.0000070097" flag="0"/>
    </comp>
    <comp name="--.HHZ">
      <acc value="0.0107423988" flag="0"/>
      <vel value="0.0039356109" flag="0"/>
      <psa03 value="0.0285354629" flag="0"/>
      <psa10 value="0.0026645456" flag="0"/>
      <psa30 value="0.0002604938" flag="0"/>
    </comp>
    <comp name="--.HHE">
      <acc value="0.0000366683" flag="0"/>
      <vel value="0.0000262855" flag="0"/>
      <psa03 value="0.0000332493" flag="0"/>
      <psa10 value="0.0000260522" flag="0"/>
      <psa30 value="0.0000071643" flag="0"/>
    </comp>
  </station>
  <station code="THAL" name="THAL" netid="HA" insttype="30" lat="38.0357" lon="22.6634">
    <comp name="--.HHN">
      <acc value="0.0192020523" flag="0"/>
      <vel value="0.0095700081" flag="0"/>
      <psa03 value="0.0707739879" flag="0"/>
      <psa10 value="0.0097187541" flag="0"/>
      <psa30 value="0.0006022333" flag="0"/>
    </comp>
    <comp name="--.HHE">
      <acc value="0.0246435701" flag="0"/>
      <vel value="0.0109253385" flag="0"/>
      <psa03 value="0.0654535698" flag="0"/>
      <psa10 value="0.0091620857" flag="0"/>
      <psa30 value="0.0006066093" flag="0"/>
    </comp>
    <comp name="--.HHZ">
      <acc value="0.0141218602" flag="0"/>
      <vel value="0.0049890643" flag="0"/>
      <psa03 value="0.0314191607" flag="0"/>
      <psa10 value="0.0043723619" flag="0"/>
      <psa30 value="0.0002679846" flag="0"/>
    </comp>
  </station>
  <station code="KTRS" name="KTRS" netid="HC" insttype="60" lat="36.9261" lon="22.136">
    <comp name="--.HHE">
      <acc value="0.0031804397" flag="0"/>
      <vel value="0.0020007358" flag="0"/>
      <psa03 value="0.0083761491" flag="0"/>
      <psa10 value="0.0025842672" flag="0"/>
      <psa30 value="0.0001361355" flag="0"/>
    </comp>
    <comp name="--.HHZ">
      <acc value="0.0042052406" flag="0"/>
      <vel value="0.0038620032" flag="0"/>
      <psa03 value="0.0123921010" flag="0"/>
      <psa10 value="0.0031721243" flag="0"/>
      <psa30 value="0.0001841086" flag="0"/>
    </comp>
    <comp name="--.HHN">
      <acc value="0.0063462464" flag="0"/>
      <vel value="0.0044692821" flag="0"/>
      <psa03 value="0.0112275013" flag="0"/>
      <psa10 value="0.0041132192" flag="0"/>
      <psa30 value="0.0002700814" flag="0"/>
    </comp>
  </station>
  <station code="KLV1" name="KLV1" netid="HI" insttype="CMG-5TD,ACCELEROMETER,GURALP" lat="38.0326" lon="22.108">
    <comp name="--.HNE">
      <acc value="0.0430118306" flag="0"/>
      <vel value="0.0198944682" flag="0"/>
      <psa03 value="0.1408624818" flag="0"/>
      <psa10 value="0.0067635442" flag="0"/>
      <psa30 value="0.0006396606" flag="0"/>
    </comp>
    <comp name="--.HNN">
      <acc value="0.0407368568" flag="0"/>
      <vel value="0.0147732842" flag="0"/>
      <psa03 value="0.1171821734" flag="0"/>
      <psa10 value="0.0086741924" flag="0"/>
      <psa30 value="0.0004886459" flag="0"/>
    </comp>
    <comp name="--.HNZ">
      <acc value="0.0173875471" flag="0"/>
      <vel value="0.0060002314" flag="0"/>
      <psa03 value="0.0421359459" flag="0"/>
      <psa10 value="0.0058653353" flag="0"/>
      <psa30 value="0.0003398032" flag="0"/>
    </comp>
  </station>
  <station code="ITM" name="ITM" netid="HL" insttype="DR24" lat="37.1787" lon="21.9252">
    <comp name="--.HHZ">
      <acc value="0.0081830974" flag="0"/>
      <vel value="0.0033922897" flag="0"/>
      <psa03 value="0.0131627786" flag="0"/>
      <psa10 value="0.0040508464" flag="0"/>
      <psa30 value="0.0003607313" flag="0"/>
    </comp>
    <comp name="--.HHE">
      <acc value="0.0105459835" flag="0"/>
      <vel value="0.0049021792" flag="0"/>
      <psa03 value="0.0286596108" flag="0"/>
      <psa10 value="0.0049864724" flag="0"/>
      <psa30 value="0.0005506570" flag="0"/>
    </comp>
    <comp name="--.HHN">
      <acc value="0.0137715947" flag="0"/>
      <vel value="0.0047688204" flag="0"/>
      <psa03 value="0.0193634607" flag="0"/>
      <psa10 value="0.0044628278" flag="0"/>
      <psa30 value="0.0004995437" flag="0"/>
    </comp>
  </station>
  <station code="KLV" name="KLV" netid="HL" insttype="120" lat="38.0435" lon="22.1504">
    <comp name="--.HHZ">
      <acc value="0.0146993620" flag="0"/>
      <vel value="0.0080935861" flag="0"/>
      <psa03 value="0.0437102427" flag="0"/>
      <psa10 value="0.0035721488" flag="0"/>
      <psa30 value="0.0002587497" flag="0"/>
    </comp>
    <comp name="--.HHN">
      <acc value="0.0185893584" flag="0"/>
      <vel value="0.0050072061" flag="0"/>
      <psa03 value="0.0262374311" flag="0"/>
      <psa10 value="0.0038361467" flag="0"/>
      <psa30 value="0.0003436781" flag="0"/>
    </comp>
    <comp name="--.HHE">
      <acc value="0.0199582367" flag="0"/>
      <vel value="0.0075888609" flag="0"/>
      <psa03 value="0.0199923490" flag="0"/>
      <psa10 value="0.0028486520" flag="0"/>
      <psa30 value="0.0003455436" flag="0"/>
    </comp>
  </station>
  <station code="ORTH" name="ORTH" netid="HL" insttype="30" lat="37.8511" lon="20.6963">
    <comp name="--.HHE">
      <acc value="0.0096687566" flag="0"/>
      <vel value="0.0046459792" flag="0"/>
      <psa03 value="0.0231855958" flag="0"/>
      <psa10 value="0.0041429260" flag="0"/>
      <psa30 value="0.0002871743" flag="0"/>
    </comp>
    <comp name="--.HHN">
      <acc value="0.0135440266" flag="0"/>
      <vel value="0.0044607767" flag="0"/>
      <psa03 value="0.0280296109" flag="0"/>
      <psa10 value="0.0027063874" flag="0"/>
      <psa30 value="0.0002753486" flag="0"/>
    </comp>
    <comp name="--.HHZ">
      <acc value="0.0051720577" flag="0"/>
      <vel value="0.0019800459" flag="0"/>
      <psa03 value="0.0190380867" flag="0"/>
      <psa10 value="0.0022582835" flag="0"/>
      <psa30 value="0.0001791028" flag="0"/>
    </comp>
  </station>
  <station code="PATC" name="PATC" netid="HL" insttype="CMG-5" lat="38.2693" lon="21.76">
    <comp name="00.HNE">
      <acc value="0.0791965044" flag="0"/>
      <vel value="0.0470267685" flag="0"/>
      <psa03 value="0.1900030798" flag="0"/>
      <psa10 value="0.0333750384" flag="0"/>
      <psa30 value="0.0020578814" flag="0"/>
    </comp>
    <comp name="00.HNZ">
      <acc value="0.0332799327" flag="0"/>
      <vel value="0.0095422047" flag="0"/>
      <psa03 value="0.0431955681" flag="0"/>
      <psa10 value="0.0119491403" flag="0"/>
      <psa30 value="0.0004799460" flag="0"/>
    </comp>
    <comp name="00.HNN">
      <acc value="0.0557549646" flag="0"/>
      <vel value="0.0296817840" flag="0"/>
      <psa03 value="0.1451655239" flag="0"/>
      <psa10 value="0.0175376108" flag="0"/>
      <psa30 value="0.0012657510" flag="0"/>
    </comp>
  </station>
  <station code="RLS" name="RLS" netid="HL" insttype="CMG3ESPC-120s" lat="38.0559" lon="21.4647">
    <comp name="--.HHN">
      <acc value="0.0416441328" flag="0"/>
      <vel value="0.0152739417" flag="0"/>
      <psa03 value="0.0727031533" flag="0"/>
      <psa10 value="0.0078993404" flag="0"/>
      <psa30 value="0.0004829601" flag="0"/>
    </comp>
    <comp name="--.HHE">
      <acc value="0.0370675559" flag="0"/>
      <vel value="0.0128412470" flag="0"/>
      <psa03 value="0.0566451956" flag="0"/>
      <psa10 value="0.0056781402" flag="0"/>
      <psa30 value="0.0004415463" flag="0"/>
    </comp>
    <comp name="--.HHZ">
      <acc value="0.0153899931" flag="0"/>
      <vel value="0.0046064184" flag="0"/>
      <psa03 value="0.0341733544" flag="0"/>
      <psa10 value="0.0041244387" flag="0"/>
      <psa30 value="0.0002832215" flag="0"/>
    </comp>
  </station>
  <station code="AMT" name="AMT" netid="HP" insttype="CMG-3T," lat="37.5324" lon="21.7089">
    <comp name="00.HHN">
      <acc value="0.1554810173" flag="0"/>
      <vel value="0.0415511966" flag="0"/>
      <psa03 value="0.1453023316" flag="0"/>
      <psa10 value="0.0300163333" flag="0"/>
      <psa30 value="0.0023721287" flag="0"/>
    </comp>
    <comp name="00.HHE">
      <acc value="0.0860774231" flag="0"/>
      <vel value="0.0300623983" flag="0"/>
      <psa03 value="0.1062818541" flag="0"/>
      <psa10 value="0.0337265312" flag="0"/>
      <psa30 value="0.0017726737" flag="0"/>
    </comp>
    <comp name="00.HHZ">
      <acc value="0.0715894451" flag="0"/>
      <vel value="0.0228919094" flag="0"/>
      <psa03 value="0.1170478576" flag="0"/>
      <psa10 value="0.0191175228" flag="0"/>
      <psa30 value="0.0010094860" flag="0"/>
    </comp>
  </station>
  <station code="AXS" name="AXS" netid="HP" insttype="Compact," lat="38.1962" lon="21.3763">
    <comp name="--.HHZ">
      <acc value="0.0080748099" flag="0"/>
      <vel value="0.0028491852" flag="0"/>
      <psa03 value="0.0159036852" flag="0"/>
      <psa10 value="0.0019219261" flag="0"/>
      <psa30 value="0.0001043939" flag="0"/>
    </comp>
    <comp name="--.HHN">
      <acc value="0.0083621168" flag="0"/>
      <vel value="0.0032309620" flag="0"/>
      <psa03 value="0.0202516130" flag="0"/>
      <psa10 value="0.0035642200" flag="0"/>
      <psa30 value="0.0001603654" flag="0"/>
    </comp>
    <comp name="--.HHE">
      <acc value="0.0077846872" flag="0"/>
      <vel value="0.0026716026" flag="0"/>
      <psa03 value="0.0123303482" flag="0"/>
      <psa10 value="0.0022921840" flag="0"/>
      <psa30 value="0.0002157920" flag="0"/>
    </comp>
  </station>
  <station code="DRO" name="DRO" netid="HP" insttype="120P," lat="37.952" lon="21.71">
    <comp name="--.HHZ">
      <acc value="0.0576556680" flag="0"/>
      <vel value="0.0065782797" flag="0"/>
      <psa03 value="0.0332995205" flag="0"/>
      <psa10 value="0.0051025929" flag="0"/>
      <psa30 value="0.0012021574" flag="0"/>
    </comp>
    <comp name="--.HHN">
      <acc value="0.1030591314" flag="0"/>
      <vel value="0.0332671782" flag="0"/>
      <psa03 value="0.2437266597" flag="0"/>
      <psa10 value="0.0200532939" flag="0"/>
      <psa30 value="0.0013170981" flag="0"/>
    </comp>
    <comp name="--.HHE">
      <acc value="0.0490485447" flag="0"/>
      <vel value="0.0050345962" flag="0"/>
      <psa03 value="0.0180885724" flag="0"/>
      <psa10 value="0.0054270367" flag="0"/>
      <psa30 value="0.0013628457" flag="0"/>
    </comp>
  </station>
  <station code="EFP" name="EFP" netid="HP" insttype="40," lat="38.4269" lon="21.9058">
    <comp name="--.HHZ">
      <acc value="0.0061346914" flag="0"/>
      <vel value="0.0021203213" flag="0"/>
      <psa03 value="0.0126256330" flag="0"/>
      <psa10 value="0.0013115275" flag="0"/>
      <psa30 value="0.0001201439" flag="0"/>
    </comp>
    <comp name="--.HHE">
      <acc value="0.0118321247" flag="0"/>
      <vel value="0.0038589688" flag="0"/>
      <psa03 value="0.0270426798" flag="0"/>
      <psa10 value="0.0025178893" flag="0"/>
      <psa30 value="0.0001772129" flag="0"/>
    </comp>
    <comp name="--.HHN">
      <acc value="0.0093202747" flag="0"/>
      <vel value="0.0041537354" flag="0"/>
      <psa03 value="0.0133460187" flag="0"/>
      <psa10 value="0.0017639998" flag="0"/>
      <psa30 value="0.0001940793" flag="0"/>
    </comp>
  </station>
  <station code="LTHK" name="LTHK" netid="HP" insttype="40," lat="37.7095" lon="20.8367">
    <comp name="--.HHE">
      <acc value="0.0265919691" flag="0"/>
      <vel value="0.0085302498" flag="0"/>
      <psa03 value="0.0420960969" flag="0"/>
      <psa10 value="0.0077661815" flag="0"/>
      <psa30 value="0.0004356310" flag="0"/>
    </comp>
    <comp name="--.HHN">
      <acc value="0.0248753432" flag="0"/>
      <vel value="0.0090612033" flag="0"/>
      <psa03 value="0.0447892248" flag="0"/>
      <psa10 value="0.0106336047" flag="0"/>
      <psa30 value="0.0004875689" flag="0"/>
    </comp>
    <comp name="--.HHZ">
      <acc value="0.0108138960" flag="0"/>
      <vel value="0.0048878599" flag="0"/>
      <psa03 value="0.0233939550" flag="0"/>
      <psa10 value="0.0075883758" flag="0"/>
      <psa30 value="0.0002520227" flag="0"/>
    </comp>
  </station>
  <station code="SERG" name="SERG" netid="HP" insttype="2000" lat="38.4133" lon="22.0566">
    <comp name="00.HHN">
      <acc value="0.0290673414" flag="0"/>
      <vel value="0.0093828460" flag="0"/>
      <psa03 value="0.0368673315" flag="0"/>
      <psa10 value="0.0038106132" flag="0"/>
      <psa30 value="0.0002701834" flag="0"/>
    </comp>
    <comp name="00.HHZ">
      <acc value="0.0140023331" flag="0"/>
      <vel value="0.0041772511" flag="0"/>
      <psa03 value="0.0153809274" flag="0"/>
      <psa10 value="0.0024671272" flag="0"/>
      <psa30 value="0.0001664275" flag="0"/>
    </comp>
    <comp name="00.HHE">
      <acc value="0.0207728225" flag="0"/>
      <vel value="0.0075324427" flag="0"/>
      <psa03 value="0.0344599805" flag="0"/>
      <psa10 value="0.0032782281" flag="0"/>
      <psa30 value="0.0001746846" flag="0"/>
    </comp>
  </station>
  <station code="UPR" name="UPR" netid="HP" insttype="120" lat="38.2836" lon="21.7864">
    <comp name="--.HHE">
      <acc value="0.0301523222" flag="0"/>
      <vel value="0.0102468948" flag="0"/>
      <psa03 value="0.0447415431" flag="0"/>
      <psa10 value="0.0087658805" flag="0"/>
      <psa30 value="0.0008133797" flag="0"/>
    </comp>
    <comp name="--.HHZ">
      <acc value="0.0135679515" flag="0"/>
      <vel value="0.0081567197" flag="0"/>
      <psa03 value="0.0236036644" flag="0"/>
      <psa10 value="0.0132225538" flag="0"/>
      <psa30 value="0.0007806056" flag="0"/>
    </comp>
    <comp name="--.HHN">
      <acc value="0.0237609368" flag="0"/>
      <vel value="0.0108658504" flag="0"/>
      <psa03 value="0.0476732143" flag="0"/>
      <psa10 value="0.0120388880" flag="0"/>
      <psa30 value="0.0007520545" flag="0"/>
    </comp>
  </station>
  <station code="VLX" name="VLX" netid="HP" insttype="40," lat="37.3703" lon="22.3793">
    <comp name="--.HHE">
      <acc value="0.0069053840" flag="0"/>
      <vel value="0.0041999968" flag="0"/>
      <psa03 value="0.0192885888" flag="0"/>
      <psa10 value="0.0046207173" flag="0"/>
      <psa30 value="0.0002313983" flag="0"/>
    </comp>
    <comp name="--.HHZ">
      <acc value="0.0036135808" flag="0"/>
      <vel value="0.0022457704" flag="0"/>
      <psa03 value="0.0130128413" flag="0"/>
      <psa10 value="0.0024358282" flag="0"/>
      <psa30 value="0.0002352393" flag="0"/>
    </comp>
    <comp name="--.HHN">
      <acc value="0.0057406925" flag="0"/>
      <vel value="0.0042569074" flag="0"/>
      <psa03 value="0.0170089695" flag="0"/>
      <psa10 value="0.0041079322" flag="0"/>
      <psa30 value="0.0003716420" flag="0"/>
    </comp>
  </station>
  <station code="VVK" name="VVK" netid="HP" insttype="40," lat="38.4222" lon="21.8115">
    <comp name="--.HHN">
      <acc value="0.0113260308" flag="0"/>
      <vel value="0.0039390084" flag="0"/>
      <psa03 value="0.0227244970" flag="0"/>
      <psa10 value="0.0025799504" flag="0"/>
      <psa30 value="0.0001830752" flag="0"/>
    </comp>
    <comp name="--.HHE">
      <acc value="0.0169626484" flag="0"/>
      <vel value="0.0056265630" flag="0"/>
      <psa03 value="0.0267590714" flag="0"/>
      <psa10 value="0.0023099663" flag="0"/>
      <psa30 value="0.0001965909" flag="0"/>
    </comp>
    <comp name="--.HHZ">
      <acc value="0.0071218675" flag="0"/>
      <vel value="0.0039651050" flag="0"/>
      <psa03 value="0.0213477986" flag="0"/>
      <psa10 value="0.0015477937" flag="0"/>
      <psa30 value="0.0001278974" flag="0"/>
    </comp>
  </station>
  <station code="KLV" name="KLV" netid="MN" insttype="" lat="38.0437" lon="22.1504">
    <comp name="--.HHZ">
      <acc value="0.0155876476" flag="0"/>
      <vel value="0.0082458847" flag="0"/>
      <psa03 value="0.0447602507" flag="0"/>
      <psa10 value="0.0036233088" flag="0"/>
      <psa30 value="0.0002596434" flag="0"/>
    </comp>
    <comp name="--.HHN">
      <acc value="0.0220023803" flag="0"/>
      <vel value="0.0051368653" flag="0"/>
      <psa03 value="0.0270399559" flag="0"/>
      <psa10 value="0.0038528009" flag="0"/>
      <psa30 value="0.0003450955" flag="0"/>
    </comp>
    <comp name="--.HHE">
      <acc value="0.0216813428" flag="0"/>
      <vel value="0.0077686675" flag="0"/>
      <psa03 value="0.0204961724" flag="0"/>
      <psa10 value="0.0028642828" flag="0"/>
      <psa30 value="0.0003466019" flag="0"/>
    </comp>
  </station>
</stationlist>
