<stationlist created="1778550959">
	<station code="4802" name="4802" netid="TK" source="Turkish National Strong Motion Network (TNSMN)" insttype="" lat="37.03304" lon="27.43997">
		<comp name="00.HNE" depth="None">
			<acc value="2.16483441470194" flag="0"/>
			<vel value="1.10098346245532" flag="0"/>
			<psa03 value="5.6065564269224" flag="0"/>
			<psa10 value="0.727429085907384" flag="0"/>
			<psa30 value="0.0739109933789217" flag="0"/>
		</comp>
		<comp name="00.HNN" depth="None">
			<acc value="2.86859471091778" flag="0"/>
			<vel value="1.7304918251197" flag="0"/>
			<psa03 value="4.79878062863612" flag="0"/>
			<psa10 value="1.66122757304295" flag="0"/>
			<psa30 value="0.152412089734812" flag="0"/>
		</comp>
		<comp name="00.HNZ" depth="None">
			<acc value="1.52479104127672" flag="0"/>
			<vel value="0.894566598273104" flag="0"/>
			<psa03 value="4.59748544106051" flag="0"/>
			<psa10 value="0.549255328445904" flag="0"/>
			<psa30 value="0.09844314526772" flag="0"/>
		</comp>
	</station>
</stationlist>
