<?xml version="1.0" encoding="UTF-8" standalone="yes"?>
<!DOCTYPE earthquake SYSTEM "stationlist.dtd">
<stationlist created="" xmlns="ch.ethz.sed.shakemap.usgs.xml">
  <station code="GVD" name="GVD" netid="GE" insttype="STS-2/N" lat="34.8391" lon="24.0874">
    <comp name="--.HHZ">
      <acc value="0.0158385563" flag="0"/>
      <vel value="0.0070371774" flag="0"/>
      <psa03 value="0.0496714059" flag="0"/>
      <psa10 value="0.0074629607" flag="0"/>
      <psa30 value="0.0011891766" flag="0"/>
    </comp>
    <comp name="--.HHE">
      <acc value="0.0247662198" flag="0"/>
      <vel value="0.0225130036" flag="0"/>
      <psa03 value="0.1045915307" flag="0"/>
      <psa10 value="0.0153996939" flag="0"/>
      <psa30 value="0.0039704233" flag="0"/>
    </comp>
    <comp name="--.HHN">
      <acc value="0.0250411255" flag="0"/>
      <vel value="0.0173690442" flag="0"/>
      <psa03 value="0.0765731322" flag="0"/>
      <psa10 value="0.0084771800" flag="0"/>
      <psa30 value="0.0014838705" flag="0"/>
    </comp>
  </station>
  <station code="GVDS" name="GVDS" netid="HC" insttype="60" lat="34.8389" lon="24.0585">
    <comp name="--.HHE">
      <acc value="0.0132221628" flag="0"/>
      <vel value="0.0123151902" flag="0"/>
      <psa03 value="0.0433643318" flag="0"/>
      <psa10 value="0.0123049284" flag="0"/>
      <psa30 value="0.0029726620" flag="0"/>
    </comp>
  </station>
  <station code="GVD" name="GVD" netid="HL" insttype="120" lat="34.8391" lon="24.0874">
    <comp name="--.HHE">
      <acc value="0.0241057779" flag="0"/>
      <vel value="0.0223226476" flag="0"/>
      <psa03 value="0.1015683079" flag="0"/>
      <psa10 value="0.0152865713" flag="0"/>
      <psa30 value="0.0039663586" flag="0"/>
    </comp>
    <comp name="--.HHZ">
      <acc value="0.0153730986" flag="0"/>
      <vel value="0.0068956136" flag="0"/>
      <psa03 value="0.0482641350" flag="0"/>
      <psa10 value="0.0074056124" flag="0"/>
      <psa30 value="0.0011885360" flag="0"/>
    </comp>
    <comp name="--.HHN">
      <acc value="0.0246432490" flag="0"/>
      <vel value="0.0170021361" flag="0"/>
      <psa03 value="0.0743253779" flag="0"/>
      <psa10 value="0.0083694934" flag="0"/>
      <psa30 value="0.0014807155" flag="0"/>
    </comp>
  </station>
</stationlist>
