<?xml version="1.0" encoding="UTF-8" standalone="yes"?>
<!DOCTYPE earthquake SYSTEM "stationlist.dtd">
<stationlist created="" xmlns="ch.ethz.sed.shakemap.usgs.xml">
  <station code="GAZ" name="GAZ" netid="KO" insttype="CMG-3T" lat="37.1721" lon="37.2096">
    <comp name="--.HHE">
      <acc value="0.0126171411" flag="0"/>
      <vel value="0.0059360284" flag="0"/>
      <psa03 value="0.0251726595" flag="0"/>
      <psa10 value="0.0058846402" flag="0"/>
      <psa30 value="0.0006185426" flag="0"/>
    </comp>
    <comp name="--.HHN">
      <acc value="0.0122445413" flag="0"/>
      <vel value="0.0043157949" flag="0"/>
      <psa03 value="0.0234148222" flag="0"/>
      <psa10 value="0.0052709900" flag="0"/>
      <psa30 value="0.0003830474" flag="0"/>
    </comp>
  </station>
  <station code="SARI" name="SARI" netid="KO" insttype="CMG-3T" lat="38.4072" lon="36.4181">
    <comp name="--.HHE">
      <acc value="0.0307955339" flag="0"/>
      <vel value="0.0160622645" flag="0"/>
      <psa03 value="0.0713724783" flag="0"/>
      <psa10 value="0.0221214506" flag="0"/>
      <psa30 value="0.0008748093" flag="0"/>
    </comp>
    <comp name="--.HHN">
      <acc value="0.0289726541" flag="0"/>
      <vel value="0.0149386484" flag="0"/>
      <psa03 value="0.0539551235" flag="0"/>
      <psa10 value="0.0255208799" flag="0"/>
      <psa30 value="0.0020915423" flag="0"/>
    </comp>
    <comp name="--.HHZ">
      <acc value="0.0230129115" flag="0"/>
      <vel value="0.0103050215" flag="0"/>
      <psa03 value="0.0491817395" flag="0"/>
      <psa10 value="0.0068493666" flag="0"/>
      <psa30 value="0.0013572503" flag="0"/>
    </comp>
  </station>
  <station code="ANDN" name="ANDN" netid="TU" insttype="T" lat="37.58" lon="36.3452">
    <comp name="--.HHN">
      <acc value="0.0588313162" flag="0"/>
      <vel value="0.0271937529" flag="0"/>
      <psa03 value="0.1049644188" flag="0"/>
      <psa10 value="0.0355014167" flag="0"/>
      <psa30 value="0.0019073152" flag="0"/>
    </comp>
    <comp name="--.HHZ">
      <acc value="0.0208040816" flag="0"/>
      <vel value="0.0116175109" flag="0"/>
      <psa03 value="0.0536048366" flag="0"/>
      <psa10 value="0.0138182030" flag="0"/>
      <psa30 value="0.0012751213" flag="0"/>
    </comp>
    <comp name="--.HHE">
      <acc value="0.0517151754" flag="0"/>
      <vel value="0.0175700062" flag="0"/>
      <psa03 value="0.0909578359" flag="0"/>
      <psa10 value="0.0256628450" flag="0"/>
      <psa30 value="0.0019524475" flag="0"/>
    </comp>
  </station>
</stationlist>
