<?xml version="1.0" encoding="UTF-8" standalone="yes"?>
<!DOCTYPE earthquake SYSTEM "stationlist.dtd">
<stationlist created="" xmlns="ch.ethz.sed.shakemap.usgs.xml">
  <station code="CLDR" name="CLDR" netid="KO" insttype="CMG-3ESP" lat="39.144" lon="43.9172">
    <comp name="--.HHE">
      <acc value="0.0296950314" flag="0"/>
      <vel value="0.0137631627" flag="0"/>
      <psa03 value="0.1138780789" flag="0"/>
      <psa10 value="0.0227479135" flag="0"/>
      <psa30 value="0.0020070506" flag="0"/>
    </comp>
    <comp name="--.HHN">
      <acc value="0.0294552195" flag="0"/>
      <vel value="0.0119778802" flag="0"/>
      <psa03 value="0.0466959084" flag="0"/>
      <psa10 value="0.0202403014" flag="0"/>
      <psa30 value="0.0021266053" flag="0"/>
    </comp>
    <comp name="--.HHZ">
      <acc value="0.0134421851" flag="0"/>
      <vel value="0.0073504454" flag="0"/>
      <psa03 value="0.0408399553" flag="0"/>
      <psa10 value="0.0096558879" flag="0"/>
      <psa30 value="0.0020513945" flag="0"/>
    </comp>
  </station>
  <station code="TASB" name="TASB" netid="KO" insttype="CMG-3T" lat="39.9838" lon="44.2384">
    <comp name="--.HHN">
      <acc value="0.0332936991" flag="0"/>
      <vel value="0.0179910651" flag="0"/>
      <psa03 value="0.0705627962" flag="0"/>
      <psa10 value="0.0184708609" flag="0"/>
      <psa30 value="0.0049017447" flag="0"/>
    </comp>
    <comp name="--.HHE">
      <acc value="0.0422117807" flag="0"/>
      <vel value="0.0230943319" flag="0"/>
      <psa03 value="0.0988544617" flag="0"/>
      <psa10 value="0.0178339191" flag="0"/>
      <psa30 value="0.0053045056" flag="0"/>
    </comp>
  </station>
</stationlist>
