<?xml version="1.0" encoding="UTF-8" standalone="yes"?>
<!DOCTYPE earthquake SYSTEM "stationlist.dtd">
<stationlist created="" xmlns="ch.ethz.sed.shakemap.usgs.xml">
  <station code="FSK" name="FSK" netid="HP" source="NOA" insttype="40," lat="38.4593" lon="20.5623">
    <comp name="--.HHE">
      <acc value="0.0213752623" flag="0"/>
      <vel value="0.0091067476" flag="0"/>
      <psa03 value="0.0269315642" flag="0"/>
      <psa10 value="0.0124192687" flag="0"/>
      <psa30 value="0.0028941434" flag="0"/>
    </comp>
    <comp name="--.HHN">
      <acc value="0.0122080209" flag="0"/>
      <vel value="0.0068074674" flag="0"/>
      <psa03 value="0.0153480317" flag="0"/>
      <psa10 value="0.0142263148" flag="0"/>
      <psa30 value="0.0011917002" flag="0"/>
    </comp>
    <comp name="--.HHZ">
      <acc value="0.0090525111" flag="0"/>
      <vel value="0.0047167502" flag="0"/>
      <psa03 value="0.0130399209" flag="0"/>
      <psa10 value="0.0065178942" flag="0"/>
      <psa30 value="0.0010446655" flag="0"/>
    </comp>
  </station>
  <station code="DMLN" name="DMLN" netid="HT" source="NOA" insttype="1s-100Hz," lat="38.2385" lon="20.3734">
    <comp name="--.HHE">
      <acc value="0.0420104542" flag="0"/>
      <vel value="0.0272002544" flag="0"/>
      <psa03 value="0.0917581576" flag="0"/>
      <psa10 value="0.0493424024" flag="0"/>
      <psa30 value="0.0031101884" flag="0"/>
    </comp>
    <comp name="--.HHN">
      <acc value="0.0500704216" flag="0"/>
      <vel value="0.0332736915" flag="0"/>
      <psa03 value="0.1477496305" flag="0"/>
      <psa10 value="0.0658581670" flag="0"/>
      <psa30 value="0.0031400093" flag="0"/>
    </comp>
    <comp name="--.HHZ">
      <acc value="0.0323637744" flag="0"/>
      <vel value="0.0217221753" flag="0"/>
      <psa03 value="0.0658845487" flag="0"/>
      <psa10 value="0.0131995828" flag="0"/>
      <psa30 value="0.0017751608" flag="0"/>
    </comp>
  </station>
</stationlist>
