<stationlist xmlns:esm="https://esm-db.eu/esmws/shakemap/1/" created="1781920450">
	<station code="KLV1" name="KLV1" netid="HI" source="ITSAK Strong Motion Network" insttype="" lat="38.03256" lon="22.10797" esm:processing="manual (Paolucci et al 2011)" esm:quality="bad">
		<comp name="--.HNE" depth="0.0">
			<acc value="0.00421775800215763" flag="0"/>
			<vel value="0.00301900483739365" flag="0"/>
			<psa03 value="0.0173734126220628" flag="0"/>
			<psa10 value="0.00400740297078006" flag="0"/>
			<psa30 value="0.000675600588555928" flag="0"/>
		</comp>
		<comp name="--.HNN" depth="0.0">
			<acc value="0.00525465889207453" flag="0"/>
			<vel value="0.00365574253900266" flag="0"/>
			<psa03 value="0.0108260537614596" flag="0"/>
			<psa10 value="0.00453736698453627" flag="0"/>
			<psa30 value="0.000552315963223339" flag="0"/>
		</comp>
		<comp name="--.HNZ" depth="0.0">
			<acc value="0.00417684137638985" flag="0"/>
			<vel value="0.00189843823469872" flag="0"/>
			<psa03 value="0.00681789566254941" flag="0"/>
			<psa10 value="0.00309280175793747" flag="0"/>
			<psa30 value="0.00041554362147554" flag="0"/>
		</comp>
	</station>
	<station code="KRI1" name="KRI1" netid="HI" source="ITSAK Strong Motion Network" insttype="" lat="37.6621" lon="20.8172" esm:processing="manual (Paolucci et al 2011)" esm:quality="good">
		<comp name="--.HNE" depth="0.0">
			<acc value="0.234054961685375" flag="0"/>
			<vel value="0.0700030975682824" flag="0"/>
			<psa03 value="0.388272869033362" flag="0"/>
			<psa10 value="0.0511081277759195" flag="0"/>
			<psa30 value="0.00547152444734845" flag="0"/>
		</comp>
		<comp name="--.HNN" depth="0.0">
			<acc value="0.155329386123095" flag="0"/>
			<vel value="0.066407412139181" flag="0"/>
			<psa03 value="0.454491334828405" flag="0"/>
			<psa10 value="0.094955937683892" flag="0"/>
			<psa30 value="0.008097891975841" flag="0"/>
		</comp>
		<comp name="--.HNZ" depth="0.0">
			<acc value="0.0735649049668094" flag="0"/>
			<vel value="0.0269408890175533" flag="0"/>
			<psa03 value="0.208453940634528" flag="0"/>
			<psa10 value="0.0322627103483034" flag="0"/>
			<psa30 value="0.00347960140870299" flag="0"/>
		</comp>
	</station>
	<station code="LXRA" name="LXRA" netid="HL" source="National Observatory of Athens Seismic Network" insttype="" lat="38.20006" lon="20.43718" esm:processing="manual (Paolucci et al 2011)" esm:quality="good">
		<comp name="00.HNE" depth="0.0">
			<acc value="0.0622846642332483" flag="0"/>
			<vel value="0.0406632123727412" flag="0"/>
			<psa03 value="0.135747854879837" flag="0"/>
			<psa10 value="0.0387539096844823" flag="0"/>
			<psa30 value="0.0076916327397471" flag="0"/>
		</comp>
		<comp name="00.HNN" depth="0.0">
			<acc value="0.0414651593473346" flag="0"/>
			<vel value="0.0318827211883691" flag="0"/>
			<psa03 value="0.103309755081589" flag="0"/>
			<psa10 value="0.0386049181364434" flag="0"/>
			<psa30 value="0.00829520510702758" flag="0"/>
		</comp>
		<comp name="00.HNZ" depth="0.0">
			<acc value="0.0329759336742504" flag="0"/>
			<vel value="0.0166945865161903" flag="0"/>
			<psa03 value="0.0521694129169049" flag="0"/>
			<psa10 value="0.0267580766680574" flag="0"/>
			<psa30 value="0.00271540451966291" flag="0"/>
		</comp>
	</station>
	<station code="SMHA" name="SMHA" netid="HL" source="National Observatory of Athens Seismic Network" insttype="" lat="38.25123" lon="20.6477" esm:processing="manual (Paolucci et al 2011)" esm:quality="good">
		<comp name="00.HNE" depth="0.0">
			<acc value="0.0486140394737708" flag="0"/>
			<vel value="0.0320068999297409" flag="0"/>
			<psa03 value="0.181207587446462" flag="0"/>
			<psa10 value="0.0284962927395563" flag="0"/>
			<psa30 value="0.00287584842751011" flag="0"/>
		</comp>
		<comp name="00.HNN" depth="0.0">
			<acc value="0.0583454853391607" flag="0"/>
			<vel value="0.0341355639801783" flag="0"/>
			<psa03 value="0.277165027489646" flag="0"/>
			<psa10 value="0.0295774799878843" flag="0"/>
			<psa30 value="0.00186410098754154" flag="0"/>
		</comp>
		<comp name="00.HNZ" depth="0.0">
			<acc value="0.0258415224431474" flag="0"/>
			<vel value="0.0174252243074272" flag="0"/>
			<psa03 value="0.0979207992723408" flag="0"/>
			<psa10 value="0.0173165733879995" flag="0"/>
			<psa30 value="0.00267443508486739" flag="0"/>
		</comp>
	</station>
	<station code="FSK" name="FSK" netid="HP" source="University of Patras, Seismological Laboratory (PSLNET)" insttype="" lat="38.4593" lon="20.5623" esm:processing="manual (Paolucci et al 2011)" esm:quality="bad">
		<comp name="--.HNE" depth="0.0">
			<acc value="0.0223338757341021" flag="0"/>
			<vel value="0.00911836579670624" flag="0"/>
			<psa03 value="0.0259120602968249" flag="0"/>
			<psa10 value="0.0136039765091789" flag="0"/>
			<psa30 value="0.00281613030481184" flag="0"/>
		</comp>
		<comp name="--.HNN" depth="0.0">
			<acc value="0.0100170779845725" flag="0"/>
			<vel value="0.00752261128800199" flag="0"/>
			<psa03 value="0.0146901684640651" flag="0"/>
			<psa10 value="0.0121040524590718" flag="0"/>
			<psa30 value="0.00174641506642719" flag="0"/>
		</comp>
		<comp name="--.HNZ" depth="0.0">
			<acc value="0.00925768672898954" flag="0"/>
			<vel value="0.00495066979022268" flag="0"/>
			<psa03 value="0.0127168085719904" flag="0"/>
			<psa10 value="0.00659260110246823" flag="0"/>
			<psa30 value="0.00124252824889848" flag="0"/>
		</comp>
	</station>
</stationlist>
