<?xml version="1.0" encoding="UTF-8" standalone="yes"?>
<!DOCTYPE earthquake SYSTEM "stationlist.dtd">
<stationlist created="" xmlns="ch.ethz.sed.shakemap.usgs.xml">
  <station code="EREN" name="EREN" netid="KO" insttype="120s," lat="35.5292" lon="34.1742">
    <comp name="--.HHN">
      <acc value="0.0209816520" flag="0"/>
      <vel value="0.0176168454" flag="0"/>
      <psa03 value="0.0627916919" flag="0"/>
      <psa10 value="0.0281131549" flag="0"/>
      <psa30 value="0.0040071910" flag="0"/>
    </comp>
    <comp name="--.HHZ">
      <acc value="0.0250557876" flag="0"/>
      <vel value="0.0159102630" flag="0"/>
      <psa03 value="0.0922539560" flag="0"/>
      <psa10 value="0.0166973896" flag="0"/>
      <psa30 value="0.0014160837" flag="0"/>
    </comp>
    <comp name="--.HHE">
      <acc value="0.0222064383" flag="0"/>
      <vel value="0.0159273629" flag="0"/>
      <psa03 value="0.0526730845" flag="0"/>
      <psa10 value="0.0296072658" flag="0"/>
      <psa30 value="0.0027639560" flag="0"/>
    </comp>
  </station>
  <station code="SLFK" name="SLFK" netid="KO" insttype="100" lat="36.3926" lon="33.9465">
    <comp name="--.HNE">
      <acc value="0.4155147545" flag="0"/>
      <vel value="0.1759221432" flag="0"/>
      <psa03 value="1.0214732543" flag="0"/>
      <psa10 value="0.0869478875" flag="0"/>
      <psa30 value="0.0070274255" flag="0"/>
    </comp>
    <comp name="--.HNN">
      <acc value="0.3454645018" flag="0"/>
      <vel value="0.1300693156" flag="0"/>
      <psa03 value="0.7226731342" flag="0"/>
      <psa10 value="0.1274731870" flag="0"/>
      <psa30 value="0.0090308751" flag="0"/>
    </comp>
    <comp name="--.HNZ">
      <acc value="0.1850957963" flag="0"/>
      <vel value="0.0748774552" flag="0"/>
      <psa03 value="0.3614275313" flag="0"/>
      <psa10 value="0.0489984138" flag="0"/>
      <psa30 value="0.0044652100" flag="0"/>
    </comp>
  </station>
</stationlist>
