<stationlist created="1778069314">
	<station code="CMRD" name="CMRD" netid="KO" source="Bogazici University Kandilli Observatory And Earthquake Research Institute (KOERI)" insttype="" lat="37.6623" lon="34.9902">
		<comp name="--.HNE" depth="0.0">
			<acc value="0.0508637313656193" flag="0"/>
			<vel value="0.0308793423798536" flag="0"/>
			<psa03 value="0.110915930206696" flag="0"/>
			<psa10 value="0.0313083590811357" flag="0"/>
			<psa30 value="0.00396594919464361" flag="0"/>
		</comp>
		<comp name="--.HNN" depth="0.0">
			<acc value="0.0293551941251796" flag="0"/>
			<vel value="0.0226876132484794" flag="0"/>
			<psa03 value="0.133376517929068" flag="0"/>
			<psa10 value="0.0470088468055534" flag="0"/>
			<psa30 value="0.00240489360573211" flag="0"/>
		</comp>
		<comp name="--.HNZ" depth="0.0">
			<acc value="0.0227078981735148" flag="0"/>
			<vel value="0.0150404807907605" flag="0"/>
			<psa03 value="0.0619679561663064" flag="0"/>
			<psa10 value="0.0192118560998197" flag="0"/>
			<psa30 value="0.00323888833709669" flag="0"/>
		</comp>
	</station>
	<station code="KRTS" name="KRTS" netid="KO" source="Bogazici University Kandilli Observatory And Earthquake Research Institute (KOERI)" insttype="" lat="36.573" lon="35.375">
		<comp name="--.HNE" depth="0.0">
			<acc value="0.413645015390155" flag="0"/>
			<vel value="0.33243687754268" flag="0"/>
			<psa03 value="1.65662494224813" flag="0"/>
			<psa10 value="0.179720048122208" flag="0"/>
			<psa30 value="0.022699511105714" flag="0"/>
		</comp>
		<comp name="--.HNN" depth="0.0">
			<acc value="0.634200561173644" flag="0"/>
			<vel value="0.404042731180031" flag="0"/>
			<psa03 value="1.61291180638208" flag="0"/>
			<psa10 value="0.619639741099173" flag="0"/>
			<psa30 value="0.046155612925343" flag="0"/>
		</comp>
		<comp name="--.HNZ" depth="0.0">
			<acc value="0.235148960318406" flag="0"/>
			<vel value="0.136273516613691" flag="0"/>
			<psa03 value="0.584109507401538" flag="0"/>
			<psa10 value="0.138123218629201" flag="0"/>
			<psa30 value="0.0162351570935061" flag="0"/>
		</comp>
	</station>
	<station code="SLFK" name="SLFK" netid="KO" source="Bogazici University Kandilli Observatory And Earthquake Research Institute (KOERI)" insttype="" lat="36.3925" lon="33.9464">
		<comp name="--.HNE" depth="0.0">
			<acc value="0.414577577390119" flag="0"/>
			<vel value="0.177362012807339" flag="0"/>
			<psa03 value="1.01551386361491" flag="0"/>
			<psa10 value="0.0869828764645159" flag="0"/>
			<psa30 value="0.00709521912552553" flag="0"/>
		</comp>
		<comp name="--.HNN" depth="0.0">
			<acc value="0.344908264033206" flag="0"/>
			<vel value="0.130463180288787" flag="0"/>
			<psa03 value="0.723034058951272" flag="0"/>
			<psa10 value="0.12762132789176" flag="0"/>
			<psa30 value="0.00895783718704419" flag="0"/>
		</comp>
		<comp name="--.HNZ" depth="0.0">
			<acc value="0.186865878269089" flag="0"/>
			<vel value="0.0751650618854374" flag="0"/>
			<psa03 value="0.359503630177814" flag="0"/>
			<psa10 value="0.0491068088738842" flag="0"/>
			<psa30 value="0.00462186994366747" flag="0"/>
		</comp>
	</station>
</stationlist>
