<stationlist xmlns:esm="https://esm-db.eu/esmws/shakemap/1/" created="1783734820">
	<station code="BOJS" name="BOJS" netid="SL" source="Seismic Network of the Republic of Slovenia (SNRS)" insttype="" lat="45.5043" lon="15.2518" esm:processing="manual (Paolucci et al 2011)" esm:quality="good">
		<comp name="--.HNE" depth="0.0">
			<acc value="0.0064177544089839" flag="0"/>
			<vel value="0.00253461060750441" flag="0"/>
			<psa03 value="0.0140558972800587" flag="0"/>
			<psa10 value="0.00305456281854438" flag="0"/>
			<psa30 value="0.000541697863991123" flag="0"/>
		</comp>
		<comp name="--.HNN" depth="0.0">
			<acc value="0.00444455794180351" flag="0"/>
			<vel value="0.002017884841509" flag="0"/>
			<psa03 value="0.0110261340731158" flag="0"/>
			<psa10 value="0.00361335030422281" flag="0"/>
			<psa30 value="0.000455656747522524" flag="0"/>
		</comp>
		<comp name="--.HNZ" depth="0.0">
			<acc value="0.00447355771576346" flag="0"/>
			<vel value="0.00192108573936884" flag="0"/>
			<psa03 value="0.0115033050062624" flag="0"/>
			<psa10 value="0.00221828109086119" flag="0"/>
			<psa30 value="0.000265415967921903" flag="0"/>
		</comp>
	</station>
	<station code="CEY" name="CEY" netid="SL" source="Seismic Network of the Republic of Slovenia (SNRS)" insttype="" lat="45.7381" lon="14.4221" esm:processing="manual (Paolucci et al 2011)" esm:quality="best">
		<comp name="--.HNE" depth="0.0">
			<acc value="0.0023351231348521" flag="0"/>
			<vel value="0.00121922214688957" flag="0"/>
			<psa03 value="0.00730528211617711" flag="0"/>
			<psa10 value="0.00181587474591357" flag="0"/>
			<psa30 value="0.000152491859649902" flag="0"/>
		</comp>
		<comp name="--.HNN" depth="0.0">
			<acc value="0.00212151939108428" flag="0"/>
			<vel value="0.00158004240375038" flag="0"/>
			<psa03 value="0.00665307159271338" flag="0"/>
			<psa10 value="0.00176245163658311" flag="0"/>
			<psa30 value="0.000153849150084567" flag="0"/>
		</comp>
		<comp name="--.HNZ" depth="0.0">
			<acc value="0.00228012343748134" flag="0"/>
			<vel value="0.00134982395822597" flag="0"/>
			<psa03 value="0.00877242813553876" flag="0"/>
			<psa10 value="0.00182479447742675" flag="0"/>
			<psa30 value="0.000129142318065503" flag="0"/>
		</comp>
	</station>
	<station code="CRES" name="CRES" netid="SL" source="Seismic Network of the Republic of Slovenia (SNRS)" insttype="" lat="45.826" lon="15.4569" esm:processing="manual (Paolucci et al 2011)" esm:quality="best">
		<comp name="--.HNE" depth="0.0">
			<acc value="0.0289401246059534" flag="0"/>
			<vel value="0.0120276673519078" flag="0"/>
			<psa03 value="0.0660325566245918" flag="0"/>
			<psa10 value="0.0101190619006703" flag="0"/>
			<psa30 value="0.00108645572236" flag="0"/>
		</comp>
		<comp name="--.HNN" depth="0.0">
			<acc value="0.0252601644669153" flag="0"/>
			<vel value="0.0113119792854128" flag="0"/>
			<psa03 value="0.0987828980489896" flag="0"/>
			<psa10 value="0.00464854403699002" flag="0"/>
			<psa30 value="0.000965478958240974" flag="0"/>
		</comp>
		<comp name="--.HNZ" depth="0.0">
			<acc value="0.015544010244871" flag="0"/>
			<vel value="0.00657638977344085" flag="0"/>
			<psa03 value="0.0328750554152469" flag="0"/>
			<psa10 value="0.00498924379414974" flag="0"/>
			<psa30 value="0.000647605192333559" flag="0"/>
		</comp>
	</station>
	<station code="CRNS" name="CRNS" netid="SL" source="Seismic Network of the Republic of Slovenia (SNRS)" insttype="" lat="46.0807" lon="14.2613" esm:processing="manual (Paolucci et al 2011)" esm:quality="good">
		<comp name="--.HNE" depth="0.0">
			<acc value="0.0128993876674084" flag="0"/>
			<vel value="0.00466469288636307" flag="0"/>
			<psa03 value="0.0195227698501898" flag="0"/>
			<psa10 value="0.00325193136199308" flag="0"/>
			<psa30 value="0.00036551155709682" flag="0"/>
		</comp>
		<comp name="--.HNN" depth="0.0">
			<acc value="0.00713435429416469" flag="0"/>
			<vel value="0.00334853384990899" flag="0"/>
			<psa03 value="0.0178426793857753" flag="0"/>
			<psa10 value="0.0021422330843033" flag="0"/>
			<psa30 value="0.000272294444420591" flag="0"/>
		</comp>
		<comp name="--.HNZ" depth="0.0">
			<acc value="0.00384681962957382" flag="0"/>
			<vel value="0.00175726821569504" flag="0"/>
			<psa03 value="0.00950894111859831" flag="0"/>
			<psa10 value="0.00128405517954133" flag="0"/>
			<psa30 value="0.000421498260732834" flag="0"/>
		</comp>
	</station>
	<station code="DOBS" name="DOBS" netid="SL" source="Seismic Network of the Republic of Slovenia (SNRS)" insttype="" lat="46.1495" lon="15.4695" esm:processing="manual (Paolucci et al 2011)" esm:quality="best">
		<comp name="--.HNE" depth="0.0">
			<acc value="0.0387482199722974" flag="0"/>
			<vel value="0.0119245558896775" flag="0"/>
			<psa03 value="0.0303879505526092" flag="0"/>
			<psa10 value="0.0189204215100597" flag="0"/>
			<psa30 value="0.00157349402792509" flag="0"/>
		</comp>
		<comp name="--.HNN" depth="0.0">
			<acc value="0.0386889559036308" flag="0"/>
			<vel value="0.0114907892353988" flag="0"/>
			<psa03 value="0.0507206256173456" flag="0"/>
			<psa10 value="0.00946789688921192" flag="0"/>
			<psa30 value="0.00105748151129496" flag="0"/>
		</comp>
		<comp name="--.HNZ" depth="0.0">
			<acc value="0.0214458857587233" flag="0"/>
			<vel value="0.00670755325723661" flag="0"/>
			<psa03 value="0.0184468183653453" flag="0"/>
			<psa10 value="0.00493452626313026" flag="0"/>
			<psa30 value="0.000733509008039245" flag="0"/>
		</comp>
	</station>
	<station code="GBAS" name="GBAS" netid="SL" source="Seismic Network of the Republic of Slovenia (SNRS)" insttype="" lat="45.9348" lon="14.4434" esm:processing="manual (Paolucci et al 2011)" esm:quality="best">
		<comp name="--.HNE" depth="0.0">
			<acc value="0.00274208377424374" flag="0"/>
			<vel value="0.0011506279947604" flag="0"/>
			<psa03 value="0.0067679418325144" flag="0"/>
			<psa10 value="0.00154328805557212" flag="0"/>
			<psa30 value="0.000406620478277763" flag="0"/>
		</comp>
		<comp name="--.HNN" depth="0.0">
			<acc value="0.00251568172999248" flag="0"/>
			<vel value="0.0011343273433706" flag="0"/>
			<psa03 value="0.00497720992406392" flag="0"/>
			<psa10 value="0.00120610099202148" flag="0"/>
			<psa30 value="0.000359344716282214" flag="0"/>
		</comp>
		<comp name="--.HNZ" depth="0.0">
			<acc value="0.00191640359341488" flag="0"/>
			<vel value="0.00133369677089466" flag="0"/>
			<psa03 value="0.00722612127319538" flag="0"/>
			<psa10 value="0.00145607216075962" flag="0"/>
			<psa30 value="0.000699042453965186" flag="0"/>
		</comp>
	</station>
	<station code="GCIS" name="GCIS" netid="SL" source="Seismic Network of the Republic of Slovenia (SNRS)" insttype="" lat="45.8672" lon="15.6275" esm:processing="manual (Paolucci et al 2011)" esm:quality="best">
		<comp name="--.HNE" depth="0.0">
			<acc value="0.0298840732495701" flag="0"/>
			<vel value="0.0122013897984782" flag="0"/>
			<psa03 value="0.0513246552146314" flag="0"/>
			<psa10 value="0.00847856635089443" flag="0"/>
			<psa30 value="0.00104890896423774" flag="0"/>
		</comp>
		<comp name="--.HNN" depth="0.0">
			<acc value="0.0224423209598443" flag="0"/>
			<vel value="0.00805848537635305" flag="0"/>
			<psa03 value="0.0319743785623405" flag="0"/>
			<psa10 value="0.00529721747716622" flag="0"/>
			<psa30 value="0.000841486265166764" flag="0"/>
		</comp>
		<comp name="--.HNZ" depth="0.0">
			<acc value="0.0238228797522148" flag="0"/>
			<vel value="0.0126271626572047" flag="0"/>
			<psa03 value="0.0589181269950759" flag="0"/>
			<psa10 value="0.0118196195542909" flag="0"/>
			<psa30 value="0.00100697951995032" flag="0"/>
		</comp>
	</station>
	<station code="GOLS" name="GOLS" netid="SL" source="Seismic Network of the Republic of Slovenia (SNRS)" insttype="" lat="46.0108" lon="15.6245" esm:processing="manual (Paolucci et al 2011)" esm:quality="best">
		<comp name="--.HNE" depth="0.0">
			<acc value="0.0566524550262371" flag="0"/>
			<vel value="0.0239340220574783" flag="0"/>
			<psa03 value="0.128700369517928" flag="0"/>
			<psa10 value="0.0166250857053309" flag="0"/>
			<psa30 value="0.00074886174383065" flag="0"/>
		</comp>
		<comp name="--.HNN" depth="0.0">
			<acc value="0.0781791564145257" flag="0"/>
			<vel value="0.0243707959162596" flag="0"/>
			<psa03 value="0.112779866945874" flag="0"/>
			<psa10 value="0.0101284609608416" flag="0"/>
			<psa30 value="0.00106876298780206" flag="0"/>
		</comp>
		<comp name="--.HNZ" depth="0.0">
			<acc value="0.0290098626060411" flag="0"/>
			<vel value="0.0120586691888301" flag="0"/>
			<psa03 value="0.0958835080616828" flag="0"/>
			<psa10 value="0.0180841048582141" flag="0"/>
			<psa30 value="0.000682861329962551" flag="0"/>
		</comp>
	</station>
	<station code="GORS" name="GORS" netid="SL" source="Seismic Network of the Republic of Slovenia (SNRS)" insttype="" lat="46.3174" lon="13.9999" esm:processing="manual (Paolucci et al 2011)" esm:quality="best">
		<comp name="--.HNE" depth="0.0">
			<acc value="0.00139084780953724" flag="0"/>
			<vel value="0.000648633297763876" flag="0"/>
			<psa03 value="0.00442061869064797" flag="0"/>
			<psa10 value="0.0009411082617734" flag="0"/>
			<psa30 value="0.000128903890812831" flag="0"/>
		</comp>
		<comp name="--.HNN" depth="0.0">
			<acc value="0.000996599185221946" flag="0"/>
			<vel value="0.000891808688884265" flag="0"/>
			<psa03 value="0.00299064831108634" flag="0"/>
			<psa10 value="0.00122779465568203" flag="0"/>
			<psa30 value="0.00017519863729981" flag="0"/>
		</comp>
		<comp name="--.HNZ" depth="0.0">
			<acc value="0.00110670663167518" flag="0"/>
			<vel value="0.000627421845766664" flag="0"/>
			<psa03 value="0.00291128921278961" flag="0"/>
			<psa10 value="0.000866933738699041" flag="0"/>
			<psa30 value="0.000105470600190698" flag="0"/>
		</comp>
	</station>
	<station code="GROS" name="GROS" netid="SL" source="Seismic Network of the Republic of Slovenia (SNRS)" insttype="" lat="46.461" lon="15.5018" esm:processing="manual (Paolucci et al 2011)" esm:quality="best">
		<comp name="--.HNE" depth="0.0">
			<acc value="0.0435682462843443" flag="0"/>
			<vel value="0.0090848331635897" flag="0"/>
			<psa03 value="0.0363555151452875" flag="0"/>
			<psa10 value="0.00429382163211572" flag="0"/>
			<psa30 value="0.000238692504915253" flag="0"/>
		</comp>
		<comp name="--.HNN" depth="0.0">
			<acc value="0.0516735106889189" flag="0"/>
			<vel value="0.0106227212333688" flag="0"/>
			<psa03 value="0.0242589065126778" flag="0"/>
			<psa10 value="0.00510958645377048" flag="0"/>
			<psa30 value="0.000332224820763987" flag="0"/>
		</comp>
		<comp name="--.HNZ" depth="0.0">
			<acc value="0.0232582074045622" flag="0"/>
			<vel value="0.00758362577144843" flag="0"/>
			<psa03 value="0.0226719550307621" flag="0"/>
			<psa10 value="0.00470766060942431" flag="0"/>
			<psa30 value="0.000305732024079645" flag="0"/>
		</comp>
	</station>
	<station code="KNDS" name="KNDS" netid="SL" source="Seismic Network of the Republic of Slovenia (SNRS)" insttype="" lat="45.5278" lon="14.3807" esm:processing="manual (Paolucci et al 2011)" esm:quality="best">
		<comp name="--.HNE" depth="0.0">
			<acc value="0.00330650725179693" flag="0"/>
			<vel value="0.0024063951395374" flag="0"/>
			<psa03 value="0.0109015476948661" flag="0"/>
			<psa10 value="0.00347777296351581" flag="0"/>
			<psa30 value="0.000532450688911674" flag="0"/>
		</comp>
		<comp name="--.HNN" depth="0.0">
			<acc value="0.00383179342080623" flag="0"/>
			<vel value="0.00302947917493548" flag="0"/>
			<psa03 value="0.0121713531674134" flag="0"/>
			<psa10 value="0.00294290128089185" flag="0"/>
			<psa30 value="0.000846427582089929" flag="0"/>
		</comp>
		<comp name="--.HNZ" depth="0.0">
			<acc value="0.002105862150783" flag="0"/>
			<vel value="0.00178148562962584" flag="0"/>
			<psa03 value="0.00623673346548379" flag="0"/>
			<psa10 value="0.00223807677722758" flag="0"/>
			<psa30 value="0.000443435573347132" flag="0"/>
		</comp>
	</station>
	<station code="KOGS" name="KOGS" netid="SL" source="Seismic Network of the Republic of Slovenia (SNRS)" insttype="" lat="46.4481" lon="16.2504" esm:processing="manual (Paolucci et al 2011)" esm:quality="best">
		<comp name="--.HNE" depth="0.0">
			<acc value="0.32917600143868" flag="0"/>
			<vel value="0.0976050493031268" flag="0"/>
			<psa03 value="0.385542331954016" flag="0"/>
			<psa10 value="0.0242792677573323" flag="0"/>
			<psa30 value="0.00184123343101195" flag="0"/>
		</comp>
		<comp name="--.HNN" depth="0.0">
			<acc value="0.333901067434493" flag="0"/>
			<vel value="0.0737229880882703" flag="0"/>
			<psa03 value="0.362966628090997" flag="0"/>
			<psa10 value="0.0247009813187691" flag="0"/>
			<psa30 value="0.00209542902022216" flag="0"/>
		</comp>
		<comp name="--.HNZ" depth="0.0">
			<acc value="0.20406038372223" flag="0"/>
			<vel value="0.0505866334242701" flag="0"/>
			<psa03 value="0.158755891798734" flag="0"/>
			<psa10 value="0.019332375049985" flag="0"/>
			<psa30 value="0.00293012181452354" flag="0"/>
		</comp>
	</station>
	<station code="LJU" name="LJU" netid="SL" source="Seismic Network of the Republic of Slovenia (SNRS)" insttype="" lat="46.0438" lon="14.5278" esm:processing="manual (Paolucci et al 2011)" esm:quality="best">
		<comp name="--.HNE" depth="0.0">
			<acc value="0.00528944937625755" flag="0"/>
			<vel value="0.00299866719063466" flag="0"/>
			<psa03 value="0.0151185353829567" flag="0"/>
			<psa10 value="0.00433951231513915" flag="0"/>
			<psa30 value="0.000527607555577044" flag="0"/>
		</comp>
		<comp name="--.HNN" depth="0.0">
			<acc value="0.00685474391095801" flag="0"/>
			<vel value="0.00363608449747351" flag="0"/>
			<psa03 value="0.015054360558746" flag="0"/>
			<psa10 value="0.00262471403067261" flag="0"/>
			<psa30 value="0.000465074402648837" flag="0"/>
		</comp>
		<comp name="--.HNZ" depth="0.0">
			<acc value="0.00440408655400616" flag="0"/>
			<vel value="0.00193593777592527" flag="0"/>
			<psa03 value="0.00663824183428" flag="0"/>
			<psa10 value="0.00298988158060632" flag="0"/>
			<psa30 value="0.000408228006643741" flag="0"/>
		</comp>
	</station>
	<station code="MOZS" name="MOZS" netid="SL" source="Seismic Network of the Republic of Slovenia (SNRS)" insttype="" lat="46.2941" lon="14.4433" esm:processing="manual (Paolucci et al 2011)" esm:quality="best">
		<comp name="--.HNE" depth="0.0">
			<acc value="0.00594483111840917" flag="0"/>
			<vel value="0.00297673489304939" flag="0"/>
			<psa03 value="0.0148590064716533" flag="0"/>
			<psa10 value="0.00192309341112549" flag="0"/>
			<psa30 value="0.000236467852334555" flag="0"/>
		</comp>
		<comp name="--.HNN" depth="0.0">
			<acc value="0.00360936553144838" flag="0"/>
			<vel value="0.00241866997224811" flag="0"/>
			<psa03 value="0.00963684802932231" flag="0"/>
			<psa10 value="0.00407305810137847" flag="0"/>
			<psa30 value="0.000437535703343136" flag="0"/>
		</comp>
		<comp name="--.HNZ" depth="0.0">
			<acc value="0.00264660063147074" flag="0"/>
			<vel value="0.00146154784475805" flag="0"/>
			<psa03 value="0.0052301521359715" flag="0"/>
			<psa10 value="0.00152304233939192" flag="0"/>
			<psa30 value="0.000320164803096934" flag="0"/>
		</comp>
	</station>
	<station code="PDKS" name="PDKS" netid="SL" source="Seismic Network of the Republic of Slovenia (SNRS)" insttype="" lat="46.0612" lon="14.9977" esm:processing="manual (Paolucci et al 2011)" esm:quality="best">
		<comp name="--.HNE" depth="0.0">
			<acc value="0.00998726710960428" flag="0"/>
			<vel value="0.0051750491200353" flag="0"/>
			<psa03 value="0.0156979383488757" flag="0"/>
			<psa10 value="0.0067385879608961" flag="0"/>
			<psa30 value="0.000871620657255503" flag="0"/>
		</comp>
		<comp name="--.HNN" depth="0.0">
			<acc value="0.010784883796742" flag="0"/>
			<vel value="0.00458539776739538" flag="0"/>
			<psa03 value="0.0160857518000099" flag="0"/>
			<psa10 value="0.00878964289568944" flag="0"/>
			<psa30 value="0.00151323295258821" flag="0"/>
		</comp>
		<comp name="--.HNZ" depth="0.0">
			<acc value="0.0111857590911073" flag="0"/>
			<vel value="0.00480027288939313" flag="0"/>
			<psa03 value="0.0140387372891161" flag="0"/>
			<psa10 value="0.00490277337842338" flag="0"/>
			<psa30 value="0.00112396456130108" flag="0"/>
		</comp>
	</station>
	<station code="PERS" name="PERS" netid="SL" source="Seismic Network of the Republic of Slovenia (SNRS)" insttype="" lat="46.6365" lon="15.1139" esm:processing="manual (Paolucci et al 2011)" esm:quality="best">
		<comp name="--.HNE" depth="0.0">
			<acc value="0.0301808206527396" flag="0"/>
			<vel value="0.0104200725743323" flag="0"/>
			<psa03 value="0.0798388253886505" flag="0"/>
			<psa10 value="0.00362020810226824" flag="0"/>
			<psa30 value="0.00031305618114409" flag="0"/>
		</comp>
		<comp name="--.HNN" depth="0.0">
			<acc value="0.03025257578206" flag="0"/>
			<vel value="0.0129851877765361" flag="0"/>
			<psa03 value="0.0878685396097285" flag="0"/>
			<psa10 value="0.00695081827011225" flag="0"/>
			<psa30 value="0.000681807405979419" flag="0"/>
		</comp>
		<comp name="--.HNZ" depth="0.0">
			<acc value="0.0192910469738317" flag="0"/>
			<vel value="0.00655544471249617" flag="0"/>
			<psa03 value="0.0559510450236176" flag="0"/>
			<psa10 value="0.00287208416772931" flag="0"/>
			<psa30 value="0.000462423081174725" flag="0"/>
		</comp>
	</station>
	<station code="VISS" name="VISS" netid="SL" source="Seismic Network of the Republic of Slovenia (SNRS)" insttype="" lat="45.8033" lon="14.8393" esm:processing="manual (Paolucci et al 2011)" esm:quality="best">
		<comp name="--.HNE" depth="0.0">
			<acc value="0.00637370325526641" flag="0"/>
			<vel value="0.00263855457587742" flag="0"/>
			<psa03 value="0.0211213965846793" flag="0"/>
			<psa10 value="0.00211369134980337" flag="0"/>
			<psa30 value="0.000127545246121503" flag="0"/>
		</comp>
		<comp name="--.HNN" depth="0.0">
			<acc value="0.00475197539870533" flag="0"/>
			<vel value="0.00238686965665669" flag="0"/>
			<psa03 value="0.0149086464788172" flag="0"/>
			<psa10 value="0.00420811111045171" flag="0"/>
			<psa30 value="0.000321064680417928" flag="0"/>
		</comp>
		<comp name="--.HNZ" depth="0.0">
			<acc value="0.00449301421859972" flag="0"/>
			<vel value="0.0022007445468735" flag="0"/>
			<psa03 value="0.0176304765262793" flag="0"/>
			<psa10 value="0.00273684481816045" flag="0"/>
			<psa30 value="0.000159801784000528" flag="0"/>
		</comp>
	</station>
	<station code="VNDS" name="VNDS" netid="SL" source="Seismic Network of the Republic of Slovenia (SNRS)" insttype="" lat="46.1016" lon="14.7014" esm:processing="manual (Paolucci et al 2011)" esm:quality="best">
		<comp name="--.HNE" depth="0.0">
			<acc value="0.00706639759667291" flag="0"/>
			<vel value="0.00401857098957114" flag="0"/>
			<psa03 value="0.0244126354464473" flag="0"/>
			<psa10 value="0.00520511465703749" flag="0"/>
			<psa30 value="0.000905705831901748" flag="0"/>
		</comp>
		<comp name="--.HNN" depth="0.0">
			<acc value="0.00914064616028701" flag="0"/>
			<vel value="0.00328989921678927" flag="0"/>
			<psa03 value="0.0239714655961287" flag="0"/>
			<psa10 value="0.00337484575447021" flag="0"/>
			<psa30 value="0.000613086395213836" flag="0"/>
		</comp>
		<comp name="--.HNZ" depth="0.0">
			<acc value="0.00511151502883038" flag="0"/>
			<vel value="0.00295216679689258" flag="0"/>
			<psa03 value="0.0165555446402438" flag="0"/>
			<psa10 value="0.00327261304455355" flag="0"/>
			<psa30 value="0.000854874599996216" flag="0"/>
		</comp>
	</station>
	<station code="ZAVS" name="ZAVS" netid="SL" source="Seismic Network of the Republic of Slovenia (SNRS)" insttype="" lat="46.4342" lon="15.0246" esm:processing="manual (Paolucci et al 2011)" esm:quality="best">
		<comp name="--.HNE" depth="0.0">
			<acc value="0.0433487820973011" flag="0"/>
			<vel value="0.0102967040239695" flag="0"/>
			<psa03 value="0.0484037690122288" flag="0"/>
			<psa10 value="0.00780335146498252" flag="0"/>
			<psa30 value="0.000334378479058172" flag="0"/>
		</comp>
		<comp name="--.HNN" depth="0.0">
