<?xml version="1.0" encoding="UTF-8" standalone="yes"?>
<!DOCTYPE earthquake SYSTEM "stationlist.dtd">
<stationlist created="" xmlns="ch.ethz.sed.shakemap.usgs.xml">
  <station code="BEHE" name="BEHE" netid="HU" insttype="" lat="46.4706" lon="16.7757">
    <comp name="--.HHE">
      <acc value="0.0001989613" flag="0"/>
      <vel value="0.0000289458" flag="0"/>
      <psa03 value="0.0001252046" flag="0"/>
      <psa10 value="0.0000137396" flag="0"/>
      <psa30 value="0.0000031400" flag="0"/>
    </comp>
    <comp name="--.HHN">
      <acc value="0.4600469884" flag="0"/>
      <vel value="0.2253851314" flag="0"/>
      <psa03 value="1.4857535510" flag="0"/>
      <psa10 value="0.2883607628" flag="0"/>
      <psa30 value="0.0279796424" flag="0"/>
    </comp>
    <comp name="--.HHZ">
      <acc value="0.5830594976" flag="0"/>
      <vel value="0.1874869679" flag="0"/>
      <psa03 value="1.1361517528" flag="0"/>
      <psa10 value="0.1255727142" flag="0"/>
      <psa30 value="0.0155068303" flag="0"/>
    </comp>
  </station>
  <station code="KOVH" name="KOVH" netid="HU" insttype="" lat="46.0883" lon="18.0999">
    <comp name="--.HHN">
      <acc value="0.0325826657" flag="0"/>
      <vel value="0.0215970790" flag="0"/>
      <psa03 value="0.0750584894" flag="0"/>
      <psa10 value="0.0098998229" flag="0"/>
      <psa30 value="0.0017912974" flag="0"/>
    </comp>
    <comp name="--.HHE">
      <acc value="0.0349700002" flag="0"/>
      <vel value="0.0109362777" flag="0"/>
      <psa03 value="0.0791905966" flag="0"/>
      <psa10 value="0.0062767169" flag="0"/>
      <psa30 value="0.0003916890" flag="0"/>
    </comp>
    <comp name="--.HHZ">
      <acc value="0.0233230803" flag="0"/>
      <vel value="0.0123304142" flag="0"/>
      <psa03 value="0.0343399866" flag="0"/>
      <psa10 value="0.0080293271" flag="0"/>
      <psa30 value="0.0006024946" flag="0"/>
    </comp>
  </station>
  <station code="MPLH" name="MPLH" netid="HU" insttype="" lat="47.1712" lon="17.5348">
    <comp name="--.HHE">
      <acc value="0.0142953346" flag="0"/>
      <vel value="0.0081510614" flag="0"/>
      <psa03 value="0.0562052231" flag="0"/>
      <psa10 value="0.0121138932" flag="0"/>
      <psa30 value="0.0008500611" flag="0"/>
    </comp>
    <comp name="--.HHN">
      <acc value="0.0170956673" flag="0"/>
      <vel value="0.0106081385" flag="0"/>
      <psa03 value="0.0568286012" flag="0"/>
      <psa10 value="0.0162269031" flag="0"/>
      <psa30 value="0.0008997177" flag="0"/>
    </comp>
    <comp name="--.HHZ">
      <acc value="0.0106609913" flag="0"/>
      <vel value="0.0053260284" flag="0"/>
      <psa03 value="0.0335130467" flag="0"/>
      <psa10 value="0.0066970190" flag="0"/>
      <psa30 value="0.0005744401" flag="0"/>
    </comp>
  </station>
  <station code="TIH" name="TIH" netid="HU" insttype="" lat="46.9001" lon="17.8878">
    <comp name="--.HHE">
      <acc value="0.0378234520" flag="0"/>
      <vel value="0.0292318435" flag="0"/>
      <psa03 value="0.1444874762" flag="0"/>
      <psa10 value="0.0640795442" flag="0"/>
      <psa30 value="0.0020047405" flag="0"/>
    </comp>
    <comp name="--.HHN">
      <acc value="0.0470612135" flag="0"/>
      <vel value="0.0281259666" flag="0"/>
      <psa03 value="0.1411613770" flag="0"/>
      <psa10 value="0.0451256158" flag="0"/>
      <psa30 value="0.0018410592" flag="0"/>
    </comp>
    <comp name="--.HHZ">
      <acc value="0.0311471862" flag="0"/>
      <vel value="0.0165479314" flag="0"/>
      <psa03 value="0.1017351984" flag="0"/>
      <psa10 value="0.0122198107" flag="0"/>
      <psa30 value="0.0007944653" flag="0"/>
    </comp>
  </station>
</stationlist>
