<?xml version="1.0" encoding="UTF-8" standalone="yes"?>
<!DOCTYPE earthquake SYSTEM "stationlist.dtd">
<stationlist created="" xmlns="ch.ethz.sed.shakemap.usgs.xml">
  <station code="AT02" name="AT02" netid="Z3" source="GFZ" insttype="CMG-3ESP/60" lat="38.0473" lon="23.8638">
    <comp name="--.HHE">
      <acc value="0.0157686949" flag="0"/>
      <vel value="0.0136003361" flag="0"/>
      <psa03 value="0.0563603455" flag="0"/>
      <psa10 value="0.0172202392" flag="0"/>
      <psa30 value="0.0030003109" flag="0"/>
    </comp>
    <comp name="--.HHN">
      <acc value="0.0119792235" flag="0"/>
      <vel value="0.0069104087" flag="0"/>
      <psa03 value="0.0412741546" flag="0"/>
      <psa10 value="0.0114414474" flag="0"/>
      <psa30 value="0.0015736523" flag="0"/>
    </comp>
    <comp name="--.HHZ">
      <acc value="0.0098490608" flag="0"/>
      <vel value="0.0066211375" flag="0"/>
      <psa03 value="0.0283500322" flag="0"/>
      <psa10 value="0.0074772990" flag="0"/>
      <psa30 value="0.0015599115" flag="0"/>
    </comp>
  </station>
  <station code="AT03" name="AT03" netid="Z3" source="GFZ" insttype="CMG-3ESP/60" lat="38.0268" lon="23.4677">
    <comp name="--.HHE">
      <acc value="0.0135272038" flag="0"/>
      <vel value="0.0106253892" flag="0"/>
      <psa03 value="0.0640725637" flag="0"/>
      <psa10 value="0.0089758617" flag="0"/>
      <psa30 value="0.0028933885" flag="0"/>
    </comp>
    <comp name="--.HHN">
      <acc value="0.0129939972" flag="0"/>
      <vel value="0.0105096639" flag="0"/>
      <psa03 value="0.0413815839" flag="0"/>
      <psa10 value="0.0093634786" flag="0"/>
      <psa30 value="0.0015025464" flag="0"/>
    </comp>
    <comp name="--.HHZ">
      <acc value="0.0095624197" flag="0"/>
      <vel value="0.0051079617" flag="0"/>
      <psa03 value="0.0297505105" flag="0"/>
      <psa10 value="0.0053449018" flag="0"/>
      <psa30 value="0.0014187891" flag="0"/>
    </comp>
  </station>
</stationlist>
