<?xml version="1.0" encoding="UTF-8" standalone="yes"?>
<!DOCTYPE earthquake SYSTEM "stationlist.dtd">
<stationlist created="" xmlns="ch.ethz.sed.shakemap.usgs.xml">
  <station code="APE" name="APE" netid="GE" insttype="STS-2/N" lat="37.0727" lon="25.523">
    <comp name="--.HHE">
      <acc value="0.2043928692" flag="0"/>
      <vel value="0.0464188231" flag="0"/>
      <psa03 value="0.1671468136" flag="0"/>
      <psa10 value="0.0235426456" flag="0"/>
      <psa30 value="0.0053079291" flag="0"/>
    </comp>
    <comp name="--.HHZ">
      <acc value="0.1341959579" flag="0"/>
      <vel value="0.0330158268" flag="0"/>
      <psa03 value="0.1037530145" flag="0"/>
      <psa10 value="0.0249698844" flag="0"/>
      <psa30 value="0.0060194276" flag="0"/>
    </comp>
    <comp name="--.HHN">
      <acc value="0.2779337276" flag="0"/>
      <vel value="0.0466143063" flag="0"/>
      <psa03 value="0.1901343168" flag="0"/>
      <psa10 value="0.0258137085" flag="0"/>
      <psa30 value="0.0051817474" flag="0"/>
    </comp>
  </station>
</stationlist>
