<?xml version="1.0" encoding="UTF-8" standalone="yes"?>
<!DOCTYPE earthquake SYSTEM "stationlist.dtd">
<stationlist created="" xmlns="ch.ethz.sed.shakemap.usgs.xml">
  <station code="TAHT" name="TAHT" netid="KO" insttype="CMG-3ESPC" lat="36.3755" lon="36.1855">
    <comp name="--.HHN">
      <acc value="1.7273078277" flag="0"/>
      <vel value="0.2243125234" flag="0"/>
      <psa03 value="0.6796992478" flag="0"/>
      <psa10 value="0.0608922709" flag="0"/>
      <psa30 value="0.0038089644" flag="0"/>
    </comp>
    <comp name="--.HHZ">
      <acc value="0.6182576917" flag="0"/>
      <vel value="0.0883453831" flag="0"/>
      <psa03 value="0.3102090495" flag="0"/>
      <psa10 value="0.0463198345" flag="0"/>
      <psa30 value="0.0022866626" flag="0"/>
    </comp>
    <comp name="--.HHE">
      <acc value="1.2783941198" flag="0"/>
      <vel value="0.1956914114" flag="0"/>
      <psa03 value="0.9869137579" flag="0"/>
      <psa10 value="0.0398708901" flag="0"/>
      <psa30 value="0.0032675883" flag="0"/>
    </comp>
  </station>
</stationlist>
