<?xml version="1.0" encoding="UTF-8" standalone="yes"?>
<!DOCTYPE earthquake SYSTEM "stationlist.dtd">
<stationlist created="" xmlns="ch.ethz.sed.shakemap.usgs.xml">
  <station code="URFA" name="URFA" netid="KO" insttype="CMG-3ESP" lat="37.4409" lon="38.8213">
    <comp name="--.HHE">
      <acc value="0.0549586531" flag="0"/>
      <vel value="0.0150782052" flag="0"/>
      <psa03 value="0.0595724217" flag="0"/>
      <psa10 value="0.0082273608" flag="0"/>
      <psa30 value="0.0039941401" flag="0"/>
    </comp>
    <comp name="--.HHZ">
      <acc value="0.0264365572" flag="0"/>
      <vel value="0.0080216736" flag="0"/>
      <psa03 value="0.0416458560" flag="0"/>
      <psa10 value="0.0088492217" flag="0"/>
      <psa30 value="0.0016665721" flag="0"/>
    </comp>
    <comp name="--.HHN">
      <acc value="0.0393101282" flag="0"/>
      <vel value="0.0107099105" flag="0"/>
      <psa03 value="0.0745404702" flag="0"/>
      <psa10 value="0.0134983669" flag="0"/>
      <psa30 value="0.0033601154" flag="0"/>
    </comp>
  </station>
</stationlist>
