<?xml version="1.0" encoding="UTF-8" standalone="yes"?>
<!DOCTYPE earthquake SYSTEM "stationlist.dtd">
<stationlist created="" xmlns="ch.ethz.sed.shakemap.usgs.xml">
  <station code="AKS" name="AKS" netid="KO" insttype="CMG-5T" lat="38.8785" lon="27.8129">
    <comp name="--.HNN">
      <acc value="0.0585801342" flag="0"/>
      <vel value="0.0205557949" flag="0"/>
      <psa03 value="0.1445294393" flag="0"/>
      <psa10 value="0.0113578604" flag="0"/>
      <psa30 value="0.0006657721" flag="0"/>
    </comp>
    <comp name="--.HNZ">
      <acc value="0.0294372798" flag="0"/>
      <vel value="0.0083193621" flag="0"/>
      <psa03 value="0.0507534220" flag="0"/>
      <psa10 value="0.0061588330" flag="0"/>
      <psa30 value="0.0006371603" flag="0"/>
    </comp>
    <comp name="--.HNE">
      <acc value="0.0454495959" flag="0"/>
      <vel value="0.0139395319" flag="0"/>
      <psa03 value="0.0624939815" flag="0"/>
      <psa10 value="0.0091925867" flag="0"/>
      <psa30 value="0.0006712025" flag="0"/>
    </comp>
  </station>
  <station code="BIGA" name="BIGA" netid="KO" insttype="CMG-5T" lat="40.2813" lon="27.1505">
    <comp name="--.HNN">
      <acc value="0.0550456918" flag="0"/>
      <vel value="0.0196806112" flag="0"/>
      <psa03 value="0.1173828302" flag="0"/>
      <psa10 value="0.0071800403" flag="0"/>
      <psa30 value="0.0006745743" flag="0"/>
    </comp>
    <comp name="--.HNE">
      <acc value="0.0423336471" flag="0"/>
      <vel value="0.0155691826" flag="0"/>
      <psa03 value="0.0618850166" flag="0"/>
      <psa10 value="0.0064483552" flag="0"/>
      <psa30 value="0.0004925586" flag="0"/>
    </comp>
    <comp name="--.HNZ">
      <acc value="0.0339723154" flag="0"/>
      <vel value="0.0056936296" flag="0"/>
      <psa03 value="0.0227539396" flag="0"/>
      <psa10 value="0.0025033563" flag="0"/>
      <psa30 value="0.0004683710" flag="0"/>
    </comp>
  </station>
  <station code="EDC" name="EDC" netid="KO" insttype="120s," lat="40.3465" lon="27.8618">
    <comp name="--.HHN">
      <acc value="0.0608296178" flag="0"/>
      <vel value="0.0317234781" flag="0"/>
      <psa03 value="0.1744915109" flag="0"/>
      <psa10 value="0.0142341348" flag="0"/>
      <psa30 value="0.0012046627" flag="0"/>
    </comp>
    <comp name="--.HHZ">
      <acc value="0.0231854165" flag="0"/>
      <vel value="0.0063225263" flag="0"/>
      <psa03 value="0.0215285641" flag="0"/>
      <psa10 value="0.0036830043" flag="0"/>
      <psa30 value="0.0002680488" flag="0"/>
    </comp>
    <comp name="--.HHE">
      <acc value="0.0449977832" flag="0"/>
      <vel value="0.0144750228" flag="0"/>
      <psa03 value="0.0658085289" flag="0"/>
      <psa10 value="0.0109108594" flag="0"/>
      <psa30 value="0.0007627331" flag="0"/>
    </comp>
  </station>
  <station code="GEDZ" name="GEDZ" netid="KO" insttype="30s," lat="39.0445" lon="29.4105">
    <comp name="--.HHE">
      <acc value="0.0658578302" flag="0"/>
      <vel value="0.0321192208" flag="0"/>
      <psa03 value="0.2365613890" flag="0"/>
      <psa10 value="0.0390977464" flag="0"/>
      <psa30 value="0.0010548323" flag="0"/>
    </comp>
    <comp name="--.HHN">
      <acc value="0.0925535020" flag="0"/>
      <vel value="0.0437596012" flag="0"/>
      <psa03 value="0.3419495516" flag="0"/>
      <psa10 value="0.0344903826" flag="0"/>
      <psa30 value="0.0012632666" flag="0"/>
    </comp>
    <comp name="--.HHZ">
      <acc value="0.0333520838" flag="0"/>
      <vel value="0.0218953447" flag="0"/>
      <psa03 value="0.1000365373" flag="0"/>
      <psa10 value="0.0099291187" flag="0"/>
      <psa30 value="0.0007905213" flag="0"/>
    </comp>
  </station>
  <station code="GONE" name="GONE" netid="KO" insttype="CMG-5T" lat="40.0466" lon="27.686">
    <comp name="--.HNE">
      <acc value="0.0406077383" flag="0"/>
      <vel value="0.0167230473" flag="0"/>
      <psa03 value="0.0722814713" flag="0"/>
      <psa10 value="0.0123541176" flag="0"/>
      <psa30 value="0.0010886224" flag="0"/>
    </comp>
    <comp name="--.HNN">
      <acc value="0.0544219871" flag="0"/>
      <vel value="0.0211835697" flag="0"/>
      <psa03 value="0.0553125443" flag="0"/>
      <psa10 value="0.0140039413" flag="0"/>
      <psa30 value="0.0013205017" flag="0"/>
    </comp>
    <comp name="--.HNZ">
      <acc value="0.0392685841" flag="0"/>
      <vel value="0.0100454742" flag="0"/>
      <psa03 value="0.0395506973" flag="0"/>
      <psa10 value="0.0074646894" flag="0"/>
      <psa30 value="0.0010761740" flag="0"/>
    </comp>
  </station>
  <station code="KRBG" name="KRBG" netid="KO" insttype="30s," lat="40.3932" lon="27.2977">
    <comp name="--.HHE">
      <acc value="0.0160027173" flag="0"/>
      <vel value="0.0067539273" flag="0"/>
      <psa03 value="0.0242963243" flag="0"/>
      <psa10 value="0.0070819420" flag="0"/>
      <psa30 value="0.0003924024" flag="0"/>
    </comp>
    <comp name="--.HHZ">
      <acc value="0.0097003335" flag="0"/>
      <vel value="0.0024935686" flag="0"/>
      <psa03 value="0.0152796351" flag="0"/>
      <psa10 value="0.0020686152" flag="0"/>
      <psa30 value="0.0002480710" flag="0"/>
    </comp>
    <comp name="--.HHN">
      <acc value="0.0186648087" flag="0"/>
      <vel value="0.0063042993" flag="0"/>
      <psa03 value="0.0297296240" flag="0"/>
      <psa10 value="0.0036328035" flag="0"/>
      <psa30 value="0.0003470084" flag="0"/>
    </comp>
  </station>
  <station code="MDNY" name="MDNY" netid="KO" insttype="30s," lat="40.371" lon="28.8847">
    <comp name="--.HHZ">
      <acc value="0.0527267984" flag="0"/>
      <vel value="0.0117873648" flag="0"/>
      <psa03 value="0.0516426312" flag="0"/>
      <psa10 value="0.0074317904" flag="0"/>
      <psa30 value="0.0005167783" flag="0"/>
    </comp>
    <comp name="--.HHN">
      <acc value="0.1328458394" flag="0"/>
      <vel value="0.0399586533" flag="0"/>
      <psa03 value="0.2643889025" flag="0"/>
      <psa10 value="0.0160834098" flag="0"/>
      <psa30 value="0.0006790707" flag="0"/>
    </comp>
  </station>
  <station code="ORLT" name="ORLT" netid="KO" insttype="CMG-5T" lat="40.0452" lon="28.8914">
    <comp name="--.HNE">
      <acc value="0.0674329630" flag="0"/>
      <vel value="0.0307810427" flag="0"/>
      <psa03 value="0.1451916479" flag="0"/>
      <psa10 value="0.0210363513" flag="0"/>
      <psa30 value="0.0010985389" flag="0"/>
    </comp>
    <comp name="--.HNN">
      <acc value="0.0807638879" flag="0"/>
      <vel value="0.0249053721" flag="0"/>
      <psa03 value="0.1245974742" flag="0"/>
      <psa10 value="0.0155322912" flag="0"/>
      <psa30 value="0.0014494242" flag="0"/>
    </comp>
    <comp name="--.HNZ">
      <acc value="0.0349309523" flag="0"/>
      <vel value="0.0132671497" flag="0"/>
      <psa03 value="0.0513485165" flag="0"/>
      <psa10 value="0.0078825360" flag="0"/>
      <psa30 value="0.0006771229" flag="0"/>
    </comp>
  </station>
  <station code="SHAP" name="SHAP" netid="KO" insttype="CMG-5T" lat="39.0231" lon="29.222">
    <comp name="--.HNE">
      <acc value="0.0716240051" flag="0"/>
      <vel value="0.0272659819" flag="0"/>
      <psa03 value="0.1835159140" flag="0"/>
      <psa10 value="0.0070613927" flag="0"/>
      <psa30 value="0.0006223175" flag="0"/>
    </comp>
    <comp name="--.HNN">
      <acc value="0.0576487931" flag="0"/>
      <vel value="0.0122851201" flag="0"/>
      <psa03 value="0.0956519200" flag="0"/>
      <psa10 value="0.0089929725" flag="0"/>
      <psa30 value="0.0003931283" flag="0"/>
    </comp>
    <comp name="--.HNZ">
      <acc value="0.0833597960" flag="0"/>
      <vel value="0.0256493506" flag="0"/>
      <psa03 value="0.0686693739" flag="0"/>
      <psa10 value="0.0070964569" flag="0"/>
      <psa30 value="0.0006047651" flag="0"/>
    </comp>
  </station>
  <station code="SMAA" name="SMAA" netid="KO" insttype="CMG-5T" lat="39.1005" lon="28.9805">
    <comp name="--.HNE">
      <acc value="0.0666473797" flag="0"/>
      <vel value="0.0279306793" flag="0"/>
      <psa03 value="0.1766700238" flag="0"/>
      <psa10 value="0.0217531379" flag="0"/>
      <psa30 value="0.0033591285" flag="0"/>
    </comp>
    <comp name="--.HNN">
      <acc value="0.0578331538" flag="0"/>
      <vel value="0.0299258542" flag="0"/>
      <psa03 value="0.1500880584" flag="0"/>
      <psa10 value="0.0336693857" flag="0"/>
      <psa30 value="0.0020156789" flag="0"/>
    </comp>
    <comp name="--.HNZ">
      <acc value="0.0926195802" flag="0"/>
      <vel value="0.0271852390" flag="0"/>
      <psa03 value="0.1432716440" flag="0"/>
      <psa10 value="0.0161988960" flag="0"/>
      <psa30 value="0.0008449001" flag="0"/>
    </comp>
  </station>
  <station code="TVSB" name="TVSB" netid="KO" insttype="120" lat="39.4497" lon="29.4615">
    <comp name="--.HHE">
      <acc value="0.0197805055" flag="0"/>
      <vel value="0.0079884301" flag="0"/>
      <psa03 value="0.0446095701" flag="0"/>
      <psa10 value="0.0042592452" flag="0"/>
      <psa30 value="0.0003000377" flag="0"/>
    </comp>
    <comp name="--.HHN">
      <acc value="0.0235645185" flag="0"/>
      <vel value="0.0102368818" flag="0"/>
      <psa03 value="0.0705744002" flag="0"/>
      <psa10 value="0.0054403714" flag="0"/>
      <psa30 value="0.0005027845" flag="0"/>
    </comp>
    <comp name="--.HHZ">
      <acc value="0.0138943834" flag="0"/>
      <vel value="0.0042811883" flag="0"/>
      <psa03 value="0.0143421059" flag="0"/>
      <psa10 value="0.0028280163" flag="0"/>
      <psa30 value="0.0001690165" flag="0"/>
    </comp>
  </station>
  <station code="YAYO" name="YAYO" netid="KO" insttype="30s," lat="39.6113" lon="27.0726">
    <comp name="--.HHE">
      <acc value="0.0243507972" flag="0"/>
      <vel value="0.0121747092" flag="0"/>
      <psa03 value="0.0567394433" flag="0"/>
      <psa10 value="0.0060427834" flag="0"/>
      <psa30 value="0.0005276710" flag="0"/>
    </comp>
    <comp name="--.HHZ">
      <acc value="0.0254999671" flag="0"/>
      <vel value="0.0089207556" flag="0"/>
      <psa03 value="0.0466602867" flag="0"/>
      <psa10 value="0.0044989765" flag="0"/>
      <psa30 value="0.0005208606" flag="0"/>
    </comp>
    <comp name="--.HHN">
      <acc value="0.0323414894" flag="0"/>
      <vel value="0.0174807948" flag="0"/>
      <psa03 value="0.1049343540" flag="0"/>
      <psa10 value="0.0110608391" flag="0"/>
      <psa30 value="0.0008584600" flag="0"/>
    </comp>
  </station>
  <station code="YENI" name="YENI" netid="KO" insttype="CMG-5T" lat="39.9364" lon="27.2422">
    <comp name="--.HNE">
      <acc value="0.0745238691" flag="0"/>
      <vel value="0.0197050809" flag="0"/>
      <psa03 value="0.0814795993" flag="0"/>
      <psa10 value="0.0105220773" flag="0"/>
      <psa30 value="0.0007695174" flag="0"/>
    </comp>
    <comp name="--.HNN">
      <acc value="0.0621015633" flag="0"/>
      <vel value="0.0188214489" flag="0"/>
      <psa03 value="0.0736438457" flag="0"/>
      <psa10 value="0.0098517720" flag="0"/>
      <psa30 value="0.0005402961" flag="0"/>
    </comp>
    <comp name="--.HNZ">
      <acc value="0.0416529817" flag="0"/>
      <vel value="0.0073953016" flag="0"/>
      <psa03 value="0.0280794018" flag="0"/>
      <psa10 value="0.0032789937" flag="0"/>
      <psa30 value="0.0004344894" flag="0"/>
    </comp>
  </station>
</stationlist>
