<stationlist created="1778138249">
	<station code="KRL1" name="KRL1" netid="HI" source="ITSAK Strong Motion Network" insttype="" lat="37.7951" lon="26.7065">
		<comp name="--.HNE" depth="0.0">
			<acc value="0.00399474333338465" flag="0"/>
			<vel value="0.00437945951483416" flag="0"/>
			<psa03 value="0.00726448318948811" flag="0"/>
			<psa10 value="0.00956742004461441" flag="0"/>
			<psa30 value="0.000474289179747004" flag="0"/>
		</comp>
		<comp name="--.HNN" depth="0.0">
			<acc value="0.00298732488811545" flag="0"/>
			<vel value="0.00455151422594923" flag="0"/>
			<psa03 value="0.0039066777435399" flag="0"/>
			<psa10 value="0.00575823692367811" flag="0"/>
			<psa30 value="0.000432719342616071" flag="0"/>
		</comp>
		<comp name="--.HNZ" depth="0.0">
			<acc value="0.0017109698361518" flag="0"/>
			<vel value="0.00175664772199198" flag="0"/>
			<psa03 value="0.00352624303639803" flag="0"/>
			<psa10 value="0.00347143012146064" flag="0"/>
			<psa30 value="0.000338922373818803" flag="0"/>
		</comp>
	</station>
	<station code="KSS1" name="KSS1" netid="HI" source="ITSAK Strong Motion Network" insttype="" lat="35.4189" lon="26.9207">
		<comp name="--.HNE" depth="0.0">
			<acc value="0.0125458814596729" flag="0"/>
			<vel value="0.00451387826197158" flag="0"/>
			<psa03 value="0.0283620481173167" flag="0"/>
			<psa10 value="0.00203535709804333" flag="0"/>
			<psa30 value="0.000192843816623142" flag="0"/>
		</comp>
		<comp name="--.HNN" depth="0.0">
			<acc value="0.00809432805458207" flag="0"/>
			<vel value="0.00334483771756606" flag="0"/>
			<psa03 value="0.0338920889345765" flag="0"/>
			<psa10 value="0.00244352991873848" flag="0"/>
			<psa30 value="0.000184996916596142" flag="0"/>
		</comp>
		<comp name="--.HNZ" depth="0.0">
			<acc value="0.00646345972212646" flag="0"/>
			<vel value="0.00242154790825182" flag="0"/>
			<psa03 value="0.00833951338931908" flag="0"/>
			<psa10 value="0.00329784002821823" flag="0"/>
			<psa30 value="0.000144337374142805" flag="0"/>
		</comp>
	</station>
	<station code="SIT2" name="SIT2" netid="HI" source="ITSAK Strong Motion Network" insttype="" lat="35.2059" lon="26.107">
		<comp name="--.HNE" depth="0.0">
			<acc value="0.0143263303180932" flag="0"/>
			<vel value="0.0108861545022009" flag="0"/>
			<psa03 value="0.0512436185966656" flag="0"/>
			<psa10 value="0.0068155055562877" flag="0"/>
			<psa30 value="0.000520866588187793" flag="0"/>
		</comp>
		<comp name="--.HNN" depth="0.0">
			<acc value="0.0176416999636616" flag="0"/>
			<vel value="0.0125671946856892" flag="0"/>
			<psa03 value="0.0806288933517454" flag="0"/>
			<psa10 value="0.00661721773318568" flag="0"/>
			<psa30 value="0.000486411597383074" flag="0"/>
		</comp>
		<comp name="--.HNZ" depth="0.0">
			<acc value="0.0102624928440839" flag="0"/>
			<vel value="0.00438557569760592" flag="0"/>
			<psa03 value="0.0299539270090072" flag="0"/>
			<psa10 value="0.00176140402812351" flag="0"/>
			<psa30 value="0.000185191656058961" flag="0"/>
		</comp>
	</station>
	<station code="KLNA" name="KLNA" netid="HL" source="National Observatory of Athens Seismic Network" insttype="" lat="36.95708" lon="26.97274">
		<comp name="00.HNE" depth="0.0">
			<acc value="0.0243279347916132" flag="0"/>
			<vel value="0.0074790325377991" flag="0"/>
			<psa03 value="0.0335872015497602" flag="0"/>
			<psa10 value="0.00399175037137136" flag="0"/>
			<psa30 value="0.000737289727241186" flag="0"/>
		</comp>
		<comp name="00.HNN" depth="0.0">
			<acc value="0.0189241165093702" flag="0"/>
			<vel value="0.00444447461350226" flag="0"/>
			<psa03 value="0.018660594245687" flag="0"/>
			<psa10 value="0.00318401483160807" flag="0"/>
			<psa30 value="0.00038658068719822" flag="0"/>
		</comp>
		<comp name="00.HNZ" depth="0.0">
			<acc value="0.029862553618074" flag="0"/>
			<vel value="0.00605150011767234" flag="0"/>
			<psa03 value="0.0151540794042337" flag="0"/>
			<psa10 value="0.00150532921285878" flag="0"/>
			<psa30 value="0.000234105690644832" flag="0"/>
		</comp>
	</station>
	<station code="NISR" name="NISR" netid="HL" source="National Observatory of Athens Seismic Network" insttype="" lat="36.6106" lon="27.131">
		<comp name="--.HNE" depth="0.0">
			<acc value="0.219010322479523" flag="0"/>
			<vel value="0.0517082839865523" flag="0"/>
			<psa03 value="0.22420166476014" flag="0"/>
			<psa10 value="0.0319002094823256" flag="0"/>
			<psa30 value="0.00228514887990023" flag="0"/>
		</comp>
		<comp name="--.HNN" depth="0.0">
			<acc value="0.162020409742434" flag="0"/>
			<vel value="0.0389098392384955" flag="0"/>
			<psa03 value="0.0934835261583026" flag="0"/>
			<psa10 value="0.0241514649160174" flag="0"/>
			<psa30 value="0.00219540981012633" flag="0"/>
		</comp>
		<comp name="--.HNZ" depth="0.0">
			<acc value="0.067783084880774" flag="0"/>
			<vel value="0.0167301093500313" flag="0"/>
			<psa03 value="0.0614011612754237" flag="0"/>
			<psa10 value="0.0262215645499506" flag="0"/>
			<psa30 value="0.000982722496377619" flag="0"/>
		</comp>
	</station>
</stationlist>
