<?xml version="1.0" encoding="UTF-8" standalone="yes"?>
<!DOCTYPE earthquake SYSTEM "stationlist.dtd">
<stationlist created="" xmlns="ch.ethz.sed.shakemap.usgs.xml">
  <station code="KARP" name="KARP" netid="GE" insttype="STS-2/N" lat="35.5471" lon="27.1611">
    <comp name="--.HHZ">
      <acc value="0.0183912397" flag="0"/>
      <vel value="0.0108504463" flag="0"/>
      <psa03 value="0.0393771137" flag="0"/>
      <psa10 value="0.0085273467" flag="0"/>
      <psa30 value="0.0006783969" flag="0"/>
    </comp>
    <comp name="--.HHN">
      <acc value="0.0346017938" flag="0"/>
      <vel value="0.0186675035" flag="0"/>
      <psa03 value="0.0612813384" flag="0"/>
      <psa10 value="0.0317089334" flag="0"/>
      <psa30 value="0.0011644578" flag="0"/>
    </comp>
    <comp name="--.HHE">
      <acc value="0.0288938958" flag="0"/>
      <vel value="0.0124791061" flag="0"/>
      <psa03 value="0.0534111676" flag="0"/>
      <psa10 value="0.0162371731" flag="0"/>
      <psa30 value="0.0010698374" flag="0"/>
    </comp>
  </station>
  <station code="ARG" name="ARG" netid="HL" insttype="LE3D20_DR24" lat="36.2136" lon="28.1212">
    <comp name="--.HHZ">
      <acc value="0.0073372220" flag="0"/>
      <vel value="0.0046965169" flag="0"/>
      <psa03 value="0.0129007792" flag="0"/>
      <psa10 value="0.0051714537" flag="0"/>
      <psa30 value="0.0006739999" flag="0"/>
    </comp>
    <comp name="--.HHN">
      <acc value="0.0121357791" flag="0"/>
      <vel value="0.0047498445" flag="0"/>
      <psa03 value="0.0230197266" flag="0"/>
      <psa10 value="0.0055148511" flag="0"/>
      <psa30 value="0.0007408759" flag="0"/>
    </comp>
    <comp name="--.HHE">
      <acc value="0.0201667555" flag="0"/>
      <vel value="0.0091602732" flag="0"/>
      <psa03 value="0.0403090104" flag="0"/>
      <psa10 value="0.0104886889" flag="0"/>
      <psa30 value="0.0014868040" flag="0"/>
    </comp>
  </station>
  <station code="KARP" name="KARP" netid="HL" insttype="120" lat="35.5471" lon="27.1611">
    <comp name="--.HHE">
      <acc value="0.0268045783" flag="0"/>
      <vel value="0.0123474041" flag="0"/>
      <psa03 value="0.0521485665" flag="0"/>
      <psa10 value="0.0161376914" flag="0"/>
      <psa30 value="0.0010613945" flag="0"/>
    </comp>
    <comp name="--.HHN">
      <acc value="0.0327232026" flag="0"/>
      <vel value="0.0184882564" flag="0"/>
      <psa03 value="0.0599587758" flag="0"/>
      <psa10 value="0.0314919131" flag="0"/>
      <psa30 value="0.0011522421" flag="0"/>
    </comp>
    <comp name="--.HHZ">
      <acc value="0.0180161080" flag="0"/>
      <vel value="0.0104892698" flag="0"/>
      <psa03 value="0.0381808788" flag="0"/>
      <psa10 value="0.0084982249" flag="0"/>
      <psa30 value="0.0006741658" flag="0"/>
    </comp>
  </station>
  <station code="NISR" name="NISR" netid="HL" insttype="65535" lat="36.6106" lon="27.131">
    <comp name="--.HHE">
      <acc value="0.2662444371" flag="0"/>
      <vel value="0.0556185147" flag="0"/>
      <psa03 value="0.2403583506" flag="0"/>
      <psa10 value="0.0340416563" flag="0"/>
      <psa30 value="0.0019114043" flag="0"/>
    </comp>
    <comp name="--.HHN">
      <acc value="0.1868842026" flag="0"/>
      <vel value="0.0501477190" flag="0"/>
      <psa03 value="0.0997116392" flag="0"/>
      <psa10 value="0.0352007054" flag="0"/>
      <psa30 value="0.0111724640" flag="0"/>
    </comp>
    <comp name="--.HHZ">
      <acc value="0.0796366117" flag="0"/>
      <vel value="0.0172393793" flag="0"/>
      <psa03 value="0.0697275447" flag="0"/>
      <psa10 value="0.0258994770" flag="0"/>
      <psa30 value="0.0007996417" flag="0"/>
    </comp>
  </station>
</stationlist>
