<stationlist xmlns:esm="https://esm-db.eu/esmws/shakemap/1/" created="1784057011">
	<station code="KHMN" name="KHMN" netid="KO" source="Bogazici University Kandilli Observatory And Earthquake Research Institute (KOERI)" insttype="" lat="37.3916" lon="37.1574" esm:processing="automatic (Paolucci et al 2011)" esm:quality="best">
		<comp name="--.HNE" depth="0.0">
			<acc value="0.400843120632398" flag="0"/>
			<vel value="0.0842802642594929" flag="0"/>
			<psa03 value="0.291036196386346" flag="0"/>
			<psa10 value="0.0532079810176112" flag="0"/>
			<psa30 value="0.00810759792190563" flag="0"/>
		</comp>
		<comp name="--.HNN" depth="0.0">
			<acc value="0.268157412265049" flag="0"/>
			<vel value="0.065249513161386" flag="0"/>
			<psa03 value="0.186894276661933" flag="0"/>
			<psa10 value="0.0551010089214193" flag="0"/>
			<psa30 value="0.00643277363968321" flag="0"/>
		</comp>
		<comp name="--.HNZ" depth="0.0">
			<acc value="0.162286215880175" flag="0"/>
			<vel value="0.0462236580528286" flag="0"/>
			<psa03 value="0.143724010593674" flag="0"/>
			<psa10 value="0.0384217452520588" flag="0"/>
			<psa30 value="0.00442294258157268" flag="0"/>
		</comp>
	</station>
</stationlist>
