<stationlist created="1705681861">
	<station code="R21D1" name="R21D1" netid="AM" source="Raspberry Shake (raspishake)" insttype="" lat="38.2972973" lon="21.81178906">
		<comp name="00.ENE" depth="0.0">
			<acc value="0.11672508869328" flag="0"/>
			<vel value="0.135972606435" flag="0"/>
			<psa03 value="0.145453843936651" flag="0"/>
			<psa10 value="0.112690000159431" flag="0"/>
			<psa30 value="0.0546955433112441" flag="0"/>
		</comp>
		<comp name="00.ENN" depth="0.0">
			<acc value="0.11951083863822" flag="0"/>
			<vel value="0.132749072605" flag="0"/>
			<psa03 value="0.145946793258894" flag="0"/>
			<psa10 value="0.0851679469583276" flag="0"/>
			<psa30 value="0.0572137967998401" flag="0"/>
		</comp>
		<comp name="00.ENZ" depth="0.0">
			<acc value="0.064202652254502" flag="0"/>
			<vel value="0.0798493571751" flag="0"/>
			<psa03 value="0.0923799009651868" flag="0"/>
			<psa10 value="0.0539094049835398" flag="0"/>
			<psa30 value="0.0290309498246271" flag="0"/>
		</comp>
	</station>
	<station code="MALA" name="MALA" netid="CL" source="Corinth Riff Laboratory (CRLNET)" insttype="" lat="38.39341" lon="21.87263">
		<comp name="00.HNE" depth="0.0">
			<acc value="0.02260515228561" flag="0"/>
			<vel value="0.0410907524244" flag="0"/>
			<psa03 value="0.04137261052406" flag="0"/>
			<psa10 value="0.0796674050744415" flag="0"/>
			<psa30 value="0.00781816874863994" flag="0"/>
		</comp>
		<comp name="00.HNN" depth="0.0">
			<acc value="0.017250592136946" flag="0"/>
			<vel value="0.0265902503474" flag="0"/>
			<psa03 value="0.0311509880792648" flag="0"/>
			<psa10 value="0.0583087464181985" flag="0"/>
			<psa30 value="0.00543946783803762" flag="0"/>
		</comp>
		<comp name="00.HNZ" depth="0.0">
			<acc value="0.008830923748059" flag="0"/>
			<vel value="0.0118274573958" flag="0"/>
			<psa03 value="0.0130362711410839" flag="0"/>
			<psa10 value="0.0221838201942306" flag="0"/>
			<psa30 value="0.00300620185445133" flag="0"/>
		</comp>
	</station>
	<station code="ROD3" name="ROD3" netid="CL" source="Corinth Riff Laboratory (CRLNET)" insttype="" lat="38.30811" lon="21.89204">
		<comp name="00.HNE" depth="0.0">
			<acc value="0.013256731205388" flag="0"/>
			<vel value="0.00991489959329" flag="0"/>
			<psa03 value="0.0454001012838332" flag="0"/>
			<psa10 value="0.0153810823587205" flag="0"/>
			<psa30 value="0.00223975545613794" flag="0"/>
		</comp>
		<comp name="00.HNN" depth="0.0">
			<acc value="0.013728683052372" flag="0"/>
			<vel value="0.0149987458408" flag="0"/>
			<psa03 value="0.0362192092406853" flag="0"/>
			<psa10 value="0.0174832888070648" flag="0"/>
			<psa30 value="0.00286889046657976" flag="0"/>
		</comp>
		<comp name="00.HNZ" depth="0.0">
			<acc value="0.0063194520351996" flag="0"/>
			<vel value="0.0080936606561" flag="0"/>
			<psa03 value="0.010705730035385" flag="0"/>
			<psa10 value="0.012113383077166" flag="0"/>
			<psa30 value="0.0016821544553088" flag="0"/>
		</comp>
	</station>
	<station code="TRIZ" name="TRIZ" netid="CL" source="Corinth Riff Laboratory (CRLNET)" insttype="" lat="38.36543" lon="22.07272">
		<comp name="00.HNE" depth="0.0">
			<acc value="0.01325084997984" flag="0"/>
			<vel value="0.0204790929944" flag="0"/>
			<psa03 value="0.0219073288572068" flag="0"/>
			<psa10 value="0.0340739472317773" flag="0"/>
			<psa30 value="0.00677128398099222" flag="0"/>
		</comp>
		<comp name="00.HNN" depth="0.0">
			<acc value="0.01916643673551" flag="0"/>
			<vel value="0.0189129149557" flag="0"/>
			<psa03 value="0.0430416221295686" flag="0"/>
			<psa10 value="0.0214708210865276" flag="0"/>
			<psa30 value="0.00347776767670671" flag="0"/>
		</comp>
		<comp name="00.HNZ" depth="0.0">
			<acc value="0.0086547789234384" flag="0"/>
			<vel value="0.0108712860488" flag="0"/>
			<psa03 value="0.0160647126458834" flag="0"/>
			<psa10 value="0.0167153691861632" flag="0"/>
			<psa30 value="0.00272418150532065" flag="0"/>
		</comp>
	</station>
	<station code="AIGS" name="AIGS" netid="HA" source="Hellenic Seismological Network, University of Athens, Seismological Laboratory (HA)" insttype="" lat="38.25001" lon="22.0878">
		<comp name=".HNE" depth="0.0">
			<acc value="0.012253947405234" flag="0"/>
			<vel value="0.0143019246423" flag="0"/>
			<psa03 value="0.0279544768468858" flag="0"/>
			<psa10 value="0.0165234314712269" flag="0"/>
			<psa30 value="0.00531868858699375" flag="0"/>
		</comp>
		<comp name=".HNN" depth="0.0">
			<acc value="0.011395966083972" flag="0"/>
			<vel value="0.00995267877687" flag="0"/>
			<psa03 value="0.0185715597017811" flag="0"/>
			<psa10 value="0.0158787731407761" flag="0"/>
			<psa30 value="0.00326629533436736" flag="0"/>
		</comp>
		<comp name=".HNZ" depth="0.0">
			<acc value="0.01368440516133" flag="0"/>
			<vel value="0.00680836861665" flag="0"/>
			<psa03 value="0.0132524703590216" flag="0"/>
			<psa10 value="0.013419594607275" flag="0"/>
			<psa30 value="0.00240926376856705" flag="0"/>
		</comp>
	</station>
	<station code="KIAS" name="KIAS" netid="HA" source="Hellenic Seismological Network, University of Athens, Seismological Laboratory (HA)" insttype="" lat="37.9875" lon="22.7543">
		<comp name=".HNE" depth="0.0">
			<acc value="0.066478582330014" flag="0"/>
			<vel value="0.0461562720085" flag="0"/>
			<psa03 value="0.16729157182892" flag="0"/>
			<psa10 value="0.0937022748157637" flag="0"/>
			<psa30 value="0.0118442779586019" flag="0"/>
		</comp>
		<comp name=".HNN" depth="0.0">
			<acc value="0.07140500100543" flag="0"/>
			<vel value="0.0625275503683" flag="0"/>
			<psa03 value="0.191937589923526" flag="0"/>
			<psa10 value="0.0985334348565615" flag="0"/>
			<psa30 value="0.0107446934498703" flag="0"/>
		</comp>
		<comp name=".HNZ" depth="0.0">
			<acc value="0.027033178695768" flag="0"/>
			<vel value="0.0314676278558" flag="0"/>
			<psa03 value="0.0682536568866101" flag="0"/>
			<psa10 value="0.0463615687263917" flag="0"/>
			<psa30 value="0.00793882174129301" flag="0"/>
		</comp>
	</station>
	<station code="ARS1" name="ARS1" netid="HI" source="ITSAK Strong Motion Network" insttype="" lat="37.6349" lon="22.7293">
		<comp name=".HNE" depth="0.0">
			<acc value="0.03767123075442" flag="0"/>
			<vel value="0.0358111544314" flag="0"/>
			<psa03 value="0.0664818363871933" flag="0"/>
			<psa10 value="0.0735992405883578" flag="0"/>
			<psa30 value="0.00352711573744232" flag="0"/>
		</comp>
		<comp name=".HNN" depth="0.0">
			<acc value="0.031008075712356" flag="0"/>
			<vel value="0.0292437069106" flag="0"/>
			<psa03 value="0.111975219892245" flag="0"/>
			<psa10 value="0.0480563772491481" flag="0"/>
			<psa30 value="0.00594590222019472" flag="0"/>
		</comp>
		<comp name=".HNZ" depth="0.0">
			<acc value="0.027208904330244" flag="0"/>
			<vel value="0.0178708221537" flag="0"/>
			<psa03 value="0.0894946577486322" flag="0"/>
			<psa10 value="0.0172974096184789" flag="0"/>
			<psa30 value="0.00172801218065821" flag="0"/>
		</comp>
	</station>
	<station code="ATH5" name="ATH5" netid="HI" source="ITSAK Strong Motion Network" insttype="" lat="37.975421" lon="23.737098">
		<comp name=".HNE" depth="0.0">
			<acc value="0.13282174516542" flag="0"/>
			<vel value="0.0617291773547" flag="0"/>
			<psa03 value="0.282007889971988" flag="0"/>
			<psa10 value="0.0432947843169944" flag="0"/>
			<psa30 value="0.00386284964482895" flag="0"/>
		</comp>
		<comp name=".HNN" depth="0.0">
			<acc value="0.13025310685638" flag="0"/>
			<vel value="0.0766882893235" flag="0"/>
			<psa03 value="0.271989747152426" flag="0"/>
			<psa10 value="0.0628780491120307" flag="0"/>
			<psa30 value="0.00512918728347387" flag="0"/>
		</comp>
		<comp name=".HNZ" depth="0.0">
			<acc value="0.052881724189332" flag="0"/>
			<vel value="0.0289437554782" flag="0"/>
			<psa03 value="0.150540045455896" flag="0"/>
			<psa10 value="0.0344657919395714" flag="0"/>
			<psa30 value="0.00391597524747477" flag="0"/>
		</comp>
	</station>
	<station code="KLV1" name="KLV1" netid="HI" source="ITSAK Strong Motion Network" insttype="" lat="38.03256" lon="22.10797">
		<comp name=".HNE" depth="0.0">
			<acc value="0.014505556502826" flag="0"/>
			<vel value="0.0128639538777" flag="0"/>
			<psa03 value="0.0546390206086911" flag="0"/>
			<psa10 value="0.0315860736723703" flag="0"/>
			<psa30 value="0.00208275359720302" flag="0"/>
		</comp>
		<comp name=".HNN" depth="0.0">
			<acc value="0.021348596235894" flag="0"/>
			<vel value="0.0157760619097" flag="0"/>
			<psa03 value="0.0464244191399" flag="0"/>
			<psa10 value="0.0242360067665019" flag="0"/>
			<psa30 value="0.00342973907838235" flag="0"/>
		</comp>
		<comp name=".HNZ" depth="0.0">
			<acc value="0.0085444724255406" flag="0"/>
			<vel value="0.0070737677252" flag="0"/>
			<psa03 value="0.0202470027228948" flag="0"/>
			<psa10 value="0.00915150530481708" flag="0"/>
			<psa30 value="0.00122590412679668" flag="0"/>
		</comp>
	</station>
	<station code="LAM2" name="LAM2" netid="HI" source="ITSAK Strong Motion Network" insttype="" lat="38.90203" lon="22.431301">
		<comp name=".HNE" depth="0.0">
			<acc value="0.016214969187402" flag="0"/>
			<vel value="0.00861864759419" flag="0"/>
			<psa03 value="0.032015089592562" flag="0"/>
			<psa10 value="0.0177780489584849" flag="0"/>
			<psa30 value="0.00112671859791082" flag="0"/>
		</comp>
		<comp name=".HNN" depth="0.0">
			<acc value="0.0101500113288168" flag="0"/>
			<vel value="0.00777885055515" flag="0"/>
			<psa03 value="0.0223036728213478" flag="0"/>
			<psa10 value="0.0173502506189506" flag="0"/>
			<psa30 value="0.00169207542502508" flag="0"/>
		</comp>
		<comp name=".HNZ" depth="0.0">
			<acc value="0.045874037166432" flag="0"/>
			<vel value="0.00714921640629" flag="0"/>
			<psa03 value="0.0321993674250678" flag="0"/>
			<psa10 value="0.00938246341717042" flag="0"/>
			<psa30 value="0.0016329734889791" flag="0"/>
		</comp>
	</station>
	<station code="MYT1" name="MYT1" netid="HI" source="ITSAK Strong Motion Network" insttype="" lat="39.085" lon="26.5694">
		<comp name=".HNE" depth="0.0">
			<acc value="0.0036236379247956" flag="0"/>
			<vel value="0.00468249625119" flag="0"/>
			<psa03 value="0.00642742383218018" flag="0"/>
			<psa10 value="0.00809408338080364" flag="0"/>
			<psa30 value="0.00138698094317852" flag="0"/>
		</comp>
		<comp name=".HNN" depth="0.0">
			<acc value="0.0043814919215652" flag="0"/>
			<vel value="0.00668102077352" flag="0"/>
			<psa03 value="0.00926376211629443" flag="0"/>
			<psa10 value="0.0176127305069657" flag="0"/>
			<psa30 value="0.00235499725701245" flag="0"/>
		</comp>
		<comp name=".HNZ" depth="0.0">
			<acc value="0.016425926146974" flag="0"/>
			<vel value="0.00542050699139" flag="0"/>
			<psa03 value="0.0054975757759418" flag="0"/>
			<psa10 value="0.0125328268007705" flag="0"/>
			<psa30 value="0.00137096686149341" flag="0"/>
		</comp>
	</station>
	<station code="NAX1" name="NAX1" netid="HI" source="ITSAK Strong Motion Network" insttype="" lat="37.101394" lon="25.374103">
		<comp name=".HNE" depth="0.0">
			<acc value="0.00865079289816" flag="0"/>
			<vel value="0.0074839076711" flag="0"/>
			<psa03 value="0.0200417495425416" flag="0"/>
			<psa10 value="0.0142913567322336" flag="0"/>
			<psa30 value="0.00153955521714394" flag="0"/>
		</comp>
		<comp name=".HNN" depth="0.0">
			<acc value="0.0091958609947368" flag="0"/>
			<vel value="0.00893056583749" flag="0"/>
			<psa03 value="0.022960580921656" flag="0"/>
			<psa10 value="0.00753483695848527" flag="0"/>
			<psa30 value="0.0015203171718825" flag="0"/>
		</comp>
		<comp name=".HNZ" depth="0.0">
			<acc value="0.0077531529470754" flag="0"/>
			<vel value="0.00817261897394" flag="0"/>
			<psa03 value="0.010917759055239" flag="0"/>
			<psa10 value="0.00842819863931444" flag="0"/>
			<psa30 value="0.000938332159899282" flag="0"/>
		</comp>
	</station>
	<station code="PLN1" name="PLN1" netid="HI" source="ITSAK Strong Motion Network" insttype="" lat="39.998" lon="23.575">
		<comp name=".HNE" depth="0.0">
			<acc value="0.012934822247946" flag="0"/>
			<vel value="0.0165223849158" flag="0"/>
			<psa03 value="0.0393434578734934" flag="0"/>
			<psa10 value="0.0262426071939379" flag="0"/>
			<psa30 value="0.0049001762792778" flag="0"/>
		</comp>
		<comp name=".HNN" depth="0.0">
			<acc value="0.012004396585812" flag="0"/>
			<vel value="0.0200615344161" flag="0"/>
			<psa03 value="0.036080757360616" flag="0"/>
			<psa10 value="0.0243006985520067" flag="0"/>
			<psa30 value="0.00598781041307492" flag="0"/>
		</comp>
		<comp name=".HNZ" depth="0.0">
			<acc value="0.010578677414442" flag="0"/>
			<vel value="0.0120100984121" flag="0"/>
			<psa03 value="0.0171696100586335" flag="0"/>
			<psa10 value="0.0109575058809795" flag="0"/>
			<psa30 value="0.00234927271112274" flag="0"/>
		</comp>
	</station>
	<station code="SKY1" name="SKY1" netid="HI" source="ITSAK Strong Motion Network" insttype="" lat="38.904483" lon="24.564572">
		<comp name=".HNE" depth="0.0">
			<acc value="0.2844721716792" flag="0"/>
			<vel value="0.0901663004778" flag="0"/>
			<psa03 value="0.522380980174188" flag="0"/>
			<psa10 value="0.0829739166148378" flag="0"/>
			<psa30 value="0.00683381979034577" flag="0"/>
		</comp>
		<comp name=".HNN" depth="0.0">
			<acc value="0.28561983250872" flag="0"/>
			<vel value="0.115583947297" flag="0"/>
			<psa03 value="0.743423914850962" flag="0"/>
			<psa10 value="0.0714149458897917" flag="0"/>
			<psa30 value="0.00896320043472513" flag="0"/>
		</comp>
		<comp name=".HNZ" depth="0.0">
			<acc value="0.28322191852038" flag="0"/>
			<vel value="0.0852817946749" flag="0"/>
			<psa03 value="0.412915103599014" flag="0"/>
			<psa10 value="0.0424262342799612" flag="0"/>
			<psa30 value="0.00538706853353343" flag="0"/>
		</comp>
	</station>
	<station code="ALNA" name="ALNA" netid="HL" source="National Observatory of Athens Seismic Network" insttype="" lat="39.14804" lon="23.86669">
		<comp name="00.HNE" depth="0.0">
			<acc value="0.11811746385708" flag="0"/>
			<vel value="0.0933371869049" flag="0"/>
			<psa03 value="0.264458852434231" flag="0"/>
			<psa10 value="0.132963408173406" flag="0"/>
			<psa30 value="0.00642963176486538" flag="0"/>
		</comp>
		<comp name="00.HNN" depth="0.0">
			<acc value="0.11539224548778" flag="0"/>
			<vel value="0.082932256852" flag="0"/>
			<psa03 value="0.229777159109221" flag="0"/>
			<psa10 value="0.191057381614052" flag="0"/>
			<psa30 value="0.00558597004312172" flag="0"/>
		</comp>
		<comp name="00.HNZ" depth="0.0">
			<acc value="0.086056715240952" flag="0"/>
			<vel value="0.0590100239935" flag="0"/>
			<psa03 value="0.160129441123101" flag="0"/>
			<psa10 value="0.0633887316924342" flag="0"/>
			<psa30 value="0.00352748867881261" flag="0"/>
		</comp>
	</station>
	<station code="ATHP" name="ATHP" netid="HL" source="National Observatory of Athens Seismic Network" insttype="" lat="38.000799" lon="23.773487">
		<comp name="00.HNE" depth="0.0">
			<acc value="0.17345228438706" flag="0"/>
			<vel value="0.0681396629887" flag="0"/>
			<psa03 value="0.370161313037091" flag="0"/>
			<psa10 value="0.0385046107414778" flag="0"/>
			<psa30 value="0.00317936749249482" flag="0"/>
		</comp>
		<comp name="00.HNN" depth="0.0">
			<acc value="0.1388245529733" flag="0"/>
			<vel value="0.056690394958" flag="0"/>
			<psa03 value="0.362460511229963" flag="0"/>
			<psa10 value="0.0624912709899202" flag="0"/>
			<psa30 value="0.00510438230694229" flag="0"/>
		</comp>
		<comp name="00.HNZ" depth="0.0">
			<acc value="0.1133375856918" flag="0"/>
			<vel value="0.0385569198471" flag="0"/>
			<psa03 value="0.339286413559747" flag="0"/>
			<psa10 value="0.0296635500646097" flag="0"/>
			<psa30 value="0.00307662985329341" flag="0"/>
		</comp>
	</station>
	<station code="DLFA" name="DLFA" netid="HL" source="National Observatory of Athens Seismic Network" insttype="" lat="38.47836" lon="22.49583">
		<comp name="00.HNE" depth="0.0">
			<acc value="0.01320563426367" flag="0"/>
			<vel value="0.0150341176329" flag="0"/>
			<psa03 value="0.0305304990582437" flag="0"/>
			<psa10 value="0.0247531360237818" flag="0"/>
			<psa30 value="0.00349676205999139" flag="0"/>
		</comp>
		<comp name="00.HNN" depth="0.0">
			<acc value="0.013671560159244" flag="0"/>
			<vel value="0.0134982041665" flag="0"/>
			<psa03 value="0.0309418153684142" flag="0"/>
			<psa10 value="0.024485025137764" flag="0"/>
			<psa30 value="0.00234601791217509" flag="0"/>
		</comp>
		<comp name="00.HNZ" depth="0.0">
			<acc value="0.011107546761438" flag="0"/>
			<vel value="0.00917770200261" flag="0"/>
			<psa03 value="0.0214716645798862" flag="0"/>
			<psa10 value="0.0157541973882583" flag="0"/>
			<psa30 value="0.00139954469213313" flag="0"/>
		</comp>
	</station>
	<station code="EFSA" name="EFSA" netid="HL" source="National Observatory of Athens Seismic Network" insttype="" lat="39.54015" lon="24.98864">
		<comp name="00.HNE" depth="0.0">
			<acc value="0.033609119638044" flag="0"/>
			<vel value="0.0190218385876" flag="0"/>
			<psa03 value="0.0675900973037822" flag="0"/>
			<psa10 value="0.0259966358995625" flag="0"/>
			<psa30 value="0.0034594920910383" flag="0"/>
		</comp>
		<comp name="00.HNN" depth="0.0">
			<acc value="0.033284005390578" flag="0"/>
			<vel value="0.0207067701413" flag="0"/>
			<psa03 value="0.0574881520578494" flag="0"/>
			<psa10 value="0.0250024300382667" flag="0"/>
			<psa30 value="0.00337226110408076" flag="0"/>
		</comp>
		<comp name="00.HNZ" depth="0.0">
			<acc value="0.023858329483836" flag="0"/>
			<vel value="0.0124105271129" flag="0"/>
			<psa03 value="0.0523576351028397" flag="0"/>
			<psa10 value="0.0155509339230681" flag="0"/>
			<psa30 value="0.00227933745325367" flag="0"/>
		</comp>
	</station>
	<station code="GINA" name="GINA" netid="HL" source="National Observatory of Athens Seismic Network" insttype="" lat="39.66886" lon="22.389">
		<comp name="00.HNE" depth="0.0">
			<acc value="0.0058472803954332" flag="0"/>
			<vel value="0.00903896040152" flag="0"/>
			<psa03 value="0.00857086009513278" flag="0"/>
			<psa10 value="0.0124394315512838" flag="0"/>
			<psa30 value="0.00360642974160366" flag="0"/>
		</comp>
		<comp name="00.HNN" depth="0.0">
			<acc value="0.0061452589767948" flag="0"/>
			<vel value="0.0109605497117" flag="0"/>
			<psa03 value="0.0108032397501702" flag="0"/>
			<psa10 value="0.0142913829839806" flag="0"/>
			<psa30 value="0.00209299552567986" flag="0"/>
		</comp>
		<comp name="00.HNZ" depth="0.0">
			<acc value="0.015339296558964" flag="0"/>
			<vel value="0.00454389950534" flag="0"/>
			<psa03 value="0.006392497039263" flag="0"/>
			<psa10 value="0.00716213445626242" flag="0"/>
			<psa30 value="0.00091184228007572" flag="0"/>
		</comp>
	</station>
	<station code="LIA" name="LIA" netid="HL" source="National Observatory of Athens Seismic Network" insttype="" lat="39.89725" lon="25.18055">
		<comp name="00.HNE" depth="0.0">
			<acc value="0.0145783739649" flag="0"/>
			<vel value="0.00619365315653" flag="0"/>
			<psa03 value="0.0604984035558644" flag="0"/>
			<psa10 value="0.00679139614666392" flag="0"/>
			<psa30 value="0.00111138174858707" flag="0"/>
		</comp>
		<comp name="00.HNN" depth="0.0">
			<acc value="0.013637182589652" flag="0"/>
			<vel value="0.00780792385902" flag="0"/>
			<psa03 value="0.0730340204368862" flag="0"/>
			<psa10 value="0.0103926434616107" flag="0"/>
			<psa30 value="0.00147760017542631" flag="0"/>
		</comp>
		<comp name="00.HNZ" depth="0.0">
			<acc value="0.0087276862662294" flag="0"/>
			<vel value="0.00698830668407" flag="0"/>
			<psa03 value="0.0210505429326755" flag="0"/>
			<psa10 value="0.0196245737817174" flag="0"/>
			<psa30 value="0.00145402028004168" flag="0"/>
		</comp>
	</station>
	<station code="NOAC" name="NOAC" netid="HL" source="National Observatory of Athens Seismic Network" insttype="" lat="37.97384" lon="23.71767">
		<comp name="00.HNE" depth="0.0">
			<acc value="0.29129061485034" flag="0"/>
			<vel value="0.120686126231" flag="0"/>
			<psa03 value="0.387082850672329" flag="0"/>
			<psa10 value="0.0480263827619664" flag="0"/>
