<?xml version="1.0" encoding="UTF-8" standalone="yes"?>
<!DOCTYPE earthquake SYSTEM "stationlist.dtd">
<stationlist created="" xmlns="ch.ethz.sed.shakemap.usgs.xml">
  <station code="ACOR" name="ACOR" netid="HA" insttype="Horizon,120s,1200" lat="37.8905" lon="22.8694">
    <comp name="--.HHN">
      <acc value="0.0201530650" flag="0"/>
      <vel value="0.0242763597" flag="0"/>
      <psa03 value="0.0726763571" flag="0"/>
      <psa10 value="0.0398584069" flag="0"/>
      <psa30 value="0.0044646222" flag="0"/>
    </comp>
    <comp name="--.HHZ">
      <acc value="0.0228841039" flag="0"/>
      <vel value="0.0137902474" flag="0"/>
      <psa03 value="0.0566938426" flag="0"/>
      <psa10 value="0.0259158147" flag="0"/>
      <psa30 value="0.0024030857" flag="0"/>
    </comp>
    <comp name="--.HHE">
      <acc value="0.0220120180" flag="0"/>
      <vel value="0.0221395075" flag="0"/>
      <psa03 value="0.0827993981" flag="0"/>
      <psa10 value="0.0487128491" flag="0"/>
      <psa30 value="0.0025251948" flag="0"/>
    </comp>
  </station>
  <station code="AMPE" name="AMPE" netid="HA" insttype="1s-100Hz," lat="38.3015" lon="23.2688">
    <comp name="--.HHE">
      <acc value="0.1490867832" flag="0"/>
      <vel value="0.0786835009" flag="0"/>
      <psa03 value="0.2381587508" flag="0"/>
      <psa10 value="0.1620886638" flag="0"/>
      <psa30 value="0.0078861944" flag="0"/>
    </comp>
    <comp name="--.HHN">
      <acc value="0.1167594378" flag="0"/>
      <vel value="0.1173052925" flag="0"/>
      <psa03 value="0.1869409679" flag="0"/>
      <psa10 value="0.1466211800" flag="0"/>
      <psa30 value="0.0097467128" flag="0"/>
    </comp>
    <comp name="--.HHZ">
      <acc value="0.0626560268" flag="0"/>
      <vel value="0.0463428703" flag="0"/>
      <psa03 value="0.1511020822" flag="0"/>
      <psa10 value="0.0631529581" flag="0"/>
      <psa30 value="0.0080121423" flag="0"/>
    </comp>
  </station>
  <station code="ANTK" name="ANTK" netid="HA" insttype="25" lat="38.3605" lon="22.6385">
    <comp name="--.HHN">
      <acc value="0.0004210771" flag="0"/>
      <vel value="0.0001801089" flag="0"/>
      <psa03 value="0.0009909749" flag="0"/>
      <psa10 value="0.0003274064" flag="0"/>
      <psa30 value="0.0000208703" flag="0"/>
    </comp>
    <comp name="--.HHE">
      <acc value="0.0073492537" flag="0"/>
      <vel value="0.0067033941" flag="0"/>
      <psa03 value="0.0215689206" flag="0"/>
      <psa10 value="0.0124952075" flag="0"/>
      <psa30 value="0.0012798744" flag="0"/>
    </comp>
    <comp name="--.HHZ">
      <acc value="0.0063464331" flag="0"/>
      <vel value="0.0060050361" flag="0"/>
      <psa03 value="0.0154207357" flag="0"/>
      <psa10 value="0.0107163859" flag="0"/>
      <psa30 value="0.0007045620" flag="0"/>
    </comp>
  </station>
  <station code="ATAL" name="ATAL" netid="HA" insttype="120s," lat="38.6926" lon="23.0213">
    <comp name="--.HHN">
      <acc value="0.0268115138" flag="0"/>
      <vel value="0.0332057006" flag="0"/>
      <psa03 value="0.0547262862" flag="0"/>
      <psa10 value="0.0470944277" flag="0"/>
      <psa30 value="0.0041719500" flag="0"/>
    </comp>
    <comp name="--.HHZ">
      <acc value="0.0275261379" flag="0"/>
      <vel value="0.0142734930" flag="0"/>
      <psa03 value="0.0539640437" flag="0"/>
      <psa10 value="0.0194704715" flag="0"/>
      <psa30 value="0.0017298794" flag="0"/>
    </comp>
    <comp name="--.HHE">
      <acc value="0.0261812270" flag="0"/>
      <vel value="0.0137943449" flag="0"/>
      <psa03 value="0.0752044741" flag="0"/>
      <psa10 value="0.0225791207" flag="0"/>
      <psa30 value="0.0019494337" flag="0"/>
    </comp>
  </station>
  <station code="ATHU" name="ATHU" netid="HA" insttype="60s," lat="37.9665" lon="23.7845">
    <comp name="--.HHN">
      <acc value="0.0806696416" flag="0"/>
      <vel value="0.0382550282" flag="0"/>
      <psa03 value="0.2171254567" flag="0"/>
      <psa10 value="0.0304701265" flag="0"/>
      <psa30 value="0.0024294313" flag="0"/>
    </comp>
    <comp name="--.HHZ">
      <acc value="0.0711871023" flag="0"/>
      <vel value="0.0278876013" flag="0"/>
      <psa03 value="0.2011060303" flag="0"/>
      <psa10 value="0.0303659029" flag="0"/>
      <psa30 value="0.0024363860" flag="0"/>
    </comp>
    <comp name="--.HHE">
      <acc value="0.0880292900" flag="0"/>
      <vel value="0.0235622791" flag="0"/>
      <psa03 value="0.1295006701" flag="0"/>
      <psa10 value="0.0229244847" flag="0"/>
      <psa30 value="0.0020793769" flag="0"/>
    </comp>
  </station>
  <station code="AXAR" name="AXAR" netid="HA" insttype="Horizon,120s,1200" lat="38.7664" lon="22.659">
    <comp name="--.HHN">
      <acc value="0.0546334364" flag="0"/>
      <vel value="0.0336662589" flag="0"/>
      <psa03 value="0.1044326010" flag="0"/>
      <psa10 value="0.0737696109" flag="0"/>
      <psa30 value="0.0054142438" flag="0"/>
    </comp>
    <comp name="--.HHE">
      <acc value="0.0481006646" flag="0"/>
      <vel value="0.0322754549" flag="0"/>
      <psa03 value="0.1270358599" flag="0"/>
      <psa10 value="0.0422336703" flag="0"/>
      <psa30 value="0.0050075104" flag="0"/>
    </comp>
    <comp name="--.HHZ">
      <acc value="0.0271131424" flag="0"/>
      <vel value="0.0200362090" flag="0"/>
      <psa03 value="0.0611494583" flag="0"/>
      <psa10 value="0.0447888463" flag="0"/>
      <psa30 value="0.0031975106" flag="0"/>
    </comp>
  </station>
  <station code="DOMV" name="DOMV" netid="HA" insttype="60" lat="38.2569" lon="22.9795">
    <comp name="--.HHN">
      <acc value="0.1867629457" flag="0"/>
      <vel value="0.0737411492" flag="0"/>
      <psa03 value="0.4400071158" flag="0"/>
      <psa10 value="0.1053835984" flag="0"/>
      <psa30 value="0.0078447472" flag="0"/>
    </comp>
    <comp name="--.HHE">
      <acc value="0.1818350971" flag="0"/>
      <vel value="0.0786977321" flag="0"/>
      <psa03 value="0.4298205079" flag="0"/>
      <psa10 value="0.0650108306" flag="0"/>
      <psa30 value="0.0060075997" flag="0"/>
    </comp>
    <comp name="--.HHZ">
      <acc value="0.1547570591" flag="0"/>
      <vel value="0.0479819196" flag="0"/>
      <psa03 value="0.3037653231" flag="0"/>
      <psa10 value="0.0338467976" flag="0"/>
      <psa30 value="0.0034600710" flag="0"/>
    </comp>
  </station>
  <station code="ERTR" name="ERTR" netid="HA" insttype="Horizon,120s,1200" lat="38.4066" lon="23.7865">
    <comp name="--.HHE">
      <acc value="0.1892530026" flag="0"/>
      <vel value="0.0751278943" flag="0"/>
      <psa03 value="0.3064866551" flag="0"/>
      <psa10 value="0.0891077229" flag="0"/>
      <psa30 value="0.0060149649" flag="0"/>
    </comp>
    <comp name="--.HHN">
      <acc value="0.2732992773" flag="0"/>
      <vel value="0.1315530585" flag="0"/>
      <psa03 value="0.5031837559" flag="0"/>
      <psa10 value="0.1913234590" flag="0"/>
      <psa30 value="0.0128041692" flag="0"/>
    </comp>
    <comp name="--.HHZ">
      <acc value="0.1247607103" flag="0"/>
      <vel value="0.0524943209" flag="0"/>
      <psa03 value="0.1909531500" flag="0"/>
      <psa10 value="0.0624174351" flag="0"/>
      <psa30 value="0.0035437862" flag="0"/>
    </comp>
  </station>
  <station code="KARY" name="KARY" netid="HA" insttype="60" lat="38.0321" lon="24.437">
    <comp name="--.HHZ">
      <acc value="0.2312374749" flag="0"/>
      <vel value="0.0350175060" flag="0"/>
      <psa03 value="0.1158601316" flag="0"/>
      <psa10 value="0.0260684032" flag="0"/>
      <psa30 value="0.0033217774" flag="0"/>
    </comp>
    <comp name="--.HHN">
      <acc value="0.2554044195" flag="0"/>
      <vel value="0.0499120093" flag="0"/>
      <psa03 value="0.1600372064" flag="0"/>
      <psa10 value="0.0192728720" flag="0"/>
      <psa30 value="0.0034743772" flag="0"/>
    </comp>
    <comp name="--.HHE">
      <acc value="0.2256151265" flag="0"/>
      <vel value="0.0449009194" flag="0"/>
      <psa03 value="0.2096848186" flag="0"/>
      <psa10 value="0.0341598633" flag="0"/>
      <psa30 value="0.0042321174" flag="0"/>
    </comp>
  </station>
  <station code="LOUT" name="LOUT" netid="HA" insttype="30" lat="37.9879" lon="22.9743">
    <comp name="--.HHZ">
      <acc value="0.0928601391" flag="0"/>
      <vel value="0.0469551427" flag="0"/>
      <psa03 value="0.2053792252" flag="0"/>
      <psa10 value="0.0661843068" flag="0"/>
      <psa30 value="0.0036004135" flag="0"/>
    </comp>
    <comp name="--.HHN">
      <acc value="0.1393712635" flag="0"/>
      <vel value="0.0676584741" flag="0"/>
      <psa03 value="0.4196556466" flag="0"/>
      <psa10 value="0.0683542634" flag="0"/>
      <psa30 value="0.0050939967" flag="0"/>
    </comp>
    <comp name="--.HHE">
      <acc value="0.2197795070" flag="0"/>
      <vel value="0.0915839207" flag="0"/>
      <psa03 value="0.4497073790" flag="0"/>
      <psa10 value="0.0804438611" flag="0"/>
      <psa30 value="0.0060117140" flag="0"/>
    </comp>
  </station>
  <station code="MDRA" name="MDRA" netid="HA" insttype="60" lat="38.0606" lon="23.4662">
    <comp name="--.HHN">
      <acc value="0.1561571522" flag="0"/>
      <vel value="0.1242163658" flag="0"/>
      <psa03 value="0.4730791588" flag="0"/>
      <psa10 value="0.1795764541" flag="0"/>
      <psa30 value="0.0090965149" flag="0"/>
    </comp>
    <comp name="--.HHE">
      <acc value="0.0794325184" flag="0"/>
      <vel value="0.0435507709" flag="0"/>
      <psa03 value="0.1444961121" flag="0"/>
      <psa10 value="0.0752685380" flag="0"/>
      <psa30 value="0.0037425886" flag="0"/>
    </comp>
    <comp name="--.HHZ">
      <acc value="0.1106350286" flag="0"/>
      <vel value="0.0730535293" flag="0"/>
      <psa03 value="0.2363200100" flag="0"/>
      <psa10 value="0.1069225912" flag="0"/>
      <psa30 value="0.0063587834" flag="0"/>
    </comp>
  </station>
  <station code="MRKA" name="MRKA" netid="HA" insttype="Horizon,120s,1200" lat="38.7047" lon="23.5863">
    <comp name="--.HHE">
      <acc value="0.2556502779" flag="0"/>
      <vel value="0.0943170140" flag="0"/>
      <psa03 value="0.3067785263" flag="0"/>
      <psa10 value="0.1134086070" flag="0"/>
      <psa30 value="0.0046709993" flag="0"/>
    </comp>
    <comp name="--.HHZ">
      <acc value="0.1107653637" flag="0"/>
      <vel value="0.0618128465" flag="0"/>
      <psa03 value="0.1488742827" flag="0"/>
      <psa10 value="0.0801682841" flag="0"/>
      <psa30 value="0.0033902060" flag="0"/>
    </comp>
    <comp name="--.HHN">
      <acc value="0.1637067740" flag="0"/>
      <vel value="0.0917188129" flag="0"/>
      <psa03 value="0.3147642256" flag="0"/>
      <psa10 value="0.1166186919" flag="0"/>
      <psa30 value="0.0068842849" flag="0"/>
    </comp>
  </station>
  <station code="MRTH" name="MRTH" netid="HA" insttype="S100," lat="38.1225" lon="23.9409">
    <comp name="--.HHE">
      <acc value="0.2391906925" flag="0"/>
      <vel value="0.0916898263" flag="0"/>
      <psa03 value="0.6569386960" flag="0"/>
      <psa10 value="0.0877297455" flag="0"/>
      <psa30 value="0.0050426644" flag="0"/>
    </comp>
    <comp name="--.HHZ">
      <acc value="0.1782156053" flag="0"/>
      <vel value="0.0810833090" flag="0"/>
      <psa03 value="0.5361202237" flag="0"/>
      <psa10 value="0.0375768551" flag="0"/>
      <psa30 value="0.0035522519" flag="0"/>
    </comp>
    <comp name="--.HHN">
      <acc value="0.2871474484" flag="0"/>
      <vel value="0.1052854333" flag="0"/>
      <psa03 value="0.8042190618" flag="0"/>
      <psa10 value="0.0608639671" flag="0"/>
      <psa30 value="0.0032535974" flag="0"/>
    </comp>
  </station>
  <station code="PRDM" name="PRDM" netid="HA" insttype="25" lat="38.2804" lon="22.847">
    <comp name="--.HHE">
      <acc value="0.0366136938" flag="0"/>
      <vel value="0.0132907599" flag="0"/>
      <psa03 value="0.0631475745" flag="0"/>
      <psa10 value="0.0169251692" flag="0"/>
      <psa30 value="0.0009905434" flag="0"/>
    </comp>
    <comp name="--.HHN">
      <acc value="0.0367795155" flag="0"/>
      <vel value="0.0179935934" flag="0"/>
      <psa03 value="0.0639108357" flag="0"/>
      <psa10 value="0.0378060971" flag="0"/>
      <psa30 value="0.0036088145" flag="0"/>
    </comp>
    <comp name="--.HHZ">
      <acc value="0.0186603222" flag="0"/>
      <vel value="0.0120116486" flag="0"/>
      <psa03 value="0.0482434583" flag="0"/>
      <psa10 value="0.0091725128" flag="0"/>
      <psa30 value="0.0009658880" flag="0"/>
    </comp>
  </station>
  <station code="PSAH" name="PSAH" netid="HA" insttype="25" lat="38.5694" lon="23.6473">
    <comp name="--.HHN">
      <acc value="0.0788788581" flag="0"/>
      <vel value="0.0496099536" flag="0"/>
      <psa03 value="0.1087381006" flag="0"/>
      <psa10 value="0.0729600124" flag="0"/>
      <psa30 value="0.0055461918" flag="0"/>
    </comp>
    <comp name="--.HHE">
      <acc value="0.0643133797" flag="0"/>
      <vel value="0.0301307747" flag="0"/>
      <psa03 value="0.0788590713" flag="0"/>
      <psa10 value="0.0458360553" flag="0"/>
      <psa30 value="0.0039734055" flag="0"/>
    </comp>
    <comp name="--.HHZ">
      <acc value="0.0557208480" flag="0"/>
      <vel value="0.0338647932" flag="0"/>
      <psa03 value="0.0967275537" flag="0"/>
      <psa10 value="0.0697542364" flag="0"/>
      <psa30 value="0.0032976911" flag="0"/>
    </comp>
  </station>
  <station code="STFN" name="STFN" netid="HA" insttype="1s-100Hz," lat="38.1766" lon="23.544">
    <comp name="--.HHZ">
      <acc value="0.1057361274" flag="0"/>
      <vel value="0.0687680430" flag="0"/>
      <psa03 value="0.2592531512" flag="0"/>
      <psa10 value="0.1232145117" flag="0"/>
      <psa30 value="0.0088386137" flag="0"/>
    </comp>
    <comp name="--.HHN">
      <acc value="0.2750369500" flag="0"/>
      <vel value="0.1824525649" flag="0"/>
      <psa03 value="0.3812570102" flag="0"/>
      <psa10 value="0.1868429692" flag="0"/>
      <psa30 value="0.0131037068" flag="0"/>
    </comp>
    <comp name="--.HHE">
      <acc value="0.2542598959" flag="0"/>
      <vel value="0.0881132870" flag="0"/>
      <psa03 value="0.4038649306" flag="0"/>
      <psa10 value="0.1221753426" flag="0"/>
      <psa30 value="0.0084631380" flag="0"/>
    </comp>
  </station>
  <station code="THIV" name="THIV" netid="HA" insttype="25" lat="38.299" lon="23.332">
    <comp name="--.HHN">
      <acc value="0.1393610414" flag="0"/>
      <vel value="0.0706860579" flag="0"/>
      <psa03 value="0.2788829361" flag="0"/>
      <psa10 value="0.0824279443" flag="0"/>
      <psa30 value="0.0058615157" flag="0"/>
    </comp>
    <comp name="--.HHE">
      <acc value="0.1823252008" flag="0"/>
      <vel value="0.0775207691" flag="0"/>
      <psa03 value="0.4201661853" flag="0"/>
      <psa10 value="0.0751797819" flag="0"/>
      <psa30 value="0.0036355294" flag="0"/>
    </comp>
    <comp name="--.HHZ">
      <acc value="0.0877077366" flag="0"/>
      <vel value="0.0434218813" flag="0"/>
      <psa03 value="0.2811257516" flag="0"/>
      <psa10 value="0.0349188945" flag="0"/>
      <psa30 value="0.0072290410" flag="0"/>
    </comp>
  </station>
  <station code="VILL" name="VILL" netid="HA" insttype="Horizon,120s,1200" lat="38.1642" lon="23.3122">
    <comp name="--.HHN">
      <acc value="0.1461481914" flag="0"/>
      <vel value="0.1037718360" flag="0"/>
      <psa03 value="0.2363667945" flag="0"/>
      <psa10 value="0.1457776722" flag="0"/>
      <psa30 value="0.0084521109" flag="0"/>
    </comp>
    <comp name="--.HHE">
      <acc value="0.1511086425" flag="0"/>
      <vel value="0.1313018785" flag="0"/>
      <psa03 value="0.2691477497" flag="0"/>
      <psa10 value="0.2035357506" flag="0"/>
      <psa30 value="0.0094737098" flag="0"/>
    </comp>
    <comp name="--.HHZ">
      <acc value="0.0622780689" flag="0"/>
      <vel value="0.0491120415" flag="0"/>
      <psa03 value="0.1675342436" flag="0"/>
      <psa10 value="0.0640583442" flag="0"/>
      <psa30 value="0.0056934852" flag="0"/>
    </comp>
  </station>
  <station code="THNO" name="THNO" netid="HC" insttype="60" lat="37.6541" lon="25.0221">
    <comp name="--.HHZ">
      <acc value="0.0504859695" flag="0"/>
      <vel value="0.0362007227" flag="0"/>
      <psa03 value="0.1156004997" flag="0"/>
      <psa10 value="0.0294826045" flag="0"/>
      <psa30 value="0.0016444929" flag="0"/>
    </comp>
    <comp name="--.HHN">
      <acc value="0.0000000000" flag="0"/>
      <vel value="-100.0000000000" flag="0"/>
      <psa03 value="0.0000000000" flag="0"/>
      <psa10 value="0.0000000000" flag="0"/>
      <psa30 value="0.0000000000" flag="0"/>
    </comp>
    <comp name="--.HHE">
      <acc value="0.0789578505" flag="0"/>
      <vel value="0.0433214588" flag="0"/>
      <psa03 value="0.1500614607" flag="0"/>
      <psa10 value="0.0326346744" flag="0"/>
      <psa30 value="0.0036532145" flag="0"/>
    </comp>
  </station>
  <station code="SKY1" name="SKY1" netid="HI" insttype="CMG-5TD,ACCELEROMETER,GURALP" lat="38.9045" lon="24.5646">
    <comp name="--.HNE">
      <acc value="0.2826713265" flag="0"/>
      <vel value="0.0892404674" flag="0"/>
      <psa03 value="0.5223327099" flag="0"/>
      <psa10 value="0.0824278492" flag="0"/>
      <psa30 value="0.0063718708" flag="0"/>
    </comp>
    <comp name="--.HNN">
      <acc value="0.2859647889" flag="0"/>
      <vel value="0.1160007250" flag="0"/>
      <psa03 value="0.7275832780" flag="0"/>
      <psa10 value="0.0715382702" flag="0"/>
      <psa30 value="0.0081418185" flag="0"/>
    </comp>
    <comp name="--.HNZ">
      <acc value="0.2860451487" flag="0"/>
      <vel value="0.0850889205" flag="0"/>
      <psa03 value="0.4085865482" flag="0"/>
      <psa10 value="0.0421864865" flag="0"/>
      <psa30 value="0.0056127102" flag="0"/>
    </comp>
  </station>
  <station code="ALNA" name="ALNA" netid="HL" insttype="CMG-5" lat="39.148" lon="23.8667">
    <comp name="00.HNE">
      <acc value="0.1188165597" flag="0"/>
      <vel value="0.0920702352" flag="0"/>
      <psa03 value="0.2632710972" flag="0"/>
      <psa10 value="0.1331174628" flag="0"/>
      <psa30 value="0.0061275845" flag="0"/>
    </comp>
    <comp name="00.HNN">
      <acc value="0.1158652559" flag="0"/>
      <vel value="0.0836277659" flag="0"/>
      <psa03 value="0.2296534586" flag="0"/>
      <psa10 value="0.1910557599" flag="0"/>
      <psa30 value="0.0054768309" flag="0"/>
    </comp>
    <comp name="00.HNZ">
      <acc value="0.0866205996" flag="0"/>
      <vel value="0.0591209052" flag="0"/>
      <psa03 value="0.1592029114" flag="0"/>
      <psa10 value="0.0633121267" flag="0"/>
      <psa30 value="0.0032281634" flag="0"/>
    </comp>
  </station>
  <station code="ATH" name="ATH" netid="HL" insttype="DR24" lat="37.9738" lon="23.7177">
    <comp name="--.HHE">
      <acc value="0.2809760174" flag="0"/>
      <vel value="0.1167383966" flag="0"/>
      <psa03 value="0.3493333746" flag="0"/>
      <psa10 value="0.0460032198" flag="0"/>
      <psa30 value="0.0045497957" flag="0"/>
    </comp>
    <comp name="--.HHZ">
      <acc value="0.0977569972" flag="0"/>
      <vel value="0.0343347680" flag="0"/>
      <psa03 value="0.2471078775" flag="0"/>
      <psa10 value="0.0413840497" flag="0"/>
      <psa30 value="0.0037038930" flag="0"/>
    </comp>
    <comp name="--.HHN">
      <acc value="0.2957838377" flag="0"/>
      <vel value="0.1397954544" flag="0"/>
      <psa03 value="0.7942626775" flag="0"/>
      <psa10 value="0.0604918196" flag="0"/>
      <psa30 value="0.0065203200" flag="0"/>
    </comp>
  </station>
  <station code="ATHP" name="ATHP" netid="HL" insttype="CMG-5" lat="38.0008" lon="23.7735">
    <comp name="00.HNN">
      <acc value="0.1384322951" flag="0"/>
      <vel value="0.0570722883" flag="0"/>
      <psa03 value="0.3601353326" flag="0"/>
      <psa10 value="0.0624337464" flag="0"/>
      <psa30 value="0.0047970811" flag="0"/>
    </comp>
    <comp name="00.HNE">
      <acc value="0.1739690023" flag="0"/>
