<?xml version="1.0" encoding="UTF-8" standalone="yes"?>
<!DOCTYPE earthquake SYSTEM "stationlist.dtd">
<stationlist created="" xmlns="ch.ethz.sed.shakemap.usgs.xml">
  <station code="AGRP" name="AGRP" netid="CL" insttype="CMG40-T" lat="38.3959" lon="21.7228">
    <comp name="00.HHN">
      <acc value="0.0359845357" flag="0"/>
      <vel value="0.0184305995" flag="0"/>
      <psa03 value="0.0799583988" flag="0"/>
      <psa10 value="0.0138290740" flag="0"/>
      <psa30 value="0.0014766262" flag="0"/>
    </comp>
    <comp name="00.HHE">
      <acc value="0.0669938680" flag="0"/>
      <vel value="0.0246108251" flag="0"/>
      <psa03 value="0.1283456526" flag="0"/>
      <psa10 value="0.0175668786" flag="0"/>
      <psa30 value="0.0010446430" flag="0"/>
    </comp>
    <comp name="00.HHZ">
      <acc value="0.0158167490" flag="0"/>
      <vel value="0.0091531865" flag="0"/>
      <psa03 value="0.0221798673" flag="0"/>
      <psa10 value="0.0091422651" flag="0"/>
      <psa30 value="0.0009669549" flag="0"/>
    </comp>
  </station>
  <station code="PSAM" name="PSAM" netid="CL" insttype="CMG40-T" lat="38.3218" lon="22.1842">
    <comp name="00.HHN">
      <acc value="0.1046313238" flag="0"/>
      <vel value="0.0252426539" flag="0"/>
      <psa03 value="0.0705017599" flag="0"/>
      <psa10 value="0.0191199510" flag="0"/>
      <psa30 value="0.0014258290" flag="0"/>
    </comp>
    <comp name="00.HHE">
      <acc value="0.0904702926" flag="0"/>
      <vel value="0.0421441194" flag="0"/>
      <psa03 value="0.1150375524" flag="0"/>
      <psa10 value="0.0291605190" flag="0"/>
      <psa30 value="0.0014805956" flag="0"/>
    </comp>
    <comp name="00.HHZ">
      <acc value="0.0679142631" flag="0"/>
      <vel value="0.0129528641" flag="0"/>
      <psa03 value="0.0496312153" flag="0"/>
      <psa10 value="0.0106211860" flag="0"/>
      <psa30 value="0.0011507587" flag="0"/>
    </comp>
  </station>
  <station code="ROD3" name="ROD3" netid="CL" insttype="CMG40-T" lat="38.3081" lon="21.892">
    <comp name="00.HHN">
      <acc value="0.1759673413" flag="0"/>
      <vel value="0.0662511750" flag="0"/>
      <psa03 value="0.5233490011" flag="0"/>
      <psa10 value="0.0248085878" flag="0"/>
      <psa30 value="0.0019249031" flag="0"/>
    </comp>
    <comp name="00.HHE">
      <acc value="0.1314841519" flag="0"/>
      <vel value="0.0507300216" flag="0"/>
      <psa03 value="0.3915833330" flag="0"/>
      <psa10 value="0.0162997865" flag="0"/>
      <psa30 value="0.0014041012" flag="0"/>
    </comp>
    <comp name="00.HHZ">
      <acc value="0.0795270491" flag="0"/>
      <vel value="0.0248510452" flag="0"/>
      <psa03 value="0.0678740390" flag="0"/>
      <psa10 value="0.0142084824" flag="0"/>
      <psa30 value="0.0008838344" flag="0"/>
    </comp>
  </station>
  <station code="TRIZ" name="TRIZ" netid="CL" insttype="STS-2" lat="38.3654" lon="22.0727">
    <comp name="00.HH2">
      <acc value="0.1299079083" flag="0"/>
      <vel value="0.0514095564" flag="0"/>
      <psa03 value="0.3549722509" flag="0"/>
      <psa10 value="0.0192218403" flag="0"/>
      <psa30 value="0.0020596170" flag="0"/>
    </comp>
    <comp name="00.HHZ">
      <acc value="0.1151455267" flag="0"/>
      <vel value="0.0265894297" flag="0"/>
      <psa03 value="0.0662739604" flag="0"/>
      <psa10 value="0.0181970279" flag="0"/>
      <psa30 value="0.0013370718" flag="0"/>
    </comp>
    <comp name="00.HH3">
      <acc value="0.1771114932" flag="0"/>
      <vel value="0.0637738433" flag="0"/>
      <psa03 value="0.4654375902" flag="0"/>
      <psa10 value="0.0442951628" flag="0"/>
      <psa30 value="0.0018929764" flag="0"/>
    </comp>
  </station>
  <station code="ZIRI" name="ZIRI" netid="CL" insttype="TRILLIUM-40" lat="38.3051" lon="21.9476">
    <comp name="01.HHE">
      <acc value="0.1203488673" flag="0"/>
      <vel value="0.0348849927" flag="0"/>
      <psa03 value="0.1873202751" flag="0"/>
      <psa10 value="0.0157746076" flag="0"/>
      <psa30 value="0.0012029543" flag="0"/>
    </comp>
    <comp name="01.HHZ">
      <acc value="0.0768100573" flag="0"/>
      <vel value="0.0199440747" flag="0"/>
      <psa03 value="0.1137057695" flag="0"/>
      <psa10 value="0.0066546548" flag="0"/>
      <psa30 value="0.0009091926" flag="0"/>
    </comp>
    <comp name="01.HHN">
      <acc value="0.0845124400" flag="0"/>
      <vel value="0.0302121794" flag="0"/>
      <psa03 value="0.1405332608" flag="0"/>
      <psa10 value="0.0232932454" flag="0"/>
      <psa30 value="0.0010970811" flag="0"/>
    </comp>
  </station>
  <station code="AIGS" name="AIGS" netid="HA" insttype="DC" lat="38.25" lon="22.0878">
    <comp name="--.HNE">
      <acc value="0.1363650446" flag="0"/>
      <vel value="0.0445713237" flag="0"/>
      <psa03 value="0.1276595032" flag="0"/>
      <psa10 value="0.0102505548" flag="0"/>
      <psa30 value="0.0013520477" flag="0"/>
    </comp>
    <comp name="--.HNZ">
      <acc value="0.0861440380" flag="0"/>
      <vel value="0.0154454197" flag="0"/>
      <psa03 value="0.0680151131" flag="0"/>
      <psa10 value="0.0104976709" flag="0"/>
      <psa30 value="0.0016369038" flag="0"/>
    </comp>
    <comp name="--.HNN">
      <acc value="0.1007974039" flag="0"/>
      <vel value="0.0291806394" flag="0"/>
      <psa03 value="0.1282808329" flag="0"/>
      <psa10 value="0.0108657360" flag="0"/>
      <psa30 value="0.0011594069" flag="0"/>
    </comp>
  </station>
  <station code="AMPE" name="AMPE" netid="HA" insttype="1s-100Hz," lat="38.3015" lon="23.2688">
    <comp name="--.HHE">
      <acc value="0.0082711268" flag="0"/>
      <vel value="0.0045227119" flag="0"/>
      <psa03 value="0.0152793645" flag="0"/>
      <psa10 value="0.0063161091" flag="0"/>
      <psa30 value="0.0007082484" flag="0"/>
    </comp>
    <comp name="--.HHN">
      <acc value="0.0063868662" flag="0"/>
      <vel value="0.0045254937" flag="0"/>
      <psa03 value="0.0194257373" flag="0"/>
      <psa10 value="0.0071800389" flag="0"/>
      <psa30 value="0.0008919112" flag="0"/>
    </comp>
    <comp name="--.HHZ">
      <acc value="0.0043332788" flag="0"/>
      <vel value="0.0027909837" flag="0"/>
      <psa03 value="0.0087549229" flag="0"/>
      <psa10 value="0.0026386331" flag="0"/>
      <psa30 value="0.0004188764" flag="0"/>
    </comp>
  </station>
  <station code="ATAL" name="ATAL" netid="HA" insttype="120s," lat="38.6926" lon="23.0213">
    <comp name="--.HHN">
      <acc value="0.0162424046" flag="0"/>
      <vel value="0.0082258079" flag="0"/>
      <psa03 value="0.0211075858" flag="0"/>
      <psa10 value="0.0098920454" flag="0"/>
      <psa30 value="0.0006222887" flag="0"/>
    </comp>
    <comp name="--.HHZ">
      <acc value="0.0177892305" flag="0"/>
      <vel value="0.0044828792" flag="0"/>
      <psa03 value="0.0137377534" flag="0"/>
      <psa10 value="0.0044819497" flag="0"/>
      <psa30 value="0.0002449286" flag="0"/>
    </comp>
    <comp name="--.HHE">
      <acc value="0.0143628386" flag="0"/>
      <vel value="0.0029076169" flag="0"/>
      <psa03 value="0.0148927118" flag="0"/>
      <psa10 value="0.0030900580" flag="0"/>
      <psa30 value="0.0001964986" flag="0"/>
    </comp>
  </station>
  <station code="AXAR" name="AXAR" netid="HA" insttype="Horizon,120s,1200" lat="38.7664" lon="22.659">
    <comp name="--.HHZ">
      <acc value="0.1063889299" flag="0"/>
      <vel value="0.0310188298" flag="0"/>
      <psa03 value="0.2774896573" flag="0"/>
      <psa10 value="0.0125259043" flag="0"/>
      <psa30 value="0.0010225119" flag="0"/>
    </comp>
    <comp name="--.HHE">
      <acc value="0.2372629860" flag="0"/>
      <vel value="0.0758109829" flag="0"/>
      <psa03 value="0.4317215520" flag="0"/>
      <psa10 value="0.0276753633" flag="0"/>
      <psa30 value="0.0019156582" flag="0"/>
    </comp>
    <comp name="--.HHN">
      <acc value="0.2111472225" flag="0"/>
      <vel value="0.0565933598" flag="0"/>
      <psa03 value="0.3175690770" flag="0"/>
      <psa10 value="0.0280664819" flag="0"/>
      <psa30 value="0.0022889937" flag="0"/>
    </comp>
  </station>
  <station code="DOMV" name="DOMV" netid="HA" insttype="60" lat="38.2569" lon="22.9795">
    <comp name="--.HHE">
      <acc value="0.0416513079" flag="0"/>
      <vel value="0.0111963183" flag="0"/>
      <psa03 value="0.0446038834" flag="0"/>
      <psa10 value="0.0047329044" flag="0"/>
      <psa30 value="0.0003731389" flag="0"/>
    </comp>
    <comp name="--.HHN">
      <acc value="0.0642685536" flag="0"/>
      <vel value="0.0153226761" flag="0"/>
      <psa03 value="0.0676086212" flag="0"/>
      <psa10 value="0.0077332609" flag="0"/>
      <psa30 value="0.0008596861" flag="0"/>
    </comp>
    <comp name="--.HHZ">
      <acc value="0.0356480125" flag="0"/>
      <vel value="0.0084075821" flag="0"/>
      <psa03 value="0.0455862033" flag="0"/>
      <psa10 value="0.0053531628" flag="0"/>
      <psa30 value="0.0004034362" flag="0"/>
    </comp>
  </station>
  <station code="KALE" name="KALE" netid="HA" insttype="40," lat="38.3911" lon="22.1398">
    <comp name="--.HHE">
      <acc value="0.1791354468" flag="0"/>
      <vel value="0.0449195892" flag="0"/>
      <psa03 value="0.1681562067" flag="0"/>
      <psa10 value="0.0156282676" flag="0"/>
      <psa30 value="0.0015023167" flag="0"/>
    </comp>
    <comp name="--.HHZ">
      <acc value="0.1367674745" flag="0"/>
      <vel value="0.0323817727" flag="0"/>
      <psa03 value="0.0760996353" flag="0"/>
      <psa10 value="0.0098437767" flag="0"/>
      <psa30 value="0.0014778708" flag="0"/>
    </comp>
    <comp name="--.HHN">
      <acc value="0.2848124062" flag="0"/>
      <vel value="0.0603360396" flag="0"/>
      <psa03 value="0.1834795778" flag="0"/>
      <psa10 value="0.0231480667" flag="0"/>
      <psa30 value="0.0016796467" flag="0"/>
    </comp>
  </station>
  <station code="LAKA" name="LAKA" netid="HA" insttype="120s," lat="38.2401" lon="21.9785">
    <comp name="--.HHN">
      <acc value="0.0213807626" flag="0"/>
      <vel value="0.0061464800" flag="0"/>
      <psa03 value="0.0242158350" flag="0"/>
      <psa10 value="0.0047699497" flag="0"/>
      <psa30 value="0.0007192644" flag="0"/>
    </comp>
    <comp name="--.HHZ">
      <acc value="0.0106487345" flag="0"/>
      <vel value="0.0034098651" flag="0"/>
      <psa03 value="0.0125251823" flag="0"/>
      <psa10 value="0.0051918882" flag="0"/>
      <psa30 value="0.0006815471" flag="0"/>
    </comp>
    <comp name="--.HHE">
      <acc value="0.0157134571" flag="0"/>
      <vel value="0.0064676799" flag="0"/>
      <psa03 value="0.0130673679" flag="0"/>
      <psa10 value="0.0033244255" flag="0"/>
      <psa30 value="0.0003903920" flag="0"/>
    </comp>
  </station>
  <station code="LOUT" name="LOUT" netid="HA" insttype="30" lat="37.9879" lon="22.9743">
    <comp name="--.HHE">
      <acc value="0.0163931855" flag="0"/>
      <vel value="0.0071920255" flag="0"/>
      <psa03 value="0.0328011823" flag="0"/>
      <psa10 value="0.0093462952" flag="0"/>
      <psa30 value="0.0005727172" flag="0"/>
    </comp>
    <comp name="--.HHZ">
      <acc value="0.0084968883" flag="0"/>
      <vel value="0.0042206124" flag="0"/>
      <psa03 value="0.0191618763" flag="0"/>
      <psa10 value="0.0035612898" flag="0"/>
      <psa30 value="0.0002521198" flag="0"/>
    </comp>
    <comp name="--.HHN">
      <acc value="0.0145125788" flag="0"/>
      <vel value="0.0081142061" flag="0"/>
      <psa03 value="0.0345002193" flag="0"/>
      <psa10 value="0.0068138795" flag="0"/>
      <psa30 value="0.0004281326" flag="0"/>
    </comp>
  </station>
  <station code="MRKA" name="MRKA" netid="HA" insttype="Horizon,120s,1200" lat="38.7047" lon="23.5863">
    <comp name="--.HHN">
      <acc value="0.0076477207" flag="0"/>
      <vel value="0.0029902864" flag="0"/>
      <psa03 value="0.0196294786" flag="0"/>
      <psa10 value="0.0033684786" flag="0"/>
      <psa30 value="0.0003087030" flag="0"/>
    </comp>
    <comp name="--.HHE">
      <acc value="0.0082801610" flag="0"/>
      <vel value="0.0023319645" flag="0"/>
      <psa03 value="0.0128740294" flag="0"/>
      <psa10 value="0.0027660282" flag="0"/>
      <psa30 value="0.0001483576" flag="0"/>
    </comp>
    <comp name="--.HHZ">
      <acc value="0.0057658002" flag="0"/>
      <vel value="0.0018847052" flag="0"/>
      <psa03 value="0.0074175281" flag="0"/>
      <psa10 value="0.0015017595" flag="0"/>
      <psa30 value="0.0002305446" flag="0"/>
    </comp>
  </station>
  <station code="THAL" name="THAL" netid="HA" insttype="30" lat="38.0357" lon="22.6634">
    <comp name="--.HHE">
      <acc value="0.0556454082" flag="0"/>
      <vel value="0.0169447486" flag="0"/>
      <psa03 value="0.0855088366" flag="0"/>
      <psa10 value="0.0118011906" flag="0"/>
      <psa30 value="0.0008816115" flag="0"/>
    </comp>
    <comp name="--.HHZ">
      <acc value="0.0459604157" flag="0"/>
      <vel value="0.0104910707" flag="0"/>
      <psa03 value="0.0378039722" flag="0"/>
      <psa10 value="0.0096153055" flag="0"/>
      <psa30 value="0.0004717331" flag="0"/>
    </comp>
    <comp name="--.HHN">
      <acc value="0.0539431994" flag="0"/>
      <vel value="0.0147631697" flag="0"/>
      <psa03 value="0.0796395005" flag="0"/>
      <psa10 value="0.0133607773" flag="0"/>
      <psa30 value="0.0007610363" flag="0"/>
    </comp>
  </station>
  <station code="THIV" name="THIV" netid="HA" insttype="25" lat="38.299" lon="23.332">
    <comp name="--.HHE">
      <acc value="0.0057795933" flag="0"/>
      <vel value="0.0034058762" flag="0"/>
      <psa03 value="0.0152555874" flag="0"/>
      <psa10 value="0.0061046244" flag="0"/>
      <psa30 value="0.0002943755" flag="0"/>
    </comp>
    <comp name="--.HHN">
      <acc value="0.0054612992" flag="0"/>
      <vel value="0.0041463128" flag="0"/>
      <psa03 value="0.0092904618" flag="0"/>
      <psa10 value="0.0051958884" flag="0"/>
      <psa30 value="0.0003170297" flag="0"/>
    </comp>
    <comp name="--.HHZ">
      <acc value="0.0038441187" flag="0"/>
      <vel value="0.0020621236" flag="0"/>
      <psa03 value="0.0101348526" flag="0"/>
      <psa10 value="0.0019641728" flag="0"/>
      <psa30 value="0.0003666208" flag="0"/>
    </comp>
  </station>
  <station code="VILL" name="VILL" netid="HA" insttype="Horizon,120s,1200" lat="38.1642" lon="23.3122">
    <comp name="--.HHN">
      <acc value="0.0066294876" flag="0"/>
      <vel value="0.0033356197" flag="0"/>
      <psa03 value="0.0190664368" flag="0"/>
      <psa10 value="0.0035681640" flag="0"/>
      <psa30 value="0.0002884879" flag="0"/>
    </comp>
    <comp name="--.HHZ">
      <acc value="0.0041586863" flag="0"/>
      <vel value="0.0019282178" flag="0"/>
      <psa03 value="0.0097015484" flag="0"/>
      <psa10 value="0.0021590193" flag="0"/>
      <psa30 value="0.0002387671" flag="0"/>
    </comp>
    <comp name="--.HHE">
      <acc value="0.0080938552" flag="0"/>
      <vel value="0.0058960173" flag="0"/>
      <psa03 value="0.0241267236" flag="0"/>
      <psa10 value="0.0092190478" flag="0"/>
      <psa30 value="0.0004568621" flag="0"/>
    </comp>
  </station>
  <station code="KLV1" name="KLV1" netid="HI" insttype="CMG-5TD,ACCELEROMETER,GURALP" lat="38.0326" lon="22.108">
    <comp name="--.HNN">
      <acc value="0.0839594361" flag="0"/>
      <vel value="0.0288499316" flag="0"/>
      <psa03 value="0.1920395215" flag="0"/>
      <psa10 value="0.0198840442" flag="0"/>
      <psa30 value="0.0012101492" flag="0"/>
    </comp>
    <comp name="--.HNE">
      <acc value="0.0565517335" flag="0"/>
      <vel value="0.0217480552" flag="0"/>
      <psa03 value="0.1143412210" flag="0"/>
      <psa10 value="0.0197232243" flag="0"/>
      <psa30 value="0.0009871175" flag="0"/>
    </comp>
    <comp name="--.HNZ">
      <acc value="0.0304922557" flag="0"/>
      <vel value="0.0099622302" flag="0"/>
      <psa03 value="0.0450112927" flag="0"/>
      <psa10 value="0.0065218843" flag="0"/>
      <psa30 value="0.0006611259" flag="0"/>
    </comp>
  </station>
  <station code="LAM2" name="LAM2" netid="HI" insttype="CMG-5TD,ACCELEROMETER,GURALP" lat="38.902" lon="22.4313">
    <comp name="--.HNE">
      <acc value="1.1538602111" flag="0"/>
      <vel value="0.3888634734" flag="0"/>
      <psa03 value="1.3997420968" flag="0"/>
      <psa10 value="0.0778121203" flag="0"/>
      <psa30 value="0.0094057712" flag="0"/>
    </comp>
    <comp name="--.HNZ">
      <acc value="0.6001392497" flag="0"/>
      <vel value="0.0808680693" flag="0"/>
      <psa03 value="0.2328312115" flag="0"/>
      <psa10 value="0.0386672712" flag="0"/>
      <psa30 value="0.0032152058" flag="0"/>
    </comp>
    <comp name="--.HNN">
      <acc value="1.1129660617" flag="0"/>
      <vel value="0.2481366961" flag="0"/>
      <psa03 value="1.1224325880" flag="0"/>
      <psa10 value="0.0616425904" flag="0"/>
      <psa30 value="0.0037583940" flag="0"/>
    </comp>
  </station>
  <station code="VOL2" name="VOL2" netid="HI" insttype="CMG-5TD,ACCELEROMETER,GURALP" lat="39.366" lon="22.9506">
    <comp name="--.HNN">
      <acc value="0.0723401311" flag="0"/>
      <vel value="0.0275784909" flag="0"/>
      <psa03 value="0.2508697252" flag="0"/>
      <psa10 value="0.0104521716" flag="0"/>
      <psa30 value="0.0010939720" flag="0"/>
    </comp>
    <comp name="--.HNZ">
      <acc value="0.0621175664" flag="0"/>
      <vel value="0.0207400869" flag="0"/>
      <psa03 value="0.1141336161" flag="0"/>
      <psa10 value="0.0123884474" flag="0"/>
      <psa30 value="0.0007775102" flag="0"/>
    </comp>
    <comp name="--.HNE">
      <acc value="0.0778572115" flag="0"/>
      <vel value="0.0369919709" flag="0"/>
      <psa03 value="0.2609635200" flag="0"/>
      <psa10 value="0.0196169201" flag="0"/>
      <psa30 value="0.0012225944" flag="0"/>
    </comp>
  </station>
  <station code="DLFA" name="DLFA" netid="HL" insttype="CMG-5" lat="38.4784" lon="22.4958">
    <comp name="00.HNN">
      <acc value="0.1272578874" flag="0"/>
      <vel value="0.0370556483" flag="0"/>
      <psa03 value="0.1269824864" flag="0"/>
      <psa10 value="0.0187355816" flag="0"/>
      <psa30 value="0.0012915576" flag="0"/>
    </comp>
    <comp name="00.HNE">
      <acc value="0.1509409387" flag="0"/>
      <vel value="0.0373423958" flag="0"/>
      <psa03 value="0.1543174364" flag="0"/>
      <psa10 value="0.0178409226" flag="0"/>
      <psa30 value="0.0013077868" flag="0"/>
    </comp>
    <comp name="00.HNZ">
      <acc value="0.1066744942" flag="0"/>
      <vel value="0.0259419743" flag="0"/>
      <psa03 value="0.1127440097" flag="0"/>
      <psa10 value="0.0135530550" flag="0"/>
      <psa30 value="0.0005932107" flag="0"/>
    </comp>
  </station>
  <station code="EVR" name="EVR" netid="HL" insttype="DR24" lat="38.9166" lon="21.8105">
    <comp name="--.HHZ">
      <acc value="0.0574856687" flag="0"/>
      <vel value="0.0151392448" flag="0"/>
      <psa03 value="0.0514581338" flag="0"/>
      <psa10 value="0.0179354936" flag="0"/>
      <psa30 value="0.0014216453" flag="0"/>
    </comp>
    <comp name="--.HHN">
      <acc value="0.0895979538" flag="0"/>
      <vel value="0.0258722556" flag="0"/>
      <psa03 value="0.0819661342" flag="0"/>
      <psa10 value="0.0300879378" flag="0"/>
      <psa30 value="0.0019941669" flag="0"/>
    </comp>
    <comp name="--.HHE">
      <acc value="0.0767719663" flag="0"/>
      <vel value="0.0249859857" flag="0"/>
      <psa03 value="0.0670729188" flag="0"/>
      <psa10 value="0.0219044362" flag="0"/>
      <psa30 value="0.0016337745" flag="0"/>
    </comp>
  </station>
  <station code="GINA" name="GINA" netid="HL" insttype="CMG-5" lat="39.6689" lon="22.389">
    <comp name="00.HNE">
      <acc value="0.0610442843" flag="0"/>
      <vel value="0.0203981848" flag="0"/>
      <psa03 value="0.0839372998" flag="0"/>
      <psa10 value="0.0161686263" flag="0"/>
      <psa30 value="0.0010356739" flag="0"/>
    </comp>
    <comp name="00.HNN">
