<?xml version="1.0" encoding="UTF-8" standalone="yes"?>
<!DOCTYPE earthquake SYSTEM "stationlist.dtd">
<stationlist created="" xmlns="ch.ethz.sed.shakemap.usgs.xml">
  <station code="AGRP" name="AGRP" netid="CL" insttype="CMG40-T" lat="38.3959" lon="21.7228">
    <comp name="00.HHN">
      <acc value="0.0359845357" flag="0"/>
      <vel value="0.0184305995" flag="0"/>
      <psa03 value="0.0799583988" flag="0"/>
      <psa10 value="0.0138290740" flag="0"/>
      <psa30 value="0.0014766262" flag="0"/>
    </comp>
    <comp name="00.HHE">
      <acc value="0.0669938680" flag="0"/>
      <vel value="0.0246108251" flag="0"/>
      <psa03 value="0.1283456526" flag="0"/>
      <psa10 value="0.0175668786" flag="0"/>
      <psa30 value="0.0010446430" flag="0"/>
    </comp>
    <comp name="00.HHZ">
      <acc value="0.0158167490" flag="0"/>
      <vel value="0.0091531865" flag="0"/>
      <psa03 value="0.0221798673" flag="0"/>
      <psa10 value="0.0091422651" flag="0"/>
      <psa30 value="0.0009669549" flag="0"/>
    </comp>
  </station>
  <station code="PSAM" name="PSAM" netid="CL" insttype="CMG40-T" lat="38.3218" lon="22.1842">
    <comp name="00.HHN">
      <acc value="0.1046313238" flag="0"/>
      <vel value="0.0252426539" flag="0"/>
      <psa03 value="0.0705017599" flag="0"/>
      <psa10 value="0.0191199510" flag="0"/>
      <psa30 value="0.0014258290" flag="0"/>
    </comp>
    <comp name="00.HHE">
      <acc value="0.0904702926" flag="0"/>
      <vel value="0.0421441194" flag="0"/>
      <psa03 value="0.1150375524" flag="0"/>
      <psa10 value="0.0291605190" flag="0"/>
      <psa30 value="0.0014805956" flag="0"/>
    </comp>
    <comp name="00.HHZ">
      <acc value="0.0679142631" flag="0"/>
      <vel value="0.0129528641" flag="0"/>
      <psa03 value="0.0496312153" flag="0"/>
      <psa10 value="0.0106211860" flag="0"/>
      <psa30 value="0.0011507587" flag="0"/>
    </comp>
  </station>
  <station code="ROD3" name="ROD3" netid="CL" insttype="CMG40-T" lat="38.3081" lon="21.892">
    <comp name="00.HHN">
      <acc value="0.1759673413" flag="0"/>
      <vel value="0.0662511750" flag="0"/>
      <psa03 value="0.5233490011" flag="0"/>
      <psa10 value="0.0248085878" flag="0"/>
      <psa30 value="0.0019249031" flag="0"/>
    </comp>
    <comp name="00.HHE">
      <acc value="0.1314841519" flag="0"/>
      <vel value="0.0507300216" flag="0"/>
      <psa03 value="0.3915833330" flag="0"/>
      <psa10 value="0.0162997865" flag="0"/>
      <psa30 value="0.0014041012" flag="0"/>
    </comp>
    <comp name="00.HHZ">
      <acc value="0.0795270491" flag="0"/>
      <vel value="0.0248510452" flag="0"/>
      <psa03 value="0.0678740390" flag="0"/>
      <psa10 value="0.0142084824" flag="0"/>
      <psa30 value="0.0008838344" flag="0"/>
    </comp>
  </station>
  <station code="TRIZ" name="TRIZ" netid="CL" insttype="STS-2" lat="38.3654" lon="22.0727">
    <comp name="00.HH2">
      <acc value="0.1299079083" flag="0"/>
      <vel value="0.0514095564" flag="0"/>
      <psa03 value="0.3549722509" flag="0"/>
      <psa10 value="0.0192218403" flag="0"/>
      <psa30 value="0.0020596170" flag="0"/>
    </comp>
    <comp name="00.HHZ">
      <acc value="0.1151455267" flag="0"/>
      <vel value="0.0265894297" flag="0"/>
      <psa03 value="0.0662739604" flag="0"/>
      <psa10 value="0.0181970279" flag="0"/>
      <psa30 value="0.0013370718" flag="0"/>
    </comp>
    <comp name="00.HH3">
      <acc value="0.1771114932" flag="0"/>
      <vel value="0.0637738433" flag="0"/>
      <psa03 value="0.4654375902" flag="0"/>
      <psa10 value="0.0442951628" flag="0"/>
      <psa30 value="0.0018929764" flag="0"/>
    </comp>
  </station>
  <station code="ZIRI" name="ZIRI" netid="CL" insttype="TRILLIUM-40" lat="38.3051" lon="21.9476">
    <comp name="01.HHE">
      <acc value="0.1203488673" flag="0"/>
      <vel value="0.0348849927" flag="0"/>
      <psa03 value="0.1873202751" flag="0"/>
      <psa10 value="0.0157746076" flag="0"/>
      <psa30 value="0.0012029543" flag="0"/>
    </comp>
    <comp name="01.HHZ">
      <acc value="0.0768100573" flag="0"/>
      <vel value="0.0199440747" flag="0"/>
      <psa03 value="0.1137057695" flag="0"/>
      <psa10 value="0.0066546548" flag="0"/>
      <psa30 value="0.0009091926" flag="0"/>
    </comp>
    <comp name="01.HHN">
      <acc value="0.0845124400" flag="0"/>
      <vel value="0.0302121794" flag="0"/>
      <psa03 value="0.1405332608" flag="0"/>
      <psa10 value="0.0232932454" flag="0"/>
      <psa30 value="0.0010970811" flag="0"/>
    </comp>
  </station>
  <station code="THL" name="THL" netid="MN" insttype="" lat="39.5647" lon="22.0144">
    <comp name="--.HHE">
      <acc value="0.0238457669" flag="0"/>
      <vel value="0.0097207155" flag="0"/>
      <psa03 value="0.0573076064" flag="0"/>
      <psa10 value="0.0073140595" flag="0"/>
      <psa30 value="0.0008595661" flag="0"/>
    </comp>
    <comp name="--.HHZ">
      <acc value="0.0204911173" flag="0"/>
      <vel value="0.0065584648" flag="0"/>
      <psa03 value="0.0414229779" flag="0"/>
      <psa10 value="0.0054319076" flag="0"/>
      <psa30 value="0.0005130958" flag="0"/>
    </comp>
    <comp name="--.HHN">
      <acc value="0.0247250204" flag="0"/>
      <vel value="0.0081335712" flag="0"/>
      <psa03 value="0.0360553474" flag="0"/>
      <psa10 value="0.0043262051" flag="0"/>
      <psa30 value="0.0003401102" flag="0"/>
    </comp>
  </station>
</stationlist>
