<?xml version="1.0" encoding="UTF-8" standalone="yes"?>
<!DOCTYPE earthquake SYSTEM "stationlist.dtd">
<stationlist created="" xmlns="ch.ethz.sed.shakemap.usgs.xml">
  <station code="BARME" name="BARME" netid="ME" insttype="CMG-5" lat="42.1055" lon="19.0889">
    <comp name="--.HNE">
      <acc value="0.1064206127" flag="0"/>
      <vel value="0.0572770691" flag="0"/>
      <psa03 value="0.3996410984" flag="0"/>
      <psa10 value="0.1221119828" flag="0"/>
      <psa30 value="0.0054042026" flag="0"/>
    </comp>
    <comp name="--.HNN">
      <acc value="0.1170174112" flag="0"/>
      <vel value="0.0522097580" flag="0"/>
      <psa03 value="0.4061945359" flag="0"/>
      <psa10 value="0.1150319308" flag="0"/>
      <psa30 value="0.0047294878" flag="0"/>
    </comp>
    <comp name="--.HNZ">
      <acc value="0.0420184557" flag="0"/>
      <vel value="0.0324023038" flag="0"/>
      <psa03 value="0.1358692627" flag="0"/>
      <psa10 value="0.0309974214" flag="0"/>
      <psa30 value="0.0020098601" flag="0"/>
    </comp>
  </station>
  <station code="PDG" name="PDG" netid="MN" insttype="" lat="42.4297" lon="19.2608">
    <comp name="--.HHN">
      <acc value="0.0885856972" flag="0"/>
      <vel value="0.0302594033" flag="0"/>
      <psa03 value="0.1910873594" flag="0"/>
      <psa10 value="0.0234050413" flag="0"/>
      <psa30 value="0.0018792152" flag="0"/>
    </comp>
    <comp name="--.HHZ">
      <acc value="0.0637909416" flag="0"/>
      <vel value="0.0229610515" flag="0"/>
      <psa03 value="0.1294600138" flag="0"/>
      <psa10 value="0.0119282775" flag="0"/>
      <psa30 value="0.0008499431" flag="0"/>
    </comp>
    <comp name="--.HHE">
      <acc value="0.0677122622" flag="0"/>
      <vel value="0.0274364636" flag="0"/>
      <psa03 value="0.1426906998" flag="0"/>
      <psa10 value="0.0186652010" flag="0"/>
      <psa30 value="0.0016811815" flag="0"/>
    </comp>
  </station>
  <station code="BH02A" name="BH02A" netid="Y5" insttype="STS2_gen3" lat="43.8746" lon="18.4241">
    <comp name="--.HH1">
      <acc value="0.0588784592" flag="0"/>
      <vel value="0.0295521436" flag="0"/>
      <psa03 value="0.1675465367" flag="0"/>
      <psa10 value="0.0357309143" flag="0"/>
      <psa30 value="0.0023021670" flag="0"/>
    </comp>
    <comp name="--.HHZ">
      <acc value="0.0714916519" flag="0"/>
      <vel value="0.0436999975" flag="0"/>
      <psa03 value="0.2313986969" flag="0"/>
      <psa10 value="0.0387440358" flag="0"/>
      <psa30 value="0.0024612847" flag="0"/>
    </comp>
    <comp name="--.HH2">
      <acc value="0.0595839130" flag="0"/>
      <vel value="0.0257299742" flag="0"/>
      <psa03 value="0.2082302909" flag="0"/>
      <psa10 value="0.0247982134" flag="0"/>
      <psa30 value="0.0020062734" flag="0"/>
    </comp>
  </station>
  <station code="BH03A" name="BH03A" netid="Y5" insttype="STS2_gen3" lat="43.8212" lon="17.6885">
    <comp name="--.HH2">
      <acc value="0.1381401878" flag="0"/>
      <vel value="0.0685912963" flag="0"/>
      <psa03 value="0.2760819217" flag="0"/>
      <psa10 value="0.0451010650" flag="0"/>
      <psa30 value="0.0024245334" flag="0"/>
    </comp>
    <comp name="--.HHZ">
      <acc value="0.0298026176" flag="0"/>
      <vel value="0.0187324454" flag="0"/>
      <psa03 value="0.0910055390" flag="0"/>
      <psa10 value="0.0230634760" flag="0"/>
      <psa30 value="0.0015299487" flag="0"/>
    </comp>
    <comp name="--.HH1">
      <acc value="0.0653003780" flag="0"/>
      <vel value="0.0319020756" flag="0"/>
      <psa03 value="0.1996650452" flag="0"/>
      <psa10 value="0.0251291423" flag="0"/>
      <psa30 value="0.0015440602" flag="0"/>
    </comp>
  </station>
  <station code="BH04A" name="BH04A" netid="Y5" insttype="STS2_gen2" lat="43.3483" lon="17.7935">
    <comp name="--.HH2">
      <acc value="0.2282855782" flag="0"/>
      <vel value="0.0947668306" flag="0"/>
      <psa03 value="0.5999813595" flag="0"/>
      <psa10 value="0.0490112777" flag="0"/>
      <psa30 value="0.0039450895" flag="0"/>
    </comp>
    <comp name="--.HHZ">
      <acc value="0.0892531623" flag="0"/>
      <vel value="0.0463973520" flag="0"/>
      <psa03 value="0.2821324902" flag="0"/>
      <psa10 value="0.0546099396" flag="0"/>
      <psa30 value="0.0020796932" flag="0"/>
    </comp>
    <comp name="--.HH1">
      <acc value="0.2195484806" flag="0"/>
      <vel value="0.1172298206" flag="0"/>
      <psa03 value="0.6000900791" flag="0"/>
      <psa10 value="0.0700539427" flag="0"/>
      <psa30 value="0.0057993061" flag="0"/>
    </comp>
  </station>
  <station code="BH05A" name="BH05A" netid="Y5" insttype="STS2_gen2" lat="43.1695" lon="18.5854">
    <comp name="--.HHZ">
      <acc value="1.2535268659" flag="0"/>
      <vel value="0.3379083227" flag="0"/>
      <psa03 value="0.8895395119" flag="0"/>
      <psa10 value="0.1973210063" flag="0"/>
      <psa30 value="0.0187680271" flag="0"/>
    </comp>
    <comp name="--.HH2">
      <acc value="2.1077021895" flag="0"/>
      <vel value="0.3349893825" flag="0"/>
      <psa03 value="0.9204698505" flag="0"/>
      <psa10 value="0.1131132381" flag="0"/>
      <psa30 value="0.0101593097" flag="0"/>
    </comp>
    <comp name="--.HH1">
      <acc value="2.4920432656" flag="0"/>
      <vel value="0.4856932153" flag="0"/>
      <psa03 value="1.2213707240" flag="0"/>
      <psa10 value="0.1948007012" flag="0"/>
      <psa30 value="0.0161180534" flag="0"/>
    </comp>
  </station>
  <station code="BH06A" name="BH06A" netid="Y5" insttype="STS2_gen3" lat="43.5022" lon="18.4463">
    <comp name="--.HHZ">
      <acc value="0.2057027726" flag="0"/>
      <vel value="0.0896923811" flag="0"/>
      <psa03 value="0.6443589965" flag="0"/>
      <psa10 value="0.0739722384" flag="0"/>
      <psa30 value="0.0042170833" flag="0"/>
    </comp>
    <comp name="--.HH2">
      <acc value="0.4156486579" flag="0"/>
      <vel value="0.1928480523" flag="0"/>
      <psa03 value="1.0449869975" flag="0"/>
      <psa10 value="0.0763234077" flag="0"/>
      <psa30 value="0.0055689649" flag="0"/>
    </comp>
    <comp name="--.HH1">
      <acc value="0.3159178588" flag="0"/>
      <vel value="0.1189646931" flag="0"/>
      <psa03 value="0.8396806116" flag="0"/>
      <psa10 value="0.0478256568" flag="0"/>
      <psa30 value="0.0042238650" flag="0"/>
    </comp>
  </station>
  <station code="BH08A" name="BH08A" netid="Y5" insttype="STS2_gen2" lat="44.2357" lon="18.0082">
    <comp name="--.HHZ">
      <acc value="0.0176325968" flag="0"/>
      <vel value="0.0105819061" flag="0"/>
      <psa03 value="0.0494788530" flag="0"/>
      <psa10 value="0.0133269200" flag="0"/>
      <psa30 value="0.0019665644" flag="0"/>
    </comp>
    <comp name="--.HH2">
      <acc value="0.0242109179" flag="0"/>
      <vel value="0.0147584218" flag="0"/>
      <psa03 value="0.0475967981" flag="0"/>
      <psa10 value="0.0091950651" flag="0"/>
      <psa30 value="0.0016393411" flag="0"/>
    </comp>
    <comp name="--.HH1">
      <acc value="0.0370299928" flag="0"/>
      <vel value="0.0156275693" flag="0"/>
      <psa03 value="0.0934131773" flag="0"/>
      <psa10 value="0.0117091272" flag="0"/>
      <psa30 value="0.0014568407" flag="0"/>
    </comp>
  </station>
</stationlist>
