<?xml version="1.0" encoding="UTF-8" standalone="yes"?>
<!DOCTYPE earthquake SYSTEM "stationlist.dtd">
<stationlist created="" xmlns="ch.ethz.sed.shakemap.usgs.xml">
  <station code="ZKR" name="ZKR" netid="GE" insttype="STS-2/N" lat="35.1147" lon="26.2169">
    <comp name="--.HHN">
      <acc value="0.0176572232" flag="0"/>
      <vel value="0.0048245097" flag="0"/>
      <psa03 value="0.0269383361" flag="0"/>
      <psa10 value="0.0034762233" flag="0"/>
      <psa30 value="0.0001863916" flag="0"/>
    </comp>
    <comp name="--.HHE">
      <acc value="0.0550224547" flag="0"/>
      <vel value="0.0161985977" flag="0"/>
      <psa03 value="0.0978705424" flag="0"/>
      <psa10 value="0.0068196986" flag="0"/>
      <psa30 value="0.0004260453" flag="0"/>
    </comp>
    <comp name="--.HHZ">
      <acc value="0.0473854856" flag="0"/>
      <vel value="0.0069147270" flag="0"/>
      <psa03 value="0.0361172971" flag="0"/>
      <psa10 value="0.0036403958" flag="0"/>
      <psa30 value="0.0001976616" flag="0"/>
    </comp>
  </station>
  <station code="SNT5" name="SNT5" netid="HA" insttype="1s-100Hz," lat="36.4037" lon="25.3953">
    <comp name="--.HHN">
      <acc value="0.0687899353" flag="0"/>
      <vel value="0.0110003594" flag="0"/>
      <psa03 value="0.0278693731" flag="0"/>
      <psa10 value="0.0019286571" flag="0"/>
      <psa30 value="0.0004733768" flag="0"/>
    </comp>
    <comp name="--.HHE">
      <acc value="0.0939405155" flag="0"/>
      <vel value="0.0151799512" flag="0"/>
      <psa03 value="0.0602493145" flag="0"/>
      <psa10 value="0.0048957014" flag="0"/>
      <psa30 value="0.0003225042" flag="0"/>
    </comp>
    <comp name="--.HHZ">
      <acc value="0.0611102501" flag="0"/>
      <vel value="0.0074617680" flag="0"/>
      <psa03 value="0.0189754292" flag="0"/>
      <psa10 value="0.0019045759" flag="0"/>
      <psa30 value="0.0001461662" flag="0"/>
    </comp>
  </station>
  <station code="PFKS" name="PFKS" netid="HC" insttype="120" lat="35.0429" lon="25.4733">
    <comp name="--.HHN">
      <acc value="0.0710237467" flag="0"/>
      <vel value="0.0142979593" flag="0"/>
      <psa03 value="0.0336041066" flag="0"/>
      <psa10 value="0.0038377903" flag="0"/>
      <psa30 value="0.0002647061" flag="0"/>
    </comp>
    <comp name="--.HHZ">
      <acc value="0.0293003351" flag="0"/>
      <vel value="0.0057538109" flag="0"/>
      <psa03 value="0.0171873759" flag="0"/>
      <psa10 value="0.0020967781" flag="0"/>
      <psa30 value="0.0001927892" flag="0"/>
    </comp>
    <comp name="--.HHE">
      <acc value="0.0503929944" flag="0"/>
      <vel value="0.0089947889" flag="0"/>
      <psa03 value="0.0405758897" flag="0"/>
      <psa10 value="0.0038183000" flag="0"/>
      <psa30 value="0.0003219074" flag="0"/>
    </comp>
  </station>
  <station code="STIA" name="STIA" netid="HC" insttype="120" lat="35.2021" lon="26.0909">
    <comp name="--.HHZ">
      <acc value="0.0803119447" flag="0"/>
      <vel value="0.0132205840" flag="0"/>
      <psa03 value="0.0327460543" flag="0"/>
      <psa10 value="0.0030091800" flag="0"/>
      <psa30 value="0.0002732542" flag="0"/>
    </comp>
    <comp name="--.HHE">
      <acc value="0.0622785879" flag="0"/>
      <vel value="0.0117473712" flag="0"/>
      <psa03 value="0.0581246514" flag="0"/>
      <psa10 value="0.0074634718" flag="0"/>
      <psa30 value="0.0004953980" flag="0"/>
    </comp>
    <comp name="--.HHN">
      <acc value="0.0525874284" flag="0"/>
      <vel value="0.0141407403" flag="0"/>
      <psa03 value="0.0452380459" flag="0"/>
      <psa10 value="0.0064300337" flag="0"/>
      <psa30 value="0.0003818382" flag="0"/>
    </comp>
  </station>
  <station code="NISR" name="NISR" netid="HL" insttype="0" lat="36.6106" lon="27.131">
    <comp name="--.HNE">
      <acc value="0.0216795758" flag="0"/>
      <vel value="0.0073278352" flag="0"/>
      <psa03 value="0.0487836785" flag="0"/>
      <psa10 value="0.0034789903" flag="0"/>
      <psa30 value="0.0002539150" flag="0"/>
    </comp>
    <comp name="--.HNZ">
      <acc value="0.0084155146" flag="0"/>
      <vel value="0.0031272884" flag="0"/>
      <psa03 value="0.0180094465" flag="0"/>
      <psa10 value="0.0018222894" flag="0"/>
      <psa30 value="0.0001450441" flag="0"/>
    </comp>
    <comp name="--.HNN">
      <acc value="0.0203855522" flag="0"/>
      <vel value="0.0057225806" flag="0"/>
      <psa03 value="0.0295593444" flag="0"/>
      <psa10 value="0.0018728040" flag="0"/>
      <psa30 value="0.0001945906" flag="0"/>
    </comp>
  </station>
  <station code="NISR2" name="NISR2" netid="HL" insttype="120" lat="36.5744" lon="27.1767">
    <comp name="--.HHN">
      <acc value="0.0379408396" flag="0"/>
      <vel value="0.0196891918" flag="0"/>
      <psa03 value="0.1709985005" flag="0"/>
      <psa10 value="0.0147485004" flag="0"/>
      <psa30 value="0.0007560022" flag="0"/>
    </comp>
    <comp name="--.HHE">
      <acc value="0.0324569507" flag="0"/>
      <vel value="0.0201744016" flag="0"/>
      <psa03 value="0.1313564365" flag="0"/>
      <psa10 value="0.0148034668" flag="0"/>
      <psa30 value="0.0007673217" flag="0"/>
    </comp>
    <comp name="--.HHZ">
      <acc value="0.0123955428" flag="0"/>
      <vel value="0.0059171291" flag="0"/>
      <psa03 value="0.0349499408" flag="0"/>
      <psa10 value="0.0033857112" flag="0"/>
      <psa30 value="0.0001570521" flag="0"/>
    </comp>
  </station>
  <station code="NPS" name="NPS" netid="HL" insttype="CMG3ESPC-120s" lat="35.2613" lon="25.6104">
    <comp name="--.HHN">
      <acc value="0.0952195791" flag="0"/>
      <vel value="0.0171282244" flag="0"/>
      <psa03 value="0.0466261585" flag="0"/>
      <psa10 value="0.0039037833" flag="0"/>
      <psa30 value="0.0003831917" flag="0"/>
    </comp>
    <comp name="--.HHZ">
      <acc value="0.0749092979" flag="0"/>
      <vel value="0.0128077179" flag="0"/>
      <psa03 value="0.0453202451" flag="0"/>
      <psa10 value="0.0035187786" flag="0"/>
      <psa30 value="0.0002314002" flag="0"/>
    </comp>
    <comp name="--.HHE">
      <acc value="0.0276358323" flag="0"/>
      <vel value="0.0069294121" flag="0"/>
      <psa03 value="0.0320434983" flag="0"/>
      <psa10 value="0.0029450724" flag="0"/>
      <psa30 value="0.0002097315" flag="0"/>
    </comp>
  </station>
  <station code="ZKR" name="ZKR" netid="HL" insttype="120" lat="35.1147" lon="26.2169">
    <comp name="--.HHZ">
      <acc value="0.0463118115" flag="0"/>
      <vel value="0.0066521327" flag="0"/>
      <psa03 value="0.0351000637" flag="0"/>
      <psa10 value="0.0036156545" flag="0"/>
      <psa30 value="0.0001952087" flag="0"/>
    </comp>
    <comp name="--.HHN">
      <acc value="0.0174906933" flag="0"/>
      <vel value="0.0047210957" flag="0"/>
      <psa03 value="0.0261200186" flag="0"/>
      <psa10 value="0.0034459207" flag="0"/>
      <psa30 value="0.0001836153" flag="0"/>
    </comp>
    <comp name="--.HHE">
      <acc value="0.0537723576" flag="0"/>
      <vel value="0.0159106482" flag="0"/>
      <psa03 value="0.0950943991" flag="0"/>
      <psa10 value="0.0067987378" flag="0"/>
      <psa30 value="0.0004223677" flag="0"/>
    </comp>
  </station>
</stationlist>
