<?xml version="1.0" encoding="UTF-8" standalone="yes"?>
<!DOCTYPE earthquake SYSTEM "stationlist.dtd">
<stationlist created="" xmlns="ch.ethz.sed.shakemap.usgs.xml">
  <station code="THERA" name="THERA" netid="GE" insttype="STS-2/N" lat="36.367" lon="25.4753">
    <comp name="--.HHZ">
      <acc value="0.0155973246" flag="0"/>
      <vel value="0.0034241839" flag="0"/>
      <psa03 value="0.0163862728" flag="0"/>
      <psa10 value="0.0015388456" flag="0"/>
      <psa30 value="0.0000817434" flag="0"/>
    </comp>
    <comp name="--.HHE">
      <acc value="0.0222080102" flag="0"/>
      <vel value="0.0034531191" flag="0"/>
      <psa03 value="0.0187565449" flag="0"/>
      <psa10 value="0.0011978145" flag="0"/>
      <psa30 value="0.0001152411" flag="0"/>
    </comp>
    <comp name="--.HHN">
      <acc value="0.0176841530" flag="0"/>
      <vel value="0.0043006455" flag="0"/>
      <psa03 value="0.0202192459" flag="0"/>
      <psa10 value="0.0013491543" flag="0"/>
      <psa30 value="0.0000941382" flag="0"/>
    </comp>
  </station>
  <station code="ZKR" name="ZKR" netid="GE" insttype="STS-2/N" lat="35.1147" lon="26.2169">
    <comp name="--.HHE">
      <acc value="0.0550224546" flag="0"/>
      <vel value="0.0161985971" flag="0"/>
      <psa03 value="0.0978705424" flag="0"/>
      <psa10 value="0.0068196986" flag="0"/>
      <psa30 value="0.0004259682" flag="0"/>
    </comp>
    <comp name="--.HHN">
      <acc value="0.0176572233" flag="0"/>
      <vel value="0.0048245096" flag="0"/>
      <psa03 value="0.0269383361" flag="0"/>
      <psa10 value="0.0034762233" flag="0"/>
      <psa30 value="0.0001863838" flag="0"/>
    </comp>
    <comp name="--.HHZ">
      <acc value="0.0473854855" flag="0"/>
      <vel value="0.0069147271" flag="0"/>
      <psa03 value="0.0361172971" flag="0"/>
      <psa10 value="0.0036403958" flag="0"/>
      <psa30 value="0.0001976686" flag="0"/>
    </comp>
  </station>
  <station code="SNT5" name="SNT5" netid="HA" insttype="1s-100Hz," lat="36.4037" lon="25.3953">
    <comp name="--.HHN">
      <acc value="0.0687899354" flag="0"/>
      <vel value="0.0110003933" flag="0"/>
      <psa03 value="0.0278693732" flag="0"/>
      <psa10 value="0.0019286571" flag="0"/>
      <psa30 value="0.0004734005" flag="0"/>
    </comp>
    <comp name="--.HHZ">
      <acc value="0.0611102497" flag="0"/>
      <vel value="0.0074618442" flag="0"/>
      <psa03 value="0.0189754297" flag="0"/>
      <psa10 value="0.0019045755" flag="0"/>
      <psa30 value="0.0001462007" flag="0"/>
    </comp>
    <comp name="--.HHE">
      <acc value="0.0939405179" flag="0"/>
      <vel value="0.0151803984" flag="0"/>
      <psa03 value="0.0602493121" flag="0"/>
      <psa10 value="0.0048956992" flag="0"/>
      <psa30 value="0.0003224889" flag="0"/>
    </comp>
  </station>
  <station code="KNSS" name="KNSS" netid="HC" insttype="60" lat="35.3042" lon="25.1802">
    <comp name="--.HHE">
      <acc value="0.0347670882" flag="0"/>
      <vel value="0.0084108642" flag="0"/>
      <psa03 value="0.0391516380" flag="0"/>
      <psa10 value="0.0034380018" flag="0"/>
      <psa30 value="0.0002420188" flag="0"/>
    </comp>
    <comp name="--.HHN">
      <acc value="0.0368369843" flag="0"/>
      <vel value="0.0070111875" flag="0"/>
      <psa03 value="0.0268429178" flag="0"/>
      <psa10 value="0.0021873831" flag="0"/>
      <psa30 value="0.0002206029" flag="0"/>
    </comp>
    <comp name="--.HHZ">
      <acc value="0.0331729895" flag="0"/>
      <vel value="0.0072546430" flag="0"/>
      <psa03 value="0.0178496727" flag="0"/>
      <psa10 value="0.0018921441" flag="0"/>
      <psa30 value="0.0001087388" flag="0"/>
    </comp>
  </station>
  <station code="PFKS" name="PFKS" netid="HC" insttype="120" lat="35.0429" lon="25.4733">
    <comp name="--.HHE">
      <acc value="0.0503929944" flag="0"/>
      <vel value="0.0089947891" flag="0"/>
      <psa03 value="0.0405758897" flag="0"/>
      <psa10 value="0.0038183000" flag="0"/>
      <psa30 value="0.0003218842" flag="0"/>
    </comp>
    <comp name="--.HHN">
      <acc value="0.0710237467" flag="0"/>
      <vel value="0.0142979589" flag="0"/>
      <psa03 value="0.0336041066" flag="0"/>
      <psa10 value="0.0038377903" flag="0"/>
      <psa30 value="0.0002647051" flag="0"/>
    </comp>
    <comp name="--.HHZ">
      <acc value="0.0293003350" flag="0"/>
      <vel value="0.0057538110" flag="0"/>
      <psa03 value="0.0171873759" flag="0"/>
      <psa10 value="0.0020967782" flag="0"/>
      <psa30 value="0.0001928031" flag="0"/>
    </comp>
  </station>
  <station code="STIA" name="STIA" netid="HC" insttype="120" lat="35.2021" lon="26.0909">
    <comp name="--.HHZ">
      <acc value="0.0803119448" flag="0"/>
      <vel value="0.0132205851" flag="0"/>
      <psa03 value="0.0327460543" flag="0"/>
      <psa10 value="0.0030091798" flag="0"/>
      <psa30 value="0.0002732836" flag="0"/>
    </comp>
    <comp name="--.HHE">
      <acc value="0.0622785879" flag="0"/>
      <vel value="0.0117473704" flag="0"/>
      <psa03 value="0.0581246514" flag="0"/>
      <psa10 value="0.0074634718" flag="0"/>
      <psa30 value="0.0004953529" flag="0"/>
    </comp>
    <comp name="--.HHN">
      <acc value="0.0525874284" flag="0"/>
      <vel value="0.0141407405" flag="0"/>
      <psa03 value="0.0452380459" flag="0"/>
      <psa10 value="0.0064300339" flag="0"/>
      <psa30 value="0.0003818606" flag="0"/>
    </comp>
  </station>
  <station code="NISR" name="NISR" netid="HL" insttype="65535" lat="36.6106" lon="27.131">
    <comp name="--.HHZ">
      <acc value="0.0081573578" flag="0"/>
      <vel value="0.0035913830" flag="0"/>
      <psa03 value="0.0176723350" flag="0"/>
      <psa10 value="0.0017766575" flag="0"/>
      <psa30 value="0.0001188673" flag="0"/>
    </comp>
    <comp name="--.HHN">
      <acc value="0.0214399784" flag="0"/>
      <vel value="0.0060288120" flag="0"/>
      <psa03 value="0.0285368172" flag="0"/>
      <psa10 value="0.0021839687" flag="0"/>
      <psa30 value="0.0001981251" flag="0"/>
    </comp>
    <comp name="--.HHE">
      <acc value="0.0239972606" flag="0"/>
      <vel value="0.0081772367" flag="0"/>
      <psa03 value="0.0542363056" flag="0"/>
      <psa10 value="0.0035951210" flag="0"/>
      <psa30 value="0.0002698823" flag="0"/>
    </comp>
  </station>
  <station code="NISR2" name="NISR2" netid="HL" insttype="120" lat="36.5744" lon="27.1767">
    <comp name="--.HHE">
      <acc value="0.0324569506" flag="0"/>
      <vel value="0.0201744026" flag="0"/>
      <psa03 value="0.1313564365" flag="0"/>
      <psa10 value="0.0148034669" flag="0"/>
      <psa30 value="0.0007672973" flag="0"/>
    </comp>
    <comp name="--.HHN">
      <acc value="0.0379408395" flag="0"/>
      <vel value="0.0196891911" flag="0"/>
      <psa03 value="0.1709985005" flag="0"/>
      <psa10 value="0.0147485004" flag="0"/>
      <psa30 value="0.0007560039" flag="0"/>
    </comp>
    <comp name="--.HHZ">
      <acc value="0.0123955430" flag="0"/>
      <vel value="0.0059171291" flag="0"/>
      <psa03 value="0.0349499408" flag="0"/>
      <psa10 value="0.0033857113" flag="0"/>
      <psa30 value="0.0001570029" flag="0"/>
    </comp>
  </station>
  <station code="NPS" name="NPS" netid="HL" insttype="CMG3ESPC-120s" lat="35.2613" lon="25.6104">
    <comp name="--.HHE">
      <acc value="0.0276358324" flag="0"/>
      <vel value="0.0069294120" flag="0"/>
      <psa03 value="0.0320434983" flag="0"/>
      <psa10 value="0.0029450724" flag="0"/>
      <psa30 value="0.0002097303" flag="0"/>
    </comp>
    <comp name="--.HHN">
      <acc value="0.0952195791" flag="0"/>
      <vel value="0.0171282243" flag="0"/>
      <psa03 value="0.0466261585" flag="0"/>
      <psa10 value="0.0039037832" flag="0"/>
      <psa30 value="0.0003831894" flag="0"/>
    </comp>
    <comp name="--.HHZ">
      <acc value="0.0749092980" flag="0"/>
      <vel value="0.0128077178" flag="0"/>
      <psa03 value="0.0453202451" flag="0"/>
      <psa10 value="0.0035187786" flag="0"/>
      <psa30 value="0.0002314032" flag="0"/>
    </comp>
  </station>
  <station code="THERA" name="THERA" netid="HL" insttype="120" lat="36.367" lon="25.4753">
    <comp name="--.HHZ">
      <acc value="0.0154871642" flag="0"/>
      <vel value="0.0033474147" flag="0"/>
      <psa03 value="0.0159145310" flag="0"/>
      <psa10 value="0.0015265114" flag="0"/>
      <psa30 value="0.0000803339" flag="0"/>
    </comp>
    <comp name="--.HHN">
      <acc value="0.0172487432" flag="0"/>
      <vel value="0.0041961157" flag="0"/>
      <psa03 value="0.0197130808" flag="0"/>
      <psa10 value="0.0013324854" flag="0"/>
      <psa30 value="0.0000930221" flag="0"/>
    </comp>
    <comp name="--.HHE">
      <acc value="0.0216364824" flag="0"/>
      <vel value="0.0033379354" flag="0"/>
      <psa03 value="0.0181736974" flag="0"/>
      <psa10 value="0.0011908922" flag="0"/>
      <psa30 value="0.0001137060" flag="0"/>
    </comp>
  </station>
  <station code="THRA" name="THRA" netid="HL" insttype="CMG-5" lat="36.415" lon="25.4324">
    <comp name="00.HNE">
      <acc value="0.0595861936" flag="0"/>
      <vel value="0.0155250583" flag="0"/>
      <psa03 value="0.0783600078" flag="0"/>
      <psa10 value="0.0126320271" flag="0"/>
      <psa30 value="0.0007670579" flag="0"/>
    </comp>
    <comp name="00.HNN">
      <acc value="0.0452852679" flag="0"/>
      <vel value="0.0110225182" flag="0"/>
      <psa03 value="0.0568406800" flag="0"/>
      <psa10 value="0.0078371556" flag="0"/>
      <psa30 value="0.0005665933" flag="0"/>
    </comp>
    <comp name="00.HNZ">
      <acc value="0.0532779683" flag="0"/>
      <vel value="0.0105368738" flag="0"/>
      <psa03 value="0.0559453148" flag="0"/>
      <psa10 value="0.0049875661" flag="0"/>
      <psa30 value="0.0002580037" flag="0"/>
    </comp>
  </station>
  <station code="ZKR" name="ZKR" netid="HL" insttype="120" lat="35.1147" lon="26.2169">
    <comp name="--.HHE">
      <acc value="0.0537723575" flag="0"/>
      <vel value="0.0159106479" flag="0"/>
      <psa03 value="0.0950943991" flag="0"/>
      <psa10 value="0.0067987377" flag="0"/>
      <psa30 value="0.0004223301" flag="0"/>
    </comp>
    <comp name="--.HHN">
      <acc value="0.0174906934" flag="0"/>
      <vel value="0.0047210957" flag="0"/>
      <psa03 value="0.0261200186" flag="0"/>
      <psa10 value="0.0034459207" flag="0"/>
      <psa30 value="0.0001836113" flag="0"/>
    </comp>
    <comp name="--.HHZ">
      <acc value="0.0463118115" flag="0"/>
      <vel value="0.0066521327" flag="0"/>
      <psa03 value="0.0351000637" flag="0"/>
      <psa10 value="0.0036156545" flag="0"/>
      <psa30 value="0.0001952117" flag="0"/>
    </comp>
  </station>
  <station code="CMBO" name="CMBO" netid="HT" insttype="120P," lat="36.4709" lon="25.4056">
    <comp name="--.HHE">
      <acc value="0.1052370676" flag="0"/>
      <vel value="0.0459156634" flag="0"/>
      <psa03 value="0.1567120435" flag="0"/>
      <psa10 value="0.0128301695" flag="0"/>
      <psa30 value="0.0010652928" flag="0"/>
    </comp>
    <comp name="--.HHN">
      <acc value="0.1172789833" flag="0"/>
      <vel value="0.0293979840" flag="0"/>
      <psa03 value="0.2930911772" flag="0"/>
      <psa10 value="0.0180523512" flag="0"/>
      <psa30 value="0.0011996605" flag="0"/>
    </comp>
    <comp name="--.HHZ">
      <acc value="0.1263185375" flag="0"/>
      <vel value="0.0434079051" flag="0"/>
      <psa03 value="0.2009152666" flag="0"/>
      <psa10 value="0.0073622583" flag="0"/>
      <psa30 value="0.0006797016" flag="0"/>
    </comp>
  </station>
</stationlist>
