<?xml version="1.0" encoding="UTF-8" standalone="yes"?>
<!DOCTYPE earthquake SYSTEM "stationlist.dtd">
<stationlist created="" xmlns="ch.ethz.sed.shakemap.usgs.xml">
  <station code="APE" name="APE" netid="GE" insttype="STS-2/N" lat="37.0727" lon="25.523">
    <comp name="--.HHZ">
      <acc value="0.0765961732" flag="0"/>
      <vel value="0.0184448644" flag="0"/>
      <psa03 value="0.0828250623" flag="0"/>
      <psa10 value="0.0078698153" flag="0"/>
      <psa30 value="0.0024681447" flag="0"/>
    </comp>
    <comp name="--.HHN">
      <acc value="0.2018214813" flag="0"/>
      <vel value="0.0310602852" flag="0"/>
      <psa03 value="0.1040733594" flag="0"/>
      <psa10 value="0.0122608182" flag="0"/>
      <psa30 value="0.0020951531" flag="0"/>
    </comp>
    <comp name="--.HHE">
      <acc value="0.1497055179" flag="0"/>
      <vel value="0.0310652107" flag="0"/>
      <psa03 value="0.1360126284" flag="0"/>
      <psa10 value="0.0113607688" flag="0"/>
      <psa30 value="0.0022316363" flag="0"/>
    </comp>
  </station>
  <station code="THERA" name="THERA" netid="GE" insttype="STS-2/N" lat="36.367" lon="25.4753">
    <comp name="--.HHZ">
      <acc value="0.0597616685" flag="0"/>
      <vel value="0.0120855922" flag="0"/>
      <psa03 value="0.0454668907" flag="0"/>
      <psa10 value="0.0061620834" flag="0"/>
      <psa30 value="0.0009910559" flag="0"/>
    </comp>
    <comp name="--.HHN">
      <acc value="0.0384113327" flag="0"/>
      <vel value="0.0097600951" flag="0"/>
      <psa03 value="0.0475384311" flag="0"/>
      <psa10 value="0.0043144375" flag="0"/>
      <psa30 value="0.0008864137" flag="0"/>
    </comp>
    <comp name="--.HHE">
      <acc value="0.0660277738" flag="0"/>
      <vel value="0.0137796444" flag="0"/>
      <psa03 value="0.0764777859" flag="0"/>
      <psa10 value="0.0088993033" flag="0"/>
      <psa30 value="0.0017727664" flag="0"/>
    </comp>
  </station>
  <station code="SNT1" name="SNT1" netid="HA" insttype="30" lat="36.4159" lon="25.4282">
    <comp name="--.HHE">
      <acc value="0.0490006094" flag="0"/>
      <vel value="0.0107906073" flag="0"/>
      <psa03 value="0.0386166398" flag="0"/>
      <psa10 value="0.0142751061" flag="0"/>
      <psa30 value="0.0031539153" flag="0"/>
    </comp>
    <comp name="--.HHZ">
      <acc value="0.0347515221" flag="0"/>
      <vel value="0.0097748184" flag="0"/>
      <psa03 value="0.0408890735" flag="0"/>
      <psa10 value="0.0122119808" flag="0"/>
      <psa30 value="0.0013033636" flag="0"/>
    </comp>
    <comp name="--.HHN">
      <acc value="0.0319497609" flag="0"/>
      <vel value="0.0120135939" flag="0"/>
      <psa03 value="0.0391590757" flag="0"/>
      <psa10 value="0.0144305967" flag="0"/>
      <psa30 value="0.0023416278" flag="0"/>
    </comp>
  </station>
  <station code="NAX1" name="NAX1" netid="HI" insttype="CMG-5TD,ACCELEROMETER,GURALP" lat="37.1014" lon="25.3741">
    <comp name="--.HNE">
      <acc value="0.0879161644" flag="0"/>
      <vel value="0.0189200393" flag="0"/>
      <psa03 value="0.1166526754" flag="0"/>
      <psa10 value="0.0075585532" flag="0"/>
      <psa30 value="0.0008914911" flag="0"/>
    </comp>
    <comp name="--.HNN">
      <acc value="0.1031830435" flag="0"/>
      <vel value="0.0185729787" flag="0"/>
      <psa03 value="0.0768965546" flag="0"/>
      <psa10 value="0.0075562963" flag="0"/>
      <psa30 value="0.0011032398" flag="0"/>
    </comp>
    <comp name="--.HNZ">
      <acc value="0.0546600371" flag="0"/>
      <vel value="0.0120975816" flag="0"/>
      <psa03 value="0.0590283888" flag="0"/>
      <psa10 value="0.0061286963" flag="0"/>
      <psa30 value="0.0016444237" flag="0"/>
    </comp>
  </station>
  <station code="AMGA" name="AMGA" netid="HL" insttype="SMART24" lat="36.8316" lon="25.8938">
    <comp name="--.HHE">
      <acc value="1.6033816134" flag="0"/>
      <vel value="0.3101222852" flag="0"/>
      <psa03 value="0.7536613574" flag="0"/>
      <psa10 value="0.0566270101" flag="0"/>
      <psa30 value="0.0044161091" flag="0"/>
    </comp>
    <comp name="--.HHZ">
      <acc value="1.2900008843" flag="0"/>
      <vel value="0.3568912273" flag="0"/>
      <psa03 value="1.1777548667" flag="0"/>
      <psa10 value="0.0723544049" flag="0"/>
      <psa30 value="0.0075150870" flag="0"/>
    </comp>
    <comp name="--.HHN">
      <acc value="1.3578862634" flag="0"/>
      <vel value="0.2587313913" flag="0"/>
      <psa03 value="0.8734813928" flag="0"/>
      <psa10 value="0.0974289787" flag="0"/>
      <psa30 value="0.0060973966" flag="0"/>
    </comp>
  </station>
  <station code="APE" name="APE" netid="HL" insttype="120" lat="37.0727" lon="25.523">
    <comp name="--.HHE">
      <acc value="0.1380512667" flag="0"/>
      <vel value="0.0299260496" flag="0"/>
      <psa03 value="0.1328174267" flag="0"/>
      <psa10 value="0.0111581806" flag="0"/>
      <psa30 value="0.0022250264" flag="0"/>
    </comp>
    <comp name="--.HHN">
      <acc value="0.1736702650" flag="0"/>
      <vel value="0.0297902489" flag="0"/>
      <psa03 value="0.1010679938" flag="0"/>
      <psa10 value="0.0121638923" flag="0"/>
      <psa30 value="0.0020864975" flag="0"/>
    </comp>
    <comp name="--.HHZ">
      <acc value="0.0654753384" flag="0"/>
      <vel value="0.0175386418" flag="0"/>
      <psa03 value="0.0808160907" flag="0"/>
      <psa10 value="0.0077824056" flag="0"/>
      <psa30 value="0.0024622967" flag="0"/>
    </comp>
  </station>
  <station code="MHLO" name="MHLO" netid="HL" insttype="20" lat="36.6898" lon="24.4017">
    <comp name="--.HHE">
      <acc value="0.0327252644" flag="0"/>
      <vel value="0.0162346186" flag="0"/>
      <psa03 value="0.0655175267" flag="0"/>
      <psa10 value="0.0324881900" flag="0"/>
      <psa30 value="0.0018232680" flag="0"/>
    </comp>
    <comp name="--.HHN">
      <acc value="0.0250340229" flag="0"/>
      <vel value="0.0122426241" flag="0"/>
      <psa03 value="0.0787230550" flag="0"/>
      <psa10 value="0.0194160268" flag="0"/>
      <psa30 value="0.0012985587" flag="0"/>
    </comp>
    <comp name="--.HHZ">
      <acc value="0.0141434623" flag="0"/>
      <vel value="0.0081317713" flag="0"/>
      <psa03 value="0.0384163971" flag="0"/>
      <psa10 value="0.0148122915" flag="0"/>
      <psa30 value="0.0010066967" flag="0"/>
    </comp>
  </station>
  <station code="SAP3" name="SAP3" netid="HL" insttype="LE3D20_SMART24" lat="36.4356" lon="25.3454">
    <comp name="--.HHE">
      <acc value="0.1156872765" flag="0"/>
      <vel value="0.0350524895" flag="0"/>
      <psa03 value="0.1886481449" flag="0"/>
      <psa10 value="0.0387434282" flag="0"/>
      <psa30 value="0.0099597066" flag="0"/>
    </comp>
    <comp name="--.HHN">
      <acc value="0.1204619681" flag="0"/>
      <vel value="0.0385512858" flag="0"/>
      <psa03 value="0.2212111887" flag="0"/>
      <psa10 value="0.0433837434" flag="0"/>
      <psa30 value="0.0100943415" flag="0"/>
    </comp>
    <comp name="--.HHZ">
      <acc value="0.1757131752" flag="0"/>
      <vel value="0.0364359548" flag="0"/>
      <psa03 value="0.1453811745" flag="0"/>
      <psa10 value="0.0210316233" flag="0"/>
      <psa30 value="0.0033502738" flag="0"/>
    </comp>
  </station>
  <station code="THERA" name="THERA" netid="HL" insttype="120" lat="36.367" lon="25.4753">
    <comp name="--.HHE">
      <acc value="0.0674022293" flag="0"/>
      <vel value="0.0134663980" flag="0"/>
      <psa03 value="0.0741892180" flag="0"/>
      <psa10 value="0.0088012897" flag="0"/>
      <psa30 value="0.0017703487" flag="0"/>
    </comp>
    <comp name="--.HHZ">
      <acc value="0.0574622795" flag="0"/>
      <vel value="0.0117802351" flag="0"/>
      <psa03 value="0.0442229135" flag="0"/>
      <psa10 value="0.0061073780" flag="0"/>
      <psa30 value="0.0009898165" flag="0"/>
    </comp>
    <comp name="--.HHN">
      <acc value="0.0396454226" flag="0"/>
      <vel value="0.0094871198" flag="0"/>
      <psa03 value="0.0460829564" flag="0"/>
      <psa10 value="0.0042783237" flag="0"/>
      <psa30 value="0.0008869950" flag="0"/>
    </comp>
  </station>
  <station code="THRA" name="THRA" netid="HL" insttype="CMG-5" lat="36.415" lon="25.4324">
    <comp name="00.HNE">
      <acc value="0.1740197244" flag="0"/>
      <vel value="0.0443665664" flag="0"/>
      <psa03 value="0.1914283841" flag="0"/>
      <psa10 value="0.0459538474" flag="0"/>
      <psa30 value="0.0059560078" flag="0"/>
    </comp>
    <comp name="00.HNN">
      <acc value="0.1170274158" flag="0"/>
      <vel value="0.0470095327" flag="0"/>
      <psa03 value="0.1964637935" flag="0"/>
      <psa10 value="0.0445316489" flag="0"/>
      <psa30 value="0.0036652725" flag="0"/>
    </comp>
    <comp name="00.HNZ">
      <acc value="0.1517912024" flag="0"/>
      <vel value="0.0349558528" flag="0"/>
      <psa03 value="0.1436147968" flag="0"/>
      <psa10 value="0.0191648230" flag="0"/>
      <psa30 value="0.0022032146" flag="0"/>
    </comp>
  </station>
  <station code="TNSA" name="TNSA" netid="HL" insttype="CMG-5" lat="37.5394" lon="25.1631">
    <comp name="00.HNE">
      <acc value="0.0441365666" flag="0"/>
      <vel value="0.0124218768" flag="0"/>
      <psa03 value="0.0550506051" flag="0"/>
      <psa10 value="0.0041637038" flag="0"/>
      <psa30 value="0.0004936439" flag="0"/>
    </comp>
    <comp name="00.HNZ">
      <acc value="0.0363070755" flag="0"/>
      <vel value="0.0113550590" flag="0"/>
      <psa03 value="0.0769670516" flag="0"/>
      <psa10 value="0.0070985795" flag="0"/>
      <psa30 value="0.0009895628" flag="0"/>
    </comp>
    <comp name="00.HNN">
      <acc value="0.0418583844" flag="0"/>
      <vel value="0.0141139381" flag="0"/>
      <psa03 value="0.0705357583" flag="0"/>
      <psa10 value="0.0074778132" flag="0"/>
      <psa30 value="0.0007582387" flag="0"/>
    </comp>
  </station>
</stationlist>
