<?xml version="1.0" encoding="UTF-8" standalone="yes"?>
<!DOCTYPE earthquake SYSTEM "stationlist.dtd">
<stationlist created="" xmlns="ch.ethz.sed.shakemap.usgs.xml">
  <station code="APE" name="APE" netid="GE" insttype="STS-2/N" lat="37.0727" lon="25.523">
    <comp name="--.HHE">
      <acc value="0.1497055180" flag="0"/>
      <vel value="0.0310652193" flag="0"/>
      <psa03 value="0.1360126284" flag="0"/>
      <psa10 value="0.0113607690" flag="0"/>
      <psa30 value="0.0022311921" flag="0"/>
    </comp>
    <comp name="--.HHN">
      <acc value="0.2018214812" flag="0"/>
      <vel value="0.0310602939" flag="0"/>
      <psa03 value="0.1040733594" flag="0"/>
      <psa10 value="0.0122608185" flag="0"/>
      <psa30 value="0.0020954109" flag="0"/>
    </comp>
    <comp name="--.HHZ">
      <acc value="0.0765961732" flag="0"/>
      <vel value="0.0184448569" flag="0"/>
      <psa03 value="0.0828250623" flag="0"/>
      <psa10 value="0.0078698149" flag="0"/>
      <psa30 value="0.0024678094" flag="0"/>
    </comp>
  </station>
  <station code="THERA" name="THERA" netid="GE" insttype="STS-2/N" lat="36.367" lon="25.4753">
    <comp name="--.HHE">
      <acc value="0.0660277735" flag="0"/>
      <vel value="0.0137796442" flag="0"/>
      <psa03 value="0.0764777859" flag="0"/>
      <psa10 value="0.0088993032" flag="0"/>
      <psa30 value="0.0017731292" flag="0"/>
    </comp>
    <comp name="--.HHN">
      <acc value="0.0384113326" flag="0"/>
      <vel value="0.0097600902" flag="0"/>
      <psa03 value="0.0475384311" flag="0"/>
      <psa10 value="0.0043144373" flag="0"/>
      <psa30 value="0.0008860670" flag="0"/>
    </comp>
    <comp name="--.HHZ">
      <acc value="0.0597616686" flag="0"/>
      <vel value="0.0120855880" flag="0"/>
      <psa03 value="0.0454668907" flag="0"/>
      <psa10 value="0.0061620860" flag="0"/>
      <psa30 value="0.0009907055" flag="0"/>
    </comp>
  </station>
  <station code="NAX1" name="NAX1" netid="HI" insttype="CMG-5TD,ACCELEROMETER,GURALP" lat="37.1014" lon="25.3741">
    <comp name="--.HNZ">
      <acc value="0.0546600374" flag="0"/>
      <vel value="0.0120975859" flag="0"/>
      <psa03 value="0.0590283888" flag="0"/>
      <psa10 value="0.0061286969" flag="0"/>
      <psa30 value="0.0016443675" flag="0"/>
    </comp>
    <comp name="--.HNN">
      <acc value="0.1031830408" flag="0"/>
      <vel value="0.0185729762" flag="0"/>
      <psa03 value="0.0768965546" flag="0"/>
      <psa10 value="0.0075562955" flag="0"/>
      <psa30 value="0.0011034076" flag="0"/>
    </comp>
    <comp name="--.HNE">
      <acc value="0.0879161648" flag="0"/>
      <vel value="0.0189200399" flag="0"/>
      <psa03 value="0.1166526754" flag="0"/>
      <psa10 value="0.0075585526" flag="0"/>
      <psa30 value="0.0008913877" flag="0"/>
    </comp>
  </station>
  <station code="AMGA" name="AMGA" netid="HL" insttype="SMART24" lat="36.8316" lon="25.8938">
    <comp name="--.HHE">
      <acc value="1.6033816130" flag="0"/>
      <vel value="0.3101223447" flag="0"/>
      <psa03 value="0.7536613575" flag="0"/>
      <psa10 value="0.0566270079" flag="0"/>
      <psa30 value="0.0044113201" flag="0"/>
    </comp>
    <comp name="--.HHN">
      <acc value="1.3578862635" flag="0"/>
      <vel value="0.2587313731" flag="0"/>
      <psa03 value="0.8734813928" flag="0"/>
      <psa10 value="0.0974289764" flag="0"/>
      <psa30 value="0.0060923068" flag="0"/>
    </comp>
    <comp name="--.HHZ">
      <acc value="1.2900008843" flag="0"/>
      <vel value="0.3568912074" flag="0"/>
      <psa03 value="1.1777548667" flag="0"/>
      <psa10 value="0.0723544011" flag="0"/>
      <psa30 value="0.0075180292" flag="0"/>
    </comp>
  </station>
  <station code="APE" name="APE" netid="HL" insttype="120" lat="37.0727" lon="25.523">
    <comp name="--.HHE">
      <acc value="0.1380512667" flag="0"/>
      <vel value="0.0299260582" flag="0"/>
      <psa03 value="0.1328174267" flag="0"/>
      <psa10 value="0.0111581808" flag="0"/>
      <psa30 value="0.0022245845" flag="0"/>
    </comp>
    <comp name="--.HHN">
      <acc value="0.1736702651" flag="0"/>
      <vel value="0.0297902576" flag="0"/>
      <psa03 value="0.1010679938" flag="0"/>
      <psa10 value="0.0121638925" flag="0"/>
      <psa30 value="0.0020867605" flag="0"/>
    </comp>
    <comp name="--.HHZ">
      <acc value="0.0654753384" flag="0"/>
      <vel value="0.0175386343" flag="0"/>
      <psa03 value="0.0808160907" flag="0"/>
      <psa10 value="0.0077824052" flag="0"/>
      <psa30 value="0.0024619619" flag="0"/>
    </comp>
  </station>
  <station code="MHLO" name="MHLO" netid="HL" insttype="20" lat="36.6898" lon="24.4017">
    <comp name="--.HHZ">
      <acc value="0.0141434623" flag="0"/>
      <vel value="0.0081317473" flag="0"/>
      <psa03 value="0.0384163971" flag="0"/>
      <psa10 value="0.0148122919" flag="0"/>
      <psa30 value="0.0010065175" flag="0"/>
    </comp>
    <comp name="--.HHE">
      <acc value="0.0327252647" flag="0"/>
      <vel value="0.0162346870" flag="0"/>
      <psa03 value="0.0655175266" flag="0"/>
      <psa10 value="0.0324881898" flag="0"/>
      <psa30 value="0.0018230112" flag="0"/>
    </comp>
    <comp name="--.HHN">
      <acc value="0.0250340230" flag="0"/>
      <vel value="0.0122426546" flag="0"/>
      <psa03 value="0.0787230551" flag="0"/>
      <psa10 value="0.0194160269" flag="0"/>
      <psa30 value="0.0012985870" flag="0"/>
    </comp>
  </station>
  <station code="SAP3" name="SAP3" netid="HL" insttype="LE3D20_SMART24" lat="36.4356" lon="25.3454">
    <comp name="--.HHE">
      <acc value="0.1156872762" flag="0"/>
      <vel value="0.0350527191" flag="0"/>
      <psa03 value="0.1886481442" flag="0"/>
      <psa10 value="0.0387434274" flag="0"/>
      <psa30 value="0.0099596436" flag="0"/>
    </comp>
    <comp name="--.HHZ">
      <acc value="0.1757131749" flag="0"/>
      <vel value="0.0364358265" flag="0"/>
      <psa03 value="0.1453811747" flag="0"/>
      <psa10 value="0.0210316275" flag="0"/>
      <psa30 value="0.0033502964" flag="0"/>
    </comp>
  </station>
  <station code="THERA" name="THERA" netid="HL" insttype="120" lat="36.367" lon="25.4753">
    <comp name="--.HHN">
      <acc value="0.0396454225" flag="0"/>
      <vel value="0.0094871149" flag="0"/>
      <psa03 value="0.0460829564" flag="0"/>
      <psa10 value="0.0042783234" flag="0"/>
      <psa30 value="0.0008866412" flag="0"/>
    </comp>
    <comp name="--.HHE">
      <acc value="0.0674022290" flag="0"/>
      <vel value="0.0134663977" flag="0"/>
      <psa03 value="0.0741892180" flag="0"/>
      <psa10 value="0.0088012897" flag="0"/>
      <psa30 value="0.0017707115" flag="0"/>
    </comp>
    <comp name="--.HHZ">
      <acc value="0.0574622796" flag="0"/>
      <vel value="0.0117802309" flag="0"/>
      <psa03 value="0.0442229135" flag="0"/>
      <psa10 value="0.0061073806" flag="0"/>
      <psa30 value="0.0009894653" flag="0"/>
    </comp>
  </station>
  <station code="THRA" name="THRA" netid="HL" insttype="CMG-5" lat="36.415" lon="25.4324">
    <comp name="00.HNZ">
      <acc value="0.1517912049" flag="0"/>
      <vel value="0.0349558569" flag="0"/>
      <psa03 value="0.1436147968" flag="0"/>
      <psa10 value="0.0191648197" flag="0"/>
      <psa30 value="0.0022023469" flag="0"/>
    </comp>
    <comp name="00.HNN">
      <acc value="0.1170274170" flag="0"/>
      <vel value="0.0470095684" flag="0"/>
      <psa03 value="0.1964637935" flag="0"/>
      <psa10 value="0.0445316248" flag="0"/>
      <psa30 value="0.0036643762" flag="0"/>
    </comp>
  </station>
  <station code="TNSA" name="TNSA" netid="HL" insttype="CMG-5" lat="37.5394" lon="25.1631">
    <comp name="00.HNZ">
      <acc value="0.0363070739" flag="0"/>
      <vel value="0.0113550596" flag="0"/>
      <psa03 value="0.0769670516" flag="0"/>
      <psa10 value="0.0070985793" flag="0"/>
      <psa30 value="0.0009895839" flag="0"/>
    </comp>
    <comp name="00.HNE">
      <acc value="0.0441365667" flag="0"/>
      <vel value="0.0124218811" flag="0"/>
      <psa03 value="0.0550506051" flag="0"/>
      <psa10 value="0.0041637039" flag="0"/>
      <psa30 value="0.0004934051" flag="0"/>
    </comp>
    <comp name="00.HNN">
      <acc value="0.0418583837" flag="0"/>
      <vel value="0.0141139382" flag="0"/>
      <psa03 value="0.0705357583" flag="0"/>
      <psa10 value="0.0074778132" flag="0"/>
      <psa30 value="0.0007589682" flag="0"/>
    </comp>
  </station>
</stationlist>
