<?xml version="1.0" encoding="UTF-8" standalone="yes"?>
<!DOCTYPE earthquake SYSTEM "stationlist.dtd">
<stationlist created="" xmlns="ch.ethz.sed.shakemap.usgs.xml">
  <station code="APE" name="APE" netid="GE" insttype="STS-2/N" lat="37.0727" lon="25.523">
    <comp name="--.HHE">
      <acc value="0.1497055180" flag="0"/>
      <vel value="0.0310652193" flag="0"/>
      <psa03 value="0.1360126284" flag="0"/>
      <psa10 value="0.0113607690" flag="0"/>
      <psa30 value="0.0022311921" flag="0"/>
    </comp>
    <comp name="--.HHN">
      <acc value="0.2018214812" flag="0"/>
      <vel value="0.0310602939" flag="0"/>
      <psa03 value="0.1040733594" flag="0"/>
      <psa10 value="0.0122608185" flag="0"/>
      <psa30 value="0.0020954109" flag="0"/>
    </comp>
    <comp name="--.HHZ">
      <acc value="0.0765961732" flag="0"/>
      <vel value="0.0184448569" flag="0"/>
      <psa03 value="0.0828250623" flag="0"/>
      <psa10 value="0.0078698149" flag="0"/>
      <psa30 value="0.0024678094" flag="0"/>
    </comp>
  </station>
  <station code="THERA" name="THERA" netid="GE" insttype="STS-2/N" lat="36.367" lon="25.4753">
    <comp name="--.HHN">
      <acc value="0.0384113326" flag="0"/>
      <vel value="0.0097600902" flag="0"/>
      <psa03 value="0.0475384311" flag="0"/>
      <psa10 value="0.0043144373" flag="0"/>
      <psa30 value="0.0008860670" flag="0"/>
    </comp>
    <comp name="--.HHE">
      <acc value="0.0660277735" flag="0"/>
      <vel value="0.0137796442" flag="0"/>
      <psa03 value="0.0764777859" flag="0"/>
      <psa10 value="0.0088993032" flag="0"/>
      <psa30 value="0.0017731292" flag="0"/>
    </comp>
    <comp name="--.HHZ">
      <acc value="0.0597616686" flag="0"/>
      <vel value="0.0120855880" flag="0"/>
      <psa03 value="0.0454668907" flag="0"/>
      <psa10 value="0.0061620860" flag="0"/>
      <psa30 value="0.0009907055" flag="0"/>
    </comp>
  </station>
</stationlist>
