<?xml version="1.0" encoding="UTF-8" standalone="yes"?>
<!DOCTYPE earthquake SYSTEM "stationlist.dtd">
<stationlist created="" xmlns="ch.ethz.sed.shakemap.usgs.xml">
  <station code="CANT" name="CANT" netid="KO" insttype="CMG-3ESP" commtype="DIG" lat="40.6062" lon="33.6193">
    <comp name="--.HHE">
      <acc value="0.0110357446" flag="0"/>
      <vel value="0.0040267988" flag="0"/>
      <psa03 value="0.0150276427" flag="0"/>
      <psa10 value="0.0037853574" flag="0"/>
      <psa30 value="0.0004037914" flag="0"/>
    </comp>
    <comp name="--.HHN">
      <acc value="0.0113106603" flag="0"/>
      <vel value="0.0051141818" flag="0"/>
      <psa03 value="0.0210689029" flag="0"/>
      <psa10 value="0.0026344027" flag="0"/>
      <psa30 value="0.0002922810" flag="0"/>
    </comp>
    <comp name="--.HHZ">
      <acc value="0.0083030911" flag="0"/>
      <vel value="0.0031913325" flag="0"/>
      <psa03 value="0.0151505440" flag="0"/>
      <psa10 value="0.0017701167" flag="0"/>
      <psa30 value="0.0002704634" flag="0"/>
    </comp>
  </station>
  <station code="CORM" name="CORM" netid="KO" insttype="CMG-6T" commtype="DIG" lat="40.1785" lon="34.6302">
    <comp name="--.HHE">
      <acc value="0.0291761050" flag="0"/>
      <vel value="0.0130716852" flag="0"/>
      <psa03 value="0.1157704037" flag="0"/>
      <psa10 value="0.0072455730" flag="0"/>
      <psa30 value="0.0006801205" flag="0"/>
    </comp>
    <comp name="--.HHZ">
      <acc value="0.0158615225" flag="0"/>
      <vel value="0.0073387271" flag="0"/>
      <psa03 value="0.0337615107" flag="0"/>
      <psa10 value="0.0034745530" flag="0"/>
      <psa30 value="0.0003088719" flag="0"/>
    </comp>
    <comp name="--.HHN">
      <acc value="0.0444319336" flag="0"/>
      <vel value="0.0187593603" flag="0"/>
      <psa03 value="0.1142744070" flag="0"/>
      <psa10 value="0.0094989724" flag="0"/>
      <psa30 value="0.0005452964" flag="0"/>
    </comp>
  </station>
  <station code="GULF" name="GULF" netid="KO" insttype="CMG-5T" commtype="DIG" lat="40.914" lon="35.879">
    <comp name="--.HNE">
      <acc value="0.0217719916" flag="0"/>
      <vel value="0.0059171186" flag="0"/>
      <psa03 value="0.0234866586" flag="0"/>
      <psa10 value="0.0048627196" flag="0"/>
      <psa30 value="0.0003114888" flag="0"/>
    </comp>
    <comp name="--.HNN">
      <acc value="0.0270985619" flag="0"/>
      <vel value="0.0076725371" flag="0"/>
      <psa03 value="0.0224499756" flag="0"/>
      <psa10 value="0.0044115009" flag="0"/>
      <psa30 value="0.0006582807" flag="0"/>
    </comp>
    <comp name="--.HNZ">
      <acc value="0.0196656277" flag="0"/>
      <vel value="0.0037869260" flag="0"/>
      <psa03 value="0.0096780010" flag="0"/>
      <psa10 value="0.0031779658" flag="0"/>
      <psa30 value="0.0005107994" flag="0"/>
    </comp>
  </station>
  <station code="KMON" name="KMON" netid="KO" insttype="CMG-5T" commtype="DIG" lat="41.3738" lon="33.7839">
    <comp name="--.HNZ">
      <acc value="0.0107044409" flag="0"/>
      <vel value="0.0028584907" flag="0"/>
      <psa03 value="0.0104481540" flag="0"/>
      <psa10 value="0.0035311992" flag="0"/>
      <psa30 value="0.0002845717" flag="0"/>
    </comp>
    <comp name="--.HNN">
      <acc value="0.0140036588" flag="0"/>
      <vel value="0.0088854926" flag="0"/>
      <psa03 value="0.0231958262" flag="0"/>
      <psa10 value="0.0100966526" flag="0"/>
      <psa30 value="0.0009903919" flag="0"/>
    </comp>
    <comp name="--.HNE">
      <acc value="0.0141897048" flag="0"/>
      <vel value="0.0061949335" flag="0"/>
      <psa03 value="0.0270562358" flag="0"/>
      <psa10 value="0.0052834127" flag="0"/>
      <psa30 value="0.0004931701" flag="0"/>
    </comp>
  </station>
  <station code="SNOP" name="SNOP" netid="KO" insttype="CMG-3T" commtype="DIG" lat="42.0195" lon="35.2069">
    <comp name="--.HHN">
      <acc value="0.0103747207" flag="0"/>
      <vel value="0.0073844346" flag="0"/>
      <psa03 value="0.0412539749" flag="0"/>
      <psa10 value="0.0035245050" flag="0"/>
      <psa30 value="0.0004339142" flag="0"/>
    </comp>
    <comp name="--.HHZ">
      <acc value="0.0086788500" flag="0"/>
      <vel value="0.0032781648" flag="0"/>
      <psa03 value="0.0161146745" flag="0"/>
      <psa10 value="0.0032707921" flag="0"/>
      <psa30 value="0.0004936482" flag="0"/>
    </comp>
    <comp name="--.HHE">
      <acc value="0.0088994240" flag="0"/>
      <vel value="0.0051401892" flag="0"/>
      <psa03 value="0.0193524866" flag="0"/>
      <psa10 value="0.0067524094" flag="0"/>
      <psa30 value="0.0005319169" flag="0"/>
    </comp>
  </station>
</stationlist>
