<stationlist created="1778136300">
	<station code="MALA" name="MALA" netid="CL" source="Corinth Riff Laboratory (CRLNET)" insttype="" lat="38.39341" lon="21.87263">
		<comp name="01.HNE" depth="0.0">
			<acc value="0.0545058331143489" flag="0"/>
			<vel value="0.0638007683919042" flag="0"/>
			<psa03 value="0.128096937548112" flag="0"/>
			<psa10 value="0.117614733381583" flag="0"/>
			<psa30 value="0.0117569096330833" flag="0"/>
		</comp>
		<comp name="01.HNN" depth="0.0">
			<acc value="0.0565809082423251" flag="0"/>
			<vel value="0.054878478745733" flag="0"/>
			<psa03 value="0.091542554740984" flag="0"/>
			<psa10 value="0.177356317346564" flag="0"/>
			<psa30 value="0.00762586169601824" flag="0"/>
		</comp>
		<comp name="01.HNZ" depth="0.0">
			<acc value="0.0289584184050354" flag="0"/>
			<vel value="0.0400051368918838" flag="0"/>
			<psa03 value="0.0466213792962392" flag="0"/>
			<psa10 value="0.0614811609582996" flag="0"/>
			<psa30 value="0.00599769279717933" flag="0"/>
		</comp>
	</station>
	<station code="ROD3" name="ROD3" netid="CL" source="Corinth Riff Laboratory (CRLNET)" insttype="" lat="38.30811" lon="21.89204">
		<comp name="00.HNE" depth="0.0">
			<acc value="0.0274290930750999" flag="0"/>
			<vel value="0.0179126404269965" flag="0"/>
			<psa03 value="0.121251379935516" flag="0"/>
			<psa10 value="0.0301325338912075" flag="0"/>
			<psa30 value="0.00256104390682987" flag="0"/>
		</comp>
		<comp name="00.HNN" depth="0.0">
			<acc value="0.028476215575245" flag="0"/>
			<vel value="0.0186546811940202" flag="0"/>
			<psa03 value="0.116463963827361" flag="0"/>
			<psa10 value="0.0163286683053383" flag="0"/>
			<psa30 value="0.00211988574957372" flag="0"/>
		</comp>
		<comp name="00.HNZ" depth="0.0">
			<acc value="0.0101965419810099" flag="0"/>
			<vel value="0.00662413119182486" flag="0"/>
			<psa03 value="0.0309168647732258" flag="0"/>
			<psa10 value="0.0182172368466955" flag="0"/>
			<psa30 value="0.00162279983404472" flag="0"/>
		</comp>
	</station>
	<station code="MMAA" name="MMAA" netid="EG" source="EUROSEISTEST Strong Motion Network" insttype="" lat="40.630855" lon="22.943725">
		<comp name="--.EN1" depth="0.0">
			<acc value="0.0563145232645158" flag="0"/>
			<vel value="0.0421843952286761" flag="0"/>
			<psa03 value="0.192809897709323" flag="0"/>
			<psa10 value="0.0817395373430451" flag="0"/>
			<psa30 value="0.00386816249678095" flag="0"/>
		</comp>
		<comp name="--.EN2" depth="0.0">
			<acc value="0.0408094291093392" flag="0"/>
			<vel value="0.0351124846029235" flag="0"/>
			<psa03 value="0.12964176521385" flag="0"/>
			<psa10 value="0.0962751927590463" flag="0"/>
			<psa30 value="0.00340403175039671" flag="0"/>
		</comp>
		<comp name="--.EN3" depth="0.0">
			<acc value="0.0249706905498588" flag="0"/>
			<vel value="0.0174654856413829" flag="0"/>
			<psa03 value="0.0673665356188343" flag="0"/>
			<psa10 value="0.0216343825466797" flag="0"/>
			<psa30 value="0.00160523154704414" flag="0"/>
		</comp>
	</station>
	<station code="STC" name="STC" netid="EG" source="EUROSEISTEST Strong Motion Network" insttype="" lat="40.64865" lon="23.304856">
		<comp name="--.EN1" depth="0.0">
			<acc value="0.0631560188065342" flag="0"/>
			<vel value="0.0367975925965466" flag="0"/>
			<psa03 value="0.181301885360066" flag="0"/>
			<psa10 value="0.0249150773766187" flag="0"/>
			<psa30 value="0.0024061960653487" flag="0"/>
		</comp>
		<comp name="--.EN2" depth="0.0">
			<acc value="0.0522109256277534" flag="0"/>
			<vel value="0.0289652557125467" flag="0"/>
			<psa03 value="0.130731045706982" flag="0"/>
			<psa10 value="0.0186234693384486" flag="0"/>
			<psa30 value="0.0023277669114678" flag="0"/>
		</comp>
		<comp name="--.EN3" depth="0.0">
			<acc value="0.0225222066085508" flag="0"/>
			<vel value="0.0180478189996238" flag="0"/>
			<psa03 value="0.0585534413780079" flag="0"/>
			<psa10 value="0.019112274844398" flag="0"/>
			<psa30 value="0.00289671647658407" flag="0"/>
		</comp>
	</station>
	<station code="TST" name="TST" netid="EG" source="EUROSEISTEST Strong Motion Network" insttype="" lat="40.6638" lon="23.2906">
		<comp name="00.EN1" depth="0.0">
			<acc value="0.0321220556748711" flag="0"/>
			<vel value="0.0280088701456974" flag="0"/>
			<psa03 value="0.0958045549151268" flag="0"/>
			<psa10 value="0.0274513422667077" flag="0"/>
			<psa30 value="0.00228595664174342" flag="0"/>
		</comp>
		<comp name="00.EN2" depth="0.0">
			<acc value="0.0128263807614102" flag="0"/>
			<vel value="0.00770385791496822" flag="0"/>
			<psa03 value="0.0305040858501643" flag="0"/>
			<psa10 value="0.0126370255784104" flag="0"/>
			<psa30 value="0.00187714685176779" flag="0"/>
		</comp>
		<comp name="00.EN3" depth="0.0">
			<acc value="0.041370208785467" flag="0"/>
			<vel value="0.0264182165699779" flag="0"/>
			<psa03 value="0.107178131275163" flag="0"/>
			<psa10 value="0.0271354138380028" flag="0"/>
			<psa30 value="0.00254159857676404" flag="0"/>
		</comp>
	</station>
	<station code="MSL1" name="MSL1" netid="HI" source="ITSAK Strong Motion Network" insttype="" lat="38.3727" lon="21.4243">
		<comp name="--.HNE" depth="0.0">
			<acc value="0.046296834619667" flag="0"/>
			<vel value="0.0583914963002603" flag="0"/>
			<psa03 value="0.0805359719128892" flag="0"/>
			<psa10 value="0.0857828904830139" flag="0"/>
			<psa30 value="0.00973098251740792" flag="0"/>
		</comp>
		<comp name="--.HNN" depth="0.0">
			<acc value="0.045323767350023" flag="0"/>
			<vel value="0.0621638731255522" flag="0"/>
			<psa03 value="0.107918202363271" flag="0"/>
			<psa10 value="0.100126347080699" flag="0"/>
			<psa30 value="0.0114705595107263" flag="0"/>
		</comp>
		<comp name="--.HNZ" depth="0.0">
			<acc value="0.0212392603694613" flag="0"/>
			<vel value="0.0295105474900392" flag="0"/>
			<psa03 value="0.0411180878821917" flag="0"/>
			<psa10 value="0.0596248068057075" flag="0"/>
			<psa30 value="0.0031507461900587" flag="0"/>
		</comp>
	</station>
	<station code="VAS2" name="VAS2" netid="HI" source="ITSAK Strong Motion Network" insttype="" lat="38.630558" lon="20.608081">
		<comp name="--.HNE" depth="0.0">
			<acc value="0.050600649744821" flag="0"/>
			<vel value="0.0607984706145293" flag="0"/>
			<psa03 value="0.109573664008148" flag="0"/>
			<psa10 value="0.124850890457956" flag="0"/>
			<psa30 value="0.00544870592197313" flag="0"/>
		</comp>
		<comp name="--.HNN" depth="0.0">
			<acc value="0.071002170742856" flag="0"/>
			<vel value="0.0954840455035492" flag="0"/>
			<psa03 value="0.12970765698637" flag="0"/>
			<psa10 value="0.212614965850027" flag="0"/>
			<psa30 value="0.015583710565144" flag="0"/>
		</comp>
		<comp name="--.HNZ" depth="0.0">
			<acc value="0.027590088478914" flag="0"/>
			<vel value="0.0247489469685655" flag="0"/>
			<psa03 value="0.0748984538789869" flag="0"/>
			<psa10 value="0.0385767305462739" flag="0"/>
			<psa30 value="0.00217805061817747" flag="0"/>
		</comp>
	</station>
	<station code="JAN" name="JAN" netid="HL" source="National Observatory of Athens Seismic Network" insttype="" lat="39.65616" lon="20.84874">
		<comp name="00.HNE" depth="0.0">
			<acc value="0.0148420697759853" flag="0"/>
			<vel value="0.0097921405871114" flag="0"/>
			<psa03 value="0.0570094172192143" flag="0"/>
			<psa10 value="0.0211036473880785" flag="0"/>
			<psa30 value="0.00176331431091769" flag="0"/>
		</comp>
		<comp name="00.HNN" depth="0.0">
			<acc value="0.0171164130973483" flag="0"/>
			<vel value="0.0100470477137729" flag="0"/>
			<psa03 value="0.0736068917203179" flag="0"/>
			<psa10 value="0.01397109770416" flag="0"/>
			<psa30 value="0.00152956018002" flag="0"/>
		</comp>
		<comp name="00.HNZ" depth="0.0">
			<acc value="0.00822800235473721" flag="0"/>
			<vel value="0.00760344300270635" flag="0"/>
			<psa03 value="0.0243859331567338" flag="0"/>
			<psa10 value="0.00951994752479605" flag="0"/>
			<psa30 value="0.00120140469133106" flag="0"/>
		</comp>
	</station>
	<station code="ANX" name="ANX" netid="HP" source="University of Patras, Seismological Laboratory (PSLNET)" insttype="" lat="38.5933" lon="21.9209">
		<comp name="--.HNE" depth="0.0">
			<acc value="0.0560128965361372" flag="0"/>
			<vel value="0.0368054913081083" flag="0"/>
			<psa03 value="0.13170002656387" flag="0"/>
			<psa10 value="0.0597673680448398" flag="0"/>
			<psa30 value="0.00377373540811803" flag="0"/>
		</comp>
		<comp name="--.HNN" depth="0.0">
			<acc value="0.0750767659614532" flag="0"/>
			<vel value="0.0605763715135295" flag="0"/>
			<psa03 value="0.291353654916214" flag="0"/>
			<psa10 value="0.0687998526524987" flag="0"/>
			<psa30 value="0.00423600936482905" flag="0"/>
		</comp>
		<comp name="--.HNZ" depth="0.0">
			<acc value="0.0467931070943225" flag="0"/>
			<vel value="0.0565378009548405" flag="0"/>
			<psa03 value="0.107666038596799" flag="0"/>
			<psa10 value="0.0701186425160408" flag="0"/>
			<psa30 value="0.00355538260998318" flag="0"/>
		</comp>
	</station>
	<station code="PDO" name="PDO" netid="HP" source="University of Patras, Seismological Laboratory (PSLNET)" insttype="" lat="38.5986" lon="21.1833">
		<comp name="--.HNE" depth="0.0">
			<acc value="0.025038320614974" flag="0"/>
			<vel value="0.0211756463653254" flag="0"/>
			<psa03 value="0.0611409565384584" flag="0"/>
			<psa10 value="0.0395606994521936" flag="0"/>
			<psa30 value="0.00185194976591535" flag="0"/>
		</comp>
		<comp name="--.HNN" depth="0.0">
			<acc value="0.027538589983095" flag="0"/>
			<vel value="0.0201152791891714" flag="0"/>
			<psa03 value="0.0825254148203291" flag="0"/>
			<psa10 value="0.0224846126202542" flag="0"/>
			<psa30 value="0.00121413595138022" flag="0"/>
		</comp>
		<comp name="--.HNZ" depth="0.0">
			<acc value="0.0135234533338328" flag="0"/>
			<vel value="0.00862217556698949" flag="0"/>
			<psa03 value="0.0433270446832538" flag="0"/>
			<psa10 value="0.0139125957037005" flag="0"/>
			<psa30 value="0.000696896218039722" flag="0"/>
		</comp>
	</station>
	<station code="SERG" name="SERG" netid="HP" source="University of Patras, Seismological Laboratory (PSLNET)" insttype="" lat="38.4133" lon="22.0566">
		<comp name="--.HNE" depth="0.0">
			<acc value="0.0459395531509232" flag="0"/>
			<vel value="0.0350247443881799" flag="0"/>
			<psa03 value="0.0942966112708507" flag="0"/>
			<psa10 value="0.0534325196422694" flag="0"/>
			<psa30 value="0.00232141649078232" flag="0"/>
		</comp>
		<comp name="--.HNN" depth="0.0">
			<acc value="0.0355127801006165" flag="0"/>
			<vel value="0.02246520512454" flag="0"/>
			<psa03 value="0.0619964142499602" flag="0"/>
			<psa10 value="0.0352285024653804" flag="0"/>
			<psa30 value="0.002298845620572" flag="0"/>
		</comp>
		<comp name="--.HNZ" depth="0.0">
			<acc value="0.0224710225963958" flag="0"/>
			<vel value="0.0173528658340966" flag="0"/>
			<psa03 value="0.0550847428437249" flag="0"/>
			<psa10 value="0.0333168508278594" flag="0"/>
			<psa30 value="0.00216285807039838" flag="0"/>
		</comp>
	</station>
</stationlist>
