<?xml version="1.0" encoding="UTF-8" standalone="yes"?>
<!DOCTYPE earthquake SYSTEM "stationlist.dtd">
<stationlist created="" xmlns="ch.ethz.sed.shakemap.usgs.xml">
  <station code="VOL2" name="VOL2" netid="HI" insttype="CMG-5TD,ACCELEROMETER,GURALP" lat="39.366" lon="22.9506">
    <comp name="--.HNN">
      <acc value="0.0833521910" flag="0"/>
      <vel value="0.0490215723" flag="0"/>
      <psa03 value="0.2720996795" flag="0"/>
      <psa10 value="0.0448142258" flag="0"/>
      <psa30 value="0.0021987494" flag="0"/>
    </comp>
    <comp name="--.HNE">
      <acc value="0.0664391015" flag="0"/>
      <vel value="0.0523624945" flag="0"/>
      <psa03 value="0.2349848091" flag="0"/>
      <psa10 value="0.0357225771" flag="0"/>
      <psa30 value="0.0034290346" flag="0"/>
    </comp>
    <comp name="--.HNZ">
      <acc value="0.0353658880" flag="0"/>
      <vel value="0.0149470629" flag="0"/>
      <psa03 value="0.1015413688" flag="0"/>
      <psa10 value="0.0122512049" flag="0"/>
      <psa30 value="0.0017816153" flag="0"/>
    </comp>
  </station>
  <station code="NEO" name="NEO" netid="HL" insttype="120" lat="39.3057" lon="23.2219">
    <comp name="--.HHN">
      <acc value="0.0461042031" flag="0"/>
      <vel value="0.0337155718" flag="0"/>
      <psa03 value="0.2168433686" flag="0"/>
      <psa10 value="0.0587732446" flag="0"/>
      <psa30 value="0.0029715371" flag="0"/>
    </comp>
    <comp name="--.HHZ">
      <acc value="0.0326516672" flag="0"/>
      <vel value="0.0225284232" flag="0"/>
      <psa03 value="0.0909249378" flag="0"/>
      <psa10 value="0.0185853585" flag="0"/>
      <psa30 value="0.0016024220" flag="0"/>
    </comp>
    <comp name="--.HHE">
      <acc value="0.0736231768" flag="0"/>
      <vel value="0.0536516946" flag="0"/>
      <psa03 value="0.1604325832" flag="0"/>
      <psa10 value="0.0524112459" flag="0"/>
      <psa30 value="0.0032964050" flag="0"/>
    </comp>
  </station>
  <station code="TETR" name="TETR" netid="HL" insttype="60" lat="39.3445" lon="21.2747">
    <comp name="--.HHE">
      <acc value="0.1638440464" flag="0"/>
      <vel value="0.0812978909" flag="0"/>
      <psa03 value="0.3738877791" flag="0"/>
      <psa10 value="0.0780224590" flag="0"/>
      <psa30 value="0.0037847336" flag="0"/>
    </comp>
    <comp name="--.HHZ">
      <acc value="0.0538395165" flag="0"/>
      <vel value="0.0235582696" flag="0"/>
      <psa03 value="0.1310874880" flag="0"/>
      <psa10 value="0.0211247702" flag="0"/>
      <psa30 value="0.0023489477" flag="0"/>
    </comp>
    <comp name="--.HHN">
      <acc value="0.1020116749" flag="0"/>
      <vel value="0.0513569001" flag="0"/>
      <psa03 value="0.3530686953" flag="0"/>
      <psa10 value="0.0516522973" flag="0"/>
      <psa30 value="0.0036134073" flag="0"/>
    </comp>
  </station>
  <station code="THL" name="THL" netid="HL" insttype="120" lat="39.5647" lon="22.0144">
    <comp name="--.HHN">
      <acc value="0.3585982270" flag="0"/>
      <vel value="0.1240689849" flag="0"/>
      <psa03 value="0.3798504296" flag="0"/>
      <psa10 value="0.1356553453" flag="0"/>
      <psa30 value="0.0104564657" flag="0"/>
    </comp>
    <comp name="--.HHE">
      <acc value="0.3325031720" flag="0"/>
      <vel value="0.1001587487" flag="0"/>
      <psa03 value="0.3399243837" flag="0"/>
      <psa10 value="0.0714563030" flag="0"/>
      <psa30 value="0.0095026408" flag="0"/>
    </comp>
    <comp name="--.HHZ">
      <acc value="0.3702300324" flag="0"/>
      <vel value="0.1438579949" flag="0"/>
      <psa03 value="0.5665053578" flag="0"/>
      <psa10 value="0.0789788569" flag="0"/>
      <psa30 value="0.0101221428" flag="0"/>
    </comp>
  </station>
  <station code="ANX" name="ANX" netid="HP" insttype="DC_100" lat="38.5933" lon="21.9209">
    <comp name="--.HNN">
      <acc value="0.0752661501" flag="0"/>
      <vel value="0.0600848737" flag="0"/>
      <psa03 value="0.2898603182" flag="0"/>
      <psa10 value="0.0687762517" flag="0"/>
      <psa30 value="0.0039236875" flag="0"/>
    </comp>
    <comp name="--.HNZ">
      <acc value="0.0468899962" flag="0"/>
      <vel value="0.0562390575" flag="0"/>
      <psa03 value="0.1076915061" flag="0"/>
      <psa10 value="0.0700725793" flag="0"/>
      <psa30 value="0.0033088142" flag="0"/>
    </comp>
    <comp name="--.HNE">
      <acc value="0.0558472018" flag="0"/>
      <vel value="0.0363598404" flag="0"/>
      <psa03 value="0.1317699409" flag="0"/>
      <psa10 value="0.0597260330" flag="0"/>
      <psa30 value="0.0035783901" flag="0"/>
    </comp>
  </station>
  <station code="SERG" name="SERG" netid="HP" insttype="DC_100" lat="38.4133" lon="22.0566">
    <comp name="--.HNE">
      <acc value="0.0459538939" flag="0"/>
      <vel value="0.0347272222" flag="0"/>
      <psa03 value="0.0943465895" flag="0"/>
      <psa10 value="0.0535708172" flag="0"/>
      <psa30 value="0.0024545927" flag="0"/>
    </comp>
    <comp name="--.HNN">
      <acc value="0.0352867566" flag="0"/>
      <vel value="0.0232235306" flag="0"/>
      <psa03 value="0.0621905051" flag="0"/>
      <psa10 value="0.0353280001" flag="0"/>
      <psa30 value="0.0028336974" flag="0"/>
    </comp>
    <comp name="--.HNZ">
      <acc value="0.0224480644" flag="0"/>
      <vel value="0.0170060712" flag="0"/>
      <psa03 value="0.0553011421" flag="0"/>
      <psa10 value="0.0333812679" flag="0"/>
      <psa30 value="0.0027127877" flag="0"/>
    </comp>
  </station>
  <station code="LIT" name="LIT" netid="HT" insttype="100" lat="40.1033" lon="22.4892">
    <comp name="--.HHE">
      <acc value="0.1909520803" flag="0"/>
      <vel value="0.0697651587" flag="0"/>
      <psa03 value="0.2481266026" flag="0"/>
      <psa10 value="0.0382674226" flag="0"/>
      <psa30 value="0.0037019827" flag="0"/>
    </comp>
    <comp name="--.HHN">
      <acc value="0.2086699384" flag="0"/>
      <vel value="0.0727087134" flag="0"/>
      <psa03 value="0.3985299454" flag="0"/>
      <psa10 value="0.0502544026" flag="0"/>
      <psa30 value="0.0037724930" flag="0"/>
    </comp>
    <comp name="--.HHZ">
      <acc value="0.0667877566" flag="0"/>
      <vel value="0.0342960114" flag="0"/>
      <psa03 value="0.1342266134" flag="0"/>
      <psa10 value="0.0283385105" flag="0"/>
      <psa30 value="0.0030917027" flag="0"/>
    </comp>
  </station>
  <station code="TYRN" name="TYRN" netid="HT" insttype="120P," lat="39.711" lon="22.2325">
    <comp name="--.HHZ">
      <acc value="1.8878463780" flag="0"/>
      <vel value="0.5897761587" flag="0"/>
      <psa03 value="3.3499237297" flag="0"/>
      <psa10 value="0.4126664925" flag="0"/>
      <psa30 value="0.0611990005" flag="0"/>
    </comp>
    <comp name="--.HHE">
      <acc value="1.7824295541" flag="0"/>
      <vel value="1.0310822339" flag="0"/>
      <psa03 value="4.8982809168" flag="0"/>
      <psa10 value="0.9846261496" flag="0"/>
      <psa30 value="0.1581851397" flag="0"/>
    </comp>
    <comp name="--.HHN">
      <acc value="1.6754171010" flag="0"/>
      <vel value="0.6380807952" flag="0"/>
      <psa03 value="3.1463321141" flag="0"/>
      <psa10 value="0.5160491039" flag="0"/>
      <psa30 value="0.0473010049" flag="0"/>
    </comp>
  </station>
  <station code="THL" name="THL" netid="MN" insttype="" lat="39.5647" lon="22.0144">
    <comp name="--.HHE">
      <acc value="0.3325031720" flag="0"/>
      <vel value="0.1001587487" flag="0"/>
      <psa03 value="0.3399243837" flag="0"/>
      <psa10 value="0.0714563030" flag="0"/>
      <psa30 value="0.0095026408" flag="0"/>
    </comp>
    <comp name="--.HHN">
      <acc value="0.3585982270" flag="0"/>
      <vel value="0.1240689849" flag="0"/>
      <psa03 value="0.3798504296" flag="0"/>
      <psa10 value="0.1356553453" flag="0"/>
      <psa30 value="0.0104564657" flag="0"/>
    </comp>
    <comp name="--.HHZ">
      <acc value="0.3702300324" flag="0"/>
      <vel value="0.1438579949" flag="0"/>
      <psa03 value="0.5665053578" flag="0"/>
      <psa10 value="0.0789788569" flag="0"/>
      <psa30 value="0.0101221428" flag="0"/>
    </comp>
  </station>
</stationlist>
