<?xml version="1.0" encoding="UTF-8" standalone="yes"?>
<!DOCTYPE earthquake SYSTEM "stationlist.dtd">
<stationlist created="" xmlns="ch.ethz.sed.shakemap.usgs.xml">
  <station code="APE" name="APE" netid="GE" insttype="STS-2/N" lat="37.0727" lon="25.523">
    <comp name="--.HHN">
      <acc value="0.5549870319" flag="0"/>
      <vel value="0.1088522819" flag="0"/>
      <psa03 value="0.3080916362" flag="0"/>
      <psa10 value="0.0345064800" flag="0"/>
      <psa30 value="0.0093472794" flag="0"/>
    </comp>
    <comp name="--.HHZ">
      <acc value="0.1875530559" flag="0"/>
      <vel value="0.0339300269" flag="0"/>
      <psa03 value="0.1405331768" flag="0"/>
      <psa10 value="0.0274995145" flag="0"/>
      <psa30 value="0.0104914797" flag="0"/>
    </comp>
    <comp name="--.HHE">
      <acc value="0.4088211902" flag="0"/>
      <vel value="0.0952459791" flag="0"/>
      <psa03 value="0.3171622104" flag="0"/>
      <psa10 value="0.0220014725" flag="0"/>
      <psa30 value="0.0088467896" flag="0"/>
    </comp>
  </station>
  <station code="THERA" name="THERA" netid="GE" insttype="STS-2/N" lat="36.367" lon="25.4753">
    <comp name="--.HHE">
      <acc value="0.1653371744" flag="0"/>
      <vel value="0.0282666992" flag="0"/>
      <psa03 value="0.1550534023" flag="0"/>
      <psa10 value="0.0120515996" flag="0"/>
      <psa30 value="0.0051186019" flag="0"/>
    </comp>
    <comp name="--.HHN">
      <acc value="0.0829683349" flag="0"/>
      <vel value="0.0180147188" flag="0"/>
      <psa03 value="0.0909395828" flag="0"/>
      <psa10 value="0.0061117160" flag="0"/>
      <psa30 value="0.0020835096" flag="0"/>
    </comp>
    <comp name="--.HHZ">
      <acc value="0.1168886567" flag="0"/>
      <vel value="0.0219423983" flag="0"/>
      <psa03 value="0.1146728644" flag="0"/>
      <psa10 value="0.0113016021" flag="0"/>
      <psa30 value="0.0026230353" flag="0"/>
    </comp>
  </station>
  <station code="SNT1" name="SNT1" netid="HA" insttype="30" lat="36.4159" lon="25.4282">
    <comp name="--.HHE">
      <acc value="0.0903197147" flag="0"/>
      <vel value="0.0256845027" flag="0"/>
      <psa03 value="0.0940757184" flag="0"/>
      <psa10 value="0.0320188635" flag="0"/>
      <psa30 value="0.0074509300" flag="0"/>
    </comp>
    <comp name="--.HHZ">
      <acc value="0.0661322692" flag="0"/>
      <vel value="0.0198731082" flag="0"/>
      <psa03 value="0.0849995023" flag="0"/>
      <psa10 value="0.0187707871" flag="0"/>
      <psa30 value="0.0034848850" flag="0"/>
    </comp>
    <comp name="--.HHN">
      <acc value="0.0819335298" flag="0"/>
      <vel value="0.0273083871" flag="0"/>
      <psa03 value="0.0738114391" flag="0"/>
      <psa10 value="0.0352315925" flag="0"/>
      <psa30 value="0.0068950880" flag="0"/>
    </comp>
  </station>
  <station code="NAX1" name="NAX1" netid="HI" insttype="CMG-5TD,ACCELEROMETER,GURALP" lat="37.1014" lon="25.3741">
    <comp name="--.HNE">
      <acc value="0.2477888150" flag="0"/>
      <vel value="0.0508836946" flag="0"/>
      <psa03 value="0.1689649428" flag="0"/>
      <psa10 value="0.0185126833" flag="0"/>
      <psa30 value="0.0028987630" flag="0"/>
    </comp>
    <comp name="--.HNZ">
      <acc value="0.1061622381" flag="0"/>
      <vel value="0.0301051585" flag="0"/>
      <psa03 value="0.1608705031" flag="0"/>
      <psa10 value="0.0238674282" flag="0"/>
      <psa30 value="0.0074326972" flag="0"/>
    </comp>
    <comp name="--.HNN">
      <acc value="0.2038700255" flag="0"/>
      <vel value="0.0406308933" flag="0"/>
      <psa03 value="0.1708671160" flag="0"/>
      <psa10 value="0.0172298126" flag="0"/>
      <psa30 value="0.0057613141" flag="0"/>
    </comp>
  </station>
  <station code="SFR2" name="SFR2" netid="HI" insttype="unknown" lat="36.3998" lon="25.4382">
    <comp name="--.HNE">
      <acc value="0.3068754172" flag="0"/>
      <vel value="0.0706464652" flag="0"/>
      <psa03 value="0.3832791179" flag="0"/>
      <psa10 value="0.0362635180" flag="0"/>
      <psa30 value="0.0091291840" flag="0"/>
    </comp>
    <comp name="--.HNZ">
      <acc value="0.2845481057" flag="0"/>
      <vel value="0.0621729569" flag="0"/>
      <psa03 value="0.2653629897" flag="0"/>
      <psa10 value="0.0408540898" flag="0"/>
      <psa30 value="0.0050284653" flag="0"/>
    </comp>
    <comp name="--.HNN">
      <acc value="0.3070800965" flag="0"/>
      <vel value="0.1098430184" flag="0"/>
      <psa03 value="0.5680282157" flag="0"/>
      <psa10 value="0.0673673232" flag="0"/>
      <psa30 value="0.0055474900" flag="0"/>
    </comp>
  </station>
  <station code="AMGA" name="AMGA" netid="HL" insttype="SMART24" lat="36.8316" lon="25.8938">
    <comp name="--.HHE">
      <acc value="2.8037286079" flag="0"/>
      <vel value="0.8475197530" flag="0"/>
      <psa03 value="1.7907241810" flag="0"/>
      <psa10 value="0.2170172865" flag="0"/>
      <psa30 value="0.0432526712" flag="0"/>
    </comp>
    <comp name="--.HHZ">
      <acc value="2.6557742089" flag="0"/>
      <vel value="0.9887847346" flag="0"/>
      <psa03 value="3.1470768440" flag="0"/>
      <psa10 value="0.2400506025" flag="0"/>
      <psa30 value="0.0831507682" flag="0"/>
    </comp>
    <comp name="--.HHN">
      <acc value="2.9540207430" flag="0"/>
      <vel value="0.9182818401" flag="0"/>
      <psa03 value="3.4085388785" flag="0"/>
      <psa10 value="0.2606152168" flag="0"/>
      <psa30 value="0.0710910193" flag="0"/>
    </comp>
  </station>
  <station code="APE" name="APE" netid="HL" insttype="120" lat="37.0727" lon="25.523">
    <comp name="--.HHE">
      <acc value="0.3716156032" flag="0"/>
      <vel value="0.0901326010" flag="0"/>
      <psa03 value="0.3036856006" flag="0"/>
      <psa10 value="0.0218115928" flag="0"/>
      <psa30 value="0.0088266908" flag="0"/>
    </comp>
    <comp name="--.HHZ">
      <acc value="0.1713687657" flag="0"/>
      <vel value="0.0325627035" flag="0"/>
      <psa03 value="0.1376946445" flag="0"/>
      <psa10 value="0.0272538286" flag="0"/>
      <psa30 value="0.0104788049" flag="0"/>
    </comp>
    <comp name="--.HHN">
      <acc value="0.5213311006" flag="0"/>
      <vel value="0.1024155787" flag="0"/>
      <psa03 value="0.2984510687" flag="0"/>
      <psa10 value="0.0341436745" flag="0"/>
      <psa30 value="0.0093340502" flag="0"/>
    </comp>
  </station>
  <station code="KLNA" name="KLNA" netid="HL" insttype="CMG-5" lat="36.9571" lon="26.9727">
    <comp name="00.HNE">
      <acc value="0.1783986572" flag="0"/>
      <vel value="0.0675214230" flag="0"/>
      <psa03 value="0.6321285606" flag="0"/>
      <psa10 value="0.0204351560" flag="0"/>
      <psa30 value="0.0023541281" flag="0"/>
    </comp>
    <comp name="00.HNN">
      <acc value="0.1678452087" flag="0"/>
      <vel value="0.0748231317" flag="0"/>
      <psa03 value="0.3479649331" flag="0"/>
      <psa10 value="0.0318658506" flag="0"/>
      <psa30 value="0.0047823132" flag="0"/>
    </comp>
    <comp name="00.HNZ">
      <acc value="0.1923873634" flag="0"/>
      <vel value="0.0455372956" flag="0"/>
      <psa03 value="0.2109341021" flag="0"/>
      <psa10 value="0.0141130015" flag="0"/>
      <psa30 value="0.0011325171" flag="0"/>
    </comp>
  </station>
  <station code="MHLO" name="MHLO" netid="HL" insttype="20" lat="36.6898" lon="24.4017">
    <comp name="--.HHN">
      <acc value="0.0476002533" flag="0"/>
      <vel value="0.0313635282" flag="0"/>
      <psa03 value="0.1079842885" flag="0"/>
      <psa10 value="0.0379602800" flag="0"/>
      <psa30 value="0.0054427719" flag="0"/>
    </comp>
    <comp name="--.HHE">
      <acc value="0.0711670150" flag="0"/>
      <vel value="0.0265047339" flag="0"/>
      <psa03 value="0.1556047879" flag="0"/>
      <psa10 value="0.0463662092" flag="0"/>
      <psa30 value="0.0051933381" flag="0"/>
    </comp>
    <comp name="--.HHZ">
      <acc value="0.0311112368" flag="0"/>
      <vel value="0.0229639316" flag="0"/>
      <psa03 value="0.0950032152" flag="0"/>
      <psa10 value="0.0355342067" flag="0"/>
      <psa30 value="0.0042348044" flag="0"/>
    </comp>
  </station>
  <station code="MILA" name="MILA" netid="HL" insttype="CMG-5" lat="36.7429" lon="24.4282">
    <comp name="00.HNE">
      <acc value="0.0781967399" flag="0"/>
      <vel value="0.0271274939" flag="0"/>
      <psa03 value="0.1436060056" flag="0"/>
      <psa10 value="0.0181454985" flag="0"/>
      <psa30 value="0.0037203887" flag="0"/>
    </comp>
    <comp name="00.HNN">
      <acc value="0.1026446486" flag="0"/>
      <vel value="0.0404890638" flag="0"/>
      <psa03 value="0.3065842307" flag="0"/>
      <psa10 value="0.0240499053" flag="0"/>
      <psa30 value="0.0032045081" flag="0"/>
    </comp>
    <comp name="00.HNZ">
      <acc value="0.0698700074" flag="0"/>
      <vel value="0.0340187262" flag="0"/>
      <psa03 value="0.1772043813" flag="0"/>
      <psa10 value="0.0255200611" flag="0"/>
      <psa30 value="0.0028308454" flag="0"/>
    </comp>
  </station>
  <station code="NISR" name="NISR" netid="HL" insttype="65535" lat="36.6106" lon="27.131">
    <comp name="--.HHE">
      <acc value="0.0000000000" flag="0"/>
      <vel value="-100.0000000000" flag="0"/>
      <psa03 value="0.0000000000" flag="0"/>
      <psa10 value="0.0000000000" flag="0"/>
      <psa30 value="0.0000000000" flag="0"/>
    </comp>
    <comp name="--.HHN">
      <acc value="0.1048706167" flag="0"/>
      <vel value="0.0634240338" flag="0"/>
      <psa03 value="0.2174212481" flag="0"/>
      <psa10 value="0.0444802034" flag="0"/>
      <psa30 value="0.0089544805" flag="0"/>
    </comp>
    <comp name="--.HHZ">
      <acc value="0.0500498363" flag="0"/>
      <vel value="0.0322755012" flag="0"/>
      <psa03 value="0.1190895166" flag="0"/>
      <psa10 value="0.0210195960" flag="0"/>
      <psa30 value="0.0025199124" flag="0"/>
    </comp>
  </station>
  <station code="NISR2" name="NISR2" netid="HL" insttype="120" lat="36.5744" lon="27.1767">
    <comp name="--.HHN">
      <acc value="0.1129648846" flag="0"/>
      <vel value="0.0893353036" flag="0"/>
      <psa03 value="0.3184755900" flag="0"/>
      <psa10 value="0.1135120013" flag="0"/>
      <psa30 value="0.0078080375" flag="0"/>
    </comp>
    <comp name="--.HHE">
      <acc value="0.1017971493" flag="0"/>
      <vel value="0.0795436774" flag="0"/>
      <psa03 value="0.2333676766" flag="0"/>
      <psa10 value="0.1311691297" flag="0"/>
      <psa30 value="0.0067920793" flag="0"/>
    </comp>
    <comp name="--.HHZ">
      <acc value="0.0311546946" flag="0"/>
      <vel value="0.0278112902" flag="0"/>
      <psa03 value="0.0959177478" flag="0"/>
      <psa10 value="0.0224018944" flag="0"/>
      <psa30 value="0.0024347395" flag="0"/>
    </comp>
  </station>
  <station code="SANT" name="SANT" netid="HL" insttype="30" lat="36.3705" lon="25.4593">
    <comp name="--.HHE">
      <acc value="0.4446390711" flag="0"/>
      <vel value="0.0741267667" flag="0"/>
      <psa03 value="0.2654368926" flag="0"/>
      <psa10 value="0.0186872199" flag="0"/>
      <psa30 value="0.0055680070" flag="0"/>
    </comp>
    <comp name="--.HHN">
      <acc value="0.3137839307" flag="0"/>
      <vel value="0.0417179233" flag="0"/>
      <psa03 value="0.1588766042" flag="0"/>
      <psa10 value="0.0149552444" flag="0"/>
      <psa30 value="0.0043736519" flag="0"/>
    </comp>
    <comp name="--.HHZ">
      <acc value="0.3608247470" flag="0"/>
      <vel value="0.0519158416" flag="0"/>
      <psa03 value="0.1361443066" flag="0"/>
      <psa10 value="0.0155549569" flag="0"/>
      <psa30 value="0.0024092919" flag="0"/>
    </comp>
  </station>
  <station code="SAP3" name="SAP3" netid="HL" insttype="65535" lat="36.4356" lon="25.3454">
    <comp name="--.HHN">
      <acc value="0.1290508170" flag="0"/>
      <vel value="0.0343035203" flag="0"/>
      <psa03 value="0.1770940375" flag="0"/>
      <psa10 value="0.0362289744" flag="0"/>
      <psa30 value="0.0102962812" flag="0"/>
    </comp>
    <comp name="--.HHZ">
      <acc value="0.1512274231" flag="0"/>
      <vel value="0.0397044985" flag="0"/>
      <psa03 value="0.1245045128" flag="0"/>
      <psa10 value="0.0120160609" flag="0"/>
      <psa30 value="0.0043392405" flag="0"/>
    </comp>
  </station>
  <station code="THERA" name="THERA" netid="HL" insttype="120" lat="36.367" lon="25.4753">
    <comp name="--.HHE">
      <acc value="0.1658069686" flag="0"/>
      <vel value="0.0279881417" flag="0"/>
      <psa03 value="0.1507239616" flag="0"/>
      <psa10 value="0.0119446642" flag="0"/>
      <psa30 value="0.0051215867" flag="0"/>
    </comp>
    <comp name="--.HHN">
      <acc value="0.1730717400" flag="0"/>
      <vel value="0.0357729101" flag="0"/>
      <psa03 value="0.1762324643" flag="0"/>
      <psa10 value="0.0120168924" flag="0"/>
      <psa30 value="0.0041647010" flag="0"/>
    </comp>
    <comp name="--.HHZ">
      <acc value="0.1199110554" flag="0"/>
      <vel value="0.0216401000" flag="0"/>
      <psa03 value="0.1114431603" flag="0"/>
      <psa10 value="0.0112109925" flag="0"/>
      <psa30 value="0.0026231951" flag="0"/>
    </comp>
  </station>
  <station code="THRA" name="THRA" netid="HL" insttype="CMG-5" lat="36.415" lon="25.4324">
    <comp name="00.HNE">
      <acc value="0.3590412838" flag="0"/>
      <vel value="0.0942771963" flag="0"/>
      <psa03 value="0.4507964205" flag="0"/>
      <psa10 value="0.0961866609" flag="0"/>
      <psa30 value="0.0132214798" flag="0"/>
    </comp>
    <comp name="00.HNN">
      <acc value="0.2520250632" flag="0"/>
      <vel value="0.1094301140" flag="0"/>
      <psa03 value="0.3794451913" flag="0"/>
      <psa10 value="0.1229781329" flag="0"/>
      <psa30 value="0.0116094037" flag="0"/>
    </comp>
    <comp name="00.HNZ">
      <acc value="0.2565631395" flag="0"/>
      <vel value="0.0698297132" flag="0"/>
      <psa03 value="0.2203044253" flag="0"/>
      <psa10 value="0.0466041392" flag="0"/>
      <psa30 value="0.0045387404" flag="0"/>
    </comp>
  </station>
  <station code="TNSA" name="TNSA" netid="HL" insttype="CMG-5" lat="37.5394" lon="25.1631">
    <comp name="00.HNE">
      <acc value="0.0864675464" flag="0"/>
      <vel value="0.0212847661" flag="0"/>
      <psa03 value="0.1192234508" flag="0"/>
      <psa10 value="0.0110951221" flag="0"/>
      <psa30 value="0.0019826227" flag="0"/>
    </comp>
    <comp name="00.HNN">
      <acc value="0.1664410024" flag="0"/>
      <vel value="0.0433773320" flag="0"/>
      <psa03 value="0.2660104080" flag="0"/>
      <psa10 value="0.0169022487" flag="0"/>
      <psa30 value="0.0028389061" flag="0"/>
    </comp>
    <comp name="00.HNZ">
      <acc value="0.1027720742" flag="0"/>
      <vel value="0.0254215746" flag="0"/>
      <psa03 value="0.1170195303" flag="0"/>
      <psa10 value="0.0220899389" flag="0"/>
      <psa30 value="0.0037796882" flag="0"/>
    </comp>
  </station>
  <station code="AKRO" name="AKRO" netid="HT" insttype="Compact," lat="36.3584" lon="25.3967">
    <comp name="--.HHE">
      <acc value="0.6132490605" flag="0"/>
      <vel value="0.1313605795" flag="0"/>
      <psa03 value="0.5013654357" flag="0"/>
      <psa10 value="0.0463908625" flag="0"/>
      <psa30 value="0.0056611878" flag="0"/>
    </comp>
    <comp name="--.HHN">
      <acc value="0.4011251276" flag="0"/>
      <vel value="0.0810760984" flag="0"/>
      <psa03 value="0.3067378446" flag="0"/>
      <psa10 value="0.0568390806" flag="0"/>
      <psa30 value="0.0041576290" flag="0"/>
    </comp>
    <comp name="--.HHZ">
      <acc value="0.3260226042" flag="0"/>
      <vel value="0.0597719584" flag="0"/>
      <psa03 value="0.2312543916" flag="0"/>
      <psa10 value="0.0338422344" flag="0"/>
      <psa30 value="0.0028606822" flag="0"/>
    </comp>
  </station>
  <station code="CMBO" name="CMBO" netid="HT" insttype="120P," lat="36.4709" lon="25.4056">
    <comp name="--.HHE">
      <acc value="0.1310605355" flag="0"/>
      <vel value="0.0628255028" flag="0"/>
      <psa03 value="0.1928817395" flag="0"/>
      <psa10 value="0.0437027759" flag="0"/>
      <psa30 value="0.0066984593" flag="0"/>
    </comp>
    <comp name="--.HHZ">
      <acc value="0.1408513873" flag="0"/>
      <vel value="0.0420171292" flag="0"/>
      <psa03 value="0.1713135265" flag="0"/>
      <psa10 value="0.0156036396" flag="0"/>
      <psa30 value="0.0035431841" flag="0"/>
    </comp>
  </station>
</stationlist>
