<?xml version="1.0" encoding="UTF-8" standalone="yes"?>
<!DOCTYPE earthquake SYSTEM "stationlist.dtd">
<stationlist created="" xmlns="ch.ethz.sed.shakemap.usgs.xml">
  <station code="APE" name="APE" netid="GE" insttype="STS-2/N" lat="37.0727" lon="25.523">
    <comp name="--.HHN">
      <acc value="0.5549870319" flag="0"/>
      <vel value="0.1088522819" flag="0"/>
      <psa03 value="0.3080916362" flag="0"/>
      <psa10 value="0.0345064800" flag="0"/>
      <psa30 value="0.0093472794" flag="0"/>
    </comp>
    <comp name="--.HHZ">
      <acc value="0.1875530559" flag="0"/>
      <vel value="0.0339300269" flag="0"/>
      <psa03 value="0.1405331768" flag="0"/>
      <psa10 value="0.0274995145" flag="0"/>
      <psa30 value="0.0104914797" flag="0"/>
    </comp>
    <comp name="--.HHE">
      <acc value="0.4088211902" flag="0"/>
      <vel value="0.0952459791" flag="0"/>
      <psa03 value="0.3171622104" flag="0"/>
      <psa10 value="0.0220014725" flag="0"/>
      <psa30 value="0.0088467896" flag="0"/>
    </comp>
  </station>
  <station code="THERA" name="THERA" netid="GE" insttype="STS-2/N" lat="36.367" lon="25.4753">
    <comp name="--.HHE">
      <acc value="0.1653371744" flag="0"/>
      <vel value="0.0282666992" flag="0"/>
      <psa03 value="0.1550534023" flag="0"/>
      <psa10 value="0.0120515996" flag="0"/>
      <psa30 value="0.0051186019" flag="0"/>
    </comp>
    <comp name="--.HHN">
      <acc value="0.0829683349" flag="0"/>
      <vel value="0.0180147188" flag="0"/>
      <psa03 value="0.0909395828" flag="0"/>
      <psa10 value="0.0061117160" flag="0"/>
      <psa30 value="0.0020835096" flag="0"/>
    </comp>
    <comp name="--.HHZ">
      <acc value="0.1168886567" flag="0"/>
      <vel value="0.0219423983" flag="0"/>
      <psa03 value="0.1146728644" flag="0"/>
      <psa10 value="0.0113016021" flag="0"/>
      <psa30 value="0.0026230353" flag="0"/>
    </comp>
  </station>
</stationlist>
