<?xml version="1.0" encoding="UTF-8" standalone="yes"?>
<!DOCTYPE earthquake SYSTEM "stationlist.dtd">
<stationlist created="" xmlns="ch.ethz.sed.shakemap.usgs.xml">
  <station code="APE" name="APE" netid="GE" insttype="STS-2/N" lat="37.0727" lon="25.523">
    <comp name="--.HHE">
      <acc value="0.4088211905" flag="0"/>
      <vel value="0.0952459715" flag="0"/>
      <psa03 value="0.3171622104" flag="0"/>
      <psa10 value="0.0220014725" flag="0"/>
      <psa30 value="0.0088466729" flag="0"/>
    </comp>
    <comp name="--.HHN">
      <acc value="0.5549870317" flag="0"/>
      <vel value="0.1088522817" flag="0"/>
      <psa03 value="0.3080916362" flag="0"/>
      <psa10 value="0.0345064802" flag="0"/>
      <psa30 value="0.0093471895" flag="0"/>
    </comp>
    <comp name="--.HHZ">
      <acc value="0.1875530558" flag="0"/>
      <vel value="0.0339300297" flag="0"/>
      <psa03 value="0.1405331768" flag="0"/>
      <psa10 value="0.0274995130" flag="0"/>
      <psa30 value="0.0104916582" flag="0"/>
    </comp>
  </station>
  <station code="THERA" name="THERA" netid="GE" insttype="STS-2/N" lat="36.367" lon="25.4753">
    <comp name="--.HHZ">
      <acc value="0.1168886566" flag="0"/>
      <vel value="0.0219424002" flag="0"/>
      <psa03 value="0.1146728644" flag="0"/>
      <psa10 value="0.0113015953" flag="0"/>
      <psa30 value="0.0026225701" flag="0"/>
    </comp>
    <comp name="--.HHE">
      <acc value="0.1653371736" flag="0"/>
      <vel value="0.0282667055" flag="0"/>
      <psa03 value="0.1550534023" flag="0"/>
      <psa10 value="0.0120515950" flag="0"/>
      <psa30 value="0.0051192336" flag="0"/>
    </comp>
    <comp name="--.HHN">
      <acc value="0.0829683346" flag="0"/>
      <vel value="0.0180147240" flag="0"/>
      <psa03 value="0.0909395828" flag="0"/>
      <psa10 value="0.0061117153" flag="0"/>
      <psa30 value="0.0020838658" flag="0"/>
    </comp>
  </station>
</stationlist>
