<?xml version="1.0" encoding="UTF-8" standalone="yes"?>
<!DOCTYPE earthquake SYSTEM "stationlist.dtd">
<stationlist created="" xmlns="ch.ethz.sed.shakemap.usgs.xml">
  <station code="ARPRA" name="ARPRA" netid="KO" insttype="CMG-5T" lat="39.0929" lon="38.3356">
    <comp name="--.HNZ">
      <acc value="0.0151369708" flag="0"/>
      <vel value="0.0050595617" flag="0"/>
      <psa03 value="0.0132558805" flag="0"/>
      <psa10 value="0.0089945468" flag="0"/>
      <psa30 value="0.0010122381" flag="0"/>
    </comp>
    <comp name="--.HNE">
      <acc value="0.0247207315" flag="0"/>
      <vel value="0.0101575042" flag="0"/>
      <psa03 value="0.0294191397" flag="0"/>
      <psa10 value="0.0119450889" flag="0"/>
      <psa30 value="0.0008891636" flag="0"/>
    </comp>
    <comp name="--.HNN">
      <acc value="0.0282365127" flag="0"/>
      <vel value="0.0103630771" flag="0"/>
      <psa03 value="0.0348309591" flag="0"/>
      <psa10 value="0.0121853125" flag="0"/>
      <psa30 value="0.0009109424" flag="0"/>
    </comp>
  </station>
  <station code="DARE" name="DARE" netid="KO" insttype="CMG-3ESP" lat="38.5712" lon="37.4832">
    <comp name="--.HHN">
      <acc value="0.3161629203" flag="0"/>
      <vel value="0.0746430972" flag="0"/>
      <psa03 value="0.2270368880" flag="0"/>
      <psa10 value="0.0354436557" flag="0"/>
      <psa30 value="0.0025749765" flag="0"/>
    </comp>
  </station>
  <station code="KMRS" name="KMRS" netid="KO" insttype="CMG-3T" lat="37.5053" lon="36.9">
    <comp name="--.HHE">
      <acc value="0.0076778410" flag="0"/>
      <vel value="0.0069271852" flag="0"/>
      <psa03 value="0.0232445246" flag="0"/>
      <psa10 value="0.0082111293" flag="0"/>
      <psa30 value="0.0008068213" flag="0"/>
    </comp>
    <comp name="--.HHN">
      <acc value="0.0126459824" flag="0"/>
      <vel value="0.0136904367" flag="0"/>
      <psa03 value="0.0280738697" flag="0"/>
      <psa10 value="0.0161536813" flag="0"/>
      <psa30 value="0.0007054002" flag="0"/>
    </comp>
    <comp name="--.HHZ">
      <acc value="0.0039315532" flag="0"/>
      <vel value="0.0032450797" flag="0"/>
      <psa03 value="0.0094464834" flag="0"/>
      <psa10 value="0.0058404348" flag="0"/>
      <psa30 value="0.0004008594" flag="0"/>
    </comp>
  </station>
  <station code="SARI" name="SARI" netid="KO" insttype="CMG-3T" lat="38.4072" lon="36.4181">
    <comp name="--.HHZ">
      <acc value="0.0105908285" flag="0"/>
      <vel value="0.0045325095" flag="0"/>
      <psa03 value="0.0247487101" flag="0"/>
      <psa10 value="0.0061382080" flag="0"/>
      <psa30 value="0.0003066552" flag="0"/>
    </comp>
  </station>
</stationlist>
