<stationlist created="1778138564">
	<station code="KTHA" name="KTHA" netid="GE" source="GEOFON" insttype="" lat="36.2566" lon="23.0621">
		<comp name="--.HNE" depth="0.0">
			<acc value="0.0275348646370368" flag="0"/>
			<vel value="0.0130687600522475" flag="0"/>
			<psa03 value="0.0715583133037119" flag="0"/>
			<psa10 value="0.00855400916113896" flag="0"/>
			<psa30 value="0.000730161755048624" flag="0"/>
		</comp>
		<comp name="--.HNN" depth="0.0">
			<acc value="0.0123892009354622" flag="0"/>
			<vel value="0.004864203632516" flag="0"/>
			<psa03 value="0.0280098477024475" flag="0"/>
			<psa10 value="0.00385760398483159" flag="0"/>
			<psa30 value="0.00234582060743755" flag="0"/>
		</comp>
		<comp name="--.HNZ" depth="0.0">
			<acc value="0.00974231439569618" flag="0"/>
			<vel value="0.00393506261689461" flag="0"/>
			<psa03 value="0.0195243819361625" flag="0"/>
			<psa10 value="0.00721572034980395" flag="0"/>
			<psa30 value="0.000782489440250786" flag="0"/>
		</comp>
	</station>
	<station code="ABEA" name="ABEA" netid="HC" source="Seismological Network of Crete (HC)" insttype="" lat="35.5163" lon="24.0113">
		<comp name="--.HNE" depth="0.0">
			<acc value="0.0470465568468563" flag="0"/>
			<vel value="0.0333327062163263" flag="0"/>
			<psa03 value="0.149532593300339" flag="0"/>
			<psa10 value="0.0327600964456231" flag="0"/>
			<psa30 value="0.00278140196256348" flag="0"/>
		</comp>
		<comp name="--.HNN" depth="0.0">
			<acc value="0.043598690994543" flag="0"/>
			<vel value="0.0393700615139528" flag="0"/>
			<psa03 value="0.161008009740456" flag="0"/>
			<psa10 value="0.0361397715825144" flag="0"/>
			<psa30 value="0.00239805240086956" flag="0"/>
		</comp>
		<comp name="--.HNZ" depth="0.0">
			<acc value="0.0216768097139342" flag="0"/>
			<vel value="0.0138061332269109" flag="0"/>
			<psa03 value="0.0463388249281971" flag="0"/>
			<psa10 value="0.0216594604579422" flag="0"/>
			<psa30 value="0.00112149252254239" flag="0"/>
		</comp>
	</station>
	<station code="ATEI" name="ATEI" netid="HC" source="Seismological Network of Crete (HC)" insttype="" lat="35.5193" lon="24.0432">
		<comp name="--.HNE" depth="0.0">
			<acc value="0.0221464467946709" flag="0"/>
			<vel value="0.0227894333932312" flag="0"/>
			<psa03 value="0.0538169869863638" flag="0"/>
			<psa10 value="0.0335172153510097" flag="0"/>
			<psa30 value="0.00202127869146023" flag="0"/>
		</comp>
		<comp name="--.HNN" depth="0.0">
			<acc value="0.050880771606816" flag="0"/>
			<vel value="0.0420740219916084" flag="0"/>
			<psa03 value="0.0852798577054138" flag="0"/>
			<psa10 value="0.0332284987249476" flag="0"/>
			<psa30 value="0.00317879057927471" flag="0"/>
		</comp>
		<comp name="--.HNZ" depth="0.0">
			<acc value="0.0195591933072229" flag="0"/>
			<vel value="0.017421805744947" flag="0"/>
			<psa03 value="0.0501532599071805" flag="0"/>
			<psa10 value="0.0158710157519097" flag="0"/>
			<psa30 value="0.00108812531212619" flag="0"/>
		</comp>
	</station>
	<station code="DEYA" name="DEYA" netid="HC" source="Seismological Network of Crete (HC)" insttype="" lat="35.4825" lon="24.014">
		<comp name="--.HNE" depth="0.0">
			<acc value="0.0369854005803935" flag="0"/>
			<vel value="0.0294595201861309" flag="0"/>
			<psa03 value="0.127656258684138" flag="0"/>
			<psa10 value="0.0379896566283176" flag="0"/>
			<psa30 value="0.00307543977445791" flag="0"/>
		</comp>
		<comp name="--.HNN" depth="0.0">
			<acc value="0.0425874784350053" flag="0"/>
			<vel value="0.0398647446088395" flag="0"/>
			<psa03 value="0.0907546995533813" flag="0"/>
			<psa10 value="0.0397159447364367" flag="0"/>
			<psa30 value="0.00288126691145852" flag="0"/>
		</comp>
		<comp name="--.HNZ" depth="0.0">
			<acc value="0.0256278375023124" flag="0"/>
			<vel value="0.0181139880004705" flag="0"/>
			<psa03 value="0.0678363375743533" flag="0"/>
			<psa10 value="0.0215764093312374" flag="0"/>
			<psa30 value="0.00259547089554114" flag="0"/>
		</comp>
	</station>
	<station code="G0LD" name="G0LD" netid="HC" source="Seismological Network of Crete (HC)" insttype="" lat="35.4955" lon="24.0306">
		<comp name="--.HNE" depth="0.0">
			<acc value="0.0693125324372128" flag="0"/>
			<vel value="0.049133944936809" flag="0"/>
			<psa03 value="0.276570592277815" flag="0"/>
			<psa10 value="0.0838638205667052" flag="0"/>
			<psa30 value="0.0052085592081353" flag="0"/>
		</comp>
		<comp name="--.HNN" depth="0.0">
			<acc value="0.0672432618530174" flag="0"/>
			<vel value="0.0490817331489234" flag="0"/>
			<psa03 value="0.145868715169677" flag="0"/>
			<psa10 value="0.0866987083640954" flag="0"/>
			<psa30 value="0.00531619258832257" flag="0"/>
		</comp>
		<comp name="--.HNZ" depth="0.0">
			<acc value="0.0382218435465072" flag="0"/>
			<vel value="0.0264862847233295" flag="0"/>
			<psa03 value="0.0763491358803493" flag="0"/>
			<psa10 value="0.0660830151753477" flag="0"/>
			<psa30 value="0.00340539725752285" flag="0"/>
		</comp>
	</station>
	<station code="LENT" name="LENT" netid="HC" source="Seismological Network of Crete (HC)" insttype="" lat="35.5074" lon="24.0402">
		<comp name="--.HNE" depth="0.0">
			<acc value="0.0362423595548292" flag="0"/>
			<vel value="0.0260665201483948" flag="0"/>
			<psa03 value="0.067901565853953" flag="0"/>
			<psa10 value="0.0529422084116687" flag="0"/>
			<psa30 value="0.00239081483808254" flag="0"/>
		</comp>
		<comp name="--.HNN" depth="0.0">
			<acc value="0.0547068846853942" flag="0"/>
			<vel value="0.0545982305634195" flag="0"/>
			<psa03 value="0.0814139453577779" flag="0"/>
			<psa10 value="0.0502736441320562" flag="0"/>
			<psa30 value="0.00435609356982257" flag="0"/>
		</comp>
		<comp name="--.HNZ" depth="0.0">
			<acc value="0.0223537381482879" flag="0"/>
			<vel value="0.0159936814888181" flag="0"/>
			<psa03 value="0.0640053650413616" flag="0"/>
			<psa10 value="0.0275729290712303" flag="0"/>
			<psa30 value="0.00121801245817904" flag="0"/>
		</comp>
	</station>
	<station code="MULT" name="MULT" netid="HC" source="Seismological Network of Crete (HC)" insttype="" lat="35.5091" lon="24.0118">
		<comp name="--.HNE" depth="0.0">
			<acc value="0.0477607457185791" flag="0"/>
			<vel value="0.0358357799628347" flag="0"/>
			<psa03 value="0.180018091981781" flag="0"/>
			<psa10 value="0.0399467537763839" flag="0"/>
			<psa30 value="0.00263312047297678" flag="0"/>
		</comp>
		<comp name="--.HNN" depth="0.0">
			<acc value="0.063891622570412" flag="0"/>
			<vel value="0.0604700275740944" flag="0"/>
			<psa03 value="0.136644020745754" flag="0"/>
			<psa10 value="0.040646381373128" flag="0"/>
			<psa30 value="0.00348963346275915" flag="0"/>
		</comp>
		<comp name="--.HNZ" depth="0.0">
			<acc value="0.0295835868790757" flag="0"/>
			<vel value="0.012918055328151" flag="0"/>
			<psa03 value="0.0388277049573786" flag="0"/>
			<psa10 value="0.0216878854659825" flag="0"/>
			<psa30 value="0.00476848755554654" flag="0"/>
		</comp>
	</station>
	<station code="NERO" name="NERO" netid="HC" source="Seismological Network of Crete (HC)" insttype="" lat="35.474" lon="24.0423">
		<comp name="--.HNE" depth="0.0">
			<acc value="0.0316052414625624" flag="0"/>
			<vel value="0.0243703015413263" flag="0"/>
			<psa03 value="0.0647997874596271" flag="0"/>
			<psa10 value="0.0260539846986348" flag="0"/>
			<psa30 value="0.0014235601372081" flag="0"/>
		</comp>
		<comp name="--.HNN" depth="0.0">
			<acc value="0.0252599240281398" flag="0"/>
			<vel value="0.0277406585875389" flag="0"/>
			<psa03 value="0.0612851275472861" flag="0"/>
			<psa10 value="0.0310904370888539" flag="0"/>
			<psa30 value="0.00246000317146929" flag="0"/>
		</comp>
		<comp name="--.HNZ" depth="0.0">
			<acc value="0.0161792703769685" flag="0"/>
			<vel value="0.0142599274059109" flag="0"/>
			<psa03 value="0.0424256854934416" flag="0"/>
			<psa10 value="0.0129497653584194" flag="0"/>
			<psa30 value="0.00150624103107473" flag="0"/>
		</comp>
	</station>
	<station code="PASK" name="PASK" netid="HC" source="Seismological Network of Crete (HC)" insttype="" lat="35.4996" lon="24.0121">
		<comp name="--.HNE" depth="0.0">
			<acc value="0.082761189586736" flag="0"/>
			<vel value="0.0774032664633759" flag="0"/>
			<psa03 value="0.199780296964162" flag="0"/>
			<psa10 value="0.0555045506542036" flag="0"/>
			<psa30 value="0.00381686534859576" flag="0"/>
		</comp>
		<comp name="--.HNN" depth="0.0">
			<acc value="0.0839363555540598" flag="0"/>
			<vel value="0.0724279355590381" flag="0"/>
			<psa03 value="0.177338831160685" flag="0"/>
			<psa10 value="0.0560757059901645" flag="0"/>
			<psa30 value="0.00374357007648022" flag="0"/>
		</comp>
		<comp name="--.HNZ" depth="0.0">
			<acc value="0.0292098238195325" flag="0"/>
			<vel value="0.0194783369064561" flag="0"/>
			<psa03 value="0.0954215503760466" flag="0"/>
			<psa10 value="0.0163101810944374" flag="0"/>
			<psa30 value="0.00190887520361585" flag="0"/>
		</comp>
	</station>
	<station code="POLY" name="POLY" netid="HC" source="Seismological Network of Crete (HC)" insttype="" lat="35.5226" lon="24.0602">
		<comp name="--.HNE" depth="0.0">
			<acc value="0.0432098640816016" flag="0"/>
			<vel value="0.0387882498613749" flag="0"/>
			<psa03 value="0.0853956778781044" flag="0"/>
			<psa10 value="0.0398290934819909" flag="0"/>
			<psa30 value="0.0027822384763124" flag="0"/>
		</comp>
		<comp name="--.HNN" depth="0.0">
			<acc value="0.0688909584085266" flag="0"/>
			<vel value="0.0532450818258364" flag="0"/>
			<psa03 value="0.155360614795092" flag="0"/>
			<psa10 value="0.044945253652496" flag="0"/>
			<psa30 value="0.00269291880932128" flag="0"/>
		</comp>
		<comp name="--.HNZ" depth="0.0">
			<acc value="0.0238524543576398" flag="0"/>
			<vel value="0.0158421719847902" flag="0"/>
			<psa03 value="0.0478273506190048" flag="0"/>
			<psa10 value="0.0141486419656063" flag="0"/>
			<psa30 value="0.00121448337022988" flag="0"/>
		</comp>
	</station>
	<station code="SOUD" name="SOUD" netid="HC" source="Seismological Network of Crete (HC)" insttype="" lat="35.4878" lon="24.0678">
		<comp name="--.HNE" depth="0.0">
			<acc value="0.0924614765772293" flag="0"/>
			<vel value="0.0654295167355971" flag="0"/>
			<psa03 value="0.261520303603268" flag="0"/>
			<psa10 value="0.133504163995508" flag="0"/>
			<psa30 value="0.00506957875137737" flag="0"/>
		</comp>
		<comp name="--.HNN" depth="0.0">
			<acc value="0.0863409529388861" flag="0"/>
			<vel value="0.0796752981505423" flag="0"/>
			<psa03 value="0.204100041459249" flag="0"/>
			<psa10 value="0.0742149863785711" flag="0"/>
			<psa30 value="0.00508230042745796" flag="0"/>
		</comp>
		<comp name="--.HNZ" depth="0.0">
			<acc value="0.00760085738958866" flag="0"/>
			<vel value="0.0038280355424847" flag="0"/>
			<psa03 value="0.00778054862629196" flag="0"/>
			<psa10 value="0.00465104076486968" flag="0"/>
			<psa30 value="0.00251336358133624" flag="0"/>
		</comp>
	</station>
	<station code="CH01" name="CH01" netid="HI" source="ITSAK Strong Motion Network" insttype="" lat="35.517" lon="24.0208">
		<comp name="--.HNE" depth="0.0">
			<acc value="0.0305205836907137" flag="0"/>
			<vel value="0.0300190863631178" flag="0"/>
			<psa03 value="0.129646400937771" flag="0"/>
			<psa10 value="0.0308031718089509" flag="0"/>
			<psa30 value="0.00270060494348991" flag="0"/>
		</comp>
		<comp name="--.HNN" depth="0.0">
			<acc value="0.0573680297601775" flag="0"/>
			<vel value="0.0492519194153217" flag="0"/>
			<psa03 value="0.132152994070415" flag="0"/>
			<psa10 value="0.0433272202155209" flag="0"/>
			<psa30 value="0.00311068377586627" flag="0"/>
		</comp>
		<comp name="--.HNZ" depth="0.0">
			<acc value="0.0168481848859117" flag="0"/>
			<vel value="0.0132811075242846" flag="0"/>
			<psa03 value="0.0417887292357116" flag="0"/>
			<psa10 value="0.0280058052471623" flag="0"/>
			<psa30 value="0.0010891788194162" flag="0"/>
		</comp>
	</station>
	<station code="NPS1" name="NPS1" netid="HI" source="ITSAK Strong Motion Network" insttype="" lat="36.51263" lon="23.06248">
		<comp name="--.HNE" depth="0.0">
			<acc value="0.0194700411221758" flag="0"/>
			<vel value="0.010225725728575" flag="0"/>
			<psa03 value="0.0630791265992413" flag="0"/>
			<psa10 value="0.00579668681453837" flag="0"/>
			<psa30 value="0.000395501877141797" flag="0"/>
		</comp>
		<comp name="--.HNN" depth="0.0">
			<acc value="0.0159152194882288" flag="0"/>
			<vel value="0.00911417754627445" flag="0"/>
			<psa03 value="0.0399957172283329" flag="0"/>
			<psa10 value="0.00743362009708379" flag="0"/>
			<psa30 value="0.000405706094787592" flag="0"/>
		</comp>
		<comp name="--.HNZ" depth="0.0">
			<acc value="0.0142533895471224" flag="0"/>
			<vel value="0.0044414101772293" flag="0"/>
			<psa03 value="0.0280404877530496" flag="0"/>
			<psa10 value="0.00254834725299925" flag="0"/>
			<psa30 value="0.000334267560251936" flag="0"/>
		</comp>
	</station>
	<station code="ANKY" name="ANKY" netid="HL" source="National Observatory of Athens Seismic Network" insttype="" lat="35.86704" lon="23.30117">
		<comp name="00.HNE" depth="0.0">
			<acc value="0.0441476748084131" flag="0"/>
			<vel value="0.0313791241377243" flag="0"/>
			<psa03 value="0.095835421542903" flag="0"/>
			<psa10 value="0.0335811870888323" flag="0"/>
			<psa30 value="0.00185265647939986" flag="0"/>
		</comp>
		<comp name="00.HNN" depth="0.0">
			<acc value="0.0361086759134976" flag="0"/>
			<vel value="0.027619388790169" flag="0"/>
			<psa03 value="0.0728576025000762" flag="0"/>
			<psa10 value="0.0220223513726788" flag="0"/>
			<psa30 value="0.0011184610717238" flag="0"/>
		</comp>
		<comp name="00.HNZ" depth="0.0">
			<acc value="0.0320539402038498" flag="0"/>
			<vel value="0.0159949102708219" flag="0"/>
			<psa03 value="0.0869287117254681" flag="0"/>
			<psa10 value="0.0113406847021983" flag="0"/>
			<psa30 value="0.00074255346135536" flag="0"/>
		</comp>
	</station>
	<station code="IACM" name="IACM" netid="HL" source="National Observatory of Athens Seismic Network" insttype="" lat="35.3058" lon="25.0709">
		<comp name="--.HNE" depth="0.0">
			<acc value="0.0149080982627089" flag="0"/>
			<vel value="0.0136481954393949" flag="0"/>
			<psa03 value="0.0375731635168295" flag="0"/>
			<psa10 value="0.0240235720687473" flag="0"/>
			<psa30 value="0.00098732707224144" flag="0"/>
		</comp>
		<comp name="--.HNN" depth="0.0">
			<acc value="0.0217025151976468" flag="0"/>
			<vel value="0.0175695261766747" flag="0"/>
			<psa03 value="0.0552367320788917" flag="0"/>
			<psa10 value="0.0242474919023569" flag="0"/>
			<psa30 value="0.00148620387037916" flag="0"/>
		</comp>
		<comp name="--.HNZ" depth="0.0">
			<acc value="0.0158359611693224" flag="0"/>
			<vel value="0.00751974807188358" flag="0"/>
			<psa03 value="0.0214058841806067" flag="0"/>
			<psa10 value="0.00831370167942981" flag="0"/>
			<psa30 value="0.000602382717397475" flag="0"/>
		</comp>
	</station>
	<station code="IMMV" name="IMMV" netid="HL" source="National Observatory of Athens Seismic Network" insttype="" lat="35.4606" lon="23.9811">
		<comp name="--.HNE" depth="0.0">
			<acc value="0.0312196789584055" flag="0"/>
			<vel value="0.0156648796451615" flag="0"/>
			<psa03 value="0.0925252126747825" flag="0"/>
			<psa10 value="0.0183168152741369" flag="0"/>
			<psa30 value="0.00137533465083931" flag="0"/>
		</comp>
		<comp name="--.HNN" depth="0.0">
			<acc value="0.032259790356298" flag="0"/>
			<vel value="0.0256282331941641" flag="0"/>
			<psa03 value="0.0950282743234033" flag="0"/>
			<psa10 value="0.0279569601363856" flag="0"/>
			<psa30 value="0.00136223951251756" flag="0"/>
		</comp>
		<comp name="--.HNZ" depth="0.0">
			<acc value="0.0213359454896946" flag="0"/>
			<vel value="0.0137605488967304" flag="0"/>
			<psa03 value="0.0572527718818849" flag="0"/>
			<psa10 value="0.0129961503061779" flag="0"/>
			<psa30 value="0.000744739179065177" flag="0"/>
		</comp>
	</station>
	<station code="KTHA" name="KTHA" netid="HL" source="National Observatory of Athens Seismic Network" insttype="" lat="36.2566" lon="23.0621">
		<comp name="--.HNE" depth="0.0">
			<acc value="0.231867141913016" flag="0"/>
			<vel value="0.121487392213516" flag="0"/>
			<psa03 value="0.576086204549856" flag="0"/>
			<psa10 value="0.0642934791274068" flag="0"/>
			<psa30 value="0.00382831694054283" flag="0"/>
		</comp>
		<comp name="--.HNN" depth="0.0">
			<acc value="0.102108895514591" flag="0"/>
			<vel value="0.0392214880870915" flag="0"/>
			<psa03 value="0.239750048930816" flag="0"/>
			<psa10 value="0.0220376861385414" flag="0"/>
			<psa30 value="0.0048347977816119" flag="0"/>
		</comp>
		<comp name="--.HNZ" depth="0.0">
			<acc value="0.0809870829225701" flag="0"/>
			<vel value="0.0327070985220957" flag="0"/>
			<psa03 value="0.157034329837019" flag="0"/>
			<psa10 value="0.0479855125545888" flag="0"/>
			<psa30 value="0.00169684188661293" flag="0"/>
		</comp>
	</station>
	<station code="MNVA" name="MNVA" netid="HL" source="National Observatory of Athens Seismic Network" insttype="" lat="36.68709" lon="23.03734">
		<comp name="00.HNE" depth="0.0">
			<acc value="0.00496536563891303" flag="0"/>
			<vel value="0.00275642922706131" flag="0"/>
			<psa03 value="0.0153584783613222" flag="0"/>
			<psa10 value="0.00342510939668609" flag="0"/>
			<psa30 value="0.000235180866036524" flag="0"/>
		</comp>
		<comp name="00.HNN" depth="0.0">
			<acc value="0.00324082961119953" flag="0"/>
			<vel value="0.00180194780499013" flag="0"/>
			<psa03 value="0.00913340256911598" flag="0"/>
			<psa10 value="0.00175551813039929" flag="0"/>
			<psa30 value="0.000243345339184437" flag="0"/>
		</comp>
		<comp name="00.HNZ" depth="0.0">
			<acc value="0.00386032746888893" flag="0"/>
			<vel value="0.00246031133982513" flag="0"/>
			<psa03 value="0.0134051237007479" flag="0"/>
			<psa10 value="0.00216947488893729" flag="0"/>
			<psa30 value="0.000189693660023958" flag="0"/>
		</comp>
	</station>
	<station code="SIVA" name="SIVA" netid="HL" source="National Observatory of Athens Seismic Network" insttype="" lat="35.01777" lon="24.81204">
		<comp name="00.HNE" depth="0.0">
			<acc value="0.0048099522253154" flag="0"/>
			<vel value="0.0050396949422419" flag="0"/>
			<psa03 value="0.0120733844378795" flag="0"/>
			<psa10 value="0.0105373936756273" flag="0"/>
			<psa30 value="0.000717478466926735" flag="0"/>
		</comp>
		<comp name="00.HNN" depth="0.0">
			<acc value="0.00434025953754163" flag="0"/>
			<vel value="0.00439086575737295" flag="0"/>
			<psa03 value="0.00948033961451101" flag="0"/>
			<psa10 value="0.00699461882791451" flag="0"/>
			<psa30 value="0.000423044092303069" flag="0"/>
		</comp>
		<comp name="00.HNZ" depth="0.0">
			<acc value="0.00288802686437984" flag="0"/>
			<vel value="0.00185079715899275" flag="0"/>
			<psa03 value="0.00848828756781675" flag="0"/>
			<psa10 value="0.00380939829144142" flag="0"/>
			<psa30 value="0.000240898276036887" flag="0"/>
		</comp>
	</station>
</stationlist>
