<?xml version="1.0" encoding="UTF-8" standalone="yes"?>
<!DOCTYPE earthquake SYSTEM "stationlist.dtd">
<stationlist created="" xmlns="ch.ethz.sed.shakemap.usgs.xml">
  <station code="GVD" name="GVD" netid="GE" insttype="STS-2/N" lat="34.8391" lon="24.0874">
    <comp name="--.HHE">
      <acc value="0.0171248971" flag="0"/>
      <vel value="0.0084570846" flag="0"/>
      <psa03 value="0.0600128939" flag="0"/>
      <psa10 value="0.0049121516" flag="0"/>
      <psa30 value="0.0005459643" flag="0"/>
    </comp>
    <comp name="--.HHN">
      <acc value="0.0154229862" flag="0"/>
      <vel value="0.0080595101" flag="0"/>
      <psa03 value="0.0537638611" flag="0"/>
      <psa10 value="0.0060719868" flag="0"/>
      <psa30 value="0.0005777878" flag="0"/>
    </comp>
    <comp name="--.HHZ">
      <acc value="0.0092866834" flag="0"/>
      <vel value="0.0038519958" flag="0"/>
      <psa03 value="0.0184713575" flag="0"/>
      <psa10 value="0.0042842645" flag="0"/>
      <psa30 value="0.0004801944" flag="0"/>
    </comp>
  </station>
  <station code="IMMV" name="IMMV" netid="GE" insttype="STS-2/N" lat="35.4606" lon="23.9811">
    <comp name="--.HHZ">
      <acc value="0.0221203952" flag="0"/>
      <vel value="0.0140677732" flag="0"/>
      <psa03 value="0.0590127463" flag="0"/>
      <psa10 value="0.0130853648" flag="0"/>
      <psa30 value="0.0007381902" flag="0"/>
    </comp>
    <comp name="--.HHN">
      <acc value="0.0333280821" flag="0"/>
      <vel value="0.0266966641" flag="0"/>
      <psa03 value="0.0985578846" flag="0"/>
      <psa10 value="0.0285849737" flag="0"/>
      <psa30 value="0.0013616325" flag="0"/>
    </comp>
    <comp name="--.HHE">
      <acc value="0.0336825126" flag="0"/>
      <vel value="0.0168335782" flag="0"/>
      <psa03 value="0.1011049656" flag="0"/>
      <psa10 value="0.0192344969" flag="0"/>
      <psa30 value="0.0013415237" flag="0"/>
    </comp>
  </station>
  <station code="KTHA" name="KTHA" netid="GE" insttype="STS-2/N" lat="36.2566" lon="23.0621">
    <comp name="--.HHN">
      <acc value="0.0126750394" flag="0"/>
      <vel value="0.0049592823" flag="0"/>
      <psa03 value="0.0272287188" flag="0"/>
      <psa10 value="0.0019161053" flag="0"/>
      <psa30 value="0.0003185623" flag="0"/>
    </comp>
    <comp name="--.HHE">
      <acc value="0.0282653657" flag="0"/>
      <vel value="0.0142031314" flag="0"/>
      <psa03 value="0.0753658532" flag="0"/>
      <psa10 value="0.0101245122" flag="0"/>
      <psa30 value="0.0006784031" flag="0"/>
    </comp>
    <comp name="--.HHZ">
      <acc value="0.0099449290" flag="0"/>
      <vel value="0.0042900106" flag="0"/>
      <psa03 value="0.0200929036" flag="0"/>
      <psa10 value="0.0064416772" flag="0"/>
      <psa30 value="0.0003481661" flag="0"/>
    </comp>
  </station>
  <station code="ABEA" name="ABEA" netid="HC" insttype="DC" lat="35.5163" lon="24.0113">
    <comp name="--.HNE">
      <acc value="0.0499832685" flag="0"/>
      <vel value="0.0332233410" flag="0"/>
      <psa03 value="0.1492888290" flag="0"/>
      <psa10 value="0.0327535517" flag="0"/>
      <psa30 value="0.0027031659" flag="0"/>
    </comp>
    <comp name="--.HNN">
      <acc value="0.0496502892" flag="0"/>
      <vel value="0.0395392976" flag="0"/>
      <psa03 value="0.1612440963" flag="0"/>
      <psa10 value="0.0361260632" flag="0"/>
      <psa30 value="0.0022351484" flag="0"/>
    </comp>
    <comp name="--.HNZ">
      <acc value="0.0218067037" flag="0"/>
      <vel value="0.0137876375" flag="0"/>
      <psa03 value="0.0465647128" flag="0"/>
      <psa10 value="0.0216863905" flag="0"/>
      <psa30 value="0.0010865280" flag="0"/>
    </comp>
  </station>
  <station code="ATEI" name="ATEI" netid="HC" insttype="DC" lat="35.5193" lon="24.0432">
    <comp name="--.HNE">
      <acc value="0.0221683625" flag="0"/>
      <vel value="0.0231776988" flag="0"/>
      <psa03 value="0.0537406501" flag="0"/>
      <psa10 value="0.0335215808" flag="0"/>
      <psa30 value="0.0019049551" flag="0"/>
    </comp>
    <comp name="--.HNN">
      <acc value="0.0509645430" flag="0"/>
      <vel value="0.0427688385" flag="0"/>
      <psa03 value="0.0852834340" flag="0"/>
      <psa10 value="0.0332076591" flag="0"/>
      <psa30 value="0.0031449365" flag="0"/>
    </comp>
    <comp name="--.HNZ">
      <acc value="0.0197853229" flag="0"/>
      <vel value="0.0174003363" flag="0"/>
      <psa03 value="0.0503707763" flag="0"/>
      <psa10 value="0.0158612594" flag="0"/>
      <psa30 value="0.0009893681" flag="0"/>
    </comp>
  </station>
  <station code="CHAN" name="CHAN" netid="HC" insttype="120" lat="35.5193" lon="24.0428">
    <comp name="--.HHN">
      <acc value="0.0967554392" flag="0"/>
      <vel value="0.0775374616" flag="0"/>
      <psa03 value="0.1497378522" flag="0"/>
      <psa10 value="0.0672313890" flag="0"/>
      <psa30 value="0.0054716121" flag="0"/>
    </comp>
    <comp name="--.HHE">
      <acc value="0.0483803136" flag="0"/>
      <vel value="0.0494082895" flag="0"/>
      <psa03 value="0.1069809360" flag="0"/>
      <psa10 value="0.0628734451" flag="0"/>
      <psa30 value="0.0033632187" flag="0"/>
    </comp>
    <comp name="--.HHZ">
      <acc value="0.0363533509" flag="0"/>
      <vel value="0.0322519139" flag="0"/>
      <psa03 value="0.0965250520" flag="0"/>
      <psa10 value="0.0300567741" flag="0"/>
      <psa30 value="0.0018466275" flag="0"/>
    </comp>
  </station>
  <station code="GVDS" name="GVDS" netid="HC" insttype="60" lat="34.8389" lon="24.0585">
    <comp name="--.HHE">
      <acc value="0.0122930158" flag="0"/>
      <vel value="0.0047667399" flag="0"/>
      <psa03 value="0.0263494955" flag="0"/>
      <psa10 value="0.0041420812" flag="0"/>
      <psa30 value="0.0004264629" flag="0"/>
    </comp>
    <comp name="--.HHN">
      <acc value="0.0161911289" flag="0"/>
      <vel value="0.0073106984" flag="0"/>
      <psa03 value="0.0549790480" flag="0"/>
      <psa10 value="0.0067161521" flag="0"/>
      <psa30 value="0.0005817201" flag="0"/>
    </comp>
    <comp name="--.HHZ">
      <acc value="0.0066175508" flag="0"/>
      <vel value="0.0040954678" flag="0"/>
      <psa03 value="0.0217913923" flag="0"/>
      <psa10 value="0.0047891236" flag="0"/>
      <psa30 value="0.0003872395" flag="0"/>
    </comp>
  </station>
  <station code="KNDR" name="KNDR" netid="HC" insttype="120" lat="35.2348" lon="23.6248">
    <comp name="--.HHE">
      <acc value="0.0861332094" flag="0"/>
      <vel value="0.0710980562" flag="0"/>
      <psa03 value="0.2703292058" flag="0"/>
      <psa10 value="0.0967252645" flag="0"/>
      <psa30 value="0.0081185249" flag="0"/>
    </comp>
    <comp name="--.HHZ">
      <acc value="0.0514110083" flag="0"/>
      <vel value="0.0379247029" flag="0"/>
      <psa03 value="0.1658613962" flag="0"/>
      <psa10 value="0.0601060123" flag="0"/>
      <psa30 value="0.0020123598" flag="0"/>
    </comp>
    <comp name="--.HHN">
      <acc value="0.0538377365" flag="0"/>
      <vel value="0.0426869688" flag="0"/>
      <psa03 value="0.1771029435" flag="0"/>
      <psa10 value="0.0390764805" flag="0"/>
      <psa30 value="0.0038938497" flag="0"/>
    </comp>
  </station>
  <station code="KTHR" name="KTHR" netid="HC" insttype="120s" lat="36.2447" lon="22.9939">
    <comp name="--.HHE">
      <acc value="0.0391841086" flag="0"/>
      <vel value="0.0217386563" flag="0"/>
      <psa03 value="0.1611236604" flag="0"/>
      <psa10 value="0.0139512734" flag="0"/>
      <psa30 value="0.0008203671" flag="0"/>
    </comp>
    <comp name="--.HHN">
      <acc value="0.0395990311" flag="0"/>
      <vel value="0.0187064130" flag="0"/>
      <psa03 value="0.1693357097" flag="0"/>
      <psa10 value="0.0108435292" flag="0"/>
      <psa30 value="0.0007169634" flag="0"/>
    </comp>
    <comp name="--.HHZ">
      <acc value="0.0206383929" flag="0"/>
      <vel value="0.0097378116" flag="0"/>
      <psa03 value="0.0808269012" flag="0"/>
      <psa10 value="0.0079137329" flag="0"/>
      <psa30 value="0.0003848731" flag="0"/>
    </comp>
  </station>
  <station code="PASK" name="PASK" netid="HC" insttype="DC" lat="35.4996" lon="24.0121">
    <comp name="--.HNN">
      <acc value="0.0841021793" flag="0"/>
      <vel value="0.0725638863" flag="0"/>
      <psa03 value="0.1777072458" flag="0"/>
      <psa10 value="0.0561585240" flag="0"/>
      <psa30 value="0.0038015976" flag="0"/>
    </comp>
    <comp name="--.HNE">
      <acc value="0.0824581811" flag="0"/>
      <vel value="0.0773728542" flag="0"/>
      <psa03 value="0.1995731758" flag="0"/>
      <psa10 value="0.0554403180" flag="0"/>
      <psa30 value="0.0038817939" flag="0"/>
    </comp>
    <comp name="--.HNZ">
      <acc value="0.0291970255" flag="0"/>
      <vel value="0.0195042694" flag="0"/>
      <psa03 value="0.0956650625" flag="0"/>
      <psa10 value="0.0163076413" flag="0"/>
      <psa30 value="0.0017393008" flag="0"/>
    </comp>
  </station>
  <station code="POLY" name="POLY" netid="HC" insttype="DC" lat="35.5226" lon="24.0602">
    <comp name="--.HNE">
      <acc value="0.0435338153" flag="0"/>
      <vel value="0.0390129907" flag="0"/>
      <psa03 value="0.0854306830" flag="0"/>
      <psa10 value="0.0397980354" flag="0"/>
      <psa30 value="0.0026808086" flag="0"/>
    </comp>
    <comp name="--.HNZ">
      <acc value="0.0240761609" flag="0"/>
      <vel value="0.0158778009" flag="0"/>
      <psa03 value="0.0477648087" flag="0"/>
      <psa10 value="0.0141370958" flag="0"/>
      <psa30 value="0.0011144923" flag="0"/>
    </comp>
    <comp name="--.HNN">
      <acc value="0.0691006301" flag="0"/>
      <vel value="0.0534290991" flag="0"/>
      <psa03 value="0.1552018023" flag="0"/>
      <psa10 value="0.0448918093" flag="0"/>
      <psa30 value="0.0027840176" flag="0"/>
    </comp>
  </station>
  <station code="RODP" name="RODP" netid="HC" insttype="120" lat="35.5604" lon="23.7577">
    <comp name="--.HHN">
      <acc value="0.0387617888" flag="0"/>
      <vel value="0.0238903127" flag="0"/>
      <psa03 value="0.1682352632" flag="0"/>
      <psa10 value="0.0174500061" flag="0"/>
      <psa30 value="0.0009824862" flag="0"/>
    </comp>
    <comp name="--.HHZ">
      <acc value="0.0218100614" flag="0"/>
      <vel value="0.0148017522" flag="0"/>
      <psa03 value="0.0536792631" flag="0"/>
      <psa10 value="0.0089632879" flag="0"/>
      <psa30 value="0.0006774433" flag="0"/>
    </comp>
    <comp name="--.HHE">
      <acc value="0.0498319554" flag="0"/>
      <vel value="0.0303967443" flag="0"/>
      <psa03 value="0.1250958516" flag="0"/>
      <psa10 value="0.0258155540" flag="0"/>
      <psa30 value="0.0021836656" flag="0"/>
    </comp>
  </station>
  <station code="CH01" name="CH01" netid="HI" insttype="CMG-5TD,ACCELEROMETER,GURALP" lat="35.517" lon="24.0208">
    <comp name="--.HNN">
      <acc value="0.0572081016" flag="0"/>
      <vel value="0.0489597219" flag="0"/>
      <psa03 value="0.1325806817" flag="0"/>
      <psa10 value="0.0432561843" flag="0"/>
      <psa30 value="0.0031097117" flag="0"/>
    </comp>
    <comp name="--.HNE">
      <acc value="0.0304577704" flag="0"/>
      <vel value="0.0299836010" flag="0"/>
      <psa03 value="0.1297270228" flag="0"/>
      <psa10 value="0.0307546166" flag="0"/>
      <psa30 value="0.0025892552" flag="0"/>
    </comp>
    <comp name="--.HNZ">
      <acc value="0.0168212514" flag="0"/>
      <vel value="0.0132190832" flag="0"/>
      <psa03 value="0.0408826021" flag="0"/>
      <psa10 value="0.0279831198" flag="0"/>
      <psa30 value="0.0010951362" flag="0"/>
    </comp>
  </station>
  <station code="ANKY" name="ANKY" netid="HL" insttype="60" lat="35.867" lon="23.3012">
    <comp name="--.HHN">
      <acc value="0.0399778720" flag="0"/>
      <vel value="0.0324480883" flag="0"/>
      <psa03 value="0.0683278706" flag="0"/>
      <psa10 value="0.0237596212" flag="0"/>
      <psa30 value="0.0013811451" flag="0"/>
    </comp>
    <comp name="--.HHZ">
      <acc value="0.0316188519" flag="0"/>
      <vel value="0.0156151832" flag="0"/>
      <psa03 value="0.0885559832" flag="0"/>
      <psa10 value="0.0115251870" flag="0"/>
      <psa30 value="0.0007328338" flag="0"/>
    </comp>
    <comp name="--.HHE">
      <acc value="0.0393180881" flag="0"/>
      <vel value="0.0247881290" flag="0"/>
      <psa03 value="0.0815846281" flag="0"/>
      <psa10 value="0.0296742353" flag="0"/>
      <psa30 value="0.0015660014" flag="0"/>
    </comp>
  </station>
  <station code="GVD" name="GVD" netid="HL" insttype="120" lat="34.8391" lon="24.0874">
    <comp name="--.HHE">
      <acc value="0.0166267991" flag="0"/>
      <vel value="0.0082489521" flag="0"/>
      <psa03 value="0.0582884349" flag="0"/>
      <psa10 value="0.0048888616" flag="0"/>
      <psa30 value="0.0005453960" flag="0"/>
    </comp>
    <comp name="--.HHN">
      <acc value="0.0150191840" flag="0"/>
      <vel value="0.0078922457" flag="0"/>
      <psa03 value="0.0522667826" flag="0"/>
      <psa10 value="0.0060369003" flag="0"/>
      <psa30 value="0.0005756342" flag="0"/>
    </comp>
    <comp name="--.HHZ">
      <acc value="0.0090398494" flag="0"/>
      <vel value="0.0037559341" flag="0"/>
      <psa03 value="0.0179240815" flag="0"/>
      <psa10 value="0.0042557293" flag="0"/>
      <psa30 value="0.0004801777" flag="0"/>
    </comp>
  </station>
  <station code="IMMV" name="IMMV" netid="HL" insttype="120" lat="35.4606" lon="23.9811">
    <comp name="--.HHZ">
      <acc value="0.0215452168" flag="0"/>
      <vel value="0.0138153015" flag="0"/>
      <psa03 value="0.0573922598" flag="0"/>
      <psa10 value="0.0129507321" flag="0"/>
      <psa30 value="0.0007317470" flag="0"/>
    </comp>
    <comp name="--.HHN">
      <acc value="0.0327672178" flag="0"/>
      <vel value="0.0261952010" flag="0"/>
      <psa03 value="0.0961702421" flag="0"/>
      <psa10 value="0.0283330406" flag="0"/>
      <psa30 value="0.0013504710" flag="0"/>
    </comp>
    <comp name="--.HHE">
      <acc value="0.0329037828" flag="0"/>
      <vel value="0.0163551650" flag="0"/>
      <psa03 value="0.0982077243" flag="0"/>
      <psa10 value="0.0190338160" flag="0"/>
      <psa30 value="0.0013363551" flag="0"/>
    </comp>
  </station>
  <station code="KTHA" name="KTHA" netid="HL" insttype="120" lat="36.2566" lon="23.0621">
    <comp name="--.HHE">
      <acc value="0.0275927720" flag="0"/>
      <vel value="0.0138406284" flag="0"/>
      <psa03 value="0.0732249148" flag="0"/>
      <psa10 value="0.0100654516" flag="0"/>
      <psa30 value="0.0006723046" flag="0"/>
    </comp>
    <comp name="--.HHN">
      <acc value="0.0123315473" flag="0"/>
      <vel value="0.0047836395" flag="0"/>
      <psa03 value="0.0265675998" flag="0"/>
      <psa10 value="0.0018997493" flag="0"/>
      <psa30 value="0.0003171461" flag="0"/>
    </comp>
    <comp name="--.HHZ">
      <acc value="0.0096219615" flag="0"/>
      <vel value="0.0041931803" flag="0"/>
      <psa03 value="0.0195777955" flag="0"/>
      <psa10 value="0.0063906145" flag="0"/>
      <psa30 value="0.0003455294" flag="0"/>
    </comp>
  </station>
  <station code="VAM" name="VAM" netid="HL" insttype="CMG3ESPC-120s" lat="35.407" lon="24.1997">
    <comp name="--.HHN">
      <acc value="0.0342551774" flag="0"/>
      <vel value="0.0328718604" flag="0"/>
      <psa03 value="0.0944016687" flag="0"/>
      <psa10 value="0.0372516701" flag="0"/>
      <psa30 value="0.0019668933" flag="0"/>
    </comp>
    <comp name="--.HHE">
      <acc value="0.0262643484" flag="0"/>
      <vel value="0.0241208723" flag="0"/>
      <psa03 value="0.0945111254" flag="0"/>
      <psa10 value="0.0314336648" flag="0"/>
      <psa30 value="0.0013961094" flag="0"/>
    </comp>
    <comp name="--.HHZ">
      <acc value="0.0130539216" flag="0"/>
      <vel value="0.0089926022" flag="0"/>
      <psa03 value="0.0427578176" flag="0"/>
      <psa10 value="0.0140800048" flag="0"/>
      <psa30 value="0.0008864097" flag="0"/>
    </comp>
  </station>
</stationlist>
