<stationlist xmlns:esm="https://esm-db.eu/esmws/shakemap/1/" created="1783994405">
	<station code="KTHA" name="KTHA" netid="GE" source="GEOFON" insttype="" lat="36.2566" lon="23.0621" esm:processing="automatic (Paolucci et al 2011)" esm:quality="good">
		<comp name="--.HNE" depth="0.0">
			<acc value="0.0275348646370368" flag="0"/>
			<vel value="0.0130687600522475" flag="0"/>
			<psa03 value="0.0715583133037119" flag="0"/>
			<psa10 value="0.00855400916113896" flag="0"/>
			<psa30 value="0.000730161755048624" flag="0"/>
		</comp>
		<comp name="--.HNN" depth="0.0">
			<acc value="0.0123892009354622" flag="0"/>
			<vel value="0.004864203632516" flag="0"/>
			<psa03 value="0.0280098477024475" flag="0"/>
			<psa10 value="0.00385760398483159" flag="0"/>
			<psa30 value="0.00234582060743755" flag="0"/>
		</comp>
		<comp name="--.HNZ" depth="0.0">
			<acc value="0.00974231439569618" flag="0"/>
			<vel value="0.00393506261689461" flag="0"/>
			<psa03 value="0.0195243819361625" flag="0"/>
			<psa10 value="0.00721572034980395" flag="0"/>
			<psa30 value="0.000782489440250786" flag="0"/>
		</comp>
	</station>
	<station code="ABEA" name="ABEA" netid="HC" source="Seismological Network of Crete (HC)" insttype="" lat="35.5163" lon="24.0113" esm:processing="automatic (Paolucci et al 2011)" esm:quality="best">
		<comp name="--.HNE" depth="0.0">
			<acc value="0.0470465568468563" flag="0"/>
			<vel value="0.0333327062163263" flag="0"/>
			<psa03 value="0.149532593300339" flag="0"/>
			<psa10 value="0.0327600964456231" flag="0"/>
			<psa30 value="0.00278140196256348" flag="0"/>
		</comp>
		<comp name="--.HNN" depth="0.0">
			<acc value="0.043598690994543" flag="0"/>
			<vel value="0.0393700615139528" flag="0"/>
			<psa03 value="0.161008009740456" flag="0"/>
			<psa10 value="0.0361397715825144" flag="0"/>
			<psa30 value="0.00239805240086956" flag="0"/>
		</comp>
		<comp name="--.HNZ" depth="0.0">
			<acc value="0.0216768097139342" flag="0"/>
			<vel value="0.0138061332269109" flag="0"/>
			<psa03 value="0.0463388249281971" flag="0"/>
			<psa10 value="0.0216594604579422" flag="0"/>
			<psa30 value="0.00112149252254239" flag="0"/>
		</comp>
	</station>
	<station code="ATEI" name="ATEI" netid="HC" source="Seismological Network of Crete (HC)" insttype="" lat="35.5193" lon="24.0432" esm:processing="manual (Paolucci et al 2011)" esm:quality="good">
		<comp name="--.HNE" depth="0.0">
			<acc value="0.0221464467946709" flag="0"/>
			<vel value="0.0227894333932312" flag="0"/>
			<psa03 value="0.0538236332598841" flag="0"/>
			<psa10 value="0.0332060234860892" flag="0"/>
			<psa30 value="0.00161125684202481" flag="0"/>
		</comp>
		<comp name="--.HNN" depth="0.0">
			<acc value="0.050880771606816" flag="0"/>
			<vel value="0.0420740219916084" flag="0"/>
			<psa03 value="0.0854587653904639" flag="0"/>
			<psa10 value="0.0329373256861787" flag="0"/>
			<psa30 value="0.00286012676102781" flag="0"/>
		</comp>
		<comp name="--.HNZ" depth="0.0">
			<acc value="0.0195591933072229" flag="0"/>
			<vel value="0.017421805744947" flag="0"/>
			<psa03 value="0.0501550412753363" flag="0"/>
			<psa10 value="0.015754624916581" flag="0"/>
			<psa30 value="0.000896102279044811" flag="0"/>
		</comp>
	</station>
	<station code="DEYA" name="DEYA" netid="HC" source="Seismological Network of Crete (HC)" insttype="" lat="35.4825" lon="24.014" esm:processing="automatic (Paolucci et al 2011)" esm:quality="best">
		<comp name="--.HNE" depth="0.0">
			<acc value="0.0369854005803935" flag="0"/>
			<vel value="0.0294595201861309" flag="0"/>
			<psa03 value="0.127656258684138" flag="0"/>
			<psa10 value="0.0379896566283176" flag="0"/>
			<psa30 value="0.00307543977445791" flag="0"/>
		</comp>
		<comp name="--.HNN" depth="0.0">
			<acc value="0.0425874784350053" flag="0"/>
			<vel value="0.0398647446088395" flag="0"/>
			<psa03 value="0.0907546995533813" flag="0"/>
			<psa10 value="0.0397159447364367" flag="0"/>
			<psa30 value="0.00288126691145852" flag="0"/>
		</comp>
		<comp name="--.HNZ" depth="0.0">
			<acc value="0.0256278375023124" flag="0"/>
			<vel value="0.0181139880004705" flag="0"/>
			<psa03 value="0.0678363375743533" flag="0"/>
			<psa10 value="0.0215764093312374" flag="0"/>
			<psa30 value="0.00259547089554114" flag="0"/>
		</comp>
	</station>
	<station code="LENT" name="LENT" netid="HC" source="Seismological Network of Crete (HC)" insttype="" lat="35.5074" lon="24.0402" esm:processing="automatic (Paolucci et al 2011)" esm:quality="best">
		<comp name="--.HNE" depth="0.0">
			<acc value="0.0362423595548292" flag="0"/>
			<vel value="0.0260665201483948" flag="0"/>
			<psa03 value="0.067901565853953" flag="0"/>
			<psa10 value="0.0529422084116687" flag="0"/>
			<psa30 value="0.00239081483808254" flag="0"/>
		</comp>
		<comp name="--.HNN" depth="0.0">
			<acc value="0.0547068846853942" flag="0"/>
			<vel value="0.0545982305634195" flag="0"/>
			<psa03 value="0.0814139453577779" flag="0"/>
			<psa10 value="0.0502736441320562" flag="0"/>
			<psa30 value="0.00435609356982257" flag="0"/>
		</comp>
		<comp name="--.HNZ" depth="0.0">
			<acc value="0.0223537381482879" flag="0"/>
			<vel value="0.0159936814888181" flag="0"/>
			<psa03 value="0.0640053650413616" flag="0"/>
			<psa10 value="0.0275729290712303" flag="0"/>
			<psa30 value="0.00121801245817904" flag="0"/>
		</comp>
	</station>
	<station code="NERO" name="NERO" netid="HC" source="Seismological Network of Crete (HC)" insttype="" lat="35.474" lon="24.0423" esm:processing="automatic (Paolucci et al 2011)" esm:quality="best">
		<comp name="--.HNE" depth="0.0">
			<acc value="0.0316052414625624" flag="0"/>
			<vel value="0.0243703015413263" flag="0"/>
			<psa03 value="0.0647997874596271" flag="0"/>
			<psa10 value="0.0260539846986348" flag="0"/>
			<psa30 value="0.0014235601372081" flag="0"/>
		</comp>
		<comp name="--.HNN" depth="0.0">
			<acc value="0.0252599240281398" flag="0"/>
			<vel value="0.0277406585875389" flag="0"/>
			<psa03 value="0.0612851275472861" flag="0"/>
			<psa10 value="0.0310904370888539" flag="0"/>
			<psa30 value="0.00246000317146929" flag="0"/>
		</comp>
		<comp name="--.HNZ" depth="0.0">
			<acc value="0.0161792703769685" flag="0"/>
			<vel value="0.0142599274059109" flag="0"/>
			<psa03 value="0.0424256854934416" flag="0"/>
			<psa10 value="0.0129497653584194" flag="0"/>
			<psa30 value="0.00150624103107473" flag="0"/>
		</comp>
	</station>
	<station code="PASK" name="PASK" netid="HC" source="Seismological Network of Crete (HC)" insttype="" lat="35.4996" lon="24.0121" esm:processing="automatic (Paolucci et al 2011)" esm:quality="best">
		<comp name="--.HNE" depth="0.0">
			<acc value="0.082761189586736" flag="0"/>
			<vel value="0.0774032664633759" flag="0"/>
			<psa03 value="0.199780296964162" flag="0"/>
			<psa10 value="0.0555045506542036" flag="0"/>
			<psa30 value="0.00381686534859576" flag="0"/>
		</comp>
		<comp name="--.HNN" depth="0.0">
			<acc value="0.0839363555540598" flag="0"/>
			<vel value="0.0724279355590381" flag="0"/>
			<psa03 value="0.177338831160685" flag="0"/>
			<psa10 value="0.0560757059901645" flag="0"/>
			<psa30 value="0.00374357007648022" flag="0"/>
		</comp>
		<comp name="--.HNZ" depth="0.0">
			<acc value="0.0292098238195325" flag="0"/>
			<vel value="0.0194783369064561" flag="0"/>
			<psa03 value="0.0954215503760466" flag="0"/>
			<psa10 value="0.0163101810944374" flag="0"/>
			<psa30 value="0.00190887520361585" flag="0"/>
		</comp>
	</station>
	<station code="POLY" name="POLY" netid="HC" source="Seismological Network of Crete (HC)" insttype="" lat="35.5226" lon="24.0602" esm:processing="automatic (Paolucci et al 2011)" esm:quality="best">
		<comp name="--.HNE" depth="0.0">
			<acc value="0.0432098640816016" flag="0"/>
			<vel value="0.0387882498613749" flag="0"/>
			<psa03 value="0.0853956778781044" flag="0"/>
			<psa10 value="0.0398290934819909" flag="0"/>
			<psa30 value="0.0027822384763124" flag="0"/>
		</comp>
		<comp name="--.HNN" depth="0.0">
			<acc value="0.0688909584085266" flag="0"/>
			<vel value="0.0532450818258364" flag="0"/>
			<psa03 value="0.155360614795092" flag="0"/>
			<psa10 value="0.044945253652496" flag="0"/>
			<psa30 value="0.00269291880932128" flag="0"/>
		</comp>
		<comp name="--.HNZ" depth="0.0">
			<acc value="0.0238524543576398" flag="0"/>
			<vel value="0.0158421719847902" flag="0"/>
			<psa03 value="0.0478273506190048" flag="0"/>
			<psa10 value="0.0141486419656063" flag="0"/>
			<psa30 value="0.00121448337022988" flag="0"/>
		</comp>
	</station>
	<station code="CH01" name="CH01" netid="HI" source="ITSAK Strong Motion Network" insttype="" lat="35.517" lon="24.0208" esm:processing="manual (Paolucci et al 2011)" esm:quality="good">
		<comp name="--.HNE" depth="0.0">
			<acc value="0.0305205836907137" flag="0"/>
			<vel value="0.0300190863631178" flag="0"/>
			<psa03 value="0.129646400937771" flag="0"/>
			<psa10 value="0.0308031718089509" flag="0"/>
			<psa30 value="0.00270060494348991" flag="0"/>
		</comp>
		<comp name="--.HNN" depth="0.0">
			<acc value="0.0573680297601775" flag="0"/>
			<vel value="0.0492519194153217" flag="0"/>
			<psa03 value="0.132152994070415" flag="0"/>
			<psa10 value="0.0433272202155209" flag="0"/>
			<psa30 value="0.00311068377586627" flag="0"/>
		</comp>
		<comp name="--.HNZ" depth="0.0">
			<acc value="0.0168481848859117" flag="0"/>
			<vel value="0.0132811075242846" flag="0"/>
			<psa03 value="0.0417887292357116" flag="0"/>
			<psa10 value="0.0280058052471623" flag="0"/>
			<psa30 value="0.0010891788194162" flag="0"/>
		</comp>
	</station>
	<station code="CH02" name="CH02" netid="HI" source="ITSAK Strong Motion Network" insttype="" lat="35.5145" lon="24.0315" esm:processing="automatic (Paolucci et al 2011)" esm:quality="best">
		<comp name="--.HNE" depth="0.0">
			<acc value="0.0423181405069656" flag="0"/>
			<vel value="0.0333299787524124" flag="0"/>
			<psa03 value="0.122487822550438" flag="0"/>
			<psa10 value="0.029693508924238" flag="0"/>
			<psa30 value="0.00212683693417558" flag="0"/>
		</comp>
		<comp name="--.HNN" depth="0.0">
			<acc value="0.037270943522565" flag="0"/>
			<vel value="0.0374895770567505" flag="0"/>
			<psa03 value="0.125904246788444" flag="0"/>
			<psa10 value="0.0265683087700655" flag="0"/>
			<psa30 value="0.00286777185081082" flag="0"/>
		</comp>
		<comp name="--.HNZ" depth="0.0">
			<acc value="0.0183853109618319" flag="0"/>
			<vel value="0.0131951298115937" flag="0"/>
			<psa03 value="0.0424101323797987" flag="0"/>
			<psa10 value="0.0181998375249159" flag="0"/>
			<psa30 value="0.00106859828939226" flag="0"/>
		</comp>
	</station>
	<station code="GOR1" name="GOR1" netid="HI" source="ITSAK Strong Motion Network" insttype="" lat="35.0582" lon="24.9628" esm:processing="manual (Paolucci et al 2011)" esm:quality="good">
		<comp name="--.HNE" depth="0.0">
			<acc value="0.00296679262896174" flag="0"/>
			<vel value="0.0035336739958304" flag="0"/>
			<psa03 value="0.00738186726768649" flag="0"/>
			<psa10 value="0.00811775869917392" flag="0"/>
			<psa30 value="0.00059292636179487" flag="0"/>
		</comp>
		<comp name="--.HNN" depth="0.0">
			<acc value="0.00282248020862722" flag="0"/>
			<vel value="0.00311375632687889" flag="0"/>
			<psa03 value="0.00734982282719124" flag="0"/>
			<psa10 value="0.00507222179105048" flag="0"/>
			<psa30 value="0.000661750660650231" flag="0"/>
		</comp>
		<comp name="--.HNZ" depth="0.0">
			<acc value="0.00271658111520046" flag="0"/>
			<vel value="0.00305093268695419" flag="0"/>
			<psa03 value="0.00694056003845671" flag="0"/>
			<psa10 value="0.00569631329029942" flag="0"/>
			<psa30 value="0.00055789836427861" flag="0"/>
		</comp>
	</station>
	<station code="KIS1" name="KIS1" netid="HI" source="ITSAK Strong Motion Network" insttype="" lat="35.493933" lon="23.658993" esm:processing="automatic (Paolucci et al 2011)" esm:quality="best">
		<comp name="--.HNE" depth="0.0">
			<acc value="0.0748418659982817" flag="0"/>
			<vel value="0.03699165060442" flag="0"/>
			<psa03 value="0.188345331120502" flag="0"/>
			<psa10 value="0.0372274523860177" flag="0"/>
			<psa30 value="0.00226080997589876" flag="0"/>
		</comp>
		<comp name="--.HNN" depth="0.0">
			<acc value="0.0430397666061994" flag="0"/>
			<vel value="0.0290501078470899" flag="0"/>
			<psa03 value="0.136184573642978" flag="0"/>
			<psa10 value="0.0400333995162442" flag="0"/>
			<psa30 value="0.0021933592576197" flag="0"/>
		</comp>
		<comp name="--.HNZ" depth="0.0">
			<acc value="0.032910922259015" flag="0"/>
			<vel value="0.0171394436933384" flag="0"/>
			<psa03 value="0.0684873598681394" flag="0"/>
			<psa10 value="0.019478812875756" flag="0"/>
			<psa30 value="0.000970727430928215" flag="0"/>
		</comp>
	</station>
	<station code="NPS1" name="NPS1" netid="HI" source="ITSAK Strong Motion Network" insttype="" lat="36.51263" lon="23.06248" esm:processing="manual (Paolucci et al 2011)" esm:quality="best">
		<comp name="--.HNE" depth="0.0">
			<acc value="0.0194700411221758" flag="0"/>
			<vel value="0.010225725728575" flag="0"/>
			<psa03 value="0.0630791265992413" flag="0"/>
			<psa10 value="0.00579668681453837" flag="0"/>
			<psa30 value="0.000395501877141797" flag="0"/>
		</comp>
		<comp name="--.HNN" depth="0.0">
			<acc value="0.0159152194882288" flag="0"/>
			<vel value="0.00911417754627445" flag="0"/>
			<psa03 value="0.0399957172283329" flag="0"/>
			<psa10 value="0.00743362009708379" flag="0"/>
			<psa30 value="0.000405706094787592" flag="0"/>
		</comp>
		<comp name="--.HNZ" depth="0.0">
			<acc value="0.0142533895471224" flag="0"/>
			<vel value="0.0044414101772293" flag="0"/>
			<psa03 value="0.0280404877530496" flag="0"/>
			<psa10 value="0.00254834725299925" flag="0"/>
			<psa30 value="0.000334267560251936" flag="0"/>
		</comp>
	</station>
	<station code="SFK2" name="SFK2" netid="HI" source="ITSAK Strong Motion Network" insttype="" lat="35.211556" lon="24.188889" esm:processing="automatic (Paolucci et al 2011)" esm:quality="best">
		<comp name="--.HNE" depth="0.0">
			<acc value="0.0174108651746667" flag="0"/>
			<vel value="0.0128633725390114" flag="0"/>
			<psa03 value="0.0599676704805299" flag="0"/>
			<psa10 value="0.0140210153859577" flag="0"/>
			<psa30 value="0.000815687472791886" flag="0"/>
		</comp>
		<comp name="--.HNN" depth="0.0">
			<acc value="0.0172353387319545" flag="0"/>
			<vel value="0.0140271562757432" flag="0"/>
			<psa03 value="0.0437711027457395" flag="0"/>
			<psa10 value="0.0173105392382688" flag="0"/>
			<psa30 value="0.00217800115688757" flag="0"/>
		</comp>
		<comp name="--.HNZ" depth="0.0">
			<acc value="0.0111396726305859" flag="0"/>
			<vel value="0.00624093830044998" flag="0"/>
			<psa03 value="0.0265841334642072" flag="0"/>
			<psa10 value="0.00706732676946383" flag="0"/>
			<psa30 value="0.00108560733282458" flag="0"/>
		</comp>
	</station>
	<station code="ANKY" name="ANKY" netid="HL" source="National Observatory of Athens Seismic Network" insttype="" lat="35.86704" lon="23.30117" esm:processing="manual (Paolucci et al 2011)" esm:quality="good">
		<comp name="00.HNE" depth="0.0">
			<acc value="0.0441476748084131" flag="0"/>
			<vel value="0.0313791241377243" flag="0"/>
			<psa03 value="0.0958635588236314" flag="0"/>
			<psa10 value="0.033560189447846" flag="0"/>
			<psa30 value="0.00180945007552052" flag="0"/>
		</comp>
		<comp name="00.HNN" depth="0.0">
			<acc value="0.0361086759134976" flag="0"/>
			<vel value="0.027619388790169" flag="0"/>
			<psa03 value="0.0728716763492558" flag="0"/>
			<psa10 value="0.0220011080904351" flag="0"/>
			<psa30 value="0.00108358292788436" flag="0"/>
		</comp>
		<comp name="00.HNZ" depth="0.0">
			<acc value="0.0320539402038498" flag="0"/>
			<vel value="0.0159949102708219" flag="0"/>
			<psa03 value="0.0869225550676794" flag="0"/>
			<psa10 value="0.0113268144083654" flag="0"/>
			<psa30 value="0.000742353916887043" flag="0"/>
		</comp>
	</station>
	<station code="IMMV" name="IMMV" netid="HL" source="National Observatory of Athens Seismic Network" insttype="" lat="35.4606" lon="23.9811" esm:processing="automatic (Paolucci et al 2011)" esm:quality="best">
		<comp name="--.HNE" depth="0.0">
			<acc value="0.0312196789584055" flag="0"/>
			<vel value="0.0156648796451615" flag="0"/>
			<psa03 value="0.0925252126747825" flag="0"/>
			<psa10 value="0.0183168152741369" flag="0"/>
			<psa30 value="0.00137533465083931" flag="0"/>
		</comp>
		<comp name="--.HNN" depth="0.0">
			<acc value="0.032259790356298" flag="0"/>
			<vel value="0.0256282331941641" flag="0"/>
			<psa03 value="0.0950282743234033" flag="0"/>
			<psa10 value="0.0279569601363856" flag="0"/>
			<psa30 value="0.00136223951251756" flag="0"/>
		</comp>
		<comp name="--.HNZ" depth="0.0">
			<acc value="0.0213359454896946" flag="0"/>
			<vel value="0.0137605488967304" flag="0"/>
			<psa03 value="0.0572527718818849" flag="0"/>
			<psa10 value="0.0129961503061779" flag="0"/>
			<psa30 value="0.000744739179065177" flag="0"/>
		</comp>
	</station>
	<station code="KTHA" name="KTHA" netid="HL" source="National Observatory of Athens Seismic Network" insttype="" lat="36.2566" lon="23.0621" esm:processing="manual (Paolucci et al 2011)" esm:quality="good">
		<comp name="--.HNE" depth="0.0">
			<acc value="0.233005247530712" flag="0"/>
			<vel value="0.119237916231798" flag="0"/>
			<psa03 value="0.577448794815351" flag="0"/>
			<psa10 value="0.0630056663161777" flag="0"/>
			<psa30 value="0.00350233701263851" flag="0"/>
		</comp>
		<comp name="--.HNN" depth="0.0">
			<acc value="0.101926825175789" flag="0"/>
			<vel value="0.0396456368354981" flag="0"/>
			<psa03 value="0.239980501697141" flag="0"/>
			<psa10 value="0.0215454172781552" flag="0"/>
			<psa30 value="0.00214022657117332" flag="0"/>
		</comp>
		<comp name="--.HNZ" depth="0.0">
			<acc value="0.080464524507799" flag="0"/>
			<vel value="0.0342142921499095" flag="0"/>
			<psa03 value="0.157481744892719" flag="0"/>
			<psa10 value="0.0471854983076885" flag="0"/>
			<psa30 value="0.00161345730029437" flag="0"/>
		</comp>
	</station>
	<station code="MNVA" name="MNVA" netid="HL" source="National Observatory of Athens Seismic Network" insttype="" lat="36.68709" lon="23.03734" esm:processing="automatic (Paolucci et al 2011)" esm:quality="best">
		<comp name="00.HNE" depth="0.0">
			<acc value="0.00496536563891303" flag="0"/>
			<vel value="0.00275642922706131" flag="0"/>
			<psa03 value="0.0153584783613222" flag="0"/>
			<psa10 value="0.00342510939668609" flag="0"/>
			<psa30 value="0.000235180866036524" flag="0"/>
		</comp>
		<comp name="00.HNN" depth="0.0">
			<acc value="0.00324082961119953" flag="0"/>
			<vel value="0.00180194780499013" flag="0"/>
			<psa03 value="0.00913340256911598" flag="0"/>
			<psa10 value="0.00175551813039929" flag="0"/>
			<psa30 value="0.000243345339184437" flag="0"/>
		</comp>
		<comp name="00.HNZ" depth="0.0">
			<acc value="0.00386032746888893" flag="0"/>
			<vel value="0.00246031133982513" flag="0"/>
			<psa03 value="0.0134051237007479" flag="0"/>
			<psa10 value="0.00216947488893729" flag="0"/>
			<psa30 value="0.000189693660023958" flag="0"/>
		</comp>
	</station>
	<station code="G0LD" name="G0LD" netid="HC" source="Seismological Network of Crete (HC)" insttype="" lat="35.4955" lon="24.0306" esm:processing="automatic (Paolucci et al 2011)" esm:quality="bad">
		<comp name="--.HNE" depth="0.0">
			<acc value="0" flag="1"/>
			<vel value="0" flag="1"/>
			<psa03 value="0" flag="1"/>
			<psa10 value="0" flag="1"/>
			<psa30 value="0" flag="1"/>
		</comp>
		<comp name="--.HNN" depth="0.0">
			<acc value="0" flag="1"/>
			<vel value="0" flag="1"/>
			<psa03 value="0" flag="1"/>
			<psa10 value="0" flag="1"/>
			<psa30 value="0" flag="1"/>
		</comp>
		<comp name="--.HNZ" depth="0.0">
			<acc value="0" flag="1"/>
			<vel value="0" flag="1"/>
			<psa03 value="0" flag="1"/>
			<psa10 value="0" flag="1"/>
			<psa30 value="0" flag="1"/>
		</comp>
	</station>
