<?xml version="1.0" encoding="UTF-8" standalone="yes"?>
<!DOCTYPE earthquake SYSTEM "stationlist.dtd">
<stationlist created="" xmlns="ch.ethz.sed.shakemap.usgs.xml">
  <station code="THERA" name="THERA" netid="GE" insttype="STS-2/N" lat="36.367" lon="25.4753">
    <comp name="--.HHN">
      <acc value="0.1100190020" flag="0"/>
      <vel value="0.0261834462" flag="0"/>
      <psa03 value="0.2065598337" flag="0"/>
      <psa10 value="0.0115536293" flag="0"/>
      <psa30 value="0.0012235701" flag="0"/>
    </comp>
    <comp name="--.HHE">
      <acc value="0.1507881824" flag="0"/>
      <vel value="0.0418461401" flag="0"/>
      <psa03 value="0.3082991023" flag="0"/>
      <psa10 value="0.0163782776" flag="0"/>
      <psa30 value="0.0020128302" flag="0"/>
    </comp>
    <comp name="--.HHZ">
      <acc value="0.1086867587" flag="0"/>
      <vel value="0.0286015571" flag="0"/>
      <psa03 value="0.1624234934" flag="0"/>
      <psa10 value="0.0109090428" flag="0"/>
      <psa30 value="0.0019405988" flag="0"/>
    </comp>
  </station>
  <station code="SNT1" name="SNT1" netid="HA" insttype="30" lat="36.4159" lon="25.4282">
    <comp name="--.HHN">
      <acc value="0.1137243457" flag="0"/>
      <vel value="0.0474557527" flag="0"/>
      <psa03 value="0.1616919030" flag="0"/>
      <psa10 value="0.0307771363" flag="0"/>
      <psa30 value="0.0021775069" flag="0"/>
    </comp>
    <comp name="--.HHZ">
      <acc value="0.1130458780" flag="0"/>
      <vel value="0.0272536545" flag="0"/>
      <psa03 value="0.1677690888" flag="0"/>
      <psa10 value="0.0168698962" flag="0"/>
      <psa30 value="0.0017524648" flag="0"/>
    </comp>
    <comp name="--.HHE">
      <acc value="0.1437361324" flag="0"/>
      <vel value="0.0380366347" flag="0"/>
      <psa03 value="0.2074100718" flag="0"/>
      <psa10 value="0.0371736529" flag="0"/>
      <psa30 value="0.0045675932" flag="0"/>
    </comp>
  </station>
  <station code="MHLO" name="MHLO" netid="HL" insttype="20" lat="36.6898" lon="24.4017">
    <comp name="--.HHE">
      <acc value="0.1764770132" flag="0"/>
      <vel value="0.0860899015" flag="0"/>
      <psa03 value="0.5539927260" flag="0"/>
      <psa10 value="0.0666031942" flag="0"/>
      <psa30 value="0.0040865394" flag="0"/>
    </comp>
    <comp name="--.HHN">
      <acc value="0.1896669982" flag="0"/>
      <vel value="0.0956743629" flag="0"/>
      <psa03 value="0.4681854550" flag="0"/>
      <psa10 value="0.0835647796" flag="0"/>
      <psa30 value="0.0036887668" flag="0"/>
    </comp>
    <comp name="--.HHZ">
      <acc value="0.0928154048" flag="0"/>
      <vel value="0.0433068521" flag="0"/>
      <psa03 value="0.3449024733" flag="0"/>
      <psa10 value="0.0378786583" flag="0"/>
      <psa30 value="0.0024784784" flag="0"/>
    </comp>
  </station>
  <station code="SAP3" name="SAP3" netid="HL" insttype="LE3D20_SMART24" lat="36.4356" lon="25.3454">
    <comp name="--.HHE">
      <acc value="0.5392892965" flag="0"/>
      <vel value="0.2331908948" flag="0"/>
      <psa03 value="1.2106458650" flag="0"/>
      <psa10 value="0.1387744912" flag="0"/>
      <psa30 value="0.0141320263" flag="0"/>
    </comp>
    <comp name="--.HHN">
      <acc value="0.5356969046" flag="0"/>
      <vel value="0.1697678999" flag="0"/>
      <psa03 value="0.9543334550" flag="0"/>
      <psa10 value="0.1265198649" flag="0"/>
      <psa30 value="0.0145198198" flag="0"/>
    </comp>
    <comp name="--.HHZ">
      <acc value="0.4761025295" flag="0"/>
      <vel value="0.1275487807" flag="0"/>
      <psa03 value="0.7065678144" flag="0"/>
      <psa10 value="0.0646392397" flag="0"/>
      <psa30 value="0.0067069219" flag="0"/>
    </comp>
  </station>
  <station code="THERA" name="THERA" netid="HL" insttype="120" lat="36.367" lon="25.4753">
    <comp name="--.HHE">
      <acc value="0.1547155915" flag="0"/>
      <vel value="0.0413526219" flag="0"/>
      <psa03 value="0.2995372535" flag="0"/>
      <psa10 value="0.0161152574" flag="0"/>
      <psa30 value="0.0020120724" flag="0"/>
    </comp>
    <comp name="--.HHN">
      <acc value="0.1085296843" flag="0"/>
      <vel value="0.0253270332" flag="0"/>
      <psa03 value="0.2004476553" flag="0"/>
      <psa10 value="0.0114821478" flag="0"/>
      <psa30 value="0.0012156505" flag="0"/>
    </comp>
    <comp name="--.HHZ">
      <acc value="0.1067552435" flag="0"/>
      <vel value="0.0279834143" flag="0"/>
      <psa03 value="0.1578597453" flag="0"/>
      <psa10 value="0.0108035120" flag="0"/>
      <psa30 value="0.0019412330" flag="0"/>
    </comp>
  </station>
  <station code="THRA" name="THRA" netid="HL" insttype="CMG-5" lat="36.415" lon="25.4324">
    <comp name="00.HNN">
      <acc value="0.4033786986" flag="0"/>
      <vel value="0.1718966563" flag="0"/>
      <psa03 value="0.9255829565" flag="0"/>
      <psa10 value="0.1490795219" flag="0"/>
      <psa30 value="0.0056781972" flag="0"/>
    </comp>
    <comp name="00.HNE">
      <acc value="0.4360287413" flag="0"/>
      <vel value="0.1638010698" flag="0"/>
      <psa03 value="1.0418663835" flag="0"/>
      <psa10 value="0.1204399442" flag="0"/>
      <psa30 value="0.0106047638" flag="0"/>
    </comp>
    <comp name="00.HNZ">
      <acc value="0.3592774676" flag="0"/>
      <vel value="0.0934868321" flag="0"/>
      <psa03 value="0.6134573957" flag="0"/>
      <psa10 value="0.0534539335" flag="0"/>
      <psa30 value="0.0043308056" flag="0"/>
    </comp>
  </station>
</stationlist>
