<stationlist created="1778069519">
	<station code="IMMV" name="IMMV" netid="GE" source="GEOFON" insttype="" lat="35.4606" lon="23.9811">
		<comp name="--.HNE" depth="0.0">
			<acc value="0.0018070684398811" flag="0"/>
			<vel value="0.00308950627443336" flag="0"/>
			<psa03 value="0.00496638493462817" flag="0"/>
			<psa10 value="0.00723615707637309" flag="0"/>
			<psa30 value="0.000893501866166887" flag="0"/>
		</comp>
		<comp name="--.HNN" depth="0.0">
			<acc value="0.00202614850274644" flag="0"/>
			<vel value="0.00303370475771454" flag="0"/>
			<psa03 value="0.00451896286844545" flag="0"/>
			<psa10 value="0.00470330075971273" flag="0"/>
			<psa30 value="0.000579411575706619" flag="0"/>
		</comp>
		<comp name="--.HNZ" depth="0.0">
			<acc value="0.00124031621783205" flag="0"/>
			<vel value="0.00197716002041165" flag="0"/>
			<psa03 value="0.00362411873608001" flag="0"/>
			<psa10 value="0.00455833601026953" flag="0"/>
			<psa30 value="0.000433551982131053" flag="0"/>
		</comp>
	</station>
	<station code="KARP" name="KARP" netid="GE" source="GEOFON" insttype="" lat="35.5471" lon="27.16106">
		<comp name="--.HNE" depth="0.0">
			<acc value="0.0033998505112918" flag="0"/>
			<vel value="0.00134816840913122" flag="0"/>
			<psa03 value="0.00263979019047803" flag="0"/>
			<psa10 value="0.00262949948295583" flag="0"/>
			<psa30 value="0.000634444489847093" flag="0"/>
		</comp>
		<comp name="--.HNN" depth="0.0">
			<acc value="0.00480395021315948" flag="0"/>
			<vel value="0.00164158955480635" flag="0"/>
			<psa03 value="0.00246082136400495" flag="0"/>
			<psa10 value="0.00314895650179397" flag="0"/>
			<psa30 value="0.000499770447926095" flag="0"/>
		</comp>
		<comp name="--.HNZ" depth="0.0">
			<acc value="0.00105985815354884" flag="0"/>
			<vel value="0.00148355605833725" flag="0"/>
			<psa03 value="0.00246082136400495" flag="0"/>
			<psa10 value="0.00157850504949263" flag="0"/>
			<psa30 value="0.000795516433672872" flag="0"/>
		</comp>
	</station>
	<station code="SIT2" name="SIT2" netid="HI" source="ITSAK Strong Motion Network" insttype="" lat="35.2059" lon="26.107">
		<comp name="--.HNE" depth="0.0">
			<acc value="0.0454264967754407" flag="0"/>
			<vel value="0.0326543271938271" flag="0"/>
			<psa03 value="0.116284995000888" flag="0"/>
			<psa10 value="0.018676291886599" flag="0"/>
			<psa30 value="0.0016621729758688" flag="0"/>
		</comp>
		<comp name="--.HNN" depth="0.0">
			<acc value="0.0371883589211698" flag="0"/>
			<vel value="0.0209953318165264" flag="0"/>
			<psa03 value="0.114047884669975" flag="0"/>
			<psa10 value="0.0179273073478091" flag="0"/>
			<psa30 value="0.0018509850877979" flag="0"/>
		</comp>
		<comp name="--.HNZ" depth="0.0">
			<acc value="0.0197607713104029" flag="0"/>
			<vel value="0.0083923032126596" flag="0"/>
			<psa03 value="0.0485900363874431" flag="0"/>
			<psa10 value="0.00494088187685575" flag="0"/>
			<psa30 value="0.00123712201299521" flag="0"/>
		</comp>
	</station>
</stationlist>
