<?xml version="1.0" encoding="UTF-8" standalone="yes"?>
<!DOCTYPE earthquake SYSTEM "stationlist.dtd">
<stationlist created="" xmlns="ch.ethz.sed.shakemap.usgs.xml">
  <station code="ZKR" name="ZKR" netid="GE" insttype="STS-2/N" lat="35.1147" lon="26.2169">
    <comp name="--.HHE">
      <acc value="0.0100530823" flag="0"/>
      <vel value="0.0047901470" flag="0"/>
      <psa03 value="0.0424721391" flag="0"/>
      <psa10 value="0.0081203738" flag="0"/>
      <psa30 value="0.0015582891" flag="0"/>
    </comp>
    <comp name="--.HHN">
      <acc value="0.0061892114" flag="0"/>
      <vel value="0.0025922437" flag="0"/>
      <psa03 value="0.0245731654" flag="0"/>
      <psa10 value="0.0031804878" flag="0"/>
      <psa30 value="0.0005824934" flag="0"/>
    </comp>
    <comp name="--.HHZ">
      <acc value="0.0073913270" flag="0"/>
      <vel value="0.0030871355" flag="0"/>
      <psa03 value="0.0218213734" flag="0"/>
      <psa10 value="0.0048389165" flag="0"/>
      <psa30 value="0.0007356653" flag="0"/>
    </comp>
  </station>
  <station code="STIA" name="STIA" netid="HC" insttype="120" lat="35.2021" lon="26.0909">
    <comp name="--.HHE">
      <acc value="0.0092298951" flag="0"/>
      <vel value="0.0069940714" flag="0"/>
      <psa03 value="0.0260906892" flag="0"/>
      <psa10 value="0.0116866594" flag="0"/>
      <psa30 value="0.0013119283" flag="0"/>
    </comp>
    <comp name="--.HHN">
      <acc value="0.0100484880" flag="0"/>
      <vel value="0.0061133808" flag="0"/>
      <psa03 value="0.0340648464" flag="0"/>
      <psa10 value="0.0122812222" flag="0"/>
      <psa30 value="0.0010574781" flag="0"/>
    </comp>
    <comp name="--.HHZ">
      <acc value="0.0077692365" flag="0"/>
      <vel value="0.0041909366" flag="0"/>
      <psa03 value="0.0313869179" flag="0"/>
      <psa10 value="0.0046138378" flag="0"/>
      <psa30 value="0.0012101901" flag="0"/>
    </comp>
  </station>
  <station code="NPS" name="NPS" netid="HL" insttype="CMG3ESPC-120s" lat="35.2613" lon="25.6104">
    <comp name="--.HHE">
      <acc value="0.0026606415" flag="0"/>
      <vel value="0.0022858475" flag="0"/>
      <psa03 value="0.0065324802" flag="0"/>
      <psa10 value="0.0029250665" flag="0"/>
      <psa30 value="0.0005557834" flag="0"/>
    </comp>
    <comp name="--.HHZ">
      <acc value="0.0049116199" flag="0"/>
      <vel value="0.0030825275" flag="0"/>
      <psa03 value="0.0121783350" flag="0"/>
      <psa10 value="0.0031504657" flag="0"/>
      <psa30 value="0.0011145568" flag="0"/>
    </comp>
    <comp name="--.HHN">
      <acc value="0.0059390574" flag="0"/>
      <vel value="0.0031796445" flag="0"/>
      <psa03 value="0.0174027211" flag="0"/>
      <psa10 value="0.0043992022" flag="0"/>
      <psa30 value="0.0012593261" flag="0"/>
    </comp>
  </station>
  <station code="ZKR" name="ZKR" netid="HL" insttype="120" lat="35.1147" lon="26.2169">
    <comp name="--.HHE">
      <acc value="0.0098091536" flag="0"/>
      <vel value="0.0047486387" flag="0"/>
      <psa03 value="0.0413107772" flag="0"/>
      <psa10 value="0.0080751431" flag="0"/>
      <psa30 value="0.0015590022" flag="0"/>
    </comp>
    <comp name="--.HHN">
      <acc value="0.0060021646" flag="0"/>
      <vel value="0.0025739244" flag="0"/>
      <psa03 value="0.0238727745" flag="0"/>
      <psa10 value="0.0031604198" flag="0"/>
      <psa30 value="0.0005821276" flag="0"/>
    </comp>
    <comp name="--.HHZ">
      <acc value="0.0072207924" flag="0"/>
      <vel value="0.0030513383" flag="0"/>
      <psa03 value="0.0211939252" flag="0"/>
      <psa10 value="0.0048113993" flag="0"/>
      <psa30 value="0.0007352416" flag="0"/>
    </comp>
  </station>
</stationlist>
