<?xml version="1.0" encoding="UTF-8" standalone="yes"?>
<!DOCTYPE earthquake SYSTEM "stationlist.dtd">
<stationlist created="" xmlns="ch.ethz.sed.shakemap.usgs.xml">
  <station code="APE" name="APE" netid="GE" insttype="STS-2/N" lat="37.0727" lon="25.523">
    <comp name="--.HHN">
      <acc value="0.1465039901" flag="0"/>
      <vel value="0.0409393353" flag="0"/>
      <psa03 value="0.1293263386" flag="0"/>
      <psa10 value="0.0092895045" flag="0"/>
      <psa30 value="0.0008616804" flag="0"/>
    </comp>
    <comp name="--.HHE">
      <acc value="0.1443305885" flag="0"/>
      <vel value="0.0282260454" flag="0"/>
      <psa03 value="0.1772110638" flag="0"/>
      <psa10 value="0.0091162399" flag="0"/>
      <psa30 value="0.0009294761" flag="0"/>
    </comp>
    <comp name="--.HHZ">
      <acc value="0.0642017459" flag="0"/>
      <vel value="0.0119152227" flag="0"/>
      <psa03 value="0.0616130855" flag="0"/>
      <psa10 value="0.0064293521" flag="0"/>
      <psa30 value="0.0008338946" flag="0"/>
    </comp>
  </station>
  <station code="THERA" name="THERA" netid="GE" insttype="STS-2/N" lat="36.367" lon="25.4753">
    <comp name="--.HHZ">
      <acc value="0.0508511393" flag="0"/>
      <vel value="0.0100879883" flag="0"/>
      <psa03 value="0.0655011213" flag="0"/>
      <psa10 value="0.0045879002" flag="0"/>
      <psa30 value="0.0008560779" flag="0"/>
    </comp>
    <comp name="--.HHN">
      <acc value="0.0339965160" flag="0"/>
      <vel value="0.0102524716" flag="0"/>
      <psa03 value="0.0624032134" flag="0"/>
      <psa10 value="0.0037691751" flag="0"/>
      <psa30 value="0.0004452150" flag="0"/>
    </comp>
    <comp name="--.HHE">
      <acc value="0.0648953858" flag="0"/>
      <vel value="0.0141772458" flag="0"/>
      <psa03 value="0.1014630091" flag="0"/>
      <psa10 value="0.0109155889" flag="0"/>
      <psa30 value="0.0009950864" flag="0"/>
    </comp>
  </station>
</stationlist>
