<stationlist created="1738645315">
	<station code="ABEA" name="ABEA" netid="HC" source="Seismological Network of Crete (HC)" insttype="" lat="35.5163" lon="24.0113">
		<comp name=".HNE" depth="0.0">
			<acc value="0.0051264228853614" flag="0"/>
			<vel value="0.00184806722803" flag="0"/>
			<psa03 value="0.00871224315899072" flag="0"/>
			<psa10 value="0.00233310643185054" flag="0"/>
			<psa30 value="0.000605142535639897" flag="0"/>
		</comp>
		<comp name=".HNN" depth="0.0">
			<acc value="0.006582641472573" flag="0"/>
			<vel value="0.00336588930517" flag="0"/>
			<psa03 value="0.0182383318978872" flag="0"/>
			<psa10 value="0.00154156200372841" flag="0"/>
			<psa30 value="0.00100575329288835" flag="0"/>
		</comp>
		<comp name=".HNZ" depth="0.0">
			<acc value="0.0030073362981858" flag="0"/>
			<vel value="0.00153426525208" flag="0"/>
			<psa03 value="0.00321257381985538" flag="0"/>
			<psa10 value="0.00159578497073354" flag="0"/>
			<psa30 value="0.000680514403657261" flag="0"/>
		</comp>
	</station>
	<station code="ATEI" name="ATEI" netid="HC" source="Seismological Network of Crete (HC)" insttype="" lat="35.5193" lon="24.0432">
		<comp name=".HNE" depth="0.0">
			<acc value="0.0048767003228784" flag="0"/>
			<vel value="0.00291968079558" flag="0"/>
			<psa03 value="0.0167734848589614" flag="0"/>
			<psa10 value="0.00331265093124101" flag="0"/>
			<psa30 value="0.000807242642528143" flag="0"/>
		</comp>
		<comp name=".HNN" depth="0.0">
			<acc value="0.003886775981709" flag="0"/>
			<vel value="0.00264806662733" flag="0"/>
			<psa03 value="0.0101406138231914" flag="0"/>
			<psa10 value="0.00240013298140761" flag="0"/>
			<psa30 value="0.000923048751615651" flag="0"/>
		</comp>
		<comp name=".HNZ" depth="0.0">
			<acc value="0.0032650845129804" flag="0"/>
			<vel value="0.00189322828157" flag="0"/>
			<psa03 value="0.00656159548077562" flag="0"/>
			<psa10 value="0.00235279429857473" flag="0"/>
			<psa30 value="0.000789839145884329" flag="0"/>
		</comp>
	</station>
	<station code="G0LD" name="G0LD" netid="HC" source="Seismological Network of Crete (HC)" insttype="" lat="35.4955" lon="24.0306">
		<comp name=".HNE" depth="0.0">
			<acc value="0.0084592704790386" flag="0"/>
			<vel value="0.00448015708771" flag="0"/>
			<psa03 value="0.021194814208654" flag="0"/>
			<psa10 value="0.00486534449269592" flag="0"/>
			<psa30 value="0.00183959040550367" flag="0"/>
		</comp>
		<comp name=".HNN" depth="0.0">
			<acc value="0.0078796186022952" flag="0"/>
			<vel value="0.00415645400325" flag="0"/>
			<psa03 value="0.0194284966779705" flag="0"/>
			<psa10 value="0.00393587213846448" flag="0"/>
			<psa30 value="0.000922799360095092" flag="0"/>
		</comp>
		<comp name=".HNZ" depth="0.0">
			<acc value="0.0039738968182356" flag="0"/>
			<vel value="0.00407240280417" flag="0"/>
			<psa03 value="0.00889034024347767" flag="0"/>
			<psa10 value="0.00248179932890044" flag="0"/>
			<psa30 value="0.00142680931078075" flag="0"/>
		</comp>
	</station>
	<station code="PASK" name="PASK" netid="HC" source="Seismological Network of Crete (HC)" insttype="" lat="35.4996" lon="24.0121">
		<comp name=".HNE" depth="0.0">
			<acc value="0.005081542778445" flag="0"/>
			<vel value="0.00348624266602" flag="0"/>
			<psa03 value="0.0124331960340345" flag="0"/>
			<psa10 value="0.00594528431464365" flag="0"/>
			<psa30 value="0.00108501260592574" flag="0"/>
		</comp>
		<comp name=".HNN" depth="0.0">
			<acc value="0.0052308268853664" flag="0"/>
			<vel value="0.00335711904306" flag="0"/>
			<psa03 value="0.0145217028769844" flag="0"/>
			<psa10 value="0.00545957135731815" flag="0"/>
			<psa30 value="0.00107999300257031" flag="0"/>
		</comp>
		<comp name=".HNZ" depth="0.0">
			<acc value="0.0036531854861436" flag="0"/>
			<vel value="0.00238588179361" flag="0"/>
			<psa03 value="0.0105846992312619" flag="0"/>
			<psa10 value="0.00262571886286146" flag="0"/>
			<psa30 value="0.00100756476705517" flag="0"/>
		</comp>
	</station>
	<station code="POLY" name="POLY" netid="HC" source="Seismological Network of Crete (HC)" insttype="" lat="35.5226" lon="24.0602">
		<comp name=".HNE" depth="0.0">
			<acc value="0.0029259715614816" flag="0"/>
			<vel value="0.00249336058914" flag="0"/>
			<psa03 value="0.0072440274072937" flag="0"/>
			<psa10 value="0.00135107293945246" flag="0"/>
			<psa30 value="0.00119565056014939" flag="0"/>
		</comp>
		<comp name=".HNN" depth="0.0">
			<acc value="0.0033119449761006" flag="0"/>
			<vel value="0.0024011257744" flag="0"/>
			<psa03 value="0.00718714343070616" flag="0"/>
			<psa10 value="0.00133587869072009" flag="0"/>
			<psa30 value="0.000805785306403173" flag="0"/>
		</comp>
		<comp name=".HNZ" depth="0.0">
			<acc value="0.0022980150543426" flag="0"/>
			<vel value="0.00171893769595" flag="0"/>
			<psa03 value="0.00581168707908724" flag="0"/>
			<psa10 value="0.00118865940691418" flag="0"/>
			<psa30 value="0.000702789420934532" flag="0"/>
		</comp>
	</station>
	<station code="ARK1" name="ARK1" netid="HI" source="ITSAK Strong Motion Network" insttype="" lat="35.148777" lon="25.264194">
		<comp name=".HNE" depth="0.0">
			<acc value="0.0072636917170554" flag="0"/>
			<vel value="0.00555684295378" flag="0"/>
			<psa03 value="0.0205116921322566" flag="0"/>
			<psa10 value="0.00575719763607433" flag="0"/>
			<psa30 value="0.000508691250382476" flag="0"/>
		</comp>
		<comp name=".HNN" depth="0.0">
			<acc value="0.007602133499874" flag="0"/>
			<vel value="0.00458265048563" flag="0"/>
			<psa03 value="0.0264892938482159" flag="0"/>
			<psa10 value="0.00498633172623627" flag="0"/>
			<psa30 value="0.000330791731037197" flag="0"/>
		</comp>
		<comp name=".HNZ" depth="0.0">
			<acc value="0.0046044165310596" flag="0"/>
			<vel value="0.00328506371546" flag="0"/>
			<psa03 value="0.00981802669816746" flag="0"/>
			<psa10 value="0.00422300006553583" flag="0"/>
			<psa30 value="0.000264424417861559" flag="0"/>
		</comp>
	</station>
	<station code="CH01" name="CH01" netid="HI" source="ITSAK Strong Motion Network" insttype="" lat="35.517" lon="24.0208">
		<comp name=".HNE" depth="0.0">
			<acc value="0.0054492688097136" flag="0"/>
			<vel value="0.00233161386771" flag="0"/>
			<psa03 value="0.00803308553789039" flag="0"/>
			<psa10 value="0.00319096990172118" flag="0"/>
			<psa30 value="0.000243490635267817" flag="0"/>
		</comp>
		<comp name=".HNN" depth="0.0">
			<acc value="0.0046519155007056" flag="0"/>
			<vel value="0.0021342810309" flag="0"/>
			<psa03 value="0.00940969691395789" flag="0"/>
			<psa10 value="0.0028805433218593" flag="0"/>
			<psa30 value="0.000252154594629393" flag="0"/>
		</comp>
		<comp name=".HNZ" depth="0.0">
			<acc value="0.001907550031851" flag="0"/>
			<vel value="0.00141129133901" flag="0"/>
			<psa03 value="0.00479494361802467" flag="0"/>
			<psa10 value="0.00225457787034302" flag="0"/>
			<psa30 value="0.000126699070274723" flag="0"/>
		</comp>
	</station>
	<station code="CH02" name="CH02" netid="HI" source="ITSAK Strong Motion Network" insttype="" lat="35.5145" lon="24.0315">
		<comp name=".HNE" depth="0.0">
			<acc value="0.0033163004522232" flag="0"/>
			<vel value="0.00258493661151" flag="0"/>
			<psa03 value="0.00958195832541039" flag="0"/>
			<psa10 value="0.00340055112919723" flag="0"/>
			<psa30 value="0.000290185577536892" flag="0"/>
		</comp>
		<comp name=".HNN" depth="0.0">
			<acc value="0.0053661445863816" flag="0"/>
			<vel value="0.00222292376979" flag="0"/>
			<psa03 value="0.0151825526445785" flag="0"/>
			<psa10 value="0.00363979869692477" flag="0"/>
			<psa30 value="0.000238617630163558" flag="0"/>
		</comp>
		<comp name=".HNZ" depth="0.0">
			<acc value="0.0025256461103214" flag="0"/>
			<vel value="0.00118355414758" flag="0"/>
			<psa03 value="0.00553670271688366" flag="0"/>
			<psa10 value="0.00205647169990681" flag="0"/>
			<psa30 value="0.000116616371095676" flag="0"/>
		</comp>
	</station>
	<station code="CH03" name="CH03" netid="HI" source="ITSAK Strong Motion Network" insttype="" lat="35.53303" lon="24.0705">
		<comp name=".HNE" depth="0.0">
			<acc value="0.0035453952854466" flag="0"/>
			<vel value="0.0018084700429" flag="0"/>
			<psa03 value="0.00922841211825411" flag="0"/>
			<psa10 value="0.00280154808881159" flag="0"/>
			<psa30 value="0.000124832592463216" flag="0"/>
		</comp>
		<comp name=".HNN" depth="0.0">
			<acc value="0.0038448760095984" flag="0"/>
			<vel value="0.00180893760572" flag="0"/>
			<psa03 value="0.0110844296015801" flag="0"/>
			<psa10 value="0.00240310294377629" flag="0"/>
			<psa30 value="0.000176900963612415" flag="0"/>
		</comp>
		<comp name=".HNZ" depth="0.0">
			<acc value="0.0021561484022112" flag="0"/>
			<vel value="0.00130152064575" flag="0"/>
			<psa03 value="0.00516035031141164" flag="0"/>
			<psa10 value="0.00157459313719244" flag="0"/>
			<psa30 value="0.000101505402620384" flag="0"/>
		</comp>
	</station>
	<station code="GOR1" name="GOR1" netid="HI" source="ITSAK Strong Motion Network" insttype="" lat="35.0582" lon="24.9628">
		<comp name=".HNE" depth="0.0">
			<acc value="0.0031620074986014" flag="0"/>
			<vel value="0.00210377307471" flag="0"/>
			<psa03 value="0.00752252697630659" flag="0"/>
			<psa10 value="0.00412434181114347" flag="0"/>
			<psa30 value="0.000367183256380419" flag="0"/>
		</comp>
		<comp name=".HNN" depth="0.0">
			<acc value="0.0023134718487936" flag="0"/>
			<vel value="0.00205249491163" flag="0"/>
			<psa03 value="0.00823989611311457" flag="0"/>
			<psa10 value="0.00332755512169748" flag="0"/>
			<psa30 value="0.000310910023346622" flag="0"/>
		</comp>
		<comp name=".HNZ" depth="0.0">
			<acc value="0.0021353773690716" flag="0"/>
			<vel value="0.0014828821642" flag="0"/>
			<psa03 value="0.00609215683072161" flag="0"/>
			<psa10 value="0.00272946198533583" flag="0"/>
			<psa30 value="0.000158720227977783" flag="0"/>
		</comp>
	</station>
	<station code="HER1" name="HER1" netid="HI" source="ITSAK Strong Motion Network" insttype="" lat="35.317672" lon="25.10217">
		<comp name=".HNE" depth="0.0">
			<acc value="0.0090452837774298" flag="0"/>
			<vel value="0.00850271793983" flag="0"/>
			<psa03 value="0.0309036487775508" flag="0"/>
			<psa10 value="0.0146660384280733" flag="0"/>
			<psa30 value="0.00107793911651057" flag="0"/>
		</comp>
		<comp name=".HNN" depth="0.0">
			<acc value="0.010967107332036" flag="0"/>
			<vel value="0.00711970524433" flag="0"/>
			<psa03 value="0.0205360700492582" flag="0"/>
			<psa10 value="0.0127222677877869" flag="0"/>
			<psa30 value="0.000684044585428093" flag="0"/>
		</comp>
		<comp name=".HNZ" depth="0.0">
			<acc value="0.0101696950838886" flag="0"/>
			<vel value="0.00756259266829" flag="0"/>
			<psa03 value="0.0222778091288622" flag="0"/>
			<psa10 value="0.0119134020169051" flag="0"/>
			<psa30 value="0.000400749881045999" flag="0"/>
		</comp>
	</station>
	<station code="HER3" name="HER3" netid="HI" source="ITSAK Strong Motion Network" insttype="" lat="35.3296" lon="25.1065">
		<comp name=".HNE" depth="0.0">
			<acc value="0.014703742002618" flag="0"/>
			<vel value="0.00892210228553" flag="0"/>
			<psa03 value="0.0392027532400096" flag="0"/>
			<psa10 value="0.0160011906253664" flag="0"/>
			<psa30 value="0.0011159565308079" flag="0"/>
		</comp>
		<comp name=".HNN" depth="0.0">
			<acc value="0.02090240998518" flag="0"/>
			<vel value="0.0109762321292" flag="0"/>
			<psa03 value="0.0499242811969248" flag="0"/>
			<psa10 value="0.0139560985855306" flag="0"/>
			<psa30 value="0.000725242887532042" flag="0"/>
		</comp>
		<comp name=".HNZ" depth="0.0">
			<acc value="0.010642934236122" flag="0"/>
			<vel value="0.00458688382472" flag="0"/>
			<psa03 value="0.0351161049154443" flag="0"/>
			<psa10 value="0.00582822171607366" flag="0"/>
			<psa30 value="0.000253209299915255" flag="0"/>
		</comp>
	</station>
	<station code="KIS1" name="KIS1" netid="HI" source="ITSAK Strong Motion Network" insttype="" lat="35.493933" lon="23.658993">
		<comp name=".HNE" depth="0.0">
			<acc value="0.0020229054935184" flag="0"/>
			<vel value="0.00156559896791" flag="0"/>
			<psa03 value="0.00483815123295069" flag="0"/>
			<psa10 value="0.00204673535179526" flag="0"/>
			<psa30 value="0.000178539184115529" flag="0"/>
		</comp>
		<comp name=".HNN" depth="0.0">
			<acc value="0.0022830184011288" flag="0"/>
			<vel value="0.00203026509507" flag="0"/>
			<psa03 value="0.00721567917519771" flag="0"/>
			<psa10 value="0.00278545483521381" flag="0"/>
			<psa30 value="0.000195266034374588" flag="0"/>
		</comp>
		<comp name=".HNZ" depth="0.0">
			<acc value="0.001667699705679" flag="0"/>
			<vel value="0.00112394789008" flag="0"/>
			<psa03 value="0.00392674645580424" flag="0"/>
			<psa10 value="0.00153055842323436" flag="0"/>
			<psa30 value="0.000107122812506643" flag="0"/>
		</comp>
	</station>
	<station code="KRL1" name="KRL1" netid="HI" source="ITSAK Strong Motion Network" insttype="" lat="37.7951" lon="26.7065">
		<comp name=".HNE" depth="0.0">
			<acc value="0.029626902760572" flag="0"/>
			<vel value="0.0112977725468" flag="0"/>
			<psa03 value="0.069623695561609" flag="0"/>
			<psa10 value="0.00391753998654682" flag="0"/>
			<psa30 value="0.000341427696034304" flag="0"/>
		</comp>
		<comp name=".HNN" depth="0.0">
			<acc value="0.017687528451768" flag="0"/>
			<vel value="0.00677311423543" flag="0"/>
			<psa03 value="0.0460837507389019" flag="0"/>
			<psa10 value="0.00399029855644453" flag="0"/>
			<psa30 value="0.000311550977264676" flag="0"/>
		</comp>
		<comp name=".HNZ" depth="0.0">
			<acc value="0.0095517431251962" flag="0"/>
			<vel value="0.00335095701738" flag="0"/>
			<psa03 value="0.030972111646209" flag="0"/>
			<psa10 value="0.00320240698749588" flag="0"/>
			<psa30 value="0.000244122265651837" flag="0"/>
		</comp>
	</station>
	<station code="KTL1" name="KTL1" netid="HI" source="ITSAK Strong Motion Network" insttype="" lat="35.20778" lon="25.34272">
		<comp name=".HNE" depth="0.0">
			<acc value="0.0062907452981016" flag="0"/>
			<vel value="0.00414843855818" flag="0"/>
			<psa03 value="0.0221231921154004" flag="0"/>
			<psa10 value="0.00365534980523588" flag="0"/>
			<psa30 value="0.000383598692780838" flag="0"/>
		</comp>
		<comp name=".HNN" depth="0.0">
			<acc value="0.0078181148137878" flag="0"/>
			<vel value="0.00448398514415" flag="0"/>
			<psa03 value="0.0242557813056525" flag="0"/>
			<psa10 value="0.00727849810225948" flag="0"/>
			<psa30 value="0.000260554838604188" flag="0"/>
		</comp>
		<comp name=".HNZ" depth="0.0">
			<acc value="0.0027016180721658" flag="0"/>
			<vel value="0.00180030393724" flag="0"/>
			<psa03 value="0.00737228069514058" flag="0"/>
			<psa10 value="0.00195973427590442" flag="0"/>
			<psa30 value="0.000143550251687135" flag="0"/>
		</comp>
	</station>
	<station code="NAX1" name="NAX1" netid="HI" source="ITSAK Strong Motion Network" insttype="" lat="37.101394" lon="25.374103">
		<comp name=".HNE" depth="0.0">
			<acc value="0.15332765668998" flag="0"/>
			<vel value="0.0353681054333" flag="0"/>
			<psa03 value="0.153152166412565" flag="0"/>
			<psa10 value="0.00846452167051107" flag="0"/>
			<psa30 value="0.00104185995561041" flag="0"/>
		</comp>
		<comp name=".HNN" depth="0.0">
			<acc value="0.1213860212691" flag="0"/>
			<vel value="0.0274285021923" flag="0"/>
			<psa03 value="0.085670966947576" flag="0"/>
			<psa10 value="0.00763597975244329" flag="0"/>
			<psa30 value="0.000877777419281649" flag="0"/>
		</comp>
		<comp name=".HNZ" depth="0.0">
			<acc value="0.048228401277714" flag="0"/>
			<vel value="0.0129038529585" flag="0"/>
			<psa03 value="0.0501584060815137" flag="0"/>
			<psa10 value="0.00601443936457136" flag="0"/>
			<psa30 value="0.000793400892248386" flag="0"/>
		</comp>
	</station>
	<station code="RTH1" name="RTH1" netid="HI" source="ITSAK Strong Motion Network" insttype="" lat="35.365393" lon="24.471773">
		<comp name=".HNE" depth="0.0">
			<acc value="0.0029969141172468" flag="0"/>
			<vel value="0.00155186895863" flag="0"/>
			<psa03 value="0.00646932764976474" flag="0"/>
			<psa10 value="0.00128815408388694" flag="0"/>
			<psa30 value="0.000295665602020065" flag="0"/>
		</comp>
		<comp name=".HNN" depth="0.0">
			<acc value="0.0033141293139546" flag="0"/>
			<vel value="0.00153550634334" flag="0"/>
			<psa03 value="0.0063834964430229" flag="0"/>
			<psa10 value="0.00196295937236237" flag="0"/>
			<psa30 value="0.000304384538981886" flag="0"/>
		</comp>
		<comp name=".HNZ" depth="0.0">
			<acc value="0.0044059190848104" flag="0"/>
			<vel value="0.0011330624309" flag="0"/>
			<psa03 value="0.00407967455529167" flag="0"/>
			<psa10 value="0.00145902137956987" flag="0"/>
			<psa30 value="0.000135709966681739" flag="0"/>
		</comp>
	</station>
	<station code="SFR2" name="SFR2" netid="HI" source="ITSAK Strong Motion Network" insttype="" lat="36.399841" lon="25.438209">
		<comp name=".HNE" depth="0.0">
			<acc value="0.11476902721974" flag="0"/>
			<vel value="0.0398989265946" flag="0"/>
			<psa03 value="0.246081593364333" flag="0"/>
			<psa10 value="0.0266281758609695" flag="0"/>
			<psa30 value="0.00238781943131714" flag="0"/>
		</comp>
		<comp name=".HNN" depth="0.0">
			<acc value="0.13268954489934" flag="0"/>
			<vel value="0.0424934135531" flag="0"/>
			<psa03 value="0.211845075363072" flag="0"/>
			<psa10 value="0.0291895880419669" flag="0"/>
			<psa30 value="0.00170706860575067" flag="0"/>
		</comp>
		<comp name=".HNZ" depth="0.0">
			<acc value="0.10495505628204" flag="0"/>
			<vel value="0.0306797361493" flag="0"/>
			<psa03 value="0.155200145831247" flag="0"/>
			<psa10 value="0.0131762972400112" flag="0"/>
			<psa30 value="0.00124751212072085" flag="0"/>
		</comp>
	</station>
	<station code="CHNB" name="CHNB" netid="HL" source="National Observatory of Athens Seismic Network" insttype="" lat="35.48765" lon="24.06605">
		<comp name="00.HNE" depth="0.0">
			<acc value="0.008295224155938" flag="0"/>
			<vel value="0.00566251639197" flag="0"/>
			<psa03 value="0.0209904386906206" flag="0"/>
			<psa10 value="0.00733463744625292" flag="0"/>
			<psa30 value="0.000324949651319651" flag="0"/>
		</comp>
		<comp name="00.HNN" depth="0.0">
			<acc value="0.0094682793945174" flag="0"/>
			<vel value="0.00741193979699" flag="0"/>
			<psa03 value="0.0222260817438463" flag="0"/>
			<psa10 value="0.0106804909676248" flag="0"/>
			<psa30 value="0.000455912754066475" flag="0"/>
		</comp>
		<comp name="00.HNZ" depth="0.0">
			<acc value="0.0052315059943692" flag="0"/>
			<vel value="0.00273903673273" flag="0"/>
			<psa03 value="0.0142673344637842" flag="0"/>
			<psa10 value="0.00302130608420043" flag="0"/>
			<psa30 value="0.000181814687560003" flag="0"/>
		</comp>
	</station>
	<station code="HERG" name="HERG" netid="HL" source="National Observatory of Athens Seismic Network" insttype="" lat="35.32622" lon="25.06586">
		<comp name="00.HNE" depth="0.0">
			<acc value="0.0100130552545968" flag="0"/>
			<vel value="0.00738866789516" flag="0"/>
			<psa03 value="0.0341332220959508" flag="0"/>
			<psa10 value="0.0083129610053577" flag="0"/>
			<psa30 value="0.00100315218307374" flag="0"/>
		</comp>
		<comp name="00.HNN" depth="0.0">
			<acc value="0.0087665672841906" flag="0"/>
			<vel value="0.00612060757184" flag="0"/>
			<psa03 value="0.0210796685599851" flag="0"/>
			<psa10 value="0.0092582495635926" flag="0"/>
			<psa30 value="0.000708069822818196" flag="0"/>
		</comp>
		<comp name="00.HNZ" depth="0.0">
			<acc value="0.010320572080644" flag="0"/>
			<vel value="0.00598176301408" flag="0"/>
			<psa03 value="0.019811482986436" flag="0"/>
			<psa10 value="0.00621656275428828" flag="0"/>
			<psa30 value="0.000329364969854373" flag="0"/>
		</comp>
	</station>
	<station code="IACM" name="IACM" netid="HL" source="National Observatory of Athens Seismic Network" insttype="" lat="35.3058" lon="25.0709">
		<comp name=".HNE" depth="0.0">
			<acc value="0.017975992709382" flag="0"/>
			<vel value="0.0116170421181" flag="0"/>
			<psa03 value="0.0435411474081441" flag="0"/>
			<psa10 value="0.0170917872470204" flag="0"/>
