<?xml version="1.0" encoding="UTF-8" standalone="yes"?>
<!DOCTYPE earthquake SYSTEM "stationlist.dtd">
<stationlist created="" xmlns="ch.ethz.sed.shakemap.usgs.xml">
  <station code="APE" name="APE" netid="GE" insttype="STS-2/N" lat="37.0727" lon="25.523">
    <comp name="--.HHN">
      <acc value="0.1465039901" flag="0"/>
      <vel value="0.0409393353" flag="0"/>
      <psa03 value="0.1293263386" flag="0"/>
      <psa10 value="0.0092895045" flag="0"/>
      <psa30 value="0.0008616804" flag="0"/>
    </comp>
    <comp name="--.HHE">
      <acc value="0.1443305885" flag="0"/>
      <vel value="0.0282260454" flag="0"/>
      <psa03 value="0.1772110638" flag="0"/>
      <psa10 value="0.0091162399" flag="0"/>
      <psa30 value="0.0009294761" flag="0"/>
    </comp>
    <comp name="--.HHZ">
      <acc value="0.0642017459" flag="0"/>
      <vel value="0.0119152227" flag="0"/>
      <psa03 value="0.0616130855" flag="0"/>
      <psa10 value="0.0064293521" flag="0"/>
      <psa30 value="0.0008338946" flag="0"/>
    </comp>
  </station>
  <station code="THERA" name="THERA" netid="GE" insttype="STS-2/N" lat="36.367" lon="25.4753">
    <comp name="--.HHZ">
      <acc value="0.0508511393" flag="0"/>
      <vel value="0.0100879883" flag="0"/>
      <psa03 value="0.0655011213" flag="0"/>
      <psa10 value="0.0045879002" flag="0"/>
      <psa30 value="0.0008560779" flag="0"/>
    </comp>
    <comp name="--.HHN">
      <acc value="0.0339965160" flag="0"/>
      <vel value="0.0102524716" flag="0"/>
      <psa03 value="0.0624032134" flag="0"/>
      <psa10 value="0.0037691751" flag="0"/>
      <psa30 value="0.0004452150" flag="0"/>
    </comp>
    <comp name="--.HHE">
      <acc value="0.0648953858" flag="0"/>
      <vel value="0.0141772458" flag="0"/>
      <psa03 value="0.1014630091" flag="0"/>
      <psa10 value="0.0109155889" flag="0"/>
      <psa30 value="0.0009950864" flag="0"/>
    </comp>
  </station>
  <station code="SNT1" name="SNT1" netid="HA" insttype="30" lat="36.4159" lon="25.4282">
    <comp name="--.HHN">
      <acc value="0.0355400226" flag="0"/>
      <vel value="0.0152625380" flag="0"/>
      <psa03 value="0.0658974764" flag="0"/>
      <psa10 value="0.0120753102" flag="0"/>
      <psa30 value="0.0015047096" flag="0"/>
    </comp>
    <comp name="--.HHZ">
      <acc value="0.0388950695" flag="0"/>
      <vel value="0.0108651402" flag="0"/>
      <psa03 value="0.0793037009" flag="0"/>
      <psa10 value="0.0097300105" flag="0"/>
      <psa30 value="0.0009815912" flag="0"/>
    </comp>
    <comp name="--.HHE">
      <acc value="0.0514418714" flag="0"/>
      <vel value="0.0159293478" flag="0"/>
      <psa03 value="0.0757797890" flag="0"/>
      <psa10 value="0.0174670405" flag="0"/>
      <psa30 value="0.0016043549" flag="0"/>
    </comp>
  </station>
  <station code="NAX1" name="NAX1" netid="HI" insttype="CMG-5TD,ACCELEROMETER,GURALP" lat="37.1014" lon="25.3741">
    <comp name="--.HNN">
      <acc value="0.1288929992" flag="0"/>
      <vel value="0.0270970371" flag="0"/>
      <psa03 value="0.0862641699" flag="0"/>
      <psa10 value="0.0075937599" flag="0"/>
      <psa30 value="0.0008654266" flag="0"/>
    </comp>
    <comp name="--.HNZ">
      <acc value="0.0502136318" flag="0"/>
      <vel value="0.0123569251" flag="0"/>
      <psa03 value="0.0496506901" flag="0"/>
      <psa10 value="0.0059607111" flag="0"/>
      <psa30 value="0.0007067722" flag="0"/>
    </comp>
    <comp name="--.HNE">
      <acc value="0.1564280577" flag="0"/>
      <vel value="0.0354273688" flag="0"/>
      <psa03 value="0.1513978043" flag="0"/>
      <psa10 value="0.0084645070" flag="0"/>
      <psa30 value="0.0010410598" flag="0"/>
    </comp>
  </station>
  <station code="APE" name="APE" netid="HL" insttype="120" lat="37.0727" lon="25.523">
    <comp name="--.HHZ">
      <acc value="0.0591671752" flag="0"/>
      <vel value="0.0112264247" flag="0"/>
      <psa03 value="0.0602569185" flag="0"/>
      <psa10 value="0.0063963294" flag="0"/>
      <psa30 value="0.0008315761" flag="0"/>
    </comp>
    <comp name="--.HHN">
      <acc value="0.1355900025" flag="0"/>
      <vel value="0.0391012075" flag="0"/>
      <psa03 value="0.1240722703" flag="0"/>
      <psa10 value="0.0091000618" flag="0"/>
      <psa30 value="0.0008578795" flag="0"/>
    </comp>
    <comp name="--.HHE">
      <acc value="0.1337034373" flag="0"/>
      <vel value="0.0272194432" flag="0"/>
      <psa03 value="0.1714274091" flag="0"/>
      <psa10 value="0.0089907005" flag="0"/>
      <psa30 value="0.0009224573" flag="0"/>
    </comp>
  </station>
  <station code="MHLO" name="MHLO" netid="HL" insttype="20" lat="36.6898" lon="24.4017">
    <comp name="--.HHE">
      <acc value="0.0760887778" flag="0"/>
      <vel value="0.0285014053" flag="0"/>
      <psa03 value="0.1537144812" flag="0"/>
      <psa10 value="0.0284528173" flag="0"/>
      <psa30 value="0.0013003878" flag="0"/>
    </comp>
    <comp name="--.HHZ">
      <acc value="0.0150528596" flag="0"/>
      <vel value="0.0094351707" flag="0"/>
      <psa03 value="0.0416899053" flag="0"/>
      <psa10 value="0.0150418485" flag="0"/>
      <psa30 value="0.0008378379" flag="0"/>
    </comp>
    <comp name="--.HHN">
      <acc value="0.0527983915" flag="0"/>
      <vel value="0.0193679726" flag="0"/>
      <psa03 value="0.1428104798" flag="0"/>
      <psa10 value="0.0219614104" flag="0"/>
      <psa30 value="0.0010550583" flag="0"/>
    </comp>
  </station>
  <station code="SAP3" name="SAP3" netid="HL" insttype="LE3D20_SMART24" lat="36.4356" lon="25.3454">
    <comp name="--.HHZ">
      <acc value="0.1960184874" flag="0"/>
      <vel value="0.0511616113" flag="0"/>
      <psa03 value="0.1973008595" flag="0"/>
      <psa10 value="0.0168373862" flag="0"/>
      <psa30 value="0.0021608032" flag="0"/>
    </comp>
    <comp name="--.HHN">
      <acc value="0.1962694058" flag="0"/>
      <vel value="0.0514313009" flag="0"/>
      <psa03 value="0.2731140209" flag="0"/>
      <psa10 value="0.0492674536" flag="0"/>
      <psa30 value="0.0040032170" flag="0"/>
    </comp>
    <comp name="--.HHE">
      <acc value="0.1493108476" flag="0"/>
      <vel value="0.0483101822" flag="0"/>
      <psa03 value="0.3030913109" flag="0"/>
      <psa10 value="0.0368182988" flag="0"/>
      <psa30 value="0.0051433320" flag="0"/>
    </comp>
  </station>
  <station code="THERA" name="THERA" netid="HL" insttype="120" lat="36.367" lon="25.4753">
    <comp name="--.HHE">
      <acc value="0.0662477755" flag="0"/>
      <vel value="0.0138477519" flag="0"/>
      <psa03 value="0.0987442769" flag="0"/>
      <psa10 value="0.0107983599" flag="0"/>
      <psa30 value="0.0009939730" flag="0"/>
    </comp>
    <comp name="--.HHN">
      <acc value="0.0333337312" flag="0"/>
      <vel value="0.0099928382" flag="0"/>
      <psa03 value="0.0607040977" flag="0"/>
      <psa10 value="0.0037116857" flag="0"/>
      <psa30 value="0.0004455395" flag="0"/>
    </comp>
    <comp name="--.HHZ">
      <acc value="0.0511515592" flag="0"/>
      <vel value="0.0098232612" flag="0"/>
      <psa03 value="0.0634924418" flag="0"/>
      <psa10 value="0.0045368371" flag="0"/>
      <psa30 value="0.0008544483" flag="0"/>
    </comp>
  </station>
  <station code="THRA" name="THRA" netid="HL" insttype="CMG-5" lat="36.415" lon="25.4324">
    <comp name="00.HNE">
      <acc value="0.1502335356" flag="0"/>
      <vel value="0.0481529476" flag="0"/>
      <psa03 value="0.2940725027" flag="0"/>
      <psa10 value="0.0346644824" flag="0"/>
      <psa30 value="0.0035187696" flag="0"/>
    </comp>
    <comp name="00.HNZ">
      <acc value="0.1284593133" flag="0"/>
      <vel value="0.0440136952" flag="0"/>
      <psa03 value="0.2989758287" flag="0"/>
      <psa10 value="0.0211543053" flag="0"/>
      <psa30 value="0.0021096294" flag="0"/>
    </comp>
    <comp name="00.HNN">
      <acc value="0.1134769876" flag="0"/>
      <vel value="0.0502627991" flag="0"/>
      <psa03 value="0.4583040294" flag="0"/>
      <psa10 value="0.0346874868" flag="0"/>
      <psa30 value="0.0028413417" flag="0"/>
    </comp>
  </station>
  <station code="TNSA" name="TNSA" netid="HL" insttype="CMG-5" lat="37.5394" lon="25.1631">
    <comp name="00.HNZ">
      <acc value="0.0434333224" flag="0"/>
      <vel value="0.0182853705" flag="0"/>
      <psa03 value="0.0631580691" flag="0"/>
      <psa10 value="0.0051467384" flag="0"/>
      <psa30 value="0.0007256458" flag="0"/>
    </comp>
    <comp name="00.HNN">
      <acc value="0.0649146801" flag="0"/>
      <vel value="0.0195788525" flag="0"/>
      <psa03 value="0.1265009480" flag="0"/>
      <psa10 value="0.0053536249" flag="0"/>
      <psa30 value="0.0004958494" flag="0"/>
    </comp>
    <comp name="00.HNE">
      <acc value="0.0656602792" flag="0"/>
      <vel value="0.0193744238" flag="0"/>
      <psa03 value="0.0866421133" flag="0"/>
      <psa10 value="0.0054325780" flag="0"/>
      <psa30 value="0.0004587467" flag="0"/>
    </comp>
  </station>
</stationlist>
