<?xml version="1.0" encoding="UTF-8" standalone="yes"?>
<!DOCTYPE earthquake SYSTEM "stationlist.dtd">
<stationlist created="" xmlns="ch.ethz.sed.shakemap.usgs.xml">
  <station code="GAZ" name="GAZ" netid="KO" insttype="CMG-3T" lat="37.1721" lon="37.2096">
    <comp name="--.HHE">
      <acc value="0.0030458491" flag="0"/>
      <vel value="0.0010692559" flag="0"/>
      <psa03 value="0.0040102399" flag="0"/>
      <psa10 value="0.0008299320" flag="0"/>
      <psa30 value="0.0000727301" flag="0"/>
    </comp>
    <comp name="--.HHN">
      <acc value="0.0020826459" flag="0"/>
      <vel value="0.0008524492" flag="0"/>
      <psa03 value="0.0055732418" flag="0"/>
      <psa10 value="0.0008971734" flag="0"/>
      <psa30 value="0.0000649536" flag="0"/>
    </comp>
    <comp name="--.HHZ">
      <acc value="0.0017347329" flag="0"/>
      <vel value="0.0006952687" flag="0"/>
      <psa03 value="0.0037395736" flag="0"/>
      <psa10 value="0.0005039602" flag="0"/>
      <psa30 value="0.0000441055" flag="0"/>
    </comp>
  </station>
  <station code="SARI" name="SARI" netid="KO" insttype="CMG-3T" lat="38.4072" lon="36.4181">
    <comp name="--.HHE">
      <acc value="0.0699560902" flag="0"/>
      <vel value="0.0120021856" flag="0"/>
      <psa03 value="0.0656117445" flag="0"/>
      <psa10 value="0.0026862449" flag="0"/>
      <psa30 value="0.0002884194" flag="0"/>
    </comp>
    <comp name="--.HHN">
      <acc value="0.0628972206" flag="0"/>
      <vel value="0.0109376047" flag="0"/>
      <psa03 value="0.0608646468" flag="0"/>
      <psa10 value="0.0037658932" flag="0"/>
      <psa30 value="0.0002272327" flag="0"/>
    </comp>
  </station>
  <station code="ANDN" name="ANDN" netid="TU" insttype="T" lat="37.58" lon="36.3452">
    <comp name="--.HHN">
      <acc value="0.0791667430" flag="0"/>
      <vel value="0.0303925578" flag="0"/>
      <psa03 value="0.1415191441" flag="0"/>
      <psa10 value="0.0093856194" flag="0"/>
      <psa30 value="0.0006047022" flag="0"/>
    </comp>
    <comp name="--.HHE">
      <acc value="0.0579364092" flag="0"/>
      <vel value="0.0160958378" flag="0"/>
      <psa03 value="0.0770031634" flag="0"/>
      <psa10 value="0.0096158470" flag="0"/>
      <psa30 value="0.0008196715" flag="0"/>
    </comp>
    <comp name="--.HHZ">
      <acc value="0.0245203838" flag="0"/>
      <vel value="0.0076779370" flag="0"/>
      <psa03 value="0.0471440558" flag="0"/>
      <psa10 value="0.0074045220" flag="0"/>
      <psa30 value="0.0004207045" flag="0"/>
    </comp>
  </station>
</stationlist>
