<?xml version="1.0" encoding="UTF-8" standalone="yes"?>
<!DOCTYPE earthquake SYSTEM "stationlist.dtd">
<stationlist created="" xmlns="ch.ethz.sed.shakemap.usgs.xml">
  <station code="BNN" name="BNN" netid="KO" insttype="CMG-3T" lat="38.8521" lon="35.8472">
    <comp name="--.HHE">
      <acc value="0.0850661301" flag="0"/>
      <vel value="0.0768684148" flag="0"/>
      <psa03 value="0.2364157885" flag="0"/>
      <psa10 value="0.1574610487" flag="0"/>
      <psa30 value="0.0097183017" flag="0"/>
    </comp>
    <comp name="--.HHZ">
      <acc value="0.0424853577" flag="0"/>
      <vel value="0.0396236034" flag="0"/>
      <psa03 value="0.1163460138" flag="0"/>
      <psa10 value="0.0564225172" flag="0"/>
      <psa30 value="0.0121866759" flag="0"/>
    </comp>
    <comp name="--.HHN">
      <acc value="0.1068767167" flag="0"/>
      <vel value="0.0564580672" flag="0"/>
      <psa03 value="0.1733750631" flag="0"/>
      <psa10 value="0.0945145039" flag="0"/>
      <psa30 value="0.0169069038" flag="0"/>
    </comp>
  </station>
  <station code="CEYT" name="CEYT" netid="KO" insttype="CMG-3ESP" lat="37.0105" lon="35.7478">
    <comp name="--.HHZ">
      <acc value="0.0274969202" flag="0"/>
      <vel value="0.0324437456" flag="0"/>
      <psa03 value="0.0628154291" flag="0"/>
      <psa10 value="0.0763246949" flag="0"/>
      <psa30 value="0.0151031120" flag="0"/>
    </comp>
    <comp name="--.HHE">
      <acc value="0.0459357891" flag="0"/>
      <vel value="0.0797475796" flag="0"/>
      <psa03 value="0.1210505933" flag="0"/>
      <psa10 value="0.0969661909" flag="0"/>
      <psa30 value="0.0129274272" flag="0"/>
    </comp>
    <comp name="--.HHN">
      <acc value="0.0379009770" flag="0"/>
      <vel value="0.0281739446" flag="0"/>
      <psa03 value="0.0719784228" flag="0"/>
      <psa10 value="0.0671434488" flag="0"/>
      <psa30 value="0.0111035237" flag="0"/>
    </comp>
  </station>
  <station code="CMRD" name="CMRD" netid="KO" insttype="CMG-5T" lat="37.6623" lon="34.9902">
    <comp name="--.HNZ">
      <acc value="0.0307019191" flag="0"/>
      <vel value="0.0294663797" flag="0"/>
      <psa03 value="0.0519977253" flag="0"/>
      <psa10 value="0.0288899436" flag="0"/>
      <psa30 value="0.0070891461" flag="0"/>
    </comp>
    <comp name="--.HNE">
      <acc value="0.0357156507" flag="0"/>
      <vel value="0.0263127804" flag="0"/>
      <psa03 value="0.0978140262" flag="0"/>
      <psa10 value="0.0528945902" flag="0"/>
      <psa30 value="0.0063969701" flag="0"/>
    </comp>
    <comp name="--.HNN">
      <acc value="0.0389724583" flag="0"/>
      <vel value="0.0266888587" flag="0"/>
      <psa03 value="0.0956604275" flag="0"/>
      <psa10 value="0.0333653289" flag="0"/>
      <psa30 value="0.0070809199" flag="0"/>
    </comp>
  </station>
  <station code="SARI" name="SARI" netid="KO" insttype="CMG-3T" lat="38.4072" lon="36.4181">
    <comp name="--.HHZ">
      <acc value="0.7345950866" flag="0"/>
      <vel value="0.2162569772" flag="0"/>
      <psa03 value="1.0773007334" flag="0"/>
      <psa10 value="0.2307963385" flag="0"/>
      <psa30 value="0.0275837482" flag="0"/>
    </comp>
    <comp name="--.HHE">
      <acc value="1.0415586400" flag="0"/>
      <vel value="0.3128881624" flag="0"/>
      <psa03 value="1.2641314416" flag="0"/>
      <psa10 value="0.2515806230" flag="0"/>
      <psa30 value="0.0224736194" flag="0"/>
    </comp>
    <comp name="--.HHN">
      <acc value="0.7057036119" flag="0"/>
      <vel value="0.2477722219" flag="0"/>
      <psa03 value="1.1464229862" flag="0"/>
      <psa10 value="0.2348657597" flag="0"/>
      <psa30 value="0.0420845329" flag="0"/>
    </comp>
  </station>
  <station code="ANDN" name="ANDN" netid="TU" insttype="T" lat="37.58" lon="36.3452">
    <comp name="--.HHE">
      <acc value="0.7111482408" flag="0"/>
      <vel value="0.5407411825" flag="0"/>
      <psa03 value="1.9808057679" flag="0"/>
      <psa10 value="0.3486302657" flag="0"/>
      <psa30 value="0.0908950169" flag="0"/>
    </comp>
    <comp name="--.HHZ">
      <acc value="0.5436879961" flag="0"/>
      <vel value="0.2783278033" flag="0"/>
      <psa03 value="1.4762340520" flag="0"/>
      <psa10 value="0.4959010488" flag="0"/>
      <psa30 value="0.0390264427" flag="0"/>
    </comp>
    <comp name="--.HHN">
      <acc value="0.9919565411" flag="0"/>
      <vel value="0.4633890716" flag="0"/>
      <psa03 value="1.8756965950" flag="0"/>
      <psa10 value="0.4533734038" flag="0"/>
      <psa30 value="0.0773758041" flag="0"/>
    </comp>
  </station>
</stationlist>
