<?xml version="1.0" encoding="UTF-8" standalone="yes"?>
<!DOCTYPE earthquake SYSTEM "stationlist.dtd">
<stationlist created="" xmlns="ch.ethz.sed.shakemap.usgs.xml">
  <station code="BNN" name="BNN" netid="KO" insttype="CMG-3T" lat="38.8521" lon="35.8472">
    <comp name="--.HHZ">
      <acc value="0.0427317590" flag="0"/>
      <vel value="0.0441790109" flag="0"/>
      <psa03 value="0.1172634783" flag="0"/>
      <psa10 value="0.0573915902" flag="0"/>
      <psa30 value="0.0142970885" flag="0"/>
    </comp>
    <comp name="--.HHE">
      <acc value="0.0845162653" flag="0"/>
      <vel value="0.0776068566" flag="0"/>
      <psa03 value="0.2353058196" flag="0"/>
      <psa10 value="0.1586041216" flag="0"/>
      <psa30 value="0.0122635008" flag="0"/>
    </comp>
  </station>
  <station code="CEYT" name="CEYT" netid="KO" insttype="CMG-3ESP" lat="37.0105" lon="35.7478">
    <comp name="--.HHE">
      <acc value="0.0462902653" flag="0"/>
      <vel value="0.0774439114" flag="0"/>
      <psa03 value="0.1209119931" flag="0"/>
      <psa10 value="0.0969577079" flag="0"/>
      <psa30 value="0.0155354370" flag="0"/>
    </comp>
    <comp name="--.HHN">
      <acc value="0.0381039369" flag="0"/>
      <vel value="0.0358888737" flag="0"/>
      <psa03 value="0.0717702769" flag="0"/>
      <psa10 value="0.0671976453" flag="0"/>
      <psa30 value="0.0135443257" flag="0"/>
    </comp>
    <comp name="--.HHZ">
      <acc value="0.0276018083" flag="0"/>
      <vel value="0.0360916632" flag="0"/>
      <psa03 value="0.0628833630" flag="0"/>
      <psa10 value="0.0775739719" flag="0"/>
      <psa30 value="0.0180357220" flag="0"/>
    </comp>
  </station>
  <station code="CMRD" name="CMRD" netid="KO" insttype="CMG-5T" lat="37.6623" lon="34.9902">
    <comp name="--.HNE">
      <acc value="0.0356962174" flag="0"/>
      <vel value="0.0275315808" flag="0"/>
      <psa03 value="0.0978889651" flag="0"/>
      <psa10 value="0.0528713498" flag="0"/>
      <psa30 value="0.0073207525" flag="0"/>
    </comp>
    <comp name="--.HNN">
      <acc value="0.0388376701" flag="0"/>
      <vel value="0.0297032301" flag="0"/>
      <psa03 value="0.0957059755" flag="0"/>
      <psa10 value="0.0337968413" flag="0"/>
      <psa30 value="0.0084736060" flag="0"/>
    </comp>
    <comp name="--.HNZ">
      <acc value="0.0310683888" flag="0"/>
      <vel value="0.0331705172" flag="0"/>
      <psa03 value="0.0523986035" flag="0"/>
      <psa10 value="0.0294047746" flag="0"/>
      <psa30 value="0.0084033407" flag="0"/>
    </comp>
  </station>
  <station code="GAZ" name="GAZ" netid="KO" insttype="CMG-3T" lat="37.1721" lon="37.2096">
    <comp name="--.HHZ">
      <acc value="0.0882286960" flag="0"/>
      <vel value="0.0510776726" flag="0"/>
      <psa03 value="0.2821793175" flag="0"/>
      <psa10 value="0.0608757962" flag="0"/>
      <psa30 value="0.0223900702" flag="0"/>
    </comp>
  </station>
  <station code="SARI" name="SARI" netid="KO" insttype="CMG-3T" lat="38.4072" lon="36.4181">
    <comp name="--.HHZ">
      <acc value="0.7356473618" flag="0"/>
      <vel value="0.2103196223" flag="0"/>
      <psa03 value="1.0756849418" flag="0"/>
      <psa10 value="0.2310069020" flag="0"/>
      <psa30 value="0.0328406794" flag="0"/>
    </comp>
    <comp name="--.HHE">
      <acc value="1.0440362604" flag="0"/>
      <vel value="0.2963337206" flag="0"/>
      <psa03 value="1.2621196816" flag="0"/>
      <psa10 value="0.2501131422" flag="0"/>
      <psa30 value="0.0242419721" flag="0"/>
    </comp>
  </station>
  <station code="ANDN" name="ANDN" netid="TU" insttype="T" lat="37.58" lon="36.3452">
    <comp name="--.HHZ">
      <acc value="0.5402270507" flag="0"/>
      <vel value="0.2806314528" flag="0"/>
      <psa03 value="1.4791169241" flag="0"/>
      <psa10 value="0.4976024440" flag="0"/>
      <psa30 value="0.0444512186" flag="0"/>
    </comp>
    <comp name="--.HHE">
      <acc value="0.7135182922" flag="0"/>
      <vel value="0.5476500878" flag="0"/>
      <psa03 value="1.9833475863" flag="0"/>
      <psa10 value="0.3501583177" flag="0"/>
      <psa30 value="0.1028046828" flag="0"/>
    </comp>
    <comp name="--.HHN">
      <acc value="0.9959666586" flag="0"/>
      <vel value="0.4774774929" flag="0"/>
      <psa03 value="1.8802600681" flag="0"/>
      <psa10 value="0.4539785233" flag="0"/>
      <psa30 value="0.0859734888" flag="0"/>
    </comp>
  </station>
</stationlist>
