<?xml version="1.0" encoding="UTF-8" standalone="yes"?>
<!DOCTYPE earthquake SYSTEM "stationlist.dtd">
<stationlist created="" xmlns="ch.ethz.sed.shakemap.usgs.xml">
  <station code="ZKR" name="ZKR" netid="GE" source="GFZ" insttype="STS-2/N" lat="35.1147" lon="26.2169">
    <comp name="--.HHE">
      <acc value="0.5241193210" flag="0"/>
      <vel value="0.1802236875" flag="0"/>
      <psa03 value="0.5242664701" flag="0"/>
      <psa10 value="0.1333455471" flag="0"/>
      <psa30 value="0.0070986416" flag="0"/>
    </comp>
    <comp name="--.HHN">
      <acc value="0.2552329190" flag="0"/>
      <vel value="0.1100659248" flag="0"/>
      <psa03 value="0.5501440382" flag="0"/>
      <psa10 value="0.0583766556" flag="0"/>
      <psa30 value="0.0056418752" flag="0"/>
    </comp>
    <comp name="--.HHZ">
      <acc value="0.9315789620" flag="0"/>
      <vel value="0.0839975461" flag="0"/>
      <psa03 value="0.2784150301" flag="0"/>
      <psa10 value="0.0850124789" flag="0"/>
      <psa30 value="0.0053925148" flag="0"/>
    </comp>
  </station>
  <station code="STIA" name="STIA" netid="HC" source="NOA" insttype="120" lat="35.2021" lon="26.0909">
    <comp name="--.HHE">
      <acc value="0.1467688633" flag="0"/>
      <vel value="0.0599589949" flag="0"/>
      <psa03 value="0.4218091372" flag="0"/>
      <psa10 value="0.0654252982" flag="0"/>
      <psa30 value="0.0031142100" flag="0"/>
    </comp>
    <comp name="--.HHN">
      <acc value="0.1714022186" flag="0"/>
      <vel value="0.0677948394" flag="0"/>
      <psa03 value="0.2720178155" flag="0"/>
      <psa10 value="0.0361437042" flag="0"/>
      <psa30 value="0.0038691801" flag="0"/>
    </comp>
    <comp name="--.HHZ">
      <acc value="0.2176912374" flag="0"/>
      <vel value="0.0556532854" flag="0"/>
      <psa03 value="0.2057262257" flag="0"/>
      <psa10 value="0.0348222439" flag="0"/>
      <psa30 value="0.0036472986" flag="0"/>
    </comp>
  </station>
  <station code="KSS1" name="KSS1" netid="HI" source="NOA" insttype="CMG-5TD,ACCELEROMETER,GURALP" lat="35.4189" lon="26.9207">
    <comp name="--.HNE">
      <acc value="0.0114050348" flag="0"/>
      <vel value="0.0041113026" flag="0"/>
      <psa03 value="0.0242961237" flag="0"/>
      <psa10 value="0.0086889011" flag="0"/>
      <psa30 value="0.0003382839" flag="0"/>
    </comp>
    <comp name="--.HNN">
      <acc value="0.0188544851" flag="0"/>
      <vel value="0.0105281773" flag="0"/>
      <psa03 value="0.0611301185" flag="0"/>
      <psa10 value="0.0111447051" flag="0"/>
      <psa30 value="0.0005306443" flag="0"/>
    </comp>
    <comp name="--.HNZ">
      <acc value="0.0097634928" flag="0"/>
      <vel value="0.0034523504" flag="0"/>
      <psa03 value="0.0159362649" flag="0"/>
      <psa10 value="0.0033029971" flag="0"/>
      <psa30 value="0.0003905618" flag="0"/>
    </comp>
  </station>
  <station code="SIT2" name="SIT2" netid="HI" source="NOA" insttype="CMG-5TD,ACCELEROMETER,GURALP" lat="35.2059" lon="26.107">
    <comp name="--.HNE">
      <acc value="0.4074938645" flag="0"/>
      <vel value="0.2464681277" flag="0"/>
      <psa03 value="0.8210264626" flag="0"/>
      <psa10 value="0.1321493580" flag="0"/>
      <psa30 value="0.0085064113" flag="0"/>
    </comp>
    <comp name="--.HNN">
      <acc value="0.4108469192" flag="0"/>
      <vel value="0.2355809137" flag="0"/>
      <psa03 value="1.0961348801" flag="0"/>
      <psa10 value="0.1050674590" flag="0"/>
      <psa30 value="0.0089124211" flag="0"/>
    </comp>
    <comp name="--.HNZ">
      <acc value="0.2590575160" flag="0"/>
      <vel value="0.0922690310" flag="0"/>
      <psa03 value="0.6509215109" flag="0"/>
      <psa10 value="0.0333946923" flag="0"/>
      <psa30 value="0.0049177794" flag="0"/>
    </comp>
  </station>
  <station code="NPS" name="NPS" netid="HL" source="NOA" insttype="CMG3ESPC-120s" lat="35.2613" lon="25.6104">
    <comp name="--.HHE">
      <acc value="0.0354211096" flag="0"/>
      <vel value="0.0132871213" flag="0"/>
      <psa03 value="0.0715614507" flag="0"/>
      <psa10 value="0.0109149773" flag="0"/>
      <psa30 value="0.0005274782" flag="0"/>
    </comp>
    <comp name="--.HHN">
      <acc value="0.0654209629" flag="0"/>
      <vel value="0.0308475324" flag="0"/>
      <psa03 value="0.2211426346" flag="0"/>
      <psa10 value="0.0428943669" flag="0"/>
      <psa30 value="0.0015545014" flag="0"/>
    </comp>
    <comp name="--.HHZ">
      <acc value="0.0475324902" flag="0"/>
      <vel value="0.0193958846" flag="0"/>
      <psa03 value="0.0992595698" flag="0"/>
      <psa10 value="0.0125751732" flag="0"/>
      <psa30 value="0.0007286240" flag="0"/>
    </comp>
  </station>
  <station code="ZKR" name="ZKR" netid="HL" source="NOA" insttype="120" lat="35.1147" lon="26.2169">
    <comp name="--.HHE">
      <acc value="0.5724484705" flag="0"/>
      <vel value="0.1764420950" flag="0"/>
      <psa03 value="0.5118808917" flag="0"/>
      <psa10 value="0.1319199664" flag="0"/>
      <psa30 value="0.0069904576" flag="0"/>
    </comp>
    <comp name="--.HHN">
      <acc value="0.2525341945" flag="0"/>
      <vel value="0.1088150610" flag="0"/>
      <psa03 value="0.5353166201" flag="0"/>
      <psa10 value="0.0581149843" flag="0"/>
      <psa30 value="0.0055612033" flag="0"/>
    </comp>
    <comp name="--.HHZ">
      <acc value="0.9637806412" flag="0"/>
      <vel value="0.0824361856" flag="0"/>
      <psa03 value="0.2708141486" flag="0"/>
      <psa10 value="0.0844936384" flag="0"/>
      <psa30 value="0.0053821511" flag="0"/>
    </comp>
  </station>
</stationlist>
