<stationlist xmlns:esm="https://esm-db.eu/esmws/shakemap/1/" created="1780710950">
	<station code="AGN1" name="AGN1" netid="HI" source="ITSAK Strong Motion Network" insttype="" lat="35.1879" lon="25.7155" esm:processing="manual (Paolucci et al 2011)" esm:quality="good">
		<comp name="--.HNE" depth="0.0">
			<acc value="0.237936091836929" flag="0"/>
			<vel value="0.131089281536766" flag="0"/>
			<psa03 value="0.614129599738658" flag="0"/>
			<psa10 value="0.0703143979837812" flag="0"/>
			<psa30 value="0.0039864824182289" flag="0"/>
		</comp>
		<comp name="--.HNN" depth="0.0">
			<acc value="0.256348492784496" flag="0"/>
			<vel value="0.120421665946488" flag="0"/>
			<psa03 value="0.708404594994416" flag="0"/>
			<psa10 value="0.045436104918962" flag="0"/>
			<psa30 value="0.00287738123738552" flag="0"/>
		</comp>
		<comp name="--.HNZ" depth="0.0">
			<acc value="0.0769778627642441" flag="0"/>
			<vel value="0.0273340000591703" flag="0"/>
			<psa03 value="0.122213762728653" flag="0"/>
			<psa10 value="0.0165918210017129" flag="0"/>
			<psa30 value="0.00133135517491305" flag="0"/>
		</comp>
	</station>
	<station code="ARK1" name="ARK1" netid="HI" source="ITSAK Strong Motion Network" insttype="" lat="35.148777" lon="25.264194" esm:processing="automatic (Paolucci et al 2011)" esm:quality="best">
		<comp name="--.HNE" depth="0.0">
			<acc value="0.0319804331628145" flag="0"/>
			<vel value="0.0147373837174398" flag="0"/>
			<psa03 value="0.0700140130847559" flag="0"/>
			<psa10 value="0.0165502870002892" flag="0"/>
			<psa30 value="0.00157744720646905" flag="0"/>
		</comp>
		<comp name="--.HNN" depth="0.0">
			<acc value="0.0373791810174569" flag="0"/>
			<vel value="0.0186709266568522" flag="0"/>
			<psa03 value="0.116331925169115" flag="0"/>
			<psa10 value="0.0169923906624871" flag="0"/>
			<psa30 value="0.00253064180926678" flag="0"/>
		</comp>
		<comp name="--.HNZ" depth="0.0">
			<acc value="0.0269667172769898" flag="0"/>
			<vel value="0.0135968907035485" flag="0"/>
			<psa03 value="0.0747186268256605" flag="0"/>
			<psa10 value="0.0214989441995419" flag="0"/>
			<psa30 value="0.00126923918503357" flag="0"/>
		</comp>
	</station>
	<station code="GOR1" name="GOR1" netid="HI" source="ITSAK Strong Motion Network" insttype="" lat="35.0582" lon="24.9628" esm:processing="manual (Paolucci et al 2011)" esm:quality="good">
		<comp name="--.HNE" depth="0.0">
			<acc value="0.0105104679588931" flag="0"/>
			<vel value="0.0100480281989527" flag="0"/>
			<psa03 value="0.0345324438549289" flag="0"/>
			<psa10 value="0.0189756232919156" flag="0"/>
			<psa30 value="0.00122938071127197" flag="0"/>
		</comp>
		<comp name="--.HNN" depth="0.0">
			<acc value="0.0113995548054463" flag="0"/>
			<vel value="0.00963715277301894" flag="0"/>
			<psa03 value="0.0488442929863616" flag="0"/>
			<psa10 value="0.0130054162324981" flag="0"/>
			<psa30 value="0.001514448033083" flag="0"/>
		</comp>
		<comp name="--.HNZ" depth="0.0">
			<acc value="0.00970572949652208" flag="0"/>
			<vel value="0.00712426585836373" flag="0"/>
			<psa03 value="0.0262776183674196" flag="0"/>
			<psa10 value="0.0131901703465515" flag="0"/>
			<psa30 value="0.00122294184722882" flag="0"/>
		</comp>
	</station>
	<station code="HER1" name="HER1" netid="HI" source="ITSAK Strong Motion Network" insttype="" lat="35.317672" lon="25.10217" esm:processing="manual (Paolucci et al 2011)" esm:quality="good">
		<comp name="--.HNE" depth="0.0">
			<acc value="0.0503024890732467" flag="0"/>
			<vel value="0.0502233600641005" flag="0"/>
			<psa03 value="0.111376857336856" flag="0"/>
			<psa10 value="0.0786179805553747" flag="0"/>
			<psa30 value="0.00376756916630033" flag="0"/>
		</comp>
		<comp name="--.HNN" depth="0.0">
			<acc value="0.0454528909249083" flag="0"/>
			<vel value="0.0431460186654895" flag="0"/>
			<psa03 value="0.126178712887142" flag="0"/>
			<psa10 value="0.0721918623565818" flag="0"/>
			<psa30 value="0.00406636020974057" flag="0"/>
		</comp>
		<comp name="--.HNZ" depth="0.0">
			<acc value="0.0479148302113085" flag="0"/>
			<vel value="0.0485497721143353" flag="0"/>
			<psa03 value="0.0896546579310857" flag="0"/>
			<psa10 value="0.0604464442802778" flag="0"/>
			<psa30 value="0.00284984566328887" flag="0"/>
		</comp>
	</station>
	<station code="KSS1" name="KSS1" netid="HI" source="ITSAK Strong Motion Network" insttype="" lat="35.4189" lon="26.9207" esm:processing="manual (Paolucci et al 2011)" esm:quality="best">
		<comp name="--.HNE" depth="0.0">
			<acc value="0.0115584641222967" flag="0"/>
			<vel value="0.00409856452541074" flag="0"/>
			<psa03 value="0.0243845026069581" flag="0"/>
			<psa10 value="0.00869385816799638" flag="0"/>
			<psa30 value="0.000356147964681443" flag="0"/>
		</comp>
		<comp name="--.HNN" depth="0.0">
			<acc value="0.0188013960185983" flag="0"/>
			<vel value="0.0106167486656359" flag="0"/>
			<psa03 value="0.0621469249927795" flag="0"/>
			<psa10 value="0.0111461785127439" flag="0"/>
			<psa30 value="0.000541380700081088" flag="0"/>
		</comp>
		<comp name="--.HNZ" depth="0.0">
			<acc value="0.00988713718094998" flag="0"/>
			<vel value="0.00355524884807124" flag="0"/>
			<psa03 value="0.0162861632090509" flag="0"/>
			<psa10 value="0.00330197484842846" flag="0"/>
			<psa30 value="0.000397758216836436" flag="0"/>
		</comp>
	</station>
	<station code="SIT2" name="SIT2" netid="HI" source="ITSAK Strong Motion Network" insttype="" lat="35.2059" lon="26.107" esm:processing="manual (Paolucci et al 2011)" esm:quality="best">
		<comp name="--.HNE" depth="0.0">
			<acc value="0.406080401695912" flag="0"/>
			<vel value="0.247075735516147" flag="0"/>
			<psa03 value="0.812294761154724" flag="0"/>
			<psa10 value="0.132654826136315" flag="0"/>
			<psa30 value="0.00860347891062747" flag="0"/>
		</comp>
		<comp name="--.HNN" depth="0.0">
			<acc value="0.411127139705053" flag="0"/>
			<vel value="0.236816162938494" flag="0"/>
			<psa03 value="1.10150838473523" flag="0"/>
			<psa10 value="0.105514203601672" flag="0"/>
			<psa30 value="0.00905805972986912" flag="0"/>
		</comp>
		<comp name="--.HNZ" depth="0.0">
			<acc value="0.260527783049652" flag="0"/>
			<vel value="0.0929607681548342" flag="0"/>
			<psa03 value="0.66276630663646" flag="0"/>
			<psa10 value="0.0335150447115488" flag="0"/>
			<psa30 value="0.00498159728487838" flag="0"/>
		</comp>
	</station>
	<station code="CHNB" name="CHNB" netid="HL" source="National Observatory of Athens Seismic Network" insttype="" lat="35.48765" lon="24.06605" esm:processing="manual (Paolucci et al 2011)" esm:quality="bad">
		<comp name="00.HNE" depth="0.0">
			<acc value="0.0140905229689593" flag="0"/>
			<vel value="0.0120484120001705" flag="0"/>
			<psa03 value="0.0419880914008133" flag="0"/>
			<psa10 value="0.0197319602705339" flag="0"/>
			<psa30 value="0.000883158504915278" flag="0"/>
		</comp>
		<comp name="00.HNN" depth="0.0">
			<acc value="0.0121390773261656" flag="0"/>
			<vel value="0.00922937966585669" flag="0"/>
			<psa03 value="0.0382559847920877" flag="0"/>
			<psa10 value="0.0191177127046569" flag="0"/>
			<psa30 value="0.000959047907217789" flag="0"/>
		</comp>
		<comp name="00.HNZ" depth="0.0">
			<acc value="0.0101396484469239" flag="0"/>
			<vel value="0.00448927152383522" flag="0"/>
			<psa03 value="0.0331466905972475" flag="0"/>
			<psa10 value="0.004969848915584" flag="0"/>
			<psa30 value="0.000345552422402266" flag="0"/>
		</comp>
	</station>
	<station code="HERG" name="HERG" netid="HL" source="National Observatory of Athens Seismic Network" insttype="" lat="35.32622" lon="25.06586" esm:processing="manual (Paolucci et al 2011)" esm:quality="good">
		<comp name="00.HNE" depth="0.0">
			<acc value="0.0384834207866349" flag="0"/>
			<vel value="0.0308497235269761" flag="0"/>
			<psa03 value="0.104846862256759" flag="0"/>
			<psa10 value="0.0482919641055617" flag="0"/>
			<psa30 value="0.00236646218317064" flag="0"/>
		</comp>
		<comp name="00.HNN" depth="0.0">
			<acc value="0.036952188509417" flag="0"/>
			<vel value="0.0360345306811998" flag="0"/>
			<psa03 value="0.111349511775506" flag="0"/>
			<psa10 value="0.0506082750496704" flag="0"/>
			<psa30 value="0.00420990430216545" flag="0"/>
		</comp>
		<comp name="00.HNZ" depth="0.0">
			<acc value="0.022009025758989" flag="0"/>
			<vel value="0.0199527218226647" flag="0"/>
			<psa03 value="0.0693896852676278" flag="0"/>
			<psa10 value="0.0242171861447309" flag="0"/>
			<psa30 value="0.00115877280467702" flag="0"/>
		</comp>
	</station>
	<station code="IACM" name="IACM" netid="HL" source="National Observatory of Athens Seismic Network" insttype="" lat="35.3058" lon="25.0709" esm:processing="manual (Paolucci et al 2011)" esm:quality="good">
		<comp name="--.HNE" depth="0.0">
			<acc value="0.0742245730420941" flag="0"/>
			<vel value="0.0437221489575308" flag="0"/>
			<psa03 value="0.232956494724575" flag="0"/>
			<psa10 value="0.0807808913377273" flag="0"/>
			<psa30 value="0.00317830346367224" flag="0"/>
		</comp>
		<comp name="--.HNN" depth="0.0">
			<acc value="0.072430798839617" flag="0"/>
			<vel value="0.0316685993565165" flag="0"/>
			<psa03 value="0.259799252091965" flag="0"/>
			<psa10 value="0.0469401870570475" flag="0"/>
			<psa30 value="0.00220950761903444" flag="0"/>
		</comp>
		<comp name="--.HNZ" depth="0.0">
			<acc value="0.0372842966042952" flag="0"/>
			<vel value="0.018193028825582" flag="0"/>
			<psa03 value="0.0849150002022106" flag="0"/>
			<psa10 value="0.0291134692494583" flag="0"/>
			<psa30 value="0.00142016980844777" flag="0"/>
		</comp>
	</station>
</stationlist>
