<?xml version="1.0" encoding="UTF-8" standalone="yes"?>
<!DOCTYPE earthquake SYSTEM "stationlist.dtd">
<stationlist created="" xmlns="ch.ethz.sed.shakemap.usgs.xml">
  <station code="AKS" name="AKS" netid="KO" insttype="CMG-5T" commtype="DIG" lat="38.8785" lon="27.8129">
    <comp name="--.HNE">
      <acc value="0.1047032764" flag="0"/>
      <vel value="0.0292835648" flag="0"/>
      <psa03 value="0.1593568883" flag="0"/>
      <psa10 value="0.0203370773" flag="0"/>
      <psa30 value="0.0014382888" flag="0"/>
    </comp>
    <comp name="--.HNN">
      <acc value="0.1246277956" flag="0"/>
      <vel value="0.0372334064" flag="0"/>
      <psa03 value="0.1614406334" flag="0"/>
      <psa10 value="0.0142848336" flag="0"/>
      <psa30 value="0.0013406363" flag="0"/>
    </comp>
    <comp name="--.HNZ">
      <acc value="0.0758210958" flag="0"/>
      <vel value="0.0152870552" flag="0"/>
      <psa03 value="0.0643867010" flag="0"/>
      <psa10 value="0.0082380078" flag="0"/>
      <psa30 value="0.0010136662" flag="0"/>
    </comp>
  </station>
  <station code="BALB" name="BALB" netid="KO" insttype="CMG-5T" commtype="DIG" lat="39.6507" lon="27.8642">
    <comp name="--.HNN">
      <acc value="0.0469173849" flag="0"/>
      <vel value="0.0166035897" flag="0"/>
      <psa03 value="0.1109407512" flag="0"/>
      <psa10 value="0.0288257150" flag="0"/>
      <psa30 value="0.0011527083" flag="0"/>
    </comp>
    <comp name="--.HNE">
      <acc value="0.0669690533" flag="0"/>
      <vel value="0.0175006635" flag="0"/>
      <psa03 value="0.0878041609" flag="0"/>
      <psa10 value="0.0121634599" flag="0"/>
      <psa30 value="0.0012961462" flag="0"/>
    </comp>
    <comp name="--.HNZ">
      <acc value="0.0326804514" flag="0"/>
      <vel value="0.0090826475" flag="0"/>
      <psa03 value="0.0501882581" flag="0"/>
      <psa10 value="0.0091433029" flag="0"/>
      <psa30 value="0.0012035315" flag="0"/>
    </comp>
  </station>
  <station code="CANM" name="CANM" netid="KO" insttype="CMG-5T" commtype="DIG" lat="40.0113" lon="27.0529">
    <comp name="--.HNN">
      <acc value="0.0167403271" flag="0"/>
      <vel value="0.0065385508" flag="0"/>
      <psa03 value="0.0412055992" flag="0"/>
      <psa10 value="0.0076284898" flag="0"/>
      <psa30 value="0.0005635541" flag="0"/>
    </comp>
    <comp name="--.HNE">
      <acc value="0.0131063301" flag="0"/>
      <vel value="0.0051408879" flag="0"/>
      <psa03 value="0.0253594120" flag="0"/>
      <psa10 value="0.0046288618" flag="0"/>
      <psa30 value="0.0004481369" flag="0"/>
    </comp>
    <comp name="--.HNZ">
      <acc value="0.0121015311" flag="0"/>
      <vel value="0.0037316144" flag="0"/>
      <psa03 value="0.0257148432" flag="0"/>
      <psa10 value="0.0031477185" flag="0"/>
      <psa30 value="0.0003952629" flag="0"/>
    </comp>
  </station>
  <station code="DKL" name="DKL" netid="KO" insttype="CMG-3ESPC" commtype="DIG" lat="39.0713" lon="26.9053">
    <comp name="--.HHN">
      <acc value="0.0086828396" flag="0"/>
      <vel value="0.0008134849" flag="0"/>
      <psa03 value="0.0029379557" flag="0"/>
      <psa10 value="0.0008303227" flag="0"/>
      <psa30 value="0.0000359618" flag="0"/>
    </comp>
    <comp name="--.HHE">
      <acc value="0.0114318968" flag="0"/>
      <vel value="0.0032554481" flag="0"/>
      <psa03 value="0.0163797533" flag="0"/>
      <psa10 value="0.0059022873" flag="0"/>
      <psa30 value="0.0005737720" flag="0"/>
    </comp>
  </station>
  <station code="DST" name="DST" netid="KO" insttype="CMG-5T" commtype="DIG" lat="39.6041" lon="28.6267">
    <comp name="--.HNE">
      <acc value="0.0570057106" flag="0"/>
      <vel value="0.0143054354" flag="0"/>
      <psa03 value="0.0590826476" flag="0"/>
      <psa10 value="0.0060273124" flag="0"/>
      <psa30 value="0.0006311538" flag="0"/>
    </comp>
    <comp name="--.HNZ">
      <acc value="0.0441200388" flag="0"/>
      <vel value="0.0130016126" flag="0"/>
      <psa03 value="0.0668861243" flag="0"/>
      <psa10 value="0.0049350335" flag="0"/>
      <psa30 value="0.0007751642" flag="0"/>
    </comp>
    <comp name="--.HNN">
      <acc value="0.0592977085" flag="0"/>
      <vel value="0.0121732692" flag="0"/>
      <psa03 value="0.0710996779" flag="0"/>
      <psa10 value="0.0054348479" flag="0"/>
      <psa30 value="0.0006085039" flag="0"/>
    </comp>
  </station>
  <station code="GOMA" name="GOMA" netid="KO" insttype="CMG-5T" commtype="DIG" lat="38.7077" lon="27.9175">
    <comp name="--.HNE">
      <acc value="0.0554958745" flag="0"/>
      <vel value="0.0206463178" flag="0"/>
      <psa03 value="0.1738391491" flag="0"/>
      <psa10 value="0.0109335584" flag="0"/>
      <psa30 value="0.0006441197" flag="0"/>
    </comp>
    <comp name="--.HNN">
      <acc value="0.0615706249" flag="0"/>
      <vel value="0.0254266894" flag="0"/>
      <psa03 value="0.1385919656" flag="0"/>
      <psa10 value="0.0086043064" flag="0"/>
      <psa30 value="0.0007647245" flag="0"/>
    </comp>
    <comp name="--.HNZ">
      <acc value="0.0584393049" flag="0"/>
      <vel value="0.0189339761" flag="0"/>
      <psa03 value="0.0942357294" flag="0"/>
      <psa10 value="0.0065092822" flag="0"/>
      <psa30 value="0.0006842512" flag="0"/>
    </comp>
  </station>
  <station code="GONE" name="GONE" netid="KO" insttype="CMG-5T" commtype="DIG" lat="40.0466" lon="27.686">
    <comp name="--.HNN">
      <acc value="0.0351195774" flag="0"/>
      <vel value="0.0129692362" flag="0"/>
      <psa03 value="0.0843040263" flag="0"/>
      <psa10 value="0.0099256956" flag="0"/>
      <psa30 value="0.0008141303" flag="0"/>
    </comp>
    <comp name="--.HNZ">
      <acc value="0.0172777951" flag="0"/>
      <vel value="0.0043163470" flag="0"/>
      <psa03 value="0.0166016744" flag="0"/>
      <psa10 value="0.0032146150" flag="0"/>
      <psa30 value="0.0003703529" flag="0"/>
    </comp>
    <comp name="--.HNE">
      <acc value="0.0237150290" flag="0"/>
      <vel value="0.0083043203" flag="0"/>
      <psa03 value="0.0368586293" flag="0"/>
      <psa10 value="0.0041269565" flag="0"/>
      <psa30 value="0.0005046026" flag="0"/>
    </comp>
  </station>
  <station code="GORD" name="GORD" netid="KO" insttype="CMG-5T" commtype="DIG" lat="38.9088" lon="28.1769">
    <comp name="--.HNE">
      <acc value="0.0330436514" flag="0"/>
      <vel value="0.0170193462" flag="0"/>
      <psa03 value="0.0513201952" flag="0"/>
      <psa10 value="0.0271865375" flag="0"/>
      <psa30 value="0.0026073338" flag="0"/>
    </comp>
    <comp name="--.HNN">
      <acc value="0.0364562178" flag="0"/>
      <vel value="0.0191797624" flag="0"/>
      <psa03 value="0.0923567510" flag="0"/>
      <psa10 value="0.0332642149" flag="0"/>
      <psa30 value="0.0021238994" flag="0"/>
    </comp>
    <comp name="--.HNZ">
      <acc value="0.0335808405" flag="0"/>
      <vel value="0.0138857958" flag="0"/>
      <psa03 value="0.0649010390" flag="0"/>
      <psa10 value="0.0251556799" flag="0"/>
      <psa30 value="0.0017075708" flag="0"/>
    </comp>
  </station>
  <station code="KCTX" name="KCTX" netid="KO" insttype="CMG-5T" commtype="DIG" lat="40.2626" lon="28.3353">
    <comp name="--.HNN">
      <acc value="0.0512824122" flag="0"/>
      <vel value="0.0174744237" flag="0"/>
      <psa03 value="0.1119558871" flag="0"/>
      <psa10 value="0.0066038759" flag="0"/>
      <psa30 value="0.0005540552" flag="0"/>
    </comp>
    <comp name="--.HNE">
      <acc value="0.0271615754" flag="0"/>
      <vel value="0.0082855797" flag="0"/>
      <psa03 value="0.0456529726" flag="0"/>
      <psa10 value="0.0095811236" flag="0"/>
      <psa30 value="0.0007491809" flag="0"/>
    </comp>
    <comp name="--.HNZ">
      <acc value="0.0262369197" flag="0"/>
      <vel value="0.0088247790" flag="0"/>
      <psa03 value="0.0524013480" flag="0"/>
      <psa10 value="0.0035109082" flag="0"/>
      <psa30 value="0.0003915203" flag="0"/>
    </comp>
  </station>
  <station code="KULA" name="KULA" netid="KO" insttype="CMG-3T" commtype="DIG" lat="38.5145" lon="28.6607">
    <comp name="--.HHZ">
      <acc value="0.0150174957" flag="0"/>
      <vel value="0.0062556399" flag="0"/>
      <psa03 value="0.0304608999" flag="0"/>
      <psa10 value="0.0041914107" flag="0"/>
      <psa30 value="0.0003093288" flag="0"/>
    </comp>
    <comp name="--.HHN">
      <acc value="0.0199855045" flag="0"/>
      <vel value="0.0051886600" flag="0"/>
      <psa03 value="0.0395715852" flag="0"/>
      <psa10 value="0.0019270283" flag="0"/>
      <psa30 value="0.0004233094" flag="0"/>
    </comp>
  </station>
  <station code="ORLT" name="ORLT" netid="KO" insttype="CMG-5T" commtype="DIG" lat="40.0452" lon="28.8914">
    <comp name="--.HNZ">
      <acc value="0.0172894669" flag="0"/>
      <vel value="0.0076522640" flag="0"/>
      <psa03 value="0.0423214814" flag="0"/>
      <psa10 value="0.0089032694" flag="0"/>
      <psa30 value="0.0007218482" flag="0"/>
    </comp>
    <comp name="--.HNN">
      <acc value="0.0462769536" flag="0"/>
      <vel value="0.0206527829" flag="0"/>
      <psa03 value="0.1641575465" flag="0"/>
      <psa10 value="0.0141777593" flag="0"/>
      <psa30 value="0.0009957947" flag="0"/>
    </comp>
    <comp name="--.HNE">
      <acc value="0.0447499818" flag="0"/>
      <vel value="0.0178047136" flag="0"/>
      <psa03 value="0.1314381934" flag="0"/>
      <psa10 value="0.0132148314" flag="0"/>
      <psa30 value="0.0009691075" flag="0"/>
    </comp>
  </station>
  <station code="SHAP" name="SHAP" netid="KO" insttype="CMG-5T" commtype="DIG" lat="39.0231" lon="29.222">
    <comp name="--.HNE">
      <acc value="0.0457793790" flag="0"/>
      <vel value="0.0185092889" flag="0"/>
      <psa03 value="0.0756582744" flag="0"/>
      <psa10 value="0.0054099414" flag="0"/>
      <psa30 value="0.0003746627" flag="0"/>
    </comp>
    <comp name="--.HNN">
      <acc value="0.0579396819" flag="0"/>
      <vel value="0.0240448757" flag="0"/>
      <psa03 value="0.0858286515" flag="0"/>
      <psa10 value="0.0077310854" flag="0"/>
      <psa30 value="0.0005601931" flag="0"/>
    </comp>
    <comp name="--.HNZ">
      <acc value="0.0274734763" flag="0"/>
      <vel value="0.0076643120" flag="0"/>
      <psa03 value="0.0301703891" flag="0"/>
      <psa10 value="0.0032751625" flag="0"/>
      <psa30 value="0.0001799864" flag="0"/>
    </comp>
  </station>
  <station code="SMAA" name="SMAA" netid="KO" insttype="CMG-5T" commtype="DIG" lat="39.1005" lon="28.9805">
    <comp name="--.HNN">
      <acc value="0.0420425397" flag="0"/>
      <vel value="0.0284340534" flag="0"/>
      <psa03 value="0.1387934531" flag="0"/>
      <psa10 value="0.0163681055" flag="0"/>
      <psa30 value="0.0019308276" flag="0"/>
    </comp>
    <comp name="--.HNZ">
      <acc value="0.0172431353" flag="0"/>
      <vel value="0.0104905982" flag="0"/>
      <psa03 value="0.0417333254" flag="0"/>
      <psa10 value="0.0108651316" flag="0"/>
      <psa30 value="0.0006287997" flag="0"/>
    </comp>
    <comp name="--.HNE">
      <acc value="0.0751342685" flag="0"/>
      <vel value="0.0394197065" flag="0"/>
      <psa03 value="0.2753333665" flag="0"/>
      <psa10 value="0.0242477762" flag="0"/>
      <psa30 value="0.0014334932" flag="0"/>
    </comp>
  </station>
  <station code="SOMA" name="SOMA" netid="KO" insttype="CMG-5T" commtype="DIG" lat="39.1564" lon="27.5341">
    <comp name="--.HNE">
      <acc value="0.1560125913" flag="0"/>
      <vel value="0.0384697358" flag="0"/>
      <psa03 value="0.2134561996" flag="0"/>
      <psa10 value="0.0208268181" flag="0"/>
      <psa30 value="0.0015972159" flag="0"/>
    </comp>
    <comp name="--.HNZ">
      <acc value="0.2044815911" flag="0"/>
      <vel value="0.0492958944" flag="0"/>
      <psa03 value="0.1039619540" flag="0"/>
      <psa10 value="0.0133856954" flag="0"/>
      <psa30 value="0.0012008480" flag="0"/>
    </comp>
    <comp name="--.HNN">
      <acc value="0.1248730337" flag="0"/>
      <vel value="0.0536592996" flag="0"/>
      <psa03 value="0.2578200064" flag="0"/>
      <psa10 value="0.0270927818" flag="0"/>
      <psa30 value="0.0015910738" flag="0"/>
    </comp>
  </station>
  <station code="SUSR" name="SUSR" netid="KO" insttype="CMG-5T" commtype="DIG" lat="39.9627" lon="28.0835">
    <comp name="--.HNN">
      <acc value="0.0407889386" flag="0"/>
      <vel value="0.0103852055" flag="0"/>
      <psa03 value="0.0631787480" flag="0"/>
      <psa10 value="0.0032951265" flag="0"/>
      <psa30 value="0.0002394711" flag="0"/>
    </comp>
    <comp name="--.HNZ">
      <acc value="0.0352389579" flag="0"/>
      <vel value="0.0075120442" flag="0"/>
      <psa03 value="0.0299996472" flag="0"/>
      <psa10 value="0.0028163588" flag="0"/>
      <psa30 value="0.0002351057" flag="0"/>
    </comp>
    <comp name="--.HNE">
      <acc value="0.0301212896" flag="0"/>
      <vel value="0.0092713698" flag="0"/>
      <psa03 value="0.0453041845" flag="0"/>
      <psa10 value="0.0041073264" flag="0"/>
      <psa30 value="0.0003492392" flag="0"/>
    </comp>
  </station>
  <station code="TVSB" name="TVSB" netid="KO" insttype="CMG-3T" commtype="DIG" lat="39.4497" lon="29.4615">
    <comp name="--.HHE">
      <acc value="0.0304092925" flag="0"/>
      <vel value="0.0169817737" flag="0"/>
      <psa03 value="0.0877133769" flag="0"/>
      <psa10 value="0.0056334096" flag="0"/>
      <psa30 value="0.0005803139" flag="0"/>
    </comp>
    <comp name="--.HHN">
      <acc value="0.0495527463" flag="0"/>
      <vel value="0.0216268916" flag="0"/>
      <psa03 value="0.1567471304" flag="0"/>
      <psa10 value="0.0049659092" flag="0"/>
      <psa30 value="0.0006055422" flag="0"/>
    </comp>
    <comp name="--.HHZ">
      <acc value="0.0232264484" flag="0"/>
      <vel value="0.0096388347" flag="0"/>
      <psa03 value="0.0545896748" flag="0"/>
      <psa10 value="0.0034199770" flag="0"/>
      <psa30 value="0.0002878270" flag="0"/>
    </comp>
  </station>
  <station code="YENI" name="YENI" netid="KO" insttype="CMG-5T" commtype="DIG" lat="39.9364" lon="27.2422">
    <comp name="--.HNN">
      <acc value="0.0722490949" flag="0"/>
      <vel value="0.0157502147" flag="0"/>
      <psa03 value="0.0602893769" flag="0"/>
      <psa10 value="0.0066049993" flag="0"/>
      <psa30 value="0.0004329174" flag="0"/>
    </comp>
    <comp name="--.HNE">
      <acc value="0.0433278099" flag="0"/>
      <vel value="0.0138182422" flag="0"/>
      <psa03 value="0.0677627645" flag="0"/>
      <psa10 value="0.0077306624" flag="0"/>
      <psa30 value="0.0004625606" flag="0"/>
    </comp>
    <comp name="--.HNZ">
      <acc value="0.0166614978" flag="0"/>
      <vel value="0.0037645665" flag="0"/>
      <psa03 value="0.0149400410" flag="0"/>
      <psa10 value="0.0037140443" flag="0"/>
      <psa30 value="0.0005390354" flag="0"/>
    </comp>
  </station>
</stationlist>
