<?xml version="1.0" encoding="UTF-8" standalone="yes"?>
<!DOCTYPE earthquake SYSTEM "stationlist.dtd">
<stationlist created="" xmlns="ch.ethz.sed.shakemap.usgs.xml">
  <station code="AKS" name="AKS" netid="KO" insttype="CMG-5T" commtype="DIG" lat="38.8785" lon="27.8129">
    <comp name="--.HNZ">
      <acc value="0.0758210961" flag="0"/>
      <vel value="0.0152870601" flag="0"/>
      <psa03 value="0.0643867010" flag="0"/>
      <psa10 value="0.0082380067" flag="0"/>
      <psa30 value="0.0010129446" flag="0"/>
    </comp>
    <comp name="--.HNN">
      <acc value="0.1246277959" flag="0"/>
      <vel value="0.0372334098" flag="0"/>
      <psa03 value="0.1614406334" flag="0"/>
      <psa10 value="0.0142848342" flag="0"/>
      <psa30 value="0.0013406811" flag="0"/>
    </comp>
    <comp name="--.HNE">
      <acc value="0.1047032749" flag="0"/>
      <vel value="0.0292835647" flag="0"/>
      <psa03 value="0.1593568883" flag="0"/>
      <psa10 value="0.0203370803" flag="0"/>
      <psa30 value="0.0014392895" flag="0"/>
    </comp>
  </station>
  <station code="BALB" name="BALB" netid="KO" insttype="CMG-5T" commtype="DIG" lat="39.6507" lon="27.8642">
    <comp name="--.HNN">
      <acc value="0.0469173849" flag="0"/>
      <vel value="0.0166035895" flag="0"/>
      <psa03 value="0.1109407512" flag="0"/>
      <psa10 value="0.0288257151" flag="0"/>
      <psa30 value="0.0011526776" flag="0"/>
    </comp>
    <comp name="--.HNE">
      <acc value="0.0669690533" flag="0"/>
      <vel value="0.0175006635" flag="0"/>
      <psa03 value="0.0878041609" flag="0"/>
      <psa10 value="0.0121634600" flag="0"/>
      <psa30 value="0.0012961503" flag="0"/>
    </comp>
    <comp name="--.HNZ">
      <acc value="0.0326804514" flag="0"/>
      <vel value="0.0090826474" flag="0"/>
      <psa03 value="0.0501882581" flag="0"/>
      <psa10 value="0.0091433029" flag="0"/>
      <psa30 value="0.0012035296" flag="0"/>
    </comp>
  </station>
  <station code="CANM" name="CANM" netid="KO" insttype="CMG-5T" commtype="DIG" lat="40.0113" lon="27.0529">
    <comp name="--.HNE">
      <acc value="0.0131063304" flag="0"/>
      <vel value="0.0051408876" flag="0"/>
      <psa03 value="0.0253594120" flag="0"/>
      <psa10 value="0.0046288619" flag="0"/>
      <psa30 value="0.0004481708" flag="0"/>
    </comp>
    <comp name="--.HNN">
      <acc value="0.0167403270" flag="0"/>
      <vel value="0.0065385499" flag="0"/>
      <psa03 value="0.0412055992" flag="0"/>
      <psa10 value="0.0076284898" flag="0"/>
      <psa30 value="0.0005635435" flag="0"/>
    </comp>
    <comp name="--.HNZ">
      <acc value="0.0121015316" flag="0"/>
      <vel value="0.0037316135" flag="0"/>
      <psa03 value="0.0257148432" flag="0"/>
      <psa10 value="0.0031477186" flag="0"/>
      <psa30 value="0.0003952059" flag="0"/>
    </comp>
  </station>
  <station code="DKL" name="DKL" netid="KO" insttype="CMG-3ESPC" commtype="DIG" lat="39.0713" lon="26.9053">
    <comp name="--.HHE">
      <acc value="0.0074560196" flag="0"/>
      <vel value="0.0032554478" flag="0"/>
      <psa03 value="0.0163797533" flag="0"/>
      <psa10 value="0.0059022873" flag="0"/>
      <psa30 value="0.0005737708" flag="0"/>
    </comp>
    <comp name="--.HHN">
      <acc value="0.0086828393" flag="0"/>
      <vel value="0.0008134850" flag="0"/>
      <psa03 value="0.0029379557" flag="0"/>
      <psa10 value="0.0008303216" flag="0"/>
      <psa30 value="0.0000359623" flag="0"/>
    </comp>
  </station>
  <station code="DST" name="DST" netid="KO" insttype="CMG-5T" commtype="DIG" lat="39.6041" lon="28.6267">
    <comp name="--.HNE">
      <acc value="0.0570057115" flag="0"/>
      <vel value="0.0143054399" flag="0"/>
      <psa03 value="0.0590826476" flag="0"/>
      <psa10 value="0.0060273121" flag="0"/>
      <psa30 value="0.0006310819" flag="0"/>
    </comp>
    <comp name="--.HNZ">
      <acc value="0.0441200404" flag="0"/>
      <vel value="0.0130016118" flag="0"/>
      <psa03 value="0.0668861243" flag="0"/>
      <psa10 value="0.0049350340" flag="0"/>
      <psa30 value="0.0007752321" flag="0"/>
    </comp>
    <comp name="--.HNN">
      <acc value="0.0592977093" flag="0"/>
      <vel value="0.0121732465" flag="0"/>
      <psa03 value="0.0710996779" flag="0"/>
      <psa10 value="0.0054348480" flag="0"/>
      <psa30 value="0.0006084040" flag="0"/>
    </comp>
  </station>
  <station code="GOMA" name="GOMA" netid="KO" insttype="CMG-5T" commtype="DIG" lat="38.7077" lon="27.9175">
    <comp name="--.HNN">
      <acc value="0.0615706304" flag="0"/>
      <vel value="0.0254266907" flag="0"/>
      <psa03 value="0.1385919656" flag="0"/>
      <psa10 value="0.0086043084" flag="0"/>
      <psa30 value="0.0007646065" flag="0"/>
    </comp>
    <comp name="--.HNZ">
      <acc value="0.0584393009" flag="0"/>
      <vel value="0.0189339758" flag="0"/>
      <psa03 value="0.0942357294" flag="0"/>
      <psa10 value="0.0065092814" flag="0"/>
      <psa30 value="0.0006842014" flag="0"/>
    </comp>
    <comp name="--.HNE">
      <acc value="0.0554958736" flag="0"/>
      <vel value="0.0206463178" flag="0"/>
      <psa03 value="0.1738391491" flag="0"/>
      <psa10 value="0.0109335576" flag="0"/>
      <psa30 value="0.0006440260" flag="0"/>
    </comp>
  </station>
  <station code="GONE" name="GONE" netid="KO" insttype="CMG-5T" commtype="DIG" lat="40.0466" lon="27.686">
    <comp name="--.HNZ">
      <acc value="0.0172777950" flag="0"/>
      <vel value="0.0043163466" flag="0"/>
      <psa03 value="0.0166016744" flag="0"/>
      <psa10 value="0.0032146151" flag="0"/>
      <psa30 value="0.0003703441" flag="0"/>
    </comp>
    <comp name="--.HNN">
      <acc value="0.0351195775" flag="0"/>
      <vel value="0.0129692361" flag="0"/>
      <psa03 value="0.0843040263" flag="0"/>
      <psa10 value="0.0099256956" flag="0"/>
      <psa30 value="0.0008141312" flag="0"/>
    </comp>
    <comp name="--.HNE">
      <acc value="0.0237150291" flag="0"/>
      <vel value="0.0083043204" flag="0"/>
      <psa03 value="0.0368586293" flag="0"/>
      <psa10 value="0.0041269565" flag="0"/>
      <psa30 value="0.0005046232" flag="0"/>
    </comp>
  </station>
  <station code="GORD" name="GORD" netid="KO" insttype="CMG-5T" commtype="DIG" lat="38.9088" lon="28.1769">
    <comp name="--.HNN">
      <acc value="0.0364562187" flag="0"/>
      <vel value="0.0191797629" flag="0"/>
      <psa03 value="0.0923567510" flag="0"/>
      <psa10 value="0.0332642152" flag="0"/>
      <psa30 value="0.0021240115" flag="0"/>
    </comp>
    <comp name="--.HNE">
      <acc value="0.0330436515" flag="0"/>
      <vel value="0.0170193457" flag="0"/>
      <psa03 value="0.0513201952" flag="0"/>
      <psa10 value="0.0271865398" flag="0"/>
      <psa30 value="0.0026073591" flag="0"/>
    </comp>
    <comp name="--.HNZ">
      <acc value="0.0335808404" flag="0"/>
      <vel value="0.0138857963" flag="0"/>
      <psa03 value="0.0649010390" flag="0"/>
      <psa10 value="0.0251556796" flag="0"/>
      <psa30 value="0.0017074797" flag="0"/>
    </comp>
  </station>
  <station code="KCTX" name="KCTX" netid="KO" insttype="CMG-5T" commtype="DIG" lat="40.2626" lon="28.3353">
    <comp name="--.HNE">
      <acc value="0.0271615762" flag="0"/>
      <vel value="0.0082855794" flag="0"/>
      <psa03 value="0.0456529726" flag="0"/>
      <psa10 value="0.0095811235" flag="0"/>
      <psa30 value="0.0007492108" flag="0"/>
    </comp>
    <comp name="--.HNN">
      <acc value="0.0512824121" flag="0"/>
      <vel value="0.0174744236" flag="0"/>
      <psa03 value="0.1119558871" flag="0"/>
      <psa10 value="0.0066038759" flag="0"/>
      <psa30 value="0.0005540252" flag="0"/>
    </comp>
    <comp name="--.HNZ">
      <acc value="0.0262369192" flag="0"/>
      <vel value="0.0088247803" flag="0"/>
      <psa03 value="0.0524013480" flag="0"/>
      <psa10 value="0.0035109082" flag="0"/>
      <psa30 value="0.0003914563" flag="0"/>
    </comp>
  </station>
  <station code="KULA" name="KULA" netid="KO" insttype="CMG-3T" commtype="DIG" lat="38.5145" lon="28.6607">
    <comp name="--.HHN">
      <acc value="0.0199855044" flag="0"/>
      <vel value="0.0051886600" flag="0"/>
      <psa03 value="0.0395715852" flag="0"/>
      <psa10 value="0.0019270283" flag="0"/>
      <psa30 value="0.0004233121" flag="0"/>
    </comp>
    <comp name="--.HHZ">
      <acc value="0.0150174958" flag="0"/>
      <vel value="0.0062556397" flag="0"/>
      <psa03 value="0.0304608999" flag="0"/>
      <psa10 value="0.0041914107" flag="0"/>
      <psa30 value="0.0003093250" flag="0"/>
    </comp>
  </station>
  <station code="ORLT" name="ORLT" netid="KO" insttype="CMG-5T" commtype="DIG" lat="40.0452" lon="28.8914">
    <comp name="--.HNE">
      <acc value="0.0447499807" flag="0"/>
      <vel value="0.0178047101" flag="0"/>
      <psa03 value="0.1314381934" flag="0"/>
      <psa10 value="0.0132148314" flag="0"/>
      <psa30 value="0.0009690931" flag="0"/>
    </comp>
    <comp name="--.HNN">
      <acc value="0.0462769525" flag="0"/>
      <vel value="0.0206527778" flag="0"/>
      <psa03 value="0.1641575465" flag="0"/>
      <psa10 value="0.0141777592" flag="0"/>
      <psa30 value="0.0009956604" flag="0"/>
    </comp>
    <comp name="--.HNZ">
      <acc value="0.0172894609" flag="0"/>
      <vel value="0.0076522693" flag="0"/>
      <psa03 value="0.0423214814" flag="0"/>
      <psa10 value="0.0089032695" flag="0"/>
      <psa30 value="0.0007218513" flag="0"/>
    </comp>
  </station>
  <station code="SHAP" name="SHAP" netid="KO" insttype="CMG-5T" commtype="DIG" lat="39.0231" lon="29.222">
    <comp name="--.HNN">
      <acc value="0.0579396813" flag="0"/>
      <vel value="0.0240448754" flag="0"/>
      <psa03 value="0.0858286515" flag="0"/>
      <psa10 value="0.0077310847" flag="0"/>
      <psa30 value="0.0005601936" flag="0"/>
    </comp>
    <comp name="--.HNE">
      <acc value="0.0457793781" flag="0"/>
      <vel value="0.0185092892" flag="0"/>
      <psa03 value="0.0756582744" flag="0"/>
      <psa10 value="0.0054099412" flag="0"/>
      <psa30 value="0.0003746350" flag="0"/>
    </comp>
    <comp name="--.HNZ">
      <acc value="0.0274734763" flag="0"/>
      <vel value="0.0076643115" flag="0"/>
      <psa03 value="0.0301703891" flag="0"/>
      <psa10 value="0.0032751626" flag="0"/>
      <psa30 value="0.0001800776" flag="0"/>
    </comp>
  </station>
  <station code="SMAA" name="SMAA" netid="KO" insttype="CMG-5T" commtype="DIG" lat="39.1005" lon="28.9805">
    <comp name="--.HNE">
      <acc value="0.0751342689" flag="0"/>
      <vel value="0.0394196989" flag="0"/>
      <psa03 value="0.2753333665" flag="0"/>
      <psa10 value="0.0242477762" flag="0"/>
      <psa30 value="0.0014337885" flag="0"/>
    </comp>
    <comp name="--.HNZ">
      <acc value="0.0172431335" flag="0"/>
      <vel value="0.0104905933" flag="0"/>
      <psa03 value="0.0417333254" flag="0"/>
      <psa10 value="0.0108651316" flag="0"/>
      <psa30 value="0.0006288257" flag="0"/>
    </comp>
    <comp name="--.HNN">
      <acc value="0.0420425382" flag="0"/>
      <vel value="0.0284340569" flag="0"/>
      <psa03 value="0.1387934531" flag="0"/>
      <psa10 value="0.0163681056" flag="0"/>
      <psa30 value="0.0019308322" flag="0"/>
    </comp>
  </station>
  <station code="SOMA" name="SOMA" netid="KO" insttype="CMG-5T" commtype="DIG" lat="39.1564" lon="27.5341">
    <comp name="--.HNE">
      <acc value="0.1560125918" flag="0"/>
      <vel value="0.0384697355" flag="0"/>
      <psa03 value="0.2134561996" flag="0"/>
      <psa10 value="0.0208268182" flag="0"/>
      <psa30 value="0.0015971901" flag="0"/>
    </comp>
    <comp name="--.HNN">
      <acc value="0.1248730336" flag="0"/>
      <vel value="0.0536592996" flag="0"/>
      <psa03 value="0.2578200064" flag="0"/>
      <psa10 value="0.0270927830" flag="0"/>
      <psa30 value="0.0015909036" flag="0"/>
    </comp>
    <comp name="--.HNZ">
      <acc value="0.2044815902" flag="0"/>
      <vel value="0.0492958950" flag="0"/>
      <psa03 value="0.1039619540" flag="0"/>
      <psa10 value="0.0133856956" flag="0"/>
      <psa30 value="0.0012008528" flag="0"/>
    </comp>
  </station>
  <station code="SUSR" name="SUSR" netid="KO" insttype="CMG-5T" commtype="DIG" lat="39.9627" lon="28.0835">
    <comp name="--.HNZ">
      <acc value="0.0352389583" flag="0"/>
      <vel value="0.0075120450" flag="0"/>
      <psa03 value="0.0299996472" flag="0"/>
      <psa10 value="0.0028163589" flag="0"/>
      <psa30 value="0.0002351165" flag="0"/>
    </comp>
    <comp name="--.HNN">
      <acc value="0.0407889385" flag="0"/>
      <vel value="0.0103852054" flag="0"/>
      <psa03 value="0.0631787480" flag="0"/>
      <psa10 value="0.0032951265" flag="0"/>
      <psa30 value="0.0002394625" flag="0"/>
    </comp>
    <comp name="--.HNE">
      <acc value="0.0301212896" flag="0"/>
      <vel value="0.0092713697" flag="0"/>
      <psa03 value="0.0453041845" flag="0"/>
      <psa10 value="0.0041073264" flag="0"/>
      <psa30 value="0.0003492630" flag="0"/>
    </comp>
  </station>
  <station code="TVSB" name="TVSB" netid="KO" insttype="CMG-3T" commtype="DIG" lat="39.4497" lon="29.4615">
    <comp name="--.HHN">
      <acc value="0.0495527463" flag="0"/>
      <vel value="0.0216268915" flag="0"/>
      <psa03 value="0.1567471304" flag="0"/>
      <psa10 value="0.0049659092" flag="0"/>
      <psa30 value="0.0006055402" flag="0"/>
    </comp>
    <comp name="--.HHE">
      <acc value="0.0304092925" flag="0"/>
      <vel value="0.0169817737" flag="0"/>
      <psa03 value="0.0877133769" flag="0"/>
      <psa10 value="0.0056334096" flag="0"/>
      <psa30 value="0.0005803132" flag="0"/>
    </comp>
    <comp name="--.HHZ">
      <acc value="0.0232264485" flag="0"/>
      <vel value="0.0096388346" flag="0"/>
      <psa03 value="0.0545896748" flag="0"/>
      <psa10 value="0.0034199770" flag="0"/>
      <psa30 value="0.0002878261" flag="0"/>
    </comp>
  </station>
  <station code="YENI" name="YENI" netid="KO" insttype="CMG-5T" commtype="DIG" lat="39.9364" lon="27.2422">
    <comp name="--.HNZ">
      <acc value="0.0166614979" flag="0"/>
      <vel value="0.0037645632" flag="0"/>
      <psa03 value="0.0149400410" flag="0"/>
      <psa10 value="0.0037140442" flag="0"/>
      <psa30 value="0.0005390300" flag="0"/>
    </comp>
    <comp name="--.HNE">
      <acc value="0.0433278111" flag="0"/>
      <vel value="0.0138182454" flag="0"/>
      <psa03 value="0.0677627645" flag="0"/>
      <psa10 value="0.0077306627" flag="0"/>
      <psa30 value="0.0004626299" flag="0"/>
    </comp>
    <comp name="--.HNN">
      <acc value="0.0722490907" flag="0"/>
      <vel value="0.0157502115" flag="0"/>
      <psa03 value="0.0602893769" flag="0"/>
      <psa10 value="0.0066049991" flag="0"/>
      <psa30 value="0.0004327573" flag="0"/>
    </comp>
  </station>
</stationlist>
