<?xml version="1.0" encoding="UTF-8" standalone="yes"?>
<!DOCTYPE earthquake SYSTEM "stationlist.dtd">
<stationlist created="" xmlns="ch.ethz.sed.shakemap.usgs.xml">
  <station code="AYDB" name="AYDB" netid="KO" insttype="CMG-3ESPC" lat="37.9467" lon="27.8908">
    <comp name="--.HHZ">
      <acc value="0.0029264432" flag="0"/>
      <vel value="0.0016413894" flag="0"/>
      <psa03 value="0.0057523869" flag="0"/>
      <psa10 value="0.0006055496" flag="0"/>
      <psa30 value="0.0000582793" flag="0"/>
    </comp>
    <comp name="--.HHN">
      <acc value="0.0042911434" flag="0"/>
      <vel value="0.0023929021" flag="0"/>
      <psa03 value="0.0146610252" flag="0"/>
      <psa10 value="0.0017092857" flag="0"/>
      <psa30 value="0.0001312216" flag="0"/>
    </comp>
  </station>
  <station code="BODT" name="BODT" netid="KO" insttype="CMG-3ESP" lat="37.0622" lon="27.3103">
    <comp name="--.HHZ">
      <acc value="0.0023563673" flag="0"/>
      <vel value="0.0012626997" flag="0"/>
      <psa03 value="0.0049152008" flag="0"/>
      <psa10 value="0.0012917521" flag="0"/>
      <psa30 value="0.0001270918" flag="0"/>
    </comp>
    <comp name="--.HHN">
      <acc value="0.0033355828" flag="0"/>
      <vel value="0.0018114540" flag="0"/>
      <psa03 value="0.0096395174" flag="0"/>
      <psa10 value="0.0025240116" flag="0"/>
      <psa30 value="0.0001000117" flag="0"/>
    </comp>
    <comp name="--.HHE">
      <acc value="0.0033786366" flag="0"/>
      <vel value="0.0020938718" flag="0"/>
      <psa03 value="0.0060535393" flag="0"/>
      <psa10 value="0.0015088703" flag="0"/>
      <psa30 value="0.0001353538" flag="0"/>
    </comp>
  </station>
  <station code="CAME" name="CAME" netid="KO" insttype="CMG-5T" lat="36.9435" lon="29.3023">
    <comp name="--.HNZ">
      <acc value="0.0023200132" flag="0"/>
      <vel value="0.0008657090" flag="0"/>
      <psa03 value="0.0043205512" flag="0"/>
      <psa10 value="0.0005289683" flag="0"/>
      <psa30 value="0.0001215706" flag="0"/>
    </comp>
    <comp name="--.HNE">
      <acc value="0.0060336167" flag="0"/>
      <vel value="0.0028422411" flag="0"/>
      <psa03 value="0.0100841847" flag="0"/>
      <psa10 value="0.0009415141" flag="0"/>
      <psa30 value="0.0001059826" flag="0"/>
    </comp>
  </station>
  <station code="DALY" name="DALY" netid="KO" insttype="CMG-3T" lat="36.8162" lon="28.6532">
    <comp name="--.HHN">
      <acc value="0.0154786936" flag="0"/>
      <vel value="0.0063670014" flag="0"/>
      <psa03 value="0.0400628361" flag="0"/>
      <psa10 value="0.0029796961" flag="0"/>
      <psa30 value="0.0003918782" flag="0"/>
    </comp>
    <comp name="--.HHZ">
      <acc value="0.0092401339" flag="0"/>
      <vel value="0.0028257107" flag="0"/>
      <psa03 value="0.0205569147" flag="0"/>
      <psa10 value="0.0020335724" flag="0"/>
      <psa30 value="0.0001889816" flag="0"/>
    </comp>
  </station>
  <station code="DAT" name="DAT" netid="KO" insttype="CMG-3T" lat="36.7308" lon="27.5767">
    <comp name="--.HHZ">
      <acc value="0.0000369860" flag="0"/>
      <vel value="0.0000044274" flag="0"/>
      <psa03 value="0.0000133823" flag="0"/>
      <psa10 value="0.0000034510" flag="0"/>
      <psa30 value="0.0000007792" flag="0"/>
    </comp>
    <comp name="--.HHE">
      <acc value="0.0051624485" flag="0"/>
      <vel value="0.0021321575" flag="0"/>
      <psa03 value="0.0112229123" flag="0"/>
      <psa10 value="0.0019640048" flag="0"/>
      <psa30 value="0.0000999410" flag="0"/>
    </comp>
    <comp name="--.HHN">
      <acc value="0.0093231790" flag="0"/>
      <vel value="0.0040051356" flag="0"/>
      <psa03 value="0.0189563051" flag="0"/>
      <psa10 value="0.0017414259" flag="0"/>
      <psa30 value="0.0001779577" flag="0"/>
    </comp>
  </station>
  <station code="FETY" name="FETY" netid="KO" insttype="CMG-3ESP" lat="36.6353" lon="29.0835">
    <comp name="--.HHE">
      <acc value="0.0030384887" flag="0"/>
      <vel value="0.0012712273" flag="0"/>
      <psa03 value="0.0075428810" flag="0"/>
      <psa10 value="0.0012542437" flag="0"/>
      <psa30 value="0.0001060988" flag="0"/>
    </comp>
    <comp name="--.HHN">
      <acc value="0.0020876386" flag="0"/>
      <vel value="0.0008568257" flag="0"/>
      <psa03 value="0.0038986817" flag="0"/>
      <psa10 value="0.0010237554" flag="0"/>
      <psa30 value="0.0001020476" flag="0"/>
    </comp>
    <comp name="--.HHZ">
      <acc value="0.0021377669" flag="0"/>
      <vel value="0.0011419962" flag="0"/>
      <psa03 value="0.0059695655" flag="0"/>
      <psa10 value="0.0011554327" flag="0"/>
      <psa30 value="0.0001008019" flag="0"/>
    </comp>
  </station>
  <station code="MLSB" name="MLSB" netid="KO" insttype="CMG-3ESP" lat="37.2953" lon="27.7767">
    <comp name="--.HHZ">
      <acc value="0.0017471071" flag="0"/>
      <vel value="0.0007615359" flag="0"/>
      <psa03 value="0.0038532290" flag="0"/>
      <psa10 value="0.0008177465" flag="0"/>
      <psa30 value="0.0000826261" flag="0"/>
    </comp>
    <comp name="--.HHN">
      <acc value="0.0029970125" flag="0"/>
      <vel value="0.0012028221" flag="0"/>
      <psa03 value="0.0064845772" flag="0"/>
      <psa10 value="0.0007340039" flag="0"/>
      <psa30 value="0.0000788568" flag="0"/>
    </comp>
  </station>
  <station code="NAZL" name="NAZL" netid="KO" insttype="CMG-5T" lat="37.9641" lon="28.2922">
    <comp name="--.HNE">
      <acc value="0.0095679468" flag="0"/>
      <vel value="0.0037086087" flag="0"/>
      <psa03 value="0.0273221198" flag="0"/>
      <psa10 value="0.0018466941" flag="0"/>
      <psa30 value="0.0001428284" flag="0"/>
    </comp>
    <comp name="--.HNN">
      <acc value="0.0083499923" flag="0"/>
      <vel value="0.0039379641" flag="0"/>
      <psa03 value="0.0218727909" flag="0"/>
      <psa10 value="0.0016509875" flag="0"/>
      <psa30 value="0.0001550076" flag="0"/>
    </comp>
    <comp name="--.HNZ">
      <acc value="0.0045209507" flag="0"/>
      <vel value="0.0014751799" flag="0"/>
      <psa03 value="0.0146457224" flag="0"/>
      <psa10 value="0.0006136334" flag="0"/>
      <psa30 value="0.0001086711" flag="0"/>
    </comp>
  </station>
  <station code="YER" name="YER" netid="KO" insttype="CMG-3T" lat="37.1336" lon="28.284">
    <comp name="--.HHZ">
      <acc value="0.0634311822" flag="0"/>
      <vel value="0.0115763359" flag="0"/>
      <psa03 value="0.0447153954" flag="0"/>
      <psa10 value="0.0105192704" flag="0"/>
      <psa30 value="0.0006672695" flag="0"/>
    </comp>
    <comp name="--.HHN">
      <acc value="0.1648577160" flag="0"/>
      <vel value="0.0196973658" flag="0"/>
      <psa03 value="0.0888106851" flag="0"/>
      <psa10 value="0.0087979158" flag="0"/>
      <psa30 value="0.0004837702" flag="0"/>
    </comp>
    <comp name="--.HHE">
      <acc value="0.1344890583" flag="0"/>
      <vel value="0.0187129291" flag="0"/>
      <psa03 value="0.0850269630" flag="0"/>
      <psa10 value="0.0055087996" flag="0"/>
      <psa30 value="0.0005751042" flag="0"/>
    </comp>
  </station>
  <station code="AYDN" name="AYDN" netid="TU" insttype="T" lat="37.6608" lon="27.8792">
    <comp name="--.HHE">
      <acc value="0.0221058430" flag="0"/>
      <vel value="0.0072490981" flag="0"/>
      <psa03 value="0.0411424264" flag="0"/>
      <psa10 value="0.0021862218" flag="0"/>
      <psa30 value="0.0002305541" flag="0"/>
    </comp>
    <comp name="--.HHZ">
      <acc value="0.0116311507" flag="0"/>
      <vel value="0.0036996518" flag="0"/>
      <psa03 value="0.0206957274" flag="0"/>
      <psa10 value="0.0021467959" flag="0"/>
      <psa30 value="0.0001512696" flag="0"/>
    </comp>
    <comp name="--.HHN">
      <acc value="0.0144111687" flag="0"/>
      <vel value="0.0056155985" flag="0"/>
      <psa03 value="0.0362574051" flag="0"/>
      <psa10 value="0.0033738492" flag="0"/>
      <psa30 value="0.0002490578" flag="0"/>
    </comp>
  </station>
</stationlist>
