<stationlist created="1778138685">
	<station code="MYT1" name="MYT1" netid="HI" source="ITSAK Strong Motion Network" insttype="" lat="39.085" lon="26.5694">
		<comp name="--.HNE" depth="0.0">
			<acc value="0.00752530303374677" flag="0"/>
			<vel value="0.00526163285867499" flag="0"/>
			<psa03 value="0.0169027330043584" flag="0"/>
			<psa10 value="0.0113785181459647" flag="0"/>
			<psa30 value="0.000806608590109778" flag="0"/>
		</comp>
		<comp name="--.HNN" depth="0.0">
			<acc value="0.00694315516746495" flag="0"/>
			<vel value="0.00573117535407667" flag="0"/>
			<psa03 value="0.0137783124851467" flag="0"/>
			<psa10 value="0.0104200587152324" flag="0"/>
			<psa30 value="0.000712911081026662" flag="0"/>
		</comp>
		<comp name="--.HNZ" depth="0.0">
			<acc value="0.00378209727227157" flag="0"/>
			<vel value="0.00309652897120345" flag="0"/>
			<psa03 value="0.0109757010446568" flag="0"/>
			<psa10 value="0.00368878678589429" flag="0"/>
			<psa30 value="0.000415780277777984" flag="0"/>
		</comp>
	</station>
	<station code="SFL1" name="SFL1" netid="HI" source="ITSAK Strong Motion Network" insttype="" lat="41.189954" lon="26.304374">
		<comp name="--.HNE" depth="0.0">
			<acc value="0.0439209694003003" flag="0"/>
			<vel value="0.0284600009183052" flag="0"/>
			<psa03 value="0.130592244845263" flag="0"/>
			<psa10 value="0.0266522843330338" flag="0"/>
			<psa30 value="0.00126995819099761" flag="0"/>
		</comp>
		<comp name="--.HNN" depth="0.0">
			<acc value="0.0375633366643444" flag="0"/>
			<vel value="0.0282883639698987" flag="0"/>
			<psa03 value="0.116946715896024" flag="0"/>
			<psa10 value="0.015733865416358" flag="0"/>
			<psa30 value="0.00129881729027095" flag="0"/>
		</comp>
		<comp name="--.HNZ" depth="0.0">
			<acc value="0.0305221515284528" flag="0"/>
			<vel value="0.010726335337424" flag="0"/>
			<psa03 value="0.0587202545120346" flag="0"/>
			<psa10 value="0.00518409310823997" flag="0"/>
			<psa30 value="0.000371266443538349" flag="0"/>
		</comp>
	</station>
	<station code="LIA" name="LIA" netid="HL" source="National Observatory of Athens Seismic Network" insttype="" lat="39.89725" lon="25.18055">
		<comp name="00.HNE" depth="0.0">
			<acc value="0.0025507004038379" flag="0"/>
			<vel value="0.00159673829717412" flag="0"/>
			<psa03 value="0.00547923862371746" flag="0"/>
			<psa10 value="0.00244704929250626" flag="0"/>
			<psa30 value="0.000204496424488571" flag="0"/>
		</comp>
		<comp name="00.HNN" depth="0.0">
			<acc value="0.00457065922313612" flag="0"/>
			<vel value="0.00272184946833952" flag="0"/>
			<psa03 value="0.00913531024759069" flag="0"/>
			<psa10 value="0.00438267204925987" flag="0"/>
			<psa30 value="0.000251930986066246" flag="0"/>
		</comp>
		<comp name="00.HNZ" depth="0.0">
			<acc value="0.00238209341643278" flag="0"/>
			<vel value="0.00156409139391742" flag="0"/>
			<psa03 value="0.00429424573572501" flag="0"/>
			<psa10 value="0.00209426600046876" flag="0"/>
			<psa30 value="0.000146505499541361" flag="0"/>
		</comp>
	</station>
	<station code="PRK" name="PRK" netid="HL" source="National Observatory of Athens Seismic Network" insttype="" lat="39.24565" lon="26.26499">
		<comp name="--.HNE" depth="0.0">
			<acc value="0.0061548068782161" flag="0"/>
			<vel value="0.00409658313834305" flag="0"/>
			<psa03 value="0.0149178762569437" flag="0"/>
			<psa10 value="0.00745552576700248" flag="0"/>
			<psa30 value="0.000576127176013053" flag="0"/>
		</comp>
		<comp name="--.HNN" depth="0.0">
			<acc value="0.00661407299767078" flag="0"/>
			<vel value="0.00660964819728588" flag="0"/>
			<psa03 value="0.0176945575942698" flag="0"/>
			<psa10 value="0.0102695987480123" flag="0"/>
			<psa30 value="0.000904240213976436" flag="0"/>
		</comp>
		<comp name="--.HNZ" depth="0.0">
			<acc value="0.0067692292015671" flag="0"/>
			<vel value="0.00468822709917081" flag="0"/>
			<psa03 value="0.0105876681779203" flag="0"/>
			<psa10 value="0.00592101411313988" flag="0"/>
			<psa30 value="0.000423317547918344" flag="0"/>
		</comp>
	</station>
	<station code="AVCI" name="AVCI" netid="KO" source="Bogazici University Kandilli Observatory And Earthquake Research Institute (KOERI)" insttype="" lat="40.9958" lon="28.7225">
		<comp name="--.HNE" depth="0.0">
			<acc value="0.021325304514961" flag="0"/>
			<vel value="0.0105524955405594" flag="0"/>
			<psa03 value="0.0381679294796953" flag="0"/>
			<psa10 value="0.014076488123248" flag="0"/>
			<psa30 value="0.00124483381829572" flag="0"/>
		</comp>
		<comp name="--.HNN" depth="0.0">
			<acc value="0.0187891235325971" flag="0"/>
			<vel value="0.009685994436243" flag="0"/>
			<psa03 value="0.0333308590474965" flag="0"/>
			<psa10 value="0.0126488679254078" flag="0"/>
			<psa30 value="0.00157986403324084" flag="0"/>
		</comp>
		<comp name="--.HNZ" depth="0.0">
			<acc value="0.0167194142374981" flag="0"/>
			<vel value="0.00417634732780597" flag="0"/>
			<psa03 value="0.0227158225200822" flag="0"/>
			<psa10 value="0.00444368671619134" flag="0"/>
			<psa30 value="0.000497926839374047" flag="0"/>
		</comp>
	</station>
	<station code="BIGA" name="BIGA" netid="KO" source="Bogazici University Kandilli Observatory And Earthquake Research Institute (KOERI)" insttype="" lat="40.28134" lon="27.15048">
		<comp name="--.HNE" depth="0.0">
			<acc value="0.166892325714758" flag="0"/>
			<vel value="0.0476176013796343" flag="0"/>
			<psa03 value="0.230174935459626" flag="0"/>
			<psa10 value="0.0112505971718285" flag="0"/>
			<psa30 value="0.00118843529050685" flag="0"/>
		</comp>
		<comp name="--.HNN" depth="0.0">
			<acc value="0.145936473874151" flag="0"/>
			<vel value="0.0374557815169019" flag="0"/>
			<psa03 value="0.164896652760802" flag="0"/>
			<psa10 value="0.0154084441712886" flag="0"/>
			<psa30 value="0.00115512402129842" flag="0"/>
		</comp>
		<comp name="--.HNZ" depth="0.0">
			<acc value="0.0977256996478808" flag="0"/>
			<vel value="0.0191270088627132" flag="0"/>
			<psa03 value="0.0440604969166946" flag="0"/>
			<psa10 value="0.00998859919567683" flag="0"/>
			<psa30 value="0.000785372495823098" flag="0"/>
		</comp>
	</station>
	<station code="BOTS" name="BOTS" netid="KO" source="Bogazici University Kandilli Observatory And Earthquake Research Institute (KOERI)" insttype="" lat="40.9902" lon="27.981">
		<comp name="--.HNE" depth="0.0">
			<acc value="0.0345848437420368" flag="0"/>
			<vel value="0.0103658102903037" flag="0"/>
			<psa03 value="0.0464624216574675" flag="0"/>
			<psa10 value="0.0151664931432361" flag="0"/>
			<psa30 value="0.00129700519105998" flag="0"/>
		</comp>
		<comp name="--.HNN" depth="0.0">
			<acc value="0.0265804575349143" flag="0"/>
			<vel value="0.0096236909976803" flag="0"/>
			<psa03 value="0.0473540536403334" flag="0"/>
			<psa10 value="0.00817652696729042" flag="0"/>
			<psa30 value="0.0014566953530862" flag="0"/>
		</comp>
		<comp name="--.HNZ" depth="0.0">
			<acc value="0.017545502289996" flag="0"/>
			<vel value="0.00348637082233905" flag="0"/>
			<psa03 value="0.0202585907301162" flag="0"/>
			<psa10 value="0.00406341386872907" flag="0"/>
			<psa30 value="0.000881985302195832" flag="0"/>
		</comp>
	</station>
	<station code="BRGA" name="BRGA" netid="KO" source="Bogazici University Kandilli Observatory And Earthquake Research Institute (KOERI)" insttype="" lat="40.8846" lon="29.065">
		<comp name="--.HNE" depth="0.0">
			<acc value="0.0160200743039367" flag="0"/>
			<vel value="0.00727219952838509" flag="0"/>
			<psa03 value="0.0180884313427047" flag="0"/>
			<psa10 value="0.00417737360548026" flag="0"/>
			<psa30 value="0.000521121032128075" flag="0"/>
		</comp>
		<comp name="--.HNN" depth="0.0">
			<acc value="0.0264188981308118" flag="0"/>
			<vel value="0.00638975383034875" flag="0"/>
			<psa03 value="0.0338393640876114" flag="0"/>
			<psa10 value="0.00336603079552096" flag="0"/>
			<psa30 value="0.000705367977164744" flag="0"/>
		</comp>
		<comp name="--.HNZ" depth="0.0">
			<acc value="0.017514407050282" flag="0"/>
			<vel value="0.00387929155113818" flag="0"/>
			<psa03 value="0.0268271026847229" flag="0"/>
			<psa10 value="0.00217736423969433" flag="0"/>
			<psa30 value="0.000484025085119654" flag="0"/>
		</comp>
	</station>
	<station code="BUYA" name="BUYA" netid="KO" source="Bogazici University Kandilli Observatory And Earthquake Research Institute (KOERI)" insttype="" lat="40.8694" lon="29.1278">
		<comp name="--.HNE" depth="0.0">
			<acc value="0.016012763985088" flag="0"/>
			<vel value="0.00488244574897593" flag="0"/>
			<psa03 value="0.0292293399461403" flag="0"/>
			<psa10 value="0.0020545234458466" flag="0"/>
			<psa30 value="0.000394730523960072" flag="0"/>
		</comp>
		<comp name="--.HNN" depth="0.0">
			<acc value="0.0176140677180927" flag="0"/>
			<vel value="0.00451881532681129" flag="0"/>
			<psa03 value="0.0330222943357514" flag="0"/>
			<psa10 value="0.00363117992285009" flag="0"/>
			<psa30 value="0.000470985054614971" flag="0"/>
		</comp>
		<comp name="--.HNZ" depth="0.0">
			<acc value="0.0154670389113847" flag="0"/>
			<vel value="0.00367254583610493" flag="0"/>
			<psa03 value="0.0195983399604909" flag="0"/>
			<psa10 value="0.00112525829284023" flag="0"/>
			<psa30 value="0.000346668772396616" flag="0"/>
		</comp>
	</station>
	<station code="CANM" name="CANM" netid="KO" source="Bogazici University Kandilli Observatory And Earthquake Research Institute (KOERI)" insttype="" lat="40.0113" lon="27.0529">
		<comp name="--.HNE" depth="0.0">
			<acc value="0.0532314565273687" flag="0"/>
			<vel value="0.0183451474595594" flag="0"/>
			<psa03 value="0.0857845057191779" flag="0"/>
			<psa10 value="0.00777266224446714" flag="0"/>
			<psa30 value="0.000627954255139467" flag="0"/>
		</comp>
		<comp name="--.HNN" depth="0.0">
			<acc value="0.074204398726175" flag="0"/>
			<vel value="0.0261437903314259" flag="0"/>
			<psa03 value="0.0983393895017415" flag="0"/>
			<psa10 value="0.0103945242111964" flag="0"/>
			<psa30 value="0.000610413509817143" flag="0"/>
		</comp>
		<comp name="--.HNZ" depth="0.0">
			<acc value="0.0582947924541382" flag="0"/>
			<vel value="0.0132389309269464" flag="0"/>
			<psa03 value="0.0725220333956591" flag="0"/>
			<psa10 value="0.00627827637375243" flag="0"/>
			<psa30 value="0.000432703299886708" flag="0"/>
		</comp>
	</station>
	<station code="CTYL" name="CTYL" netid="KO" source="Bogazici University Kandilli Observatory And Earthquake Research Institute (KOERI)" insttype="" lat="41.476" lon="28.2897">
		<comp name="--.HNE" depth="0.0">
			<acc value="0.0434343184652821" flag="0"/>
			<vel value="0.0111368687278435" flag="0"/>
			<psa03 value="0.0495329167291089" flag="0"/>
			<psa10 value="0.00510212392815738" flag="0"/>
			<psa30 value="0.000474147503692923" flag="0"/>
		</comp>
		<comp name="--.HNN" depth="0.0">
			<acc value="0.0432434051532337" flag="0"/>
			<vel value="0.0140909600849587" flag="0"/>
			<psa03 value="0.048835021538896" flag="0"/>
			<psa10 value="0.00733476870494772" flag="0"/>
			<psa30 value="0.000604818191236566" flag="0"/>
		</comp>
		<comp name="--.HNZ" depth="0.0">
			<acc value="0.022513415908754" flag="0"/>
			<vel value="0.00697571431025662" flag="0"/>
			<psa03 value="0.0375550867985202" flag="0"/>
			<psa10 value="0.00462791954571506" flag="0"/>
			<psa30 value="0.000450908828832146" flag="0"/>
		</comp>
	</station>
	<station code="DST" name="DST" netid="KO" source="Bogazici University Kandilli Observatory And Earthquake Research Institute (KOERI)" insttype="" lat="39.6041" lon="28.6267">
		<comp name="--.HNE" depth="0.0">
			<acc value="0.0259809514030243" flag="0"/>
			<vel value="0.0099694396617985" flag="0"/>
			<psa03 value="0.0854723548324593" flag="0"/>
			<psa10 value="0.0118477970458939" flag="0"/>
			<psa30 value="0.00060794147105398" flag="0"/>
		</comp>
		<comp name="--.HNN" depth="0.0">
			<acc value="0.0211337848511543" flag="0"/>
			<vel value="0.00811205180288764" flag="0"/>
			<psa03 value="0.0594635068739411" flag="0"/>
			<psa10 value="0.0132844797190723" flag="0"/>
			<psa30 value="0.000580474078560448" flag="0"/>
		</comp>
		<comp name="--.HNZ" depth="0.0">
			<acc value="0.0243691966477891" flag="0"/>
			<vel value="0.0116234771514648" flag="0"/>
			<psa03 value="0.0853275952425881" flag="0"/>
			<psa10 value="0.00740979851903709" flag="0"/>
			<psa30 value="0.000645890651669684" flag="0"/>
		</comp>
	</station>
	<station code="EDC" name="EDC" netid="KO" source="Bogazici University Kandilli Observatory And Earthquake Research Institute (KOERI)" insttype="" lat="40.3465" lon="27.8618">
		<comp name="--.HNE" depth="0.0">
			<acc value="0.184473275743313" flag="0"/>
			<vel value="0.0555458725764854" flag="0"/>
			<psa03 value="0.245589456596356" flag="0"/>
			<psa10 value="0.0123176703602078" flag="0"/>
			<psa30 value="0.000995699397700327" flag="0"/>
		</comp>
		<comp name="--.HNN" depth="0.0">
			<acc value="0.21802559467944" flag="0"/>
			<vel value="0.0673934369361228" flag="0"/>
			<psa03 value="0.334515034979227" flag="0"/>
			<psa10 value="0.0142121205457538" flag="0"/>
			<psa30 value="0.00122630029887545" flag="0"/>
		</comp>
		<comp name="--.HNZ" depth="0.0">
			<acc value="0.134317373459973" flag="0"/>
			<vel value="0.0260310335760289" flag="0"/>
			<psa03 value="0.0921617510971063" flag="0"/>
			<psa10 value="0.00809184635759475" flag="0"/>
			<psa30 value="0.000502214883852883" flag="0"/>
		</comp>
	</station>
	<station code="ENZZ" name="ENZZ" netid="KO" source="Bogazici University Kandilli Observatory And Earthquake Research Institute (KOERI)" insttype="" lat="40.607" lon="26.1406">
		<comp name="--.HNE" depth="0.0">
			<acc value="0.0699738309332735" flag="0"/>
			<vel value="0.047453081036895" flag="0"/>
			<psa03 value="0.167342648129327" flag="0"/>
			<psa10 value="0.0547812852414002" flag="0"/>
			<psa30 value="0.00273061484816493" flag="0"/>
		</comp>
		<comp name="--.HNN" depth="0.0">
			<acc value="0.0994212365462745" flag="0"/>
			<vel value="0.0707258275030015" flag="0"/>
			<psa03 value="0.143874687241974" flag="0"/>
			<psa10 value="0.0604799602503835" flag="0"/>
			<psa30 value="0.00541155432225021" flag="0"/>
		</comp>
		<comp name="--.HNZ" depth="0.0">
			<acc value="0.0269443819399239" flag="0"/>
			<vel value="0.0165070518202403" flag="0"/>
			<psa03 value="0.0786002850083324" flag="0"/>
			<psa10 value="0.0109112062513786" flag="0"/>
			<psa30 value="0.001735300996842" flag="0"/>
		</comp>
	</station>
	<station code="EZNE" name="EZNE" netid="KO" source="Bogazici University Kandilli Observatory And Earthquake Research Institute (KOERI)" insttype="" lat="39.756" lon="26.3655">
		<comp name="--.HNE" depth="0.0">
			<acc value="0.0213038845655495" flag="0"/>
			<vel value="0.00694970441419468" flag="0"/>
			<psa03 value="0.0364025937848348" flag="0"/>
			<psa10 value="0.00799959680901906" flag="0"/>
			<psa30 value="0.000407777924744649" flag="0"/>
		</comp>
		<comp name="--.HNN" depth="0.0">
			<acc value="0.0250577034987914" flag="0"/>
			<vel value="0.00856785578364415" flag="0"/>
			<psa03 value="0.0425389273701674" flag="0"/>
			<psa10 value="0.00868886246951159" flag="0"/>
			<psa30 value="0.000615738133381067" flag="0"/>
		</comp>
		<comp name="--.HNZ" depth="0.0">
			<acc value="0.0183824935418955" flag="0"/>
			<vel value="0.00627152861011404" flag="0"/>
			<psa03 value="0.0377459431918025" flag="0"/>
			<psa10 value="0.00594135639819486" flag="0"/>
			<psa30 value="0.000441289702026807" flag="0"/>
		</comp>
	</station>
	<station code="GONE" name="GONE" netid="KO" source="Bogazici University Kandilli Observatory And Earthquake Research Institute (KOERI)" insttype="" lat="40.0466" lon="27.686">
		<comp name="--.HNE" depth="0.0">
			<acc value="0.017431618402896" flag="0"/>
			<vel value="0.00937546741167074" flag="0"/>
			<psa03 value="0.0264425094989667" flag="0"/>
			<psa10 value="0.0149635137593446" flag="0"/>
			<psa30 value="0.000764166038917258" flag="0"/>
		</comp>
		<comp name="--.HNN" depth="0.0">
			<acc value="0.0166624871438513" flag="0"/>
			<vel value="0.0099740989902736" flag="0"/>
			<psa03 value="0.0269138766622408" flag="0"/>
			<psa10 value="0.0127613256877054" flag="0"/>
			<psa30 value="0.000634139300284868" flag="0"/>
		</comp>
		<comp name="--.HNZ" depth="0.0">
			<acc value="0.0128266363561791" flag="0"/>
			<vel value="0.00410623436331648" flag="0"/>
			<psa03 value="0.0158583474127049" flag="0"/>
			<psa10 value="0.00470929102993443" flag="0"/>
			<psa30 value="0.000382458434952585" flag="0"/>
		</comp>
	</station>
	<station code="GORD" name="GORD" netid="KO" source="Bogazici University Kandilli Observatory And Earthquake Research Institute (KOERI)" insttype="" lat="38.9088" lon="28.1769">
		<comp name="--.HNE" depth="0.0">
			<acc value="0.003334122762854" flag="0"/>
			<vel value="0.00394083599672708" flag="0"/>
			<psa03 value="0.0071356810371807" flag="0"/>
			<psa10 value="0.00667496921521825" flag="0"/>
			<psa30 value="0.000357658927523558" flag="0"/>
		</comp>
		<comp name="--.HNN" depth="0.0">
			<acc value="0.00236993838100681" flag="0"/>
			<vel value="0.00285304762269668" flag="0"/>
			<psa03 value="0.00569967965912597" flag="0"/>
			<psa10 value="0.00651352805177289" flag="0"/>
			<psa30 value="0.000335916679914972" flag="0"/>
		</comp>
		<comp name="--.HNZ" depth="0.0">
			<acc value="0.00196615162148973" flag="0"/>
			<vel value="0.00175058692030978" flag="0"/>
			<psa03 value="0.00700967529408423" flag="0"/>
			<psa10 value="0.00288510620225272" flag="0"/>
			<psa30 value="0.000259021950599864" flag="0"/>
		</comp>
	</station>
	<station code="GPNR" name="GPNR" netid="KO" source="Bogazici University Kandilli Observatory And Earthquake Research Institute (KOERI)" insttype="" lat="39.456" lon="26.1331">
		<comp name="--.HNE" depth="0.0">
			<acc value="0.0212318429798114" flag="0"/>
			<vel value="0.0100459912855578" flag="0"/>
			<psa03 value="0.0458020029077464" flag="0"/>
			<psa10 value="0.00960716611511093" flag="0"/>
			<psa30 value="0.000794089427444141" flag="0"/>
		</comp>
		<comp name="--.HNN" depth="0.0">
			<acc value="0.019290721722098" flag="0"/>
			<vel value="0.00932702818795304" flag="0"/>
			<psa03 value="0.0410748720503595" flag="0"/>
			<psa10 value="0.00584886730249815" flag="0"/>
			<psa30 value="0.000457081477321473" flag="0"/>
		</comp>
		<comp name="--.HNZ" depth="0.0">
			<acc value="0.0121224735472757" flag="0"/>
			<vel value="0.0036405527788077" flag="0"/>
			<psa03 value="0.0164108879220567" flag="0"/>
			<psa10 value="0.00497367276264453" flag="0"/>
			<psa30 value="0.000517326041146551" flag="0"/>
		</comp>
	</station>
	<station code="HVHR" name="HVHR" netid="KO" source="Bogazici University Kandilli Observatory And Earthquake Research Institute (KOERI)" insttype="" lat="40.9699" lon="28.8445">
		<comp name="--.HNE" depth="0.0">
			<acc value="0.046565735355947" flag="0"/>
			<vel value="0.0162102080544872" flag="0"/>
			<psa03 value="0.0464212991414492" flag="0"/>
			<psa10 value="0.0133591209137151" flag="0"/>
			<psa30 value="0.00127072595018955" flag="0"/>
		</comp>
		<comp name="--.HNN" depth="0.0">
			<acc value="0.0477235373297762" flag="0"/>
			<vel value="0.0178643279488679" flag="0"/>
			<psa03 value="0.0704348430457861" flag="0"/>
			<psa10 value="0.0114704451731806" flag="0"/>
			<psa30 value="0.00149179361567361" flag="0"/>
		</comp>
		<comp name="--.HNZ" depth="0.0">
			<acc value="0.0433618786926527" flag="0"/>
			<vel value="0.0128743176680472" flag="0"/>
			<psa03 value="0.0719417709976772" flag="0"/>
			<psa10 value="0.00693230563746811" flag="0"/>
			<psa30 value="0.00104295950761531" flag="0"/>
		</comp>
	</station>
	<station code="HYBA" name="HYBA" netid="KO" source="Bogazici University Kandilli Observatory And Earthquake Research Institute (KOERI)" insttype="" lat="40.8748" lon="29.0861">
		<comp name="--.HNE" depth="0.0">
			<acc value="0.00787040409762655" flag="0"/>
			<vel value="0.00325068619427035" flag="0"/>
			<psa03 value="0.0182029180935676" flag="0"/>
