<?xml version="1.0" encoding="UTF-8" standalone="yes"?>
<!DOCTYPE earthquake SYSTEM "stationlist.dtd">
<stationlist created="" xmlns="ch.ethz.sed.shakemap.usgs.xml">
  <station code="SFL1" name="SFL1" netid="HI" insttype="CMG-5TD,ACCELEROMETER,GURALP" lat="41.19" lon="26.3044">
    <comp name="--.HNZ">
      <acc value="0.0302887502" flag="0"/>
      <vel value="0.0104958775" flag="0"/>
      <psa03 value="0.0584249777" flag="0"/>
      <psa10 value="0.0051862254" flag="0"/>
      <psa30 value="0.0003360583" flag="0"/>
    </comp>
    <comp name="--.HNE">
      <acc value="0.0440542281" flag="0"/>
      <vel value="0.0281484444" flag="0"/>
      <psa03 value="0.1293043734" flag="0"/>
      <psa10 value="0.0266124993" flag="0"/>
      <psa30 value="0.0012306454" flag="0"/>
    </comp>
    <comp name="--.HNN">
      <acc value="0.0377756444" flag="0"/>
      <vel value="0.0280583933" flag="0"/>
      <psa03 value="0.1176842795" flag="0"/>
      <psa10 value="0.0157195139" flag="0"/>
      <psa30 value="0.0012877888" flag="0"/>
    </comp>
  </station>
  <station code="ALN" name="ALN" netid="HT" insttype="100" lat="40.885" lon="26.046">
    <comp name="--.HHE">
      <acc value="0.0124288454" flag="0"/>
      <vel value="0.0074689177" flag="0"/>
      <psa03 value="0.0387956086" flag="0"/>
      <psa10 value="0.0110935823" flag="0"/>
      <psa30 value="0.0006289736" flag="0"/>
    </comp>
    <comp name="--.HHZ">
      <acc value="0.0076290298" flag="0"/>
      <vel value="0.0037402690" flag="0"/>
      <psa03 value="0.0285072930" flag="0"/>
      <psa10 value="0.0044868124" flag="0"/>
      <psa30 value="0.0003210890" flag="0"/>
    </comp>
    <comp name="--.HHN">
      <acc value="0.0116757226" flag="0"/>
      <vel value="0.0056034811" flag="0"/>
      <psa03 value="0.0283636733" flag="0"/>
      <psa10 value="0.0059805179" flag="0"/>
      <psa30 value="0.0003419304" flag="0"/>
    </comp>
  </station>
  <station code="ARMT" name="ARMT" netid="KO" insttype="120s," lat="40.5683" lon="28.866">
    <comp name="--.HHN">
      <acc value="0.0257954216" flag="0"/>
      <vel value="0.0056601483" flag="0"/>
      <psa03 value="0.0533142526" flag="0"/>
      <psa10 value="0.0044218891" flag="0"/>
      <psa30 value="0.0005692637" flag="0"/>
    </comp>
    <comp name="--.HHE">
      <acc value="0.0233423495" flag="0"/>
      <vel value="0.0048004980" flag="0"/>
      <psa03 value="0.0402419626" flag="0"/>
      <psa10 value="0.0031592426" flag="0"/>
      <psa30 value="0.0002218100" flag="0"/>
    </comp>
    <comp name="--.HHZ">
      <acc value="0.0099100739" flag="0"/>
      <vel value="0.0025645932" flag="0"/>
      <psa03 value="0.0076907520" flag="0"/>
      <psa10 value="0.0019170613" flag="0"/>
      <psa30 value="0.0001767385" flag="0"/>
    </comp>
  </station>
  <station code="BIGA" name="BIGA" netid="KO" insttype="CMG-5T" lat="40.2813" lon="27.1505">
    <comp name="--.HNE">
      <acc value="0.1704826660" flag="0"/>
      <vel value="0.0473653162" flag="0"/>
      <psa03 value="0.2287453463" flag="0"/>
      <psa10 value="0.0111940309" flag="0"/>
      <psa30 value="0.0011343876" flag="0"/>
    </comp>
    <comp name="--.HNN">
      <acc value="0.1504160117" flag="0"/>
      <vel value="0.0370860707" flag="0"/>
      <psa03 value="0.1599037220" flag="0"/>
      <psa10 value="0.0153878535" flag="0"/>
      <psa30 value="0.0010708660" flag="0"/>
    </comp>
    <comp name="--.HNZ">
      <acc value="0.1044489694" flag="0"/>
      <vel value="0.0185357841" flag="0"/>
      <psa03 value="0.0427037474" flag="0"/>
      <psa10 value="0.0099586522" flag="0"/>
      <psa30 value="0.0006806426" flag="0"/>
    </comp>
  </station>
  <station code="BOTS" name="BOTS" netid="KO" insttype="CMG-5T" lat="40.9902" lon="27.981">
    <comp name="--.HNE">
      <acc value="0.0343750047" flag="0"/>
      <vel value="0.0106529989" flag="0"/>
      <psa03 value="0.0461798790" flag="0"/>
      <psa10 value="0.0151687484" flag="0"/>
      <psa30 value="0.0012030231" flag="0"/>
    </comp>
    <comp name="--.HNN">
      <acc value="0.0291342533" flag="0"/>
      <vel value="0.0096581636" flag="0"/>
      <psa03 value="0.0466734218" flag="0"/>
      <psa10 value="0.0081391568" flag="0"/>
      <psa30 value="0.0013076748" flag="0"/>
    </comp>
    <comp name="--.HNZ">
      <acc value="0.0231746058" flag="0"/>
      <vel value="0.0033839658" flag="0"/>
      <psa03 value="0.0202367000" flag="0"/>
      <psa10 value="0.0040989630" flag="0"/>
      <psa30 value="0.0007663372" flag="0"/>
    </comp>
  </station>
  <station code="CRLT" name="CRLT" netid="KO" insttype="30s," lat="41.129" lon="27.736">
    <comp name="--.HHE">
      <acc value="0.0272676816" flag="0"/>
      <vel value="0.0138871947" flag="0"/>
      <psa03 value="0.0336030771" flag="0"/>
      <psa10 value="0.0138116231" flag="0"/>
      <psa30 value="0.0032146122" flag="0"/>
    </comp>
    <comp name="--.HHN">
      <acc value="0.0275003889" flag="0"/>
      <vel value="0.0140761966" flag="0"/>
      <psa03 value="0.0328204561" flag="0"/>
      <psa10 value="0.0146678015" flag="0"/>
      <psa30 value="0.0017716131" flag="0"/>
    </comp>
    <comp name="--.HHZ">
      <acc value="0.0236190542" flag="0"/>
      <vel value="0.0077943645" flag="0"/>
      <psa03 value="0.0236996993" flag="0"/>
      <psa10 value="0.0120344747" flag="0"/>
      <psa30 value="0.0023109383" flag="0"/>
    </comp>
  </station>
  <station code="CTKS" name="CTKS" netid="KO" insttype="30s," lat="41.2373" lon="28.5072">
    <comp name="--.HHE">
      <acc value="0.0301096321" flag="0"/>
      <vel value="0.0061463718" flag="0"/>
      <psa03 value="0.0195515557" flag="0"/>
      <psa10 value="0.0063697754" flag="0"/>
      <psa30 value="0.0004159464" flag="0"/>
    </comp>
    <comp name="--.HHN">
      <acc value="0.0275246390" flag="0"/>
      <vel value="0.0069086765" flag="0"/>
      <psa03 value="0.0162428808" flag="0"/>
      <psa10 value="0.0061811258" flag="0"/>
      <psa30 value="0.0003693457" flag="0"/>
    </comp>
    <comp name="--.HHZ">
      <acc value="0.0000170201" flag="0"/>
      <vel value="0.0000018964" flag="0"/>
      <psa03 value="0.0000114826" flag="0"/>
      <psa10 value="0.0000025139" flag="0"/>
      <psa30 value="0.0000007552" flag="0"/>
    </comp>
  </station>
  <station code="CTYL" name="CTYL" netid="KO" insttype="360s," lat="41.476" lon="28.2897">
    <comp name="--.HHZ">
      <acc value="0.0243282979" flag="0"/>
      <vel value="0.0068913519" flag="0"/>
      <psa03 value="0.0363485265" flag="0"/>
      <psa10 value="0.0043338344" flag="0"/>
      <psa30 value="0.0002788505" flag="0"/>
    </comp>
    <comp name="--.HHN">
      <acc value="0.0462472887" flag="0"/>
      <vel value="0.0137465186" flag="0"/>
      <psa03 value="0.0459307644" flag="0"/>
      <psa10 value="0.0072539948" flag="0"/>
      <psa30 value="0.0002990739" flag="0"/>
    </comp>
    <comp name="--.HHE">
      <acc value="0.0425544779" flag="0"/>
      <vel value="0.0116969378" flag="0"/>
      <psa03 value="0.0482149569" flag="0"/>
      <psa10 value="0.0049193907" flag="0"/>
      <psa30 value="0.0003622643" flag="0"/>
    </comp>
  </station>
  <station code="EDC" name="EDC" netid="KO" insttype="120s," lat="40.3465" lon="27.8618">
    <comp name="--.HHE">
      <acc value="0.1773381352" flag="0"/>
      <vel value="0.0531713269" flag="0"/>
      <psa03 value="0.2158902874" flag="0"/>
      <psa10 value="0.0120255482" flag="0"/>
      <psa30 value="0.0009510013" flag="0"/>
    </comp>
    <comp name="--.HHN">
      <acc value="0.2274626524" flag="0"/>
      <vel value="0.0705136650" flag="0"/>
      <psa03 value="0.3485038029" flag="0"/>
      <psa10 value="0.0143062780" flag="0"/>
      <psa30 value="0.0012202753" flag="0"/>
    </comp>
    <comp name="--.HHZ">
      <acc value="0.1448298548" flag="0"/>
      <vel value="0.0265344559" flag="0"/>
      <psa03 value="0.0845700834" flag="0"/>
      <psa10 value="0.0081350625" flag="0"/>
      <psa30 value="0.0004850979" flag="0"/>
    </comp>
  </station>
  <station code="ENEZ" name="ENEZ" netid="KO" insttype="120s," lat="40.7362" lon="26.153">
    <comp name="--.HHE">
      <acc value="0.0493457747" flag="0"/>
      <vel value="0.0190362595" flag="0"/>
      <psa03 value="0.1613428371" flag="0"/>
      <psa10 value="0.0166158648" flag="0"/>
      <psa30 value="0.0008053873" flag="0"/>
    </comp>
    <comp name="--.HHN">
      <acc value="0.0440249347" flag="0"/>
      <vel value="0.0258272303" flag="0"/>
      <psa03 value="0.1143748290" flag="0"/>
      <psa10 value="0.0183460273" flag="0"/>
      <psa30 value="0.0012910647" flag="0"/>
    </comp>
    <comp name="--.HHZ">
      <acc value="0.0244002280" flag="0"/>
      <vel value="0.0086463608" flag="0"/>
      <psa03 value="0.0438813783" flag="0"/>
      <psa10 value="0.0103122362" flag="0"/>
      <psa30 value="0.0004808224" flag="0"/>
    </comp>
  </station>
  <station code="ENZZ" name="ENZZ" netid="KO" insttype="CMG-5T" lat="40.607" lon="26.1406">
    <comp name="--.HNE">
      <acc value="0.0699014970" flag="0"/>
      <vel value="0.0464792312" flag="0"/>
      <psa03 value="0.1660245509" flag="0"/>
      <psa10 value="0.0546862324" flag="0"/>
      <psa30 value="0.0026813449" flag="0"/>
    </comp>
    <comp name="--.HNZ">
      <acc value="0.0282478457" flag="0"/>
      <vel value="0.0157220016" flag="0"/>
      <psa03 value="0.0793935324" flag="0"/>
      <psa10 value="0.0108848784" flag="0"/>
      <psa30 value="0.0014560897" flag="0"/>
    </comp>
    <comp name="--.HNN">
      <acc value="0.0991480724" flag="0"/>
      <vel value="0.0702783519" flag="0"/>
      <psa03 value="0.1432682016" flag="0"/>
      <psa10 value="0.0605910862" flag="0"/>
      <psa30 value="0.0054117463" flag="0"/>
    </comp>
  </station>
  <station code="ERIK" name="ERIK" netid="KO" insttype="120s," lat="40.6708" lon="26.5132">
    <comp name="--.HHZ">
      <acc value="0.0176684021" flag="0"/>
      <vel value="0.0075111273" flag="0"/>
      <psa03 value="0.0404461076" flag="0"/>
      <psa10 value="0.0136330946" flag="0"/>
      <psa30 value="0.0007045351" flag="0"/>
    </comp>
    <comp name="--.HHN">
      <acc value="0.0315972765" flag="0"/>
      <vel value="0.0124493426" flag="0"/>
      <psa03 value="0.0577699412" flag="0"/>
      <psa10 value="0.0166105164" flag="0"/>
      <psa30 value="0.0009336645" flag="0"/>
    </comp>
    <comp name="--.HHE">
      <acc value="0.0341907530" flag="0"/>
      <vel value="0.0170145035" flag="0"/>
      <psa03 value="0.0429330110" flag="0"/>
      <psa10 value="0.0200364157" flag="0"/>
      <psa30 value="0.0010337766" flag="0"/>
    </comp>
  </station>
  <station code="GELI" name="GELI" netid="KO" insttype="30s," lat="40.398" lon="26.4742">
    <comp name="--.HHE">
      <acc value="0.0225787578" flag="0"/>
      <vel value="0.0111572640" flag="0"/>
      <psa03 value="0.0546081156" flag="0"/>
      <psa10 value="0.0099416627" flag="0"/>
      <psa30 value="0.0004832378" flag="0"/>
    </comp>
    <comp name="--.HHZ">
      <acc value="0.0100868351" flag="0"/>
      <vel value="0.0030048241" flag="0"/>
      <psa03 value="0.0138402830" flag="0"/>
      <psa10 value="0.0031183898" flag="0"/>
      <psa30 value="0.0002808613" flag="0"/>
    </comp>
    <comp name="--.HHN">
      <acc value="0.0114391426" flag="0"/>
      <vel value="0.0055354706" flag="0"/>
      <psa03 value="0.0201277631" flag="0"/>
      <psa10 value="0.0059486620" flag="0"/>
      <psa30 value="0.0005831171" flag="0"/>
    </comp>
  </station>
  <station code="GONE" name="GONE" netid="KO" insttype="CMG-5T" lat="40.0466" lon="27.686">
    <comp name="--.HNN">
      <acc value="0.0168395875" flag="0"/>
      <vel value="0.0099535310" flag="0"/>
      <psa03 value="0.0262943132" flag="0"/>
      <psa10 value="0.0127548549" flag="0"/>
      <psa30 value="0.0005644049" flag="0"/>
    </comp>
    <comp name="--.HNE">
      <acc value="0.0175443678" flag="0"/>
      <vel value="0.0093506668" flag="0"/>
      <psa03 value="0.0258022635" flag="0"/>
      <psa10 value="0.0149487127" flag="0"/>
      <psa30 value="0.0007023719" flag="0"/>
    </comp>
    <comp name="--.HNZ">
      <acc value="0.0134527255" flag="0"/>
      <vel value="0.0040556671" flag="0"/>
      <psa03 value="0.0155322930" flag="0"/>
      <psa10 value="0.0047130901" flag="0"/>
      <psa30 value="0.0003283267" flag="0"/>
    </comp>
  </station>
  <station code="KCTX" name="KCTX" netid="KO" insttype="30s," lat="40.2627" lon="28.3353">
    <comp name="--.HHZ">
      <acc value="0.0347030803" flag="0"/>
      <vel value="0.0074577441" flag="0"/>
      <psa03 value="0.0416953914" flag="0"/>
      <psa10 value="0.0042739258" flag="0"/>
      <psa30 value="0.0003839856" flag="0"/>
    </comp>
    <comp name="--.HHN">
      <acc value="0.0456203234" flag="0"/>
      <vel value="0.0139111310" flag="0"/>
      <psa03 value="0.0478630824" flag="0"/>
      <psa10 value="0.0108584469" flag="0"/>
      <psa30 value="0.0005797821" flag="0"/>
    </comp>
    <comp name="--.HHE">
      <acc value="0.0487344229" flag="0"/>
      <vel value="0.0129727311" flag="0"/>
      <psa03 value="0.0651572169" flag="0"/>
      <psa10 value="0.0096163158" flag="0"/>
      <psa30 value="0.0005533941" flag="0"/>
    </comp>
  </station>
  <station code="KRBG" name="KRBG" netid="KO" insttype="30s," lat="40.3932" lon="27.2977">
    <comp name="--.HHN">
      <acc value="0.0833815497" flag="0"/>
      <vel value="0.0245917888" flag="0"/>
      <psa03 value="0.0967203275" flag="0"/>
      <psa10 value="0.0181441787" flag="0"/>
      <psa30 value="0.0011935152" flag="0"/>
    </comp>
    <comp name="--.HHZ">
      <acc value="0.0566545628" flag="0"/>
      <vel value="0.0202041139" flag="0"/>
      <psa03 value="0.0360419013" flag="0"/>
      <psa10 value="0.0193354304" flag="0"/>
      <psa30 value="0.0011157325" flag="0"/>
    </comp>
  </station>
  <station code="LAP" name="LAP" netid="KO" insttype="30s," lat="40.3703" lon="26.7593">
    <comp name="--.HHN">
      <acc value="0.0262836552" flag="0"/>
      <vel value="0.0089457444" flag="0"/>
      <psa03 value="0.0378032979" flag="0"/>
      <psa10 value="0.0106548651" flag="0"/>
      <psa30 value="0.0008819317" flag="0"/>
    </comp>
    <comp name="--.HHZ">
      <acc value="0.0255771792" flag="0"/>
      <vel value="0.0062205221" flag="0"/>
      <psa03 value="0.0275514926" flag="0"/>
      <psa10 value="0.0060111705" flag="0"/>
      <psa30 value="0.0007058308" flag="0"/>
    </comp>
    <comp name="--.HHE">
      <acc value="0.0285436605" flag="0"/>
      <vel value="0.0110723910" flag="0"/>
      <psa03 value="0.0449379505" flag="0"/>
      <psa10 value="0.0189544670" flag="0"/>
      <psa30 value="0.0010643874" flag="0"/>
    </comp>
  </station>
  <station code="PHSR" name="PHSR" netid="KO" insttype="30s," lat="41.6308" lon="27.5238">
    <comp name="--.HHE">
      <acc value="0.0243862008" flag="0"/>
      <vel value="0.0119545412" flag="0"/>
      <psa03 value="0.0221240012" flag="0"/>
      <psa10 value="0.0097671959" flag="0"/>
      <psa30 value="0.0006277944" flag="0"/>
    </comp>
    <comp name="--.HHN">
      <acc value="0.0214535333" flag="0"/>
      <vel value="0.0048729119" flag="0"/>
      <psa03 value="0.0151748529" flag="0"/>
      <psa10 value="0.0031405900" flag="0"/>
      <psa30 value="0.0002042924" flag="0"/>
    </comp>
    <comp name="--.HHZ">
      <acc value="0.0140104744" flag="0"/>
      <vel value="0.0030538371" flag="0"/>
      <psa03 value="0.0085609177" flag="0"/>
      <psa10 value="0.0025283058" flag="0"/>
      <psa30 value="0.0001277720" flag="0"/>
    </comp>
  </station>
  <station code="SLVT" name="SLVT" netid="KO" insttype="30s," lat="41.23" lon="28.21">
    <comp name="--.HHN">
      <acc value="0.0319731402" flag="0"/>
      <vel value="0.0116446503" flag="0"/>
      <psa03 value="0.0449153797" flag="0"/>
      <psa10 value="0.0064484282" flag="0"/>
      <psa30 value="0.0016358633" flag="0"/>
    </comp>
    <comp name="--.HHE">
      <acc value="0.0236724044" flag="0"/>
      <vel value="0.0081124158" flag="0"/>
      <psa03 value="0.0456642760" flag="0"/>
      <psa10 value="0.0055711406" flag="0"/>
      <psa30 value="0.0009974843" flag="0"/>
    </comp>
    <comp name="--.HHZ">
      <acc value="0.0397911780" flag="0"/>
      <vel value="0.0084768454" flag="0"/>
      <psa03 value="0.0231487132" flag="0"/>
      <psa10 value="0.0043301225" flag="0"/>
      <psa30 value="0.0005687092" flag="0"/>
    </comp>
  </station>
  <station code="TKR" name="TKR" netid="KO" insttype="CMG-5T" lat="40.9893" lon="27.5351">
    <comp name="--.HNN">
      <acc value="2.0882847217" flag="0"/>
      <vel value="0.5634168332" flag="0"/>
      <psa03 value="1.8364925276" flag="0"/>
      <psa10 value="0.1047454870" flag="0"/>
      <psa30 value="0.0086684666" flag="0"/>
    </comp>
    <comp name="--.HNZ">
      <acc value="0.3928021646" flag="0"/>
      <vel value="0.1004982073" flag="0"/>
      <psa03 value="0.3245437773" flag="0"/>
      <psa10 value="0.0286551970" flag="0"/>
      <psa30 value="0.0030962306" flag="0"/>
    </comp>
  </station>
  <station code="YENI" name="YENI" netid="KO" insttype="CMG-5T" lat="39.9364" lon="27.2422">
    <comp name="--.HNN">
      <acc value="0.0541201326" flag="0"/>
      <vel value="0.0217390866" flag="0"/>
      <psa03 value="0.0988745957" flag="0"/>
      <psa10 value="0.0169237163" flag="0"/>
      <psa30 value="0.0008858073" flag="0"/>
    </comp>
    <comp name="--.HNZ">
      <acc value="0.0225724665" flag="0"/>
      <vel value="0.0118844453" flag="0"/>
      <psa03 value="0.0392664218" flag="0"/>
      <psa10 value="0.0082273116" flag="0"/>
      <psa30 value="0.0014937696" flag="0"/>
    </comp>
    <comp name="--.HNE">
      <acc value="0.0761083955" flag="0"/>
      <vel value="0.0257897602" flag="0"/>
      <psa03 value="0.0853050180" flag="0"/>
      <psa10 value="0.0222177129" flag="0"/>
      <psa30 value="0.0011253228" flag="0"/>
    </comp>
  </station>
</stationlist>
