<?xml version="1.0" encoding="UTF-8" standalone="yes"?>
<!DOCTYPE earthquake SYSTEM "stationlist.dtd">
<stationlist created="" xmlns="ch.ethz.sed.shakemap.usgs.xml">
  <station code="GAZ" name="GAZ" netid="KO" insttype="CMG-3T" lat="37.1721" lon="37.2096">
    <comp name="--.HHE">
      <acc value="0.0310268585" flag="0"/>
      <vel value="0.0150375581" flag="0"/>
      <psa03 value="0.0642061917" flag="0"/>
      <psa10 value="0.0081768075" flag="0"/>
      <psa30 value="0.0007548390" flag="0"/>
    </comp>
    <comp name="--.HHN">
      <acc value="0.0330035348" flag="0"/>
      <vel value="0.0163049704" flag="0"/>
      <psa03 value="0.0367171263" flag="0"/>
      <psa10 value="0.0107536984" flag="0"/>
      <psa30 value="0.0007400623" flag="0"/>
    </comp>
    <comp name="--.HHZ">
      <acc value="0.0330223454" flag="0"/>
      <vel value="0.0108228477" flag="0"/>
      <psa03 value="0.0587726021" flag="0"/>
      <psa10 value="0.0086770663" flag="0"/>
      <psa30 value="0.0005102345" flag="0"/>
    </comp>
  </station>
</stationlist>
