<?xml version="1.0" encoding="UTF-8" standalone="yes"?>
<!DOCTYPE earthquake SYSTEM "stationlist.dtd">
<stationlist created="" xmlns="ch.ethz.sed.shakemap.usgs.xml">
  <station code="KARO" name="KARO" netid="KO" insttype="120s," lat="39.3089" lon="41.0493">
    <comp name="--.HHZ">
      <acc value="0.0623958366" flag="0"/>
      <vel value="0.0238764269" flag="0"/>
      <psa03 value="0.0641819791" flag="0"/>
      <psa10 value="0.0169251467" flag="0"/>
      <psa30 value="0.0016358960" flag="0"/>
    </comp>
    <comp name="--.HHE">
      <acc value="0.0790063042" flag="0"/>
      <vel value="0.0659587705" flag="0"/>
      <psa03 value="0.1640413642" flag="0"/>
      <psa10 value="0.0557071901" flag="0"/>
      <psa30 value="0.0027787982" flag="0"/>
    </comp>
    <comp name="--.HHN">
      <acc value="0.0994931187" flag="0"/>
      <vel value="0.0459197758" flag="0"/>
      <psa03 value="0.1541602017" flag="0"/>
      <psa10 value="0.0394058255" flag="0"/>
      <psa30 value="0.0033142971" flag="0"/>
    </comp>
  </station>
</stationlist>
