<stationlist created="1778135753">
	<station code="ARPRA" name="ARPRA" netid="KO" source="Bogazici University Kandilli Observatory And Earthquake Research Institute (KOERI)" insttype="" lat="39.0929" lon="38.3356">
		<comp name="--.HNE" depth="0.0">
			<acc value="0.00624157015101614" flag="0"/>
			<vel value="0.00260155306069975" flag="0"/>
			<psa03 value="0.00568226024052051" flag="0"/>
			<psa10 value="0.00329392125123717" flag="0"/>
			<psa30 value="0.000427288073204495" flag="0"/>
		</comp>
		<comp name="--.HNN" depth="0.0">
			<acc value="0.00456322408271113" flag="0"/>
			<vel value="0.00291251739129775" flag="0"/>
			<psa03 value="0.00774040174496101" flag="0"/>
			<psa10 value="0.00420397773385281" flag="0"/>
			<psa30 value="0.000745405162260407" flag="0"/>
		</comp>
		<comp name="--.HNZ" depth="0.0">
			<acc value="0.00314825505899108" flag="0"/>
			<vel value="0.0015658786601202" flag="0"/>
			<psa03 value="0.00304247005004248" flag="0"/>
			<psa10 value="0.0033060016470241" flag="0"/>
			<psa30 value="0.000367780938402194" flag="0"/>
		</comp>
	</station>
	<station code="GUMT" name="GUMT" netid="KO" source="Bogazici University Kandilli Observatory And Earthquake Research Institute (KOERI)" insttype="" lat="40.4665" lon="39.478">
		<comp name="--.HNE" depth="0.0">
			<acc value="0.00371653350260162" flag="0"/>
			<vel value="0.00772715072142746" flag="0"/>
			<psa03 value="0.0061744245133215" flag="0"/>
			<psa10 value="0.00575026839458029" flag="0"/>
			<psa30 value="0.00332210884140668" flag="0"/>
		</comp>
		<comp name="--.HNN" depth="0.0">
			<acc value="0.00234951371601361" flag="0"/>
			<vel value="0.00306675388278946" flag="0"/>
			<psa03 value="0.00353463432284347" flag="0"/>
			<psa10 value="0.00414357575491815" flag="0"/>
			<psa30 value="0.00176329036282609" flag="0"/>
		</comp>
		<comp name="--.HNZ" depth="0.0">
			<acc value="0.00283706882259399" flag="0"/>
			<vel value="0.00257594561621379" flag="0"/>
			<psa03 value="0.00375834535593483" flag="0"/>
			<psa10 value="0.00454625561448259" flag="0"/>
			<psa30 value="0.00178610888820141" flag="0"/>
		</comp>
	</station>
</stationlist>
