<stationlist created="1778069645">
	<station code="CHAY" name="CHAY" netid="KO" source="Bogazici University Kandilli Observatory And Earthquake Research Institute (KOERI)" insttype="" lat="41.0862" lon="40.7253">
		<comp name="--.HNE" depth="0.0">
			<acc value="0.751427642763898" flag="0"/>
			<vel value="1.49565398004315" flag="0"/>
			<psa03 value="1.15613861901614" flag="0"/>
			<psa10 value="2.92187324858979" flag="0"/>
			<psa30 value="0.457900690972717" flag="0"/>
		</comp>
		<comp name="--.HNN" depth="0.0">
			<acc value="0.827748355744915" flag="0"/>
			<vel value="1.09120075499439" flag="0"/>
			<psa03 value="1.75232852220461" flag="0"/>
			<psa10 value="2.08351794176819" flag="0"/>
			<psa30 value="0.162794966202648" flag="0"/>
		</comp>
		<comp name="--.HNZ" depth="0.0">
			<acc value="0.30862592998818" flag="0"/>
			<vel value="0.537812713198047" flag="0"/>
			<psa03 value="0.790594790944862" flag="0"/>
			<psa10 value="1.36980413187757" flag="0"/>
			<psa30 value="0.110683718154347" flag="0"/>
		</comp>
	</station>
	<station code="GUMT" name="GUMT" netid="KO" source="Bogazici University Kandilli Observatory And Earthquake Research Institute (KOERI)" insttype="" lat="40.4665" lon="39.478">
		<comp name="--.HNE" depth="0.0">
			<acc value="0.145942357149471" flag="0"/>
			<vel value="0.233241933704179" flag="0"/>
			<psa03 value="0.234717615919454" flag="0"/>
			<psa10 value="0.307268893639246" flag="0"/>
			<psa30 value="0.0799194243056894" flag="0"/>
		</comp>
		<comp name="--.HNN" depth="0.0">
			<acc value="0.13975247840225" flag="0"/>
			<vel value="0.229869876482536" flag="0"/>
			<psa03 value="0.23583617108491" flag="0"/>
			<psa10 value="0.379127114578521" flag="0"/>
			<psa30 value="0.0735194990710118" flag="0"/>
		</comp>
		<comp name="--.HNZ" depth="0.0">
			<acc value="0.191843863542919" flag="0"/>
			<vel value="0.274550521396341" flag="0"/>
			<psa03 value="0.36787042281543" flag="0"/>
			<psa10 value="0.356331407728578" flag="0"/>
			<psa30 value="0.0575420570876269" flag="0"/>
		</comp>
	</station>
</stationlist>
