<?xml version="1.0" encoding="UTF-8" standalone="yes"?>
<!DOCTYPE earthquake SYSTEM "stationlist.dtd">
<stationlist created="" xmlns="ch.ethz.sed.shakemap.usgs.xml">
  <station code="AGRB" name="AGRB" netid="KO" insttype="120s," lat="39.5755" lon="42.992">
    <comp name="--.HHE">
      <acc value="0.0744243978" flag="0"/>
      <vel value="0.0979783026" flag="0"/>
      <psa03 value="0.2017222767" flag="0"/>
      <psa10 value="0.2445713994" flag="0"/>
      <psa30 value="0.0452485892" flag="0"/>
    </comp>
    <comp name="--.HHZ">
      <acc value="0.0384123563" flag="0"/>
      <vel value="0.0787502091" flag="0"/>
      <psa03 value="0.1008867132" flag="0"/>
      <psa10 value="0.1315204561" flag="0"/>
      <psa30 value="0.0419188777" flag="0"/>
    </comp>
    <comp name="--.HHN">
      <acc value="0.0880566660" flag="0"/>
      <vel value="0.1978951731" flag="0"/>
      <psa03 value="0.1598555143" flag="0"/>
      <psa10 value="0.1955016182" flag="0"/>
      <psa30 value="0.0780060364" flag="0"/>
    </comp>
  </station>
  <station code="CHAY" name="CHAY" netid="KO" insttype="100" lat="41.0918" lon="40.7253">
    <comp name="--.HNE">
      <acc value="0.7621121731" flag="0"/>
      <vel value="1.5006685330" flag="0"/>
      <psa03 value="1.1675571406" flag="0"/>
      <psa10 value="2.9231933950" flag="0"/>
      <psa30 value="0.4521999005" flag="0"/>
    </comp>
    <comp name="--.HNN">
      <acc value="0.8256484325" flag="0"/>
      <vel value="1.0905167232" flag="0"/>
      <psa03 value="1.7628661525" flag="0"/>
      <psa10 value="2.0808078129" flag="0"/>
      <psa30 value="0.1624040821" flag="0"/>
    </comp>
    <comp name="--.HNZ">
      <acc value="0.3083711323" flag="0"/>
      <vel value="0.5296515289" flag="0"/>
      <psa03 value="0.7874931349" flag="0"/>
      <psa10 value="1.3696206467" flag="0"/>
      <psa30 value="0.1090284880" flag="0"/>
    </comp>
  </station>
  <station code="GUMT" name="GUMT" netid="KO" insttype="100" lat="40.4675" lon="39.478">
    <comp name="--.HNN">
      <acc value="0.1397662969" flag="0"/>
      <vel value="0.2433892326" flag="0"/>
      <psa03 value="0.2358961059" flag="0"/>
      <psa10 value="0.3814932452" flag="0"/>
      <psa30 value="0.0733642832" flag="0"/>
    </comp>
    <comp name="--.HNE">
      <acc value="0.1444315523" flag="0"/>
      <vel value="0.2248526840" flag="0"/>
      <psa03 value="0.2355683517" flag="0"/>
      <psa10 value="0.3070800801" flag="0"/>
      <psa30 value="0.0808300597" flag="0"/>
    </comp>
    <comp name="--.HNZ">
      <acc value="0.1916621908" flag="0"/>
      <vel value="0.2639087341" flag="0"/>
      <psa03 value="0.3604941055" flag="0"/>
      <psa10 value="0.3569954455" flag="0"/>
      <psa30 value="0.0562857696" flag="0"/>
    </comp>
  </station>
  <station code="MLAZ" name="MLAZ" netid="KO" insttype="120s," lat="39.141" lon="42.5496">
    <comp name="--.HHE">
      <acc value="0.1328812476" flag="0"/>
      <vel value="0.3004269358" flag="0"/>
      <psa03 value="0.3746544507" flag="0"/>
      <psa10 value="0.3256265255" flag="0"/>
      <psa30 value="0.1547786660" flag="0"/>
    </comp>
    <comp name="--.HHZ">
      <acc value="0.1017438422" flag="0"/>
      <vel value="0.1415517503" flag="0"/>
      <psa03 value="0.1934613690" flag="0"/>
      <psa10 value="0.2239583995" flag="0"/>
      <psa30 value="0.0496378228" flag="0"/>
    </comp>
  </station>
</stationlist>
