<?xml version="1.0" encoding="UTF-8" standalone="yes"?>
<!DOCTYPE earthquake SYSTEM "stationlist.dtd">
<stationlist created="" xmlns="ch.ethz.sed.shakemap.usgs.xml">
  <station code="EIL" name="EIL" netid="GE" insttype="STS-2/N" lat="29.6699" lon="34.9512">
    <comp name="--.HHE">
      <acc value="0.0726707389" flag="0"/>
      <vel value="0.0333085252" flag="0"/>
      <psa03 value="0.1211031371" flag="0"/>
      <psa10 value="0.0224972104" flag="0"/>
      <psa30 value="0.0019580070" flag="0"/>
    </comp>
    <comp name="--.HHN">
      <acc value="0.0640057675" flag="0"/>
      <vel value="0.0217759962" flag="0"/>
      <psa03 value="0.1155811127" flag="0"/>
      <psa10 value="0.0154540609" flag="0"/>
      <psa30 value="0.0008859908" flag="0"/>
    </comp>
    <comp name="--.HHZ">
      <acc value="0.0685111512" flag="0"/>
      <vel value="0.0190208881" flag="0"/>
      <psa03 value="0.1116627285" flag="0"/>
      <psa10 value="0.0217706465" flag="0"/>
      <psa30 value="0.0011245429" flag="0"/>
    </comp>
  </station>
</stationlist>
