<?xml version="1.0" encoding="UTF-8" standalone="yes"?>
<!DOCTYPE earthquake SYSTEM "stationlist.dtd">
<stationlist created="" xmlns="ch.ethz.sed.shakemap.usgs.xml">
  <station code="CEYT" name="CEYT" netid="KO" insttype="CMG-3ESP" lat="37.0105" lon="35.7478">
    <comp name="--.HHZ">
      <acc value="0.0087086633" flag="0"/>
      <vel value="0.0043158416" flag="0"/>
      <psa03 value="0.0220155337" flag="0"/>
      <psa10 value="0.0047146332" flag="0"/>
      <psa30 value="0.0003379155" flag="0"/>
    </comp>
    <comp name="--.HHN">
      <acc value="0.0218152324" flag="0"/>
      <vel value="0.0102544365" flag="0"/>
      <psa03 value="0.0363150722" flag="0"/>
      <psa10 value="0.0049820597" flag="0"/>
      <psa30 value="0.0004122165" flag="0"/>
    </comp>
    <comp name="--.HHE">
      <acc value="0.0190324054" flag="0"/>
      <vel value="0.0111839542" flag="0"/>
      <psa03 value="0.0474215038" flag="0"/>
      <psa10 value="0.0070149216" flag="0"/>
      <psa30 value="0.0005268003" flag="0"/>
    </comp>
  </station>
  <station code="TAHT" name="TAHT" netid="KO" insttype="CMG-3ESPC" lat="36.3755" lon="36.1855">
    <comp name="--.HHZ">
      <acc value="0.5073809156" flag="0"/>
      <vel value="0.1100270917" flag="0"/>
      <psa03 value="0.5815896172" flag="0"/>
      <psa10 value="0.0718720209" flag="0"/>
      <psa30 value="0.0035290217" flag="0"/>
    </comp>
    <comp name="--.HHN">
      <acc value="0.8904956893" flag="0"/>
      <vel value="0.2156733915" flag="0"/>
      <psa03 value="0.8030686684" flag="0"/>
      <psa10 value="0.1049820480" flag="0"/>
      <psa30 value="0.0051174236" flag="0"/>
    </comp>
  </station>
</stationlist>
