<?xml version="1.0" encoding="UTF-8" standalone="yes"?>
<!DOCTYPE earthquake SYSTEM "stationlist.dtd">
<stationlist created="" xmlns="ch.ethz.sed.shakemap.usgs.xml">
  <station code="CEYT" name="CEYT" netid="KO" insttype="CMG-3ESP" lat="37.0105" lon="35.7478">
    <comp name="--.HHE">
      <acc value="0.0190324050" flag="0"/>
      <vel value="0.0111839490" flag="0"/>
      <psa03 value="0.0474215038" flag="0"/>
      <psa10 value="0.0070149214" flag="0"/>
      <psa30 value="0.0005267243" flag="0"/>
    </comp>
    <comp name="--.HHN">
      <acc value="0.0218152326" flag="0"/>
      <vel value="0.0102544357" flag="0"/>
      <psa03 value="0.0363150722" flag="0"/>
      <psa10 value="0.0049820601" flag="0"/>
      <psa30 value="0.0004121548" flag="0"/>
    </comp>
    <comp name="--.HHZ">
      <acc value="0.0087086633" flag="0"/>
      <vel value="0.0043158406" flag="0"/>
      <psa03 value="0.0220155337" flag="0"/>
      <psa10 value="0.0047146332" flag="0"/>
      <psa30 value="0.0003379241" flag="0"/>
    </comp>
  </station>
  <station code="TAHT" name="TAHT" netid="KO" insttype="CMG-3ESPC" lat="36.3755" lon="36.1855">
    <comp name="--.HHZ">
      <acc value="0.5073809157" flag="0"/>
      <vel value="0.1100270905" flag="0"/>
      <psa03 value="0.5815896172" flag="0"/>
      <psa10 value="0.0718720276" flag="0"/>
      <psa30 value="0.0035286398" flag="0"/>
    </comp>
    <comp name="--.HHN">
      <acc value="0.8904956895" flag="0"/>
      <vel value="0.2156733835" flag="0"/>
      <psa03 value="0.8030686684" flag="0"/>
      <psa10 value="0.1049820550" flag="0"/>
      <psa30 value="0.0051175696" flag="0"/>
    </comp>
  </station>
</stationlist>
