<stationlist created="1778069864">
	<station code="MMAA" name="MMAA" netid="EG" source="EUROSEISTEST Strong Motion Network" insttype="" lat="40.630855" lon="22.943725">
		<comp name="--.EN1" depth="0.0">
			<acc value="0.038288904617766" flag="0"/>
			<vel value="0.0199085053133959" flag="0"/>
			<psa03 value="0.101575197608155" flag="0"/>
			<psa10 value="0.0260759049007059" flag="0"/>
			<psa30 value="0.00165879603292972" flag="0"/>
		</comp>
		<comp name="--.EN2" depth="0.0">
			<acc value="0.0594343102793483" flag="0"/>
			<vel value="0.0321608825297626" flag="0"/>
			<psa03 value="0.136864670779258" flag="0"/>
			<psa10 value="0.0260173803987778" flag="0"/>
			<psa30 value="0.00153242682825826" flag="0"/>
		</comp>
		<comp name="--.EN3" depth="0.0">
			<acc value="0.0479460658338097" flag="0"/>
			<vel value="0.0161943574669406" flag="0"/>
			<psa03 value="0.113910129320426" flag="0"/>
			<psa10 value="0.00957192878081485" flag="0"/>
			<psa30 value="0.000781653395283865" flag="0"/>
		</comp>
	</station>
	<station code="STC" name="STC" netid="EG" source="EUROSEISTEST Strong Motion Network" insttype="" lat="40.64865" lon="23.304856">
		<comp name="--.EN1" depth="0.0">
			<acc value="0.0637633279798035" flag="0"/>
			<vel value="0.0380400888775748" flag="0"/>
			<psa03 value="0.127154319182804" flag="0"/>
			<psa10 value="0.0460342920460851" flag="0"/>
			<psa30 value="0.00396947920851484" flag="0"/>
		</comp>
		<comp name="--.EN2" depth="0.0">
			<acc value="0.0837252612935749" flag="0"/>
			<vel value="0.0423138719443358" flag="0"/>
			<psa03 value="0.247163394195404" flag="0"/>
			<psa10 value="0.0477660930191037" flag="0"/>
			<psa30 value="0.00344228761799339" flag="0"/>
		</comp>
		<comp name="--.EN3" depth="0.0">
			<acc value="0.038872437152216" flag="0"/>
			<vel value="0.0196784664228038" flag="0"/>
			<psa03 value="0.14122213652361" flag="0"/>
			<psa10 value="0.0307037977259143" flag="0"/>
			<psa30 value="0.00230613527014203" flag="0"/>
		</comp>
	</station>
	<station code="LMN1" name="LMN1" netid="HI" source="ITSAK Strong Motion Network" insttype="" lat="39.875" lon="25.0588">
		<comp name="--.HNE" depth="0.0">
			<acc value="0.25360706142661" flag="0"/>
			<vel value="0.0875874574350025" flag="0"/>
			<psa03 value="0.691088123425826" flag="0"/>
			<psa10 value="0.0245836054264094" flag="0"/>
			<psa30 value="0.00180400577084872" flag="0"/>
		</comp>
		<comp name="--.HNN" depth="0.0">
			<acc value="0.302189534776424" flag="0"/>
			<vel value="0.111803141752021" flag="0"/>
			<psa03 value="0.593684339617848" flag="0"/>
			<psa10 value="0.0245070962530922" flag="0"/>
			<psa30 value="0.00237849570382733" flag="0"/>
		</comp>
		<comp name="--.HNZ" depth="0.0">
			<acc value="0.26082892058671" flag="0"/>
			<vel value="0.0580682304155806" flag="0"/>
			<psa03 value="0.182145523142984" flag="0"/>
			<psa10 value="0.00827507111404936" flag="0"/>
			<psa30 value="0.000766433999370995" flag="0"/>
		</comp>
	</station>
	<station code="SFL1" name="SFL1" netid="HI" source="ITSAK Strong Motion Network" insttype="" lat="41.189954" lon="26.304374">
		<comp name="--.HNE" depth="0.0">
			<acc value="0.0844174785188238" flag="0"/>
			<vel value="0.0585595011239162" flag="0"/>
			<psa03 value="0.304336489417484" flag="0"/>
			<psa10 value="0.038077407520414" flag="0"/>
			<psa30 value="0.00193017879351224" flag="0"/>
		</comp>
		<comp name="--.HNN" depth="0.0">
			<acc value="0.0682434031103083" flag="0"/>
			<vel value="0.0410898149343124" flag="0"/>
			<psa03 value="0.189214791788671" flag="0"/>
			<psa10 value="0.040920327328939" flag="0"/>
			<psa30 value="0.00197447357806433" flag="0"/>
		</comp>
		<comp name="--.HNZ" depth="0.0">
			<acc value="0.0472166327725811" flag="0"/>
			<vel value="0.0266945701174767" flag="0"/>
			<psa03 value="0.0984328545601979" flag="0"/>
			<psa10 value="0.0144239925695984" flag="0"/>
			<psa30 value="0.000922136878402581" flag="0"/>
		</comp>
	</station>
	<station code="SKO1" name="SKO1" netid="HI" source="ITSAK Strong Motion Network" insttype="" lat="39.123383" lon="23.728705">
		<comp name="--.HNE" depth="0.0">
			<acc value="0.0152149720700366" flag="0"/>
			<vel value="0.00768309846610467" flag="0"/>
			<psa03 value="0.0405364391961542" flag="0"/>
			<psa10 value="0.00709521912552553" flag="0"/>
			<psa30 value="0.00138835067136497" flag="0"/>
		</comp>
		<comp name="--.HNN" depth="0.0">
			<acc value="0.0184023248874576" flag="0"/>
			<vel value="0.00904553854690855" flag="0"/>
			<psa03 value="0.0330197484842846" flag="0"/>
			<psa10 value="0.00595160832436251" flag="0"/>
			<psa30 value="0.00135434659433509" flag="0"/>
		</comp>
		<comp name="--.HNZ" depth="0.0">
			<acc value="0.0119523368243615" flag="0"/>
			<vel value="0.0060482289211353" flag="0"/>
			<psa03 value="0.0281875901695112" flag="0"/>
			<psa10 value="0.00668045887017416" flag="0"/>
			<psa30 value="0.000435789092461967" flag="0"/>
		</comp>
	</station>
	<station code="SKY1" name="SKY1" netid="HI" source="ITSAK Strong Motion Network" insttype="" lat="38.904483" lon="24.564572">
		<comp name="--.HNE" depth="0.0">
			<acc value="0.0394531583857984" flag="0"/>
			<vel value="0.0292985821398964" flag="0"/>
			<psa03 value="0.107381295883852" flag="0"/>
			<psa10 value="0.0258601005812287" flag="0"/>
			<psa30 value="0.00191720355359294" flag="0"/>
		</comp>
		<comp name="--.HNN" depth="0.0">
			<acc value="0.0881810553546806" flag="0"/>
			<vel value="0.0520360234177185" flag="0"/>
			<psa03 value="0.16827543909132" flag="0"/>
			<psa10 value="0.0391485359468554" flag="0"/>
			<psa30 value="0.00197447357806433" flag="0"/>
		</comp>
		<comp name="--.HNZ" depth="0.0">
			<acc value="0.0269362130822954" flag="0"/>
			<vel value="0.0151109748650275" flag="0"/>
			<psa03 value="0.0573147666780061" flag="0"/>
			<psa10 value="0.00963612903937719" flag="0"/>
			<psa30 value="0.000934217274189514" flag="0"/>
		</comp>
	</station>
	<station code="THS1" name="THS1" netid="HI" source="ITSAK Strong Motion Network" insttype="" lat="40.738476" lon="24.575145">
		<comp name="--.HNE" depth="0.0">
			<acc value="0.216219477764972" flag="0"/>
			<vel value="0.0919435998114041" flag="0"/>
			<psa03 value="0.3526133303586" flag="0"/>
			<psa10 value="0.0338210814048178" flag="0"/>
			<psa30 value="0.00223979486331068" flag="0"/>
		</comp>
		<comp name="--.HNN" depth="0.0">
			<acc value="0.249569136668077" flag="0"/>
			<vel value="0.0819874061049554" flag="0"/>
			<psa03 value="0.47815996212947" flag="0"/>
			<psa10 value="0.0429095658351873" flag="0"/>
			<psa30 value="0.00187067165870994" flag="0"/>
		</comp>
		<comp name="--.HNZ" depth="0.0">
			<acc value="0.190991113868699" flag="0"/>
			<vel value="0.064991323851116" flag="0"/>
			<psa03 value="0.296282892226196" flag="0"/>
			<psa10 value="0.0144723141527462" flag="0"/>
			<psa30 value="0.00148812579212372" flag="0"/>
		</comp>
	</station>
	<station code="VOL2" name="VOL2" netid="HI" source="ITSAK Strong Motion Network" insttype="" lat="39.366" lon="22.9506">
		<comp name="--.HNE" depth="0.0">
			<acc value="0.0254131145277278" flag="0"/>
			<vel value="0.0174161470652401" flag="0"/>
			<psa03 value="0.0857260678806087" flag="0"/>
			<psa10 value="0.0142750010215596" flag="0"/>
			<psa30 value="0.000910951326748013" flag="0"/>
		</comp>
		<comp name="--.HNN" depth="0.0">
			<acc value="0.0315508536061409" flag="0"/>
			<vel value="0.0241439122628603" flag="0"/>
			<psa03 value="0.0945850247910265" flag="0"/>
			<psa10 value="0.0208306291352688" flag="0"/>
			<psa30 value="0.00201071476542513" flag="0"/>
		</comp>
		<comp name="--.HNZ" depth="0.0">
			<acc value="0.0107383467622671" flag="0"/>
			<vel value="0.00661762912336608" flag="0"/>
			<psa03 value="0.0319011933188278" flag="0"/>
			<psa10 value="0.00858513460591399" flag="0"/>
			<psa30 value="0.000962852286425208" flag="0"/>
		</comp>
	</station>
	<station code="EFSA" name="EFSA" netid="HL" source="National Observatory of Athens Seismic Network" insttype="" lat="39.54015" lon="24.98864">
		<comp name="00.HNE" depth="0.0">
			<acc value="0.116576555368395" flag="0"/>
			<vel value="0.0740997438095891" flag="0"/>
			<psa03 value="0.308810710079312" flag="0"/>
			<psa10 value="0.0732716272463465" flag="0"/>
			<psa30 value="0.0056827076625867" flag="0"/>
		</comp>
		<comp name="00.HNN" depth="0.0">
			<acc value="0.0539917608796075" flag="0"/>
			<vel value="0.038273735203028" flag="0"/>
			<psa03 value="0.126888897969419" flag="0"/>
			<psa10 value="0.0440894178237112" flag="0"/>
			<psa30 value="0.00321875434411847" flag="0"/>
		</comp>
		<comp name="00.HNZ" depth="0.0">
			<acc value="0.0373845180597683" flag="0"/>
			<vel value="0.0224180823115787" flag="0"/>
			<psa03 value="0.128365390787822" flag="0"/>
			<psa10 value="0.0265889511270404" flag="0"/>
			<psa30 value="0.00131855282904047" flag="0"/>
		</comp>
	</station>
	<station code="KYMI" name="KYMI" netid="HL" source="National Observatory of Athens Seismic Network" insttype="" lat="38.633147" lon="24.100138">
		<comp name="--.HNE" depth="1.0">
			<acc value="0.0129845061764014" flag="0"/>
			<vel value="0.00802784815539975" flag="0"/>
			<psa03 value="0.0351673744019616" flag="0"/>
			<psa10 value="0.00643482415583984" flag="0"/>
			<psa30 value="0.000635339333979459" flag="0"/>
		</comp>
		<comp name="--.HNN" depth="1.0">
			<acc value="0.00995432187785026" flag="0"/>
			<vel value="0.00770839313144077" flag="0"/>
			<psa03 value="0.0308721225666075" flag="0"/>
			<psa10 value="0.0060683854836362" flag="0"/>
			<psa30 value="0.000586570328765543" flag="0"/>
		</comp>
		<comp name="--.HNZ" depth="1.0">
			<acc value="0.00565936482018" flag="0"/>
			<vel value="0.00355825725683642" flag="0"/>
			<psa03 value="0.0160624521759596" flag="0"/>
			<psa10 value="0.00397847701249672" flag="0"/>
			<psa30 value="0.000373150003196386" flag="0"/>
		</comp>
	</station>
	<station code="LIA" name="LIA" netid="HL" source="National Observatory of Athens Seismic Network" insttype="" lat="39.89725" lon="25.18055">
		<comp name="00.HNE" depth="0.0">
			<acc value="0.077130874139595" flag="0"/>
			<vel value="0.034579598806108" flag="0"/>
			<psa03 value="0.212122801577226" flag="0"/>
			<psa10 value="0.0230735559530427" flag="0"/>
			<psa30 value="0.00135300432813654" flag="0"/>
		</comp>
		<comp name="00.HNN" depth="0.0">
			<acc value="0.168179090718915" flag="0"/>
			<vel value="0.0784149752766881" flag="0"/>
			<psa03 value="0.581782912657388" flag="0"/>
			<psa10 value="0.0321338527932428" flag="0"/>
			<psa30 value="0.00248721926590973" flag="0"/>
		</comp>
		<comp name="00.HNZ" depth="0.0">
			<acc value="0.065589566775789" flag="0"/>
			<vel value="0.0283391846554242" flag="0"/>
			<psa03 value="0.148812579212372" flag="0"/>
			<psa10 value="0.0147139220684848" flag="0"/>
			<psa30 value="0.000945850247910265" flag="0"/>
		</comp>
	</station>
	<station code="PLG" name="PLG" netid="HL" source="National Observatory of Athens Seismic Network" insttype="" lat="40.37328" lon="23.44443">
		<comp name="--.HNE" depth="0.0">
			<acc value="0.0" flag="1"/>
			<vel value="0.0" flag="1"/>
			<psa03 value="0.0" flag="1"/>
			<psa10 value="0.0" flag="1"/>
			<psa30 value="0.0" flag="1"/>
		</comp>
		<comp name="--.HNN" depth="0.0">
			<acc value="0.0" flag="1"/>
			<vel value="0.0" flag="1"/>
			<psa03 value="0.0" flag="1"/>
			<psa10 value="0.0" flag="1"/>
			<psa30 value="0.0" flag="1"/>
		</comp>
		<comp name="--.HNZ" depth="0.0">
			<acc value="0.0" flag="1"/>
			<vel value="0.0" flag="1"/>
			<psa03 value="0.0" flag="1"/>
			<psa10 value="0.0" flag="1"/>
			<psa30 value="0.0" flag="1"/>
		</comp>
	</station>
	<station code="SMTH" name="SMTH" netid="HL" source="National Observatory of Athens Seismic Network" insttype="" lat="40.47094" lon="25.53045">
		<comp name="00.HNE" depth="0.0">
			<acc value="0.0327147156887652" flag="0"/>
			<vel value="0.0169099849968844" flag="0"/>
			<psa03 value="0.0716770150024714" flag="0"/>
			<psa10 value="0.00879050133429185" flag="0"/>
			<psa30 value="0.00099775120758746" flag="0"/>
		</comp>
		<comp name="00.HNN" depth="0.0">
			<acc value="0.0344818231751385" flag="0"/>
			<vel value="0.0234259578032727" flag="0"/>
			<psa03 value="0.0826835978305662" flag="0"/>
			<psa10 value="0.0191715881138633" flag="0"/>
			<psa30 value="0.00125233436324543" flag="0"/>
		</comp>
		<comp name="00.HNZ" depth="0.0">
			<acc value="0.0239765632957848" flag="0"/>
			<vel value="0.0113674801048901" flag="0"/>
			<psa03 value="0.0337356237901769" flag="0"/>
			<psa10 value="0.0162763199235949" flag="0"/>
			<psa30 value="0.000978959480807786" flag="0"/>
		</comp>
	</station>
</stationlist>
