<?xml version="1.0" encoding="UTF-8" standalone="yes"?>
<!DOCTYPE earthquake SYSTEM "stationlist.dtd">
<stationlist created="" xmlns="ch.ethz.sed.shakemap.usgs.xml">
  <station code="LMN1" name="LMN1" netid="HI" insttype="CMG-5TD,ACCELEROMETER,GURALP" lat="39.875" lon="25.0588">
    <comp name="--.HNE">
      <acc value="0.2509993959" flag="0"/>
      <vel value="0.0867148900" flag="0"/>
      <psa03 value="0.6944252482" flag="0"/>
      <psa10 value="0.0243873241" flag="0"/>
      <psa30 value="0.0018040706" flag="0"/>
    </comp>
    <comp name="--.HNN">
      <acc value="0.3043571908" flag="0"/>
      <vel value="0.1102330760" flag="0"/>
      <psa03 value="0.6022997795" flag="0"/>
      <psa10 value="0.0242627975" flag="0"/>
      <psa30 value="0.0024006978" flag="0"/>
    </comp>
    <comp name="--.HNZ">
      <acc value="0.2613575066" flag="0"/>
      <vel value="0.0560248890" flag="0"/>
      <psa03 value="0.1811305546" flag="0"/>
      <psa10 value="0.0082230209" flag="0"/>
      <psa30 value="0.0008037969" flag="0"/>
    </comp>
  </station>
  <station code="SKO1" name="SKO1" netid="HI" insttype="CMG-5TD,ACCELEROMETER,GURALP" lat="39.1234" lon="23.7287">
    <comp name="--.HNN">
      <acc value="0.0184614835" flag="0"/>
      <vel value="0.0090005981" flag="0"/>
      <psa03 value="0.0335164217" flag="0"/>
      <psa10 value="0.0059139323" flag="0"/>
      <psa30 value="0.0012500953" flag="0"/>
    </comp>
    <comp name="--.HNE">
      <acc value="0.0151358032" flag="0"/>
      <vel value="0.0076036767" flag="0"/>
      <psa03 value="0.0407467815" flag="0"/>
      <psa10 value="0.0070786630" flag="0"/>
      <psa30 value="0.0012177682" flag="0"/>
    </comp>
    <comp name="--.HNZ">
      <acc value="0.0118854514" flag="0"/>
      <vel value="0.0059731932" flag="0"/>
      <psa03 value="0.0283586091" flag="0"/>
      <psa10 value="0.0066734263" flag="0"/>
      <psa30 value="0.0004510214" flag="0"/>
    </comp>
  </station>
  <station code="THS1" name="THS1" netid="HI" insttype="CMG-5TD,ACCELEROMETER,GURALP" lat="40.7385" lon="24.5751">
    <comp name="--.HNZ">
      <acc value="0.1917962120" flag="0"/>
      <vel value="0.0640194179" flag="0"/>
      <psa03 value="0.2945207601" flag="0"/>
      <psa10 value="0.0144054722" flag="0"/>
      <psa30 value="0.0014302964" flag="0"/>
    </comp>
    <comp name="--.HNE">
      <acc value="0.2165104367" flag="0"/>
      <vel value="0.0913969258" flag="0"/>
      <psa03 value="0.3501949785" flag="0"/>
      <psa10 value="0.0336162664" flag="0"/>
      <psa30 value="0.0022185976" flag="0"/>
    </comp>
    <comp name="--.HNN">
      <acc value="0.2529950267" flag="0"/>
      <vel value="0.0813225835" flag="0"/>
      <psa03 value="0.4739767417" flag="0"/>
      <psa10 value="0.0428069327" flag="0"/>
      <psa30 value="0.0018301589" flag="0"/>
    </comp>
  </station>
  <station code="EFSA" name="EFSA" netid="HL" insttype="CMG-5" lat="39.5401" lon="24.9886">
    <comp name="00.HNN">
      <acc value="0.0536732020" flag="0"/>
      <vel value="0.0378469962" flag="0"/>
      <psa03 value="0.1265615510" flag="0"/>
      <psa10 value="0.0441372879" flag="0"/>
      <psa30 value="0.0031259648" flag="0"/>
    </comp>
    <comp name="00.HNE">
      <acc value="0.1166912074" flag="0"/>
      <vel value="0.0731926592" flag="0"/>
      <psa03 value="0.3090678686" flag="0"/>
      <psa10 value="0.0731405065" flag="0"/>
      <psa30 value="0.0056334692" flag="0"/>
    </comp>
    <comp name="00.HNZ">
      <acc value="0.0374311973" flag="0"/>
      <vel value="0.0223231582" flag="0"/>
      <psa03 value="0.1283111298" flag="0"/>
      <psa10 value="0.0265614160" flag="0"/>
      <psa30 value="0.0013065312" flag="0"/>
    </comp>
  </station>
  <station code="KYMI" name="KYMI" netid="HL" insttype="60" lat="38.6331" lon="24.1001">
    <comp name="--.HHE">
      <acc value="0.0132015681" flag="0"/>
      <vel value="0.0082573269" flag="0"/>
      <psa03 value="0.0359247882" flag="0"/>
      <psa10 value="0.0064882336" flag="0"/>
      <psa30 value="0.0005761462" flag="0"/>
    </comp>
    <comp name="--.HHZ">
      <acc value="0.0058362010" flag="0"/>
      <vel value="0.0035556036" flag="0"/>
      <psa03 value="0.0166494820" flag="0"/>
      <psa10 value="0.0039907054" flag="0"/>
      <psa30 value="0.0003510972" flag="0"/>
    </comp>
    <comp name="--.HHN">
      <acc value="0.0099139084" flag="0"/>
      <vel value="0.0076469293" flag="0"/>
      <psa03 value="0.0310621641" flag="0"/>
      <psa10 value="0.0060006479" flag="0"/>
      <psa30 value="0.0005342323" flag="0"/>
    </comp>
  </station>
  <station code="LIA" name="LIA" netid="HL" insttype="P6C" lat="39.8972" lon="25.1806">
    <comp name="--.HHN">
      <acc value="0.1570995534" flag="0"/>
      <vel value="0.0734869614" flag="0"/>
      <psa03 value="0.5580566145" flag="0"/>
      <psa10 value="0.0306710486" flag="0"/>
      <psa30 value="0.0024475675" flag="0"/>
    </comp>
    <comp name="--.HHZ">
      <acc value="0.0685935173" flag="0"/>
      <vel value="0.0294652688" flag="0"/>
      <psa03 value="0.1535192472" flag="0"/>
      <psa10 value="0.0148535735" flag="0"/>
      <psa30 value="0.0010672378" flag="0"/>
    </comp>
    <comp name="--.HHE">
      <acc value="0.0761128900" flag="0"/>
      <vel value="0.0407731128" flag="0"/>
      <psa03 value="0.2745828109" flag="0"/>
      <psa10 value="0.0223247434" flag="0"/>
      <psa30 value="0.0016581997" flag="0"/>
    </comp>
  </station>
  <station code="NEO" name="NEO" netid="HL" insttype="120" lat="39.3057" lon="23.2219">
    <comp name="--.HHE">
      <acc value="0.0294331417" flag="0"/>
      <vel value="0.0202855305" flag="0"/>
      <psa03 value="0.0760009765" flag="0"/>
      <psa10 value="0.0121696833" flag="0"/>
      <psa30 value="0.0013345374" flag="0"/>
    </comp>
    <comp name="--.HHZ">
      <acc value="0.0179153144" flag="0"/>
      <vel value="0.0093338967" flag="0"/>
      <psa03 value="0.0650352187" flag="0"/>
      <psa10 value="0.0180675634" flag="0"/>
      <psa30 value="0.0009152037" flag="0"/>
    </comp>
    <comp name="--.HHN">
      <acc value="0.0222987862" flag="0"/>
      <vel value="0.0167322281" flag="0"/>
      <psa03 value="0.0584821598" flag="0"/>
      <psa10 value="0.0199558775" flag="0"/>
      <psa30 value="0.0017839994" flag="0"/>
    </comp>
  </station>
  <station code="PLG" name="PLG" netid="HL" insttype="CMG3ESPC-120s" lat="40.3733" lon="23.4444">
    <comp name="--.HHZ">
      <acc value="0.0575438426" flag="0"/>
      <vel value="0.0267644746" flag="0"/>
      <psa03 value="0.1017160760" flag="0"/>
      <psa10 value="0.0157760827" flag="0"/>
      <psa30 value="0.0014062478" flag="0"/>
    </comp>
  </station>
  <station code="SMTH" name="SMTH" netid="HL" insttype="CMG3ESPC60_P6C" lat="40.4709" lon="25.5304">
    <comp name="--.HHE">
      <acc value="0.0335679223" flag="0"/>
      <vel value="0.0173606146" flag="0"/>
      <psa03 value="0.0753782616" flag="0"/>
      <psa10 value="0.0090843795" flag="0"/>
      <psa30 value="0.0009850443" flag="0"/>
    </comp>
    <comp name="--.HHN">
      <acc value="0.0348018548" flag="0"/>
      <vel value="0.0236866472" flag="0"/>
      <psa03 value="0.0808150195" flag="0"/>
      <psa10 value="0.0193328921" flag="0"/>
      <psa30 value="0.0012352584" flag="0"/>
    </comp>
    <comp name="--.HHZ">
      <acc value="0.0239771519" flag="0"/>
      <vel value="0.0114105447" flag="0"/>
      <psa03 value="0.0332758391" flag="0"/>
      <psa10 value="0.0162617402" flag="0"/>
      <psa30 value="0.0009514213" flag="0"/>
    </comp>
  </station>
  <station code="AOS2" name="AOS2" netid="HT" insttype="100" lat="39.1478" lon="23.8436">
    <comp name="--.HHE">
      <acc value="0.0255628966" flag="0"/>
      <vel value="0.0156000575" flag="0"/>
      <psa03 value="0.1041258821" flag="0"/>
      <psa10 value="0.0190404058" flag="0"/>
      <psa30 value="0.0014652277" flag="0"/>
    </comp>
    <comp name="--.HHN">
      <acc value="0.0262500006" flag="0"/>
      <vel value="0.0143413207" flag="0"/>
      <psa03 value="0.0590915630" flag="0"/>
      <psa10 value="0.0207695250" flag="0"/>
      <psa30 value="0.0007621989" flag="0"/>
    </comp>
    <comp name="--.HHZ">
      <acc value="0.0250564299" flag="0"/>
      <vel value="0.0169000647" flag="0"/>
      <psa03 value="0.0446630508" flag="0"/>
      <psa10 value="0.0114426888" flag="0"/>
      <psa30 value="0.0008433340" flag="0"/>
    </comp>
  </station>
  <station code="KAVA" name="KAVA" netid="HT" insttype="Compact," lat="40.9967" lon="24.5137">
    <comp name="--.HHN">
      <acc value="0.1028792766" flag="0"/>
      <vel value="0.0253475158" flag="0"/>
      <psa03 value="0.1425755343" flag="0"/>
      <psa10 value="0.0091920560" flag="0"/>
      <psa30 value="0.0011222394" flag="0"/>
    </comp>
    <comp name="--.HHE">
      <acc value="0.1204321354" flag="0"/>
      <vel value="0.0328657672" flag="0"/>
      <psa03 value="0.1342429716" flag="0"/>
      <psa10 value="0.0183058845" flag="0"/>
      <psa30 value="0.0020790425" flag="0"/>
    </comp>
    <comp name="--.HHZ">
      <acc value="0.0721007320" flag="0"/>
      <vel value="0.0181285633" flag="0"/>
      <psa03 value="0.0880416275" flag="0"/>
      <psa10 value="0.0109354405" flag="0"/>
      <psa30 value="0.0013657849" flag="0"/>
    </comp>
  </station>
  <station code="OUR" name="OUR" netid="HT" insttype="100" lat="40.3325" lon="23.9791">
    <comp name="--.HHE">
      <acc value="0.3530073700" flag="0"/>
      <vel value="0.0915855997" flag="0"/>
      <psa03 value="0.4626655478" flag="0"/>
      <psa10 value="0.0268749365" flag="0"/>
      <psa30 value="0.0038263708" flag="0"/>
    </comp>
    <comp name="--.HHN">
      <acc value="0.4205925026" flag="0"/>
      <vel value="0.1502836311" flag="0"/>
      <psa03 value="0.4288472977" flag="0"/>
      <psa10 value="0.0405568814" flag="0"/>
      <psa30 value="0.0045614753" flag="0"/>
    </comp>
    <comp name="--.HHZ">
      <acc value="0.1978860222" flag="0"/>
      <vel value="0.0507429372" flag="0"/>
      <psa03 value="0.1521038083" flag="0"/>
      <psa10 value="0.0208490862" flag="0"/>
      <psa30 value="0.0014791314" flag="0"/>
    </comp>
  </station>
  <station code="PAIG" name="PAIG" netid="HT" insttype="100" lat="39.9363" lon="23.6768">
    <comp name="--.HHN">
      <acc value="0.0282284655" flag="0"/>
      <vel value="0.0142794506" flag="0"/>
      <psa03 value="0.0899474657" flag="0"/>
      <psa10 value="0.0139817787" flag="0"/>
      <psa30 value="0.0011750189" flag="0"/>
    </comp>
    <comp name="--.HHZ">
      <acc value="0.0195024656" flag="0"/>
      <vel value="0.0122313816" flag="0"/>
      <psa03 value="0.0547409252" flag="0"/>
      <psa10 value="0.0101709299" flag="0"/>
      <psa30 value="0.0006170098" flag="0"/>
    </comp>
    <comp name="--.HHE">
      <acc value="0.0320997126" flag="0"/>
      <vel value="0.0157416638" flag="0"/>
      <psa03 value="0.0596539258" flag="0"/>
      <psa10 value="0.0108555004" flag="0"/>
      <psa30 value="0.0007135872" flag="0"/>
    </comp>
  </station>
  <station code="SOH" name="SOH" netid="HT" insttype="120P," lat="40.8217" lon="23.3539">
    <comp name="--.HHZ">
      <acc value="0.0195124665" flag="0"/>
      <vel value="0.0095999059" flag="0"/>
      <psa03 value="0.0490555111" flag="0"/>
      <psa10 value="0.0127332472" flag="0"/>
      <psa30 value="0.0006067044" flag="0"/>
    </comp>
    <comp name="--.HHE">
      <acc value="0.0291500858" flag="0"/>
      <vel value="0.0169042817" flag="0"/>
      <psa03 value="0.0898031335" flag="0"/>
      <psa10 value="0.0278635714" flag="0"/>
      <psa30 value="0.0015455808" flag="0"/>
    </comp>
    <comp name="--.HHN">
      <acc value="0.0227780202" flag="0"/>
      <vel value="0.0130547302" flag="0"/>
      <psa03 value="0.0691774077" flag="0"/>
      <psa10 value="0.0122177660" flag="0"/>
      <psa30 value="0.0021793059" flag="0"/>
    </comp>
  </station>
  <station code="SRS" name="SRS" netid="HT" insttype="100" lat="41.1087" lon="23.595">
    <comp name="--.HHZ">
      <acc value="0.0163089361" flag="0"/>
      <vel value="0.0047589864" flag="0"/>
      <psa03 value="0.0197784820" flag="0"/>
      <psa10 value="0.0044857465" flag="0"/>
      <psa30 value="0.0006496623" flag="0"/>
    </comp>
    <comp name="--.HHN">
      <acc value="0.0240851804" flag="0"/>
      <vel value="0.0072414513" flag="0"/>
      <psa03 value="0.0354937800" flag="0"/>
      <psa10 value="0.0052091799" flag="0"/>
      <psa30 value="0.0008970041" flag="0"/>
    </comp>
  </station>
  <station code="THAS" name="THAS" netid="HT" insttype="100" lat="40.6064" lon="24.7194">
    <comp name="--.HHZ">
      <acc value="0.1743663021" flag="0"/>
      <vel value="0.0610043095" flag="0"/>
      <psa03 value="0.2104148978" flag="0"/>
      <psa10 value="0.0451215217" flag="0"/>
      <psa30 value="0.0027573973" flag="0"/>
    </comp>
    <comp name="--.HHE">
      <acc value="0.2256669989" flag="0"/>
      <vel value="0.0885808383" flag="0"/>
      <psa03 value="0.2658360284" flag="0"/>
      <psa10 value="0.0532135946" flag="0"/>
      <psa30 value="0.0042729726" flag="0"/>
    </comp>
    <comp name="--.HHN">
      <acc value="0.2095121889" flag="0"/>
      <vel value="0.0736564031" flag="0"/>
      <psa03 value="0.3099004769" flag="0"/>
      <psa10 value="0.0381767673" flag="0"/>
      <psa30 value="0.0024654368" flag="0"/>
    </comp>
  </station>
  <station code="THE" name="THE" netid="HT" insttype="30s-100Hz," lat="40.6319" lon="22.9628">
    <comp name="--.HHE">
      <acc value="0.0055081256" flag="0"/>
      <vel value="0.0029325008" flag="0"/>
      <psa03 value="0.0125142011" flag="0"/>
      <psa10 value="0.0037426739" flag="0"/>
      <psa30 value="0.0004176339" flag="0"/>
    </comp>
    <comp name="--.HHZ">
      <acc value="0.0047180196" flag="0"/>
      <vel value="0.0027684640" flag="0"/>
      <psa03 value="0.0092993918" flag="0"/>
      <psa10 value="0.0031194888" flag="0"/>
      <psa30 value="0.0003970352" flag="0"/>
    </comp>
    <comp name="--.HHN">
      <acc value="0.0043539107" flag="0"/>
      <vel value="0.0029433620" flag="0"/>
      <psa03 value="0.0095805201" flag="0"/>
      <psa10 value="0.0056397873" flag="0"/>
      <psa30 value="0.0004683430" flag="0"/>
    </comp>
  </station>
  <station code="XOR" name="XOR" netid="HT" insttype="Compact," lat="39.366" lon="23.1918">
    <comp name="--.HHN">
      <acc value="0.0249846323" flag="0"/>
      <vel value="0.0152872919" flag="0"/>
      <psa03 value="0.0664843091" flag="0"/>
      <psa10 value="0.0170159434" flag="0"/>
      <psa30 value="0.0012097605" flag="0"/>
    </comp>
    <comp name="--.HHE">
      <acc value="0.0177945969" flag="0"/>
      <vel value="0.0134926884" flag="0"/>
      <psa03 value="0.0489913475" flag="0"/>
      <psa10 value="0.0156142634" flag="0"/>
      <psa30 value="0.0009461974" flag="0"/>
    </comp>
    <comp name="--.HHZ">
      <acc value="0.0150110354" flag="0"/>
      <vel value="0.0094812905" flag="0"/>
      <psa03 value="0.0387599990" flag="0"/>
      <psa10 value="0.0127300880" flag="0"/>
      <psa30 value="0.0014843851" flag="0"/>
    </comp>
  </station>
</stationlist>
