<?xml version="1.0" encoding="UTF-8" standalone="yes"?>
<!DOCTYPE earthquake SYSTEM "stationlist.dtd">
<stationlist created="" xmlns="ch.ethz.sed.shakemap.usgs.xml">
  <station code="BEHE" name="BEHE" netid="HU" insttype="" lat="46.4703" lon="16.7755">
    <comp name="--.HHE">
      <acc value="0.0656477806" flag="0"/>
      <vel value="0.0311668901" flag="0"/>
      <psa03 value="0.1697116533" flag="0"/>
      <psa10 value="0.0220797076" flag="0"/>
      <psa30 value="0.0012694185" flag="0"/>
    </comp>
    <comp name="--.HHZ">
      <acc value="0.0363680525" flag="0"/>
      <vel value="0.0175713184" flag="0"/>
      <psa03 value="0.0954079754" flag="0"/>
      <psa10 value="0.0086524377" flag="0"/>
      <psa30 value="0.0008798030" flag="0"/>
    </comp>
    <comp name="--.HHN">
      <acc value="0.0449423932" flag="0"/>
      <vel value="0.0210726813" flag="0"/>
      <psa03 value="0.1378719894" flag="0"/>
      <psa10 value="0.0315547081" flag="0"/>
      <psa30 value="0.0021358660" flag="0"/>
    </comp>
  </station>
  <station code="KOVH" name="KOVH" netid="HU" insttype="" lat="46.0883" lon="18.0999">
    <comp name="--.HHE">
      <acc value="0.0274249621" flag="0"/>
      <vel value="0.0105364225" flag="0"/>
      <psa03 value="0.0421619313" flag="0"/>
      <psa10 value="0.0072839411" flag="0"/>
      <psa30 value="0.0007218302" flag="0"/>
    </comp>
    <comp name="--.HHN">
      <acc value="0.0253005884" flag="0"/>
      <vel value="0.0141379008" flag="0"/>
      <psa03 value="0.0625980465" flag="0"/>
      <psa10 value="0.0118982433" flag="0"/>
      <psa30 value="0.0012247468" flag="0"/>
    </comp>
    <comp name="--.HHZ">
      <acc value="0.0140897269" flag="0"/>
      <vel value="0.0078786339" flag="0"/>
      <psa03 value="0.0366865574" flag="0"/>
      <psa10 value="0.0068743867" flag="0"/>
      <psa30 value="0.0007253890" flag="0"/>
    </comp>
  </station>
  <station code="BLY" name="BLY" netid="MN" insttype="" lat="44.7488" lon="17.1839">
    <comp name="--.HHN">
      <acc value="0.0438524445" flag="0"/>
      <vel value="0.0189681195" flag="0"/>
      <psa03 value="0.0940766997" flag="0"/>
      <psa10 value="0.0198620268" flag="0"/>
      <psa30 value="0.0017095969" flag="0"/>
    </comp>
    <comp name="--.HHZ">
      <acc value="0.0401541974" flag="0"/>
      <vel value="0.0169973275" flag="0"/>
      <psa03 value="0.0849102650" flag="0"/>
      <psa10 value="0.0135686273" flag="0"/>
      <psa30 value="0.0014816613" flag="0"/>
    </comp>
    <comp name="--.HHE">
      <acc value="0.0582750609" flag="0"/>
      <vel value="0.0287182520" flag="0"/>
      <psa03 value="0.1294779688" flag="0"/>
      <psa10 value="0.0285395831" flag="0"/>
      <psa30 value="0.0035952265" flag="0"/>
    </comp>
  </station>
  <station code="SOKA" name="SOKA" netid="OE" source="ODC" insttype="STS-2" lat="46.678" lon="15.0327">
    <comp name="--.HHZ">
      <acc value="0.0132507782" flag="0"/>
      <vel value="0.0075857618" flag="0"/>
      <psa03 value="0.0374259935" flag="0"/>
      <psa10 value="0.0093298556" flag="0"/>
      <psa30 value="0.0007760680" flag="0"/>
    </comp>
    <comp name="--.HHE">
      <acc value="0.0052031811" flag="0"/>
      <vel value="0.0034764136" flag="0"/>
      <psa03 value="0.0157808231" flag="0"/>
      <psa10 value="0.0039972241" flag="0"/>
      <psa30 value="0.0007110510" flag="0"/>
    </comp>
    <comp name="--.HHN">
      <acc value="0.0069809110" flag="0"/>
      <vel value="0.0045654530" flag="0"/>
      <psa03 value="0.0353542095" flag="0"/>
      <psa10 value="0.0072415355" flag="0"/>
      <psa30 value="0.0010248936" flag="0"/>
    </comp>
  </station>
</stationlist>
