<stationlist xmlns:esm="https://esm-db.eu/esmws/shakemap/1/" created="1784685233">
	<station code="BLY" name="BLY" netid="MN" source="Mediterranean Very Broadband Seismographic Network (MedNet)" insttype="" lat="44.7488" lon="17.1839" esm:processing="manual (Paolucci et al 2011)" esm:quality="best">
		<comp name="--.HNE" depth="1.0">
			<acc value="0.0565110255284746" flag="0"/>
			<vel value="0.0292171055507683" flag="0"/>
			<psa03 value="0.126486218109854" flag="0"/>
			<psa10 value="0.0285419484459279" flag="0"/>
			<psa30 value="0.00367646711782339" flag="0"/>
		</comp>
		<comp name="--.HNN" depth="1.0">
			<acc value="0.0461868973618573" flag="0"/>
			<vel value="0.0187534693579822" flag="0"/>
			<psa03 value="0.0934664696255697" flag="0"/>
			<psa10 value="0.0192239364956066" flag="0"/>
			<psa30 value="0.00178431919993668" flag="0"/>
		</comp>
		<comp name="--.HNZ" depth="1.0">
			<acc value="0.0396846430174359" flag="0"/>
			<vel value="0.0169944777490187" flag="0"/>
			<psa03 value="0.0842495750622057" flag="0"/>
			<psa10 value="0.0136307132462565" flag="0"/>
			<psa30 value="0.00152347213535215" flag="0"/>
		</comp>
	</station>
	<station code="DST2" name="DST2" netid="NI" source="North-East Italy Broadband Network (NI)" insttype="" lat="45.6589" lon="13.8013" esm:processing="manual (Paolucci et al 2011)" esm:quality="best">
		<comp name="--.HNE" depth="0.0">
			<acc value="0.0276992286927814" flag="0"/>
			<vel value="0.0125431328399001" flag="0"/>
			<psa03 value="0.0880079204181406" flag="0"/>
			<psa10 value="0.0100227017045591" flag="0"/>
			<psa30 value="0.000752563915319331" flag="0"/>
		</comp>
		<comp name="--.HNN" depth="0.0">
			<acc value="0.0363185653711428" flag="0"/>
			<vel value="0.0203587630586896" flag="0"/>
			<psa03 value="0.117135096926635" flag="0"/>
			<psa10 value="0.0136347400448521" flag="0"/>
			<psa30 value="0.0013825341845046" flag="0"/>
		</comp>
		<comp name="--.HNZ" depth="0.0">
			<acc value="0.029124093672113" flag="0"/>
			<vel value="0.0123762077893044" flag="0"/>
			<psa03 value="0.105994287478686" flag="0"/>
			<psa10 value="0.0078804448516762" flag="0"/>
			<psa30 value="0.000851891614011894" flag="0"/>
		</comp>
	</station>
	<station code="ACOM" name="ACOM" netid="OX" source="North-East Italy Seismic Network" insttype="" lat="46.548" lon="13.5137" esm:processing="manual (Paolucci et al 2011)" esm:quality="good">
		<comp name="--.HNE" depth="0.0">
			<acc value="0.0185864920602866" flag="0"/>
			<vel value="0.00974338008364778" flag="0"/>
			<psa03 value="0.0587017750831725" flag="0"/>
			<psa10 value="0.0123985128759893" flag="0"/>
			<psa30 value="0.00129886625812843" flag="0"/>
		</comp>
		<comp name="--.HNN" depth="0.0">
			<acc value="0.0112312848647218" flag="0"/>
			<vel value="0.00975033831209701" flag="0"/>
			<psa03 value="0.0340935614431231" flag="0"/>
			<psa10 value="0.015346129448001" flag="0"/>
			<psa30 value="0.00102817590808788" flag="0"/>
		</comp>
		<comp name="--.HNZ" depth="0.0">
			<acc value="0.0063699508397101" flag="0"/>
			<vel value="0.00344071275303957" flag="0"/>
			<psa03 value="0.0193733754657117" flag="0"/>
			<psa10 value="0.00691401318872153" flag="0"/>
			<psa30 value="0.000593729081824466" flag="0"/>
		</comp>
	</station>
	<station code="DRE" name="DRE" netid="OX" source="North-East Italy Seismic Network" insttype="" lat="46.1733" lon="13.645" esm:processing="manual (Paolucci et al 2011)" esm:quality="best">
		<comp name="--.HNE" depth="0.0">
			<acc value="0.0225638377548027" flag="0"/>
			<vel value="0.0105874370105676" flag="0"/>
			<psa03 value="0.0474267390153681" flag="0"/>
			<psa10 value="0.00758246175559851" flag="0"/>
			<psa30 value="0.000926163676998225" flag="0"/>
		</comp>
		<comp name="--.HNN" depth="0.0">
			<acc value="0.0256491997217041" flag="0"/>
			<vel value="0.00878618144478082" flag="0"/>
			<psa03 value="0.0546302342809098" flag="0"/>
			<psa10 value="0.00885895691041781" flag="0"/>
			<psa30 value="0.000682766072994827" flag="0"/>
		</comp>
		<comp name="--.HNZ" depth="0.0">
			<acc value="0.00899476201808428" flag="0"/>
			<vel value="0.00490030362947992" flag="0"/>
			<psa03 value="0.0229080097885551" flag="0"/>
			<psa10 value="0.00735696103424242" flag="0"/>
			<psa30 value="0.000616100185133602" flag="0"/>
		</comp>
	</station>
	<station code="PRED" name="PRED" netid="OX" source="North-East Italy Seismic Network" insttype="" lat="46.4428" lon="13.565" esm:processing="manual (Paolucci et al 2011)" esm:quality="best">
		<comp name="--.HNE" depth="0.0">
			<acc value="0.00232582518950544" flag="0"/>
			<vel value="0.00188842371268882" flag="0"/>
			<psa03 value="0.00756143291848793" flag="0"/>
			<psa10 value="0.00368452071501468" flag="0"/>
			<psa30 value="0.000663974346215153" flag="0"/>
		</comp>
		<comp name="--.HNN" depth="0.0">
			<acc value="0.00323040505495554" flag="0"/>
			<vel value="0.00340579941386498" flag="0"/>
			<psa03 value="0.0135121463987181" flag="0"/>
			<psa10 value="0.00671267325893931" flag="0"/>
			<psa30 value="0.000493506538999537" flag="0"/>
		</comp>
		<comp name="--.HNZ" depth="0.0">
			<acc value="0.00357427356493701" flag="0"/>
			<vel value="0.00355084766277692" flag="0"/>
			<psa03 value="0.011364520481041" flag="0"/>
			<psa10 value="0.00676904843927833" flag="0"/>
			<psa30 value="0.000548092031073829" flag="0"/>
		</comp>
	</station>
	<station code="BOJS" name="BOJS" netid="SL" source="Seismic Network of the Republic of Slovenia (SNRS)" insttype="" lat="45.5043" lon="15.2518" esm:processing="manual (Paolucci et al 2011)" esm:quality="good">
		<comp name="--.HNE" depth="0.0">
			<acc value="0.10045723134854" flag="0"/>
			<vel value="0.0269621288904042" flag="0"/>
			<psa03 value="0.192480972871805" flag="0"/>
			<psa10 value="0.0106226946953101" flag="0"/>
			<psa30 value="0.00124159623365704" flag="0"/>
		</comp>
		<comp name="--.HNN" depth="0.0">
			<acc value="0.0871382584952872" flag="0"/>
			<vel value="0.0319881798354804" flag="0"/>
			<psa03 value="0.150333814237393" flag="0"/>
			<psa10 value="0.0151729771083883" flag="0"/>
			<psa30 value="0.00100983160337439" flag="0"/>
		</comp>
		<comp name="--.HNZ" depth="0.0">
			<acc value="0.0739599511505907" flag="0"/>
			<vel value="0.0166435311971011" flag="0"/>
			<psa03 value="0.0989250188329989" flag="0"/>
			<psa10 value="0.00987773695511585" flag="0"/>
			<psa30 value="0.00125636116184107" flag="0"/>
		</comp>
	</station>
	<station code="BZKE" name="BZKE" netid="SL" source="Seismic Network of the Republic of Slovenia (SNRS)" insttype="" lat="46.038" lon="14.5645" esm:processing="manual (Paolucci et al 2011)" esm:quality="good">
		<comp name="--.HN1" depth="0.0">
			<acc value="0.0364240937045132" flag="0"/>
			<vel value="0.0143734289001302" flag="0"/>
			<psa03 value="0.0789367552140794" flag="0"/>
			<psa10 value="0.0143971634289149" flag="0"/>
			<psa30 value="0.00193005660677858" flag="0"/>
		</comp>
		<comp name="--.HN2" depth="0.0">
			<acc value="0.040449862848988" flag="0"/>
			<vel value="0.0182480617797629" flag="0"/>
			<psa03 value="0.0930403301317884" flag="0"/>
			<psa10 value="0.0158894294717228" flag="0"/>
			<psa30 value="0.00106311584287391" flag="0"/>
		</comp>
		<comp name="--.HNZ" depth="0.0">
			<acc value="0.0151154601922978" flag="0"/>
			<vel value="0.00817411476023563" flag="0"/>
			<psa03 value="0.0372023108246925" flag="0"/>
			<psa10 value="0.0119824281520569" flag="0"/>
			<psa30 value="0.00136837919007215" flag="0"/>
		</comp>
	</station>
	<station code="CADS" name="CADS" netid="SL" source="Seismic Network of the Republic of Slovenia (SNRS)" insttype="" lat="46.2281" lon="13.7368" esm:processing="manual (Paolucci et al 2011)" esm:quality="best">
		<comp name="--.HNE" depth="0.0">
			<acc value="0.0229782593057973" flag="0"/>
			<vel value="0.0109820316523388" flag="0"/>
			<psa03 value="0.0446527222050352" flag="0"/>
			<psa10 value="0.00862942939046607" flag="0"/>
			<psa30 value="0.000619679561663064" flag="0"/>
		</comp>
		<comp name="--.HNN" depth="0.0">
			<acc value="0.017439327163899" flag="0"/>
			<vel value="0.0134233774313475" flag="0"/>
			<psa03 value="0.0728850545811647" flag="0"/>
			<psa10 value="0.0111340981169569" flag="0"/>
			<psa30 value="0.00110110570487567" flag="0"/>
		</comp>
		<comp name="--.HNZ" depth="0.0">
			<acc value="0.00968782686142546" flag="0"/>
			<vel value="0.00500643001140649" flag="0"/>
			<psa03 value="0.0306931537401344" flag="0"/>
			<psa10 value="0.00690998639012589" flag="0"/>
			<psa30 value="0.000510955999580663" flag="0"/>
		</comp>
	</station>
	<station code="CEY" name="CEY" netid="SL" source="Seismic Network of the Republic of Slovenia (SNRS)" insttype="" lat="45.7381" lon="14.4221" esm:processing="manual (Paolucci et al 2011)" esm:quality="best">
		<comp name="--.HNE" depth="0.0">
			<acc value="0.0402690284749935" flag="0"/>
			<vel value="0.0199066991975351" flag="0"/>
			<psa03 value="0.160535037346359" flag="0"/>
			<psa10 value="0.0138763479605908" flag="0"/>
			<psa30 value="0.00143085576765233" flag="0"/>
		</comp>
		<comp name="--.HNN" depth="0.0">
			<acc value="0.0497166871570215" flag="0"/>
			<vel value="0.0200619743475089" flag="0"/>
			<psa03 value="0.0918110079806937" flag="0"/>
			<psa10 value="0.0147300292628674" flag="0"/>
			<psa30 value="0.000978512058741603" flag="0"/>
		</comp>
		<comp name="--.HNZ" depth="0.0">
			<acc value="0.0548211254209315" flag="0"/>
			<vel value="0.0303211097177684" flag="0"/>
			<psa03 value="0.216149600172871" flag="0"/>
			<psa10 value="0.0142750010215596" flag="0"/>
			<psa30 value="0.00131542087457719" flag="0"/>
		</comp>
	</station>
	<station code="CRES" name="CRES" netid="SL" source="Seismic Network of the Republic of Slovenia (SNRS)" insttype="" lat="45.826" lon="15.4569" esm:processing="manual (Paolucci et al 2011)" esm:quality="good">
		<comp name="--.HNE" depth="0.0">
			<acc value="0.222593683715534" flag="0"/>
			<vel value="0.0695049955235954" flag="0"/>
			<psa03 value="0.641692727319254" flag="0"/>
			<psa10 value="0.0240037464286366" flag="0"/>
			<psa30 value="0.00294537946168083" flag="0"/>
		</comp>
		<comp name="--.HNN" depth="0.0">
			<acc value="0.142459480274723" flag="0"/>
			<vel value="0.0474047662902822" flag="0"/>
			<psa03 value="0.415162935210944" flag="0"/>
			<psa10 value="0.0376264060777018" flag="0"/>
			<psa30 value="0.00268855919569195" flag="0"/>
		</comp>
		<comp name="--.HNZ" depth="0.0">
			<acc value="0.0756351084617565" flag="0"/>
			<vel value="0.0278891913108169" flag="0"/>
			<psa03 value="0.244337190342382" flag="0"/>
			<psa10 value="0.013477694899622" flag="0"/>
			<psa30 value="0.00141743310566685" flag="0"/>
		</comp>
	</station>
	<station code="CRNS" name="CRNS" netid="SL" source="Seismic Network of the Republic of Slovenia (SNRS)" insttype="" lat="46.0807" lon="14.2613" esm:processing="manual (Paolucci et al 2011)" esm:quality="good">
		<comp name="--.HNE" depth="0.0">
			<acc value="0.0711401178436478" flag="0"/>
			<vel value="0.0267266364702246" flag="0"/>
			<psa03 value="0.230735559530427" flag="0"/>
			<psa10 value="0.0117059035175384" flag="0"/>
			<psa30 value="0.00174852543464206" flag="0"/>
		</comp>
		<comp name="--.HNN" depth="0.0">
			<acc value="0.0443345239842888" flag="0"/>
			<vel value="0.0215939831263138" flag="0"/>
			<psa03 value="0.129618172573133" flag="0"/>
			<psa10 value="0.0127850855411712" flag="0"/>
			<psa30 value="0.00183577273754769" flag="0"/>
		</comp>
		<comp name="--.HNZ" depth="0.0">
			<acc value="0.0235714351750505" flag="0"/>
			<vel value="0.0109980940922086" flag="0"/>
			<psa03 value="0.0803122608797978" flag="0"/>
			<psa10 value="0.00648717253758322" flag="0"/>
			<psa30 value="0.000901555463358176" flag="0"/>
		</comp>
	</station>
	<station code="DOBS" name="DOBS" netid="SL" source="Seismic Network of the Republic of Slovenia (SNRS)" insttype="" lat="46.1495" lon="15.4695" esm:processing="manual (Paolucci et al 2011)" esm:quality="best">
		<comp name="--.HNE" depth="0.0">
			<acc value="0.119888209484513" flag="0"/>
			<vel value="0.0508244810760859" flag="0"/>
			<psa03 value="0.201823140625839" flag="0"/>
			<psa10 value="0.0363074039373242" flag="0"/>
			<psa30 value="0.00507691715419441" flag="0"/>
		</comp>
		<comp name="--.HNN" depth="0.0">
			<acc value="0.193345885739226" flag="0"/>
			<vel value="0.0494970164452683" flag="0"/>
			<psa03 value="0.215266302002715" flag="0"/>
			<psa10 value="0.0235631371921848" flag="0"/>
			<psa30 value="0.00225037949326499" flag="0"/>
		</comp>
		<comp name="--.HNZ" depth="0.0">
			<acc value="0.065894344764358" flag="0"/>
			<vel value="0.0205458879978084" flag="0"/>
			<psa03 value="0.0988692475189834" flag="0"/>
			<psa10 value="0.0238397217645535" flag="0"/>
			<psa30 value="0.00123283844032991" flag="0"/>
		</comp>
	</station>
	<station code="DOLA" name="DOLA" netid="SL" source="Seismic Network of the Republic of Slovenia (SNRS)" insttype="" lat="46.0938" lon="14.6781" esm:processing="manual (Paolucci et al 2011)" esm:quality="good">
		<comp name="--.HGE" depth="0.0">
			<acc value="0.046046467486047" flag="0"/>
			<vel value="0.0178449765141471" flag="0"/>
			<psa03 value="0.0926899840067112" flag="0"/>
			<psa10 value="0.0213723901909423" flag="0"/>
			<psa30 value="0.00292164583636504" flag="0"/>
		</comp>
		<comp name="--.HGN" depth="0.0">
			<acc value="0.0853482966494394" flag="0"/>
			<vel value="0.0278597769093415" flag="0"/>
			<psa03 value="0.102457193536254" flag="0"/>
			<psa10 value="0.0180126007464132" flag="0"/>
			<psa30 value="0.0014469431445483" flag="0"/>
		</comp>
		<comp name="--.HGZ" depth="0.0">
			<acc value="0.029731113423772" flag="0"/>
			<vel value="0.0197912816343643" flag="0"/>
			<psa03 value="0.0893435435712517" flag="0"/>
			<psa10 value="0.0180102418401449" flag="0"/>
			<psa30 value="0.00131638324559407" flag="0"/>
		</comp>
	</station>
	<station code="DTSE" name="DTSE" netid="SL" source="Seismic Network of the Republic of Slovenia (SNRS)" insttype="" lat="46.0251" lon="14.8395" esm:processing="manual (Paolucci et al 2011)" esm:quality="best">
		<comp name="--.HN1" depth="0.0">
			<acc value="0.0579581305544506" flag="0"/>
			<vel value="0.0332887161488133" flag="0"/>
			<psa03 value="0.203596903962514" flag="0"/>
			<psa10 value="0.0511060642759989" flag="0"/>
			<psa30 value="0.00253969470064312" flag="0"/>
		</comp>
		<comp name="--.HN2" depth="0.0">
			<acc value="0.0373195295144202" flag="0"/>
			<vel value="0.0248088690962404" flag="0"/>
			<psa03 value="0.11731496945754" flag="0"/>
			<psa10 value="0.0401257943869669" flag="0"/>
			<psa30 value="0.0025971395477478" flag="0"/>
		</comp>
		<comp name="--.HNZ" depth="0.0">
			<acc value="0.0463036706597865" flag="0"/>
			<vel value="0.0243624893037128" flag="0"/>
			<psa03 value="0.135361185764327" flag="0"/>
			<psa10 value="0.0279466357024744" flag="0"/>
			<psa30 value="0.00154309388906167" flag="0"/>
		</comp>
	</station>
	<station code="FAGG" name="FAGG" netid="SL" source="Seismic Network of the Republic of Slovenia (SNRS)" insttype="" lat="46.0459" lon="14.4944" esm:processing="manual (Paolucci et al 2011)" esm:quality="good">
		<comp name="--.HG1" depth="0.0">
			<acc value="0.131553503097211" flag="0"/>
			<vel value="0.0536849263981311" flag="0"/>
			<psa03 value="0.309594467447391" flag="0"/>
			<psa10 value="0.0299408303080659" flag="0"/>
			<psa30 value="0.00272587765935035" flag="0"/>
		</comp>
		<comp name="--.HG2" depth="0.0">
			<acc value="0.104187743677046" flag="0"/>
			<vel value="0.0376894235344187" flag="0"/>
			<psa03 value="0.172052918494792" flag="0"/>
			<psa10 value="0.0285348902964402" flag="0"/>
			<psa30 value="0.00181881840445966" flag="0"/>
		</comp>
		<comp name="--.HGZ" depth="0.0">
			<acc value="0.0449982827736443" flag="0"/>
			<vel value="0.013828830155916" flag="0"/>
			<psa03 value="0.0716288648524269" flag="0"/>
			<psa10 value="0.0176187571561932" flag="0"/>
			<psa30 value="0.00180647091983274" flag="0"/>
		</comp>
	</station>
	<station code="GBAS" name="GBAS" netid="SL" source="Seismic Network of the Republic of Slovenia (SNRS)" insttype="" lat="45.9348" lon="14.4434" esm:processing="manual (Paolucci et al 2011)" esm:quality="good">
		<comp name="--.HNE" depth="0.0">
			<acc value="0.0172766829603373" flag="0"/>
			<vel value="0.00966316994779759" flag="0"/>
			<psa03 value="0.0468003481227123" flag="0"/>
			<psa10 value="0.00965626303235541" flag="0"/>
			<psa30 value="0.000894844132365435" flag="0"/>
		</comp>
		<comp name="--.HNN" depth="0.0">
			<acc value="0.0206397912716946" flag="0"/>
			<vel value="0.00792028633806326" flag="0"/>
			<psa03 value="0.0515877642308673" flag="0"/>
			<psa10 value="0.0151568699140057" flag="0"/>
			<psa30 value="0.00111631805512588" flag="0"/>
		</comp>
		<comp name="--.HNZ" depth="0.0">
			<acc value="0.0178753488775999" flag="0"/>
			<vel value="0.00813398471661665" flag="0"/>
			<psa03 value="0.0438026202792881" flag="0"/>
			<psa10 value="0.00869788496659203" flag="0"/>
			<psa30 value="0.000968668773285583" flag="0"/>
		</comp>
	</station>
	<station code="GBRS" name="GBRS" netid="SL" source="Seismic Network of the Republic of Slovenia (SNRS)" insttype="" lat="45.5311" lon="14.8101" esm:processing="manual (Paolucci et al 2011)" esm:quality="best">
		<comp name="--.HNE" depth="0.0">
			<acc value="0.0502395978552629" flag="0"/>
			<vel value="0.0181784626557725" flag="0"/>
			<psa03 value="0.0698793374963969" flag="0"/>
			<psa10 value="0.0089591860021103" flag="0"/>
			<psa30 value="0.000926868483820446" flag="0"/>
		</comp>
		<comp name="--.HNN" depth="0.0">
			<acc value="0.0656866942920075" flag="0"/>
			<vel value="0.0154037266720147" flag="0"/>
			<psa03 value="0.0961552552302498" flag="0"/>
			<psa10 value="0.0108320253810311" flag="0"/>
			<psa30 value="0.000865846524750447" flag="0"/>
		</comp>
		<comp name="--.HNZ" depth="0.0">
			<acc value="0.0361156646994065" flag="0"/>
			<vel value="0.0158027473936229" flag="0"/>
			<psa03 value="0.131815690475747" flag="0"/>
			<psa10 value="0.00712888053458091" flag="0"/>
			<psa30 value="0.00130097795423766" flag="0"/>
		</comp>
	</station>
	<station code="GCIS" name="GCIS" netid="SL" source="Seismic Network of the Republic of Slovenia (SNRS)" insttype="" lat="45.8672" lon="15.6275" esm:processing="manual (Paolucci et al 2011)" esm:quality="good">
		<comp name="--.HNE" depth="0.0">
			<acc value="0.114927416906352" flag="0"/>
			<vel value="0.0298896150318235" flag="0"/>
			<psa03 value="0.136130945090399" flag="0"/>
			<psa10 value="0.019444456849829" flag="0"/>
			<psa30 value="0.00192613384691384" flag="0"/>
		</comp>
		<comp name="--.HNN" depth="0.0">
			<acc value="0.111456889940847" flag="0"/>
			<vel value="0.03090010493672" flag="0"/>
			<psa03 value="0.178831950905654" flag="0"/>
			<psa10 value="0.0215365441903601" flag="0"/>
			<psa30 value="0.00335464993742899" flag="0"/>
		</comp>
		<comp name="--.HNZ" depth="0.0">
			<acc value="0.0670662087671334" flag="0"/>
			<vel value="0.0213605867001384" flag="0"/>
			<psa03 value="0.0964836624022267" flag="0"/>
			<psa10 value="0.017168099177313" flag="0"/>
			<psa30 value="0.00193734583965549" flag="0"/>
		</comp>
	</station>
	<station code="GOLS" name="GOLS" netid="SL" source="Seismic Network of the Republic of Slovenia (SNRS)" insttype="" lat="46.0108" lon="15.6245" esm:processing="manual (Paolucci et al 2011)" esm:quality="best">
		<comp name="--.HNE" depth="0.0">
			<acc value="0.18345560378055" flag="0"/>
			<vel value="0.0982161999619456" flag="0"/>
			<psa03 value="0.592427745429646" flag="0"/>
			<psa10 value="0.0675675135163358" flag="0"/>
			<psa30 value="0.00406627312063762" flag="0"/>
		</comp>
		<comp name="--.HNN" depth="0.0">
			<acc value="0.121966696046715" flag="0"/>
			<vel value="0.0530592998290365" flag="0"/>
			<psa03 value="0.375872608048936" flag="0"/>
			<psa10 value="0.0706712641244899" flag="0"/>
