<?xml version="1.0" encoding="UTF-8" standalone="yes"?>
<!DOCTYPE earthquake SYSTEM "stationlist.dtd">
<stationlist created="" xmlns="ch.ethz.sed.shakemap.usgs.xml">
  <station code="UPC" name="UPC" netid="CZ" insttype="" lat="50.5074" lon="16.0121">
    <comp name="--.HHE">
      <acc value="0.0128037106" flag="0"/>
      <vel value="0.0066384227" flag="0"/>
      <psa03 value="0.0233217694" flag="0"/>
      <psa10 value="0.0038914462" flag="0"/>
      <psa30 value="0.0004970753" flag="0"/>
    </comp>
    <comp name="--.HHZ">
      <acc value="0.0069467428" flag="0"/>
      <vel value="0.0028603268" flag="0"/>
      <psa03 value="0.0113198345" flag="0"/>
      <psa10 value="0.0016874187" flag="0"/>
      <psa30 value="0.0003140619" flag="0"/>
    </comp>
    <comp name="--.HHN">
      <acc value="0.0161160370" flag="0"/>
      <vel value="0.0065278283" flag="0"/>
      <psa03 value="0.0330780494" flag="0"/>
      <psa10 value="0.0051730796" flag="0"/>
      <psa30 value="0.0004061001" flag="0"/>
    </comp>
  </station>
</stationlist>
