<?xml version="1.0" encoding="UTF-8" standalone="yes"?>
<!DOCTYPE earthquake SYSTEM "stationlist.dtd">
<stationlist created="" xmlns="ch.ethz.sed.shakemap.usgs.xml">
  <station code="APE" name="APE" netid="GE" insttype="STS-2/N" lat="37.0727" lon="25.523">
    <comp name="--.HHE">
      <acc value="0.1481508363" flag="0"/>
      <vel value="0.0418563821" flag="0"/>
      <psa03 value="0.2260230374" flag="0"/>
      <psa10 value="0.0187366792" flag="0"/>
      <psa30 value="0.0024789868" flag="0"/>
    </comp>
    <comp name="--.HHN">
      <acc value="0.2147348278" flag="0"/>
      <vel value="0.0486980973" flag="0"/>
      <psa03 value="0.1743346025" flag="0"/>
      <psa10 value="0.0196326317" flag="0"/>
      <psa30 value="0.0027357751" flag="0"/>
    </comp>
    <comp name="--.HHZ">
      <acc value="0.0795166986" flag="0"/>
      <vel value="0.0208451167" flag="0"/>
      <psa03 value="0.1153120947" flag="0"/>
      <psa10 value="0.0165145976" flag="0"/>
      <psa30 value="0.0025948531" flag="0"/>
    </comp>
  </station>
  <station code="THERA" name="THERA" netid="GE" insttype="STS-2/N" lat="36.367" lon="25.4753">
    <comp name="--.HHE">
      <acc value="0.1187493210" flag="0"/>
      <vel value="0.0231355102" flag="0"/>
      <psa03 value="0.1123638043" flag="0"/>
      <psa10 value="0.0099217667" flag="0"/>
      <psa30 value="0.0020877294" flag="0"/>
    </comp>
    <comp name="--.HHN">
      <acc value="0.0773244574" flag="0"/>
      <vel value="0.0170580378" flag="0"/>
      <psa03 value="0.1020764570" flag="0"/>
      <psa10 value="0.0051799687" flag="0"/>
      <psa30 value="0.0007541168" flag="0"/>
    </comp>
    <comp name="--.HHZ">
      <acc value="0.1060986026" flag="0"/>
      <vel value="0.0210409086" flag="0"/>
      <psa03 value="0.0888132728" flag="0"/>
      <psa10 value="0.0090199584" flag="0"/>
      <psa30 value="0.0016985833" flag="0"/>
    </comp>
  </station>
</stationlist>
