<?xml version="1.0" encoding="UTF-8" standalone="yes"?>
<!DOCTYPE earthquake SYSTEM "stationlist.dtd">
<stationlist created="" xmlns="ch.ethz.sed.shakemap.usgs.xml">
  <station code="APE" name="APE" netid="GE" insttype="STS-2/N" lat="37.0727" lon="25.523">
    <comp name="--.HHE">
      <acc value="0.1481508363" flag="0"/>
      <vel value="0.0418563821" flag="0"/>
      <psa03 value="0.2260230374" flag="0"/>
      <psa10 value="0.0187366792" flag="0"/>
      <psa30 value="0.0024789868" flag="0"/>
    </comp>
    <comp name="--.HHN">
      <acc value="0.2147348278" flag="0"/>
      <vel value="0.0486980973" flag="0"/>
      <psa03 value="0.1743346025" flag="0"/>
      <psa10 value="0.0196326317" flag="0"/>
      <psa30 value="0.0027357751" flag="0"/>
    </comp>
    <comp name="--.HHZ">
      <acc value="0.0795166986" flag="0"/>
      <vel value="0.0208451167" flag="0"/>
      <psa03 value="0.1153120947" flag="0"/>
      <psa10 value="0.0165145976" flag="0"/>
      <psa30 value="0.0025948531" flag="0"/>
    </comp>
  </station>
  <station code="THERA" name="THERA" netid="GE" insttype="STS-2/N" lat="36.367" lon="25.4753">
    <comp name="--.HHE">
      <acc value="0.1187493210" flag="0"/>
      <vel value="0.0231355102" flag="0"/>
      <psa03 value="0.1123638043" flag="0"/>
      <psa10 value="0.0099217667" flag="0"/>
      <psa30 value="0.0020877294" flag="0"/>
    </comp>
    <comp name="--.HHN">
      <acc value="0.0773244574" flag="0"/>
      <vel value="0.0170580378" flag="0"/>
      <psa03 value="0.1020764570" flag="0"/>
      <psa10 value="0.0051799687" flag="0"/>
      <psa30 value="0.0007541168" flag="0"/>
    </comp>
    <comp name="--.HHZ">
      <acc value="0.1060986026" flag="0"/>
      <vel value="0.0210409086" flag="0"/>
      <psa03 value="0.0888132728" flag="0"/>
      <psa10 value="0.0090199584" flag="0"/>
      <psa30 value="0.0016985833" flag="0"/>
    </comp>
  </station>
  <station code="SNT1" name="SNT1" netid="HA" insttype="30" lat="36.4159" lon="25.4282">
    <comp name="--.HHN">
      <acc value="0.0581667566" flag="0"/>
      <vel value="0.0234128951" flag="0"/>
      <psa03 value="0.1141674907" flag="0"/>
      <psa10 value="0.0203300897" flag="0"/>
      <psa30 value="0.0031873417" flag="0"/>
    </comp>
    <comp name="--.HHE">
      <acc value="0.0812680906" flag="0"/>
      <vel value="0.0234161224" flag="0"/>
      <psa03 value="0.0785290633" flag="0"/>
      <psa10 value="0.0215547045" flag="0"/>
      <psa30 value="0.0034256835" flag="0"/>
    </comp>
    <comp name="--.HHZ">
      <acc value="0.0594183242" flag="0"/>
      <vel value="0.0173521795" flag="0"/>
      <psa03 value="0.0792926116" flag="0"/>
      <psa10 value="0.0098174613" flag="0"/>
      <psa30 value="0.0018017323" flag="0"/>
    </comp>
  </station>
  <station code="NAX1" name="NAX1" netid="HI" insttype="CMG-5TD,ACCELEROMETER,GURALP" lat="37.1014" lon="25.3741">
    <comp name="--.HNE">
      <acc value="0.1145067939" flag="0"/>
      <vel value="0.0370687781" flag="0"/>
      <psa03 value="0.1419081246" flag="0"/>
      <psa10 value="0.0183709089" flag="0"/>
      <psa30 value="0.0017657493" flag="0"/>
    </comp>
    <comp name="--.HNN">
      <acc value="0.1131923311" flag="0"/>
      <vel value="0.0259425832" flag="0"/>
      <psa03 value="0.0882028236" flag="0"/>
      <psa10 value="0.0133739608" flag="0"/>
      <psa30 value="0.0020240018" flag="0"/>
    </comp>
    <comp name="--.HNZ">
      <acc value="0.0917566463" flag="0"/>
      <vel value="0.0153763001" flag="0"/>
      <psa03 value="0.0655022917" flag="0"/>
      <psa10 value="0.0108290021" flag="0"/>
      <psa30 value="0.0021208636" flag="0"/>
    </comp>
  </station>
  <station code="AMGA" name="AMGA" netid="HL" insttype="SMART24" lat="36.8316" lon="25.8938">
    <comp name="--.HHZ">
      <acc value="0.8731839476" flag="0"/>
      <vel value="0.1754260790" flag="0"/>
      <psa03 value="0.4764991644" flag="0"/>
      <psa10 value="0.0585214764" flag="0"/>
      <psa30 value="0.0063930567" flag="0"/>
    </comp>
    <comp name="--.HHN">
      <acc value="1.1711988476" flag="0"/>
      <vel value="0.1729302346" flag="0"/>
      <psa03 value="0.4633786986" flag="0"/>
      <psa10 value="0.0544981560" flag="0"/>
      <psa30 value="0.0066395809" flag="0"/>
    </comp>
    <comp name="--.HHE">
      <acc value="0.9813862780" flag="0"/>
      <vel value="0.1700619888" flag="0"/>
      <psa03 value="0.6011346936" flag="0"/>
      <psa10 value="0.0594685998" flag="0"/>
      <psa30 value="0.0065413173" flag="0"/>
    </comp>
  </station>
  <station code="APE" name="APE" netid="HL" insttype="120" lat="37.0727" lon="25.523">
    <comp name="--.HHZ">
      <acc value="0.0716312129" flag="0"/>
      <vel value="0.0201449565" flag="0"/>
      <psa03 value="0.1128822941" flag="0"/>
      <psa10 value="0.0163972656" flag="0"/>
      <psa30 value="0.0025909951" flag="0"/>
    </comp>
    <comp name="--.HHE">
      <acc value="0.1262266482" flag="0"/>
      <vel value="0.0406637813" flag="0"/>
      <psa03 value="0.2202394907" flag="0"/>
      <psa10 value="0.0185422152" flag="0"/>
      <psa30 value="0.0024719644" flag="0"/>
    </comp>
    <comp name="--.HHN">
      <acc value="0.1980026075" flag="0"/>
      <vel value="0.0461347056" flag="0"/>
      <psa03 value="0.1697668597" flag="0"/>
      <psa10 value="0.0193618890" flag="0"/>
      <psa30 value="0.0027235303" flag="0"/>
    </comp>
  </station>
  <station code="MHLO" name="MHLO" netid="HL" insttype="20" lat="36.6898" lon="24.4017">
    <comp name="--.HHN">
      <acc value="0.0533859575" flag="0"/>
      <vel value="0.0315802421" flag="0"/>
      <psa03 value="0.2192024673" flag="0"/>
      <psa10 value="0.0495422945" flag="0"/>
      <psa30 value="0.0023263244" flag="0"/>
    </comp>
    <comp name="--.HHZ">
      <acc value="0.0258522663" flag="0"/>
      <vel value="0.0142828367" flag="0"/>
      <psa03 value="0.0807143747" flag="0"/>
      <psa10 value="0.0296255247" flag="0"/>
      <psa30 value="0.0026268602" flag="0"/>
    </comp>
  </station>
  <station code="SAP3" name="SAP3" netid="HL" insttype="LE3D20_SMART24" lat="36.4356" lon="25.3454">
    <comp name="--.HHE">
      <acc value="0.2991214684" flag="0"/>
      <vel value="0.0755165170" flag="0"/>
      <psa03 value="0.3800879363" flag="0"/>
      <psa10 value="0.0784801690" flag="0"/>
      <psa30 value="0.0184416049" flag="0"/>
    </comp>
    <comp name="--.HHZ">
      <acc value="0.2953448981" flag="0"/>
      <vel value="0.0736100245" flag="0"/>
      <psa03 value="0.2392251157" flag="0"/>
      <psa10 value="0.0281072368" flag="0"/>
      <psa30 value="0.0061187769" flag="0"/>
    </comp>
    <comp name="--.HHN">
      <acc value="0.3094003502" flag="0"/>
      <vel value="0.0910496990" flag="0"/>
      <psa03 value="0.3453026149" flag="0"/>
      <psa10 value="0.1100749053" flag="0"/>
      <psa30 value="0.0147983301" flag="0"/>
    </comp>
  </station>
  <station code="THERA" name="THERA" netid="HL" insttype="120" lat="36.367" lon="25.4753">
    <comp name="--.HHN">
      <acc value="0.0753200455" flag="0"/>
      <vel value="0.0168948645" flag="0"/>
      <psa03 value="0.0993560220" flag="0"/>
      <psa10 value="0.0051355841" flag="0"/>
      <psa30 value="0.0007545495" flag="0"/>
    </comp>
    <comp name="--.HHZ">
      <acc value="0.1055466838" flag="0"/>
      <vel value="0.0206337731" flag="0"/>
      <psa03 value="0.0862728561" flag="0"/>
      <psa10 value="0.0088952649" flag="0"/>
      <psa30 value="0.0016992355" flag="0"/>
    </comp>
  </station>
  <station code="THRA" name="THRA" netid="HL" insttype="CMG-5" lat="36.415" lon="25.4324">
    <comp name="00.HNN">
      <acc value="0.2383350301" flag="0"/>
      <vel value="0.0665301818" flag="0"/>
      <psa03 value="0.5587125762" flag="0"/>
      <psa10 value="0.0710626993" flag="0"/>
      <psa30 value="0.0058521635" flag="0"/>
    </comp>
  </station>
  <station code="TNSA" name="TNSA" netid="HL" insttype="CMG-5" lat="37.5394" lon="25.1631">
    <comp name="00.HNE">
      <acc value="0.0435873407" flag="0"/>
      <vel value="0.0165249254" flag="0"/>
      <psa03 value="0.0653680096" flag="0"/>
      <psa10 value="0.0097000900" flag="0"/>
      <psa30 value="0.0008874111" flag="0"/>
    </comp>
    <comp name="00.HNZ">
      <acc value="0.0335322240" flag="0"/>
      <vel value="0.0172617742" flag="0"/>
      <psa03 value="0.0694612572" flag="0"/>
      <psa10 value="0.0112042756" flag="0"/>
      <psa30 value="0.0014872306" flag="0"/>
    </comp>
    <comp name="00.HNN">
      <acc value="0.0529522704" flag="0"/>
      <vel value="0.0159168954" flag="0"/>
      <psa03 value="0.0942579811" flag="0"/>
      <psa10 value="0.0139987548" flag="0"/>
      <psa30 value="0.0010055629" flag="0"/>
    </comp>
  </station>
  <station code="CMBO" name="CMBO" netid="HT" insttype="120P," lat="36.4709" lon="25.4056">
    <comp name="--.HHE">
      <acc value="0.2864718868" flag="0"/>
      <vel value="0.0827306648" flag="0"/>
      <psa03 value="0.3779701085" flag="0"/>
      <psa10 value="0.0613106567" flag="0"/>
      <psa30 value="0.0092276815" flag="0"/>
    </comp>
    <comp name="--.HHN">
      <acc value="0.3279279781" flag="0"/>
      <vel value="0.1097650768" flag="0"/>
      <psa03 value="0.5074728050" flag="0"/>
      <psa10 value="0.0880821643" flag="0"/>
      <psa30 value="0.0060107366" flag="0"/>
    </comp>
    <comp name="--.HHZ">
      <acc value="0.3051111466" flag="0"/>
      <vel value="0.0695785677" flag="0"/>
      <psa03 value="0.4156540361" flag="0"/>
      <psa10 value="0.0347472716" flag="0"/>
      <psa30 value="0.0049058064" flag="0"/>
    </comp>
  </station>
</stationlist>
