<?xml version="1.0" encoding="UTF-8" standalone="yes"?>
<!DOCTYPE earthquake SYSTEM "stationlist.dtd">
<stationlist created="" xmlns="ch.ethz.sed.shakemap.usgs.xml">
  <station code="IMMV" name="IMMV" netid="GE" insttype="STS-2/N" commtype="DIG" lat="35.4606" lon="23.9811">
    <comp name="--.HHE">
      <acc value="0.0601298897" flag="0"/>
      <vel value="0.0789477310" flag="0"/>
      <psa03 value="0.1234891101" flag="0"/>
      <psa10 value="0.2437725142" flag="0"/>
      <psa30 value="0.0261075840" flag="0"/>
    </comp>
    <comp name="--.HHN">
      <acc value="0.0727181509" flag="0"/>
      <vel value="0.1190520239" flag="0"/>
      <psa03 value="0.1877093971" flag="0"/>
      <psa10 value="0.2187223653" flag="0"/>
      <psa30 value="0.0376939594" flag="0"/>
    </comp>
    <comp name="--.HHZ">
      <acc value="0.0437796883" flag="0"/>
      <vel value="0.0732615284" flag="0"/>
      <psa03 value="0.1426300604" flag="0"/>
      <psa10 value="0.1041832323" flag="0"/>
      <psa30 value="0.0223555590" flag="0"/>
    </comp>
  </station>
  <station code="KARP" name="KARP" netid="GE" insttype="STS-2/N" commtype="DIG" lat="35.5471" lon="27.1611">
    <comp name="--.HHZ">
      <acc value="0.1644008728" flag="0"/>
      <vel value="0.3270075556" flag="0"/>
      <psa03 value="0.4911964222" flag="0"/>
      <psa10 value="0.2052255461" flag="0"/>
      <psa30 value="0.1142508187" flag="0"/>
    </comp>
    <comp name="--.HHE">
      <acc value="0.1897890340" flag="0"/>
      <vel value="0.4438443667" flag="0"/>
      <psa03 value="0.6123415122" flag="0"/>
      <psa10 value="0.4771454044" flag="0"/>
      <psa30 value="0.1023661174" flag="0"/>
    </comp>
    <comp name="--.HHN">
      <acc value="0.2570993739" flag="0"/>
      <vel value="0.2451152146" flag="0"/>
      <psa03 value="0.4428348709" flag="0"/>
      <psa10 value="0.5230120454" flag="0"/>
      <psa30 value="0.0891898596" flag="0"/>
    </comp>
  </station>
  <station code="SNT1" name="SNT1" netid="HA" insttype="30" commtype="DIG" lat="36.4159" lon="25.4282">
    <comp name="--.HHN">
      <acc value="0.1025057453" flag="0"/>
      <vel value="0.1041522710" flag="0"/>
      <psa03 value="0.2092474360" flag="0"/>
      <psa10 value="0.2136709603" flag="0"/>
      <psa30 value="0.0440654220" flag="0"/>
    </comp>
    <comp name="--.HHE">
      <acc value="0.1149185015" flag="0"/>
      <vel value="0.1592335915" flag="0"/>
      <psa03 value="0.1533190478" flag="0"/>
      <psa10 value="0.3374052710" flag="0"/>
      <psa30 value="0.0752562652" flag="0"/>
    </comp>
    <comp name="--.HHZ">
      <acc value="0.0648170384" flag="0"/>
      <vel value="0.0620599562" flag="0"/>
      <psa03 value="0.1385330034" flag="0"/>
      <psa10 value="0.1395124993" flag="0"/>
      <psa30 value="0.0213012066" flag="0"/>
    </comp>
  </station>
  <station code="SNT5" name="SNT5" netid="HA" insttype="1s-100Hz," commtype="DIG" lat="36.4037" lon="25.3953">
    <comp name="--.HHE">
      <acc value="0.2966119142" flag="0"/>
      <vel value="0.2051874263" flag="0"/>
      <psa03 value="0.4776781017" flag="0"/>
      <psa10 value="0.3115708050" flag="0"/>
      <psa30 value="0.1077437886" flag="0"/>
    </comp>
    <comp name="--.HHN">
      <acc value="0.0998914911" flag="0"/>
      <vel value="0.0541925203" flag="0"/>
      <psa03 value="0.3571552708" flag="0"/>
      <psa10 value="0.0478755638" flag="0"/>
      <psa30 value="0.0124553432" flag="0"/>
    </comp>
    <comp name="--.HHZ">
      <acc value="0.0750218570" flag="0"/>
      <vel value="0.0715848924" flag="0"/>
      <psa03 value="0.1544390929" flag="0"/>
      <psa10 value="0.1251830738" flag="0"/>
      <psa30 value="0.0229077869" flag="0"/>
    </comp>
  </station>
  <station code="CHAN" name="CHAN" netid="HC" insttype="120" commtype="DIG" lat="35.5193" lon="24.0428">
    <comp name="--.HHN">
      <acc value="0.0000000000" flag="0"/>
      <vel value="-100.0000000000" flag="0"/>
      <psa03 value="0.0000000000" flag="0"/>
      <psa10 value="0.0000000000" flag="0"/>
      <psa30 value="0.0000000000" flag="0"/>
    </comp>
    <comp name="--.HHE">
      <acc value="0.1213804543" flag="0"/>
      <vel value="0.1700604608" flag="0"/>
      <psa03 value="0.2299964407" flag="0"/>
      <psa10 value="0.3100951951" flag="0"/>
      <psa30 value="0.0643475239" flag="0"/>
    </comp>
    <comp name="--.HHZ">
      <acc value="0.0751830227" flag="0"/>
      <vel value="0.1311419184" flag="0"/>
      <psa03 value="0.1604693526" flag="0"/>
      <psa10 value="0.2373030784" flag="0"/>
      <psa30 value="0.0545821908" flag="0"/>
    </comp>
  </station>
  <station code="GVDS" name="GVDS" netid="HC" insttype="60" commtype="DIG" lat="34.8389" lon="24.0585">
    <comp name="--.HHE">
      <acc value="0.0457931436" flag="0"/>
      <vel value="0.0573614540" flag="0"/>
      <psa03 value="0.1106304035" flag="0"/>
      <psa10 value="0.0566720332" flag="0"/>
      <psa30 value="0.0210429070" flag="0"/>
    </comp>
    <comp name="--.HHN">
      <acc value="0.0404147605" flag="0"/>
      <vel value="0.0646604344" flag="0"/>
      <psa03 value="0.1409686855" flag="0"/>
      <psa10 value="0.0749475917" flag="0"/>
      <psa30 value="0.0144681291" flag="0"/>
    </comp>
    <comp name="--.HHZ">
      <acc value="0.0211646352" flag="0"/>
      <vel value="0.0420439357" flag="0"/>
      <psa03 value="0.0444343877" flag="0"/>
      <psa10 value="0.0413482730" flag="0"/>
      <psa30 value="0.0218281488" flag="0"/>
    </comp>
  </station>
  <station code="IMOD" name="IMOD" netid="HC" insttype="120" commtype="DIG" lat="34.9731" lon="24.7995">
    <comp name="--.HHE">
      <acc value="0.1638824399" flag="0"/>
      <vel value="0.1823896013" flag="0"/>
      <psa03 value="0.4653278337" flag="0"/>
      <psa10 value="0.2372572587" flag="0"/>
      <psa30 value="0.0274645226" flag="0"/>
    </comp>
    <comp name="--.HHN">
      <acc value="0.1950726048" flag="0"/>
      <vel value="0.2449928138" flag="0"/>
      <psa03 value="0.4640949505" flag="0"/>
      <psa10 value="0.2678726113" flag="0"/>
      <psa30 value="0.0521417393" flag="0"/>
    </comp>
    <comp name="--.HHZ">
      <acc value="0.1227772055" flag="0"/>
      <vel value="0.1237239680" flag="0"/>
      <psa03 value="0.2608302794" flag="0"/>
      <psa10 value="0.1308054958" flag="0"/>
      <psa30 value="0.0220234930" flag="0"/>
    </comp>
  </station>
  <station code="IPPL" name="IPPL" netid="HC" insttype="60" commtype="DIG" lat="35.3486" lon="24.4632">
    <comp name="--.HHE">
      <acc value="0.0000000000" flag="0"/>
      <vel value="-100.0000000000" flag="0"/>
      <psa03 value="0.0000000000" flag="0"/>
      <psa10 value="0.0000000000" flag="0"/>
      <psa30 value="0.0000000000" flag="0"/>
    </comp>
    <comp name="--.HHN">
      <acc value="0.0000000000" flag="0"/>
      <vel value="-100.0000000000" flag="0"/>
      <psa03 value="0.0000000000" flag="0"/>
      <psa10 value="0.0000000000" flag="0"/>
      <psa30 value="0.0000000000" flag="0"/>
    </comp>
    <comp name="--.HHZ">
      <acc value="0.0597303108" flag="0"/>
      <vel value="0.0816764097" flag="0"/>
      <psa03 value="0.2088652931" flag="0"/>
      <psa10 value="0.0954157301" flag="0"/>
      <psa30 value="0.0257632329" flag="0"/>
    </comp>
  </station>
  <station code="KNSS" name="KNSS" netid="HC" insttype="60" commtype="DIG" lat="35.3042" lon="25.1802">
    <comp name="--.HHE">
      <acc value="0.0000000000" flag="0"/>
      <vel value="-100.0000000000" flag="0"/>
      <psa03 value="0.0000000000" flag="0"/>
      <psa10 value="0.0000000000" flag="0"/>
      <psa30 value="0.0000000000" flag="0"/>
    </comp>
    <comp name="--.HHN">
      <acc value="0.2410465952" flag="0"/>
      <vel value="0.2517336357" flag="0"/>
      <psa03 value="0.8101559429" flag="0"/>
      <psa10 value="0.2598285431" flag="0"/>
      <psa30 value="0.1006785909" flag="0"/>
    </comp>
    <comp name="--.HHZ">
      <acc value="0.1874107598" flag="0"/>
      <vel value="0.1852356137" flag="0"/>
      <psa03 value="0.4307845351" flag="0"/>
      <psa10 value="0.1160781789" flag="0"/>
      <psa30 value="0.0648282902" flag="0"/>
    </comp>
  </station>
  <station code="TEFL" name="TEFL" netid="HC" insttype="GEOtiny," commtype="DIG" lat="35.0933" lon="25.1634">
    <comp name="--.HHE">
      <acc value="0.0853690051" flag="0"/>
      <vel value="0.0200097879" flag="0"/>
      <psa03 value="0.0946029136" flag="0"/>
      <psa10 value="0.0100444159" flag="0"/>
      <psa30 value="0.0006726045" flag="0"/>
    </comp>
    <comp name="--.HHN">
      <acc value="0.0558227281" flag="0"/>
      <vel value="0.0126984740" flag="0"/>
      <psa03 value="0.0606823562" flag="0"/>
      <psa10 value="0.0079851555" flag="0"/>
      <psa30 value="0.0005088102" flag="0"/>
    </comp>
    <comp name="--.HHZ">
      <acc value="0.0139991510" flag="0"/>
      <vel value="0.0040537713" flag="0"/>
      <psa03 value="0.0242328748" flag="0"/>
      <psa10 value="0.0032592974" flag="0"/>
      <psa30 value="0.0002361428" flag="0"/>
    </comp>
  </station>
  <station code="AGN1" name="AGN1" netid="HI" insttype="unknown" commtype="DIG" lat="35.1879" lon="25.7155">
    <comp name="--.HNE">
      <acc value="0.0022126991" flag="0"/>
      <vel value="0.0044726108" flag="0"/>
      <psa03 value="0.0020856283" flag="0"/>
      <psa10 value="0.0028884530" flag="0"/>
      <psa30 value="0.0016206466" flag="0"/>
    </comp>
    <comp name="--.HNN">
      <acc value="1.3393084343" flag="0"/>
      <vel value="0.4682002585" flag="0"/>
      <psa03 value="2.4418119006" flag="0"/>
      <psa10 value="0.5339473695" flag="0"/>
      <psa30 value="0.0841358725" flag="0"/>
    </comp>
    <comp name="--.HNZ">
      <acc value="0.5365466856" flag="0"/>
      <vel value="0.3122365673" flag="0"/>
      <psa03 value="0.6917798815" flag="0"/>
      <psa10 value="0.2743054460" flag="0"/>
      <psa30 value="0.0898019938" flag="0"/>
    </comp>
  </station>
  <station code="ARK1" name="ARK1" netid="HI" insttype="unknown" commtype="DIG" lat="35.1488" lon="25.2642">
    <comp name="--.HNN">
      <acc value="0.6355396940" flag="0"/>
      <vel value="0.4759328230" flag="0"/>
      <psa03 value="1.2788363050" flag="0"/>
      <psa10 value="0.9222729361" flag="0"/>
      <psa30 value="0.1310075784" flag="0"/>
    </comp>
    <comp name="--.HNZ">
      <acc value="0.4679602174" flag="0"/>
      <vel value="0.3880084091" flag="0"/>
      <psa03 value="1.6649543912" flag="0"/>
      <psa10 value="0.5760480299" flag="0"/>
      <psa30 value="0.0755931687" flag="0"/>
    </comp>
  </station>
  <station code="CH01" name="CH01" netid="HI" insttype="CMG-5TD,ACCELEROMETER,GURALP" commtype="DIG" lat="35.517" lon="24.0208">
    <comp name="--.HNE">
      <acc value="0.0827966552" flag="0"/>
      <vel value="0.1558450607" flag="0"/>
      <psa03 value="0.1438507430" flag="0"/>
      <psa10 value="0.2074868264" flag="0"/>
      <psa30 value="0.0546745534" flag="0"/>
    </comp>
    <comp name="--.HNZ">
      <acc value="0.0384160327" flag="0"/>
      <vel value="0.0849216026" flag="0"/>
      <psa03 value="0.0849409239" flag="0"/>
      <psa10 value="0.1072760773" flag="0"/>
      <psa30 value="0.0279809414" flag="0"/>
    </comp>
    <comp name="--.HNN">
      <acc value="0.0972730466" flag="0"/>
      <vel value="0.1723411059" flag="0"/>
      <psa03 value="0.1638742878" flag="0"/>
      <psa10 value="0.1873923564" flag="0"/>
      <psa30 value="0.0752062118" flag="0"/>
    </comp>
  </station>
  <station code="GOR1" name="GOR1" netid="HI" insttype="unknown" commtype="DIG" lat="35.0582" lon="24.9628">
    <comp name="--.HNZ">
      <acc value="0.2207221105" flag="0"/>
      <vel value="0.2492508410" flag="0"/>
      <psa03 value="0.4146407022" flag="0"/>
      <psa10 value="0.4217615357" flag="0"/>
      <psa30 value="0.0502945941" flag="0"/>
    </comp>
    <comp name="--.HNE">
      <acc value="0.2211862015" flag="0"/>
      <vel value="0.3181538964" flag="0"/>
      <psa03 value="0.5832228043" flag="0"/>
      <psa10 value="0.5579931050" flag="0"/>
      <psa30 value="0.1001417118" flag="0"/>
    </comp>
    <comp name="--.HNN">
      <acc value="0.2457947740" flag="0"/>
      <vel value="0.3407966643" flag="0"/>
      <psa03 value="0.7267303185" flag="0"/>
      <psa10 value="0.4867616322" flag="0"/>
      <psa30 value="0.0993598708" flag="0"/>
    </comp>
  </station>
  <station code="HER1" name="HER1" netid="HI" insttype="unknown" commtype="DIG" lat="35.3177" lon="25.1022">
    <comp name="--.HNE">
      <acc value="1.0727011620" flag="0"/>
      <vel value="1.5461112672" flag="0"/>
      <psa03 value="1.7270605572" flag="0"/>
      <psa10 value="2.7195478704" flag="0"/>
      <psa30 value="0.2023796182" flag="0"/>
    </comp>
    <comp name="--.HNN">
      <acc value="0.9962250132" flag="0"/>
      <vel value="1.8684306560" flag="0"/>
      <psa03 value="2.0481244490" flag="0"/>
      <psa10 value="2.4810668431" flag="0"/>
      <psa30 value="0.2597876732" flag="0"/>
    </comp>
    <comp name="--.HNZ">
      <acc value="0.6908305395" flag="0"/>
      <vel value="0.7651862581" flag="0"/>
      <psa03 value="1.2511927643" flag="0"/>
      <psa10 value="1.0148622932" flag="0"/>
      <psa30 value="0.0861018624" flag="0"/>
    </comp>
  </station>
  <station code="HER3" name="HER3" netid="HI" insttype="unknown" commtype="DIG" lat="35.3296" lon="25.1065">
    <comp name="--.HNE">
      <acc value="0.8201042977" flag="0"/>
      <vel value="1.2665879045" flag="0"/>
      <psa03 value="2.1140291686" flag="0"/>
      <psa10 value="1.8267728160" flag="0"/>
      <psa30 value="0.1173447838" flag="0"/>
    </comp>
    <comp name="--.HNZ">
      <acc value="0.4886348260" flag="0"/>
      <vel value="0.5096273529" flag="0"/>
      <psa03 value="0.8328896408" flag="0"/>
      <psa10 value="1.0123626738" flag="0"/>
      <psa30 value="0.0967578448" flag="0"/>
    </comp>
    <comp name="--.HNN">
      <acc value="1.0206453979" flag="0"/>
      <vel value="1.8935616411" flag="0"/>
      <psa03 value="2.0932323261" flag="0"/>
      <psa10 value="2.2272819542" flag="0"/>
      <psa30 value="0.1927294592" flag="0"/>
    </comp>
  </station>
  <station code="KSS1" name="KSS1" netid="HI" insttype="CMG-5TD,ACCELEROMETER,GURALP" commtype="DIG" lat="35.4189" lon="26.9207">
    <comp name="--.HNE">
      <acc value="0.1821137673" flag="0"/>
      <vel value="0.3435457676" flag="0"/>
      <psa03 value="0.6260676172" flag="0"/>
      <psa10 value="0.1874712115" flag="0"/>
      <psa30 value="0.1699919905" flag="0"/>
    </comp>
    <comp name="--.HNZ">
      <acc value="0.1475084722" flag="0"/>
      <vel value="0.3771653956" flag="0"/>
      <psa03 value="0.2480320320" flag="0"/>
      <psa10 value="0.2568082492" flag="0"/>
      <psa30 value="0.1940196177" flag="0"/>
    </comp>
    <comp name="--.HNN">
      <acc value="0.4156517594" flag="0"/>
      <vel value="0.3839411445" flag="0"/>
      <psa03 value="1.4591239446" flag="0"/>
      <psa10 value="0.3556077917" flag="0"/>
      <psa30 value="0.1861886098" flag="0"/>
    </comp>
  </station>
  <station code="SIT2" name="SIT2" netid="HI" insttype="CMG-5TD,ACCELEROMETER,GURALP" commtype="DIG" lat="35.2059" lon="26.107">
    <comp name="--.HNE">
      <acc value="4.1101173979" flag="0"/>
      <vel value="3.2235015328" flag="0"/>
      <psa03 value="10.7121845993" flag="0"/>
      <psa10 value="2.5966758189" flag="0"/>
      <psa30 value="0.2439643264" flag="0"/>
    </comp>
    <comp name="--.HNN">
      <acc value="4.1886253424" flag="0"/>
      <vel value="2.7147326068" flag="0"/>
      <psa03 value="9.9034850202" flag="0"/>
      <psa10 value="2.3138718558" flag="0"/>
      <psa30 value="0.3583099455" flag="0"/>
    </comp>
    <comp name="--.HNZ">
      <acc value="2.1208451735" flag="0"/>
      <vel value="1.0312789639" flag="0"/>
      <psa03 value="5.2748176864" flag="0"/>
      <psa10 value="0.8339445747" flag="0"/>
      <psa30 value="0.2914746653" flag="0"/>
    </comp>
  </station>
  <station code="ANAF" name="ANAF" netid="HL" insttype="LE3D20_SMART24" commtype="DIG" lat="36.3567" lon="25.7726">
    <comp name="--.HHN">
      <acc value="0.5021951899" flag="0"/>
      <vel value="0.2592150591" flag="0"/>
      <psa03 value="1.6307563294" flag="0"/>
      <psa10 value="0.1884726326" flag="0"/>
      <psa30 value="0.0290899281" flag="0"/>
    </comp>
    <comp name="--.HHE">
      <acc value="0.4481342110" flag="0"/>
      <vel value="0.2919134449" flag="0"/>
      <psa03 value="1.5749872872" flag="0"/>
      <psa10 value="0.2476433498" flag="0"/>
      <psa30 value="0.0364627368" flag="0"/>
    </comp>
    <comp name="--.HHZ">
      <acc value="0.1921933710" flag="0"/>
      <vel value="0.1125758875" flag="0"/>
      <psa03 value="0.5441133603" flag="0"/>
      <psa10 value="0.1376965509" flag="0"/>
      <psa30 value="0.0362689468" flag="0"/>
    </comp>
  </station>
  <station code="ASTA" name="ASTA" netid="HL" insttype="LE3D20_SMART24" commtype="DIG" lat="36.5475" lon="26.3471">
    <comp name="--.HHE">
      <acc value="0.0790876568" flag="0"/>
      <vel value="0.0820921467" flag="0"/>
      <psa03 value="0.1682668894" flag="0"/>
      <psa10 value="0.0911670402" flag="0"/>
      <psa30 value="0.0191269579" flag="0"/>
    </comp>
    <comp name="--.HHN">
      <acc value="0.0507105542" flag="0"/>
      <vel value="0.0603866556" flag="0"/>
      <psa03 value="0.1187738600" flag="0"/>
      <psa10 value="0.0738255400" flag="0"/>
      <psa30 value="0.0264893551" flag="0"/>
    </comp>
    <comp name="--.HHZ">
      <acc value="0.0321887081" flag="0"/>
      <vel value="0.0358844839" flag="0"/>
      <psa03 value="0.0952820631" flag="0"/>
      <psa10 value="0.0545387426" flag="0"/>
      <psa30 value="0.0155786096" flag="0"/>
    </comp>
  </station>
  <station code="HERG" name="HERG" netid="HL" insttype="CMG-5" commtype="DIG" lat="35.3262" lon="25.0659">
    <comp name="00.HNZ">
      <acc value="0.2964953229" flag="0"/>
      <vel value="0.3155238899" flag="0"/>
      <psa03 value="0.7067809767" flag="0"/>
      <psa10 value="0.4193010873" flag="0"/>
      <psa30 value="0.0769738291" flag="0"/>
    </comp>
    <comp name="00.HNE">
      <acc value="0.5055979566" flag="0"/>
      <vel value="0.6429891329" flag="0"/>
      <psa03 value="1.4038537051" flag="0"/>
      <psa10 value="0.7824266626" flag="0"/>
      <psa30 value="0.1548633145" flag="0"/>
    </comp>
    <comp name="00.HNN">
      <acc value="0.4480569704" flag="0"/>
      <vel value="0.7353831888" flag="0"/>
      <psa03 value="1.2246201989" flag="0"/>
      <psa10 value="1.3202948924" flag="0"/>
      <psa30 value="0.1170716928" flag="0"/>
    </comp>
  </station>
  <station code="IACM" name="IACM" netid="HL" insttype="120" commtype="DIG" lat="35.3058" lon="25.0709">
    <comp name="--.HHE">
      <acc value="0.8676651077" flag="0"/>
      <vel value="0.9133628444" flag="0"/>
      <psa03 value="1.8292572211" flag="0"/>
      <psa10 value="2.1144582600" flag="0"/>
      <psa30 value="0.1564127001" flag="0"/>
    </comp>
    <comp name="--.HHZ">
      <acc value="0.4045459134" flag="0"/>
      <vel value="0.2979320250" flag="0"/>
      <psa03 value="0.9337288446" flag="0"/>
      <psa10 value="0.5033633734" flag="0"/>
      <psa30 value="0.0770830662" flag="0"/>
    </comp>
    <comp name="--.HHN">
      <acc value="0.9056076610" flag="0"/>
      <vel value="0.7794319424" flag="0"/>
      <psa03 value="2.7233235401" flag="0"/>
      <psa10 value="1.4145993416" flag="0"/>
      <psa30 value="0.1745830444" flag="0"/>
    </comp>
  </station>
  <station code="IMMV" name="IMMV" netid="HL" insttype="120" commtype="DIG" lat="35.4606" lon="23.9811">
    <comp name="--.HHE">
      <acc value="0.0595423456" flag="0"/>
      <vel value="0.0784087991" flag="0"/>
      <psa03 value="0.1208399148" flag="0"/>
      <psa10 value="0.2423936629" flag="0"/>
