<stationlist created="1777341313">
	<station code="KTHA" name="KTHA" netid="GE" source="GEOFON" insttype="" lat="36.2566" lon="23.0621">
		<comp name="--.HNE" depth="0.0">
			<acc value="0.013135683952485" flag="0"/>
			<vel value="0.0320839854435822" flag="0"/>
			<psa03 value="0.0433436395325661" flag="0"/>
			<psa10 value="0.0358379478381607" flag="0"/>
			<psa30 value="0.0123580694947871" flag="0"/>
		</comp>
		<comp name="--.HNN" depth="0.0">
			<acc value="0.0115693305004594" flag="0"/>
			<vel value="0.0383005438418066" flag="0"/>
			<psa03 value="0.0340538965285172" flag="0"/>
			<psa10 value="0.0264032753374105" flag="0"/>
			<psa30 value="0.0139061828830347" flag="0"/>
		</comp>
		<comp name="--.HNZ" depth="0.0">
			<acc value="0.0110486185926073" flag="0"/>
			<vel value="0.0401150398601079" flag="0"/>
			<psa03 value="0.0246584095402815" flag="0"/>
			<psa10 value="0.0157956451339691" flag="0"/>
			<psa30 value="0.0124789875050118" flag="0"/>
		</comp>
	</station>
	<station code="ATEI" name="ATEI" netid="HC" source="Seismological Network of Crete (HC)" insttype="" lat="35.5193" lon="24.0432">
		<comp name="--.HNE" depth="0.0">
			<acc value="0.0607828502255631" flag="0"/>
			<vel value="0.0959379994839476" flag="0"/>
			<psa03 value="0.124496226430672" flag="0"/>
			<psa10 value="0.151705499744826" flag="0"/>
			<psa30 value="0.0368622519432807" flag="0"/>
		</comp>
		<comp name="--.HNN" depth="0.0">
			<acc value="0.0737272349497486" flag="0"/>
			<vel value="0.150510310002412" flag="0"/>
			<psa03 value="0.153398734830007" flag="0"/>
			<psa10 value="0.161669519812255" flag="0"/>
			<psa30 value="0.0589143294518563" flag="0"/>
		</comp>
		<comp name="--.HNZ" depth="0.0">
			<acc value="0.039189860001858" flag="0"/>
			<vel value="0.0702039340886012" flag="0"/>
			<psa03 value="0.0843047931121305" flag="0"/>
			<psa10 value="0.125053571685393" flag="0"/>
			<psa30 value="0.0289231326822595" flag="0"/>
		</comp>
	</station>
	<station code="G0LD" name="G0LD" netid="HC" source="Seismological Network of Crete (HC)" insttype="" lat="35.4955" lon="24.0306">
		<comp name="--.HNE" depth="0.0">
			<acc value="0.00226782360697951" flag="0"/>
			<vel value="0.00193803342246877" flag="0"/>
			<psa03 value="0.00183493112549419" flag="0"/>
			<psa10 value="0.0020253326839755" flag="0"/>
			<psa30 value="0.00118479254919172" flag="0"/>
		</comp>
		<comp name="--.HNN" depth="0.0">
			<acc value="0.00266793201786919" flag="0"/>
			<vel value="0.00181958623450888" flag="0"/>
			<psa03 value="0.00146398939747728" flag="0"/>
			<psa10 value="0.00149466960046307" flag="0"/>
			<psa30 value="0.000887698493168574" flag="0"/>
		</comp>
		<comp name="--.HNZ" depth="0.0">
			<acc value="0.00354192971312846" flag="0"/>
			<vel value="0.00407194829417225" flag="0"/>
			<psa03 value="0.00248618569369439" flag="0"/>
			<psa10 value="0.00226703924272378" flag="0"/>
			<psa30 value="0.00185746429789377" flag="0"/>
		</comp>
	</station>
	<station code="MULT" name="MULT" netid="HC" source="Seismological Network of Crete (HC)" insttype="" lat="35.5091" lon="24.0118">
		<comp name="--.HNE" depth="0.0">
			<acc value="0.00297075040386328" flag="0"/>
			<vel value="0.00140919562419985" flag="0"/>
			<psa03 value="0.00163721815818876" flag="0"/>
			<psa10 value="0.0015280352092084" flag="0"/>
			<psa30 value="0.00089065056372876" flag="0"/>
		</comp>
		<comp name="--.HNN" depth="0.0">
			<acc value="0.00201168891327605" flag="0"/>
			<vel value="0.0013184258209386" flag="0"/>
			<psa03 value="0.00129070578287158" flag="0"/>
			<psa10 value="0.00113948099283599" flag="0"/>
			<psa30 value="0.000872893606167469" flag="0"/>
		</comp>
		<comp name="--.HNZ" depth="0.0">
			<acc value="0.00346994096976274" flag="0"/>
			<vel value="0.00309561842800557" flag="0"/>
			<psa03 value="0.00286359953014422" flag="0"/>
			<psa10 value="0.00323756673853227" flag="0"/>
			<psa30 value="0.00220828066275623" flag="0"/>
		</comp>
	</station>
	<station code="TEFL" name="TEFL" netid="HC" source="Seismological Network of Crete (HC)" insttype="" lat="35.093273" lon="25.163418">
		<comp name="--.HNE" depth="0.0">
			<acc value="0.587939865256585" flag="0"/>
			<vel value="0.496604018860278" flag="0"/>
			<psa03 value="1.6629033258509" flag="0"/>
			<psa10 value="0.827083330211512" flag="0"/>
			<psa30 value="0.115880969878873" flag="0"/>
		</comp>
		<comp name="--.HNN" depth="0.0">
			<acc value="0.606576882148284" flag="0"/>
			<vel value="0.493799904002097" flag="0"/>
			<psa03 value="1.50058007273202" flag="0"/>
			<psa10 value="0.57191840678762" flag="0"/>
			<psa30 value="0.0826924979721569" flag="0"/>
		</comp>
		<comp name="--.HNZ" depth="0.0">
			<acc value="0.782288994839176" flag="0"/>
			<vel value="0.58592834609805" flag="0"/>
			<psa03 value="2.24185251172646" flag="0"/>
			<psa10 value="0.647180012499633" flag="0"/>
			<psa30 value="0.126358037266502" flag="0"/>
		</comp>
	</station>
	<station code="CH01" name="CH01" netid="HI" source="ITSAK Strong Motion Network" insttype="" lat="35.517" lon="24.0208">
		<comp name="--.HNE" depth="0.0">
			<acc value="0.0835646594662121" flag="0"/>
			<vel value="0.15820075237478" flag="0"/>
			<psa03 value="0.143488067880294" flag="0"/>
			<psa10 value="0.207607287963944" flag="0"/>
			<psa30 value="0.0544259054491275" flag="0"/>
		</comp>
		<comp name="--.HNN" depth="0.0">
			<acc value="0.0990233571658439" flag="0"/>
			<vel value="0.194809816572059" flag="0"/>
			<psa03 value="0.164205388217758" flag="0"/>
			<psa10 value="0.18706678725658" flag="0"/>
			<psa30 value="0.0737814543259151" flag="0"/>
		</comp>
		<comp name="--.HNZ" depth="0.0">
			<acc value="0.0380907481991094" flag="0"/>
			<vel value="0.0837882964815738" flag="0"/>
			<psa03 value="0.0861972361855299" flag="0"/>
			<psa10 value="0.106932903780076" flag="0"/>
			<psa30 value="0.0280935443927734" flag="0"/>
		</comp>
	</station>
	<station code="CH02" name="CH02" netid="HI" source="ITSAK Strong Motion Network" insttype="" lat="35.5145" lon="24.0315">
		<comp name="--.HNE" depth="0.0">
			<acc value="0.080099970258371" flag="0"/>
			<vel value="0.156694926487892" flag="0"/>
			<psa03 value="0.151147971144626" flag="0"/>
			<psa10 value="0.235384493067458" flag="0"/>
			<psa30 value="0.0565808282021841" flag="0"/>
		</comp>
		<comp name="--.HNN" depth="0.0">
			<acc value="0.0781628378429178" flag="0"/>
			<vel value="0.161753767613351" flag="0"/>
			<psa03 value="0.168106709161124" flag="0"/>
			<psa10 value="0.180703995752869" flag="0"/>
			<psa30 value="0.0629554571567339" flag="0"/>
		</comp>
		<comp name="--.HNZ" depth="0.0">
			<acc value="0.0443763640020681" flag="0"/>
			<vel value="0.0713945620263907" flag="0"/>
			<psa03 value="0.0721801097030262" flag="0"/>
			<psa10 value="0.120192514664222" flag="0"/>
			<psa30 value="0.0261908533488296" flag="0"/>
		</comp>
	</station>
	<station code="CH03" name="CH03" netid="HI" source="ITSAK Strong Motion Network" insttype="" lat="35.53303" lon="24.0705">
		<comp name="--.HNE" depth="0.0">
			<acc value="0.0608838912423377" flag="0"/>
			<vel value="0.124691804857418" flag="0"/>
			<psa03 value="0.115789107960139" flag="0"/>
			<psa10 value="0.144354457774373" flag="0"/>
			<psa30 value="0.0329722875855663" flag="0"/>
		</comp>
		<comp name="--.HNN" depth="0.0">
			<acc value="0.0576842354527524" flag="0"/>
			<vel value="0.114213581800241" flag="0"/>
			<psa03 value="0.123508327653893" flag="0"/>
			<psa10 value="0.140890983336189" flag="0"/>
			<psa30 value="0.0370042580171528" flag="0"/>
		</comp>
		<comp name="--.HNZ" depth="0.0">
			<acc value="0.0350406307732327" flag="0"/>
			<vel value="0.0559812648936325" flag="0"/>
			<psa03 value="0.0854508690340357" flag="0"/>
			<psa10 value="0.087161151498522" flag="0"/>
			<psa30 value="0.0200043435229155" flag="0"/>
		</comp>
	</station>
	<station code="GOR1" name="GOR1" netid="HI" source="ITSAK Strong Motion Network" insttype="" lat="35.0582" lon="24.9628">
		<comp name="--.HNE" depth="0.0">
			<acc value="0.223162861656541" flag="0"/>
			<vel value="0.333461880456631" flag="0"/>
			<psa03 value="0.589083565561813" flag="0"/>
			<psa10 value="0.55811143214331" flag="0"/>
			<psa30 value="0.102268894812372" flag="0"/>
		</comp>
		<comp name="--.HNN" depth="0.0">
			<acc value="0.24475349567107" flag="0"/>
			<vel value="0.334355885237336" flag="0"/>
			<psa03 value="0.734984689128537" flag="0"/>
			<psa10 value="0.486867692595212" flag="0"/>
			<psa30 value="0.100589203541068" flag="0"/>
		</comp>
		<comp name="--.HNZ" depth="0.0">
			<acc value="0.219953681950255" flag="0"/>
			<vel value="0.241864991635547" flag="0"/>
			<psa03 value="0.427069291244598" flag="0"/>
			<psa10 value="0.422616366260171" flag="0"/>
			<psa30 value="0.0516187661565928" flag="0"/>
		</comp>
	</station>
	<station code="HER1" name="HER1" netid="HI" source="ITSAK Strong Motion Network" insttype="" lat="35.317672" lon="25.10217">
		<comp name="--.HNE" depth="0.0">
			<acc value="1.06740056497789" flag="0"/>
			<vel value="1.52872245376884" flag="0"/>
			<psa03 value="1.73400236914691" flag="0"/>
			<psa10 value="2.72487746975937" flag="0"/>
			<psa30 value="0.209002338712543" flag="0"/>
		</comp>
		<comp name="--.HNN" depth="0.0">
			<acc value="0.998453211962076" flag="0"/>
			<vel value="1.91409984451809" flag="0"/>
			<psa03 value="2.05675558329669" flag="0"/>
			<psa10 value="2.4787735665836" flag="0"/>
			<psa30 value="0.26490842888331" flag="0"/>
		</comp>
		<comp name="--.HNZ" depth="0.0">
			<acc value="0.688397472012047" flag="0"/>
			<vel value="0.756383031581269" flag="0"/>
			<psa03 value="1.2438720670865" flag="0"/>
			<psa10 value="1.014145542165" flag="0"/>
			<psa30 value="0.0875022165924106" flag="0"/>
		</comp>
	</station>
	<station code="HER3" name="HER3" netid="HI" source="ITSAK Strong Motion Network" insttype="" lat="35.3296" lon="25.1065">
		<comp name="--.HNE" depth="0.0">
			<acc value="0.819930461386565" flag="0"/>
			<vel value="1.27666200115414" flag="0"/>
			<psa03 value="2.09746728024681" flag="0"/>
			<psa10 value="1.83298882651391" flag="0"/>
			<psa30 value="0.116250501025165" flag="0"/>
		</comp>
		<comp name="--.HNN" depth="0.0">
			<acc value="1.0209828588044" flag="0"/>
			<vel value="1.91298566221429" flag="0"/>
			<psa03 value="2.11909971328934" flag="0"/>
			<psa10 value="2.22515332548733" flag="0"/>
			<psa30 value="0.197021465038461" flag="0"/>
		</comp>
		<comp name="--.HNZ" depth="0.0">
			<acc value="0.489927312474034" flag="0"/>
			<vel value="0.513677293045402" flag="0"/>
			<psa03 value="0.840273580667537" flag="0"/>
			<psa10 value="1.01276041040682" flag="0"/>
			<psa30 value="0.0978293607150257" flag="0"/>
		</comp>
	</station>
	<station code="KIS1" name="KIS1" netid="HI" source="ITSAK Strong Motion Network" insttype="" lat="35.493933" lon="23.658993">
		<comp name="--.HNE" depth="0.0">
			<acc value="0.0471652685652879" flag="0"/>
			<vel value="0.0956549145112879" flag="0"/>
			<psa03 value="0.0709812802864609" flag="0"/>
			<psa10 value="0.122292991310491" flag="0"/>
			<psa30 value="0.0361923242305242" flag="0"/>
		</comp>
		<comp name="--.HNN" depth="0.0">
			<acc value="0.0454571427608258" flag="0"/>
			<vel value="0.1029163569455" flag="0"/>
			<psa03 value="0.0911157547215774" flag="0"/>
			<psa10 value="0.117352916554783" flag="0"/>
			<psa30 value="0.039973278033491" flag="0"/>
		</comp>
		<comp name="--.HNZ" depth="0.0">
			<acc value="0.0329106389500096" flag="0"/>
			<vel value="0.0577300783498689" flag="0"/>
			<psa03 value="0.0655522018866615" flag="0"/>
			<psa10 value="0.0877378272004571" flag="0"/>
			<psa30 value="0.0143222387780291" flag="0"/>
		</comp>
	</station>
	<station code="KOS2" name="KOS2" netid="HI" source="ITSAK Strong Motion Network" insttype="" lat="36.8941" lon="27.2888">
		<comp name="--.HNE" depth="0.0">
			<acc value="0.0510207667769887" flag="0"/>
			<vel value="0.159774097930106" flag="0"/>
			<psa03 value="0.113142828490445" flag="0"/>
			<psa10 value="0.117583241812701" flag="0"/>
			<psa30 value="0.0810839647480584" flag="0"/>
		</comp>
		<comp name="--.HNN" depth="0.0">
			<acc value="0.0518982554037062" flag="0"/>
			<vel value="0.140293829092231" flag="0"/>
			<psa03 value="0.11822624857541" flag="0"/>
			<psa10 value="0.154019568040494" flag="0"/>
			<psa30 value="0.0774128215528388" flag="0"/>
		</comp>
		<comp name="--.HNZ" depth="0.0">
			<acc value="0.0348902829963979" flag="0"/>
			<vel value="0.106132536364835" flag="0"/>
			<psa03 value="0.0520845284693935" flag="0"/>
			<psa10 value="0.0713444187175998" flag="0"/>
			<psa30 value="0.0360942977367501" flag="0"/>
		</comp>
	</station>
	<station code="KSS1" name="KSS1" netid="HI" source="ITSAK Strong Motion Network" insttype="" lat="35.4189" lon="26.9207">
		<comp name="--.HNE" depth="0.0">
			<acc value="0.178023354712927" flag="0"/>
			<vel value="0.430046480621338" flag="0"/>
			<psa03 value="0.633202071529644" flag="0"/>
			<psa10 value="0.188223873907891" flag="0"/>
			<psa30 value="0.175777671074703" flag="0"/>
		</comp>
		<comp name="--.HNN" depth="0.0">
			<acc value="0.415674877246721" flag="0"/>
			<vel value="0.413192112638722" flag="0"/>
			<psa03 value="1.50855326758371" flag="0"/>
			<psa10 value="0.358739584736886" flag="0"/>
			<psa30 value="0.1932856975622" flag="0"/>
		</comp>
		<comp name="--.HNZ" depth="0.0">
			<acc value="0.152391305755442" flag="0"/>
			<vel value="0.461241426908428" flag="0"/>
			<psa03 value="0.251011586619046" flag="0"/>
			<psa10 value="0.263054726084597" flag="0"/>
			<psa30 value="0.193751608426508" flag="0"/>
		</comp>
	</station>
	<station code="NAX1" name="NAX1" netid="HI" source="ITSAK Strong Motion Network" insttype="" lat="37.101394" lon="25.374103">
		<comp name="--.HNE" depth="0.0">
			<acc value="0.0159681147913324" flag="0"/>
			<vel value="0.0427106639917445" flag="0"/>
			<psa03 value="0.0382202923234576" flag="0"/>
			<psa10 value="0.0505329213080339" flag="0"/>
			<psa30 value="0.010902310557902" flag="0"/>
		</comp>
		<comp name="--.HNN" depth="0.0">
			<acc value="0.0156216220426532" flag="0"/>
			<vel value="0.0388523424915042" flag="0"/>
			<psa03 value="0.0489477529650775" flag="0"/>
			<psa10 value="0.039817347703872" flag="0"/>
			<psa30 value="0.0132786096427208" flag="0"/>
		</comp>
		<comp name="--.HNZ" depth="0.0">
			<acc value="0.0114719235197437" flag="0"/>
			<vel value="0.0415143273386034" flag="0"/>
			<psa03 value="0.0292014813298247" flag="0"/>
			<psa10 value="0.0272375087262783" flag="0"/>
			<psa30 value="0.00763711092111752" flag="0"/>
		</comp>
	</station>
	<station code="RDI1" name="RDI1" netid="HI" source="ITSAK Strong Motion Network" insttype="" lat="36.4514" lon="28.224">
		<comp name="--.HNE" depth="0.0">
			<acc value="0.0552065163758242" flag="0"/>
			<vel value="0.203653572446981" flag="0"/>
			<psa03 value="0.0969214518205173" flag="0"/>
			<psa10 value="0.141929367124019" flag="0"/>
			<psa30 value="0.0951078004250132" flag="0"/>
		</comp>
		<comp name="--.HNN" depth="0.0">
			<acc value="0.0659779081724837" flag="0"/>
			<vel value="0.23725781719045" flag="0"/>
			<psa03 value="0.126084373304275" flag="0"/>
			<psa10 value="0.152668278524195" flag="0"/>
			<psa30 value="0.129957369037901" flag="0"/>
		</comp>
		<comp name="--.HNZ" depth="0.0">
			<acc value="0.0355991717680947" flag="0"/>
			<vel value="0.0977063861687708" flag="0"/>
			<psa03 value="0.0561191030318242" flag="0"/>
			<psa10 value="0.102728477757486" flag="0"/>
			<psa30 value="0.0521851236749988" flag="0"/>
		</comp>
	</station>
	<station code="RKL1" name="RKL1" netid="HI" source="ITSAK Strong Motion Network" insttype="" lat="36.336699" lon="28.171224">
		<comp name="--.HNE" depth="0.0">
			<acc value="0.0782720198990301" flag="0"/>
			<vel value="0.118353865901498" flag="0"/>
			<psa03 value="0.193100312781368" flag="0"/>
			<psa10 value="0.200412016312509" flag="0"/>
			<psa30 value="0.048304023237809" flag="0"/>
		</comp>
		<comp name="--.HNN" depth="0.0">
			<acc value="0.0586860911212645" flag="0"/>
			<vel value="0.142424701369326" flag="0"/>
			<psa03 value="0.173229079743035" flag="0"/>
			<psa10 value="0.171295267470796" flag="0"/>
			<psa30 value="0.0480487296591956" flag="0"/>
		</comp>
		<comp name="--.HNZ" depth="0.0">
			<acc value="0.0494857200460531" flag="0"/>
			<vel value="0.094496985230959" flag="0"/>
			<psa03 value="0.111263901937448" flag="0"/>
			<psa10 value="0.0610870917200265" flag="0"/>
			<psa30 value="0.0413324414047273" flag="0"/>
		</comp>
	</station>
	<station code="RLN1" name="RLN1" netid="HI" source="ITSAK Strong Motion Network" insttype="" lat="36.089085" lon="28.086909">
		<comp name="--.HNE" depth="0.0">
			<acc value="0.049235304932192" flag="0"/>
			<vel value="0.144275093505868" flag="0"/>
			<psa03 value="0.0654472522259282" flag="0"/>
			<psa10 value="0.10001371791797" flag="0"/>
			<psa30 value="0.0587520320337822" flag="0"/>
		</comp>
		<comp name="--.HNN" depth="0.0">
			<acc value="0.0485709831710224" flag="0"/>
			<vel value="0.131390290203297" flag="0"/>
			<psa03 value="0.0708521884014237" flag="0"/>
			<psa10 value="0.0828907961084352" flag="0"/>
			<psa30 value="0.0540122780483422" flag="0"/>
		</comp>
		<comp name="--.HNZ" depth="0.0">
			<acc value="0.0291175997529331" flag="0"/>
			<vel value="0.0849081499505119" flag="0"/>
			<psa03 value="0.122594850473846" flag="0"/>
			<psa10 value="0.0686993759965007" flag="0"/>
			<psa30 value="0.0383325526768217" flag="0"/>
		</comp>
	</station>
	<station code="RPN1" name="RPN1" netid="HI" source="ITSAK Strong Motion Network" insttype="" lat="36.448678" lon="28.218047">
		<comp name="--.HNE" depth="0.0">
			<acc value="0.0669565995252336" flag="0"/>
			<vel value="0.186088558473843" flag="0"/>
			<psa03 value="0.155412555735759" flag="0"/>
			<psa10 value="0.167066247318966" flag="0"/>
			<psa30 value="0.089442271778212" flag="0"/>
		</comp>
		<comp name="--.HNN" depth="0.0">
			<acc value="0.0613947095823902" flag="0"/>
			<vel value="0.200510236988432" flag="0"/>
			<psa03 value="0.115736344048122" flag="0"/>
			<psa10 value="0.151783084884461" flag="0"/>
			<psa30 value="0.120060113393288" flag="0"/>
		</comp>
		<comp name="--.HNZ" depth="0.0">
			<acc value="0.0358651247342034" flag="0"/>
			<vel value="0.111125531669798" flag="0"/>
			<psa03 value="0.0542583547663837" flag="0"/>
			<psa10 value="0.0748893485518037" flag="0"/>
			<psa30 value="0.0535728356041036" flag="0"/>
		</comp>
	</station>
	<station code="RSO1" name="RSO1" netid="HI" source="ITSAK Strong Motion Network" insttype="" lat="36.3632" lon="28.0016">
		<comp name="--.HNE" depth="0.0">
			<acc value="0.0784582097103759" flag="0"/>
			<vel value="0.191660872543875" flag="0"/>
			<psa03 value="0.152166142760165" flag="0"/>
			<psa10 value="0.143027904896755" flag="0"/>
			<psa30 value="0.083916485722005" flag="0"/>
		</comp>
		<comp name="--.HNN" depth="0.0">
			<acc value="0.059912611383999" flag="0"/>
			<vel value="0.190586844855353" flag="0"/>
			<psa03 value="0.123214693618746" flag="0"/>
			<psa10 value="0.0935866921590559" flag="0"/>
			<psa30 value="0.0849822563240768" flag="0"/>
		</comp>
		<comp name="--.HNZ" depth="0.0">
			<acc value="0.0376495226445902" flag="0"/>
			<vel value="0.128056590017316" flag="0"/>
			<psa03 value="0.0928336810257639" flag="0"/>
			<psa10 value="0.0981786463534851" flag="0"/>
			<psa30 value="0.0577442919426136" flag="0"/>
		</comp>
	</station>
	<station code="RTH1" name="RTH1" netid="HI" source="ITSAK Strong Motion Network" insttype="" lat="35.365393" lon="24.471773">
		<comp name="--.HNE" depth="0.0">
			<acc value="0.0877443129468919" flag="0"/>
			<vel value="0.151150353468678" flag="0"/>
			<psa03 value="0.273979628972464" flag="0"/>
			<psa10 value="0.164475725709623" flag="0"/>
			<psa30 value="0.0449555347502135" flag="0"/>
		</comp>
		<comp name="--.HNN" depth="0.0">
			<acc value="0.0938553504882894" flag="0"/>
			<vel value="0.163180287538322" flag="0"/>
