<?xml version="1.0" encoding="UTF-8" standalone="yes"?>
<!DOCTYPE earthquake SYSTEM "stationlist.dtd">
<stationlist created="" xmlns="ch.ethz.sed.shakemap.usgs.xml">
  <station code="IMMV" name="IMMV" netid="GE" insttype="STS-2/N" commtype="DIG" lat="35.4606" lon="23.9811">
    <comp name="--.HHE">
      <acc value="0.0601298896" flag="0"/>
      <vel value="0.0789477179" flag="0"/>
      <psa03 value="0.1234891101" flag="0"/>
      <psa10 value="0.2437725142" flag="0"/>
      <psa30 value="0.0261075823" flag="0"/>
    </comp>
    <comp name="--.HHZ">
      <acc value="0.0437796879" flag="0"/>
      <vel value="0.0732615372" flag="0"/>
      <psa03 value="0.1426300604" flag="0"/>
      <psa10 value="0.1041832323" flag="0"/>
      <psa30 value="0.0223555623" flag="0"/>
    </comp>
    <comp name="--.HHN">
      <acc value="0.0727181507" flag="0"/>
      <vel value="0.1190520412" flag="0"/>
      <psa03 value="0.1877093971" flag="0"/>
      <psa10 value="0.2187223653" flag="0"/>
      <psa30 value="0.0376939681" flag="0"/>
    </comp>
  </station>
  <station code="KARP" name="KARP" netid="GE" insttype="STS-2/N" commtype="DIG" lat="35.5471" lon="27.1611">
    <comp name="--.HHZ">
      <acc value="0.1644008729" flag="0"/>
      <vel value="0.3270075958" flag="0"/>
      <psa03 value="0.4911964222" flag="0"/>
      <psa10 value="0.2052255461" flag="0"/>
      <psa30 value="0.1142508308" flag="0"/>
    </comp>
    <comp name="--.HHN">
      <acc value="0.2570993739" flag="0"/>
      <vel value="0.2451151048" flag="0"/>
      <psa03 value="0.4428348708" flag="0"/>
      <psa10 value="0.5230120454" flag="0"/>
      <psa30 value="0.0891898626" flag="0"/>
    </comp>
    <comp name="--.HHE">
      <acc value="0.1897890343" flag="0"/>
      <vel value="0.4438442862" flag="0"/>
      <psa03 value="0.6123415122" flag="0"/>
      <psa10 value="0.4771454045" flag="0"/>
      <psa30 value="0.1023661276" flag="0"/>
    </comp>
  </station>
</stationlist>
