<?xml version="1.0" encoding="UTF-8" standalone="yes"?>
<!DOCTYPE earthquake SYSTEM "stationlist.dtd">
<stationlist created="" xmlns="ch.ethz.sed.shakemap.usgs.xml">
  <station code="THL" name="THL" netid="MN" insttype="" lat="39.5647" lon="22.0144">
    <comp name="--.HHN">
      <acc value="0.0081473693" flag="0"/>
      <vel value="0.0075777444" flag="0"/>
      <psa03 value="0.0413016382" flag="0"/>
      <psa10 value="0.0064450601" flag="0"/>
      <psa30 value="0.0022795480" flag="0"/>
    </comp>
    <comp name="--.HHE">
      <acc value="0.0071487729" flag="0"/>
      <vel value="0.0050108649" flag="0"/>
      <psa03 value="0.0359748553" flag="0"/>
      <psa10 value="0.0089227848" flag="0"/>
      <psa30 value="0.0013786396" flag="0"/>
    </comp>
  </station>
</stationlist>
