<?xml version="1.0" encoding="UTF-8" standalone="yes"?>
<!DOCTYPE earthquake SYSTEM "stationlist.dtd">
<stationlist created="" xmlns="ch.ethz.sed.shakemap.usgs.xml">
  <station code="AMPE" name="AMPE" netid="HA" insttype="1s-100Hz," lat="38.3015" lon="23.2688">
    <comp name="--.HHZ">
      <acc value="0.0513080037" flag="0"/>
      <vel value="0.0291313754" flag="0"/>
      <psa03 value="0.1624275605" flag="0"/>
      <psa10 value="0.0430559390" flag="0"/>
      <psa30 value="0.0027670498" flag="0"/>
    </comp>
    <comp name="--.HHN">
      <acc value="0.0845348597" flag="0"/>
      <vel value="0.0745858949" flag="0"/>
      <psa03 value="0.1100526847" flag="0"/>
      <psa10 value="0.1098289987" flag="0"/>
      <psa30 value="0.0047041459" flag="0"/>
    </comp>
    <comp name="--.HHE">
      <acc value="0.1523578888" flag="0"/>
      <vel value="0.1012118478" flag="0"/>
      <psa03 value="0.2418999771" flag="0"/>
      <psa10 value="0.1094955053" flag="0"/>
      <psa30 value="0.0068245016" flag="0"/>
    </comp>
  </station>
  <station code="ANTK" name="ANTK" netid="HA" insttype="25" lat="38.3605" lon="22.6385">
    <comp name="--.HHZ">
      <acc value="0.0197789256" flag="0"/>
      <vel value="0.0213066614" flag="0"/>
      <psa03 value="0.0576984309" flag="0"/>
      <psa10 value="0.0188794034" flag="0"/>
      <psa30 value="0.0011842073" flag="0"/>
    </comp>
    <comp name="--.HHN">
      <acc value="0.0008211667" flag="0"/>
      <vel value="0.0006393728" flag="0"/>
      <psa03 value="0.0012631057" flag="0"/>
      <psa10 value="0.0008844449" flag="0"/>
      <psa30 value="0.0000477448" flag="0"/>
    </comp>
    <comp name="--.HHE">
      <acc value="0.0168852377" flag="0"/>
      <vel value="0.0188049271" flag="0"/>
      <psa03 value="0.0434177982" flag="0"/>
      <psa10 value="0.0325138126" flag="0"/>
      <psa30 value="0.0033991773" flag="0"/>
    </comp>
  </station>
  <station code="ATAL" name="ATAL" netid="HA" insttype="120s," lat="38.6926" lon="23.0213">
    <comp name="--.HHE">
      <acc value="0.1813491449" flag="0"/>
      <vel value="0.0559523128" flag="0"/>
      <psa03 value="0.2185228625" flag="0"/>
      <psa10 value="0.0641586507" flag="0"/>
      <psa30 value="0.0055836799" flag="0"/>
    </comp>
    <comp name="--.HHN">
      <acc value="0.2069000413" flag="0"/>
      <vel value="0.0798937286" flag="0"/>
      <psa03 value="0.2473686670" flag="0"/>
      <psa10 value="0.0436271654" flag="0"/>
      <psa30 value="0.0065330652" flag="0"/>
    </comp>
    <comp name="--.HHZ">
      <acc value="0.1751944403" flag="0"/>
      <vel value="0.0465337857" flag="0"/>
      <psa03 value="0.2198792933" flag="0"/>
      <psa10 value="0.0372918718" flag="0"/>
      <psa30 value="0.0043675944" flag="0"/>
    </comp>
  </station>
  <station code="ATHU" name="ATHU" netid="HA" insttype="60s," lat="37.9665" lon="23.7845">
    <comp name="--.HHZ">
      <acc value="0.0508772590" flag="0"/>
      <vel value="0.0270826786" flag="0"/>
      <psa03 value="0.0991913190" flag="0"/>
      <psa10 value="0.0179184811" flag="0"/>
      <psa30 value="0.0014909314" flag="0"/>
    </comp>
    <comp name="--.HHN">
      <acc value="0.0621103093" flag="0"/>
      <vel value="0.0218733716" flag="0"/>
      <psa03 value="0.1064973805" flag="0"/>
      <psa10 value="0.0201933183" flag="0"/>
      <psa30 value="0.0025193818" flag="0"/>
    </comp>
    <comp name="--.HHE">
      <acc value="0.0526385874" flag="0"/>
      <vel value="0.0279459759" flag="0"/>
      <psa03 value="0.1267340963" flag="0"/>
      <psa10 value="0.0274622168" flag="0"/>
      <psa30 value="0.0025604025" flag="0"/>
    </comp>
  </station>
  <station code="AXAR" name="AXAR" netid="HA" insttype="Horizon,120s,1200" lat="38.7664" lon="22.659">
    <comp name="--.HHE">
      <acc value="0.1951491963" flag="0"/>
      <vel value="0.0543543207" flag="0"/>
      <psa03 value="0.3568353596" flag="0"/>
      <psa10 value="0.0615907318" flag="0"/>
      <psa30 value="0.0052856326" flag="0"/>
    </comp>
    <comp name="--.HHN">
      <acc value="0.1545684565" flag="0"/>
      <vel value="0.0553115783" flag="0"/>
      <psa03 value="0.3508359999" flag="0"/>
      <psa10 value="0.0680980756" flag="0"/>
      <psa30 value="0.0055440664" flag="0"/>
    </comp>
    <comp name="--.HHZ">
      <acc value="0.1335227648" flag="0"/>
      <vel value="0.0425723348" flag="0"/>
      <psa03 value="0.1579680956" flag="0"/>
      <psa10 value="0.0412803513" flag="0"/>
      <psa30 value="0.0025095922" flag="0"/>
    </comp>
  </station>
  <station code="DOMV" name="DOMV" netid="HA" insttype="60" lat="38.2569" lon="22.9795">
    <comp name="--.HHN">
      <acc value="0.2380378894" flag="0"/>
      <vel value="0.0784369082" flag="0"/>
      <psa03 value="0.4824364983" flag="0"/>
      <psa10 value="0.0605474533" flag="0"/>
      <psa30 value="0.0043973479" flag="0"/>
    </comp>
    <comp name="--.HHZ">
      <acc value="0.1755098845" flag="0"/>
      <vel value="0.0576356646" flag="0"/>
      <psa03 value="0.1861035622" flag="0"/>
      <psa10 value="0.0438579682" flag="0"/>
      <psa30 value="0.0029417154" flag="0"/>
    </comp>
    <comp name="--.HHE">
      <acc value="0.2899611143" flag="0"/>
      <vel value="0.1392756824" flag="0"/>
      <psa03 value="0.4083506107" flag="0"/>
      <psa10 value="0.0679638186" flag="0"/>
      <psa30 value="0.0081453093" flag="0"/>
    </comp>
  </station>
  <station code="ERTR" name="ERTR" netid="HA" insttype="Horizon,120s,1200" lat="38.4066" lon="23.7865">
    <comp name="--.HHE">
      <acc value="0.2197647036" flag="0"/>
      <vel value="0.0848644679" flag="0"/>
      <psa03 value="0.4899077401" flag="0"/>
      <psa10 value="0.0537787417" flag="0"/>
      <psa30 value="0.0040967410" flag="0"/>
    </comp>
    <comp name="--.HHZ">
      <acc value="0.1519764315" flag="0"/>
      <vel value="0.0563140356" flag="0"/>
      <psa03 value="0.3215682720" flag="0"/>
      <psa10 value="0.0292668393" flag="0"/>
      <psa30 value="0.0019943747" flag="0"/>
    </comp>
    <comp name="--.HHN">
      <acc value="0.2566592533" flag="0"/>
      <vel value="0.0905108603" flag="0"/>
      <psa03 value="0.3835295190" flag="0"/>
      <psa10 value="0.0353321924" flag="0"/>
      <psa30 value="0.0039483204" flag="0"/>
    </comp>
  </station>
  <station code="KALE" name="KALE" netid="HA" insttype="40," lat="38.3911" lon="22.1398">
    <comp name="--.HHE">
      <acc value="0.0210709589" flag="0"/>
      <vel value="0.0169234462" flag="0"/>
      <psa03 value="0.0611584146" flag="0"/>
      <psa10 value="0.0165150695" flag="0"/>
      <psa30 value="0.0035920011" flag="0"/>
    </comp>
    <comp name="--.HHN">
      <acc value="0.0247723069" flag="0"/>
      <vel value="0.0144967775" flag="0"/>
      <psa03 value="0.0689918285" flag="0"/>
      <psa10 value="0.0115013174" flag="0"/>
      <psa30 value="0.0012607035" flag="0"/>
    </comp>
    <comp name="--.HHZ">
      <acc value="0.0122969606" flag="0"/>
      <vel value="0.0088734319" flag="0"/>
      <psa03 value="0.0366816733" flag="0"/>
      <psa10 value="0.0119650524" flag="0"/>
      <psa30 value="0.0013229863" flag="0"/>
    </comp>
  </station>
  <station code="KIAS" name="KIAS" netid="HA" insttype="DC" lat="37.9875" lon="22.7543">
    <comp name="--.HNE">
      <acc value="0.0942738897" flag="0"/>
      <vel value="0.0680298598" flag="0"/>
      <psa03 value="0.2273696884" flag="0"/>
      <psa10 value="0.0834995326" flag="0"/>
      <psa30 value="0.0155843590" flag="0"/>
    </comp>
    <comp name="--.HNZ">
      <acc value="0.0338021882" flag="0"/>
      <vel value="0.0384070763" flag="0"/>
      <psa03 value="0.0568199336" flag="0"/>
      <psa10 value="0.0401771938" flag="0"/>
      <psa30 value="0.0074802016" flag="0"/>
    </comp>
    <comp name="--.HNN">
      <acc value="0.1018302771" flag="0"/>
      <vel value="0.0766510537" flag="0"/>
      <psa03 value="0.1896692828" flag="0"/>
      <psa10 value="0.1119174937" flag="0"/>
      <psa30 value="0.0172416337" flag="0"/>
    </comp>
  </station>
  <station code="LAKA" name="LAKA" netid="HA" insttype="120s," lat="38.2401" lon="21.9785">
    <comp name="--.HHN">
      <acc value="0.0037300502" flag="0"/>
      <vel value="0.0033212306" flag="0"/>
      <psa03 value="0.0104777897" flag="0"/>
      <psa10 value="0.0066849952" flag="0"/>
      <psa30 value="0.0008701605" flag="0"/>
    </comp>
    <comp name="--.HHZ">
      <acc value="0.0040297644" flag="0"/>
      <vel value="0.0036415587" flag="0"/>
      <psa03 value="0.0082994097" flag="0"/>
      <psa10 value="0.0048451400" flag="0"/>
      <psa30 value="0.0005619180" flag="0"/>
    </comp>
    <comp name="--.HHE">
      <acc value="0.0029973584" flag="0"/>
      <vel value="0.0035652071" flag="0"/>
      <psa03 value="0.0076714103" flag="0"/>
      <psa10 value="0.0094946430" flag="0"/>
      <psa30 value="0.0013418293" flag="0"/>
    </comp>
  </station>
  <station code="MDRA" name="MDRA" netid="HA" insttype="60" lat="38.0606" lon="23.4662">
    <comp name="--.HHN">
      <acc value="0.0673347570" flag="0"/>
      <vel value="0.0398801124" flag="0"/>
      <psa03 value="0.1598235306" flag="0"/>
      <psa10 value="0.0375771964" flag="0"/>
      <psa30 value="0.0040382867" flag="0"/>
    </comp>
    <comp name="--.HHZ">
      <acc value="0.0568239201" flag="0"/>
      <vel value="0.0402550391" flag="0"/>
      <psa03 value="0.1216067989" flag="0"/>
      <psa10 value="0.0380950107" flag="0"/>
      <psa30 value="0.0035673141" flag="0"/>
    </comp>
    <comp name="--.HHE">
      <acc value="0.0625200629" flag="0"/>
      <vel value="0.0423344895" flag="0"/>
      <psa03 value="0.1381428409" flag="0"/>
      <psa10 value="0.0362878595" flag="0"/>
      <psa30 value="0.0036603353" flag="0"/>
    </comp>
  </station>
  <station code="MRKA" name="MRKA" netid="HA" insttype="Horizon,120s,1200" lat="38.7047" lon="23.5863">
    <comp name="--.HHE">
      <acc value="2.5203199469" flag="0"/>
      <vel value="0.6613455838" flag="0"/>
      <psa03 value="2.6807206371" flag="0"/>
      <psa10 value="0.2738378145" flag="0"/>
      <psa30 value="0.0132779568" flag="0"/>
    </comp>
    <comp name="--.HHN">
      <acc value="1.5055355757" flag="0"/>
      <vel value="0.3900870483" flag="0"/>
      <psa03 value="2.3061723534" flag="0"/>
      <psa10 value="0.1653241843" flag="0"/>
      <psa30 value="0.0144145742" flag="0"/>
    </comp>
    <comp name="--.HHZ">
      <acc value="0.9876379480" flag="0"/>
      <vel value="0.2444692639" flag="0"/>
      <psa03 value="1.3495452829" flag="0"/>
      <psa10 value="0.1002776582" flag="0"/>
      <psa30 value="0.0094154419" flag="0"/>
    </comp>
  </station>
  <station code="MRTH" name="MRTH" netid="HA" insttype="S100," lat="38.1225" lon="23.9409">
    <comp name="--.HHE">
      <acc value="0.2210876988" flag="0"/>
      <vel value="0.1434867601" flag="0"/>
      <psa03 value="0.4798538827" flag="0"/>
      <psa10 value="0.1793368438" flag="0"/>
      <psa30 value="0.0084404807" flag="0"/>
    </comp>
    <comp name="--.HHN">
      <acc value="0.2711231476" flag="0"/>
      <vel value="0.1229357755" flag="0"/>
      <psa03 value="0.3768177379" flag="0"/>
      <psa10 value="0.0863572062" flag="0"/>
      <psa30 value="0.0051341421" flag="0"/>
    </comp>
    <comp name="--.HHZ">
      <acc value="0.1760294530" flag="0"/>
      <vel value="0.0857776048" flag="0"/>
      <psa03 value="0.3165952943" flag="0"/>
      <psa10 value="0.0549044380" flag="0"/>
      <psa30 value="0.0032096295" flag="0"/>
    </comp>
  </station>
  <station code="PRDM" name="PRDM" netid="HA" insttype="25" lat="38.2804" lon="22.847">
    <comp name="--.HHE">
      <acc value="0.0378220488" flag="0"/>
      <vel value="0.0172699252" flag="0"/>
      <psa03 value="0.0875869305" flag="0"/>
      <psa10 value="0.0193030159" flag="0"/>
      <psa30 value="0.0013192537" flag="0"/>
    </comp>
    <comp name="--.HHN">
      <acc value="0.0427623971" flag="0"/>
      <vel value="0.0304872658" flag="0"/>
      <psa03 value="0.0709782468" flag="0"/>
      <psa10 value="0.0229624410" flag="0"/>
      <psa30 value="0.0026322888" flag="0"/>
    </comp>
    <comp name="--.HHZ">
      <acc value="0.0265295988" flag="0"/>
      <vel value="0.0112461211" flag="0"/>
      <psa03 value="0.0384903162" flag="0"/>
      <psa10 value="0.0077463004" flag="0"/>
      <psa30 value="0.0008008213" flag="0"/>
    </comp>
  </station>
  <station code="PSAH" name="PSAH" netid="HA" insttype="25" lat="38.5694" lon="23.6473">
    <comp name="--.HHN">
      <acc value="0.1413291385" flag="0"/>
      <vel value="0.0521598194" flag="0"/>
      <psa03 value="0.3585950996" flag="0"/>
      <psa10 value="0.0438036934" flag="0"/>
      <psa30 value="0.0045890352" flag="0"/>
    </comp>
    <comp name="--.HHE">
      <acc value="0.2753628925" flag="0"/>
      <vel value="0.1068791596" flag="0"/>
      <psa03 value="0.6103611361" flag="0"/>
      <psa10 value="0.0718169896" flag="0"/>
      <psa30 value="0.0044482934" flag="0"/>
    </comp>
    <comp name="--.HHZ">
      <acc value="0.1213743825" flag="0"/>
      <vel value="0.0369430613" flag="0"/>
      <psa03 value="0.2236111335" flag="0"/>
      <psa10 value="0.0450845889" flag="0"/>
      <psa30 value="0.0018446836" flag="0"/>
    </comp>
  </station>
  <station code="THAL" name="THAL" netid="HA" insttype="30" lat="38.0357" lon="22.6634">
    <comp name="--.HHE">
      <acc value="0.1169873617" flag="0"/>
      <vel value="0.0617502166" flag="0"/>
      <psa03 value="0.1755161655" flag="0"/>
      <psa10 value="0.0757835502" flag="0"/>
      <psa30 value="0.0068030988" flag="0"/>
    </comp>
    <comp name="--.HHN">
      <acc value="0.0804783557" flag="0"/>
      <vel value="0.0552374159" flag="0"/>
      <psa03 value="0.2266159556" flag="0"/>
      <psa10 value="0.0599742126" flag="0"/>
      <psa30 value="0.0062058967" flag="0"/>
    </comp>
    <comp name="--.HHZ">
      <acc value="0.0544604336" flag="0"/>
      <vel value="0.0247086987" flag="0"/>
      <psa03 value="0.1163001356" flag="0"/>
      <psa10 value="0.0291271581" flag="0"/>
      <psa30 value="0.0025617379" flag="0"/>
    </comp>
  </station>
  <station code="THIV" name="THIV" netid="HA" insttype="25" lat="38.299" lon="23.332">
    <comp name="--.HHE">
      <acc value="0.0934387895" flag="0"/>
      <vel value="0.0739498409" flag="0"/>
      <psa03 value="0.1632818963" flag="0"/>
      <psa10 value="0.0528658037" flag="0"/>
      <psa30 value="0.0059451169" flag="0"/>
    </comp>
    <comp name="--.HHN">
      <acc value="0.1193071068" flag="0"/>
      <vel value="0.0830847796" flag="0"/>
      <psa03 value="0.2271107431" flag="0"/>
      <psa10 value="0.0518166860" flag="0"/>
      <psa30 value="0.0047939108" flag="0"/>
    </comp>
    <comp name="--.HHZ">
      <acc value="0.0807320888" flag="0"/>
      <vel value="0.0458248277" flag="0"/>
      <psa03 value="0.1077988182" flag="0"/>
      <psa10 value="0.0404536045" flag="0"/>
      <psa30 value="0.0031821687" flag="0"/>
    </comp>
  </station>
  <station code="VILL" name="VILL" netid="HA" insttype="Horizon,120s,1200" lat="38.1642" lon="23.3122">
    <comp name="--.HHE">
      <acc value="0.1216916331" flag="0"/>
      <vel value="0.0690129331" flag="0"/>
      <psa03 value="0.1952529849" flag="0"/>
      <psa10 value="0.0837732261" flag="0"/>
      <psa30 value="0.0081869565" flag="0"/>
    </comp>
    <comp name="--.HHN">
      <acc value="0.1157116373" flag="0"/>
      <vel value="0.0603209549" flag="0"/>
      <psa03 value="0.1879664487" flag="0"/>
      <psa10 value="0.1067263370" flag="0"/>
      <psa30 value="0.0039240393" flag="0"/>
    </comp>
    <comp name="--.HHZ">
      <acc value="0.0568543837" flag="0"/>
      <vel value="0.0367591267" flag="0"/>
      <psa03 value="0.0879070599" flag="0"/>
      <psa10 value="0.0561486818" flag="0"/>
      <psa30 value="0.0029714228" flag="0"/>
    </comp>
  </station>
  <station code="ATH5" name="ATH5" netid="HI" insttype="CMG-5TD,ACCELEROMETER,GURALP" lat="37.9754" lon="23.7371">
    <comp name="--.HNE">
      <acc value="0.0826568331" flag="0"/>
      <vel value="0.0475154138" flag="0"/>
      <psa03 value="0.1758644269" flag="0"/>
      <psa10 value="0.0582614948" flag="0"/>
      <psa30 value="0.0037676021" flag="0"/>
    </comp>
    <comp name="--.HNZ">
      <acc value="0.0801905503" flag="0"/>
      <vel value="0.0422213547" flag="0"/>
      <psa03 value="0.0787961884" flag="0"/>
      <psa10 value="0.0371415632" flag="0"/>
      <psa30 value="0.0029375741" flag="0"/>
    </comp>
    <comp name="--.HNN">
      <acc value="0.1022093426" flag="0"/>
      <vel value="0.0362735958" flag="0"/>
      <psa03 value="0.1540200575" flag="0"/>
      <psa10 value="0.0351088109" flag="0"/>
      <psa30 value="0.0028980718" flag="0"/>
    </comp>
  </station>
  <station code="LAM2" name="LAM2" netid="HI" insttype="CMG-5TD,ACCELEROMETER,GURALP" lat="38.902" lon="22.4313">
    <comp name="--.HNE">
      <acc value="0.0880080720" flag="0"/>
      <vel value="0.0254549875" flag="0"/>
      <psa03 value="0.2014199334" flag="0"/>
      <psa10 value="0.0215735443" flag="0"/>
      <psa30 value="0.0024806755" flag="0"/>
    </comp>
    <comp name="--.HNN">
      <acc value="0.0597251658" flag="0"/>
      <vel value="0.0175173134" flag="0"/>
      <psa03 value="0.1104864476" flag="0"/>
      <psa10 value="0.0129898214" flag="0"/>
      <psa30 value="0.0025985579" flag="0"/>
    </comp>
    <comp name="--.HNZ">
      <acc value="0.0365123035" flag="0"/>
      <vel value="0.0106682370" flag="0"/>
      <psa03 value="0.0722885475" flag="0"/>
      <psa10 value="0.0113682273" flag="0"/>
      <psa30 value="0.0013895058" flag="0"/>
    </comp>
  </station>
  <station code="PLN1" name="PLN1" netid="HI" insttype="CMG-5TD,ACCELEROMETER,GURALP" lat="39.998" lon="23.575">
    <comp name="--.HNE">
      <acc value="0.0181390451" flag="0"/>
      <vel value="0.0200865889" flag="0"/>
      <psa03 value="0.0447497359" flag="0"/>
      <psa10 value="0.0343516802" flag="0"/>
      <psa30 value="0.0093614996" flag="0"/>
    </comp>
    <comp name="--.HNN">
      <acc value="0.0209815121" flag="0"/>
      <vel value="0.0208907684" flag="0"/>
      <psa03 value="0.0417176902" flag="0"/>
      <psa10 value="0.0469041739" flag="0"/>
      <psa30 value="0.0039204915" flag="0"/>
    </comp>
    <comp name="--.HNZ">
      <acc value="0.0188325959" flag="0"/>
      <vel value="0.0122125964" flag="0"/>
      <psa03 value="0.0321609086" flag="0"/>
      <psa10 value="0.0257459077" flag="0"/>
      <psa30 value="0.0021063621" flag="0"/>
    </comp>
  </station>
  <station code="SKY1" name="SKY1" netid="HI" insttype="CMG-5TD,ACCELEROMETER,GURALP" lat="38.9045" lon="24.5646">
    <comp name="--.HNE">
      <acc value="0.1115138681" flag="0"/>
      <vel value="0.0432956004" flag="0"/>
      <psa03 value="0.3662992577" flag="0"/>
      <psa10 value="0.0225823963" flag="0"/>
      <psa30 value="0.0028971972" flag="0"/>
    </comp>
    <comp name="--.HNN">
      <acc value="0.1668756011" flag="0"/>
      <vel value="0.0871771308" flag="0"/>
      <psa03 value="0.6321600250" flag="0"/>
      <psa10 value="0.0476372843" flag="0"/>
      <psa30 value="0.0042860152" flag="0"/>
    </comp>
    <comp name="--.HNZ">
      <acc value="0.0830778354" flag="0"/>
      <vel value="0.0362251336" flag="0"/>
      <psa03 value="0.1480187541" flag="0"/>
      <psa10 value="0.0218226884" flag="0"/>
      <psa30 value="0.0038967068" flag="0"/>
    </comp>
  </station>
  <station code="VOL2" name="VOL2" netid="HI" insttype="CMG-5TD,ACCELEROMETER,GURALP" lat="39.366" lon="22.9506">
    <comp name="--.HNE">
      <acc value="0.3591194357" flag="0"/>
      <vel value="0.1299189186" flag="0"/>
      <psa03 value="1.2922734681" flag="0"/>
      <psa10 value="0.0394915122" flag="0"/>
      <psa30 value="0.0060631622" flag="0"/>
    </comp>
