<?xml version="1.0" encoding="UTF-8" standalone="yes"?>
<!DOCTYPE earthquake SYSTEM "stationlist.dtd">
<stationlist created="" xmlns="ch.ethz.sed.shakemap.usgs.xml">
  <station code="KTHR" name="KTHR" netid="HC" insttype="120s" lat="36.2447" lon="22.9939">
    <comp name="--.HHE">
      <acc value="0.0779551002" flag="0"/>
      <vel value="0.0336878182" flag="0"/>
      <psa03 value="0.2340048477" flag="0"/>
      <psa10 value="0.0194785354" flag="0"/>
      <psa30 value="0.0026022006" flag="0"/>
    </comp>
    <comp name="--.HHZ">
      <acc value="0.0514023508" flag="0"/>
      <vel value="0.0154047860" flag="0"/>
      <psa03 value="0.0785186691" flag="0"/>
      <psa10 value="0.0130503260" flag="0"/>
      <psa30 value="0.0011544136" flag="0"/>
    </comp>
    <comp name="--.HHN">
      <acc value="0.0791573553" flag="0"/>
      <vel value="0.0305317325" flag="0"/>
      <psa03 value="0.1779672407" flag="0"/>
      <psa10 value="0.0215482655" flag="0"/>
      <psa30 value="0.0020773648" flag="0"/>
    </comp>
  </station>
  <station code="PYL1" name="PYL1" netid="HI" insttype="CMG-5TD,ACCELEROMETER,GURALP" lat="36.9142" lon="21.6952">
    <comp name="--.HNE">
      <acc value="0.0148241440" flag="0"/>
      <vel value="0.0095482647" flag="0"/>
      <psa03 value="0.0702652506" flag="0"/>
      <psa10 value="0.0097344477" flag="0"/>
      <psa30 value="0.0017039761" flag="0"/>
    </comp>
    <comp name="--.HNN">
      <acc value="0.0155230319" flag="0"/>
      <vel value="0.0088576534" flag="0"/>
      <psa03 value="0.0472927767" flag="0"/>
      <psa10 value="0.0095066117" flag="0"/>
      <psa30 value="0.0010326299" flag="0"/>
    </comp>
    <comp name="--.HNZ">
      <acc value="0.0119545277" flag="0"/>
      <vel value="0.0058267009" flag="0"/>
      <psa03 value="0.0494149263" flag="0"/>
      <psa10 value="0.0055710752" flag="0"/>
      <psa30 value="0.0013886994" flag="0"/>
    </comp>
  </station>
  <station code="PYL" name="PYL" netid="HP" insttype="DC_100" lat="36.8955" lon="21.742">
    <comp name="--.HNN">
      <acc value="0.0208377778" flag="0"/>
      <vel value="0.0109015225" flag="0"/>
      <psa03 value="0.0865859414" flag="0"/>
      <psa10 value="0.0069659289" flag="0"/>
      <psa30 value="0.0018449087" flag="0"/>
    </comp>
    <comp name="--.HNE">
      <acc value="0.0244236434" flag="0"/>
      <vel value="0.0120763833" flag="0"/>
      <psa03 value="0.0949513734" flag="0"/>
      <psa10 value="0.0066621600" flag="0"/>
      <psa30 value="0.0012993075" flag="0"/>
    </comp>
    <comp name="--.HNZ">
      <acc value="0.0137947552" flag="0"/>
      <vel value="0.0070480336" flag="0"/>
      <psa03 value="0.0579688437" flag="0"/>
      <psa10 value="0.0043058128" flag="0"/>
      <psa30 value="0.0015906444" flag="0"/>
    </comp>
  </station>
  <station code="VALY" name="VALY" netid="HP" insttype="DC_100" lat="37.1641" lon="21.9836">
    <comp name="--.HNZ">
      <acc value="0.0049086559" flag="0"/>
      <vel value="0.0048356650" flag="0"/>
      <psa03 value="0.0154183652" flag="0"/>
      <psa10 value="0.0040771133" flag="0"/>
      <psa30 value="0.0009114280" flag="0"/>
    </comp>
    <comp name="--.HNE">
      <acc value="0.0095855751" flag="0"/>
      <vel value="0.0076162404" flag="0"/>
      <psa03 value="0.0292078674" flag="0"/>
      <psa10 value="0.0072932273" flag="0"/>
      <psa30 value="0.0014007523" flag="0"/>
    </comp>
    <comp name="--.HNN">
      <acc value="0.0112456187" flag="0"/>
      <vel value="0.0074525491" flag="0"/>
      <psa03 value="0.0367508498" flag="0"/>
      <psa10 value="0.0062226016" flag="0"/>
      <psa30 value="0.0008745868" flag="0"/>
    </comp>
  </station>
</stationlist>
