<?xml version="1.0" encoding="UTF-8" standalone="yes"?>
<!DOCTYPE earthquake SYSTEM "stationlist.dtd">
<stationlist created="" xmlns="ch.ethz.sed.shakemap.usgs.xml">
  <station code="KTHR" name="KTHR" netid="HC" insttype="120s" lat="36.2447" lon="22.9939">
    <comp name="--.HHZ">
      <acc value="0.0514023511" flag="0"/>
      <vel value="0.0154047858" flag="0"/>
      <psa03 value="0.0785186691" flag="0"/>
      <psa10 value="0.0130503264" flag="0"/>
      <psa30 value="0.0011544422" flag="0"/>
    </comp>
    <comp name="--.HHN">
      <acc value="0.0791573554" flag="0"/>
      <vel value="0.0305317270" flag="0"/>
      <psa03 value="0.1779672407" flag="0"/>
      <psa10 value="0.0215482647" flag="0"/>
      <psa30 value="0.0020777497" flag="0"/>
    </comp>
    <comp name="--.HHE">
      <acc value="0.0779551005" flag="0"/>
      <vel value="0.0336878171" flag="0"/>
      <psa03 value="0.2340048477" flag="0"/>
      <psa10 value="0.0194785341" flag="0"/>
      <psa30 value="0.0026022535" flag="0"/>
    </comp>
  </station>
  <station code="PYL1" name="PYL1" netid="HI" insttype="CMG-5TD,ACCELEROMETER,GURALP" lat="36.9142" lon="21.6952">
    <comp name="--.HNZ">
      <acc value="0.0119545214" flag="0"/>
      <vel value="0.0058267017" flag="0"/>
      <psa03 value="0.0494149263" flag="0"/>
      <psa10 value="0.0055710749" flag="0"/>
      <psa30 value="0.0013886105" flag="0"/>
    </comp>
    <comp name="--.HNN">
      <acc value="0.0155230256" flag="0"/>
      <vel value="0.0088576502" flag="0"/>
      <psa03 value="0.0472927767" flag="0"/>
      <psa10 value="0.0095066121" flag="0"/>
      <psa30 value="0.0010327292" flag="0"/>
    </comp>
    <comp name="--.HNE">
      <acc value="0.0148241416" flag="0"/>
      <vel value="0.0095482673" flag="0"/>
      <psa03 value="0.0702652506" flag="0"/>
      <psa10 value="0.0097344464" flag="0"/>
      <psa30 value="0.0017039655" flag="0"/>
    </comp>
  </station>
  <station code="ITM" name="ITM" netid="HL" insttype="DR24" lat="37.1787" lon="21.9252">
    <comp name="--.HHE">
      <acc value="0.0135061617" flag="0"/>
      <vel value="0.0074407871" flag="0"/>
      <psa03 value="0.0771738715" flag="0"/>
      <psa10 value="0.0072030514" flag="0"/>
      <psa30 value="0.0012959746" flag="0"/>
    </comp>
    <comp name="--.HHZ">
      <acc value="0.0097226461" flag="0"/>
      <vel value="0.0040594423" flag="0"/>
      <psa03 value="0.0456503601" flag="0"/>
      <psa10 value="0.0055037397" flag="0"/>
      <psa30 value="0.0005534294" flag="0"/>
    </comp>
    <comp name="--.HHN">
      <acc value="0.0126026228" flag="0"/>
      <vel value="0.0059569314" flag="0"/>
      <psa03 value="0.0307524917" flag="0"/>
      <psa10 value="0.0048252717" flag="0"/>
      <psa30 value="0.0010518586" flag="0"/>
    </comp>
  </station>
  <station code="VLI" name="VLI" netid="HL" insttype="60" lat="36.718" lon="22.9469">
    <comp name="--.HHZ">
      <acc value="0.0139193205" flag="0"/>
      <vel value="0.0068023744" flag="0"/>
      <psa03 value="0.0272420714" flag="0"/>
      <psa10 value="0.0085615981" flag="0"/>
      <psa30 value="0.0012849575" flag="0"/>
    </comp>
    <comp name="--.HHE">
      <acc value="0.0133909583" flag="0"/>
      <vel value="0.0115297860" flag="0"/>
      <psa03 value="0.0354004236" flag="0"/>
      <psa10 value="0.0286677688" flag="0"/>
      <psa30 value="0.0015045569" flag="0"/>
    </comp>
    <comp name="--.HHN">
      <acc value="0.0176773044" flag="0"/>
      <vel value="0.0114059769" flag="0"/>
      <psa03 value="0.0336620755" flag="0"/>
      <psa10 value="0.0271361584" flag="0"/>
      <psa30 value="0.0014325888" flag="0"/>
    </comp>
  </station>
  <station code="PYL" name="PYL" netid="HP" insttype="DC_100" lat="36.8955" lon="21.742">
    <comp name="--.HNN">
      <acc value="0.0208377801" flag="0"/>
      <vel value="0.0109015235" flag="0"/>
      <psa03 value="0.0865859414" flag="0"/>
      <psa10 value="0.0069659283" flag="0"/>
      <psa30 value="0.0018448346" flag="0"/>
    </comp>
    <comp name="--.HNE">
      <acc value="0.0244236439" flag="0"/>
      <vel value="0.0120763879" flag="0"/>
      <psa03 value="0.0949513734" flag="0"/>
      <psa10 value="0.0066621606" flag="0"/>
      <psa30 value="0.0012985986" flag="0"/>
    </comp>
    <comp name="--.HNZ">
      <acc value="0.0137947560" flag="0"/>
      <vel value="0.0070480334" flag="0"/>
      <psa03 value="0.0579688437" flag="0"/>
      <psa10 value="0.0043058125" flag="0"/>
      <psa30 value="0.0015906669" flag="0"/>
    </comp>
  </station>
  <station code="VALY" name="VALY" netid="HP" insttype="DC_100" lat="37.1641" lon="21.9836">
    <comp name="--.HNN">
      <acc value="0.0112456193" flag="0"/>
      <vel value="0.0074525506" flag="0"/>
      <psa03 value="0.0367508498" flag="0"/>
      <psa10 value="0.0062226018" flag="0"/>
      <psa30 value="0.0008737658" flag="0"/>
    </comp>
    <comp name="--.HNE">
      <acc value="0.0095855758" flag="0"/>
      <vel value="0.0076162466" flag="0"/>
      <psa03 value="0.0292078674" flag="0"/>
      <psa10 value="0.0072932273" flag="0"/>
      <psa30 value="0.0014009137" flag="0"/>
    </comp>
    <comp name="--.HNZ">
      <acc value="0.0049086560" flag="0"/>
      <vel value="0.0048356647" flag="0"/>
      <psa03 value="0.0154183651" flag="0"/>
      <psa10 value="0.0040771133" flag="0"/>
      <psa30 value="0.0009114282" flag="0"/>
    </comp>
  </station>
  <station code="VLX" name="VLX" netid="HP" insttype="40," lat="37.3703" lon="22.3793">
    <comp name="--.HHE">
      <acc value="0.0060743916" flag="0"/>
      <vel value="0.0053396850" flag="0"/>
      <psa03 value="0.0214706952" flag="0"/>
      <psa10 value="0.0070863606" flag="0"/>
      <psa30 value="0.0011715034" flag="0"/>
    </comp>
    <comp name="--.HHN">
      <acc value="0.0047071320" flag="0"/>
      <vel value="0.0060180598" flag="0"/>
      <psa03 value="0.0151759253" flag="0"/>
      <psa10 value="0.0113527486" flag="0"/>
      <psa30 value="0.0011084471" flag="0"/>
    </comp>
    <comp name="--.HHZ">
      <acc value="0.0040297688" flag="0"/>
      <vel value="0.0030007065" flag="0"/>
      <psa03 value="0.0142053489" flag="0"/>
      <psa10 value="0.0039597648" flag="0"/>
      <psa30 value="0.0008714202" flag="0"/>
    </comp>
  </station>
</stationlist>
