<?xml version="1.0" encoding="UTF-8" standalone="yes"?>
<!DOCTYPE earthquake SYSTEM "stationlist.dtd">
<stationlist created="" xmlns="ch.ethz.sed.shakemap.usgs.xml">
  <station code="THERA" name="THERA" netid="GE" insttype="STS-2/N" lat="36.367" lon="25.4753">
    <comp name="--.HHE">
      <acc value="0.3494583192" flag="0"/>
      <vel value="0.0550531336" flag="0"/>
      <psa03 value="0.1119350427" flag="0"/>
      <psa10 value="0.0130020642" flag="0"/>
      <psa30 value="0.0022530450" flag="0"/>
    </comp>
    <comp name="--.HHN">
      <acc value="0.2033305305" flag="0"/>
      <vel value="0.0392187354" flag="0"/>
      <psa03 value="0.1082910421" flag="0"/>
      <psa10 value="0.0069007623" flag="0"/>
      <psa30 value="0.0009156030" flag="0"/>
    </comp>
    <comp name="--.HHZ">
      <acc value="0.2239425173" flag="0"/>
      <vel value="0.0408811726" flag="0"/>
      <psa03 value="0.1659829911" flag="0"/>
      <psa10 value="0.0151487809" flag="0"/>
      <psa30 value="0.0018257260" flag="0"/>
    </comp>
  </station>
  <station code="SNT1" name="SNT1" netid="HA" insttype="30" lat="36.4159" lon="25.4282">
    <comp name="--.HHE">
      <acc value="0.2610759033" flag="0"/>
      <vel value="0.0525393138" flag="0"/>
      <psa03 value="0.2389840618" flag="0"/>
      <psa10 value="0.0251036283" flag="0"/>
      <psa30 value="0.0047113362" flag="0"/>
    </comp>
    <comp name="--.HHZ">
      <acc value="0.2142292443" flag="0"/>
      <vel value="0.0482836553" flag="0"/>
      <psa03 value="0.1786723140" flag="0"/>
      <psa10 value="0.0130336127" flag="0"/>
      <psa30 value="0.0019492859" flag="0"/>
    </comp>
    <comp name="--.HHN">
      <acc value="0.1954281950" flag="0"/>
      <vel value="0.0575906733" flag="0"/>
      <psa03 value="0.2438640243" flag="0"/>
      <psa10 value="0.0287205260" flag="0"/>
      <psa30 value="0.0032970028" flag="0"/>
    </comp>
  </station>
  <station code="NAX1" name="NAX1" netid="HI" insttype="CMG-5TD,ACCELEROMETER,GURALP" lat="37.1014" lon="25.3741">
    <comp name="--.HNN">
      <acc value="0.2631413473" flag="0"/>
      <vel value="0.0442309062" flag="0"/>
      <psa03 value="0.1467518310" flag="0"/>
      <psa10 value="0.0129810832" flag="0"/>
      <psa30 value="0.0017917316" flag="0"/>
    </comp>
    <comp name="--.HNE">
      <acc value="0.2585835225" flag="0"/>
      <vel value="0.0619718565" flag="0"/>
      <psa03 value="0.2986879421" flag="0"/>
      <psa10 value="0.0213248135" flag="0"/>
      <psa30 value="0.0016110834" flag="0"/>
    </comp>
    <comp name="--.HNZ">
      <acc value="0.1605589069" flag="0"/>
      <vel value="0.0364788855" flag="0"/>
      <psa03 value="0.1074431107" flag="0"/>
      <psa10 value="0.0146022295" flag="0"/>
      <psa30 value="0.0016072525" flag="0"/>
    </comp>
  </station>
  <station code="MHLO" name="MHLO" netid="HL" insttype="20" lat="36.6898" lon="24.4017">
    <comp name="--.HHE">
      <acc value="0.1521878371" flag="0"/>
      <vel value="0.0561975189" flag="0"/>
      <psa03 value="0.4522244001" flag="0"/>
      <psa10 value="0.0626146221" flag="0"/>
      <psa30 value="0.0036133117" flag="0"/>
    </comp>
    <comp name="--.HHN">
      <acc value="0.1634643920" flag="0"/>
      <vel value="0.0674498343" flag="0"/>
      <psa03 value="0.4792674811" flag="0"/>
      <psa10 value="0.0688966718" flag="0"/>
      <psa30 value="0.0026476995" flag="0"/>
    </comp>
    <comp name="--.HHZ">
      <acc value="0.0710587514" flag="0"/>
      <vel value="0.0252887126" flag="0"/>
      <psa03 value="0.2063233257" flag="0"/>
      <psa10 value="0.0307131490" flag="0"/>
      <psa30 value="0.0024754555" flag="0"/>
    </comp>
  </station>
  <station code="SAP3" name="SAP3" netid="HL" insttype="LE3D20_SMART24" lat="36.4356" lon="25.3454">
    <comp name="--.HHE">
      <acc value="1.0111493801" flag="0"/>
      <vel value="0.2689023216" flag="0"/>
      <psa03 value="1.2317607371" flag="0"/>
      <psa10 value="0.0803269950" flag="0"/>
      <psa30 value="0.0148299492" flag="0"/>
    </comp>
    <comp name="--.HHZ">
      <acc value="1.0814437714" flag="0"/>
      <vel value="0.2178129623" flag="0"/>
      <psa03 value="0.6789391138" flag="0"/>
      <psa10 value="0.0315654924" flag="0"/>
      <psa30 value="0.0058612241" flag="0"/>
    </comp>
    <comp name="--.HHN">
      <acc value="0.8042230374" flag="0"/>
      <vel value="0.2556112334" flag="0"/>
      <psa03 value="1.1484525025" flag="0"/>
      <psa10 value="0.0900750829" flag="0"/>
      <psa30 value="0.0098091564" flag="0"/>
    </comp>
  </station>
  <station code="THERA" name="THERA" netid="HL" insttype="120" lat="36.367" lon="25.4753">
    <comp name="--.HHE">
      <acc value="0.3634865940" flag="0"/>
      <vel value="0.0552729013" flag="0"/>
      <psa03 value="0.1082968464" flag="0"/>
      <psa10 value="0.0129651668" flag="0"/>
      <psa30 value="0.0022260006" flag="0"/>
    </comp>
    <comp name="--.HHN">
      <acc value="0.2062877489" flag="0"/>
      <vel value="0.0386805145" flag="0"/>
      <psa03 value="0.1044712674" flag="0"/>
      <psa10 value="0.0067907149" flag="0"/>
      <psa30 value="0.0009138365" flag="0"/>
    </comp>
    <comp name="--.HHZ">
      <acc value="0.2178007866" flag="0"/>
      <vel value="0.0403171722" flag="0"/>
      <psa03 value="0.1608001940" flag="0"/>
      <psa10 value="0.0149701857" flag="0"/>
      <psa30 value="0.0018225261" flag="0"/>
    </comp>
  </station>
  <station code="THRA" name="THRA" netid="HL" insttype="CMG-5" lat="36.415" lon="25.4324">
    <comp name="00.HNE">
      <acc value="0.7252815906" flag="0"/>
      <vel value="0.2283977100" flag="0"/>
      <psa03 value="0.9054681276" flag="0"/>
      <psa10 value="0.0877753643" flag="0"/>
      <psa30 value="0.0083315337" flag="0"/>
    </comp>
    <comp name="00.HNN">
      <acc value="0.6002178010" flag="0"/>
      <vel value="0.1980433309" flag="0"/>
      <psa03 value="0.7096264009" flag="0"/>
      <psa10 value="0.0791335466" flag="0"/>
      <psa30 value="0.0063673683" flag="0"/>
    </comp>
    <comp name="00.HNZ">
      <acc value="0.4725886252" flag="0"/>
      <vel value="0.1311995598" flag="0"/>
      <psa03 value="0.6217024567" flag="0"/>
      <psa10 value="0.0453000533" flag="0"/>
      <psa30 value="0.0043225544" flag="0"/>
    </comp>
  </station>
  <station code="CMBO" name="CMBO" netid="HT" insttype="120P," lat="36.4709" lon="25.4056">
    <comp name="--.HHE">
      <acc value="0.8319780798" flag="0"/>
      <vel value="0.2247495747" flag="0"/>
      <psa03 value="0.7318882572" flag="0"/>
      <psa10 value="0.0754856053" flag="0"/>
      <psa30 value="0.0095914022" flag="0"/>
    </comp>
    <comp name="--.HHZ">
      <acc value="0.7627676088" flag="0"/>
      <vel value="0.2000301661" flag="0"/>
      <psa03 value="0.8237691218" flag="0"/>
      <psa10 value="0.0523187242" flag="0"/>
      <psa30 value="0.0076754701" flag="0"/>
    </comp>
    <comp name="--.HHN">
      <acc value="1.0267965133" flag="0"/>
      <vel value="0.2953606645" flag="0"/>
      <psa03 value="1.1171869723" flag="0"/>
      <psa10 value="0.1300780479" flag="0"/>
      <psa30 value="0.0076602266" flag="0"/>
    </comp>
  </station>
</stationlist>
