<?xml version="1.0" encoding="UTF-8" standalone="yes"?>
<!DOCTYPE earthquake SYSTEM "stationlist.dtd">
<stationlist created="" xmlns="ch.ethz.sed.shakemap.usgs.xml">
  <station code="THERA" name="THERA" netid="GE" insttype="STS-2/N" lat="36.367" lon="25.4753">
    <comp name="--.HHE">
      <acc value="0.3494583192" flag="0"/>
      <vel value="0.0550531336" flag="0"/>
      <psa03 value="0.1119350427" flag="0"/>
      <psa10 value="0.0130020642" flag="0"/>
      <psa30 value="0.0022530450" flag="0"/>
    </comp>
    <comp name="--.HHN">
      <acc value="0.2033305305" flag="0"/>
      <vel value="0.0392187354" flag="0"/>
      <psa03 value="0.1082910421" flag="0"/>
      <psa10 value="0.0069007623" flag="0"/>
      <psa30 value="0.0009156030" flag="0"/>
    </comp>
    <comp name="--.HHZ">
      <acc value="0.2239425173" flag="0"/>
      <vel value="0.0408811726" flag="0"/>
      <psa03 value="0.1659829911" flag="0"/>
      <psa10 value="0.0151487809" flag="0"/>
      <psa30 value="0.0018257260" flag="0"/>
    </comp>
  </station>
</stationlist>
