<?xml version="1.0" encoding="UTF-8" standalone="yes"?>
<!DOCTYPE earthquake SYSTEM "stationlist.dtd">
<stationlist created="" xmlns="ch.ethz.sed.shakemap.usgs.xml">
  <station code="THERA" name="THERA" netid="GE" insttype="STS-2/N" lat="36.367" lon="25.4753">
    <comp name="--.HHZ">
      <acc value="0.2331926190" flag="0"/>
      <vel value="0.0590358331" flag="0"/>
      <psa03 value="0.2131111389" flag="0"/>
      <psa10 value="0.0190807604" flag="0"/>
      <psa30 value="0.0017714468" flag="0"/>
    </comp>
    <comp name="--.HHE">
      <acc value="0.2504549997" flag="0"/>
      <vel value="0.0554493016" flag="0"/>
      <psa03 value="0.3231048868" flag="0"/>
      <psa10 value="0.0186093378" flag="0"/>
      <psa30 value="0.0019148359" flag="0"/>
    </comp>
    <comp name="--.HHN">
      <acc value="0.2255054759" flag="0"/>
      <vel value="0.0419308610" flag="0"/>
      <psa03 value="0.2020591262" flag="0"/>
      <psa10 value="0.0105098450" flag="0"/>
      <psa30 value="0.0008475385" flag="0"/>
    </comp>
  </station>
</stationlist>
