<?xml version="1.0" encoding="UTF-8" standalone="yes"?>
<!DOCTYPE earthquake SYSTEM "stationlist.dtd">
<stationlist created="" xmlns="ch.ethz.sed.shakemap.usgs.xml">
  <station code="KARO" name="KARO" netid="KO" insttype="120s," lat="39.3089" lon="41.0493">
    <comp name="--.HHN">
      <acc value="7.4598710258" flag="0"/>
      <vel value="1.4578931959" flag="0"/>
      <psa03 value="8.9611441662" flag="0"/>
      <psa10 value="0.8336370908" flag="0"/>
      <psa30 value="0.0776544807" flag="0"/>
    </comp>
    <comp name="--.HHZ">
      <acc value="2.3569772193" flag="0"/>
      <vel value="1.1111955804" flag="0"/>
      <psa03 value="7.4801121460" flag="0"/>
      <psa10 value="0.6479689794" flag="0"/>
      <psa30 value="0.0267757651" flag="0"/>
    </comp>
    <comp name="--.HHE">
      <acc value="6.6895160047" flag="0"/>
      <vel value="1.2356479106" flag="0"/>
      <psa03 value="7.8629443801" flag="0"/>
      <psa10 value="1.2960409259" flag="0"/>
      <psa30 value="0.0921854743" flag="0"/>
    </comp>
  </station>
</stationlist>
