<?xml version="1.0" encoding="UTF-8" standalone="yes"?>
<!DOCTYPE earthquake SYSTEM "stationlist.dtd">
<stationlist created="" xmlns="ch.ethz.sed.shakemap.usgs.xml">
  <station code="ACOR" name="ACOR" netid="HA" insttype="30" lat="37.8902" lon="22.8692">
    <comp name="--.HHN">
      <acc value="0.0298458310" flag="0"/>
      <vel value="0.0116209854" flag="0"/>
      <psa03 value="0.0645690164" flag="0"/>
      <psa10 value="0.0110263555" flag="0"/>
      <psa30 value="0.0009743285" flag="0"/>
    </comp>
    <comp name="--.HHE">
      <acc value="0.0075206530" flag="0"/>
      <vel value="0.0030956902" flag="0"/>
      <psa03 value="0.0170471820" flag="0"/>
      <psa10 value="0.0024774655" flag="0"/>
      <psa30 value="0.0001892157" flag="0"/>
    </comp>
    <comp name="--.HHZ">
      <acc value="0.0062292562" flag="0"/>
      <vel value="0.0024652477" flag="0"/>
      <psa03 value="0.0114235994" flag="0"/>
      <psa10 value="0.0035906075" flag="0"/>
      <psa30 value="0.0001223465" flag="0"/>
    </comp>
  </station>
  <station code="AIGS" name="AIGS" netid="HA" insttype="DC" lat="38.25" lon="22.0878">
    <comp name="--.HNZ">
      <acc value="0.3038472181" flag="0"/>
      <vel value="0.0699752598" flag="0"/>
      <psa03 value="0.2201270851" flag="0"/>
      <psa10 value="0.0153814548" flag="0"/>
      <psa30 value="0.0011650421" flag="0"/>
    </comp>
    <comp name="--.HNN">
      <acc value="0.4100305675" flag="0"/>
      <vel value="0.1162371770" flag="0"/>
      <psa03 value="0.4377265517" flag="0"/>
      <psa10 value="0.0241378471" flag="0"/>
      <psa30 value="0.0028233961" flag="0"/>
    </comp>
    <comp name="--.HNE">
      <acc value="0.6394863708" flag="0"/>
      <vel value="0.1605389122" flag="0"/>
      <psa03 value="0.6841739212" flag="0"/>
      <psa10 value="0.0517022229" flag="0"/>
      <psa30 value="0.0052629076" flag="0"/>
    </comp>
  </station>
  <station code="KALE" name="KALE" netid="HA" insttype="40," lat="38.3911" lon="22.1398">
    <comp name="--.HHE">
      <acc value="0.1656707149" flag="0"/>
      <vel value="0.0689782020" flag="0"/>
      <psa03 value="0.3025291345" flag="0"/>
      <psa10 value="0.0257215335" flag="0"/>
      <psa30 value="0.0014782736" flag="0"/>
    </comp>
    <comp name="--.HHN">
      <acc value="0.1289899691" flag="0"/>
      <vel value="0.0474101761" flag="0"/>
      <psa03 value="0.2398283446" flag="0"/>
      <psa10 value="0.0177816260" flag="0"/>
      <psa30 value="0.0009471356" flag="0"/>
    </comp>
    <comp name="--.HHZ">
      <acc value="0.0782481613" flag="0"/>
      <vel value="0.0252033526" flag="0"/>
      <psa03 value="0.1302616958" flag="0"/>
      <psa10 value="0.0071317228" flag="0"/>
      <psa30 value="0.0006720693" flag="0"/>
    </comp>
  </station>
  <station code="LOUT" name="LOUT" netid="HA" insttype="30" lat="37.9879" lon="22.9743">
    <comp name="--.HHE">
      <acc value="0.0206867260" flag="0"/>
      <vel value="0.0071440689" flag="0"/>
      <psa03 value="0.0330107518" flag="0"/>
      <psa10 value="0.0073392511" flag="0"/>
      <psa30 value="0.0003304729" flag="0"/>
    </comp>
    <comp name="--.HHN">
      <acc value="0.0188955699" flag="0"/>
      <vel value="0.0054239195" flag="0"/>
      <psa03 value="0.0353543388" flag="0"/>
      <psa10 value="0.0050249867" flag="0"/>
      <psa30 value="0.0002422824" flag="0"/>
    </comp>
    <comp name="--.HHZ">
      <acc value="0.0112324865" flag="0"/>
      <vel value="0.0036074704" flag="0"/>
      <psa03 value="0.0214020522" flag="0"/>
      <psa10 value="0.0028243768" flag="0"/>
      <psa30 value="0.0001504271" flag="0"/>
    </comp>
  </station>
  <station code="THAL" name="THAL" netid="HA" insttype="30" lat="38.0357" lon="22.6634">
    <comp name="--.HHZ">
      <acc value="0.1370986613" flag="0"/>
      <vel value="0.0196865262" flag="0"/>
      <psa03 value="0.0999188306" flag="0"/>
      <psa10 value="0.0080348156" flag="0"/>
      <psa30 value="0.0004547838" flag="0"/>
    </comp>
    <comp name="--.HHN">
      <acc value="0.2146287738" flag="0"/>
      <vel value="0.0354244914" flag="0"/>
      <psa03 value="0.1226469181" flag="0"/>
      <psa10 value="0.0147356424" flag="0"/>
      <psa30 value="0.0008365973" flag="0"/>
    </comp>
    <comp name="--.HHE">
      <acc value="0.2296465395" flag="0"/>
      <vel value="0.0464917942" flag="0"/>
      <psa03 value="0.2813642481" flag="0"/>
      <psa10 value="0.0166263279" flag="0"/>
      <psa30 value="0.0012798394" flag="0"/>
    </comp>
  </station>
  <station code="XLKS" name="XLKS" netid="HA" insttype="DC" lat="38.0772" lon="22.6361">
    <comp name="--.HNZ">
      <acc value="0.1227170793" flag="0"/>
      <vel value="0.0259908675" flag="0"/>
      <psa03 value="0.2680365322" flag="0"/>
      <psa10 value="0.0156074277" flag="0"/>
      <psa30 value="0.0011263834" flag="0"/>
    </comp>
    <comp name="--.HNN">
      <acc value="0.3319653467" flag="0"/>
      <vel value="0.0750149566" flag="0"/>
      <psa03 value="0.2855342714" flag="0"/>
      <psa10 value="0.0308803571" flag="0"/>
      <psa30 value="0.0017421703" flag="0"/>
    </comp>
    <comp name="--.HNE">
      <acc value="0.2488008724" flag="0"/>
      <vel value="0.0450830548" flag="0"/>
      <psa03 value="0.1310824201" flag="0"/>
      <psa10 value="0.0343016438" flag="0"/>
      <psa30 value="0.0015877720" flag="0"/>
    </comp>
  </station>
  <station code="KLV1" name="KLV1" netid="HI" insttype="CMG-5TD,ACCELEROMETER,GURALP" lat="38.0326" lon="22.108">
    <comp name="--.HNN">
      <acc value="0.3715196895" flag="0"/>
      <vel value="0.1134120298" flag="0"/>
      <psa03 value="0.6621602427" flag="0"/>
      <psa10 value="0.0359855416" flag="0"/>
      <psa30 value="0.0026356067" flag="0"/>
    </comp>
    <comp name="--.HNZ">
      <acc value="0.3085559352" flag="0"/>
      <vel value="0.0462007950" flag="0"/>
      <psa03 value="0.1477895267" flag="0"/>
      <psa10 value="0.0363368102" flag="0"/>
      <psa30 value="0.0018250898" flag="0"/>
    </comp>
    <comp name="--.HNE">
      <acc value="0.3762866259" flag="0"/>
      <vel value="0.0906508491" flag="0"/>
      <psa03 value="0.6372457730" flag="0"/>
      <psa10 value="0.0709990460" flag="0"/>
      <psa30 value="0.0031016607" flag="0"/>
    </comp>
  </station>
  <station code="MSL1" name="MSL1" netid="HI" insttype="CMG-5TD,ACCELEROMETER,GURALP" lat="38.3727" lon="21.4243">
    <comp name="--.HNE">
      <acc value="0.0785844253" flag="0"/>
      <vel value="0.0356393191" flag="0"/>
      <psa03 value="0.3168879787" flag="0"/>
      <psa10 value="0.0322564714" flag="0"/>
      <psa30 value="0.0016762853" flag="0"/>
    </comp>
    <comp name="--.HNN">
      <acc value="0.0577139257" flag="0"/>
      <vel value="0.0293032162" flag="0"/>
      <psa03 value="0.1702292806" flag="0"/>
      <psa10 value="0.0202169637" flag="0"/>
      <psa30 value="0.0016684038" flag="0"/>
    </comp>
    <comp name="--.HNZ">
      <acc value="0.0320507997" flag="0"/>
      <vel value="0.0111297249" flag="0"/>
      <psa03 value="0.0702959702" flag="0"/>
      <psa10 value="0.0082128719" flag="0"/>
      <psa30 value="0.0006633760" flag="0"/>
    </comp>
  </station>
  <station code="ITM" name="ITM" netid="HL" insttype="DR24" lat="37.1787" lon="21.9252">
    <comp name="--.HHE">
      <acc value="0.0157901048" flag="0"/>
      <vel value="0.0085681218" flag="0"/>
      <psa03 value="0.0582191310" flag="0"/>
      <psa10 value="0.0057482304" flag="0"/>
      <psa30 value="0.0003276817" flag="0"/>
    </comp>
    <comp name="--.HHN">
      <acc value="0.0184341128" flag="0"/>
      <vel value="0.0076497419" flag="0"/>
      <psa03 value="0.0455482963" flag="0"/>
      <psa10 value="0.0074692300" flag="0"/>
      <psa30 value="0.0004892957" flag="0"/>
    </comp>
    <comp name="--.HHZ">
      <acc value="0.0140759981" flag="0"/>
      <vel value="0.0059921135" flag="0"/>
      <psa03 value="0.0360085278" flag="0"/>
      <psa10 value="0.0057705846" flag="0"/>
      <psa30 value="0.0005105836" flag="0"/>
    </comp>
  </station>
  <station code="KLV" name="KLV" netid="HL" insttype="120" lat="38.0435" lon="22.1504">
    <comp name="--.HHE">
      <acc value="0.6927460465" flag="0"/>
      <vel value="0.0908066621" flag="0"/>
      <psa03 value="0.1816994229" flag="0"/>
      <psa10 value="0.0135233972" flag="0"/>
      <psa30 value="0.0010417914" flag="0"/>
    </comp>
    <comp name="--.HHN">
      <acc value="0.4544839346" flag="0"/>
      <vel value="0.0650454833" flag="0"/>
      <psa03 value="0.1613015193" flag="0"/>
      <psa10 value="0.0226072314" flag="0"/>
      <psa30 value="0.0015538674" flag="0"/>
    </comp>
    <comp name="--.HHZ">
      <acc value="0.4049112401" flag="0"/>
      <vel value="0.0862772643" flag="0"/>
      <psa03 value="0.2531477310" flag="0"/>
      <psa10 value="0.0316994177" flag="0"/>
      <psa30 value="0.0025346417" flag="0"/>
    </comp>
  </station>
  <station code="PATC" name="PATC" netid="HL" insttype="CMG-5" lat="38.2693" lon="21.76">
    <comp name="00.HNE">
      <acc value="0.2567797923" flag="0"/>
      <vel value="0.0993509220" flag="0"/>
      <psa03 value="0.7056634438" flag="0"/>
      <psa10 value="0.0350207754" flag="0"/>
      <psa30 value="0.0024686460" flag="0"/>
    </comp>
    <comp name="00.HNN">
      <acc value="0.2918162010" flag="0"/>
      <vel value="0.0888851010" flag="0"/>
      <psa03 value="0.6625810930" flag="0"/>
      <psa10 value="0.0670469091" flag="0"/>
      <psa30 value="0.0027364573" flag="0"/>
    </comp>
    <comp name="00.HNZ">
      <acc value="0.2174499071" flag="0"/>
      <vel value="0.0501123683" flag="0"/>
      <psa03 value="0.2866555328" flag="0"/>
      <psa10 value="0.0229313038" flag="0"/>
      <psa30 value="0.0016264968" flag="0"/>
    </comp>
  </station>
  <station code="PATG" name="PATG" netid="HL" insttype="CMG-5" lat="38.2386" lon="21.7266">
    <comp name="00.HNZ">
      <acc value="0.2175986912" flag="0"/>
      <vel value="0.0612146935" flag="0"/>
      <psa03 value="0.2303828071" flag="0"/>
      <psa10 value="0.0269300742" flag="0"/>
      <psa30 value="0.0019607451" flag="0"/>
    </comp>
    <comp name="00.HNE">
      <acc value="0.5301518922" flag="0"/>
      <vel value="0.1730974613" flag="0"/>
      <psa03 value="0.5962778046" flag="0"/>
      <psa10 value="0.0780081253" flag="0"/>
      <psa30 value="0.0041264139" flag="0"/>
    </comp>
    <comp name="00.HNN">
      <acc value="0.4551211684" flag="0"/>
      <vel value="0.1448400749" flag="0"/>
      <psa03 value="1.0026631503" flag="0"/>
      <psa10 value="0.0659702928" flag="0"/>
      <psa30 value="0.0048215162" flag="0"/>
    </comp>
  </station>
  <station code="RIOA" name="RIOA" netid="HL" insttype="CMG-5" lat="38.2959" lon="21.7912">
    <comp name="00.HNN">
      <acc value="0.1944962587" flag="0"/>
      <vel value="0.0613360668" flag="0"/>
      <psa03 value="0.3296777753" flag="0"/>
      <psa10 value="0.0212854597" flag="0"/>
      <psa30 value="0.0015449202" flag="0"/>
    </comp>
    <comp name="00.HNE">
      <acc value="0.1728558265" flag="0"/>
      <vel value="0.0585657185" flag="0"/>
      <psa03 value="0.4268453341" flag="0"/>
      <psa10 value="0.0221978522" flag="0"/>
      <psa30 value="0.0016295255" flag="0"/>
    </comp>
    <comp name="00.HNZ">
      <acc value="0.1534989872" flag="0"/>
      <vel value="0.0505540607" flag="0"/>
      <psa03 value="0.2557995960" flag="0"/>
      <psa10 value="0.0159106440" flag="0"/>
      <psa30 value="0.0020571068" flag="0"/>
    </comp>
  </station>
  <station code="RLS" name="RLS" netid="HL" insttype="CMG3ESPC-120s" lat="38.0559" lon="21.4647">
    <comp name="--.HHE">
      <acc value="0.1210368514" flag="0"/>
      <vel value="0.0407873734" flag="0"/>
      <psa03 value="0.1555203446" flag="0"/>
      <psa10 value="0.0122840011" flag="0"/>
      <psa30 value="0.0009155338" flag="0"/>
    </comp>
    <comp name="--.HHN">
      <acc value="0.1923838317" flag="0"/>
      <vel value="0.0374951325" flag="0"/>
      <psa03 value="0.2188257064" flag="0"/>
      <psa10 value="0.0114729517" flag="0"/>
      <psa30 value="0.0008500210" flag="0"/>
    </comp>
    <comp name="--.HHZ">
      <acc value="0.0659891274" flag="0"/>
      <vel value="0.0167341864" flag="0"/>
      <psa03 value="0.0643567084" flag="0"/>
      <psa10 value="0.0068491141" flag="0"/>
      <psa30 value="0.0006474384" flag="0"/>
    </comp>
  </station>
  <station code="AMT" name="AMT" netid="HP" insttype="CMG-3T," lat="37.5324" lon="21.7089">
    <comp name="00.HHE">
      <acc value="0.0635845491" flag="0"/>
      <vel value="0.0238748985" flag="0"/>
      <psa03 value="0.1701115378" flag="0"/>
      <psa10 value="0.0158885415" flag="0"/>
      <psa30 value="0.0016256121" flag="0"/>
    </comp>
    <comp name="00.HHN">
      <acc value="0.1038146191" flag="0"/>
      <vel value="0.0296278056" flag="0"/>
      <psa03 value="0.1194202864" flag="0"/>
      <psa10 value="0.0236095711" flag="0"/>
      <psa30 value="0.0016407697" flag="0"/>
    </comp>
    <comp name="00.HHZ">
      <acc value="0.0601987072" flag="0"/>
      <vel value="0.0183848877" flag="0"/>
      <psa03 value="0.1079082199" flag="0"/>
      <psa10 value="0.0090696770" flag="0"/>
      <psa30 value="0.0013117517" flag="0"/>
    </comp>
  </station>
  <station code="ANX" name="ANX" netid="HP" insttype="120" lat="38.5933" lon="21.9209">
    <comp name="--.HHE">
      <acc value="0.1074594998" flag="0"/>
      <vel value="0.0307393616" flag="0"/>
      <psa03 value="0.2299716675" flag="0"/>
      <psa10 value="0.0111115399" flag="0"/>
      <psa30 value="0.0007152202" flag="0"/>
    </comp>
    <comp name="--.HHN">
      <acc value="0.0748200761" flag="0"/>
      <vel value="0.0330392865" flag="0"/>
      <psa03 value="0.2542706983" flag="0"/>
      <psa10 value="0.0147606075" flag="0"/>
      <psa30 value="0.0008796143" flag="0"/>
    </comp>
    <comp name="--.HHZ">
      <acc value="0.0389098380" flag="0"/>
      <vel value="0.0138396093" flag="0"/>
      <psa03 value="0.0822029420" flag="0"/>
      <psa10 value="0.0075708433" flag="0"/>
      <psa30 value="0.0003664456" flag="0"/>
    </comp>
  </station>
  <station code="AXS" name="AXS" netid="HP" insttype="40," lat="38.1962" lon="21.3763">
    <comp name="--.HHZ">
      <acc value="0.0418894858" flag="0"/>
      <vel value="0.0139183477" flag="0"/>
      <psa03 value="0.0720470172" flag="0"/>
      <psa10 value="0.0054205515" flag="0"/>
      <psa30 value="0.0004792733" flag="0"/>
    </comp>
    <comp name="--.HHN">
      <acc value="0.0546254940" flag="0"/>
      <vel value="0.0202455353" flag="0"/>
      <psa03 value="0.1144555259" flag="0"/>
      <psa10 value="0.0077609065" flag="0"/>
      <psa30 value="0.0005479430" flag="0"/>
    </comp>
    <comp name="--.HHE">
      <acc value="0.0358201100" flag="0"/>
      <vel value="0.0124519761" flag="0"/>
      <psa03 value="0.0578722944" flag="0"/>
      <psa10 value="0.0034484502" flag="0"/>
      <psa30 value="0.0002826784" flag="0"/>
    </comp>
  </station>
  <station code="DRO" name="DRO" netid="HP" insttype="120P," lat="37.952" lon="21.71">
    <comp name="--.HHE">
      <acc value="0.7301438070" flag="0"/>
      <vel value="0.2358811702" flag="0"/>
      <psa03 value="1.4312796312" flag="0"/>
      <psa10 value="0.0602961295" flag="0"/>
      <psa30 value="0.0048150101" flag="0"/>
    </comp>
    <comp name="--.HHZ">
      <acc value="0.7162047006" flag="0"/>
      <vel value="0.1649816803" flag="0"/>
      <psa03 value="0.4155917763" flag="0"/>
      <psa10 value="0.0422678329" flag="0"/>
      <psa30 value="0.0034119141" flag="0"/>
    </comp>
    <comp name="--.HHN">
      <acc value="1.0777495407" flag="0"/>
      <vel value="0.2947439774" flag="0"/>
      <psa03 value="1.3735430211" flag="0"/>
      <psa10 value="0.0620104491" flag="0"/>
      <psa30 value="0.0048830065" flag="0"/>
    </comp>
  </station>
  <station code="EFP" name="EFP" netid="HP" insttype="40," lat="38.4269" lon="21.9058">
    <comp name="--.HHZ">
      <acc value="0.0966466773" flag="0"/>
      <vel value="0.0247729812" flag="0"/>
      <psa03 value="0.2376825527" flag="0"/>
      <psa10 value="0.0063493548" flag="0"/>
      <psa30 value="0.0006280568" flag="0"/>
    </comp>
    <comp name="--.HHN">
      <acc value="0.0963557615" flag="0"/>
      <vel value="0.0318959575" flag="0"/>
      <psa03 value="0.2108742356" flag="0"/>
      <psa10 value="0.0085457905" flag="0"/>
      <psa30 value="0.0008545041" flag="0"/>
    </comp>
    <comp name="--.HHE">
      <acc value="0.0827765558" flag="0"/>
      <vel value="0.0245915149" flag="0"/>
      <psa03 value="0.1269973665" flag="0"/>
      <psa10 value="0.0054400685" flag="0"/>
      <psa30 value="0.0004825804" flag="0"/>
    </comp>
  </station>
  <station code="GUR" name="GUR" netid="HP" insttype="40," lat="37.9363" lon="22.3423">
    <comp name="--.HHZ">
      <acc value="0.2158367936" flag="0"/>
      <vel value="0.0647005141" flag="0"/>
      <psa03 value="0.2234239609" flag="0"/>
      <psa10 value="0.0269247316" flag="0"/>
      <psa30 value="0.0015666236" flag="0"/>
    </comp>
    <comp name="--.HHN">
      <acc value="0.4729696919" flag="0"/>
      <vel value="0.0857930725" flag="0"/>
      <psa03 value="0.6262300240" flag="0"/>
      <psa10 value="0.0241867037" flag="0"/>
      <psa30 value="0.0022351193" flag="0"/>
    </comp>
    <comp name="--.HHE">
      <acc value="0.5463507091" flag="0"/>
      <vel value="0.0787012463" flag="0"/>
      <psa03 value="0.4789824638" flag="0"/>
      <psa10 value="0.0245548976" flag="0"/>
      <psa30 value="0.0018038773" flag="0"/>
    </comp>
  </station>
  <station code="LTHK" name="LTHK" netid="HP" insttype="40," lat="37.7095" lon="20.8367">
    <comp name="--.HHE">
      <acc value="0.0154501942" flag="0"/>
      <vel value="0.0075736717" flag="0"/>
      <psa03 value="0.0490784119" flag="0"/>
      <psa10 value="0.0045237745" flag="0"/>
      <psa30 value="0.0002743206" flag="0"/>
    </comp>
    <comp name="--.HHZ">
      <acc value="0.0064460592" flag="0"/>
      <vel value="0.0026856269" flag="0"/>
      <psa03 value="0.0171412316" flag="0"/>
      <psa10 value="0.0024627386" flag="0"/>
      <psa30 value="0.0001379227" flag="0"/>
    </comp>
    <comp name="--.HHN">
      <acc value="0.0118551880" flag="0"/>
      <vel value="0.0051327733" flag="0"/>
      <psa03 value="0.0331179509" flag="0"/>
      <psa10 value="0.0049554407" flag="0"/>
      <psa30 value="0.0002905078" flag="0"/>
    </comp>
  </station>
  <station code="LTK" name="LTK" netid="HP" insttype="120s" lat="38.0228" lon="22.9673">
    <comp name="--.HHZ">
      <acc value="0.0070592274" flag="0"/>
      <vel value="0.0026977945" flag="0"/>
      <psa03 value="0.0191896869" flag="0"/>
      <psa10 value="0.0016030612" flag="0"/>
      <psa30 value="0.0001952942" flag="0"/>
    </comp>
    <comp name="--.HHE">
      <acc value="0.0084517004" flag="0"/>
      <vel value="0.0033539250" flag="0"/>
      <psa03 value="0.0234565232" flag="0"/>
      <psa10 value="0.0027231049" flag="0"/>
      <psa30 value="0.0001930012" flag="0"/>
    </comp>
    <comp name="--.HHN">
      <acc value="0.0111916223" flag="0"/>
      <vel value="0.0038896963" flag="0"/>
      <psa03 value="0.0234046021" flag="0"/>
      <psa10 value="0.0033953973" flag="0"/>
      <psa30 value="0.0002019636" flag="0"/>
    </comp>
  </station>
  <station code="PLEV" name="PLEV" netid="HP" insttype="Compact," lat="38.4124" lon="21.4073">
    <comp name="--.HHE">
      <acc value="0.0333765715" flag="0"/>
      <vel value="0.0119980220" flag="0"/>
      <psa03 value="0.0346244165" flag="0"/>
      <psa10 value="0.0052344118" flag="0"/>
      <psa30 value="0.0003516092" flag="0"/>
    </comp>
    <comp name="--.HHN">
      <acc value="0.0392659796" flag="0"/>
      <vel value="0.0146143349" flag="0"/>
