<?xml version="1.0" encoding="UTF-8" standalone="yes"?>
<!DOCTYPE earthquake SYSTEM "stationlist.dtd">
<stationlist created="" xmlns="ch.ethz.sed.shakemap.usgs.xml">
  <station code="KARP" name="KARP" netid="GE" insttype="STS-2/N" lat="35.5471" lon="27.1611">
    <comp name="--.HHE">
      <acc value="0.0224915107" flag="0"/>
      <vel value="0.0062497331" flag="0"/>
      <psa03 value="0.0259792019" flag="0"/>
      <psa10 value="0.0064027763" flag="0"/>
      <psa30 value="0.0003494685" flag="0"/>
    </comp>
    <comp name="--.HHZ">
      <acc value="0.0119395650" flag="0"/>
      <vel value="0.0031538418" flag="0"/>
      <psa03 value="0.0277659780" flag="0"/>
      <psa10 value="0.0036116694" flag="0"/>
      <psa30 value="0.0002173533" flag="0"/>
    </comp>
    <comp name="--.HHN">
      <acc value="0.0305502652" flag="0"/>
      <vel value="0.0045416384" flag="0"/>
      <psa03 value="0.0233322532" flag="0"/>
      <psa10 value="0.0071153342" flag="0"/>
      <psa30 value="0.0002674436" flag="0"/>
    </comp>
  </station>
  <station code="ZKR" name="ZKR" netid="GE" insttype="STS-2/N" lat="35.1147" lon="26.2169">
    <comp name="--.HHN">
      <acc value="0.0028669607" flag="0"/>
      <vel value="0.0017968959" flag="0"/>
      <psa03 value="0.0105815694" flag="0"/>
      <psa10 value="0.0013114215" flag="0"/>
      <psa30 value="0.0000800239" flag="0"/>
    </comp>
    <comp name="--.HHE">
      <acc value="0.0058187567" flag="0"/>
      <vel value="0.0025604694" flag="0"/>
      <psa03 value="0.0154395036" flag="0"/>
      <psa10 value="0.0034135917" flag="0"/>
      <psa30 value="0.0002121450" flag="0"/>
    </comp>
    <comp name="--.HHZ">
      <acc value="0.0030606979" flag="0"/>
      <vel value="0.0016097207" flag="0"/>
      <psa03 value="0.0096447728" flag="0"/>
      <psa10 value="0.0028544936" flag="0"/>
      <psa30 value="0.0001777924" flag="0"/>
    </comp>
  </station>
  <station code="STIA" name="STIA" netid="HC" insttype="120" lat="35.2021" lon="26.0909">
    <comp name="--.HHN">
      <acc value="0.0049713556" flag="0"/>
      <vel value="0.0030033524" flag="0"/>
      <psa03 value="0.0147615856" flag="0"/>
      <psa10 value="0.0024033535" flag="0"/>
      <psa30 value="0.0002389894" flag="0"/>
    </comp>
    <comp name="--.HHE">
      <acc value="0.0052600550" flag="0"/>
      <vel value="0.0033099720" flag="0"/>
      <psa03 value="0.0150008091" flag="0"/>
      <psa10 value="0.0050870918" flag="0"/>
      <psa30 value="0.0002000694" flag="0"/>
    </comp>
    <comp name="--.HHZ">
      <acc value="0.0048179056" flag="0"/>
      <vel value="0.0027801881" flag="0"/>
      <psa03 value="0.0172047762" flag="0"/>
      <psa10 value="0.0026433154" flag="0"/>
      <psa30 value="0.0001826628" flag="0"/>
    </comp>
  </station>
  <station code="KARP" name="KARP" netid="HL" insttype="120" lat="35.5471" lon="27.1611">
    <comp name="--.HHE">
      <acc value="0.0184519321" flag="0"/>
      <vel value="0.0061504248" flag="0"/>
      <psa03 value="0.0252928776" flag="0"/>
      <psa10 value="0.0063540088" flag="0"/>
      <psa30 value="0.0003477744" flag="0"/>
    </comp>
    <comp name="--.HHZ">
      <acc value="0.0108139096" flag="0"/>
      <vel value="0.0030940570" flag="0"/>
      <psa03 value="0.0269524038" flag="0"/>
      <psa10 value="0.0035866964" flag="0"/>
      <psa30 value="0.0002164531" flag="0"/>
    </comp>
    <comp name="--.HHN">
      <acc value="0.0196989617" flag="0"/>
      <vel value="0.0042801506" flag="0"/>
      <psa03 value="0.0228563114" flag="0"/>
      <psa10 value="0.0070641016" flag="0"/>
      <psa30 value="0.0002648530" flag="0"/>
    </comp>
  </station>
  <station code="ZKR" name="ZKR" netid="HL" insttype="120" lat="35.1147" lon="26.2169">
    <comp name="--.HHN">
      <acc value="0.0028002613" flag="0"/>
      <vel value="0.0017625202" flag="0"/>
      <psa03 value="0.0102715402" flag="0"/>
      <psa10 value="0.0013004127" flag="0"/>
      <psa30 value="0.0000797560" flag="0"/>
    </comp>
    <comp name="--.HHE">
      <acc value="0.0056899410" flag="0"/>
      <vel value="0.0025122674" flag="0"/>
      <psa03 value="0.0150012235" flag="0"/>
      <psa10 value="0.0033832130" flag="0"/>
      <psa30 value="0.0002115071" flag="0"/>
    </comp>
    <comp name="--.HHZ">
      <acc value="0.0029921902" flag="0"/>
      <vel value="0.0015886909" flag="0"/>
      <psa03 value="0.0093651734" flag="0"/>
      <psa10 value="0.0028349251" flag="0"/>
      <psa30 value="0.0001774350" flag="0"/>
    </comp>
  </station>
</stationlist>
