<?xml version="1.0" encoding="UTF-8" standalone="yes"?>
<!DOCTYPE earthquake SYSTEM "stationlist.dtd">
<stationlist created="" xmlns="ch.ethz.sed.shakemap.usgs.xml">
  <station code="KARP" name="KARP" netid="GE" insttype="STS-2/N" lat="35.5471" lon="27.1611">
    <comp name="--.HHZ">
      <acc value="0.3179396292" flag="0"/>
      <vel value="0.0657283841" flag="0"/>
      <psa03 value="0.2262276494" flag="0"/>
      <psa10 value="0.0218380933" flag="0"/>
      <psa30 value="0.0016375176" flag="0"/>
    </comp>
    <comp name="--.HHN">
      <acc value="0.4621676412" flag="0"/>
      <vel value="0.1111822138" flag="0"/>
      <psa03 value="0.4486174560" flag="0"/>
      <psa10 value="0.0269921379" flag="0"/>
      <psa30 value="0.0020922241" flag="0"/>
    </comp>
    <comp name="--.HHE">
      <acc value="0.3928910242" flag="0"/>
      <vel value="0.0883307995" flag="0"/>
      <psa03 value="0.2442907532" flag="0"/>
      <psa10 value="0.0467083107" flag="0"/>
      <psa30 value="0.0026480625" flag="0"/>
    </comp>
  </station>
</stationlist>
