<stationlist xmlns:esm="https://esm-db.eu/esmws/shakemap/1/" created="1783994364">
	<station code="KOS2" name="KOS2" netid="HI" source="ITSAK Strong Motion Network" insttype="" lat="36.8941" lon="27.2888" esm:processing="automatic (Paolucci et al 2011)" esm:quality="best">
		<comp name="--.HNE" depth="0.0">
			<acc value="0.0154155285534485" flag="0"/>
			<vel value="0.0081001161907492" flag="0"/>
			<psa03 value="0.0443398852164534" flag="0"/>
			<psa10 value="0.0058990985988309" flag="0"/>
			<psa30 value="0.000497731618110293" flag="0"/>
		</comp>
		<comp name="--.HNN" depth="0.0">
			<acc value="0.0191675929566585" flag="0"/>
			<vel value="0.00870815316606184" flag="0"/>
			<psa03 value="0.0521363912800502" flag="0"/>
			<psa10 value="0.00618214719316114" flag="0"/>
			<psa30 value="0.000735355744959164" flag="0"/>
		</comp>
		<comp name="--.HNZ" depth="0.0">
			<acc value="0.00973500987762896" flag="0"/>
			<vel value="0.00334232045342788" flag="0"/>
			<psa03 value="0.0156438084609514" flag="0"/>
			<psa10 value="0.00329416150328269" flag="0"/>
			<psa30 value="0.000244018456691842" flag="0"/>
		</comp>
	</station>
	<station code="KSS1" name="KSS1" netid="HI" source="ITSAK Strong Motion Network" insttype="" lat="35.4189" lon="26.9207" esm:processing="manual (Paolucci et al 2011)" esm:quality="good">
		<comp name="--.HNE" depth="0.0">
			<acc value="0.0712895017732571" flag="0"/>
			<vel value="0.0198666606590481" flag="0"/>
			<psa03 value="0.129462565842867" flag="0"/>
			<psa10 value="0.00674864706473916" flag="0"/>
			<psa30 value="0.000615071891325325" flag="0"/>
		</comp>
		<comp name="--.HNN" depth="0.0">
			<acc value="0.0548932851790243" flag="0"/>
			<vel value="0.0203358266536729" flag="0"/>
			<psa03 value="0.123536444099959" flag="0"/>
			<psa10 value="0.00530535176600546" flag="0"/>
			<psa30 value="0.0003552336887385" flag="0"/>
		</comp>
		<comp name="--.HNZ" depth="0.0">
			<acc value="0.0562940419883263" flag="0"/>
			<vel value="0.0180680846959611" flag="0"/>
			<psa03 value="0.0449776149630347" flag="0"/>
			<psa10 value="0.00325151016221625" flag="0"/>
			<psa30 value="0.000262711752322536" flag="0"/>
		</comp>
	</station>
	<station code="NAX1" name="NAX1" netid="HI" source="ITSAK Strong Motion Network" insttype="" lat="37.101394" lon="25.374103" esm:processing="manual (Paolucci et al 2011)" esm:quality="bad">
		<comp name="--.HNE" depth="0.0">
			<acc value="0.00221637618054155" flag="0"/>
			<vel value="0.00080879338287978" flag="0"/>
			<psa03 value="0.00173108554180599" flag="0"/>
			<psa10 value="0.00106030774018393" flag="0"/>
			<psa30 value="6.76510961365944e-05" flag="0"/>
		</comp>
		<comp name="--.HNN" depth="0.0">
			<acc value="0.000823992342600958" flag="0"/>
			<vel value="0.000472076390598439" flag="0"/>
			<psa03 value="0.00215227359969948" flag="0"/>
			<psa10 value="0.000603478961894263" flag="0"/>
			<psa30 value="0.00010140964106795" flag="0"/>
		</comp>
		<comp name="--.HNZ" depth="0.0">
			<acc value="0.00345010837079374" flag="0"/>
			<vel value="0.000927669271240214" flag="0"/>
			<psa03 value="0.00256001594265981" flag="0"/>
			<psa10 value="0.000485131844636333" flag="0"/>
			<psa30 value="5.66177610653204e-05" flag="0"/>
		</comp>
	</station>
	<station code="RDI1" name="RDI1" netid="HI" source="ITSAK Strong Motion Network" insttype="" lat="36.4514" lon="28.224" esm:processing="manual (Paolucci et al 2011)" esm:quality="best">
		<comp name="--.HNE" depth="0.0">
			<acc value="0.126848883299308" flag="0"/>
			<vel value="0.0707686649194069" flag="0"/>
			<psa03 value="0.268083384208439" flag="0"/>
			<psa10 value="0.0393141206175599" flag="0"/>
			<psa30 value="0.00224482204177672" flag="0"/>
		</comp>
		<comp name="--.HNN" depth="0.0">
			<acc value="0.0860749187057538" flag="0"/>
			<vel value="0.0419603752482174" flag="0"/>
			<psa03 value="0.221128065315816" flag="0"/>
			<psa10 value="0.0431863421331014" flag="0"/>
			<psa30 value="0.00334746133621764" flag="0"/>
		</comp>
		<comp name="--.HNZ" depth="0.0">
			<acc value="0.0779676475454061" flag="0"/>
			<vel value="0.0373773231039764" flag="0"/>
			<psa03 value="0.139584475953105" flag="0"/>
			<psa10 value="0.0204538380913863" flag="0"/>
			<psa30 value="0.00138867501373701" flag="0"/>
		</comp>
	</station>
	<station code="RKL1" name="RKL1" netid="HI" source="ITSAK Strong Motion Network" insttype="" lat="36.336699" lon="28.171224" esm:processing="automatic (Paolucci et al 2011)" esm:quality="best">
		<comp name="--.HNE" depth="0.0">
			<acc value="0.279458074580555" flag="0"/>
			<vel value="0.0859566389965375" flag="0"/>
			<psa03 value="0.706286371339161" flag="0"/>
			<psa10 value="0.0605027992635188" flag="0"/>
			<psa30 value="0.00301731425726133" flag="0"/>
		</comp>
		<comp name="--.HNN" depth="0.0">
			<acc value="0.238863260388215" flag="0"/>
			<vel value="0.086123600562905" flag="0"/>
			<psa03 value="0.720829584755675" flag="0"/>
			<psa10 value="0.0553735319747341" flag="0"/>
			<psa30 value="0.00321214987249797" flag="0"/>
		</comp>
		<comp name="--.HNZ" depth="0.0">
			<acc value="0.181859336325844" flag="0"/>
			<vel value="0.0524051439334119" flag="0"/>
			<psa03 value="0.307760929317822" flag="0"/>
			<psa10 value="0.0225261428714126" flag="0"/>
			<psa30 value="0.00124637214937135" flag="0"/>
		</comp>
	</station>
	<station code="RKT1" name="RKT1" netid="HI" source="ITSAK Strong Motion Network" insttype="" lat="35.954336" lon="27.767327" esm:processing="manual (Paolucci et al 2011)" esm:quality="good">
		<comp name="--.HNE" depth="0.0">
			<acc value="0.457606783707493" flag="0"/>
			<vel value="0.120054824311231" flag="0"/>
			<psa03 value="0.691686070807572" flag="0"/>
			<psa10 value="0.0288027780426886" flag="0"/>
			<psa30 value="0.00312313897596292" flag="0"/>
		</comp>
		<comp name="--.HNN" depth="0.0">
			<acc value="0.69276111635033" flag="0"/>
			<vel value="0.14603077796989" flag="0"/>
			<psa03 value="0.492921570301565" flag="0"/>
			<psa10 value="0.0218303686547855" flag="0"/>
			<psa30 value="0.00193033391681507" flag="0"/>
		</comp>
		<comp name="--.HNZ" depth="0.0">
			<acc value="2.4326351291532" flag="0"/>
			<vel value="0.301502275298607" flag="0"/>
			<psa03 value="0.318978089066271" flag="0"/>
			<psa10 value="0.0293028830471908" flag="0"/>
			<psa30 value="0.00326040036052267" flag="0"/>
		</comp>
	</station>
	<station code="RPN1" name="RPN1" netid="HI" source="ITSAK Strong Motion Network" insttype="" lat="36.448678" lon="28.218047" esm:processing="automatic (Paolucci et al 2011)" esm:quality="best">
		<comp name="--.HNE" depth="0.0">
			<acc value="0.143304998559724" flag="0"/>
			<vel value="0.037798112939704" flag="0"/>
			<psa03 value="0.173452990409351" flag="0"/>
			<psa10 value="0.0327995528094018" flag="0"/>
			<psa30 value="0.00186170853738714" flag="0"/>
		</comp>
		<comp name="--.HNN" depth="0.0">
			<acc value="0.205829839513033" flag="0"/>
			<vel value="0.0743815944733539" flag="0"/>
			<psa03 value="0.183219804079491" flag="0"/>
			<psa10 value="0.0445591205730531" flag="0"/>
			<psa30 value="0.00332466753457421" flag="0"/>
		</comp>
		<comp name="--.HNZ" depth="0.0">
			<acc value="0.159124395122199" flag="0"/>
			<vel value="0.030209318265531" flag="0"/>
			<psa03 value="0.153460051391928" flag="0"/>
			<psa10 value="0.0224524017364244" flag="0"/>
			<psa30 value="0.0012345561582866" flag="0"/>
		</comp>
	</station>
	<station code="RSO1" name="RSO1" netid="HI" source="ITSAK Strong Motion Network" insttype="" lat="36.3632" lon="28.0016" esm:processing="automatic (Paolucci et al 2011)" esm:quality="best">
		<comp name="--.HNE" depth="0.0">
			<acc value="0.194457254383055" flag="0"/>
			<vel value="0.0502555379258872" flag="0"/>
			<psa03 value="0.368397696206038" flag="0"/>
			<psa10 value="0.0185361541792436" flag="0"/>
			<psa30 value="0.00189999836556701" flag="0"/>
		</comp>
		<comp name="--.HNN" depth="0.0">
			<acc value="0.206937416393288" flag="0"/>
			<vel value="0.0544623641183103" flag="0"/>
			<psa03 value="0.196997529286168" flag="0"/>
			<psa10 value="0.0307016207066961" flag="0"/>
			<psa30 value="0.00283727941416988" flag="0"/>
		</comp>
		<comp name="--.HNZ" depth="0.0">
			<acc value="0.284171311151408" flag="0"/>
			<vel value="0.0492049482016193" flag="0"/>
			<psa03 value="0.20613386369015" flag="0"/>
			<psa10 value="0.0158102636023709" flag="0"/>
			<psa30 value="0.000947532665222155" flag="0"/>
		</comp>
	</station>
	<station code="SIT2" name="SIT2" netid="HI" source="ITSAK Strong Motion Network" insttype="" lat="35.2059" lon="26.107" esm:processing="manual (Paolucci et al 2011)" esm:quality="best">
		<comp name="--.HNE" depth="0.0">
			<acc value="0.0318784879822628" flag="0"/>
			<vel value="0.0172432995240661" flag="0"/>
			<psa03 value="0.120763552076039" flag="0"/>
			<psa10 value="0.00875189101984261" flag="0"/>
			<psa30 value="0.000669371634250105" flag="0"/>
		</comp>
		<comp name="--.HNN" depth="0.0">
			<acc value="0.0439592879882846" flag="0"/>
			<vel value="0.0213094374762444" flag="0"/>
			<psa03 value="0.18122417187867" flag="0"/>
			<psa10 value="0.0101858228857875" flag="0"/>
			<psa30 value="0.000568794138153473" flag="0"/>
		</comp>
		<comp name="--.HNZ" depth="0.0">
			<acc value="0.0317351569339052" flag="0"/>
			<vel value="0.00902529135173839" flag="0"/>
			<psa03 value="0.0617070148701605" flag="0"/>
			<psa10 value="0.00237089510703929" flag="0"/>
			<psa30 value="0.000233987427602245" flag="0"/>
		</comp>
	</station>
	<station code="AGNA" name="AGNA" netid="HL" source="National Observatory of Athens Seismic Network" insttype="" lat="35.1895" lon="25.71853" esm:processing="manual (Paolucci et al 2011)" esm:quality="bad">
		<comp name="00.HNE" depth="0.0">
			<acc value="0.00500898915407521" flag="0"/>
			<vel value="0.00225248427378585" flag="0"/>
			<psa03 value="0.0173093615040132" flag="0"/>
			<psa10 value="0.00179508454054096" flag="0"/>
			<psa30 value="0.000199062600982895" flag="0"/>
		</comp>
		<comp name="00.HNN" depth="0.0">
			<acc value="0.00816892066866971" flag="0"/>
			<vel value="0.00410201166572614" flag="0"/>
			<psa03 value="0.0257801739558438" flag="0"/>
			<psa10 value="0.00232793530803926" flag="0"/>
			<psa30 value="0.000199027820033062" flag="0"/>
		</comp>
		<comp name="00.HNZ" depth="0.0">
			<acc value="0.00884207452346671" flag="0"/>
			<vel value="0.00250870706256091" flag="0"/>
			<psa03 value="0.0104002221668106" flag="0"/>
			<psa10 value="0.000879414155309488" flag="0"/>
			<psa30 value="0.000131145302315868" flag="0"/>
		</comp>
	</station>
	<station code="KARP" name="KARP" netid="HL" source="National Observatory of Athens Seismic Network" insttype="" lat="35.5471" lon="27.16106" esm:processing="manual (Paolucci et al 2011)" esm:quality="good">
		<comp name="--.HNE" depth="0.0">
			<acc value="0.309621458525574" flag="0"/>
			<vel value="0.0756737374122408" flag="0"/>
			<psa03 value="0.211700503286037" flag="0"/>
			<psa10 value="0.0414606953175862" flag="0"/>
			<psa30 value="0.00223869684434565" flag="0"/>
		</comp>
		<comp name="--.HNN" depth="0.0">
			<acc value="0.348838371479013" flag="0"/>
			<vel value="0.0951886785246927" flag="0"/>
			<psa03 value="0.382709477624652" flag="0"/>
			<psa10 value="0.0193755085323502" flag="0"/>
			<psa30 value="0.00146644839500921" flag="0"/>
		</comp>
		<comp name="--.HNZ" depth="0.0">
			<acc value="0.223159580575018" flag="0"/>
			<vel value="0.0495838961189349" flag="0"/>
			<psa03 value="0.183316435480847" flag="0"/>
			<psa10 value="0.0174059136813576" flag="0"/>
			<psa30 value="0.00123043661455371" flag="0"/>
		</comp>
	</station>
	<station code="KLNA" name="KLNA" netid="HL" source="National Observatory of Athens Seismic Network" insttype="" lat="36.95708" lon="26.97274" esm:processing="automatic (Paolucci et al 2011)" esm:quality="best">
		<comp name="00.HNE" depth="0.0">
			<acc value="0.00893604599321992" flag="0"/>
			<vel value="0.00282789821160349" flag="0"/>
			<psa03 value="0.0215928757345646" flag="0"/>
			<psa10 value="0.00108243631546772" flag="0"/>
			<psa30 value="0.000147193123218011" flag="0"/>
		</comp>
		<comp name="00.HNN" depth="0.0">
			<acc value="0.0100823140078615" flag="0"/>
			<vel value="0.00360528393346084" flag="0"/>
			<psa03 value="0.0169057514334812" flag="0"/>
			<psa10 value="0.00131071464091214" flag="0"/>
			<psa30 value="0.000144794617974338" flag="0"/>
		</comp>
		<comp name="00.HNZ" depth="0.0">
			<acc value="0.013428921203381" flag="0"/>
			<vel value="0.00287415557808365" flag="0"/>
			<psa03 value="0.00908475025761712" flag="0"/>
			<psa10 value="0.000719450648356185" flag="0"/>
			<psa30 value="0.000119516094437925" flag="0"/>
		</comp>
	</station>
	<station code="NISR" name="NISR" netid="HL" source="National Observatory of Athens Seismic Network" insttype="" lat="36.6106" lon="27.131" esm:processing="manual (Paolucci et al 2011)" esm:quality="good">
		<comp name="--.HNE" depth="0.0">
			<acc value="0.0103800663918236" flag="0"/>
			<vel value="0.00471431610360371" flag="0"/>
			<psa03 value="0.0219485946116749" flag="0"/>
			<psa10 value="0.00511564685524787" flag="0"/>
			<psa30 value="0.00059620579779141" flag="0"/>
		</comp>
		<comp name="--.HNN" depth="0.0">
			<acc value="0.00833432303238093" flag="0"/>
			<vel value="0.00327828318499822" flag="0"/>
			<psa03 value="0.014584561207686" flag="0"/>
			<psa10 value="0.00298946061521925" flag="0"/>
			<psa30 value="0.000457939659171635" flag="0"/>
		</comp>
		<comp name="--.HNZ" depth="0.0">
			<acc value="0.00436960746722822" flag="0"/>
			<vel value="0.00176371825194287" flag="0"/>
			<psa03 value="0.0101686352107193" flag="0"/>
			<psa10 value="0.00365180417972978" flag="0"/>
			<psa30 value="0.000349992065464998" flag="0"/>
		</comp>
	</station>
	<station code="RODB" name="RODB" netid="HL" source="National Observatory of Athens Seismic Network" insttype="" lat="36.4471" lon="28.22116" esm:processing="automatic (Paolucci et al 2011)" esm:quality="best">
		<comp name="00.HNE" depth="0.0">
			<acc value="0.0819907350681436" flag="0"/>
			<vel value="0.0357639199641993" flag="0"/>
			<psa03 value="0.284815409289819" flag="0"/>
			<psa10 value="0.0325935966658106" flag="0"/>
			<psa30 value="0.0021885716487987" flag="0"/>
		</comp>
		<comp name="00.HNN" depth="0.0">
			<acc value="0.0980888643469815" flag="0"/>
			<vel value="0.0460875095111025" flag="0"/>
			<psa03 value="0.20645803099816" flag="0"/>
			<psa10 value="0.0400564672943645" flag="0"/>
			<psa30 value="0.00309484397655679" flag="0"/>
		</comp>
		<comp name="00.HNZ" depth="0.0">
			<acc value="0.0763814053457576" flag="0"/>
			<vel value="0.0241453054694464" flag="0"/>
			<psa03 value="0.119851262474544" flag="0"/>
			<psa10 value="0.0183568698025199" flag="0"/>
			<psa30 value="0.00109662181247895" flag="0"/>
		</comp>
	</station>
	<station code="THRA" name="THRA" netid="HL" source="National Observatory of Athens Seismic Network" insttype="" lat="36.41502" lon="25.43244" esm:processing="manual (Paolucci et al 2011)" esm:quality="best">
		<comp name="00.HNE" depth="0.0">
			<acc value="0.0216581802231373" flag="0"/>
			<vel value="0.00859961113534118" flag="0"/>
			<psa03 value="0.0527213206537384" flag="0"/>
			<psa10 value="0.00527078525741626" flag="0"/>
			<psa30 value="0.000382511641602155" flag="0"/>
		</comp>
		<comp name="00.HNN" depth="0.0">
			<acc value="0.017175835426078" flag="0"/>
			<vel value="0.00678912377224175" flag="0"/>
			<psa03 value="0.0259099481777349" flag="0"/>
			<psa10 value="0.00440168487125532" flag="0"/>
			<psa30 value="0.000252723877133273" flag="0"/>
		</comp>
		<comp name="00.HNZ" depth="0.0">
			<acc value="0.0159024440422937" flag="0"/>
			<vel value="0.00601286068434739" flag="0"/>
			<psa03 value="0.0367094734891056" flag="0"/>
			<psa10 value="0.00427049696198216" flag="0"/>
			<psa30 value="0.000255567190488879" flag="0"/>
		</comp>
	</station>
	<station code="NAZL" name="NAZL" netid="KO" source="Bogazici University Kandilli Observatory And Earthquake Research Institute (KOERI)" insttype="" lat="37.9641" lon="28.2922" esm:processing="automatic (Paolucci et al 2011)" esm:quality="best">
		<comp name="--.HNE" depth="0.0">
			<acc value="0.011955216926734" flag="0"/>
			<vel value="0.00748339360691479" flag="0"/>
			<psa03 value="0.0301749702978722" flag="0"/>
			<psa10 value="0.00726052222394889" flag="0"/>
			<psa30 value="0.000403033964646952" flag="0"/>
		</comp>
		<comp name="--.HNN" depth="0.0">
			<acc value="0.0129653043897847" flag="0"/>
			<vel value="0.00726176096586963" flag="0"/>
			<psa03 value="0.0459107392777329" flag="0"/>
			<psa10 value="0.00806969739035724" flag="0"/>
			<psa30 value="0.000327438201590593" flag="0"/>
		</comp>
		<comp name="--.HNZ" depth="0.0">
			<acc value="0.0152744731044023" flag="0"/>
			<vel value="0.0049483571492423" flag="0"/>
			<psa03 value="0.0340968707295192" flag="0"/>
			<psa10 value="0.00212919042341632" flag="0"/>
			<psa30 value="0.000166633486567375" flag="0"/>
		</comp>
	</station>
	<station code="KRL1" name="KRL1" netid="HI" source="ITSAK Strong Motion Network" insttype="" lat="37.7951" lon="26.7065" esm:processing="discarded" esm:quality="bad">
		<comp name="--.HNE" depth="0.0">
			<acc value="0" flag="1"/>
			<vel value="0" flag="1"/>
			<psa03 value="0" flag="1"/>
			<psa10 value="0" flag="1"/>
			<psa30 value="0" flag="1"/>
		</comp>
		<comp name="--.HNN" depth="0.0">
			<acc value="0" flag="1"/>
			<vel value="0" flag="1"/>
			<psa03 value="0" flag="1"/>
			<psa10 value="0" flag="1"/>
			<psa30 value="0" flag="1"/>
		</comp>
		<comp name="--.HNZ" depth="0.0">
			<acc value="0" flag="1"/>
			<vel value="0" flag="1"/>
			<psa03 value="0" flag="1"/>
			<psa10 value="0" flag="1"/>
			<psa30 value="0" flag="1"/>
		</comp>
	</station>
	<station code="DATC" name="DATC" netid="KO" source="Bogazici University Kandilli Observatory And Earthquake Research Institute (KOERI)" insttype="" lat="36.7584" lon="27.6602" esm:processing="discarded" esm:quality="good">
		<comp name="--.HNE" depth="0.0">
			<acc value="0" flag="1"/>
			<vel value="0" flag="1"/>
			<psa03 value="0" flag="1"/>
			<psa10 value="0" flag="1"/>
			<psa30 value="0" flag="1"/>
		</comp>
		<comp name="--.HNN" depth="0.0">
			<acc value="0" flag="1"/>
			<vel value="0" flag="1"/>
			<psa03 value="0" flag="1"/>
			<psa10 value="0" flag="1"/>
			<psa30 value="0" flag="1"/>
		</comp>
		<comp name="--.HNZ" depth="0.0">
			<acc value="0" flag="1"/>
			<vel value="0" flag="1"/>
			<psa03 value="0" flag="1"/>
			<psa10 value="0" flag="1"/>
			<psa30 value="0" flag="1"/>
		</comp>
	</station>
	<station code="DEMR" name="DEMR" netid="KO" source="Bogazici University Kandilli Observatory And Earthquake Research Institute (KOERI)" insttype="" lat="36.2365" lon="29.9056" esm:processing="automatic (Paolucci et al 2011)" esm:quality="bad">
		<comp name="--.HNE" depth="0.0">
			<acc value="0" flag="1"/>
			<vel value="0" flag="1"/>
			<psa03 value="0" flag="1"/>
			<psa10 value="0" flag="1"/>
			<psa30 value="0" flag="1"/>
		</comp>
		<comp name="--.HNN" depth="0.0">
			<acc value="0" flag="1"/>
			<vel value="0" flag="1"/>
			<psa03 value="0" flag="1"/>
			<psa10 value="0" flag="1"/>
			<psa30 value="0" flag="1"/>
		</comp>
		<comp name="--.HNZ" depth="0.0">
			<acc value="0" flag="1"/>
			<vel value="0" flag="1"/>
			<psa03 value="0" flag="1"/>
			<psa10 value="0" flag="1"/>
			<psa30 value="0" flag="1"/>
		</comp>
	</station>
	<station code="DIDI" name="DIDI" netid="KO" source="Bogazici University Kandilli Observatory And Earthquake Research Institute (KOERI)" insttype="" lat="37.3767" lon="27.2398" esm:processing="discarded" esm:quality="bad">
		<comp name="--.HNE" depth="0.0">
			<acc value="0" flag="1"/>
			<vel value="0" flag="1"/>
			<psa03 value="0" flag="1"/>
			<psa10 value="0" flag="1"/>
			<psa30 value="0" flag="1"/>
		</comp>
		<comp name="--.HNN" depth="0.0">
			<acc value="0" flag="1"/>
