<stationlist created="1778136620">
	<station code="KSS1" name="KSS1" netid="HI" source="ITSAK Strong Motion Network" insttype="" lat="35.4189" lon="26.9207">
		<comp name="--.HNE" depth="0.0">
			<acc value="0.0712895017732571" flag="0"/>
			<vel value="0.0198666606590481" flag="0"/>
			<psa03 value="0.129462565842867" flag="0"/>
			<psa10 value="0.00674864706473916" flag="0"/>
			<psa30 value="0.000615071891325325" flag="0"/>
		</comp>
		<comp name="--.HNN" depth="0.0">
			<acc value="0.0548932851790243" flag="0"/>
			<vel value="0.0203358266536729" flag="0"/>
			<psa03 value="0.123536444099959" flag="0"/>
			<psa10 value="0.00530535176600546" flag="0"/>
			<psa30 value="0.0003552336887385" flag="0"/>
		</comp>
		<comp name="--.HNZ" depth="0.0">
			<acc value="0.0562940419883263" flag="0"/>
			<vel value="0.0180680846959611" flag="0"/>
			<psa03 value="0.0449776149630347" flag="0"/>
			<psa10 value="0.00325151016221625" flag="0"/>
			<psa30 value="0.000262711752322536" flag="0"/>
		</comp>
	</station>
	<station code="NAX1" name="NAX1" netid="HI" source="ITSAK Strong Motion Network" insttype="" lat="37.101394" lon="25.374103">
		<comp name="--.HNE" depth="0.0">
			<acc value="0.00221637618054155" flag="0"/>
			<vel value="0.00080879338287978" flag="0"/>
			<psa03 value="0.00173108554180599" flag="0"/>
			<psa10 value="0.00106030774018393" flag="0"/>
			<psa30 value="6.76510961365944e-05" flag="0"/>
		</comp>
		<comp name="--.HNN" depth="0.0">
			<acc value="0.000823992342600958" flag="0"/>
			<vel value="0.000472076390598439" flag="0"/>
			<psa03 value="0.00215227359969948" flag="0"/>
			<psa10 value="0.000603478961894263" flag="0"/>
			<psa30 value="0.00010140964106795" flag="0"/>
		</comp>
		<comp name="--.HNZ" depth="0.0">
			<acc value="0.00345010837079374" flag="0"/>
			<vel value="0.000927669271240214" flag="0"/>
			<psa03 value="0.00256001594265981" flag="0"/>
			<psa10 value="0.000485131844636333" flag="0"/>
			<psa30 value="5.66177610653204e-05" flag="0"/>
		</comp>
	</station>
	<station code="RDI1" name="RDI1" netid="HI" source="ITSAK Strong Motion Network" insttype="" lat="36.4514" lon="28.224">
		<comp name="--.HNE" depth="0.0">
			<acc value="0.126848883299308" flag="0"/>
			<vel value="0.0707686649194069" flag="0"/>
			<psa03 value="0.268083384208439" flag="0"/>
			<psa10 value="0.0393141206175599" flag="0"/>
			<psa30 value="0.00224482204177672" flag="0"/>
		</comp>
		<comp name="--.HNN" depth="0.0">
			<acc value="0.0860749187057538" flag="0"/>
			<vel value="0.0419603752482174" flag="0"/>
			<psa03 value="0.221128065315816" flag="0"/>
			<psa10 value="0.0431863421331014" flag="0"/>
			<psa30 value="0.00334746133621764" flag="0"/>
		</comp>
		<comp name="--.HNZ" depth="0.0">
			<acc value="0.0779676475454061" flag="0"/>
			<vel value="0.0373773231039764" flag="0"/>
			<psa03 value="0.139584475953105" flag="0"/>
			<psa10 value="0.0204538380913863" flag="0"/>
			<psa30 value="0.00138867501373701" flag="0"/>
		</comp>
	</station>
	<station code="SIT2" name="SIT2" netid="HI" source="ITSAK Strong Motion Network" insttype="" lat="35.2059" lon="26.107">
		<comp name="--.HNE" depth="0.0">
			<acc value="0.0318784879822628" flag="0"/>
			<vel value="0.0172432995240661" flag="0"/>
			<psa03 value="0.120763552076039" flag="0"/>
			<psa10 value="0.00875189101984261" flag="0"/>
			<psa30 value="0.000669371634250105" flag="0"/>
		</comp>
		<comp name="--.HNN" depth="0.0">
			<acc value="0.0439592879882846" flag="0"/>
			<vel value="0.0213094374762444" flag="0"/>
			<psa03 value="0.18122417187867" flag="0"/>
			<psa10 value="0.0101858228857875" flag="0"/>
			<psa30 value="0.000568794138153473" flag="0"/>
		</comp>
		<comp name="--.HNZ" depth="0.0">
			<acc value="0.0317351569339052" flag="0"/>
			<vel value="0.00902529135173839" flag="0"/>
			<psa03 value="0.0617070148701605" flag="0"/>
			<psa10 value="0.00237089510703929" flag="0"/>
			<psa30 value="0.000233987427602245" flag="0"/>
		</comp>
	</station>
	<station code="AGNA" name="AGNA" netid="HL" source="National Observatory of Athens Seismic Network" insttype="" lat="35.1895" lon="25.71853">
		<comp name="00.HNE" depth="0.0">
			<acc value="0.00500898915407521" flag="0"/>
			<vel value="0.00225248427378585" flag="0"/>
			<psa03 value="0.0173093615040132" flag="0"/>
			<psa10 value="0.00179508454054096" flag="0"/>
			<psa30 value="0.000199062600982895" flag="0"/>
		</comp>
		<comp name="00.HNN" depth="0.0">
			<acc value="0.00816892066866971" flag="0"/>
			<vel value="0.00410201166572614" flag="0"/>
			<psa03 value="0.0257801739558438" flag="0"/>
			<psa10 value="0.00232793530803926" flag="0"/>
			<psa30 value="0.000199027820033062" flag="0"/>
		</comp>
		<comp name="00.HNZ" depth="0.0">
			<acc value="0.00884207452346671" flag="0"/>
			<vel value="0.00250870706256091" flag="0"/>
			<psa03 value="0.0104002221668106" flag="0"/>
			<psa10 value="0.000879414155309488" flag="0"/>
			<psa30 value="0.000131145302315868" flag="0"/>
		</comp>
	</station>
	<station code="KARP" name="KARP" netid="HL" source="National Observatory of Athens Seismic Network" insttype="" lat="35.5471" lon="27.16106">
		<comp name="--.HNE" depth="0.0">
			<acc value="0.314672323219728" flag="0"/>
			<vel value="0.0772487175639138" flag="0"/>
			<psa03 value="0.210986956016892" flag="0"/>
			<psa10 value="0.0419236334851446" flag="0"/>
			<psa30 value="0.00245782906911371" flag="0"/>
		</comp>
		<comp name="--.HNN" depth="0.0">
			<acc value="0.356643323277001" flag="0"/>
			<vel value="0.0953825209833054" flag="0"/>
			<psa03 value="0.380941277156891" flag="0"/>
			<psa10 value="0.019460352277813" flag="0"/>
			<psa30 value="0.00147594329483157" flag="0"/>
		</comp>
		<comp name="--.HNZ" depth="0.0">
			<acc value="0.237922828319656" flag="0"/>
			<vel value="0.0507414260479284" flag="0"/>
			<psa03 value="0.182823298646092" flag="0"/>
			<psa10 value="0.0174502547437544" flag="0"/>
			<psa30 value="0.00133094410601441" flag="0"/>
		</comp>
	</station>
	<station code="KLNA" name="KLNA" netid="HL" source="National Observatory of Athens Seismic Network" insttype="" lat="36.95708" lon="26.97274">
		<comp name="00.HNE" depth="0.0">
			<acc value="0.00893604599321992" flag="0"/>
			<vel value="0.00282789821160349" flag="0"/>
			<psa03 value="0.0215928757345646" flag="0"/>
			<psa10 value="0.00108243631546772" flag="0"/>
			<psa30 value="0.000147193123218011" flag="0"/>
		</comp>
		<comp name="00.HNN" depth="0.0">
			<acc value="0.0100823140078615" flag="0"/>
			<vel value="0.00360528393346084" flag="0"/>
			<psa03 value="0.0169057514334812" flag="0"/>
			<psa10 value="0.00131071464091214" flag="0"/>
			<psa30 value="0.000144794617974338" flag="0"/>
		</comp>
		<comp name="00.HNZ" depth="0.0">
			<acc value="0.013428921203381" flag="0"/>
			<vel value="0.00287415557808365" flag="0"/>
			<psa03 value="0.00908475025761712" flag="0"/>
			<psa10 value="0.000719450648356185" flag="0"/>
			<psa30 value="0.000119516094437925" flag="0"/>
		</comp>
	</station>
	<station code="NISR" name="NISR" netid="HL" source="National Observatory of Athens Seismic Network" insttype="" lat="36.6106" lon="27.131">
		<comp name="--.HNE" depth="0.0">
			<acc value="0.00755886522929909" flag="0"/>
			<vel value="0.00151148513823137" flag="0"/>
			<psa03 value="0.0218888771140169" flag="0"/>
			<psa10 value="0.00512411913523142" flag="0"/>
			<psa30 value="0.00063031998477319" flag="0"/>
		</comp>
		<comp name="--.HNN" depth="0.0">
			<acc value="0.00691313482060291" flag="0"/>
			<vel value="0.00137161992150128" flag="0"/>
			<psa03 value="0.0145446171553351" flag="0"/>
			<psa10 value="0.00299303038295018" flag="0"/>
			<psa30 value="0.000484871495356985" flag="0"/>
		</comp>
		<comp name="--.HNZ" depth="0.0">
			<acc value="0.00307095599908196" flag="0"/>
			<vel value="0.000469856816336545" flag="0"/>
			<psa03 value="0.0101421731712834" flag="0"/>
			<psa10 value="0.00365431801813239" flag="0"/>
			<psa30 value="0.000282711957446247" flag="0"/>
		</comp>
	</station>
	<station code="RODB" name="RODB" netid="HL" source="National Observatory of Athens Seismic Network" insttype="" lat="36.4471" lon="28.22116">
		<comp name="00.HNE" depth="0.0">
			<acc value="0.0819907350681436" flag="0"/>
			<vel value="0.0357639199641993" flag="0"/>
			<psa03 value="0.284815409289819" flag="0"/>
			<psa10 value="0.0325935966658106" flag="0"/>
			<psa30 value="0.0021885716487987" flag="0"/>
		</comp>
		<comp name="00.HNN" depth="0.0">
			<acc value="0.0980888643469815" flag="0"/>
			<vel value="0.0460875095111025" flag="0"/>
			<psa03 value="0.20645803099816" flag="0"/>
			<psa10 value="0.0400564672943645" flag="0"/>
			<psa30 value="0.00309484397655679" flag="0"/>
		</comp>
		<comp name="00.HNZ" depth="0.0">
			<acc value="0.0763814053457576" flag="0"/>
			<vel value="0.0241453054694464" flag="0"/>
			<psa03 value="0.119851262474544" flag="0"/>
			<psa10 value="0.0183568698025199" flag="0"/>
			<psa30 value="0.00109662181247895" flag="0"/>
		</comp>
	</station>
	<station code="THRA" name="THRA" netid="HL" source="National Observatory of Athens Seismic Network" insttype="" lat="36.41502" lon="25.43244">
		<comp name="00.HNE" depth="0.0">
			<acc value="0.0216581802231373" flag="0"/>
			<vel value="0.00859961113534118" flag="0"/>
			<psa03 value="0.0527213206537384" flag="0"/>
			<psa10 value="0.00527078525741626" flag="0"/>
			<psa30 value="0.000382511641602155" flag="0"/>
		</comp>
		<comp name="00.HNN" depth="0.0">
			<acc value="0.017175835426078" flag="0"/>
			<vel value="0.00678912377224175" flag="0"/>
			<psa03 value="0.0259099481777349" flag="0"/>
			<psa10 value="0.00440168487125532" flag="0"/>
			<psa30 value="0.000252723877133273" flag="0"/>
		</comp>
		<comp name="00.HNZ" depth="0.0">
			<acc value="0.0159024440422937" flag="0"/>
			<vel value="0.00601286068434739" flag="0"/>
			<psa03 value="0.0367094734891056" flag="0"/>
			<psa10 value="0.00427049696198216" flag="0"/>
			<psa30 value="0.000255567190488879" flag="0"/>
		</comp>
	</station>
	<station code="DEMR" name="DEMR" netid="KO" source="Bogazici University Kandilli Observatory And Earthquake Research Institute (KOERI)" insttype="" lat="36.2365" lon="29.9056">
		<comp name="--.HNE" depth="0.0">
			<acc value="0.0230194358644679" flag="0"/>
			<vel value="0.00513113439907594" flag="0"/>
			<psa03 value="0.0267359403956515" flag="0"/>
			<psa10 value="0.00333967053365924" flag="0"/>
			<psa30 value="0.000611661665414888" flag="0"/>
		</comp>
		<comp name="--.HNN" depth="0.0">
			<acc value="0.0208350634781789" flag="0"/>
			<vel value="0.00581863552058219" flag="0"/>
			<psa03 value="0.0287095294695969" flag="0"/>
			<psa10 value="0.00363657863986432" flag="0"/>
			<psa30 value="0.000293857956230889" flag="0"/>
		</comp>
		<comp name="--.HNZ" depth="0.0">
			<acc value="0.0198960815221598" flag="0"/>
			<vel value="0.00596781942945084" flag="0"/>
			<psa03 value="0.0440174003117469" flag="0"/>
			<psa10 value="0.00318529788535069" flag="0"/>
			<psa30 value="0.000339663568752843" flag="0"/>
		</comp>
	</station>
	<station code="GMLD" name="GMLD" netid="KO" source="Bogazici University Kandilli Observatory And Earthquake Research Institute (KOERI)" insttype="" lat="38.0766" lon="26.9157">
		<comp name="--.HNE" depth="0.0">
			<acc value="0.00554470791166636" flag="0"/>
			<vel value="0.00262720499187643" flag="0"/>
			<psa03 value="0.00726131175544129" flag="0"/>
			<psa10 value="0.00323651760653168" flag="0"/>
			<psa30 value="0.000381099360545473" flag="0"/>
		</comp>
		<comp name="--.HNN" depth="0.0">
			<acc value="0.00526820223174358" flag="0"/>
			<vel value="0.00304467063795293" flag="0"/>
			<psa03 value="0.007876523083084" flag="0"/>
			<psa10 value="0.00324732933838103" flag="0"/>
			<psa30 value="0.000295825534489954" flag="0"/>
		</comp>
		<comp name="--.HNZ" depth="0.0">
			<acc value="0.00669284993316774" flag="0"/>
			<vel value="0.00138320282987215" flag="0"/>
			<psa03 value="0.00623595151262574" flag="0"/>
			<psa10 value="0.000931509969681265" flag="0"/>
			<psa30 value="0.000348355316413504" flag="0"/>
		</comp>
	</station>
	<station code="KUSD" name="KUSD" netid="KO" source="Bogazici University Kandilli Observatory And Earthquake Research Institute (KOERI)" insttype="" lat="37.8606" lon="27.2868">
		<comp name="--.HNE" depth="0.0">
			<acc value="0.00734286024713433" flag="0"/>
			<vel value="0.00196935657633939" flag="0"/>
			<psa03 value="0.00335999504411828" flag="0"/>
			<psa10 value="0.00281722154897793" flag="0"/>
			<psa30 value="0.000274467088347604" flag="0"/>
		</comp>
		<comp name="--.HNN" depth="0.0">
			<acc value="0.00750834193254055" flag="0"/>
			<vel value="0.00182458247649326" flag="0"/>
			<psa03 value="0.00597148737861876" flag="0"/>
			<psa10 value="0.00166215862547492" flag="0"/>
			<psa30 value="0.000304001779251131" flag="0"/>
		</comp>
		<comp name="--.HNZ" depth="0.0">
			<acc value="0.00392741174833756" flag="0"/>
			<vel value="0.000841432758818993" flag="0"/>
			<psa03 value="0.0029513459028073" flag="0"/>
			<psa10 value="0.00160555014887876" flag="0"/>
			<psa30 value="0.000251996224763173" flag="0"/>
		</comp>
	</station>
	<station code="NAZL" name="NAZL" netid="KO" source="Bogazici University Kandilli Observatory And Earthquake Research Institute (KOERI)" insttype="" lat="37.9641" lon="28.2922">
		<comp name="--.HNE" depth="0.0">
			<acc value="0.011955216926734" flag="0"/>
			<vel value="0.00748339360691479" flag="0"/>
			<psa03 value="0.0301749702978722" flag="0"/>
			<psa10 value="0.00726052222394889" flag="0"/>
			<psa30 value="0.000403033964646952" flag="0"/>
		</comp>
		<comp name="--.HNN" depth="0.0">
			<acc value="0.0129653043897847" flag="0"/>
			<vel value="0.00726176096586963" flag="0"/>
			<psa03 value="0.0459107392777329" flag="0"/>
			<psa10 value="0.00806969739035724" flag="0"/>
			<psa30 value="0.000327438201590593" flag="0"/>
		</comp>
		<comp name="--.HNZ" depth="0.0">
			<acc value="0.0152744731044023" flag="0"/>
			<vel value="0.0049483571492423" flag="0"/>
			<psa03 value="0.0340968707295192" flag="0"/>
			<psa10 value="0.00212919042341632" flag="0"/>
			<psa30 value="0.000166633486567375" flag="0"/>
		</comp>
	</station>
	<station code="ODEM" name="ODEM" netid="KO" source="Bogazici University Kandilli Observatory And Earthquake Research Institute (KOERI)" insttype="" lat="38.2762" lon="28.0747">
		<comp name="--.HNE" depth="0.0">
			<acc value="0.00302231674375254" flag="0"/>
			<vel value="0.00168534855587657" flag="0"/>
			<psa03 value="0.011439855490536" flag="0"/>
			<psa10 value="0.00170154549247378" flag="0"/>
			<psa30 value="0.000146214907374153" flag="0"/>
		</comp>
		<comp name="--.HNN" depth="0.0">
			<acc value="0.00433940940472602" flag="0"/>
			<vel value="0.00209614938441443" flag="0"/>
			<psa03 value="0.00770263526177252" flag="0"/>
			<psa10 value="0.0014877351567145" flag="0"/>
			<psa30 value="9.88401479349937e-05" flag="0"/>
		</comp>
		<comp name="--.HNZ" depth="0.0">
			<acc value="0.00232565322938033" flag="0"/>
			<vel value="0.00123899867538644" flag="0"/>
			<psa03 value="0.00585678707195083" flag="0"/>
			<psa10 value="0.00158742554977804" flag="0"/>
			<psa30 value="0.00010892138217366" flag="0"/>
		</comp>
	</station>
</stationlist>
