<stationlist created="1675764129">
	<station code="ARPRA" name="ARPRA" netid="KO" source="Bogazici University Kandilli Observatory And Earthquake Research Institute (KOERI)" insttype="" lat="39.0929" lon="38.3356">
		<comp name=".HNE" depth="0.0">
			<acc value="0.116699380151" flag="0"/>
			<vel value="0.0346402104306" flag="0"/>
			<psa03 value="0.206676899664" flag="0"/>
			<psa10 value="0.0349241135511" flag="0"/>
			<psa30 value="0.002722179081" flag="0"/>
		</comp>
		<comp name=".HNN" depth="0.0">
			<acc value="0.11623041049" flag="0"/>
			<vel value="0.0372576171449" flag="0"/>
			<psa03 value="0.210935410936" flag="0"/>
			<psa10 value="0.0325349277793" flag="0"/>
			<psa30 value="0.00178113632487" flag="0"/>
		</comp>
		<comp name=".HNZ" depth="0.0">
			<acc value="0.0583244273456" flag="0"/>
			<vel value="0.017540815786" flag="0"/>
			<psa03 value="0.086815042737" flag="0"/>
			<psa10 value="0.0205900583653" flag="0"/>
			<psa30 value="0.00131496179726" flag="0"/>
		</comp>
	</station>
	<station code="KOZK" name="KOZK" netid="KO" source="Bogazici University Kandilli Observatory And Earthquake Research Institute (KOERI)" insttype="" lat="39.2101" lon="34.868">
		<comp name=".HNE" depth="0.0">
			<acc value="0.0260794854738" flag="0"/>
			<vel value="0.0234093628762" flag="0"/>
			<psa03 value="0.0422247242641" flag="0"/>
			<psa10 value="0.0253483623296" flag="0"/>
			<psa30 value="0.00159748228369" flag="0"/>
		</comp>
		<comp name=".HNN" depth="0.0">
			<acc value="0.0178892856304" flag="0"/>
			<vel value="0.0173691685787" flag="0"/>
			<psa03 value="0.0439759444405" flag="0"/>
			<psa10 value="0.0252362524029" flag="0"/>
			<psa30 value="0.00119566441523" flag="0"/>
		</comp>
		<comp name=".HNZ" depth="0.0">
			<acc value="0.0132004055334" flag="0"/>
			<vel value="0.00899671167221" flag="0"/>
			<psa03 value="0.0306052826581" flag="0"/>
			<psa10 value="0.00724262978868" flag="0"/>
			<psa30 value="0.000971711454447" flag="0"/>
		</comp>
	</station>
</stationlist>
