<?xml version="1.0" encoding="UTF-8" standalone="yes"?>
<!DOCTYPE earthquake SYSTEM "stationlist.dtd">
<stationlist created="" xmlns="ch.ethz.sed.shakemap.usgs.xml">
  <station code="ARPRA" name="ARPRA" netid="KO" insttype="CMG-5T" lat="39.0929" lon="38.3356">
    <comp name="--.HNE">
      <acc value="0.1162952272" flag="0"/>
      <vel value="0.0348146571" flag="0"/>
      <psa03 value="0.2029499790" flag="0"/>
      <psa10 value="0.0349813018" flag="0"/>
      <psa30 value="0.0028783158" flag="0"/>
    </comp>
    <comp name="--.HNZ">
      <acc value="0.0586281746" flag="0"/>
      <vel value="0.0174768330" flag="0"/>
      <psa03 value="0.0857182783" flag="0"/>
      <psa10 value="0.0206223344" flag="0"/>
      <psa30 value="0.0014463461" flag="0"/>
    </comp>
    <comp name="--.HNN">
      <acc value="0.1167598036" flag="0"/>
      <vel value="0.0369371465" flag="0"/>
      <psa03 value="0.2096105560" flag="0"/>
      <psa10 value="0.0326470253" flag="0"/>
      <psa30 value="0.0018503791" flag="0"/>
    </comp>
  </station>
  <station code="BNN" name="BNN" netid="KO" insttype="CMG-3T" lat="38.8521" lon="35.8472">
    <comp name="--.HHN">
      <acc value="0.0000088820" flag="0"/>
      <vel value="0.0000010094" flag="0"/>
      <psa03 value="0.0000035144" flag="0"/>
      <psa10 value="0.0000008056" flag="0"/>
      <psa30 value="0.0000002305" flag="0"/>
    </comp>
    <comp name="--.HHE">
      <acc value="0.1011202182" flag="0"/>
      <vel value="0.0165645166" flag="0"/>
      <psa03 value="0.0706646405" flag="0"/>
      <psa10 value="0.0121452047" flag="0"/>
      <psa30 value="0.0011358137" flag="0"/>
    </comp>
    <comp name="--.HHZ">
      <acc value="0.0406938264" flag="0"/>
      <vel value="0.0079240954" flag="0"/>
      <psa03 value="0.0279066227" flag="0"/>
      <psa10 value="0.0095562747" flag="0"/>
      <psa30 value="0.0007405978" flag="0"/>
    </comp>
  </station>
  <station code="ANDN" name="ANDN" netid="TU" insttype="T" lat="37.58" lon="36.3452">
    <comp name="--.HHZ">
      <acc value="0.1050897302" flag="0"/>
      <vel value="0.0679207120" flag="0"/>
      <psa03 value="0.2349620982" flag="0"/>
      <psa10 value="0.1073500091" flag="0"/>
      <psa30 value="0.0057937949" flag="0"/>
    </comp>
    <comp name="--.HHN">
      <acc value="0.2438891847" flag="0"/>
      <vel value="0.0961298352" flag="0"/>
      <psa03 value="0.4606195622" flag="0"/>
      <psa10 value="0.1173812434" flag="0"/>
      <psa30 value="0.0058367329" flag="0"/>
    </comp>
    <comp name="--.HHE">
      <acc value="0.1569587824" flag="0"/>
      <vel value="0.0887367434" flag="0"/>
      <psa03 value="0.5002076194" flag="0"/>
      <psa10 value="0.1214497430" flag="0"/>
      <psa30 value="0.0059244219" flag="0"/>
    </comp>
  </station>
</stationlist>
