<?xml version="1.0" encoding="UTF-8" standalone="yes"?>
<!DOCTYPE earthquake SYSTEM "stationlist.dtd">
<stationlist created="" xmlns="ch.ethz.sed.shakemap.usgs.xml">
  <station code="ARPRA" name="ARPRA" netid="KO" insttype="CMG-5T" lat="39.0929" lon="38.3356">
    <comp name="--.HNE">
      <acc value="0.1162952241" flag="0"/>
      <vel value="0.0348146531" flag="0"/>
      <psa03 value="0.2029499790" flag="0"/>
      <psa10 value="0.0349813014" flag="0"/>
      <psa30 value="0.0028785799" flag="0"/>
    </comp>
    <comp name="--.HNZ">
      <acc value="0.0586281753" flag="0"/>
      <vel value="0.0174768395" flag="0"/>
      <psa03 value="0.0857182783" flag="0"/>
      <psa10 value="0.0206223326" flag="0"/>
      <psa30 value="0.0014463503" flag="0"/>
    </comp>
    <comp name="--.HNN">
      <acc value="0.1167598038" flag="0"/>
      <vel value="0.0369371433" flag="0"/>
      <psa03 value="0.2096105560" flag="0"/>
      <psa10 value="0.0326470269" flag="0"/>
      <psa30 value="0.0018486155" flag="0"/>
    </comp>
  </station>
  <station code="ANDN" name="ANDN" netid="TU" insttype="T" lat="37.58" lon="36.3452">
    <comp name="--.HHE">
      <acc value="0.1569587829" flag="0"/>
      <vel value="0.0887367466" flag="0"/>
      <psa03 value="0.5002076194" flag="0"/>
      <psa10 value="0.1214494749" flag="0"/>
      <psa30 value="0.0059215802" flag="0"/>
    </comp>
    <comp name="--.HHZ">
      <acc value="0.1050897298" flag="0"/>
      <vel value="0.0679207191" flag="0"/>
      <psa03 value="0.2349620982" flag="0"/>
      <psa10 value="0.1073505895" flag="0"/>
      <psa30 value="0.0057945282" flag="0"/>
    </comp>
    <comp name="--.HHN">
      <acc value="0.2438891845" flag="0"/>
      <vel value="0.0961297031" flag="0"/>
      <psa03 value="0.4606195623" flag="0"/>
      <psa10 value="0.1173811719" flag="0"/>
      <psa30 value="0.0058320886" flag="0"/>
    </comp>
  </station>
</stationlist>
