<?xml version="1.0" encoding="UTF-8" standalone="yes"?>
<!DOCTYPE earthquake SYSTEM "stationlist.dtd">
<stationlist created="" xmlns="ch.ethz.sed.shakemap.usgs.xml">
  <station code="DARE" name="DARE" netid="KO" insttype="CMG-3ESP" lat="38.5712" lon="37.4832">
    <comp name="--.HHZ">
      <acc value="0.0090351456" flag="0"/>
      <vel value="0.0038173542" flag="0"/>
      <psa03 value="0.0253178491" flag="0"/>
      <psa10 value="0.0045484884" flag="0"/>
      <psa30 value="0.0002809971" flag="0"/>
    </comp>
  </station>
  <station code="GAZ" name="GAZ" netid="KO" insttype="CMG-3T" lat="37.1721" lon="37.2096">
    <comp name="--.HHE">
      <acc value="0.0470767443" flag="0"/>
      <vel value="0.0121735169" flag="0"/>
      <psa03 value="0.0668327694" flag="0"/>
      <psa10 value="0.0151992729" flag="0"/>
      <psa30 value="0.0007972202" flag="0"/>
    </comp>
    <comp name="--.HHZ">
      <acc value="0.0186527922" flag="0"/>
      <vel value="0.0062913551" flag="0"/>
      <psa03 value="0.0313311176" flag="0"/>
      <psa10 value="0.0058496814" flag="0"/>
      <psa30 value="0.0004482867" flag="0"/>
    </comp>
    <comp name="--.HHN">
      <acc value="0.0287539417" flag="0"/>
      <vel value="0.0076403967" flag="0"/>
      <psa03 value="0.0321113729" flag="0"/>
      <psa10 value="0.0078401704" flag="0"/>
      <psa30 value="0.0005993510" flag="0"/>
    </comp>
  </station>
  <station code="KMRS" name="KMRS" netid="KO" insttype="CMG-3T" lat="37.5053" lon="36.9">
    <comp name="--.HHE">
      <acc value="0.0195120256" flag="0"/>
      <vel value="0.0083233158" flag="0"/>
      <psa03 value="0.0383511733" flag="0"/>
      <psa10 value="0.0167404685" flag="0"/>
      <psa30 value="0.0011971005" flag="0"/>
    </comp>
    <comp name="--.HHN">
      <acc value="0.0231309210" flag="0"/>
      <vel value="0.0095123031" flag="0"/>
      <psa03 value="0.0534900683" flag="0"/>
      <psa10 value="0.0110896347" flag="0"/>
      <psa30 value="0.0011826530" flag="0"/>
    </comp>
    <comp name="--.HHZ">
      <acc value="0.0175609937" flag="0"/>
      <vel value="0.0072541995" flag="0"/>
      <psa03 value="0.0255438716" flag="0"/>
      <psa10 value="0.0141003588" flag="0"/>
      <psa30 value="0.0011899148" flag="0"/>
    </comp>
  </station>
  <station code="SARI" name="SARI" netid="KO" insttype="CMG-3T" lat="38.4072" lon="36.4181">
    <comp name="--.HHE">
      <acc value="0.0232168120" flag="0"/>
      <vel value="0.0119263815" flag="0"/>
      <psa03 value="0.0832147991" flag="0"/>
      <psa10 value="0.0083253106" flag="0"/>
      <psa30 value="0.0004957312" flag="0"/>
    </comp>
    <comp name="--.HHN">
      <acc value="0.0275234296" flag="0"/>
      <vel value="0.0163692536" flag="0"/>
      <psa03 value="0.1083063501" flag="0"/>
      <psa10 value="0.0093672264" flag="0"/>
      <psa30 value="0.0005602227" flag="0"/>
    </comp>
    <comp name="--.HHZ">
      <acc value="0.0178287806" flag="0"/>
      <vel value="0.0088131588" flag="0"/>
      <psa03 value="0.0587249922" flag="0"/>
      <psa10 value="0.0072974488" flag="0"/>
      <psa30 value="0.0004964316" flag="0"/>
    </comp>
  </station>
  <station code="ANDN" name="ANDN" netid="TU" insttype="T" lat="37.58" lon="36.3452">
    <comp name="--.HHN">
      <acc value="0.0710309341" flag="0"/>
      <vel value="0.0274416370" flag="0"/>
      <psa03 value="0.1548549987" flag="0"/>
      <psa10 value="0.0202792394" flag="0"/>
      <psa30 value="0.0011839847" flag="0"/>
    </comp>
    <comp name="--.HHZ">
      <acc value="0.0255838775" flag="0"/>
      <vel value="0.0099722989" flag="0"/>
      <psa03 value="0.0526473436" flag="0"/>
      <psa10 value="0.0102058946" flag="0"/>
      <psa30 value="0.0005498226" flag="0"/>
    </comp>
    <comp name="--.HHE">
      <acc value="0.0499809085" flag="0"/>
      <vel value="0.0206422079" flag="0"/>
      <psa03 value="0.0977711401" flag="0"/>
      <psa10 value="0.0209876957" flag="0"/>
      <psa30 value="0.0011267012" flag="0"/>
    </comp>
  </station>
</stationlist>
