<?xml version="1.0" encoding="UTF-8" standalone="yes"?>
<!DOCTYPE earthquake SYSTEM "stationlist.dtd">
<stationlist created="" xmlns="ch.ethz.sed.shakemap.usgs.xml">
  <station code="KRL1" name="KRL1" netid="HI" insttype="CMG-5TD,ACCELEROMETER,GURALP" lat="37.7951" lon="26.7065">
    <comp name="--.HNN">
      <acc value="0.4945153419" flag="0"/>
      <vel value="0.1874061667" flag="0"/>
      <psa03 value="1.1920609856" flag="0"/>
      <psa10 value="0.0993937973" flag="0"/>
      <psa30 value="0.0082257880" flag="0"/>
    </comp>
    <comp name="--.HNE">
      <acc value="0.6092184851" flag="0"/>
      <vel value="0.2291068544" flag="0"/>
      <psa03 value="1.3405799391" flag="0"/>
      <psa10 value="0.0655326032" flag="0"/>
      <psa30 value="0.0067828296" flag="0"/>
    </comp>
    <comp name="--.HNZ">
      <acc value="0.1955835567" flag="0"/>
      <vel value="0.0666533222" flag="0"/>
      <psa03 value="0.3480463817" flag="0"/>
      <psa10 value="0.0553399789" flag="0"/>
      <psa30 value="0.0030290243" flag="0"/>
    </comp>
  </station>
  <station code="MYT1" name="MYT1" netid="HI" insttype="CMG-5TD,ACCELEROMETER,GURALP" lat="39.085" lon="26.5694">
    <comp name="--.HNN">
      <acc value="0.0329128022" flag="0"/>
      <vel value="0.0217835859" flag="0"/>
      <psa03 value="0.0986621530" flag="0"/>
      <psa10 value="0.0274812084" flag="0"/>
      <psa30 value="0.0016464046" flag="0"/>
    </comp>
    <comp name="--.HNZ">
      <acc value="0.0262478320" flag="0"/>
      <vel value="0.0143451517" flag="0"/>
      <psa03 value="0.0616069431" flag="0"/>
      <psa10 value="0.0142843340" flag="0"/>
      <psa30 value="0.0013038694" flag="0"/>
    </comp>
    <comp name="--.HNE">
      <acc value="0.0416957441" flag="0"/>
      <vel value="0.0225893483" flag="0"/>
      <psa03 value="0.1846478472" flag="0"/>
      <psa10 value="0.0437842899" flag="0"/>
      <psa30 value="0.0021703512" flag="0"/>
    </comp>
  </station>
  <station code="KLNA" name="KLNA" netid="HL" insttype="CMG-5" lat="36.9571" lon="26.9727">
    <comp name="00.HNZ">
      <acc value="0.0308016059" flag="0"/>
      <vel value="0.0091849960" flag="0"/>
      <psa03 value="0.0434861082" flag="0"/>
      <psa10 value="0.0041843091" flag="0"/>
      <psa30 value="0.0003755732" flag="0"/>
    </comp>
    <comp name="00.HNN">
      <acc value="0.0371527037" flag="0"/>
      <vel value="0.0146393418" flag="0"/>
      <psa03 value="0.1475572410" flag="0"/>
      <psa10 value="0.0046317694" flag="0"/>
      <psa30 value="0.0003974851" flag="0"/>
    </comp>
    <comp name="00.HNE">
      <acc value="0.0402173565" flag="0"/>
      <vel value="0.0139453176" flag="0"/>
      <psa03 value="0.1365043750" flag="0"/>
      <psa10 value="0.0056038392" flag="0"/>
      <psa30 value="0.0003544376" flag="0"/>
    </comp>
  </station>
  <station code="SAM2" name="SAM2" netid="HL" insttype="60" lat="37.7586" lon="26.6107">
    <comp name="--.HHZ">
      <acc value="0.1134459193" flag="0"/>
      <vel value="0.0265552693" flag="0"/>
      <psa03 value="0.1595709007" flag="0"/>
      <psa10 value="0.0111073419" flag="0"/>
      <psa30 value="0.0009326853" flag="0"/>
    </comp>
    <comp name="--.HHN">
      <acc value="0.4849441497" flag="0"/>
      <vel value="0.1754888926" flag="0"/>
      <psa03 value="1.5422010408" flag="0"/>
      <psa10 value="0.0669792693" flag="0"/>
      <psa30 value="0.0040805389" flag="0"/>
    </comp>
    <comp name="--.HHE">
      <acc value="0.3186307711" flag="0"/>
      <vel value="0.0908708798" flag="0"/>
      <psa03 value="0.4504132817" flag="0"/>
      <psa10 value="0.0419750505" flag="0"/>
      <psa30 value="0.0033618546" flag="0"/>
    </comp>
  </station>
  <station code="SMG" name="SMG" netid="HL" insttype="120" lat="37.7043" lon="26.8377">
    <comp name="--.HHN">
      <acc value="0.1883683760" flag="0"/>
      <vel value="0.0505137869" flag="0"/>
      <psa03 value="0.3290944772" flag="0"/>
      <psa10 value="0.0228729693" flag="0"/>
      <psa30 value="0.0016134297" flag="0"/>
    </comp>
    <comp name="--.HHE">
      <acc value="0.1586404376" flag="0"/>
      <vel value="0.0447326373" flag="0"/>
      <psa03 value="0.2491541128" flag="0"/>
      <psa10 value="0.0238847025" flag="0"/>
      <psa30 value="0.0014965792" flag="0"/>
    </comp>
    <comp name="--.HHZ">
      <acc value="0.0849919860" flag="0"/>
      <vel value="0.0239778305" flag="0"/>
      <psa03 value="0.0952044680" flag="0"/>
      <psa10 value="0.0126236150" flag="0"/>
      <psa30 value="0.0008061510" flag="0"/>
    </comp>
  </station>
  <station code="FOCM" name="FOCM" netid="KO" insttype="CMG-5T" lat="38.7131" lon="26.7309">
    <comp name="--.HNE">
      <acc value="0.1247277360" flag="0"/>
      <vel value="0.0667083547" flag="0"/>
      <psa03 value="0.2870538918" flag="0"/>
      <psa10 value="0.0277783903" flag="0"/>
      <psa30 value="0.0022313431" flag="0"/>
    </comp>
    <comp name="--.HNN">
      <acc value="0.1069843427" flag="0"/>
      <vel value="0.0369990372" flag="0"/>
      <psa03 value="0.1354301152" flag="0"/>
      <psa10 value="0.0165182038" flag="0"/>
      <psa30 value="0.0017119613" flag="0"/>
    </comp>
    <comp name="--.HNZ">
      <acc value="0.0838534681" flag="0"/>
      <vel value="0.0304709675" flag="0"/>
      <psa03 value="0.1844467187" flag="0"/>
      <psa10 value="0.0106636004" flag="0"/>
      <psa30 value="0.0007248973" flag="0"/>
    </comp>
  </station>
  <station code="GMLD" name="GMLD" netid="KO" insttype="CMG-5T" lat="38.0766" lon="26.9157">
    <comp name="--.HNE">
      <acc value="4.1514083483" flag="0"/>
      <vel value="1.2622138548" flag="0"/>
      <psa03 value="4.3200902970" flag="0"/>
      <psa10 value="0.4712358792" flag="0"/>
      <psa30 value="0.0419257882" flag="0"/>
    </comp>
    <comp name="--.HNN">
      <acc value="3.2735757738" flag="0"/>
      <vel value="1.1392328536" flag="0"/>
      <psa03 value="2.8323459538" flag="0"/>
      <psa10 value="0.2718856670" flag="0"/>
      <psa30 value="0.0162999433" flag="0"/>
    </comp>
    <comp name="--.HNZ">
      <acc value="1.8490940216" flag="0"/>
      <vel value="0.3520800941" flag="0"/>
      <psa03 value="1.2929804968" flag="0"/>
      <psa10 value="0.1066994398" flag="0"/>
      <psa30 value="0.0074975535" flag="0"/>
    </comp>
  </station>
  <station code="GOMA" name="GOMA" netid="KO" insttype="CMG-5T" lat="38.7077" lon="27.9175">
    <comp name="--.HNZ">
      <acc value="0.0760870684" flag="0"/>
      <vel value="0.0353384726" flag="0"/>
      <psa03 value="0.2735794760" flag="0"/>
      <psa10 value="0.0121472959" flag="0"/>
      <psa30 value="0.0011154719" flag="0"/>
    </comp>
    <comp name="--.HNN">
      <acc value="0.1434356935" flag="0"/>
      <vel value="0.0748057396" flag="0"/>
      <psa03 value="0.3849609215" flag="0"/>
      <psa10 value="0.0220697775" flag="0"/>
      <psa30 value="0.0026204612" flag="0"/>
    </comp>
    <comp name="--.HNE">
      <acc value="0.2259239861" flag="0"/>
      <vel value="0.1000428674" flag="0"/>
      <psa03 value="0.9933992669" flag="0"/>
      <psa10 value="0.0451249867" flag="0"/>
      <psa30 value="0.0040874293" flag="0"/>
    </comp>
  </station>
  <station code="KUSD" name="KUSD" netid="KO" insttype="CMG-5T" lat="37.8606" lon="27.2868">
    <comp name="--.HNE">
      <acc value="0.1202860661" flag="0"/>
      <vel value="0.0357443931" flag="0"/>
      <psa03 value="0.2259086597" flag="0"/>
      <psa10 value="0.0216937738" flag="0"/>
      <psa30 value="0.0026167459" flag="0"/>
    </comp>
    <comp name="--.HNN">
      <acc value="0.1549724620" flag="0"/>
      <vel value="0.0623807736" flag="0"/>
      <psa03 value="0.2446677904" flag="0"/>
      <psa10 value="0.0458667520" flag="0"/>
      <psa30 value="0.0029247192" flag="0"/>
    </comp>
    <comp name="--.HNZ">
      <acc value="0.0990437984" flag="0"/>
      <vel value="0.0199318683" flag="0"/>
      <psa03 value="0.0597159542" flag="0"/>
      <psa10 value="0.0113106934" flag="0"/>
      <psa30 value="0.0005911571" flag="0"/>
    </comp>
  </station>
  <station code="YKAV" name="YKAV" netid="KO" insttype="CMG-5T" lat="37.1246" lon="27.2801">
    <comp name="--.HNN">
      <acc value="0.0120484305" flag="0"/>
      <vel value="0.0082917770" flag="0"/>
      <psa03 value="0.0260071794" flag="0"/>
      <psa10 value="0.0093105386" flag="0"/>
      <psa30 value="0.0005419746" flag="0"/>
    </comp>
    <comp name="--.HNZ">
      <acc value="0.0090343674" flag="0"/>
      <vel value="0.0041268411" flag="0"/>
      <psa03 value="0.0308081735" flag="0"/>
      <psa10 value="0.0039106178" flag="0"/>
      <psa30 value="0.0003903648" flag="0"/>
    </comp>
    <comp name="--.HNE">
      <acc value="0.0153693494" flag="0"/>
      <vel value="0.0070631701" flag="0"/>
      <psa03 value="0.0317952793" flag="0"/>
      <psa10 value="0.0109503571" flag="0"/>
      <psa30 value="0.0005594246" flag="0"/>
    </comp>
  </station>
  <station code="AYDN" name="AYDN" netid="TU" source="ODC" insttype="T" lat="37.6608" lon="27.8792">
    <comp name="--.HHN">
      <acc value="0.1540628836" flag="0"/>
      <vel value="0.0549183346" flag="0"/>
      <psa03 value="0.3556308776" flag="0"/>
      <psa10 value="0.0496360292" flag="0"/>
      <psa30 value="0.0050736638" flag="0"/>
    </comp>
    <comp name="--.HHZ">
      <acc value="0.1041885576" flag="0"/>
      <vel value="0.0345517777" flag="0"/>
      <psa03 value="0.1375317906" flag="0"/>
      <psa10 value="0.0287241305" flag="0"/>
      <psa30 value="0.0016039227" flag="0"/>
    </comp>
    <comp name="--.HHE">
      <acc value="0.2042166957" flag="0"/>
      <vel value="0.1024994494" flag="0"/>
      <psa03 value="0.5464047542" flag="0"/>
      <psa10 value="0.0566732475" flag="0"/>
      <psa30 value="0.0033762842" flag="0"/>
    </comp>
  </station>
</stationlist>
