<stationlist created="1778136652">
	<station code="KRL1" name="KRL1" netid="HI" source="ITSAK Strong Motion Network" insttype="" lat="37.7951" lon="26.7065">
		<comp name="--.HNE" depth="0.0">
			<acc value="0.610502408993653" flag="0"/>
			<vel value="0.231002445735646" flag="0"/>
			<psa03 value="1.33813589493796" flag="0"/>
			<psa10 value="0.0657053426563937" flag="0"/>
			<psa30 value="0.00700573659566744" flag="0"/>
		</comp>
		<comp name="--.HNN" depth="0.0">
			<acc value="0.491700642944332" flag="0"/>
			<vel value="0.189154064437266" flag="0"/>
			<psa03 value="1.18072671735203" flag="0"/>
			<psa10 value="0.0995059417803558" flag="0"/>
			<psa30 value="0.00810593781191491" flag="0"/>
		</comp>
		<comp name="--.HNZ" depth="0.0">
			<acc value="0.192273447239801" flag="0"/>
			<vel value="0.0667305120090932" flag="0"/>
			<psa03 value="0.354121625486465" flag="0"/>
			<psa10 value="0.0554458367644073" flag="0"/>
			<psa30 value="0.0030674982067006" flag="0"/>
		</comp>
	</station>
	<station code="MYT1" name="MYT1" netid="HI" source="ITSAK Strong Motion Network" insttype="" lat="39.085" lon="26.5694">
		<comp name="--.HNE" depth="0.0">
			<acc value="0.04190433765725" flag="0"/>
			<vel value="0.0226970405786893" flag="0"/>
			<psa03 value="0.188528530756505" flag="0"/>
			<psa10 value="0.0437684106924442" flag="0"/>
			<psa30 value="0.00222774320205608" flag="0"/>
		</comp>
		<comp name="--.HNN" depth="0.0">
			<acc value="0.033009603403977" flag="0"/>
			<vel value="0.0218548649315273" flag="0"/>
			<psa03 value="0.0978863594907812" flag="0"/>
			<psa10 value="0.0274860920686858" flag="0"/>
			<psa30 value="0.00165068372469723" flag="0"/>
		</comp>
		<comp name="--.HNZ" depth="0.0">
			<acc value="0.0261841467336083" flag="0"/>
			<vel value="0.0143984150027469" flag="0"/>
			<psa03 value="0.0614006456165707" flag="0"/>
			<psa10 value="0.0143077518808495" flag="0"/>
			<psa30 value="0.00131149979709101" flag="0"/>
		</comp>
	</station>
	<station code="KLNA" name="KLNA" netid="HL" source="National Observatory of Athens Seismic Network" insttype="" lat="36.95708" lon="26.97274">
		<comp name="00.HNE" depth="0.0">
			<acc value="0.0401672048103778" flag="0"/>
			<vel value="0.0139573803460525" flag="0"/>
			<psa03 value="0.13693017511872" flag="0"/>
			<psa10 value="0.00560562572020675" flag="0"/>
			<psa30 value="0.000364795884687218" flag="0"/>
		</comp>
		<comp name="00.HNN" depth="0.0">
			<acc value="0.0367859276344623" flag="0"/>
			<vel value="0.0146521560537179" flag="0"/>
			<psa03 value="0.147168374182302" flag="0"/>
			<psa10 value="0.00463147196855045" flag="0"/>
			<psa30 value="0.000403976058306086" flag="0"/>
		</comp>
		<comp name="00.HNZ" depth="0.0">
			<acc value="0.0293105637596949" flag="0"/>
			<vel value="0.00923663693822333" flag="0"/>
			<psa03 value="0.043589509986965" flag="0"/>
			<psa10 value="0.00419172346235217" flag="0"/>
			<psa30 value="0.000395904872588279" flag="0"/>
		</comp>
	</station>
	<station code="NISR" name="NISR" netid="HL" source="National Observatory of Athens Seismic Network" insttype="" lat="36.6106" lon="27.131">
		<comp name="--.HNE" depth="0.0">
			<acc value="0.0203882059624887" flag="0"/>
			<vel value="0.00964861388141422" flag="0"/>
			<psa03 value="0.082090182863193" flag="0"/>
			<psa10 value="0.00316778281881519" flag="0"/>
			<psa30 value="0.000397342884516179" flag="0"/>
		</comp>
		<comp name="--.HNN" depth="0.0">
			<acc value="0.014911886235876" flag="0"/>
			<vel value="0.00691608675803522" flag="0"/>
			<psa03 value="0.0524056434918834" flag="0"/>
			<psa10 value="0.00350762892570314" flag="0"/>
			<psa30 value="0.000368674240567338" flag="0"/>
		</comp>
		<comp name="--.HNZ" depth="0.0">
			<acc value="0.00475343382120631" flag="0"/>
			<vel value="0.00289355957841008" flag="0"/>
			<psa03 value="0.0204218085737501" flag="0"/>
			<psa10 value="0.00245907516728449" flag="0"/>
			<psa30 value="0.000292455389359158" flag="0"/>
		</comp>
	</station>
	<station code="PRK" name="PRK" netid="HL" source="National Observatory of Athens Seismic Network" insttype="" lat="39.24565" lon="26.26499">
		<comp name="--.HNE" depth="0.0">
			<acc value="0.0361099409276629" flag="0"/>
			<vel value="0.0297752901908089" flag="0"/>
			<psa03 value="0.133924736439649" flag="0"/>
			<psa10 value="0.0659605620634556" flag="0"/>
			<psa30 value="0.00217591372693976" flag="0"/>
		</comp>
		<comp name="--.HNN" depth="0.0">
			<acc value="0.0407518055329034" flag="0"/>
			<vel value="0.0360019300075719" flag="0"/>
			<psa03 value="0.087204594584871" flag="0"/>
			<psa10 value="0.0478518424497092" flag="0"/>
			<psa30 value="0.00199323787555818" flag="0"/>
		</comp>
		<comp name="--.HNZ" depth="0.0">
			<acc value="0.0235826821171444" flag="0"/>
			<vel value="0.0192331328159442" flag="0"/>
			<psa03 value="0.0707231381856894" flag="0"/>
			<psa10 value="0.0238622082541835" flag="0"/>
			<psa30 value="0.00101352276590891" flag="0"/>
		</comp>
	</station>
	<station code="CANM" name="CANM" netid="KO" source="Bogazici University Kandilli Observatory And Earthquake Research Institute (KOERI)" insttype="" lat="40.0113" lon="27.0529">
		<comp name="--.HNE" depth="0.0">
			<acc value="0.00852297196705808" flag="0"/>
			<vel value="0.00388084240015123" flag="0"/>
			<psa03 value="0.0219400784225387" flag="0"/>
			<psa10 value="0.00331287125833556" flag="0"/>
			<psa30 value="0.000315670937691894" flag="0"/>
		</comp>
		<comp name="--.HNN" depth="0.0">
			<acc value="0.0123850688719905" flag="0"/>
			<vel value="0.00634646110893707" flag="0"/>
			<psa03 value="0.0298798778327683" flag="0"/>
			<psa10 value="0.00932663065602494" flag="0"/>
			<psa30 value="0.000392273876843947" flag="0"/>
		</comp>
		<comp name="--.HNZ" depth="0.0">
			<acc value="0.0111652587407092" flag="0"/>
			<vel value="0.00540136048204888" flag="0"/>
			<psa03 value="0.0370405006263592" flag="0"/>
			<psa10 value="0.00361684928601271" flag="0"/>
			<psa30 value="0.00028322087136767" flag="0"/>
		</comp>
	</station>
	<station code="CESE" name="CESE" netid="KO" source="Bogazici University Kandilli Observatory And Earthquake Research Institute (KOERI)" insttype="" lat="38.3306" lon="26.2997">
		<comp name="--.HNE" depth="0.0">
			<acc value="0.0323013962695101" flag="0"/>
			<vel value="0.0135608790281111" flag="0"/>
			<psa03 value="0.0459457884745445" flag="0"/>
			<psa10 value="0.00684234092775748" flag="0"/>
			<psa30 value="0.000881419118859326" flag="0"/>
		</comp>
		<comp name="--.HNN" depth="0.0">
			<acc value="0.0413670170585185" flag="0"/>
			<vel value="0.0269709708768168" flag="0"/>
			<psa03 value="0.10016164563433" flag="0"/>
			<psa10 value="0.0186881161209758" flag="0"/>
			<psa30 value="0.0014877907463331" flag="0"/>
		</comp>
		<comp name="--.HNZ" depth="0.0">
			<acc value="0.0274043444011016" flag="0"/>
			<vel value="0.00998859778719941" flag="0"/>
			<psa03 value="0.0539664291779077" flag="0"/>
			<psa10 value="0.00409755519292965" flag="0"/>
			<psa30 value="0.000497343936179175" flag="0"/>
		</comp>
	</station>
	<station code="DATC" name="DATC" netid="KO" source="Bogazici University Kandilli Observatory And Earthquake Research Institute (KOERI)" insttype="" lat="36.7584" lon="27.6602">
		<comp name="--.HNE" depth="0.0">
			<acc value="0.0198355939897303" flag="0"/>
			<vel value="0.00806107009620735" flag="0"/>
			<psa03 value="0.0289586032611601" flag="0"/>
			<psa10 value="0.00972911669373285" flag="0"/>
			<psa30 value="0.00170607103966844" flag="0"/>
		</comp>
		<comp name="--.HNN" depth="0.0">
			<acc value="0.019822521058135" flag="0"/>
			<vel value="0.00953499212734436" flag="0"/>
			<psa03 value="0.0331154359225952" flag="0"/>
			<psa10 value="0.01079132205961" flag="0"/>
			<psa30 value="0.00167191461030203" flag="0"/>
		</comp>
		<comp name="--.HNZ" depth="0.0">
			<acc value="0.0756642262642928" flag="0"/>
			<vel value="0.0105842048367181" flag="0"/>
			<psa03 value="0.0386663453097998" flag="0"/>
			<psa10 value="0.00777985709609316" flag="0"/>
			<psa30 value="0.00065183516004567" flag="0"/>
		</comp>
	</station>
	<station code="DIDI" name="DIDI" netid="KO" source="Bogazici University Kandilli Observatory And Earthquake Research Institute (KOERI)" insttype="" lat="37.3767" lon="27.2398">
		<comp name="--.HNE" depth="0.0">
			<acc value="0.0735578771841146" flag="0"/>
			<vel value="0.0237581208444569" flag="0"/>
			<psa03 value="0.184642231641663" flag="0"/>
			<psa10 value="0.0257000775039955" flag="0"/>
			<psa30 value="0.00287960409297341" flag="0"/>
		</comp>
		<comp name="--.HNN" depth="0.0">
			<acc value="0.0667226075092731" flag="0"/>
			<vel value="0.0335505784741767" flag="0"/>
			<psa03 value="0.221199465879015" flag="0"/>
			<psa10 value="0.0293670948009117" flag="0"/>
			<psa30 value="0.00242735434198071" flag="0"/>
		</comp>
		<comp name="--.HNZ" depth="0.0">
			<acc value="0.0900002174986575" flag="0"/>
			<vel value="0.0320012193983402" flag="0"/>
			<psa03 value="0.17314096973972" flag="0"/>
			<psa10 value="0.0219241661184118" flag="0"/>
			<psa30 value="0.00165646702447775" flag="0"/>
		</comp>
	</station>
	<station code="DST" name="DST" netid="KO" source="Bogazici University Kandilli Observatory And Earthquake Research Institute (KOERI)" insttype="" lat="39.6041" lon="28.6267">
		<comp name="--.HNE" depth="0.0">
			<acc value="0.0104884385103449" flag="0"/>
			<vel value="0.00477513785433665" flag="0"/>
			<psa03 value="0.0325540523795474" flag="0"/>
			<psa10 value="0.0042940583665582" flag="0"/>
			<psa30 value="0.000666166213575723" flag="0"/>
		</comp>
		<comp name="--.HNN" depth="0.0">
			<acc value="0.011064094597719" flag="0"/>
			<vel value="0.00564599051047909" flag="0"/>
			<psa03 value="0.0395087344472601" flag="0"/>
			<psa10 value="0.00286922554086132" flag="0"/>
			<psa30 value="0.000654775250647436" flag="0"/>
		</comp>
		<comp name="--.HNZ" depth="0.0">
			<acc value="0.00875327902362766" flag="0"/>
			<vel value="0.0047068864151008" flag="0"/>
			<psa03 value="0.0301651311044042" flag="0"/>
			<psa10 value="0.0030359847909689" flag="0"/>
			<psa30 value="0.000422338993510656" flag="0"/>
		</comp>
	</station>
	<station code="EZNE" name="EZNE" netid="KO" source="Bogazici University Kandilli Observatory And Earthquake Research Institute (KOERI)" insttype="" lat="39.756" lon="26.3655">
		<comp name="--.HNE" depth="0.0">
			<acc value="0.00716786052693487" flag="0"/>
			<vel value="0.00332635504475523" flag="0"/>
			<psa03 value="0.0262276306809953" flag="0"/>
			<psa10 value="0.00366809572771644" flag="0"/>
			<psa30 value="0.000322005289603575" flag="0"/>
		</comp>
		<comp name="--.HNN" depth="0.0">
			<acc value="0.00790685025520704" flag="0"/>
			<vel value="0.00436062770806412" flag="0"/>
			<psa03 value="0.0311225929690588" flag="0"/>
			<psa10 value="0.00458041327363329" flag="0"/>
			<psa30 value="0.000356970053763973" flag="0"/>
		</comp>
		<comp name="--.HNZ" depth="0.0">
			<acc value="0.0043328378056774" flag="0"/>
			<vel value="0.00285481184336211" flag="0"/>
			<psa03 value="0.0127619391658451" flag="0"/>
			<psa10 value="0.00145962223968338" flag="0"/>
			<psa30 value="0.000305472579809411" flag="0"/>
		</comp>
	</station>
	<station code="FOCM" name="FOCM" netid="KO" source="Bogazici University Kandilli Observatory And Earthquake Research Institute (KOERI)" insttype="" lat="38.7131" lon="26.7309">
		<comp name="--.HNE" depth="0.0">
			<acc value="0.124914365403265" flag="0"/>
			<vel value="0.0671137165024999" flag="0"/>
			<psa03 value="0.289915247128956" flag="0"/>
			<psa10 value="0.0278362902676075" flag="0"/>
			<psa30 value="0.00223653024248673" flag="0"/>
		</comp>
		<comp name="--.HNN" depth="0.0">
			<acc value="0.107178444975228" flag="0"/>
			<vel value="0.037234586037104" flag="0"/>
			<psa03 value="0.140381789187711" flag="0"/>
			<psa10 value="0.0165460923474103" flag="0"/>
			<psa30 value="0.00171708843618229" flag="0"/>
		</comp>
		<comp name="--.HNZ" depth="0.0">
			<acc value="0.0843927296514333" flag="0"/>
			<vel value="0.0309749542788388" flag="0"/>
			<psa03 value="0.188831529995326" flag="0"/>
			<psa10 value="0.0106978668061935" flag="0"/>
			<psa30 value="0.000729764020366188" flag="0"/>
		</comp>
	</station>
	<station code="GMLD" name="GMLD" netid="KO" source="Bogazici University Kandilli Observatory And Earthquake Research Institute (KOERI)" insttype="" lat="38.0766" lon="26.9157">
		<comp name="--.HNE" depth="0.0">
			<acc value="4.15913371457417" flag="0"/>
			<vel value="1.30665621086324" flag="0"/>
			<psa03 value="4.41316635061163" flag="0"/>
			<psa10 value="0.472917518466353" flag="0"/>
			<psa30 value="0.0418317144790967" flag="0"/>
		</comp>
		<comp name="--.HNN" depth="0.0">
			<acc value="3.3148713428992" flag="0"/>
			<vel value="1.15547460643587" flag="0"/>
			<psa03 value="2.86294165583345" flag="0"/>
			<psa10 value="0.273773146127364" flag="0"/>
			<psa30 value="0.0162455245195951" flag="0"/>
		</comp>
		<comp name="--.HNZ" depth="0.0">
			<acc value="1.62505972152502" flag="0"/>
			<vel value="0.371982844679967" flag="0"/>
			<psa03 value="1.32325624256396" flag="0"/>
			<psa10 value="0.106925800809475" flag="0"/>
			<psa30 value="0.00768739675232007" flag="0"/>
		</comp>
	</station>
	<station code="GOMA" name="GOMA" netid="KO" source="Bogazici University Kandilli Observatory And Earthquake Research Institute (KOERI)" insttype="" lat="38.7077" lon="27.9175">
		<comp name="--.HNE" depth="0.0">
			<acc value="0.225486755595394" flag="0"/>
			<vel value="0.10089980540378" flag="0"/>
			<psa03 value="0.992633673774291" flag="0"/>
			<psa10 value="0.0451811592799507" flag="0"/>
			<psa30 value="0.00410987767589294" flag="0"/>
		</comp>
		<comp name="--.HNN" depth="0.0">
			<acc value="0.143192724652925" flag="0"/>
			<vel value="0.0754455049658705" flag="0"/>
			<psa03 value="0.39149480960961" flag="0"/>
			<psa10 value="0.0221624194015011" flag="0"/>
			<psa30 value="0.0026273327979051" flag="0"/>
		</comp>
		<comp name="--.HNZ" depth="0.0">
			<acc value="0.0760163822428083" flag="0"/>
			<vel value="0.0354889372044947" flag="0"/>
			<psa03 value="0.282036329356084" flag="0"/>
			<psa10 value="0.012167002254171" flag="0"/>
			<psa30 value="0.00108709576475761" flag="0"/>
		</comp>
	</station>
	<station code="GORD" name="GORD" netid="KO" source="Bogazici University Kandilli Observatory And Earthquake Research Institute (KOERI)" insttype="" lat="38.9088" lon="28.1769">
		<comp name="--.HNE" depth="0.0">
			<acc value="0.0335388628603226" flag="0"/>
			<vel value="0.0234018029544304" flag="0"/>
			<psa03 value="0.0823222763634592" flag="0"/>
			<psa10 value="0.0400310181084862" flag="0"/>
			<psa30 value="0.00236362553692641" flag="0"/>
		</comp>
		<comp name="--.HNN" depth="0.0">
			<acc value="0.0227413755770453" flag="0"/>
			<vel value="0.0163244611014367" flag="0"/>
			<psa03 value="0.0793809096374511" flag="0"/>
			<psa10 value="0.0272238165692494" flag="0"/>
			<psa30 value="0.00128802907560324" flag="0"/>
		</comp>
		<comp name="--.HNZ" depth="0.0">
			<acc value="0.0215570796130174" flag="0"/>
			<vel value="0.0167094302063779" flag="0"/>
			<psa03 value="0.0562638469953475" flag="0"/>
			<psa10 value="0.0229836956820583" flag="0"/>
			<psa30 value="0.00105774225773432" flag="0"/>
		</comp>
	</station>
	<station code="KHL" name="KHL" netid="KO" source="Bogazici University Kandilli Observatory And Earthquake Research Institute (KOERI)" insttype="" lat="38.3231" lon="29.5286">
		<comp name="--.HNE" depth="0.0">
			<acc value="0.00661435556701777" flag="0"/>
			<vel value="0.00195501344782452" flag="0"/>
			<psa03 value="0.00676157812968011" flag="0"/>
			<psa10 value="0.00126010234278544" flag="0"/>
			<psa30 value="0.000506642625089013" flag="0"/>
		</comp>
		<comp name="--.HNN" depth="0.0">
			<acc value="0.00665284050299788" flag="0"/>
			<vel value="0.0021001390133478" flag="0"/>
			<psa03 value="0.00637274247540925" flag="0"/>
			<psa10 value="0.00244929709766168" flag="0"/>
			<psa30 value="0.000713617950768856" flag="0"/>
		</comp>
		<comp name="--.HNZ" depth="0.0">
			<acc value="0.00355145219059162" flag="0"/>
			<vel value="0.00123169559843264" flag="0"/>
			<psa03 value="0.00559607058199303" flag="0"/>
			<psa10 value="0.00134080862667918" flag="0"/>
			<psa30 value="0.000494641100877329" flag="0"/>
		</comp>
	</station>
	<station code="KUSD" name="KUSD" netid="KO" source="Bogazici University Kandilli Observatory And Earthquake Research Institute (KOERI)" insttype="" lat="37.8606" lon="27.2868">
		<comp name="--.HNE" depth="0.0">
			<acc value="0.117716443401067" flag="0"/>
			<vel value="0.0360181704896669" flag="0"/>
			<psa03 value="0.22496731964736" flag="0"/>
			<psa10 value="0.0217681801600966" flag="0"/>
			<psa30 value="0.00267646563604538" flag="0"/>
		</comp>
		<comp name="--.HNN" depth="0.0">
			<acc value="0.153801014101761" flag="0"/>
			<vel value="0.0631748809306664" flag="0"/>
			<psa03 value="0.245650960670693" flag="0"/>
			<psa10 value="0.045935611759024" flag="0"/>
			<psa30 value="0.00284839244201978" flag="0"/>
		</comp>
		<comp name="--.HNZ" depth="0.0">
			<acc value="0.0966340769463436" flag="0"/>
			<vel value="0.0201251765376096" flag="0"/>
			<psa03 value="0.0606012384927793" flag="0"/>
			<psa10 value="0.0112924274428897" flag="0"/>
			<psa30 value="0.000613947806443707" flag="0"/>
		</comp>
	</station>
	<station code="NAZL" name="NAZL" netid="KO" source="Bogazici University Kandilli Observatory And Earthquake Research Institute (KOERI)" insttype="" lat="37.9641" lon="28.2922">
		<comp name="--.HNE" depth="0.0">
			<acc value="0.0435729894282421" flag="0"/>
			<vel value="0.0224380036300057" flag="0"/>
			<psa03 value="0.206372379490482" flag="0"/>
			<psa10 value="0.0132899063285768" flag="0"/>
			<psa30 value="0.000793312136368025" flag="0"/>
		</comp>
		<comp name="--.HNN" depth="0.0">
			<acc value="0.0365491686732012" flag="0"/>
			<vel value="0.0165600833000392" flag="0"/>
			<psa03 value="0.127410054873991" flag="0"/>
			<psa10 value="0.0101825957969904" flag="0"/>
			<psa30 value="0.00107991695586587" flag="0"/>
		</comp>
		<comp name="--.HNZ" depth="0.0">
			<acc value="0.0202670496273932" flag="0"/>
			<vel value="0.00765767912656323" flag="0"/>
			<psa03 value="0.0487910342500805" flag="0"/>
			<psa10 value="0.00366361605595767" flag="0"/>
			<psa30 value="0.000434354086326693" flag="0"/>
		</comp>
	</station>
	<station code="SHAP" name="SHAP" netid="KO" source="Bogazici University Kandilli Observatory And Earthquake Research Institute (KOERI)" insttype="" lat="39.0231" lon="29.222">
		<comp name="--.HNE" depth="0.0">
			<acc value="0.00482171563097407" flag="0"/>
			<vel value="0.0028611910695011" flag="0"/>
			<psa03 value="0.0185737239076393" flag="0"/>
			<psa10 value="0.00297529381736469" flag="0"/>
			<psa30 value="0.00029453482398666" flag="0"/>
		</comp>
		<comp name="--.HNN" depth="0.0">
			<acc value="0.00612535599774336" flag="0"/>
			<vel value="0.00369005996705959" flag="0"/>
			<psa03 value="0.023744466183511" flag="0"/>
			<psa10 value="0.00391697580854707" flag="0"/>
			<psa30 value="0.000496094634666405" flag="0"/>
		</comp>
		<comp name="--.HNZ" depth="0.0">
			<acc value="0.00330428770457955" flag="0"/>
			<vel value="0.00222699299161273" flag="0"/>
			<psa03 value="0.00843887869576022" flag="0"/>
			<psa10 value="0.0029699145547648" flag="0"/>
			<psa30 value="0.000206574986662283" flag="0"/>
		</comp>
	</station>
	<station code="SMAA" name="SMAA" netid="KO" source="Bogazici University Kandilli Observatory And Earthquake Research Institute (KOERI)" insttype="" lat="39.1005" lon="28.9805">
		<comp name="--.HNE" depth="0.0">
			<acc value="0.0264432446926642" flag="0"/>
			<vel value="0.0265837167616953" flag="0"/>
			<psa03 value="0.0672755608422479" flag="0"/>
			<psa10 value="0.0441747651112293" flag="0"/>
			<psa30 value="0.00249352580884829" flag="0"/>
		</comp>
		<comp name="--.HNN" depth="0.0">
