<?xml version="1.0" encoding="UTF-8" standalone="yes"?>
<!DOCTYPE earthquake SYSTEM "stationlist.dtd">
<stationlist created="" xmlns="ch.ethz.sed.shakemap.usgs.xml">
  <station code="ARG2" name="ARG2" netid="HI" source="NOA" insttype="CMG-5TD,ACCELEROMETER,GURALP" lat="38.1783" lon="20.4878">
    <comp name="--.HNE">
      <acc value="0.0452340524" flag="0"/>
      <vel value="0.0276735381" flag="0"/>
      <psa03 value="0.1423319804" flag="0"/>
      <psa10 value="0.0147567278" flag="0"/>
      <psa30 value="0.0012624027" flag="0"/>
    </comp>
    <comp name="--.HNN">
      <acc value="0.0409142408" flag="0"/>
      <vel value="0.0236894507" flag="0"/>
      <psa03 value="0.1264582871" flag="0"/>
      <psa10 value="0.0202983091" flag="0"/>
      <psa30 value="0.0012225545" flag="0"/>
    </comp>
    <comp name="--.HNZ">
      <acc value="0.0285582735" flag="0"/>
      <vel value="0.0102942585" flag="0"/>
      <psa03 value="0.0934394366" flag="0"/>
      <psa10 value="0.0068784211" flag="0"/>
      <psa30 value="0.0009256171" flag="0"/>
    </comp>
  </station>
  <station code="LXRA" name="LXRA" netid="HL" source="NOA" insttype="CMG-5" lat="38.2001" lon="20.4372">
    <comp name="00.HNE">
      <acc value="0.0639532420" flag="0"/>
      <vel value="0.0313496086" flag="0"/>
      <psa03 value="0.1986159267" flag="0"/>
      <psa10 value="0.0350869279" flag="0"/>
      <psa30 value="0.0043246785" flag="0"/>
    </comp>
    <comp name="00.HNN">
      <acc value="0.0499493089" flag="0"/>
      <vel value="0.0382503684" flag="0"/>
      <psa03 value="0.1179664299" flag="0"/>
      <psa10 value="0.0490782204" flag="0"/>
      <psa30 value="0.0054067389" flag="0"/>
    </comp>
    <comp name="00.HNZ">
      <acc value="0.0315024062" flag="0"/>
      <vel value="0.0139083247" flag="0"/>
      <psa03 value="0.0919847356" flag="0"/>
      <psa10 value="0.0165544042" flag="0"/>
      <psa30 value="0.0023567765" flag="0"/>
    </comp>
  </station>
  <station code="RLS" name="RLS" netid="HL" source="NOA" insttype="120" lat="38.0559" lon="21.4647">
    <comp name="--.HHE">
      <acc value="0.0059156653" flag="0"/>
      <vel value="0.0033683942" flag="0"/>
      <psa03 value="0.0061116946" flag="0"/>
      <psa10 value="0.0086981962" flag="0"/>
      <psa30 value="0.0005151808" flag="0"/>
    </comp>
    <comp name="--.HHN">
      <acc value="0.0044555955" flag="0"/>
      <vel value="0.0031727031" flag="0"/>
      <psa03 value="0.0058033683" flag="0"/>
      <psa10 value="0.0042188173" flag="0"/>
      <psa30 value="0.0004542731" flag="0"/>
    </comp>
    <comp name="--.HHZ">
      <acc value="0.0028414378" flag="0"/>
      <vel value="0.0015305215" flag="0"/>
      <psa03 value="0.0035482309" flag="0"/>
      <psa10 value="0.0020694447" flag="0"/>
      <psa30 value="0.0006292906" flag="0"/>
    </comp>
  </station>
  <station code="VLS" name="VLS" netid="HL" source="NOA" insttype="120P," lat="38.1768" lon="20.5886">
    <comp name="--.HHE">
      <acc value="0.0479726322" flag="0"/>
      <vel value="0.0110887639" flag="0"/>
      <psa03 value="0.0515338621" flag="0"/>
      <psa10 value="0.0112441179" flag="0"/>
      <psa30 value="0.0005517035" flag="0"/>
    </comp>
    <comp name="--.HHN">
      <acc value="0.0338994579" flag="0"/>
      <vel value="0.0091830310" flag="0"/>
      <psa03 value="0.0613552294" flag="0"/>
      <psa10 value="0.0121456047" flag="0"/>
      <psa30 value="0.0008040684" flag="0"/>
    </comp>
    <comp name="--.HHZ">
      <acc value="0.0182279051" flag="0"/>
      <vel value="0.0085298963" flag="0"/>
      <psa03 value="0.0410694275" flag="0"/>
      <psa10 value="0.0071087515" flag="0"/>
      <psa30 value="0.0007377981" flag="0"/>
    </comp>
  </station>
  <station code="AXS" name="AXS" netid="HP" source="NOA" insttype="40," lat="38.1962" lon="21.3763">
    <comp name="--.HHE">
      <acc value="0.0017995537" flag="0"/>
      <vel value="0.0016561179" flag="0"/>
      <psa03 value="0.0028609011" flag="0"/>
      <psa10 value="0.0023188897" flag="0"/>
      <psa30 value="0.0002721867" flag="0"/>
    </comp>
    <comp name="--.HHE">
      <acc value="0.0017995537" flag="0"/>
      <vel value="0.0016561179" flag="0"/>
      <psa03 value="0.0028609011" flag="0"/>
      <psa10 value="0.0023188897" flag="0"/>
      <psa30 value="0.0002721867" flag="0"/>
    </comp>
    <comp name="--.HHN">
      <acc value="0.0024518627" flag="0"/>
      <vel value="0.0023960138" flag="0"/>
      <psa03 value="0.0044620639" flag="0"/>
      <psa10 value="0.0042009573" flag="0"/>
      <psa30 value="0.0002637870" flag="0"/>
    </comp>
    <comp name="--.HHN">
      <acc value="0.0024518627" flag="0"/>
      <vel value="0.0023960138" flag="0"/>
      <psa03 value="0.0044620639" flag="0"/>
      <psa10 value="0.0042009573" flag="0"/>
      <psa30 value="0.0002637870" flag="0"/>
    </comp>
    <comp name="--.HHZ">
      <acc value="0.0016400530" flag="0"/>
      <vel value="0.0013487322" flag="0"/>
      <psa03 value="0.0029447916" flag="0"/>
      <psa10 value="0.0022496252" flag="0"/>
      <psa30 value="0.0002470729" flag="0"/>
    </comp>
    <comp name="--.HHZ">
      <acc value="0.0016400530" flag="0"/>
      <vel value="0.0013487322" flag="0"/>
      <psa03 value="0.0029447916" flag="0"/>
      <psa10 value="0.0022496252" flag="0"/>
      <psa30 value="0.0002470729" flag="0"/>
    </comp>
  </station>
  <station code="DMLN" name="DMLN" netid="HT" source="NOA" insttype="1s-100Hz," lat="38.2385" lon="20.3734">
    <comp name="--.HHE">
      <acc value="0.0442412312" flag="0"/>
      <vel value="0.0377181469" flag="0"/>
      <psa03 value="0.1203024651" flag="0"/>
      <psa10 value="0.0425008676" flag="0"/>
      <psa30 value="0.0021847961" flag="0"/>
    </comp>
    <comp name="--.HHN">
      <acc value="0.0638838962" flag="0"/>
      <vel value="0.0422610920" flag="0"/>
      <psa03 value="0.2196525863" flag="0"/>
      <psa10 value="0.0601936388" flag="0"/>
      <psa30 value="0.0026180170" flag="0"/>
    </comp>
    <comp name="--.HHZ">
      <acc value="0.0285910902" flag="0"/>
      <vel value="0.0235632307" flag="0"/>
      <psa03 value="0.0714315035" flag="0"/>
      <psa10 value="0.0164078574" flag="0"/>
      <psa30 value="0.0012225947" flag="0"/>
    </comp>
  </station>
  <station code="PSDA" name="PSDA" netid="HT" source="NOA" insttype="30" lat="38.114" lon="20.5841">
    <comp name="--.HHE">
      <acc value="0.0428037542" flag="0"/>
      <vel value="0.0146248050" flag="0"/>
      <psa03 value="0.1040371813" flag="0"/>
      <psa10 value="0.0109943268" flag="0"/>
      <psa30 value="0.0011001210" flag="0"/>
    </comp>
    <comp name="--.HHN">
      <acc value="0.0344393957" flag="0"/>
      <vel value="0.0128071086" flag="0"/>
      <psa03 value="0.0844537791" flag="0"/>
      <psa10 value="0.0081132332" flag="0"/>
      <psa30 value="0.0015251318" flag="0"/>
    </comp>
    <comp name="--.HHZ">
      <acc value="0.0279701126" flag="0"/>
      <vel value="0.0088471270" flag="0"/>
      <psa03 value="0.0393043039" flag="0"/>
      <psa10 value="0.0072770175" flag="0"/>
      <psa30 value="0.0012664547" flag="0"/>
    </comp>
  </station>
</stationlist>
