<stationlist xmlns:esm="https://esm-db.eu/esmws/shakemap/1/" created="1781229275">
	<station code="ARG2" name="ARG2" netid="HI" source="ITSAK Strong Motion Network" insttype="" lat="38.1783" lon="20.4878" esm:processing="manual (Paolucci et al 2011)" esm:quality="best">
		<comp name="--.HNE" depth="0.0">
			<acc value="0.0453903042098311" flag="0"/>
			<vel value="0.0275799461257769" flag="0"/>
			<psa03 value="0.146128046815276" flag="0"/>
			<psa10 value="0.0148266724291629" flag="0"/>
			<psa30 value="0.00139864137888717" flag="0"/>
		</comp>
		<comp name="--.HNN" depth="0.0">
			<acc value="0.0410421910167801" flag="0"/>
			<vel value="0.024140025052233" flag="0"/>
			<psa03 value="0.124562303225269" flag="0"/>
			<psa10 value="0.0203393597066002" flag="0"/>
			<psa30 value="0.00136195276946019" flag="0"/>
		</comp>
		<comp name="--.HNZ" depth="0.0">
			<acc value="0.0279366768042502" flag="0"/>
			<vel value="0.010419015451627" flag="0"/>
			<psa03 value="0.0939586338983707" flag="0"/>
			<psa10 value="0.00693012038310411" flag="0"/>
			<psa30 value="0.00106217998511777" flag="0"/>
		</comp>
	</station>
	<station code="KRI1" name="KRI1" netid="HI" source="ITSAK Strong Motion Network" insttype="" lat="37.6621" lon="20.8172" esm:processing="manual (Paolucci et al 2011)" esm:quality="good">
		<comp name="--.HNE" depth="0.0">
			<acc value="0.0289488568675737" flag="0"/>
			<vel value="0.0236787887039208" flag="0"/>
			<psa03 value="0.0846522549217702" flag="0"/>
			<psa10 value="0.0292828793875265" flag="0"/>
			<psa30 value="0.00320219972766971" flag="0"/>
		</comp>
		<comp name="--.HNN" depth="0.0">
			<acc value="0.0292112473363818" flag="0"/>
			<vel value="0.0156091230620197" flag="0"/>
			<psa03 value="0.0608046587942313" flag="0"/>
			<psa10 value="0.0269272022090745" flag="0"/>
			<psa30 value="0.00485587168428103" flag="0"/>
		</comp>
		<comp name="--.HNZ" depth="0.0">
			<acc value="0.0232448667892235" flag="0"/>
			<vel value="0.016790796944286" flag="0"/>
			<psa03 value="0.0419681898079389" flag="0"/>
			<psa10 value="0.0208467363296514" flag="0"/>
			<psa30 value="0.0068683761379709" flag="0"/>
		</comp>
	</station>
	<station code="MSL1" name="MSL1" netid="HI" source="ITSAK Strong Motion Network" insttype="" lat="38.3727" lon="21.4243" esm:processing="manual (Paolucci et al 2011)" esm:quality="bad">
		<comp name="--.HNE" depth="0.0">
			<acc value="0.0123149516417909" flag="0"/>
			<vel value="0.0175833457922739" flag="0"/>
			<psa03 value="0.0284113012026026" flag="0"/>
			<psa10 value="0.0372156726209461" flag="0"/>
			<psa30 value="0.00283576105546606" flag="0"/>
		</comp>
		<comp name="--.HNN" depth="0.0">
			<acc value="0.0111042450112381" flag="0"/>
			<vel value="0.0099635444769404" flag="0"/>
			<psa03 value="0.0268900661775813" flag="0"/>
			<psa10 value="0.0205849944209345" flag="0"/>
			<psa30 value="0.00173823472711986" flag="0"/>
		</comp>
		<comp name="--.HNZ" depth="0.0">
			<acc value="0.00490026055834611" flag="0"/>
			<vel value="0.00596989340780763" flag="0"/>
			<psa03 value="0.00894844132365435" flag="0"/>
			<psa10 value="0.0161998107502777" flag="0"/>
			<psa30 value="0.000858602945004635" flag="0"/>
		</comp>
	</station>
	<station code="ITM" name="ITM" netid="HL" source="National Observatory of Athens Seismic Network" insttype="" lat="37.17872" lon="21.92522" esm:processing="manual (Paolucci et al 2011)" esm:quality="bad">
		<comp name="--.HNE" depth="0.0">
			<acc value="0.0010925179942471" flag="0"/>
			<vel value="0.00134431873690889" flag="0"/>
			<psa03 value="0.00227931635810413" flag="0"/>
			<psa10 value="0.0017347989453554" flag="0"/>
			<psa30 value="0.000764740608227385" flag="0"/>
		</comp>
		<comp name="--.HNN" depth="0.0">
			<acc value="0.00100419206859019" flag="0"/>
			<vel value="0.00124787477352954" flag="0"/>
			<psa03 value="0.00233390233092896" flag="0"/>
			<psa10 value="0.00125961879512563" flag="0"/>
			<psa30 value="0.00075279591070307" flag="0"/>
		</comp>
		<comp name="--.HNZ" depth="0.0">
			<acc value="0.000825394445187" flag="0"/>
			<vel value="0.00148399376107426" flag="0"/>
			<psa03 value="0.00134660035475228" flag="0"/>
			<psa10 value="0.00113025456131837" flag="0"/>
			<psa30 value="0.00061753653376326" flag="0"/>
		</comp>
	</station>
	<station code="LXRA" name="LXRA" netid="HL" source="National Observatory of Athens Seismic Network" insttype="" lat="38.20006" lon="20.43718" esm:processing="manual (Paolucci et al 2011)" esm:quality="good">
		<comp name="00.HNE" depth="0.0">
			<acc value="0.0638760473521404" flag="0"/>
			<vel value="0.0308696828680443" flag="0"/>
			<psa03 value="0.198073748699089" flag="0"/>
			<psa10 value="0.0350170405877242" flag="0"/>
			<psa30 value="0.00619232139596881" flag="0"/>
		</comp>
		<comp name="00.HNN" depth="0.0">
			<acc value="0.0491547392500574" flag="0"/>
			<vel value="0.0375007207744385" flag="0"/>
			<psa03 value="0.118298394298711" flag="0"/>
			<psa10 value="0.0490222461033756" flag="0"/>
			<psa30 value="0.00651312301742182" flag="0"/>
		</comp>
		<comp name="00.HNZ" depth="0.0">
			<acc value="0.0295408457216869" flag="0"/>
			<vel value="0.0141573807093047" flag="0"/>
			<psa03 value="0.0922584300468764" flag="0"/>
			<psa10 value="0.0165420886309074" flag="0"/>
			<psa30 value="0.00263531596981621" flag="0"/>
		</comp>
	</station>
	<station code="PATC" name="PATC" netid="HL" source="National Observatory of Athens Seismic Network" insttype="" lat="38.26933" lon="21.76001" esm:processing="manual (Paolucci et al 2011)" esm:quality="bad">
		<comp name="00.HNE" depth="0.0">
			<acc value="0.00644982235437884" flag="0"/>
			<vel value="0.0101150344041193" flag="0"/>
			<psa03 value="0.0113674027742151" flag="0"/>
			<psa10 value="0.0185646091892469" flag="0"/>
			<psa30 value="0.00280395345649009" flag="0"/>
		</comp>
		<comp name="00.HNN" depth="0.0">
			<acc value="0.005540544299446" flag="0"/>
			<vel value="0.0071938307602049" flag="0"/>
			<psa03 value="0.0110364186085848" flag="0"/>
			<psa10 value="0.0115530518955066" flag="0"/>
			<psa30 value="0.00185576251849251" flag="0"/>
		</comp>
		<comp name="00.HNZ" depth="0.0">
			<acc value="0.00386899267989022" flag="0"/>
			<vel value="0.00373139588470807" flag="0"/>
			<psa03 value="0.00732355415994506" flag="0"/>
			<psa10 value="0.00748682299653579" flag="0"/>
			<psa30 value="0.00102444942724561" flag="0"/>
		</comp>
	</station>
</stationlist>
