<stationlist created="1774070748">
	<station code="SPAOL" name="SPAOL" netid="7C" source="Urban Seismic Network (RUSN-CAL-INGV)" insttype="" lat="37.54939" lon="15.071367">
		<comp name="--.HNE" depth="0.0">
			<acc value="0.0183355005477227" flag="0"/>
			<vel value="0.00640884815384364" flag="0"/>
			<psa03 value="0.00183160701205882" flag="0"/>
			<psa10 value="0.00238217374481949" flag="0"/>
			<psa30 value="0.00189236723504206" flag="0"/>
		</comp>
		<comp name="--.HNN" depth="0.0">
			<acc value="0.0128962543928949" flag="0"/>
			<vel value="0.00313004559523482" flag="0"/>
			<psa03 value="0.000888215252661771" flag="0"/>
			<psa10 value="0.00108770764123054" flag="0"/>
			<psa30 value="0.000920736410935151" flag="0"/>
		</comp>
		<comp name="--.HNZ" depth="0.0">
			<acc value="0.0183027869119028" flag="0"/>
			<vel value="0.0086670586734307" flag="0"/>
			<psa03 value="0.00255863824722673" flag="0"/>
			<psa10 value="0.00342607110102116" flag="0"/>
			<psa30 value="0.00261137840767019" flag="0"/>
		</comp>
	</station>
	<station code="AGR" name="AGR" netid="IT" source="Italian Strong Motion Network (RAN)" insttype="" lat="37.3231" lon="13.586">
		<comp name="--.HNE" depth="0.0">
			<acc value="0.00237449862415926" flag="0"/>
			<vel value="0.00453940793531983" flag="0"/>
			<psa03 value="0.00251378094622361" flag="0"/>
			<psa10 value="0.00599818906933826" flag="0"/>
			<psa30 value="0.00240288417928413" flag="0"/>
		</comp>
		<comp name="--.HNN" depth="0.0">
			<acc value="0.0044551928241179" flag="0"/>
			<vel value="0.00817363072605618" flag="0"/>
			<psa03 value="0.00552722747981931" flag="0"/>
			<psa10 value="0.01147200621411" flag="0"/>
			<psa30 value="0.00342260214726166" flag="0"/>
		</comp>
		<comp name="--.HNZ" depth="0.0">
			<acc value="0.00274390009002314" flag="0"/>
			<vel value="0.00427827856851934" flag="0"/>
			<psa03 value="0.00350372787300535" flag="0"/>
			<psa10 value="0.00520745387451233" flag="0"/>
			<psa30 value="0.00206422945340391" flag="0"/>
		</comp>
	</station>
	<station code="ALC" name="ALC" netid="IT" source="Italian Strong Motion Network (RAN)" insttype="" lat="37.9734" lon="12.9597">
		<comp name="--.HGE" depth="0.0">
			<acc value="0.00213212491086235" flag="0"/>
			<vel value="0.00251757513011553" flag="0"/>
			<psa03 value="0.00344462695265109" flag="0"/>
			<psa10 value="0.00247216658140325" flag="0"/>
			<psa30 value="0.00118383436071644" flag="0"/>
		</comp>
		<comp name="--.HGN" depth="0.0">
			<acc value="0.00201604108361615" flag="0"/>
			<vel value="0.0028444710286796" flag="0"/>
			<psa03 value="0.00348052418743756" flag="0"/>
			<psa10 value="0.00425728061769727" flag="0"/>
			<psa30 value="0.000887319718076583" flag="0"/>
		</comp>
		<comp name="--.HGZ" depth="0.0">
			<acc value="0.00174870644866869" flag="0"/>
			<vel value="0.0016664635495908" flag="0"/>
			<psa03 value="0.00245380464235866" flag="0"/>
			<psa10 value="0.00267254587117279" flag="0"/>
			<psa30 value="0.000541316588734026" flag="0"/>
		</comp>
	</station>
	<station code="ARMO" name="ARMO" netid="IT" source="Italian Strong Motion Network (RAN)" insttype="" lat="38.0761" lon="15.7125">
		<comp name="--.HNE" depth="0.0">
			<acc value="0.0218406335789068" flag="0"/>
			<vel value="0.012179544032618" flag="0"/>
			<psa03 value="0.0754821826158176" flag="0"/>
			<psa10 value="0.0123249045894416" flag="0"/>
			<psa30 value="0.000695870889697952" flag="0"/>
		</comp>
		<comp name="--.HNN" depth="0.0">
			<acc value="0.0201933745195079" flag="0"/>
			<vel value="0.011951635249975" flag="0"/>
			<psa03 value="0.0636810102210636" flag="0"/>
			<psa10 value="0.0137738215105767" flag="0"/>
			<psa30 value="0.000599524923917227" flag="0"/>
		</comp>
		<comp name="--.HNZ" depth="0.0">
			<acc value="0.0165802946741149" flag="0"/>
			<vel value="0.00965993933907371" flag="0"/>
			<psa03 value="0.0498828565777692" flag="0"/>
			<psa10 value="0.00821141646604133" flag="0"/>
			<psa30 value="0.00039867677496307" flag="0"/>
		</comp>
	</station>
	<station code="BCL" name="BCL" netid="IT" source="Italian Strong Motion Network (RAN)" insttype="" lat="38.1827" lon="15.2316">
		<comp name="--.HGE" depth="0.0">
			<acc value="0.050897938807172" flag="0"/>
			<vel value="0.0267065406058443" flag="0"/>
			<psa03 value="0.171903627354986" flag="0"/>
			<psa10 value="0.0356367995130714" flag="0"/>
			<psa30 value="0.00202651633009457" flag="0"/>
		</comp>
		<comp name="--.HGN" depth="0.0">
			<acc value="0.0445803433189472" flag="0"/>
			<vel value="0.0248860849831392" flag="0"/>
			<psa03 value="0.177625412645181" flag="0"/>
			<psa10 value="0.0340149145711538" flag="0"/>
			<psa30 value="0.00161503427976152" flag="0"/>
		</comp>
		<comp name="--.HGZ" depth="0.0">
			<acc value="0.0345861402965554" flag="0"/>
			<vel value="0.0144739988266984" flag="0"/>
			<psa03 value="0.0894303930746396" flag="0"/>
			<psa10 value="0.0220617721091287" flag="0"/>
			<psa30 value="0.00109098966854457" flag="0"/>
		</comp>
	</station>
	<station code="BNT" name="BNT" netid="IT" source="Italian Strong Motion Network (RAN)" insttype="" lat="37.7805" lon="14.8444">
		<comp name="--.HNE" depth="0.0">
			<acc value="0.025225653002666" flag="0"/>
			<vel value="0.0210514805792122" flag="0"/>
			<psa03 value="0.0688601397713118" flag="0"/>
			<psa10 value="0.035229856305081" flag="0"/>
			<psa30 value="0.0041603447690897" flag="0"/>
		</comp>
		<comp name="--.HNN" depth="0.0">
			<acc value="0.0210468525465235" flag="0"/>
			<vel value="0.0201120425952659" flag="0"/>
			<psa03 value="0.0636902764599065" flag="0"/>
			<psa10 value="0.0457387687189534" flag="0"/>
			<psa30 value="0.00357927085912827" flag="0"/>
		</comp>
		<comp name="--.HNZ" depth="0.0">
			<acc value="0.0136865672026796" flag="0"/>
			<vel value="0.0143651977763447" flag="0"/>
			<psa03 value="0.0257794733885929" flag="0"/>
			<psa10 value="0.0221788379891687" flag="0"/>
			<psa30 value="0.00366527238964092" flag="0"/>
		</comp>
	</station>
	<station code="BVM" name="BVM" netid="IT" source="Italian Strong Motion Network (RAN)" insttype="" lat="37.931" lon="15.936">
		<comp name="--.HNE" depth="0.0">
			<acc value="0.00587756075451932" flag="0"/>
			<vel value="0.00493348418148015" flag="0"/>
			<psa03 value="0.0179780867933515" flag="0"/>
			<psa10 value="0.0118722439778976" flag="0"/>
			<psa30 value="0.0010305342053335" flag="0"/>
		</comp>
		<comp name="--.HNN" depth="0.0">
			<acc value="0.00481169248727438" flag="0"/>
			<vel value="0.00447819697765337" flag="0"/>
			<psa03 value="0.018608584289883" flag="0"/>
			<psa10 value="0.00906375230410755" flag="0"/>
			<psa30 value="0.000944594033052196" flag="0"/>
		</comp>
		<comp name="--.HNZ" depth="0.0">
			<acc value="0.00270123049268063" flag="0"/>
			<vel value="0.00201741506143048" flag="0"/>
			<psa03 value="0.00924256149308878" flag="0"/>
			<psa10 value="0.00374880998088803" flag="0"/>
			<psa30 value="0.000371805567794139" flag="0"/>
		</comp>
	</station>
	<station code="CDI1" name="CDI1" netid="IT" source="Italian Strong Motion Network (RAN)" insttype="" lat="37.5032" lon="14.6473">
		<comp name="--.HNE" depth="0.0">
			<acc value="0.00468817386946294" flag="0"/>
			<vel value="0.00395765009563229" flag="0"/>
			<psa03 value="0.00874009786879796" flag="0"/>
			<psa10 value="0.00571499890312957" flag="0"/>
			<psa30 value="0.00192900341200899" flag="0"/>
		</comp>
		<comp name="--.HNN" depth="0.0">
			<acc value="0.00714287391635038" flag="0"/>
			<vel value="0.00787741001528791" flag="0"/>
			<psa03 value="0.0158811653305124" flag="0"/>
			<psa10 value="0.0101294041483123" flag="0"/>
			<psa30 value="0.00280844250386609" flag="0"/>
		</comp>
		<comp name="--.HNZ" depth="0.0">
			<acc value="0.00378184381862422" flag="0"/>
			<vel value="0.00456120086738325" flag="0"/>
			<psa03 value="0.00434385774623631" flag="0"/>
			<psa10 value="0.00489176358658008" flag="0"/>
			<psa30 value="0.001601414002485" flag="0"/>
		</comp>
	</station>
	<station code="CFL" name="CFL" netid="IT" source="Italian Strong Motion Network (RAN)" insttype="" lat="38.037" lon="14.0232">
		<comp name="--.HNE" depth="0.0">
			<acc value="0.0107373146053277" flag="0"/>
			<vel value="0.00645533884610465" flag="0"/>
			<psa03 value="0.0204175778247433" flag="0"/>
			<psa10 value="0.0143769186503023" flag="0"/>
			<psa30 value="0.0024767774076812" flag="0"/>
		</comp>
		<comp name="--.HNN" depth="0.0">
			<acc value="0.0156803721828327" flag="0"/>
			<vel value="0.00931807812629311" flag="0"/>
			<psa03 value="0.0310070592738355" flag="0"/>
			<psa10 value="0.0161816413293227" flag="0"/>
			<psa30 value="0.00232678434637701" flag="0"/>
		</comp>
		<comp name="--.HNZ" depth="0.0">
			<acc value="0.00918433351951588" flag="0"/>
			<vel value="0.00626980635402331" flag="0"/>
			<psa03 value="0.0212919117867439" flag="0"/>
			<psa10 value="0.00802212173869465" flag="0"/>
			<psa30 value="0.00160515206261314" flag="0"/>
		</comp>
	</station>
	<station code="CLG1" name="CLG1" netid="IT" source="Italian Strong Motion Network (RAN)" insttype="" lat="37.2214" lon="14.5182">
		<comp name="--.HNE" depth="0.0">
			<acc value="0.0113805329570895" flag="0"/>
			<vel value="0.00995882395212432" flag="0"/>
			<psa03 value="0.02077349984033" flag="0"/>
			<psa10 value="0.00848363481167075" flag="0"/>
			<psa30 value="0.00481719494885713" flag="0"/>
		</comp>
		<comp name="--.HNN" depth="0.0">
			<acc value="0.0120849519089196" flag="0"/>
			<vel value="0.00849611321829253" flag="0"/>
			<psa03 value="0.0201013120820233" flag="0"/>
			<psa10 value="0.0156446413807115" flag="0"/>
			<psa30 value="0.0036285524571256" flag="0"/>
		</comp>
		<comp name="--.HNZ" depth="0.0">
			<acc value="0.00723556601037123" flag="0"/>
			<vel value="0.00536615223425161" flag="0"/>
			<psa03 value="0.01015587915736" flag="0"/>
			<psa10 value="0.00747622995104282" flag="0"/>
			<psa30 value="0.00188127191669834" flag="0"/>
		</comp>
	</station>
	<station code="CLTS" name="CLTS" netid="IT" source="Italian Strong Motion Network (RAN)" insttype="" lat="37.4787" lon="14.0537">
		<comp name="--.HNE" depth="0.0">
			<acc value="0.00827362961954473" flag="0"/>
			<vel value="0.0142260678186313" flag="0"/>
			<psa03 value="0.0113168095789279" flag="0"/>
			<psa10 value="0.0112624629578977" flag="0"/>
			<psa30 value="0.00730909252484194" flag="0"/>
		</comp>
		<comp name="--.HNN" depth="0.0">
			<acc value="0.00690734363731372" flag="0"/>
			<vel value="0.0182009634299823" flag="0"/>
			<psa03 value="0.0103580136415276" flag="0"/>
			<psa10 value="0.016751379071652" flag="0"/>
			<psa30 value="0.00954872338939517" flag="0"/>
		</comp>
		<comp name="--.HNZ" depth="0.0">
			<acc value="0.00730364167890135" flag="0"/>
			<vel value="0.00905342147869913" flag="0"/>
			<psa03 value="0.00643544063927551" flag="0"/>
			<psa10 value="0.0136589476507472" flag="0"/>
			<psa30 value="0.00519052217995399" flag="0"/>
		</comp>
	</station>
	<station code="CLV" name="CLV" netid="IT" source="Italian Strong Motion Network (RAN)" insttype="" lat="37.8192" lon="13.8902">
		<comp name="--.HGE" depth="0.0">
			<acc value="0.03439082352695" flag="0"/>
			<vel value="0.0240590536485932" flag="0"/>
			<psa03 value="0.0920137621268274" flag="0"/>
			<psa10 value="0.0398600217808201" flag="0"/>
			<psa30 value="0.00208116911724017" flag="0"/>
		</comp>
		<comp name="--.HGN" depth="0.0">
			<acc value="0.0273654147712328" flag="0"/>
			<vel value="0.0230139315846886" flag="0"/>
			<psa03 value="0.0555321631082682" flag="0"/>
			<psa10 value="0.0446709679823951" flag="0"/>
			<psa30 value="0.00243669225223638" flag="0"/>
		</comp>
		<comp name="--.HGZ" depth="0.0">
			<acc value="0.0192547162391875" flag="0"/>
			<vel value="0.0124281041527442" flag="0"/>
			<psa03 value="0.0492880307151418" flag="0"/>
			<psa10 value="0.0193216305882008" flag="0"/>
			<psa30 value="0.00124247553707324" flag="0"/>
		</comp>
	</station>
	<station code="CNCT" name="CNCT" netid="IT" source="Italian Strong Motion Network (RAN)" insttype="" lat="37.3597" lon="13.8517">
		<comp name="--.HNE" depth="0.0">
			<acc value="0.00255475326995032" flag="0"/>
			<vel value="0.00624367190375425" flag="0"/>
			<psa03 value="0.00221916735399818" flag="0"/>
			<psa10 value="0.00320574494299449" flag="0"/>
			<psa30 value="0.00320964887348573" flag="0"/>
		</comp>
		<comp name="--.HNN" depth="0.0">
			<acc value="0.00296932363856684" flag="0"/>
			<vel value="0.00662869285604566" flag="0"/>
			<psa03 value="0.00281809977121683" flag="0"/>
			<psa10 value="0.00266638327543107" flag="0"/>
			<psa30 value="0.00491240958969313" flag="0"/>
		</comp>
		<comp name="--.HNZ" depth="0.0">
			<acc value="0.00331406526184714" flag="0"/>
			<vel value="0.00506564690228592" flag="0"/>
			<psa03 value="0.00216361598519054" flag="0"/>
			<psa10 value="0.00273760096200328" flag="0"/>
			<psa30 value="0.00282098250124604" flag="0"/>
		</comp>
	</station>
	<station code="CON" name="CON" netid="IT" source="Italian Strong Motion Network (RAN)" insttype="" lat="37.8138" lon="13.308">
		<comp name="--.HNE" depth="0.0">
			<acc value="0.00627481052019677" flag="0"/>
			<vel value="0.00780620922706572" flag="0"/>
			<psa03 value="0.00911210363214574" flag="0"/>
			<psa10 value="0.0146032648946302" flag="0"/>
			<psa30 value="0.00198454834158797" flag="0"/>
		</comp>
		<comp name="--.HNN" depth="0.0">
			<acc value="0.0039975538496343" flag="0"/>
			<vel value="0.00710538929075933" flag="0"/>
			<psa03 value="0.00907955264767777" flag="0"/>
			<psa10 value="0.00829305093642435" flag="0"/>
			<psa30 value="0.00262188639543948" flag="0"/>
		</comp>
		<comp name="--.HNZ" depth="0.0">
			<acc value="0.00356146349853263" flag="0"/>
			<vel value="0.00538162931315846" flag="0"/>
			<psa03 value="0.00631592621161456" flag="0"/>
			<psa10 value="0.0102873430484893" flag="0"/>
			<psa30 value="0.00107404396264139" flag="0"/>
		</comp>
	</station>
	<station code="CRL" name="CRL" netid="IT" source="Italian Strong Motion Network (RAN)" insttype="" lat="37.813" lon="13.307">
		<comp name="--.HGE" depth="0.0">
			<acc value="0.00725173052949796" flag="0"/>
			<vel value="0.00894463288560365" flag="0"/>
			<psa03 value="0.013712985240889" flag="0"/>
			<psa10 value="0.0156541004448281" flag="0"/>
			<psa30 value="0.00194096795460121" flag="0"/>
		</comp>
		<comp name="--.HGN" depth="0.0">
			<acc value="0.00572368399232477" flag="0"/>
			<vel value="0.00763838587162529" flag="0"/>
			<psa03 value="0.0141155275323403" flag="0"/>
			<psa10 value="0.00900012371402573" flag="0"/>
			<psa30 value="0.00247460663887842" flag="0"/>
		</comp>
		<comp name="--.HGZ" depth="0.0">
			<acc value="0.00493071591398309" flag="0"/>
			<vel value="0.00438856102957369" flag="0"/>
			<psa03 value="0.0104466946464173" flag="0"/>
			<psa10 value="0.0110903940591776" flag="0"/>
			<psa30 value="0.000952291209619034" flag="0"/>
		</comp>
	</station>
	<station code="CSG" name="CSG" netid="IT" source="Italian Strong Motion Network (RAN)" insttype="" lat="38.0171" lon="12.8837">
		<comp name="--.HNE" depth="0.0">
			<acc value="0.00198658780523263" flag="0"/>
			<vel value="0.00190695064309344" flag="0"/>
			<psa03 value="0.00506052631576181" flag="0"/>
			<psa10 value="0.00270207392101118" flag="0"/>
			<psa30 value="0.000761407001977089" flag="0"/>
		</comp>
		<comp name="--.HNN" depth="0.0">
			<acc value="0.00268409581533726" flag="0"/>
			<vel value="0.00280871376473231" flag="0"/>
			<psa03 value="0.00511332506081538" flag="0"/>
			<psa10 value="0.00794140889186467" flag="0"/>
			<psa30 value="0.00080971837945208" flag="0"/>
		</comp>
		<comp name="--.HNZ" depth="0.0">
			<acc value="0.00131822051942887" flag="0"/>
			<vel value="0.00122374327192687" flag="0"/>
			<psa03 value="0.00214494254764612" flag="0"/>
			<psa10 value="0.00195443669840189" flag="0"/>
			<psa30 value="0.000526547954134465" flag="0"/>
		</comp>
	</station>
	<station code="CSLA" name="CSLA" netid="IT" source="Italian Strong Motion Network (RAN)" insttype="" lat="37.789" lon="14.0412">
		<comp name="--.HNE" depth="0.0">
			<acc value="0.0346059767572985" flag="0"/>
			<vel value="0.0350376921901866" flag="0"/>
			<psa03 value="0.0817085742503725" flag="0"/>
			<psa10 value="0.074732385653782" flag="0"/>
			<psa30 value="0.00359945886315112" flag="0"/>
		</comp>
		<comp name="--.HNN" depth="0.0">
			<acc value="0.0270187488215581" flag="0"/>
			<vel value="0.0262358644207632" flag="0"/>
			<psa03 value="0.0548570454683712" flag="0"/>
			<psa10 value="0.0401458207135968" flag="0"/>
			<psa30 value="0.00321830944720623" flag="0"/>
		</comp>
		<comp name="--.HNZ" depth="0.0">
			<acc value="0.0229634523691179" flag="0"/>
			<vel value="0.0214443530808591" flag="0"/>
			<psa03 value="0.0350906422911692" flag="0"/>
			<psa10 value="0.030041993259615" flag="0"/>
			<psa30 value="0.00227632079508107" flag="0"/>
		</comp>
	</station>
	<station code="CSM" name="CSM" netid="IT" source="Italian Strong Motion Network (RAN)" insttype="" lat="37.5404" lon="13.6273">
		<comp name="--.HGE" depth="0.0">
			<acc value="0.00605313435983405" flag="0"/>
			<vel value="0.00982313003967225" flag="0"/>
			<psa03 value="0.00999489258133112" flag="0"/>
			<psa10 value="0.0172130177779507" flag="0"/>
			<psa30 value="0.00322018582150682" flag="0"/>
		</comp>
		<comp name="--.HGN" depth="0.0">
			<acc value="0.00614426008274195" flag="0"/>
			<vel value="0.00868539416726266" flag="0"/>
			<psa03 value="0.0104514970478861" flag="0"/>
			<psa10 value="0.0147554752903219" flag="0"/>
			<psa30 value="0.00408601776195693" flag="0"/>
		</comp>
		<comp name="--.HGZ" depth="0.0">
			<acc value="0.00290958318107967" flag="0"/>
			<vel value="0.00454184298356929" flag="0"/>
			<psa03 value="0.00556220766166802" flag="0"/>
			<psa10 value="0.00753293558251261" flag="0"/>
			<psa30 value="0.00231501440000916" flag="0"/>
		</comp>
	</station>
	<station code="CTU" name="CTU" netid="IT" source="Italian Strong Motion Network (RAN)" insttype="" lat="37.8232" lon="13.8904">
		<comp name="--.HNE" depth="0.0">
			<acc value="0.0132639922856594" flag="0"/>
			<vel value="0.0142200120608208" flag="0"/>
			<psa03 value="0.0315656066915273" flag="0"/>
			<psa10 value="0.0295605401157071" flag="0"/>
			<psa30 value="0.0015769288387964" flag="0"/>
		</comp>
		<comp name="--.HNN" depth="0.0">
			<acc value="0.0144657160915342" flag="0"/>
			<vel value="0.0132883003229744" flag="0"/>
			<psa03 value="0.0239780545742707" flag="0"/>
			<psa10 value="0.0269955089449805" flag="0"/>
			<psa30 value="0.00189264912871614" flag="0"/>
		</comp>
		<comp name="--.HNZ" depth="0.0">
			<acc value="0.0108548387874475" flag="0"/>
			<vel value="0.00907031364797282" flag="0"/>
			<psa03 value="0.0187325130724733" flag="0"/>
			<psa10 value="0.0142606384473095" flag="0"/>
			<psa30 value="0.00103560881233465" flag="0"/>
		</comp>
	</station>
	<station code="CTV" name="CTV" netid="IT" source="Italian Strong Motion Network (RAN)" insttype="" lat="38.3498" lon="16.0804">
		<comp name="--.HNE" depth="0.0">
			<acc value="0.00391128619062717" flag="0"/>
			<vel value="0.00336482548466892" flag="0"/>
			<psa03 value="0.0161143422356714" flag="0"/>
			<psa10 value="0.00415518526063092" flag="0"/>
			<psa30 value="0.00142166126141475" flag="0"/>
		</comp>
		<comp name="--.HNN" depth="0.0">
			<acc value="0.00320619617730787" flag="0"/>
			<vel value="0.00334740173919998" flag="0"/>
			<psa03 value="0.00867495097501098" flag="0"/>
			<psa10 value="0.00464085649646675" flag="0"/>
			<psa30 value="0.00146789213648333" flag="0"/>
		</comp>
		<comp name="--.HNZ" depth="0.0">
			<acc value="0.00271189492318122" flag="0"/>
			<vel value="0.00242426497386117" flag="0"/>
			<psa03 value="0.00745850255273135" flag="0"/>
			<psa10 value="0.00408376974845373" flag="0"/>
			<psa30 value="0.000734595330002072" flag="0"/>
		</comp>
	</station>
