<?xml version="1.0" encoding="UTF-8" standalone="yes"?>
<!DOCTYPE earthquake SYSTEM "stationlist.dtd">
<stationlist created="" xmlns="ch.ethz.sed.shakemap.usgs.xml">
  <station code="BASIC" name="BASIC" netid="IV" insttype="" commtype="DIG" lat="38.067" lon="15.0688">
    <comp name="--.HNE">
      <acc value="0.0622164128" flag="0"/>
      <vel value="0.0397848789" flag="0"/>
      <psa03 value="0.3098731020" flag="0"/>
      <psa10 value="0.0557019640" flag="0"/>
      <psa30 value="0.0040371651" flag="0"/>
    </comp>
    <comp name="--.HNZ">
      <acc value="0.0261282213" flag="0"/>
      <vel value="0.0126042425" flag="0"/>
      <psa03 value="0.0862048137" flag="0"/>
      <psa10 value="0.0182054463" flag="0"/>
      <psa30 value="0.0014970696" flag="0"/>
    </comp>
    <comp name="--.HNN">
      <acc value="0.0484378674" flag="0"/>
      <vel value="0.0275668869" flag="0"/>
      <psa03 value="0.1682144167" flag="0"/>
      <psa10 value="0.0506794895" flag="0"/>
      <psa30 value="0.0034476484" flag="0"/>
    </comp>
  </station>
  <station code="CSLB" name="CSLB" netid="IV" insttype="" commtype="DIG" lat="37.9374" lon="14.0579">
    <comp name="--.HNE">
      <acc value="0.0169800158" flag="0"/>
      <vel value="0.0159855085" flag="0"/>
      <psa03 value="0.0326683321" flag="0"/>
      <psa10 value="0.0268298083" flag="0"/>
      <psa30 value="0.0019695691" flag="0"/>
    </comp>
    <comp name="--.HNN">
      <acc value="0.0155799653" flag="0"/>
      <vel value="0.0091615003" flag="0"/>
      <psa03 value="0.0333084920" flag="0"/>
      <psa10 value="0.0163808700" flag="0"/>
      <psa30 value="0.0012365789" flag="0"/>
    </comp>
    <comp name="--.HNZ">
      <acc value="0.0134107573" flag="0"/>
      <vel value="0.0088793301" flag="0"/>
      <psa03 value="0.0354167934" flag="0"/>
      <psa10 value="0.0107379817" flag="0"/>
      <psa30 value="0.0012955232" flag="0"/>
    </comp>
  </station>
  <station code="GALF" name="GALF" netid="IV" insttype="" commtype="DIG" lat="37.7107" lon="14.5665">
    <comp name="--.HNE">
      <acc value="0.0318472776" flag="0"/>
      <vel value="0.0365391168" flag="0"/>
      <psa03 value="0.0563159135" flag="0"/>
      <psa10 value="0.0625988941" flag="0"/>
      <psa30 value="0.0034102656" flag="0"/>
    </comp>
    <comp name="--.HNN">
      <acc value="0.0260845414" flag="0"/>
      <vel value="0.0272520729" flag="0"/>
      <psa03 value="0.0577637122" flag="0"/>
      <psa10 value="0.0363864442" flag="0"/>
      <psa30 value="0.0021721872" flag="0"/>
    </comp>
    <comp name="--.HNZ">
      <acc value="0.0165981139" flag="0"/>
      <vel value="0.0159141680" flag="0"/>
      <psa03 value="0.0488563221" flag="0"/>
      <psa10 value="0.0117762804" flag="0"/>
      <psa30 value="0.0043354608" flag="0"/>
    </comp>
  </station>
  <station code="IACL" name="IACL" netid="IV" insttype="" commtype="DIG" lat="38.533" lon="14.355">
    <comp name="--.HHE">
      <acc value="1.4144299963" flag="0"/>
      <vel value="0.2502005828" flag="0"/>
      <psa03 value="0.8796110847" flag="0"/>
      <psa10 value="0.0992585051" flag="0"/>
      <psa30 value="0.0131614714" flag="0"/>
    </comp>
    <comp name="--.HHN">
      <acc value="1.4612067524" flag="0"/>
      <vel value="0.5281096578" flag="0"/>
      <psa03 value="2.6956326989" flag="0"/>
      <psa10 value="0.1209988250" flag="0"/>
      <psa30 value="0.0230147843" flag="0"/>
    </comp>
    <comp name="--.HHZ">
      <acc value="0.9937838670" flag="0"/>
      <vel value="0.2318452220" flag="0"/>
      <psa03 value="0.8453407390" flag="0"/>
      <psa10 value="0.0639816089" flag="0"/>
      <psa30 value="0.0068129148" flag="0"/>
    </comp>
  </station>
  <station code="ILOS" name="ILOS" netid="IV" insttype="" commtype="DIG" lat="38.4457" lon="14.9483">
    <comp name="--.HNE">
      <acc value="0.1562793712" flag="0"/>
      <vel value="0.0915307684" flag="0"/>
      <psa03 value="0.5219132125" flag="0"/>
      <psa10 value="0.0761737900" flag="0"/>
      <psa30 value="0.0178507053" flag="0"/>
    </comp>
    <comp name="--.HNN">
      <acc value="0.1818368121" flag="0"/>
      <vel value="0.0993585303" flag="0"/>
      <psa03 value="0.5752910742" flag="0"/>
      <psa10 value="0.1020327540" flag="0"/>
      <psa30 value="0.0143007124" flag="0"/>
    </comp>
    <comp name="--.HNZ">
      <acc value="0.1004699446" flag="0"/>
      <vel value="0.0488589150" flag="0"/>
      <psa03 value="0.2578000523" flag="0"/>
      <psa10 value="0.0304290644" flag="0"/>
      <psa30 value="0.0039640479" flag="0"/>
    </comp>
  </station>
  <station code="LIBRI" name="LIBRI" netid="IV" insttype="" commtype="DIG" lat="38.0837" lon="14.9287">
    <comp name="--.HNE">
      <acc value="0.1172761692" flag="0"/>
      <vel value="0.0684991285" flag="0"/>
      <psa03 value="0.2055121131" flag="0"/>
      <psa10 value="0.0407027246" flag="0"/>
      <psa30 value="0.0029913405" flag="0"/>
    </comp>
    <comp name="--.HNN">
      <acc value="0.1088542766" flag="0"/>
      <vel value="0.0446015506" flag="0"/>
      <psa03 value="0.3018320716" flag="0"/>
      <psa10 value="0.0397591728" flag="0"/>
      <psa30 value="0.0025821023" flag="0"/>
    </comp>
    <comp name="--.HNZ">
      <acc value="0.0577515846" flag="0"/>
      <vel value="0.0218737861" flag="0"/>
      <psa03 value="0.1288658721" flag="0"/>
      <psa10 value="0.0298611676" flag="0"/>
      <psa30 value="0.0020966211" flag="0"/>
    </comp>
  </station>
  <station code="PETRA" name="PETRA" netid="IV" insttype="" commtype="DIG" lat="37.8335" lon="14.1148">
    <comp name="--.HNN">
      <acc value="0.0209600896" flag="0"/>
      <vel value="0.0225510272" flag="0"/>
      <psa03 value="0.0331618600" flag="0"/>
      <psa10 value="0.0282664531" flag="0"/>
      <psa30 value="0.0013413220" flag="0"/>
    </comp>
    <comp name="--.HNE">
      <acc value="0.0169894220" flag="0"/>
      <vel value="0.0138427730" flag="0"/>
      <psa03 value="0.0344790318" flag="0"/>
      <psa10 value="0.0140707626" flag="0"/>
      <psa30 value="0.0018207001" flag="0"/>
    </comp>
    <comp name="--.HNZ">
      <acc value="0.0064482630" flag="0"/>
      <vel value="0.0067913831" flag="0"/>
      <psa03 value="0.0156943969" flag="0"/>
      <psa10 value="0.0119706117" flag="0"/>
      <psa30 value="0.0010732852" flag="0"/>
    </comp>
  </station>
  <station code="PLLN" name="PLLN" netid="IV" insttype="" commtype="DIG" lat="37.9926" lon="14.1431">
    <comp name="--.HNE">
      <acc value="0.0201703053" flag="0"/>
      <vel value="0.0151117029" flag="0"/>
      <psa03 value="0.0814971519" flag="0"/>
      <psa10 value="0.0219703671" flag="0"/>
      <psa30 value="0.0021169742" flag="0"/>
    </comp>
    <comp name="--.HNN">
      <acc value="0.0357070336" flag="0"/>
      <vel value="0.0224475416" flag="0"/>
      <psa03 value="0.0796416382" flag="0"/>
      <psa10 value="0.0381444007" flag="0"/>
      <psa30 value="0.0035786882" flag="0"/>
    </comp>
    <comp name="--.HNZ">
      <acc value="0.0126611606" flag="0"/>
      <vel value="0.0114018662" flag="0"/>
      <psa03 value="0.0251702887" flag="0"/>
      <psa10 value="0.0144952082" flag="0"/>
      <psa30 value="0.0017412771" flag="0"/>
    </comp>
  </station>
  <station code="SCIAR" name="SCIAR" netid="IV" insttype="" commtype="DIG" lat="37.9406" lon="13.7493">
    <comp name="--.HNN">
      <acc value="0.0246560231" flag="0"/>
      <vel value="0.0186395044" flag="0"/>
      <psa03 value="0.0726192714" flag="0"/>
      <psa10 value="0.0251495806" flag="0"/>
      <psa30 value="0.0027375639" flag="0"/>
    </comp>
    <comp name="--.HNE">
      <acc value="0.0213661740" flag="0"/>
      <vel value="0.0162204845" flag="0"/>
      <psa03 value="0.0477354532" flag="0"/>
      <psa10 value="0.0308406386" flag="0"/>
      <psa30 value="0.0031617389" flag="0"/>
    </comp>
    <comp name="--.HNZ">
      <acc value="0.0141908543" flag="0"/>
      <vel value="0.0129069795" flag="0"/>
      <psa03 value="0.0449373905" flag="0"/>
      <psa10 value="0.0143761357" flag="0"/>
      <psa30 value="0.0021967668" flag="0"/>
    </comp>
  </station>
</stationlist>
