<?xml version="1.0" encoding="UTF-8" standalone="yes"?>
<!DOCTYPE earthquake SYSTEM "stationlist.dtd">
<stationlist created="" xmlns="ch.ethz.sed.shakemap.usgs.xml">
  <station code="EMFO" name="EMFO" netid="IV" insttype="" lat="37.7357" lon="15.0902">
    <comp name="--.HHE">
      <acc value="0.0131586490" flag="0"/>
      <vel value="0.0029012804" flag="0"/>
      <psa03 value="0.0154188303" flag="0"/>
      <psa10 value="0.0025008001" flag="0"/>
      <psa30 value="0.0001749338" flag="0"/>
    </comp>
    <comp name="--.HHN">
      <acc value="0.0141117401" flag="0"/>
      <vel value="0.0052620017" flag="0"/>
      <psa03 value="0.0246272390" flag="0"/>
      <psa10 value="0.0020965531" flag="0"/>
      <psa30 value="0.0002225800" flag="0"/>
    </comp>
  </station>
  <station code="EPZF" name="EPZF" netid="IV" insttype="" lat="37.824" lon="14.857">
    <comp name="--.HNE">
      <acc value="0.0151110688" flag="0"/>
      <vel value="0.0011625011" flag="0"/>
      <psa03 value="0.0050410346" flag="0"/>
      <psa10 value="0.0012720469" flag="0"/>
      <psa30 value="0.0003387406" flag="0"/>
    </comp>
    <comp name="--.HNZ">
      <acc value="0.0167280005" flag="0"/>
      <vel value="0.0023576880" flag="0"/>
      <psa03 value="0.0131803214" flag="0"/>
      <psa10 value="0.0008351249" flag="0"/>
      <psa30 value="0.0001764079" flag="0"/>
    </comp>
    <comp name="--.HNN">
      <acc value="0.0201062451" flag="0"/>
      <vel value="0.0022417759" flag="0"/>
      <psa03 value="0.0129749658" flag="0"/>
      <psa10 value="0.0013484687" flag="0"/>
      <psa30 value="0.0003358913" flag="0"/>
    </comp>
  </station>
  <station code="ESCV" name="ESCV" netid="IV" insttype="" lat="37.747" lon="14.8152">
    <comp name="--.HHE">
      <acc value="0.0041301018" flag="0"/>
      <vel value="0.0015483152" flag="0"/>
      <psa03 value="0.0102761939" flag="0"/>
      <psa10 value="0.0011588263" flag="0"/>
      <psa30 value="0.0001959210" flag="0"/>
    </comp>
    <comp name="--.HHN">
      <acc value="0.0042075499" flag="0"/>
      <vel value="0.0019549304" flag="0"/>
      <psa03 value="0.0108515095" flag="0"/>
      <psa10 value="0.0012394946" flag="0"/>
      <psa30 value="0.0002204487" flag="0"/>
    </comp>
    <comp name="--.HHZ">
      <acc value="0.0061541006" flag="0"/>
      <vel value="0.0038712381" flag="0"/>
      <psa03 value="0.0187776156" flag="0"/>
      <psa10 value="0.0011312434" flag="0"/>
      <psa30 value="0.0002353077" flag="0"/>
    </comp>
  </station>
  <station code="ESML" name="ESML" netid="IV" insttype="" lat="37.6181" lon="14.8794">
    <comp name="--.HNE">
      <acc value="0.0184521929" flag="0"/>
      <vel value="0.0011204472" flag="0"/>
      <psa03 value="0.0050799937" flag="0"/>
      <psa10 value="0.0011770815" flag="0"/>
      <psa30 value="0.0002231790" flag="0"/>
    </comp>
    <comp name="--.HNN">
      <acc value="0.0161264818" flag="0"/>
      <vel value="0.0011308786" flag="0"/>
      <psa03 value="0.0036558815" flag="0"/>
      <psa10 value="0.0010278554" flag="0"/>
      <psa30 value="0.0001537759" flag="0"/>
    </comp>
    <comp name="--.HNZ">
      <acc value="0.0152670892" flag="0"/>
      <vel value="0.0016912008" flag="0"/>
      <psa03 value="0.0139714617" flag="0"/>
      <psa10 value="0.0008087935" flag="0"/>
      <psa30 value="0.0001740560" flag="0"/>
    </comp>
  </station>
  <station code="GMB1" name="GMB1" netid="IV" insttype="" lat="38.1723" lon="15.8179">
    <comp name="--.HHE">
      <acc value="0.0116692456" flag="0"/>
      <vel value="0.0034290168" flag="0"/>
      <psa03 value="0.0212604580" flag="0"/>
      <psa10 value="0.0028441288" flag="0"/>
      <psa30 value="0.0002051317" flag="0"/>
    </comp>
    <comp name="--.HHN">
      <acc value="0.0109593904" flag="0"/>
      <vel value="0.0032636570" flag="0"/>
      <psa03 value="0.0115165721" flag="0"/>
      <psa10 value="0.0038077165" flag="0"/>
      <psa30 value="0.0002718210" flag="0"/>
    </comp>
    <comp name="--.HHZ">
      <acc value="0.0176226116" flag="0"/>
      <vel value="0.0046052197" flag="0"/>
      <psa03 value="0.0121120711" flag="0"/>
      <psa10 value="0.0013197304" flag="0"/>
      <psa30 value="0.0002075927" flag="0"/>
    </comp>
  </station>
  <station code="MPAZ" name="MPAZ" netid="IV" insttype="" lat="37.9531" lon="16.0067">
    <comp name="--.HHE">
      <acc value="0.0100682280" flag="0"/>
      <vel value="0.0026460491" flag="0"/>
      <psa03 value="0.0102536951" flag="0"/>
      <psa10 value="0.0015068888" flag="0"/>
      <psa30 value="0.0001451565" flag="0"/>
    </comp>
    <comp name="--.HHN">
      <acc value="0.0084403054" flag="0"/>
      <vel value="0.0028038010" flag="0"/>
      <psa03 value="0.0281356727" flag="0"/>
      <psa10 value="0.0010932446" flag="0"/>
      <psa30 value="0.0001570349" flag="0"/>
    </comp>
    <comp name="--.HHZ">
      <acc value="0.0102996369" flag="0"/>
      <vel value="0.0027774538" flag="0"/>
      <psa03 value="0.0069757713" flag="0"/>
      <psa10 value="0.0008425383" flag="0"/>
      <psa30 value="0.0000883341" flag="0"/>
    </comp>
  </station>
  <station code="NOV" name="NOV" netid="IV" insttype="" lat="38.0286" lon="15.1356">
    <comp name="--.HHE">
      <acc value="0.0052251270" flag="0"/>
      <vel value="0.0020434708" flag="0"/>
      <psa03 value="0.0134844798" flag="0"/>
      <psa10 value="0.0017903043" flag="0"/>
      <psa30 value="0.0001518594" flag="0"/>
    </comp>
    <comp name="--.HHN">
      <acc value="0.0058112278" flag="0"/>
      <vel value="0.0020471220" flag="0"/>
      <psa03 value="0.0098720508" flag="0"/>
      <psa10 value="0.0012114267" flag="0"/>
      <psa30 value="0.0002767336" flag="0"/>
    </comp>
    <comp name="--.HHZ">
      <acc value="0.0067147914" flag="0"/>
      <vel value="0.0024770352" flag="0"/>
      <psa03 value="0.0148367538" flag="0"/>
      <psa10 value="0.0022009512" flag="0"/>
      <psa30 value="0.0002360352" flag="0"/>
    </comp>
  </station>
  <station code="PLAC" name="PLAC" netid="IV" insttype="" lat="38.4494" lon="16.4383">
    <comp name="--.HNN">
      <acc value="0.0058377383" flag="0"/>
      <vel value="0.0027431500" flag="0"/>
      <psa03 value="0.0166938570" flag="0"/>
      <psa10 value="0.0015217343" flag="0"/>
      <psa30 value="0.0001358128" flag="0"/>
    </comp>
    <comp name="--.HNE">
      <acc value="0.0079374454" flag="0"/>
      <vel value="0.0026631178" flag="0"/>
      <psa03 value="0.0168980433" flag="0"/>
      <psa10 value="0.0011401641" flag="0"/>
      <psa30 value="0.0001690698" flag="0"/>
    </comp>
    <comp name="--.HNZ">
      <acc value="0.0056589925" flag="0"/>
      <vel value="0.0014086624" flag="0"/>
      <psa03 value="0.0066013240" flag="0"/>
      <psa10 value="0.0007869692" flag="0"/>
      <psa30 value="0.0001289825" flag="0"/>
    </comp>
  </station>
  <station code="SERS" name="SERS" netid="IV" insttype="" lat="39.0359" lon="16.6886">
    <comp name="--.HNN">
      <acc value="0.0033518653" flag="0"/>
      <vel value="0.0012955988" flag="0"/>
      <psa03 value="0.0093847944" flag="0"/>
      <psa10 value="0.0011963877" flag="0"/>
      <psa30 value="0.0000990178" flag="0"/>
    </comp>
    <comp name="--.HNZ">
      <acc value="0.0022627012" flag="0"/>
      <vel value="0.0007592065" flag="0"/>
      <psa03 value="0.0034069830" flag="0"/>
      <psa10 value="0.0006449255" flag="0"/>
      <psa30 value="0.0000603905" flag="0"/>
    </comp>
    <comp name="--.HNE">
      <acc value="0.0036502200" flag="0"/>
      <vel value="0.0016956686" flag="0"/>
      <psa03 value="0.0086588765" flag="0"/>
      <psa10 value="0.0017773515" flag="0"/>
      <psa30 value="0.0000949419" flag="0"/>
    </comp>
  </station>
  <station code="CHCE" name="CHCE" netid="IY" insttype="" lat="38.684" lon="16.4142">
    <comp name="00.HHE">
      <acc value="0.0059239514" flag="0"/>
      <vel value="0.0017061524" flag="0"/>
      <psa03 value="0.0081288877" flag="0"/>
      <psa10 value="0.0004198584" flag="0"/>
      <psa30 value="0.0000513349" flag="0"/>
    </comp>
    <comp name="00.HHN">
      <acc value="0.0173701986" flag="0"/>
      <vel value="0.0076235682" flag="0"/>
      <psa03 value="0.0525609588" flag="0"/>
      <psa10 value="0.0019241307" flag="0"/>
      <psa30 value="0.0001971339" flag="0"/>
    </comp>
    <comp name="00.HHZ">
      <acc value="0.0093573878" flag="0"/>
      <vel value="0.0032520904" flag="0"/>
      <psa03 value="0.0323322612" flag="0"/>
      <psa10 value="0.0007331890" flag="0"/>
      <psa30 value="0.0000844199" flag="0"/>
    </comp>
  </station>
  <station code="SPDC" name="SPDC" netid="IY" insttype="" lat="38.5264" lon="16.1322">
    <comp name="--.HHE">
      <acc value="0.0149735045" flag="0"/>
      <vel value="0.0084411977" flag="0"/>
      <psa03 value="0.0516050925" flag="0"/>
      <psa10 value="0.0043738427" flag="0"/>
      <psa30 value="0.0003668130" flag="0"/>
    </comp>
    <comp name="--.HHN">
      <acc value="0.0187546338" flag="0"/>
      <vel value="0.0093832719" flag="0"/>
      <psa03 value="0.0588325864" flag="0"/>
      <psa10 value="0.0068145665" flag="0"/>
      <psa30 value="0.0004419334" flag="0"/>
    </comp>
    <comp name="--.HHZ">
      <acc value="0.0139704434" flag="0"/>
      <vel value="0.0050655539" flag="0"/>
      <psa03 value="0.0495329220" flag="0"/>
      <psa10 value="0.0034547541" flag="0"/>
      <psa30 value="0.0001786403" flag="0"/>
    </comp>
  </station>
</stationlist>
