<?xml version="1.0" encoding="UTF-8" standalone="yes"?>
<!DOCTYPE earthquake SYSTEM "stationlist.dtd">
<stationlist created="" xmlns="ch.ethz.sed.shakemap.usgs.xml">
  <station code="ARPRA" name="ARPRA" netid="KO" insttype="CMG-5T" lat="39.0929" lon="38.3356">
    <comp name="--.HNE">
      <acc value="0.0261697679" flag="0"/>
      <vel value="0.0125429753" flag="0"/>
      <psa03 value="0.0606095048" flag="0"/>
      <psa10 value="0.0122818755" flag="0"/>
      <psa30 value="0.0010868463" flag="0"/>
    </comp>
    <comp name="--.HNN">
      <acc value="0.0317015528" flag="0"/>
      <vel value="0.0150791980" flag="0"/>
      <psa03 value="0.1138964549" flag="0"/>
      <psa10 value="0.0102752540" flag="0"/>
      <psa30 value="0.0007301026" flag="0"/>
    </comp>
    <comp name="--.HNZ">
      <acc value="0.0131519107" flag="0"/>
      <vel value="0.0062894250" flag="0"/>
      <psa03 value="0.0483624598" flag="0"/>
      <psa10 value="0.0084883118" flag="0"/>
      <psa30 value="0.0005059381" flag="0"/>
    </comp>
  </station>
  <station code="DARE" name="DARE" netid="KO" insttype="CMG-3ESP" lat="38.5712" lon="37.4832">
    <comp name="--.HHE">
      <acc value="0.0212648461" flag="0"/>
      <vel value="0.0070279102" flag="0"/>
      <psa03 value="0.0397459822" flag="0"/>
      <psa10 value="0.0036567885" flag="0"/>
      <psa30 value="0.0003904034" flag="0"/>
    </comp>
    <comp name="--.HHN">
      <acc value="0.0150383752" flag="0"/>
      <vel value="0.0049585152" flag="0"/>
      <psa03 value="0.0425130323" flag="0"/>
      <psa10 value="0.0042886293" flag="0"/>
      <psa30 value="0.0003717844" flag="0"/>
    </comp>
    <comp name="--.HHZ">
      <acc value="0.0150257722" flag="0"/>
      <vel value="0.0064613589" flag="0"/>
      <psa03 value="0.0358698205" flag="0"/>
      <psa10 value="0.0035055308" flag="0"/>
      <psa30 value="0.0006348198" flag="0"/>
    </comp>
  </station>
  <station code="URFA" name="URFA" netid="KO" insttype="CMG-3ESP" lat="37.4409" lon="38.8213">
    <comp name="--.HHZ">
      <acc value="0.0171923600" flag="0"/>
      <vel value="0.0034642694" flag="0"/>
      <psa03 value="0.0099612775" flag="0"/>
      <psa10 value="0.0025072035" flag="0"/>
      <psa30 value="0.0003131491" flag="0"/>
    </comp>
    <comp name="--.HHN">
      <acc value="0.0236906165" flag="0"/>
      <vel value="0.0042516978" flag="0"/>
      <psa03 value="0.0230935747" flag="0"/>
      <psa10 value="0.0038523882" flag="0"/>
      <psa30 value="0.0003838063" flag="0"/>
    </comp>
    <comp name="--.HHE">
      <acc value="0.0194559413" flag="0"/>
      <vel value="0.0044494255" flag="0"/>
      <psa03 value="0.0252074102" flag="0"/>
      <psa10 value="0.0028838915" flag="0"/>
      <psa30 value="0.0004669527" flag="0"/>
    </comp>
  </station>
</stationlist>
