<?xml version="1.0" encoding="UTF-8" standalone="yes"?>
<!DOCTYPE earthquake SYSTEM "stationlist.dtd">
<stationlist created="" xmlns="ch.ethz.sed.shakemap.usgs.xml">
  <station code="ARPRA" name="ARPRA" netid="KO" insttype="CMG-5T" lat="39.0929" lon="38.3356">
    <comp name="--.HNE">
      <acc value="0.0261697700" flag="0"/>
      <vel value="0.0125429775" flag="0"/>
      <psa03 value="0.0606095048" flag="0"/>
      <psa10 value="0.0122818762" flag="0"/>
      <psa30 value="0.0010877009" flag="0"/>
    </comp>
    <comp name="--.HNN">
      <acc value="0.0317015462" flag="0"/>
      <vel value="0.0150792002" flag="0"/>
      <psa03 value="0.1138964549" flag="0"/>
      <psa10 value="0.0102752543" flag="0"/>
      <psa30 value="0.0007307676" flag="0"/>
    </comp>
    <comp name="--.HNZ">
      <acc value="0.0131519115" flag="0"/>
      <vel value="0.0062894425" flag="0"/>
      <psa03 value="0.0483624599" flag="0"/>
      <psa10 value="0.0084883097" flag="0"/>
      <psa30 value="0.0005059881" flag="0"/>
    </comp>
  </station>
  <station code="DARE" name="DARE" netid="KO" insttype="CMG-3ESP" lat="38.5712" lon="37.4832">
    <comp name="--.HHN">
      <acc value="0.0150383753" flag="0"/>
      <vel value="0.0049585146" flag="0"/>
      <psa03 value="0.0425130323" flag="0"/>
      <psa10 value="0.0042886294" flag="0"/>
      <psa30 value="0.0003717926" flag="0"/>
    </comp>
    <comp name="--.HHZ">
      <acc value="0.0150257722" flag="0"/>
      <vel value="0.0064613587" flag="0"/>
      <psa03 value="0.0358698205" flag="0"/>
      <psa10 value="0.0035055308" flag="0"/>
      <psa30 value="0.0006348053" flag="0"/>
    </comp>
    <comp name="--.HHE">
      <acc value="0.0212648461" flag="0"/>
      <vel value="0.0070279115" flag="0"/>
      <psa03 value="0.0397459822" flag="0"/>
      <psa10 value="0.0036567885" flag="0"/>
      <psa30 value="0.0003904174" flag="0"/>
    </comp>
  </station>
  <station code="URFA" name="URFA" netid="KO" insttype="CMG-3ESP" lat="37.4409" lon="38.8213">
    <comp name="--.HHZ">
      <acc value="0.0171923600" flag="0"/>
      <vel value="0.0034642698" flag="0"/>
      <psa03 value="0.0099612775" flag="0"/>
      <psa10 value="0.0025072035" flag="0"/>
      <psa30 value="0.0003131482" flag="0"/>
    </comp>
    <comp name="--.HHE">
      <acc value="0.0194559414" flag="0"/>
      <vel value="0.0044494254" flag="0"/>
      <psa03 value="0.0252074102" flag="0"/>
      <psa10 value="0.0028838915" flag="0"/>
      <psa30 value="0.0004669533" flag="0"/>
    </comp>
    <comp name="--.HHN">
      <acc value="0.0236906165" flag="0"/>
      <vel value="0.0042516986" flag="0"/>
      <psa03 value="0.0230935747" flag="0"/>
      <psa10 value="0.0038523883" flag="0"/>
      <psa30 value="0.0003838037" flag="0"/>
    </comp>
  </station>
</stationlist>
