<?xml version="1.0" encoding="UTF-8" standalone="yes"?>
<!DOCTYPE earthquake SYSTEM "stationlist.dtd">
<stationlist created="" xmlns="ch.ethz.sed.shakemap.usgs.xml">
  <station code="GVD" name="GVD" netid="GE" insttype="STS-2/N" lat="34.8391" lon="24.0874">
    <comp name="--.HHZ">
      <acc value="0.0026851505" flag="0"/>
      <vel value="0.0011478008" flag="0"/>
      <psa03 value="0.0051756941" flag="0"/>
      <psa10 value="0.0011553202" flag="0"/>
      <psa30 value="0.0001098931" flag="0"/>
    </comp>
    <comp name="--.HHE">
      <acc value="0.0035607985" flag="0"/>
      <vel value="0.0016726501" flag="0"/>
      <psa03 value="0.0129723103" flag="0"/>
      <psa10 value="0.0017120256" flag="0"/>
      <psa30 value="0.0002091689" flag="0"/>
    </comp>
    <comp name="--.HHN">
      <acc value="0.0040618262" flag="0"/>
      <vel value="0.0025224466" flag="0"/>
      <psa03 value="0.0144400271" flag="0"/>
      <psa10 value="0.0021071068" flag="0"/>
      <psa30 value="0.0002388935" flag="0"/>
    </comp>
  </station>
  <station code="IMMV" name="IMMV" netid="GE" insttype="STS-2/N" lat="35.4606" lon="23.9811">
    <comp name="--.HHN">
      <acc value="0.0050063142" flag="0"/>
      <vel value="0.0037325698" flag="0"/>
      <psa03 value="0.0163555115" flag="0"/>
      <psa10 value="0.0056163374" flag="0"/>
      <psa30 value="0.0003975356" flag="0"/>
    </comp>
    <comp name="--.HHZ">
      <acc value="0.0043259898" flag="0"/>
      <vel value="0.0021632219" flag="0"/>
      <psa03 value="0.0131396153" flag="0"/>
      <psa10 value="0.0020005292" flag="0"/>
      <psa30 value="0.0002025881" flag="0"/>
    </comp>
    <comp name="--.HHE">
      <acc value="0.0050620781" flag="0"/>
      <vel value="0.0035713825" flag="0"/>
      <psa03 value="0.0139066136" flag="0"/>
      <psa10 value="0.0032766034" flag="0"/>
      <psa30 value="0.0003214170" flag="0"/>
    </comp>
  </station>
  <station code="KTHA" name="KTHA" netid="GE" insttype="STS-2/N" lat="36.2566" lon="23.0621">
    <comp name="--.HHE">
      <acc value="0.0115854441" flag="0"/>
      <vel value="0.0103165015" flag="0"/>
      <psa03 value="0.0287463133" flag="0"/>
      <psa10 value="0.0118628798" flag="0"/>
      <psa30 value="0.0008973130" flag="0"/>
    </comp>
    <comp name="--.HHN">
      <acc value="0.0065409541" flag="0"/>
      <vel value="0.0022300683" flag="0"/>
      <psa03 value="0.0120148780" flag="0"/>
      <psa10 value="0.0033267546" flag="0"/>
      <psa30 value="0.0002455251" flag="0"/>
    </comp>
    <comp name="--.HHZ">
      <acc value="0.0052925489" flag="0"/>
      <vel value="0.0023058732" flag="0"/>
      <psa03 value="0.0059384629" flag="0"/>
      <psa10 value="0.0033600433" flag="0"/>
      <psa30 value="0.0003103679" flag="0"/>
    </comp>
  </station>
  <station code="CHAN" name="CHAN" netid="HC" insttype="120" lat="35.5193" lon="24.0428">
    <comp name="--.HHN">
      <acc value="0.0089687848" flag="0"/>
      <vel value="0.0085894195" flag="0"/>
      <psa03 value="0.0280483438" flag="0"/>
      <psa10 value="0.0159162717" flag="0"/>
      <psa30 value="0.0009244965" flag="0"/>
    </comp>
    <comp name="--.HHZ">
      <acc value="0.0116433273" flag="0"/>
      <vel value="0.0038802012" flag="0"/>
      <psa03 value="0.0211012317" flag="0"/>
      <psa10 value="0.0059875031" flag="0"/>
      <psa30 value="0.0005371093" flag="0"/>
    </comp>
    <comp name="--.HHE">
      <acc value="0.0075649792" flag="0"/>
      <vel value="0.0068704558" flag="0"/>
      <psa03 value="0.0210896073" flag="0"/>
      <psa10 value="0.0093287675" flag="0"/>
      <psa30 value="0.0009688879" flag="0"/>
    </comp>
  </station>
  <station code="KNDR" name="KNDR" netid="HC" insttype="120" lat="35.2348" lon="23.6248">
    <comp name="--.HHE">
      <acc value="0.0120057791" flag="0"/>
      <vel value="0.0065351454" flag="0"/>
      <psa03 value="0.0399830151" flag="0"/>
      <psa10 value="0.0112049395" flag="0"/>
      <psa30 value="0.0006290058" flag="0"/>
    </comp>
    <comp name="--.HHZ">
      <acc value="0.0091460732" flag="0"/>
      <vel value="0.0040274029" flag="0"/>
      <psa03 value="0.0208553292" flag="0"/>
      <psa10 value="0.0049920174" flag="0"/>
      <psa30 value="0.0004444605" flag="0"/>
    </comp>
    <comp name="--.HHN">
      <acc value="0.0102645258" flag="0"/>
      <vel value="0.0083657490" flag="0"/>
      <psa03 value="0.0317820311" flag="0"/>
      <psa10 value="0.0110385933" flag="0"/>
      <psa30 value="0.0007375420" flag="0"/>
    </comp>
  </station>
  <station code="KTHR" name="KTHR" netid="HC" insttype="120s" lat="36.2447" lon="22.9939">
    <comp name="--.HHN">
      <acc value="0.0178800856" flag="0"/>
      <vel value="0.0108823971" flag="0"/>
      <psa03 value="0.0523897258" flag="0"/>
      <psa10 value="0.0103278523" flag="0"/>
      <psa30 value="0.0005815425" flag="0"/>
    </comp>
    <comp name="--.HHE">
      <acc value="0.0176446636" flag="0"/>
      <vel value="0.0103361712" flag="0"/>
      <psa03 value="0.0608339612" flag="0"/>
      <psa10 value="0.0090630139" flag="0"/>
      <psa30 value="0.0007197291" flag="0"/>
    </comp>
    <comp name="--.HHZ">
      <acc value="0.0106141620" flag="0"/>
      <vel value="0.0044727286" flag="0"/>
      <psa03 value="0.0327665322" flag="0"/>
      <psa10 value="0.0059972973" flag="0"/>
      <psa30 value="0.0002422759" flag="0"/>
    </comp>
  </station>
  <station code="RODP" name="RODP" netid="HC" insttype="120" lat="35.5604" lon="23.7577">
    <comp name="--.HHN">
      <acc value="0.0066402474" flag="0"/>
      <vel value="0.0039530110" flag="0"/>
      <psa03 value="0.0200656846" flag="0"/>
      <psa10 value="0.0028976984" flag="0"/>
      <psa30 value="0.0004942732" flag="0"/>
    </comp>
    <comp name="--.HHE">
      <acc value="0.0078389827" flag="0"/>
      <vel value="0.0041494770" flag="0"/>
      <psa03 value="0.0278369850" flag="0"/>
      <psa10 value="0.0062876866" flag="0"/>
      <psa30 value="0.0004267882" flag="0"/>
    </comp>
    <comp name="--.HHZ">
      <acc value="0.0035118055" flag="0"/>
      <vel value="0.0019579662" flag="0"/>
      <psa03 value="0.0146722397" flag="0"/>
      <psa10 value="0.0021189888" flag="0"/>
      <psa30 value="0.0002006665" flag="0"/>
    </comp>
  </station>
  <station code="ANKY" name="ANKY" netid="HL" insttype="60" lat="35.867" lon="23.3012">
    <comp name="--.HHE">
      <acc value="0.0087339090" flag="0"/>
      <vel value="0.0057484800" flag="0"/>
      <psa03 value="0.0292364742" flag="0"/>
      <psa10 value="0.0083929957" flag="0"/>
      <psa30 value="0.0005367183" flag="0"/>
    </comp>
    <comp name="--.HHZ">
      <acc value="0.0066831293" flag="0"/>
      <vel value="0.0031381025" flag="0"/>
      <psa03 value="0.0181419290" flag="0"/>
      <psa10 value="0.0027965236" flag="0"/>
      <psa30 value="0.0003893127" flag="0"/>
    </comp>
    <comp name="--.HHN">
      <acc value="0.0099146705" flag="0"/>
      <vel value="0.0049992317" flag="0"/>
      <psa03 value="0.0299821450" flag="0"/>
      <psa10 value="0.0056514255" flag="0"/>
      <psa30 value="0.0004332259" flag="0"/>
    </comp>
  </station>
  <station code="GVD" name="GVD" netid="HL" insttype="120" lat="34.8391" lon="24.0874">
    <comp name="--.HHE">
      <acc value="0.0034690099" flag="0"/>
      <vel value="0.0016402929" flag="0"/>
      <psa03 value="0.0126088379" flag="0"/>
      <psa10 value="0.0016935812" flag="0"/>
      <psa30 value="0.0002084843" flag="0"/>
    </comp>
    <comp name="--.HHN">
      <acc value="0.0039260439" flag="0"/>
      <vel value="0.0024702960" flag="0"/>
      <psa03 value="0.0140463520" flag="0"/>
      <psa10 value="0.0020930629" flag="0"/>
      <psa30 value="0.0002386613" flag="0"/>
    </comp>
    <comp name="--.HHZ">
      <acc value="0.0026321283" flag="0"/>
      <vel value="0.0011187221" flag="0"/>
      <psa03 value="0.0050251990" flag="0"/>
      <psa10 value="0.0011463093" flag="0"/>
      <psa30 value="0.0001097715" flag="0"/>
    </comp>
  </station>
  <station code="IMMV" name="IMMV" netid="HL" insttype="120" lat="35.4606" lon="23.9811">
    <comp name="--.HHN">
      <acc value="0.0048865765" flag="0"/>
      <vel value="0.0036638309" flag="0"/>
      <psa03 value="0.0159203413" flag="0"/>
      <psa10 value="0.0055721058" flag="0"/>
      <psa30 value="0.0003973361" flag="0"/>
    </comp>
    <comp name="--.HHE">
      <acc value="0.0049484999" flag="0"/>
      <vel value="0.0035262384" flag="0"/>
      <psa03 value="0.0135261184" flag="0"/>
      <psa10 value="0.0032465841" flag="0"/>
      <psa30 value="0.0003206276" flag="0"/>
    </comp>
    <comp name="--.HHZ">
      <acc value="0.0042174443" flag="0"/>
      <vel value="0.0021193999" flag="0"/>
      <psa03 value="0.0127396223" flag="0"/>
      <psa10 value="0.0019881223" flag="0"/>
      <psa30 value="0.0002017805" flag="0"/>
    </comp>
  </station>
  <station code="KTHA" name="KTHA" netid="HL" insttype="120" lat="36.2566" lon="23.0621">
    <comp name="--.HHE">
      <acc value="0.0113327737" flag="0"/>
      <vel value="0.0101986536" flag="0"/>
      <psa03 value="0.0280080300" flag="0"/>
      <psa10 value="0.0117592370" flag="0"/>
      <psa30 value="0.0008935209" flag="0"/>
    </comp>
    <comp name="--.HHN">
      <acc value="0.0062324127" flag="0"/>
      <vel value="0.0021982806" flag="0"/>
      <psa03 value="0.0116993209" flag="0"/>
      <psa10 value="0.0033051516" flag="0"/>
      <psa30 value="0.0002445426" flag="0"/>
    </comp>
    <comp name="--.HHZ">
      <acc value="0.0050729017" flag="0"/>
      <vel value="0.0022687998" flag="0"/>
      <psa03 value="0.0057952900" flag="0"/>
      <psa10 value="0.0033404652" flag="0"/>
      <psa30 value="0.0003094062" flag="0"/>
    </comp>
  </station>
  <station code="VAM" name="VAM" netid="HL" insttype="CMG3ESPC-120s" lat="35.407" lon="24.1997">
    <comp name="--.HHE">
      <acc value="0.0035814897" flag="0"/>
      <vel value="0.0021677435" flag="0"/>
      <psa03 value="0.0092913794" flag="0"/>
      <psa10 value="0.0038864087" flag="0"/>
      <psa30 value="0.0002446329" flag="0"/>
    </comp>
    <comp name="--.HHZ">
      <acc value="0.0023568485" flag="0"/>
      <vel value="0.0012959573" flag="0"/>
      <psa03 value="0.0053878845" flag="0"/>
      <psa10 value="0.0018788530" flag="0"/>
      <psa30 value="0.0001433571" flag="0"/>
    </comp>
    <comp name="--.HHN">
      <acc value="0.0033580749" flag="0"/>
      <vel value="0.0020224354" flag="0"/>
      <psa03 value="0.0097828134" flag="0"/>
      <psa10 value="0.0030591656" flag="0"/>
      <psa30 value="0.0002349322" flag="0"/>
    </comp>
  </station>
</stationlist>
