<stationlist created="1778205359">
	<station code="CMRD" name="CMRD" netid="KO" source="Bogazici University Kandilli Observatory And Earthquake Research Institute (KOERI)" insttype="" lat="37.6623" lon="34.9902">
		<comp name="--.HNE" depth="0.0">
			<acc value="0.00155146354347816" flag="0"/>
			<vel value="0.000855222968126116" flag="0"/>
			<psa03 value="0.00589775137415755" flag="0"/>
			<psa10 value="0.000763319706810558" flag="0"/>
			<psa30 value="0.000329600662551519" flag="0"/>
		</comp>
		<comp name="--.HNN" depth="0.0">
			<acc value="0.00175204188640998" flag="0"/>
			<vel value="0.0009413521333291" flag="0"/>
			<psa03 value="0.0053368841413197" flag="0"/>
			<psa10 value="0.00106793387037972" flag="0"/>
			<psa30 value="9.37284681657404e-05" flag="0"/>
		</comp>
		<comp name="--.HNZ" depth="0.0">
			<acc value="0.00144098350458079" flag="0"/>
			<vel value="0.000730246178541468" flag="0"/>
			<psa03 value="0.00400155479691044" flag="0"/>
			<psa10 value="0.000690536818894921" flag="0"/>
			<psa30 value="0.000110374902941412" flag="0"/>
		</comp>
	</station>
	<station code="KHMN" name="KHMN" netid="KO" source="Bogazici University Kandilli Observatory And Earthquake Research Institute (KOERI)" insttype="" lat="37.3916" lon="37.1574">
		<comp name="--.HNE" depth="0.0">
			<acc value="0.0334248239505726" flag="0"/>
			<vel value="0.00867789660912755" flag="0"/>
			<psa03 value="0.0355505633836746" flag="0"/>
			<psa10 value="0.00680936311813897" flag="0"/>
			<psa30 value="0.000470592997391937" flag="0"/>
		</comp>
		<comp name="--.HNN" depth="0.0">
			<acc value="0.0250168916326961" flag="0"/>
			<vel value="0.00895827676362644" flag="0"/>
			<psa03 value="0.026699203587056" flag="0"/>
			<psa10 value="0.00941007649637364" flag="0"/>
			<psa30 value="0.000388600326197645" flag="0"/>
		</comp>
		<comp name="--.HNZ" depth="0.0">
			<acc value="0.0188301970004366" flag="0"/>
			<vel value="0.00420334904079968" flag="0"/>
			<psa03 value="0.0206899930063091" flag="0"/>
			<psa10 value="0.00413031876961464" flag="0"/>
			<psa30 value="0.000435895750954214" flag="0"/>
		</comp>
	</station>
	<station code="KRTS" name="KRTS" netid="KO" source="Bogazici University Kandilli Observatory And Earthquake Research Institute (KOERI)" insttype="" lat="36.573" lon="35.375">
		<comp name="--.HNE" depth="0.0">
			<acc value="0.0233865636756972" flag="0"/>
			<vel value="0.0080733027453628" flag="0"/>
			<psa03 value="0.0837413859976389" flag="0"/>
			<psa10 value="0.0046301209415415" flag="0"/>
			<psa30 value="0.000738101864375547" flag="0"/>
		</comp>
		<comp name="--.HNN" depth="0.0">
			<acc value="0.0234084666067754" flag="0"/>
			<vel value="0.00969677772309105" flag="0"/>
			<psa03 value="0.077130416803367" flag="0"/>
			<psa10 value="0.00529216261103706" flag="0"/>
			<psa30 value="0.000465700642048855" flag="0"/>
		</comp>
		<comp name="--.HNZ" depth="0.0">
			<acc value="0.0246482006986483" flag="0"/>
			<vel value="0.00525762356044922" flag="0"/>
			<psa03 value="0.0664237439969375" flag="0"/>
			<psa10 value="0.00398841171270182" flag="0"/>
			<psa30 value="0.000765351690377181" flag="0"/>
		</comp>
	</station>
	<station code="NIG" name="NIG" netid="KO" source="Bogazici University Kandilli Observatory And Earthquake Research Institute (KOERI)" insttype="" lat="38.108" lon="34.6142">
		<comp name="--.HNE" depth="0.0">
			<acc value="0.13618448250346" flag="0"/>
			<vel value="0.0316865641801965" flag="0"/>
			<psa03 value="0.0602749200010999" flag="0"/>
			<psa10 value="0.0219051992369535" flag="0"/>
			<psa30 value="0.00848876733916945" flag="0"/>
		</comp>
		<comp name="--.HNN" depth="0.0">
			<acc value="0.0506666203607345" flag="0"/>
			<vel value="0.0102602345192918" flag="0"/>
			<psa03 value="0.0180800531835332" flag="0"/>
			<psa10 value="0.00566317000098204" flag="0"/>
			<psa30 value="0.00233111254976588" flag="0"/>
		</comp>
		<comp name="--.HNZ" depth="0.0">
			<acc value="0.163582028810728" flag="0"/>
			<vel value="0.0695427757360494" flag="0"/>
			<psa03 value="0.133001435692516" flag="0"/>
			<psa10 value="0.0521063530400718" flag="0"/>
			<psa30 value="0.0303169416819266" flag="0"/>
		</comp>
	</station>
</stationlist>
