<?xml version="1.0" encoding="UTF-8" standalone="yes"?>
<!DOCTYPE earthquake SYSTEM "stationlist.dtd">
<stationlist created="" xmlns="ch.ethz.sed.shakemap.usgs.xml">
  <station code="CEYT" name="CEYT" netid="KO" insttype="CMG-3ESP" lat="37.0105" lon="35.7478">
    <comp name="--.HHE">
      <acc value="0.0249246075" flag="0"/>
      <vel value="0.0094665336" flag="0"/>
      <psa03 value="0.0621043324" flag="0"/>
      <psa10 value="0.0045893359" flag="0"/>
      <psa30 value="0.0004658138" flag="0"/>
    </comp>
    <comp name="--.HHN">
      <acc value="0.0194260071" flag="0"/>
      <vel value="0.0081777137" flag="0"/>
      <psa03 value="0.0386701851" flag="0"/>
      <psa10 value="0.0068327939" flag="0"/>
      <psa30 value="0.0004337878" flag="0"/>
    </comp>
    <comp name="--.HHZ">
      <acc value="0.0139044902" flag="0"/>
      <vel value="0.0055891494" flag="0"/>
      <psa03 value="0.0310097320" flag="0"/>
      <psa10 value="0.0030681665" flag="0"/>
      <psa30 value="0.0003058171" flag="0"/>
    </comp>
  </station>
  <station code="GAZ" name="GAZ" netid="KO" insttype="CMG-3T" lat="37.1721" lon="37.2096">
    <comp name="--.HHZ">
      <acc value="0.0193842352" flag="0"/>
      <vel value="0.0047976506" flag="0"/>
      <psa03 value="0.0262403557" flag="0"/>
      <psa10 value="0.0066642315" flag="0"/>
      <psa30 value="0.0004152769" flag="0"/>
    </comp>
  </station>
  <station code="KHMN" name="KHMN" netid="KO" insttype="CMG-5T" lat="37.3916" lon="37.1574">
    <comp name="--.HNE">
      <acc value="0.0366454553" flag="0"/>
      <vel value="0.0086459856" flag="0"/>
      <psa03 value="0.0350232575" flag="0"/>
      <psa10 value="0.0068209596" flag="0"/>
      <psa30 value="0.0004826242" flag="0"/>
    </comp>
    <comp name="--.HNN">
      <acc value="0.0251785348" flag="0"/>
      <vel value="0.0089804433" flag="0"/>
      <psa03 value="0.0262187196" flag="0"/>
      <psa10 value="0.0093754265" flag="0"/>
      <psa30 value="0.0003947841" flag="0"/>
    </comp>
    <comp name="--.HNZ">
      <acc value="0.0196193524" flag="0"/>
      <vel value="0.0042218985" flag="0"/>
      <psa03 value="0.0205499540" flag="0"/>
      <psa10 value="0.0041145139" flag="0"/>
      <psa30 value="0.0004050192" flag="0"/>
    </comp>
  </station>
  <station code="ANDN" name="ANDN" netid="TU" insttype="T" lat="37.58" lon="36.3452">
    <comp name="--.HHZ">
      <acc value="0.0287091855" flag="0"/>
      <vel value="0.0093294864" flag="0"/>
      <psa03 value="0.0545963993" flag="0"/>
      <psa10 value="0.0099050690" flag="0"/>
      <psa30 value="0.0006782705" flag="0"/>
    </comp>
    <comp name="--.HHN">
      <acc value="0.0917017144" flag="0"/>
      <vel value="0.0258190819" flag="0"/>
      <psa03 value="0.1934204440" flag="0"/>
      <psa10 value="0.0126232768" flag="0"/>
      <psa30 value="0.0008573606" flag="0"/>
    </comp>
    <comp name="--.HHE">
      <acc value="0.0509814816" flag="0"/>
      <vel value="0.0175244461" flag="0"/>
      <psa03 value="0.0950184183" flag="0"/>
      <psa10 value="0.0125103614" flag="0"/>
      <psa30 value="0.0008637515" flag="0"/>
    </comp>
  </station>
</stationlist>
