<?xml version="1.0" encoding="UTF-8" standalone="yes"?>
<!DOCTYPE earthquake SYSTEM "stationlist.dtd">
<stationlist created="" xmlns="ch.ethz.sed.shakemap.usgs.xml">
  <station code="KOSP" name="KOSP" netid="HC" insttype="60" lat="36.881" lon="27.281">
    <comp name="--.HHE">
      <acc value="0.0541246141" flag="0"/>
      <vel value="0.0208141964" flag="0"/>
      <psa03 value="0.1235511133" flag="0"/>
      <psa10 value="0.0112060107" flag="0"/>
      <psa30 value="0.0007425701" flag="0"/>
    </comp>
    <comp name="--.HHZ">
      <acc value="0.0375878445" flag="0"/>
      <vel value="0.0094781897" flag="0"/>
      <psa03 value="0.0440208205" flag="0"/>
      <psa10 value="0.0033120065" flag="0"/>
      <psa30 value="0.0003201460" flag="0"/>
    </comp>
    <comp name="--.HHN">
      <acc value="0.0532358351" flag="0"/>
      <vel value="0.0221534712" flag="0"/>
      <psa03 value="0.0717299209" flag="0"/>
      <psa10 value="0.0095876077" flag="0"/>
      <psa30 value="0.0006641723" flag="0"/>
    </comp>
  </station>
  <station code="RDI1" name="RDI1" netid="HI" insttype="CMG-5TD,ACCELEROMETER,GURALP" lat="36.4514" lon="28.224">
    <comp name="--.HNZ">
      <acc value="0.3869357957" flag="0"/>
      <vel value="0.1737940225" flag="0"/>
      <psa03 value="0.9685183190" flag="0"/>
      <psa10 value="0.0464749858" flag="0"/>
      <psa30 value="0.0039482526" flag="0"/>
    </comp>
    <comp name="--.HNE">
      <acc value="0.4480856394" flag="0"/>
      <vel value="0.1769856512" flag="0"/>
      <psa03 value="1.0981195662" flag="0"/>
      <psa10 value="0.0639326913" flag="0"/>
      <psa30 value="0.0057532458" flag="0"/>
    </comp>
    <comp name="--.HNN">
      <acc value="0.5536944092" flag="0"/>
      <vel value="0.2727800544" flag="0"/>
      <psa03 value="1.4016060117" flag="0"/>
      <psa10 value="0.0837000322" flag="0"/>
      <psa30 value="0.0105228349" flag="0"/>
    </comp>
  </station>
  <station code="ARG" name="ARG" netid="HL" insttype="LE3D20_DR24" lat="36.2136" lon="28.1212">
    <comp name="--.HHE">
      <acc value="0.4535659968" flag="0"/>
      <vel value="0.1606233187" flag="0"/>
      <psa03 value="0.7968583882" flag="0"/>
      <psa10 value="0.0733538645" flag="0"/>
      <psa30 value="0.0051538145" flag="0"/>
    </comp>
    <comp name="--.HHN">
      <acc value="0.2883083001" flag="0"/>
      <vel value="0.0779974663" flag="0"/>
      <psa03 value="0.3224837277" flag="0"/>
      <psa10 value="0.0294539970" flag="0"/>
      <psa30 value="0.0025413610" flag="0"/>
    </comp>
    <comp name="--.HHZ">
      <acc value="0.2242725504" flag="0"/>
      <vel value="0.0519274904" flag="0"/>
      <psa03 value="0.2060505990" flag="0"/>
      <psa10 value="0.0258717739" flag="0"/>
      <psa30 value="0.0018486956" flag="0"/>
    </comp>
  </station>
  <station code="NISR" name="NISR" netid="HL" insttype="65535" lat="36.6106" lon="27.131">
    <comp name="--.HHN">
      <acc value="0.0222883236" flag="0"/>
      <vel value="0.0065526461" flag="0"/>
      <psa03 value="0.0544715161" flag="0"/>
      <psa10 value="0.0030306901" flag="0"/>
      <psa30 value="0.0003128234" flag="0"/>
    </comp>
    <comp name="--.HHE">
      <acc value="0.0341578602" flag="0"/>
      <vel value="0.0122064358" flag="0"/>
      <psa03 value="0.0796786698" flag="0"/>
      <psa10 value="0.0045997992" flag="0"/>
      <psa30 value="0.0006224459" flag="0"/>
    </comp>
    <comp name="--.HHZ">
      <acc value="0.0116480200" flag="0"/>
      <vel value="0.0037147531" flag="0"/>
      <psa03 value="0.0262111123" flag="0"/>
      <psa10 value="0.0036218002" flag="0"/>
      <psa30 value="0.0001582805" flag="0"/>
    </comp>
  </station>
  <station code="NISR2" name="NISR2" netid="HL" insttype="120" lat="36.5744" lon="27.1767">
    <comp name="--.HHZ">
      <acc value="0.0374451746" flag="0"/>
      <vel value="0.0168451692" flag="0"/>
      <psa03 value="0.1321746058" flag="0"/>
      <psa10 value="0.0083101660" flag="0"/>
      <psa30 value="0.0005407724" flag="0"/>
    </comp>
    <comp name="--.HHE">
      <acc value="0.0718628594" flag="0"/>
      <vel value="0.0409121714" flag="0"/>
      <psa03 value="0.3335107348" flag="0"/>
      <psa10 value="0.0249570446" flag="0"/>
      <psa30 value="0.0013685293" flag="0"/>
    </comp>
    <comp name="--.HHN">
      <acc value="0.1014349342" flag="0"/>
      <vel value="0.0478359208" flag="0"/>
      <psa03 value="0.5439004035" flag="0"/>
      <psa10 value="0.0245634567" flag="0"/>
      <psa30 value="0.0017223267" flag="0"/>
    </comp>
  </station>
  <station code="APMY" name="APMY" netid="KO" insttype="CMG-6T" lat="37.4717" lon="29.3018">
    <comp name="--.HHE">
      <acc value="0.0203324565" flag="0"/>
      <vel value="0.0062674371" flag="0"/>
      <psa03 value="0.0352639476" flag="0"/>
      <psa10 value="0.0052361367" flag="0"/>
      <psa30 value="0.0003043773" flag="0"/>
    </comp>
    <comp name="--.HHN">
      <acc value="0.0215375859" flag="0"/>
      <vel value="0.0067852548" flag="0"/>
      <psa03 value="0.0399855223" flag="0"/>
      <psa10 value="0.0051466025" flag="0"/>
      <psa30 value="0.0004564321" flag="0"/>
    </comp>
    <comp name="--.HHZ">
      <acc value="0.0117371930" flag="0"/>
      <vel value="0.0059666452" flag="0"/>
      <psa03 value="0.0327071953" flag="0"/>
      <psa10 value="0.0035604504" flag="0"/>
      <psa30 value="0.0002531127" flag="0"/>
    </comp>
  </station>
  <station code="AYDB" name="AYDB" netid="KO" insttype="CMG-3ESPC" lat="37.9467" lon="27.8908">
    <comp name="--.HHN">
      <acc value="0.0871523742" flag="0"/>
      <vel value="0.0442877248" flag="0"/>
      <psa03 value="0.1818865229" flag="0"/>
      <psa10 value="0.0185518137" flag="0"/>
      <psa30 value="0.0013497317" flag="0"/>
    </comp>
    <comp name="--.HHE">
      <acc value="0.1003138454" flag="0"/>
      <vel value="0.0370650675" flag="0"/>
      <psa03 value="0.2062703812" flag="0"/>
      <psa10 value="0.0148211976" flag="0"/>
      <psa30 value="0.0009621619" flag="0"/>
    </comp>
    <comp name="--.HHZ">
      <acc value="0.0775359255" flag="0"/>
      <vel value="0.0231276256" flag="0"/>
      <psa03 value="0.1198847832" flag="0"/>
      <psa10 value="0.0060278923" flag="0"/>
      <psa30 value="0.0004640374" flag="0"/>
    </comp>
  </station>
  <station code="BODT" name="BODT" netid="KO" insttype="CMG-3ESP" lat="37.0622" lon="27.3103">
    <comp name="--.HHZ">
      <acc value="0.0605609398" flag="0"/>
      <vel value="0.0140908317" flag="0"/>
      <psa03 value="0.0588565279" flag="0"/>
      <psa10 value="0.0030369384" flag="0"/>
      <psa30 value="0.0002856716" flag="0"/>
    </comp>
    <comp name="--.HHN">
      <acc value="0.0681169117" flag="0"/>
      <vel value="0.0178868723" flag="0"/>
      <psa03 value="0.1006665015" flag="0"/>
      <psa10 value="0.0074685457" flag="0"/>
      <psa30 value="0.0004711450" flag="0"/>
    </comp>
    <comp name="--.HHE">
      <acc value="0.1687820520" flag="0"/>
      <vel value="0.0507205594" flag="0"/>
      <psa03 value="0.2408912604" flag="0"/>
      <psa10 value="0.0146449455" flag="0"/>
      <psa30 value="0.0014154875" flag="0"/>
    </comp>
  </station>
  <station code="CAME" name="CAME" netid="KO" insttype="CMG-5T" lat="36.9435" lon="29.3023">
    <comp name="--.HNE">
      <acc value="0.0507242580" flag="0"/>
      <vel value="0.0189987901" flag="0"/>
      <psa03 value="0.1125281062" flag="0"/>
      <psa10 value="0.0081413856" flag="0"/>
      <psa30 value="0.0007583484" flag="0"/>
    </comp>
    <comp name="--.HNN">
      <acc value="0.0538772166" flag="0"/>
      <vel value="0.0191771205" flag="0"/>
      <psa03 value="0.1715712742" flag="0"/>
      <psa10 value="0.0064496277" flag="0"/>
      <psa30 value="0.0006850622" flag="0"/>
    </comp>
    <comp name="--.HNZ">
      <acc value="0.0483248184" flag="0"/>
      <vel value="0.0122238516" flag="0"/>
      <psa03 value="0.0577246729" flag="0"/>
      <psa10 value="0.0058712867" flag="0"/>
      <psa30 value="0.0005083631" flag="0"/>
    </comp>
  </station>
  <station code="DALY" name="DALY" netid="KO" insttype="CMG-3T" lat="36.8162" lon="28.6532">
    <comp name="--.HHZ">
      <acc value="0.1678937501" flag="0"/>
      <vel value="0.0386226859" flag="0"/>
      <psa03 value="0.1304878279" flag="0"/>
      <psa10 value="0.0088473264" flag="0"/>
      <psa30 value="0.0010565889" flag="0"/>
    </comp>
    <comp name="--.HHN">
      <acc value="0.2073769976" flag="0"/>
      <vel value="0.0569222852" flag="0"/>
      <psa03 value="0.3190738149" flag="0"/>
      <psa10 value="0.0197817069" flag="0"/>
      <psa30 value="0.0023862117" flag="0"/>
    </comp>
    <comp name="--.HHE">
      <acc value="0.2174872202" flag="0"/>
      <vel value="0.0554493773" flag="0"/>
      <psa03 value="0.3912822286" flag="0"/>
      <psa10 value="0.0122495467" flag="0"/>
      <psa30 value="0.0009831876" flag="0"/>
    </comp>
  </station>
  <station code="DAT" name="DAT" netid="KO" insttype="CMG-3T" lat="36.7308" lon="27.5767">
    <comp name="--.HHZ">
      <acc value="0.0000282584" flag="0"/>
      <vel value="0.0000029215" flag="0"/>
      <psa03 value="0.0000111121" flag="0"/>
      <psa10 value="0.0000034730" flag="0"/>
      <psa30 value="0.0000005607" flag="0"/>
    </comp>
    <comp name="--.HHN">
      <acc value="0.0895391672" flag="0"/>
      <vel value="0.0307453016" flag="0"/>
      <psa03 value="0.2352897109" flag="0"/>
      <psa10 value="0.0099128879" flag="0"/>
      <psa30 value="0.0008006172" flag="0"/>
    </comp>
    <comp name="--.HHE">
      <acc value="0.1060903280" flag="0"/>
      <vel value="0.0268279200" flag="0"/>
      <psa03 value="0.1289666632" flag="0"/>
      <psa10 value="0.0065080748" flag="0"/>
      <psa30 value="0.0005338520" flag="0"/>
    </comp>
  </station>
  <station code="FETY" name="FETY" netid="KO" insttype="CMG-3ESP" lat="36.6353" lon="29.0835">
    <comp name="--.HHN">
      <acc value="0.1036691280" flag="0"/>
      <vel value="0.0324350098" flag="0"/>
      <psa03 value="0.2642329823" flag="0"/>
      <psa10 value="0.0154171338" flag="0"/>
      <psa30 value="0.0015754785" flag="0"/>
    </comp>
    <comp name="--.HHZ">
      <acc value="0.0707649764" flag="0"/>
      <vel value="0.0278747421" flag="0"/>
      <psa03 value="0.1678045613" flag="0"/>
      <psa10 value="0.0082969348" flag="0"/>
      <psa30 value="0.0009869962" flag="0"/>
    </comp>
    <comp name="--.HHE">
      <acc value="0.1175418086" flag="0"/>
      <vel value="0.0344505423" flag="0"/>
      <psa03 value="0.1648292305" flag="0"/>
      <psa10 value="0.0109623763" flag="0"/>
      <psa30 value="0.0012003508" flag="0"/>
    </comp>
  </station>
  <station code="MLSB" name="MLSB" netid="KO" insttype="CMG-3ESP" lat="37.2953" lon="27.7767">
    <comp name="--.HHE">
      <acc value="0.0492965462" flag="0"/>
      <vel value="0.0240309682" flag="0"/>
      <psa03 value="0.1062590357" flag="0"/>
      <psa10 value="0.0138020091" flag="0"/>
      <psa30 value="0.0011673796" flag="0"/>
    </comp>
    <comp name="--.HHN">
      <acc value="0.0422701836" flag="0"/>
      <vel value="0.0244825711" flag="0"/>
      <psa03 value="0.1172205361" flag="0"/>
      <psa10 value="0.0137033206" flag="0"/>
      <psa30 value="0.0008007651" flag="0"/>
    </comp>
    <comp name="--.HHZ">
      <acc value="0.0356504692" flag="0"/>
      <vel value="0.0129461795" flag="0"/>
      <psa03 value="0.0659234193" flag="0"/>
      <psa10 value="0.0045243695" flag="0"/>
      <psa30 value="0.0003932818" flag="0"/>
    </comp>
  </station>
  <station code="NAZL" name="NAZL" netid="KO" insttype="CMG-5T" lat="37.9641" lon="28.2922">
    <comp name="--.HNE">
      <acc value="0.0178546604" flag="0"/>
      <vel value="0.0069100883" flag="0"/>
      <psa03 value="0.0502315804" flag="0"/>
      <psa10 value="0.0035897039" flag="0"/>
      <psa30 value="0.0002758961" flag="0"/>
    </comp>
    <comp name="--.HNN">
      <acc value="0.0269062388" flag="0"/>
      <vel value="0.0098394772" flag="0"/>
      <psa03 value="0.0597790761" flag="0"/>
      <psa10 value="0.0053311753" flag="0"/>
      <psa30 value="0.0002831715" flag="0"/>
    </comp>
    <comp name="--.HNZ">
      <acc value="0.0218125817" flag="0"/>
      <vel value="0.0074204581" flag="0"/>
      <psa03 value="0.0360645827" flag="0"/>
      <psa10 value="0.0023678491" flag="0"/>
      <psa30 value="0.0001472088" flag="0"/>
    </comp>
  </station>
  <station code="YER" name="YER" netid="KO" insttype="CMG-3T" lat="37.1336" lon="28.284">
    <comp name="--.HHZ">
      <acc value="0.0915310644" flag="0"/>
      <vel value="0.0186022586" flag="0"/>
      <psa03 value="0.0664188078" flag="0"/>
      <psa10 value="0.0089344353" flag="0"/>
      <psa30 value="0.0010059187" flag="0"/>
    </comp>
    <comp name="--.HHE">
      <acc value="0.1759379719" flag="0"/>
      <vel value="0.0407631577" flag="0"/>
      <psa03 value="0.1809859057" flag="0"/>
      <psa10 value="0.0180735127" flag="0"/>
      <psa30 value="0.0016221123" flag="0"/>
    </comp>
    <comp name="--.HHN">
      <acc value="0.1648945874" flag="0"/>
      <vel value="0.0393156813" flag="0"/>
      <psa03 value="0.1723157277" flag="0"/>
      <psa10 value="0.0243906357" flag="0"/>
      <psa30 value="0.0021963680" flag="0"/>
    </comp>
  </station>
  <station code="AYDN" name="AYDN" netid="TU" insttype="T" lat="37.6608" lon="27.8792">
    <comp name="--.HHE">
      <acc value="0.4394266279" flag="0"/>
      <vel value="0.1262817283" flag="0"/>
      <psa03 value="1.1465831090" flag="0"/>
      <psa10 value="0.0437954434" flag="0"/>
      <psa30 value="0.0029528955" flag="0"/>
    </comp>
    <comp name="--.HHZ">
      <acc value="0.5572206203" flag="0"/>
      <vel value="0.1371351265" flag="0"/>
      <psa03 value="0.4349369970" flag="0"/>
      <psa10 value="0.0171394709" flag="0"/>
      <psa30 value="0.0017494703" flag="0"/>
    </comp>
    <comp name="--.HHN">
      <acc value="0.3244273352" flag="0"/>
      <vel value="0.1214634626" flag="0"/>
      <psa03 value="0.5189886062" flag="0"/>
      <psa10 value="0.0337261345" flag="0"/>
      <psa30 value="0.0040614336" flag="0"/>
    </comp>
  </station>
</stationlist>
