<?xml version="1.0" encoding="UTF-8" standalone="yes"?>
<!DOCTYPE earthquake SYSTEM "stationlist.dtd">
<stationlist created="" xmlns="ch.ethz.sed.shakemap.usgs.xml">
  <station code="APMY" name="APMY" netid="KO" insttype="CMG-6T" lat="37.4717" lon="29.3018">
    <comp name="--.HHE">
      <acc value="0.0203324565" flag="0"/>
      <vel value="0.0062674371" flag="0"/>
      <psa03 value="0.0352639476" flag="0"/>
      <psa10 value="0.0052361367" flag="0"/>
      <psa30 value="0.0003043773" flag="0"/>
    </comp>
    <comp name="--.HHN">
      <acc value="0.0215375859" flag="0"/>
      <vel value="0.0067852548" flag="0"/>
      <psa03 value="0.0399855223" flag="0"/>
      <psa10 value="0.0051466025" flag="0"/>
      <psa30 value="0.0004564321" flag="0"/>
    </comp>
    <comp name="--.HHZ">
      <acc value="0.0117371930" flag="0"/>
      <vel value="0.0059666452" flag="0"/>
      <psa03 value="0.0327071953" flag="0"/>
      <psa10 value="0.0035604504" flag="0"/>
      <psa30 value="0.0002531127" flag="0"/>
    </comp>
  </station>
  <station code="AYDB" name="AYDB" netid="KO" insttype="CMG-3ESPC" lat="37.9467" lon="27.8908">
    <comp name="--.HHN">
      <acc value="0.0871523742" flag="0"/>
      <vel value="0.0442877248" flag="0"/>
      <psa03 value="0.1818865229" flag="0"/>
      <psa10 value="0.0185518137" flag="0"/>
      <psa30 value="0.0013497317" flag="0"/>
    </comp>
    <comp name="--.HHE">
      <acc value="0.1003138454" flag="0"/>
      <vel value="0.0370650675" flag="0"/>
      <psa03 value="0.2062703812" flag="0"/>
      <psa10 value="0.0148211976" flag="0"/>
      <psa30 value="0.0009621619" flag="0"/>
    </comp>
    <comp name="--.HHZ">
      <acc value="0.0775359255" flag="0"/>
      <vel value="0.0231276256" flag="0"/>
      <psa03 value="0.1198847832" flag="0"/>
      <psa10 value="0.0060278923" flag="0"/>
      <psa30 value="0.0004640374" flag="0"/>
    </comp>
  </station>
  <station code="BODT" name="BODT" netid="KO" insttype="CMG-3ESP" lat="37.0622" lon="27.3103">
    <comp name="--.HHZ">
      <acc value="0.0605609398" flag="0"/>
      <vel value="0.0140908317" flag="0"/>
      <psa03 value="0.0588565279" flag="0"/>
      <psa10 value="0.0030369384" flag="0"/>
      <psa30 value="0.0002856716" flag="0"/>
    </comp>
    <comp name="--.HHN">
      <acc value="0.0681169117" flag="0"/>
      <vel value="0.0178868723" flag="0"/>
      <psa03 value="0.1006665015" flag="0"/>
      <psa10 value="0.0074685457" flag="0"/>
      <psa30 value="0.0004711450" flag="0"/>
    </comp>
    <comp name="--.HHE">
      <acc value="0.1687820520" flag="0"/>
      <vel value="0.0507205594" flag="0"/>
      <psa03 value="0.2408912604" flag="0"/>
      <psa10 value="0.0146449455" flag="0"/>
      <psa30 value="0.0014154875" flag="0"/>
    </comp>
  </station>
  <station code="CAME" name="CAME" netid="KO" insttype="CMG-5T" lat="36.9435" lon="29.3023">
    <comp name="--.HNE">
      <acc value="0.0507242580" flag="0"/>
      <vel value="0.0189987901" flag="0"/>
      <psa03 value="0.1125281062" flag="0"/>
      <psa10 value="0.0081413856" flag="0"/>
      <psa30 value="0.0007583484" flag="0"/>
    </comp>
    <comp name="--.HNN">
      <acc value="0.0538772166" flag="0"/>
      <vel value="0.0191771205" flag="0"/>
      <psa03 value="0.1715712742" flag="0"/>
      <psa10 value="0.0064496277" flag="0"/>
      <psa30 value="0.0006850622" flag="0"/>
    </comp>
    <comp name="--.HNZ">
      <acc value="0.0483248184" flag="0"/>
      <vel value="0.0122238516" flag="0"/>
      <psa03 value="0.0577246729" flag="0"/>
      <psa10 value="0.0058712867" flag="0"/>
      <psa30 value="0.0005083631" flag="0"/>
    </comp>
  </station>
  <station code="DALY" name="DALY" netid="KO" insttype="CMG-3T" lat="36.8162" lon="28.6532">
    <comp name="--.HHZ">
      <acc value="0.1678937501" flag="0"/>
      <vel value="0.0386226859" flag="0"/>
      <psa03 value="0.1304878279" flag="0"/>
      <psa10 value="0.0088473264" flag="0"/>
      <psa30 value="0.0010565889" flag="0"/>
    </comp>
    <comp name="--.HHN">
      <acc value="0.2073769976" flag="0"/>
      <vel value="0.0569222852" flag="0"/>
      <psa03 value="0.3190738149" flag="0"/>
      <psa10 value="0.0197817069" flag="0"/>
      <psa30 value="0.0023862117" flag="0"/>
    </comp>
    <comp name="--.HHE">
      <acc value="0.2174872202" flag="0"/>
      <vel value="0.0554493773" flag="0"/>
      <psa03 value="0.3912822286" flag="0"/>
      <psa10 value="0.0122495467" flag="0"/>
      <psa30 value="0.0009831876" flag="0"/>
    </comp>
  </station>
  <station code="DAT" name="DAT" netid="KO" insttype="CMG-3T" lat="36.7308" lon="27.5767">
    <comp name="--.HHZ">
      <acc value="0.0000282584" flag="0"/>
      <vel value="0.0000029215" flag="0"/>
      <psa03 value="0.0000111121" flag="0"/>
      <psa10 value="0.0000034730" flag="0"/>
      <psa30 value="0.0000005607" flag="0"/>
    </comp>
    <comp name="--.HHN">
      <acc value="0.0895391672" flag="0"/>
      <vel value="0.0307453016" flag="0"/>
      <psa03 value="0.2352897109" flag="0"/>
      <psa10 value="0.0099128879" flag="0"/>
      <psa30 value="0.0008006172" flag="0"/>
    </comp>
    <comp name="--.HHE">
      <acc value="0.1060903280" flag="0"/>
      <vel value="0.0268279200" flag="0"/>
      <psa03 value="0.1289666632" flag="0"/>
      <psa10 value="0.0065080748" flag="0"/>
      <psa30 value="0.0005338520" flag="0"/>
    </comp>
  </station>
  <station code="FETY" name="FETY" netid="KO" insttype="CMG-3ESP" lat="36.6353" lon="29.0835">
    <comp name="--.HHN">
      <acc value="0.1036691280" flag="0"/>
      <vel value="0.0324350098" flag="0"/>
      <psa03 value="0.2642329823" flag="0"/>
      <psa10 value="0.0154171338" flag="0"/>
      <psa30 value="0.0015754785" flag="0"/>
    </comp>
    <comp name="--.HHZ">
      <acc value="0.0707649764" flag="0"/>
      <vel value="0.0278747421" flag="0"/>
      <psa03 value="0.1678045613" flag="0"/>
      <psa10 value="0.0082969348" flag="0"/>
      <psa30 value="0.0009869962" flag="0"/>
    </comp>
    <comp name="--.HHE">
      <acc value="0.1175418086" flag="0"/>
      <vel value="0.0344505423" flag="0"/>
      <psa03 value="0.1648292305" flag="0"/>
      <psa10 value="0.0109623763" flag="0"/>
      <psa30 value="0.0012003508" flag="0"/>
    </comp>
  </station>
  <station code="MLSB" name="MLSB" netid="KO" insttype="CMG-3ESP" lat="37.2953" lon="27.7767">
    <comp name="--.HHE">
      <acc value="0.0492965462" flag="0"/>
      <vel value="0.0240309682" flag="0"/>
      <psa03 value="0.1062590357" flag="0"/>
      <psa10 value="0.0138020091" flag="0"/>
      <psa30 value="0.0011673796" flag="0"/>
    </comp>
    <comp name="--.HHN">
      <acc value="0.0422701836" flag="0"/>
      <vel value="0.0244825711" flag="0"/>
      <psa03 value="0.1172205361" flag="0"/>
      <psa10 value="0.0137033206" flag="0"/>
      <psa30 value="0.0008007651" flag="0"/>
    </comp>
  </station>
  <station code="NAZL" name="NAZL" netid="KO" insttype="CMG-5T" lat="37.9641" lon="28.2922">
    <comp name="--.HNE">
      <acc value="0.0178546604" flag="0"/>
      <vel value="0.0069100883" flag="0"/>
      <psa03 value="0.0502315804" flag="0"/>
      <psa10 value="0.0035897039" flag="0"/>
      <psa30 value="0.0002758961" flag="0"/>
    </comp>
    <comp name="--.HNN">
      <acc value="0.0269062388" flag="0"/>
      <vel value="0.0098394772" flag="0"/>
      <psa03 value="0.0597790761" flag="0"/>
      <psa10 value="0.0053311753" flag="0"/>
      <psa30 value="0.0002831715" flag="0"/>
    </comp>
    <comp name="--.HNZ">
      <acc value="0.0218125817" flag="0"/>
      <vel value="0.0074204581" flag="0"/>
      <psa03 value="0.0360645827" flag="0"/>
      <psa10 value="0.0023678491" flag="0"/>
      <psa30 value="0.0001472088" flag="0"/>
    </comp>
  </station>
  <station code="YER" name="YER" netid="KO" insttype="CMG-3T" lat="37.1336" lon="28.284">
    <comp name="--.HHZ">
      <acc value="0.0915310644" flag="0"/>
      <vel value="0.0186022586" flag="0"/>
      <psa03 value="0.0664188078" flag="0"/>
      <psa10 value="0.0089344353" flag="0"/>
      <psa30 value="0.0010059187" flag="0"/>
    </comp>
    <comp name="--.HHE">
      <acc value="0.1759379719" flag="0"/>
      <vel value="0.0407631577" flag="0"/>
      <psa03 value="0.1809859057" flag="0"/>
      <psa10 value="0.0180735127" flag="0"/>
      <psa30 value="0.0016221123" flag="0"/>
    </comp>
    <comp name="--.HHN">
      <acc value="0.1648945874" flag="0"/>
      <vel value="0.0393156813" flag="0"/>
      <psa03 value="0.1723157277" flag="0"/>
      <psa10 value="0.0243906357" flag="0"/>
      <psa30 value="0.0021963680" flag="0"/>
    </comp>
  </station>
  <station code="AYDN" name="AYDN" netid="TU" insttype="T" lat="37.6608" lon="27.8792">
    <comp name="--.HHE">
      <acc value="0.4394266279" flag="0"/>
      <vel value="0.1262817283" flag="0"/>
      <psa03 value="1.1465831090" flag="0"/>
      <psa10 value="0.0437954434" flag="0"/>
      <psa30 value="0.0029528955" flag="0"/>
    </comp>
    <comp name="--.HHZ">
      <acc value="0.5572206203" flag="0"/>
      <vel value="0.1371351265" flag="0"/>
      <psa03 value="0.4349369970" flag="0"/>
      <psa10 value="0.0171394709" flag="0"/>
      <psa30 value="0.0017494703" flag="0"/>
    </comp>
    <comp name="--.HHN">
      <acc value="0.3244273352" flag="0"/>
      <vel value="0.1214634626" flag="0"/>
      <psa03 value="0.5189886062" flag="0"/>
      <psa10 value="0.0337261345" flag="0"/>
      <psa30 value="0.0040614336" flag="0"/>
    </comp>
  </station>
</stationlist>
