<?xml version="1.0" encoding="UTF-8" standalone="yes"?>
<!DOCTYPE earthquake SYSTEM "stationlist.dtd">
<stationlist created="" xmlns="ch.ethz.sed.shakemap.usgs.xml">
  <station code="CEYT" name="CEYT" netid="KO" insttype="CMG-3ESP" lat="37.0105" lon="35.7478">
    <comp name="--.HHE">
      <acc value="0.0200290062" flag="0"/>
      <vel value="0.0093486120" flag="0"/>
      <psa03 value="0.0499882800" flag="0"/>
      <psa10 value="0.0134625221" flag="0"/>
      <psa30 value="0.0008269780" flag="0"/>
    </comp>
    <comp name="--.HHN">
      <acc value="0.0181801679" flag="0"/>
      <vel value="0.0088975339" flag="0"/>
      <psa03 value="0.0324558280" flag="0"/>
      <psa10 value="0.0160981254" flag="0"/>
      <psa30 value="0.0006180631" flag="0"/>
    </comp>
    <comp name="--.HHZ">
      <acc value="0.0093556719" flag="0"/>
      <vel value="0.0046849487" flag="0"/>
      <psa03 value="0.0265724511" flag="0"/>
      <psa10 value="0.0088401579" flag="0"/>
      <psa30 value="0.0007468284" flag="0"/>
    </comp>
  </station>
  <station code="GAZ" name="GAZ" netid="KO" insttype="CMG-3T" lat="37.1721" lon="37.2096">
    <comp name="--.HHE">
      <acc value="0.0341873959" flag="0"/>
      <vel value="0.0087738287" flag="0"/>
      <psa03 value="0.0601818161" flag="0"/>
      <psa10 value="0.0069030825" flag="0"/>
      <psa30 value="0.0005131185" flag="0"/>
    </comp>
    <comp name="--.HHN">
      <acc value="0.0242362791" flag="0"/>
      <vel value="0.0071085186" flag="0"/>
      <psa03 value="0.0329259538" flag="0"/>
      <psa10 value="0.0046303145" flag="0"/>
      <psa30 value="0.0003760357" flag="0"/>
    </comp>
    <comp name="--.HHZ">
      <acc value="0.0151878382" flag="0"/>
      <vel value="0.0050967568" flag="0"/>
      <psa03 value="0.0242806887" flag="0"/>
      <psa10 value="0.0030622581" flag="0"/>
      <psa30 value="0.0003355233" flag="0"/>
    </comp>
  </station>
  <station code="KMRS" name="KMRS" netid="KO" insttype="CMG-3T" lat="37.5053" lon="36.9">
    <comp name="--.HHN">
      <acc value="0.0383750957" flag="0"/>
      <vel value="0.0150326982" flag="0"/>
      <psa03 value="0.0762293552" flag="0"/>
      <psa10 value="0.0056503228" flag="0"/>
      <psa30 value="0.0010060605" flag="0"/>
    </comp>
    <comp name="--.HHZ">
      <acc value="0.0273132163" flag="0"/>
      <vel value="0.0101964840" flag="0"/>
      <psa03 value="0.0418816767" flag="0"/>
      <psa10 value="0.0048795244" flag="0"/>
      <psa30 value="0.0005805224" flag="0"/>
    </comp>
  </station>
  <station code="SARI" name="SARI" netid="KO" insttype="CMG-3T" lat="38.4072" lon="36.4181">
    <comp name="--.HHZ">
      <acc value="0.0295214404" flag="0"/>
      <vel value="0.0127424886" flag="0"/>
      <psa03 value="0.0728361718" flag="0"/>
      <psa10 value="0.0088911273" flag="0"/>
      <psa30 value="0.0004329893" flag="0"/>
    </comp>
    <comp name="--.HHE">
      <acc value="0.0398139381" flag="0"/>
      <vel value="0.0162700392" flag="0"/>
      <psa03 value="0.0657091317" flag="0"/>
      <psa10 value="0.0117385193" flag="0"/>
      <psa30 value="0.0005578607" flag="0"/>
    </comp>
    <comp name="--.HHN">
      <acc value="0.0379725677" flag="0"/>
      <vel value="0.0154127812" flag="0"/>
      <psa03 value="0.1031338687" flag="0"/>
      <psa10 value="0.0066107610" flag="0"/>
      <psa30 value="0.0004290175" flag="0"/>
    </comp>
  </station>
  <station code="TAHT" name="TAHT" netid="KO" insttype="CMG-3ESPC" lat="36.3755" lon="36.1855">
    <comp name="--.HHZ">
      <acc value="0.0510634869" flag="0"/>
      <vel value="0.0145491275" flag="0"/>
      <psa03 value="0.0743207421" flag="0"/>
      <psa10 value="0.0044718333" flag="0"/>
      <psa30 value="0.0004191124" flag="0"/>
    </comp>
    <comp name="--.HHE">
      <acc value="0.0833086224" flag="0"/>
      <vel value="0.0272534970" flag="0"/>
      <psa03 value="0.1272880926" flag="0"/>
      <psa10 value="0.0117930388" flag="0"/>
      <psa30 value="0.0006805434" flag="0"/>
    </comp>
    <comp name="--.HHN">
      <acc value="0.0600838835" flag="0"/>
      <vel value="0.0178220365" flag="0"/>
      <psa03 value="0.0986911475" flag="0"/>
      <psa10 value="0.0066437667" flag="0"/>
      <psa30 value="0.0004219816" flag="0"/>
    </comp>
  </station>
  <station code="ANDN" name="ANDN" netid="TU" insttype="T" lat="37.58" lon="36.3452">
    <comp name="--.HHZ">
      <acc value="0.2154178774" flag="0"/>
      <vel value="0.0855230958" flag="0"/>
      <psa03 value="0.4775226137" flag="0"/>
      <psa10 value="0.1338108966" flag="0"/>
      <psa30 value="0.0053368717" flag="0"/>
    </comp>
    <comp name="--.HHN">
      <acc value="0.7181211239" flag="0"/>
      <vel value="0.2224384326" flag="0"/>
      <psa03 value="1.6465090772" flag="0"/>
      <psa10 value="0.1506748054" flag="0"/>
      <psa30 value="0.0086177845" flag="0"/>
    </comp>
    <comp name="--.HHE">
      <acc value="0.4764065938" flag="0"/>
      <vel value="0.1897469371" flag="0"/>
      <psa03 value="1.4069524256" flag="0"/>
      <psa10 value="0.1718289674" flag="0"/>
      <psa30 value="0.0094560761" flag="0"/>
    </comp>
  </station>
</stationlist>
