<?xml version="1.0" encoding="UTF-8" standalone="yes"?>
<!DOCTYPE earthquake SYSTEM "stationlist.dtd">
<stationlist created="" xmlns="ch.ethz.sed.shakemap.usgs.xml">
  <station code="CEYT" name="CEYT" netid="KO" insttype="CMG-3ESP" lat="37.0105" lon="35.7478">
    <comp name="--.HHE">
      <acc value="0.0200290062" flag="0"/>
      <vel value="0.0093486126" flag="0"/>
      <psa03 value="0.0499882800" flag="0"/>
      <psa10 value="0.0134625221" flag="0"/>
      <psa30 value="0.0008269799" flag="0"/>
    </comp>
    <comp name="--.HHZ">
      <acc value="0.0093556718" flag="0"/>
      <vel value="0.0046849487" flag="0"/>
      <psa03 value="0.0265724511" flag="0"/>
      <psa10 value="0.0088401579" flag="0"/>
      <psa30 value="0.0007468243" flag="0"/>
    </comp>
    <comp name="--.HHN">
      <acc value="0.0181801679" flag="0"/>
      <vel value="0.0088975313" flag="0"/>
      <psa03 value="0.0324558280" flag="0"/>
      <psa10 value="0.0160981254" flag="0"/>
      <psa30 value="0.0006180531" flag="0"/>
    </comp>
  </station>
  <station code="GAZ" name="GAZ" netid="KO" insttype="CMG-3T" lat="37.1721" lon="37.2096">
    <comp name="--.HHE">
      <acc value="0.0341873961" flag="0"/>
      <vel value="0.0087738284" flag="0"/>
      <psa03 value="0.0601818161" flag="0"/>
      <psa10 value="0.0069030825" flag="0"/>
      <psa30 value="0.0005131123" flag="0"/>
    </comp>
    <comp name="--.HHN">
      <acc value="0.0242362796" flag="0"/>
      <vel value="0.0071085187" flag="0"/>
      <psa03 value="0.0329259538" flag="0"/>
      <psa10 value="0.0046303145" flag="0"/>
      <psa30 value="0.0003760378" flag="0"/>
    </comp>
    <comp name="--.HHZ">
      <acc value="0.0151878383" flag="0"/>
      <vel value="0.0050967568" flag="0"/>
      <psa03 value="0.0242806887" flag="0"/>
      <psa10 value="0.0030622581" flag="0"/>
      <psa30 value="0.0003355231" flag="0"/>
    </comp>
  </station>
  <station code="KMRS" name="KMRS" netid="KO" insttype="CMG-3T" lat="37.5053" lon="36.9">
    <comp name="--.HHZ">
      <acc value="0.0273132163" flag="0"/>
      <vel value="0.0101964840" flag="0"/>
      <psa03 value="0.0418816767" flag="0"/>
      <psa10 value="0.0048795245" flag="0"/>
      <psa30 value="0.0005805278" flag="0"/>
    </comp>
  </station>
  <station code="SARI" name="SARI" netid="KO" insttype="CMG-3T" lat="38.4072" lon="36.4181">
    <comp name="--.HHZ">
      <acc value="0.0295214404" flag="0"/>
      <vel value="0.0127424886" flag="0"/>
      <psa03 value="0.0728361718" flag="0"/>
      <psa10 value="0.0088911273" flag="0"/>
      <psa30 value="0.0004330130" flag="0"/>
    </comp>
    <comp name="--.HHN">
      <acc value="0.0379725677" flag="0"/>
      <vel value="0.0154127815" flag="0"/>
      <psa03 value="0.1031338687" flag="0"/>
      <psa10 value="0.0066107610" flag="0"/>
      <psa30 value="0.0004290299" flag="0"/>
    </comp>
    <comp name="--.HHE">
      <acc value="0.0398139382" flag="0"/>
      <vel value="0.0162700399" flag="0"/>
      <psa03 value="0.0657091317" flag="0"/>
      <psa10 value="0.0117385193" flag="0"/>
      <psa30 value="0.0005578367" flag="0"/>
    </comp>
  </station>
  <station code="TAHT" name="TAHT" netid="KO" insttype="CMG-3ESPC" lat="36.3755" lon="36.1855">
    <comp name="--.HHZ">
      <acc value="0.0510634869" flag="0"/>
      <vel value="0.0145491377" flag="0"/>
      <psa03 value="0.0743207421" flag="0"/>
      <psa10 value="0.0044718333" flag="0"/>
      <psa30 value="0.0004191119" flag="0"/>
    </comp>
    <comp name="--.HHE">
      <acc value="0.0833086223" flag="0"/>
      <vel value="0.0272534792" flag="0"/>
      <psa03 value="0.1272880925" flag="0"/>
      <psa10 value="0.0117930388" flag="0"/>
      <psa30 value="0.0006805282" flag="0"/>
    </comp>
    <comp name="--.HHN">
      <acc value="0.0600838834" flag="0"/>
      <vel value="0.0178220340" flag="0"/>
      <psa03 value="0.0986911474" flag="0"/>
      <psa10 value="0.0066437667" flag="0"/>
      <psa30 value="0.0004219941" flag="0"/>
    </comp>
  </station>
  <station code="ANDN" name="ANDN" netid="TU" insttype="T" lat="37.58" lon="36.3452">
    <comp name="--.HHZ">
      <acc value="0.2154178777" flag="0"/>
      <vel value="0.0855230940" flag="0"/>
      <psa03 value="0.4775226137" flag="0"/>
      <psa10 value="0.1338108965" flag="0"/>
      <psa30 value="0.0053371902" flag="0"/>
    </comp>
    <comp name="--.HHN">
      <acc value="0.7181211239" flag="0"/>
      <vel value="0.2224384332" flag="0"/>
      <psa03 value="1.6465090772" flag="0"/>
      <psa10 value="0.1506748055" flag="0"/>
      <psa30 value="0.0086177374" flag="0"/>
    </comp>
    <comp name="--.HHE">
      <acc value="0.4764065940" flag="0"/>
      <vel value="0.1897469373" flag="0"/>
      <psa03 value="1.4069524256" flag="0"/>
      <psa10 value="0.1718289667" flag="0"/>
      <psa30 value="0.0094562349" flag="0"/>
    </comp>
  </station>
</stationlist>
