<?xml version="1.0" encoding="UTF-8" standalone="yes"?>
<!DOCTYPE earthquake SYSTEM "stationlist.dtd">
<stationlist created="" xmlns="ch.ethz.sed.shakemap.usgs.xml">
  <station code="CEYT" name="CEYT" netid="KO" insttype="CMG-3ESP" lat="37.0105" lon="35.7478">
    <comp name="--.HHE">
      <acc value="0.0200290063" flag="0"/>
      <vel value="0.0093486117" flag="0"/>
      <psa03 value="0.0499882800" flag="0"/>
      <psa10 value="0.0134625221" flag="0"/>
      <psa30 value="0.0008269736" flag="0"/>
    </comp>
    <comp name="--.HHN">
      <acc value="0.0181801677" flag="0"/>
      <vel value="0.0088975352" flag="0"/>
      <psa03 value="0.0324558280" flag="0"/>
      <psa10 value="0.0160981254" flag="0"/>
      <psa30 value="0.0006180837" flag="0"/>
    </comp>
    <comp name="--.HHZ">
      <acc value="0.0093556720" flag="0"/>
      <vel value="0.0046849483" flag="0"/>
      <psa03 value="0.0265724511" flag="0"/>
      <psa10 value="0.0088401579" flag="0"/>
      <psa30 value="0.0007468359" flag="0"/>
    </comp>
  </station>
  <station code="GAZ" name="GAZ" netid="KO" insttype="CMG-3T" lat="37.1721" lon="37.2096">
    <comp name="--.HHE">
      <acc value="0.0341873961" flag="0"/>
      <vel value="0.0087738291" flag="0"/>
      <psa03 value="0.0601818161" flag="0"/>
      <psa10 value="0.0069030825" flag="0"/>
      <psa30 value="0.0005131194" flag="0"/>
    </comp>
    <comp name="--.HHZ">
      <acc value="0.0151878379" flag="0"/>
      <vel value="0.0050967573" flag="0"/>
      <psa03 value="0.0242806887" flag="0"/>
      <psa10 value="0.0030622581" flag="0"/>
      <psa30 value="0.0003355219" flag="0"/>
    </comp>
    <comp name="--.HHN">
      <acc value="0.0242362793" flag="0"/>
      <vel value="0.0071085185" flag="0"/>
      <psa03 value="0.0329259538" flag="0"/>
      <psa10 value="0.0046303145" flag="0"/>
      <psa30 value="0.0003760159" flag="0"/>
    </comp>
  </station>
  <station code="KMRS" name="KMRS" netid="KO" insttype="CMG-3T" lat="37.5053" lon="36.9">
    <comp name="--.HHZ">
      <acc value="0.0273132164" flag="0"/>
      <vel value="0.0101964844" flag="0"/>
      <psa03 value="0.0418816767" flag="0"/>
      <psa10 value="0.0048795242" flag="0"/>
      <psa30 value="0.0005805393" flag="0"/>
    </comp>
  </station>
  <station code="SARI" name="SARI" netid="KO" insttype="CMG-3T" lat="38.4072" lon="36.4181">
    <comp name="--.HHZ">
      <acc value="0.0295214405" flag="0"/>
      <vel value="0.0127424903" flag="0"/>
      <psa03 value="0.0728361718" flag="0"/>
      <psa10 value="0.0088911273" flag="0"/>
      <psa30 value="0.0004329325" flag="0"/>
    </comp>
    <comp name="--.HHN">
      <acc value="0.0379725678" flag="0"/>
      <vel value="0.0154127807" flag="0"/>
      <psa03 value="0.1031338687" flag="0"/>
      <psa10 value="0.0066107610" flag="0"/>
      <psa30 value="0.0004289580" flag="0"/>
    </comp>
    <comp name="--.HHE">
      <acc value="0.0398139380" flag="0"/>
      <vel value="0.0162700389" flag="0"/>
      <psa03 value="0.0657091317" flag="0"/>
      <psa10 value="0.0117385193" flag="0"/>
      <psa30 value="0.0005578725" flag="0"/>
    </comp>
  </station>
  <station code="TAHT" name="TAHT" netid="KO" insttype="CMG-3ESPC" lat="36.3755" lon="36.1855">
    <comp name="--.HHE">
      <acc value="0.0833086222" flag="0"/>
      <vel value="0.0272535018" flag="0"/>
      <psa03 value="0.1272880926" flag="0"/>
      <psa10 value="0.0117930388" flag="0"/>
      <psa30 value="0.0006805566" flag="0"/>
    </comp>
    <comp name="--.HHN">
      <acc value="0.0600838835" flag="0"/>
      <vel value="0.0178220312" flag="0"/>
      <psa03 value="0.0986911474" flag="0"/>
      <psa10 value="0.0066437667" flag="0"/>
      <psa30 value="0.0004219589" flag="0"/>
    </comp>
    <comp name="--.HHZ">
      <acc value="0.0510634870" flag="0"/>
      <vel value="0.0145491263" flag="0"/>
      <psa03 value="0.0743207421" flag="0"/>
      <psa10 value="0.0044718332" flag="0"/>
      <psa30 value="0.0004191150" flag="0"/>
    </comp>
  </station>
  <station code="ANDN" name="ANDN" netid="TU" insttype="T" lat="37.58" lon="36.3452">
    <comp name="--.HHN">
      <acc value="0.7181211246" flag="0"/>
      <vel value="0.2224384332" flag="0"/>
      <psa03 value="1.6465090772" flag="0"/>
      <psa10 value="0.1506748049" flag="0"/>
      <psa30 value="0.0086173915" flag="0"/>
    </comp>
    <comp name="--.HHE">
      <acc value="0.4764065934" flag="0"/>
      <vel value="0.1897469375" flag="0"/>
      <psa03 value="1.4069524256" flag="0"/>
      <psa10 value="0.1718289677" flag="0"/>
      <psa30 value="0.0094556964" flag="0"/>
    </comp>
    <comp name="--.HHZ">
      <acc value="0.2154178775" flag="0"/>
      <vel value="0.0855230940" flag="0"/>
      <psa03 value="0.4775226137" flag="0"/>
      <psa10 value="0.1338108965" flag="0"/>
      <psa30 value="0.0053368510" flag="0"/>
    </comp>
  </station>
</stationlist>
