<?xml version="1.0" encoding="UTF-8" standalone="yes"?>
<!DOCTYPE earthquake SYSTEM "stationlist.dtd">
<stationlist created="" xmlns="ch.ethz.sed.shakemap.usgs.xml">
  <station code="CEYT" name="CEYT" netid="KO" insttype="CMG-3ESP" lat="37.0105" lon="35.7478">
    <comp name="--.HHE">
      <acc value="0.0200290062" flag="0"/>
      <vel value="0.0093486126" flag="0"/>
      <psa03 value="0.0499882800" flag="0"/>
      <psa10 value="0.0134625221" flag="0"/>
      <psa30 value="0.0008269768" flag="0"/>
    </comp>
    <comp name="--.HHZ">
      <acc value="0.0093556719" flag="0"/>
      <vel value="0.0046849497" flag="0"/>
      <psa03 value="0.0265724511" flag="0"/>
      <psa10 value="0.0088401579" flag="0"/>
      <psa30 value="0.0007468284" flag="0"/>
    </comp>
    <comp name="--.HHN">
      <acc value="0.0181801678" flag="0"/>
      <vel value="0.0088975317" flag="0"/>
      <psa03 value="0.0324558280" flag="0"/>
      <psa10 value="0.0160981254" flag="0"/>
      <psa30 value="0.0006180662" flag="0"/>
    </comp>
  </station>
  <station code="GAZ" name="GAZ" netid="KO" insttype="CMG-3T" lat="37.1721" lon="37.2096">
    <comp name="--.HHZ">
      <acc value="0.0151878381" flag="0"/>
      <vel value="0.0050967570" flag="0"/>
      <psa03 value="0.0242806887" flag="0"/>
      <psa10 value="0.0030622581" flag="0"/>
      <psa30 value="0.0003355234" flag="0"/>
    </comp>
    <comp name="--.HHN">
      <acc value="0.0242362794" flag="0"/>
      <vel value="0.0071085188" flag="0"/>
      <psa03 value="0.0329259538" flag="0"/>
      <psa10 value="0.0046303145" flag="0"/>
      <psa30 value="0.0003760274" flag="0"/>
    </comp>
    <comp name="--.HHE">
      <acc value="0.0341873961" flag="0"/>
      <vel value="0.0087738286" flag="0"/>
      <psa03 value="0.0601818161" flag="0"/>
      <psa10 value="0.0069030825" flag="0"/>
      <psa30 value="0.0005131194" flag="0"/>
    </comp>
  </station>
  <station code="KMRS" name="KMRS" netid="KO" insttype="CMG-3T" lat="37.5053" lon="36.9">
    <comp name="--.HHZ">
      <acc value="0.0273132163" flag="0"/>
      <vel value="0.0101964842" flag="0"/>
      <psa03 value="0.0418816767" flag="0"/>
      <psa10 value="0.0048795242" flag="0"/>
      <psa30 value="0.0005805219" flag="0"/>
    </comp>
    <comp name="--.HHN">
      <acc value="0.0383750957" flag="0"/>
      <vel value="0.0150326981" flag="0"/>
      <psa03 value="0.0762293552" flag="0"/>
      <psa10 value="0.0056503228" flag="0"/>
      <psa30 value="0.0010060583" flag="0"/>
    </comp>
  </station>
  <station code="SARI" name="SARI" netid="KO" insttype="CMG-3T" lat="38.4072" lon="36.4181">
    <comp name="--.HHZ">
      <acc value="0.0295214404" flag="0"/>
      <vel value="0.0127424887" flag="0"/>
      <psa03 value="0.0728361718" flag="0"/>
      <psa10 value="0.0088911273" flag="0"/>
      <psa30 value="0.0004329756" flag="0"/>
    </comp>
    <comp name="--.HHE">
      <acc value="0.0398139380" flag="0"/>
      <vel value="0.0162700393" flag="0"/>
      <psa03 value="0.0657091317" flag="0"/>
      <psa10 value="0.0117385193" flag="0"/>
      <psa30 value="0.0005578650" flag="0"/>
    </comp>
    <comp name="--.HHN">
      <acc value="0.0379725677" flag="0"/>
      <vel value="0.0154127813" flag="0"/>
      <psa03 value="0.1031338687" flag="0"/>
      <psa10 value="0.0066107610" flag="0"/>
      <psa30 value="0.0004290081" flag="0"/>
    </comp>
  </station>
  <station code="TAHT" name="TAHT" netid="KO" insttype="CMG-3ESPC" lat="36.3755" lon="36.1855">
    <comp name="--.HHE">
      <acc value="0.0833086223" flag="0"/>
      <vel value="0.0272535036" flag="0"/>
      <psa03 value="0.1272880926" flag="0"/>
      <psa10 value="0.0117930388" flag="0"/>
      <psa30 value="0.0006805200" flag="0"/>
    </comp>
    <comp name="--.HHN">
      <acc value="0.0600838835" flag="0"/>
      <vel value="0.0178220261" flag="0"/>
      <psa03 value="0.0986911474" flag="0"/>
      <psa10 value="0.0066437667" flag="0"/>
      <psa30 value="0.0004220001" flag="0"/>
    </comp>
    <comp name="--.HHZ">
      <acc value="0.0510634870" flag="0"/>
      <vel value="0.0145491351" flag="0"/>
      <psa03 value="0.0743207421" flag="0"/>
      <psa10 value="0.0044718333" flag="0"/>
      <psa30 value="0.0004191140" flag="0"/>
    </comp>
  </station>
  <station code="ANDN" name="ANDN" netid="TU" insttype="T" lat="37.58" lon="36.3452">
    <comp name="--.HHZ">
      <acc value="0.2154178773" flag="0"/>
      <vel value="0.0855230962" flag="0"/>
      <psa03 value="0.4775226137" flag="0"/>
      <psa10 value="0.1338108966" flag="0"/>
      <psa30 value="0.0053367681" flag="0"/>
    </comp>
    <comp name="--.HHE">
      <acc value="0.4764065937" flag="0"/>
      <vel value="0.1897469373" flag="0"/>
      <psa03 value="1.4069524256" flag="0"/>
      <psa10 value="0.1718289677" flag="0"/>
      <psa30 value="0.0094560141" flag="0"/>
    </comp>
    <comp name="--.HHN">
      <acc value="0.7181211238" flag="0"/>
      <vel value="0.2224384322" flag="0"/>
      <psa03 value="1.6465090772" flag="0"/>
      <psa10 value="0.1506748051" flag="0"/>
      <psa30 value="0.0086177514" flag="0"/>
    </comp>
  </station>
</stationlist>
