<?xml version="1.0" encoding="UTF-8" standalone="yes"?>
<!DOCTYPE earthquake SYSTEM "stationlist.dtd">
<stationlist created="" xmlns="ch.ethz.sed.shakemap.usgs.xml">
  <station code="ADA" name="ADA" netid="VI" insttype="CMG-3ESP" commtype="DIG" lat="65.0188" lon="-15.5745">
    <comp name="--.HHN">
      <acc value="0.0275418117" flag="0"/>
      <vel value="0.1584679580" flag="0"/>
      <psa03 value="0.0279585818" flag="0"/>
      <psa10 value="0.0359989531" flag="0"/>
      <psa30 value="0.1022907468" flag="0"/>
    </comp>
    <comp name="--.HHE">
      <acc value="0.0265712111" flag="0"/>
      <vel value="0.0887482428" flag="0"/>
      <psa03 value="0.0314101066" flag="0"/>
      <psa10 value="0.0554755366" flag="0"/>
      <psa30 value="0.0964644591" flag="0"/>
    </comp>
    <comp name="--.HHZ">
      <acc value="0.0375586019" flag="0"/>
      <vel value="0.1270505533" flag="0"/>
      <psa03 value="0.0384529590" flag="0"/>
      <psa10 value="0.0489962707" flag="0"/>
      <psa30 value="0.0962099851" flag="0"/>
    </comp>
  </station>
  <station code="FAG" name="FAG" netid="VI" insttype="CMG-3T" commtype="DIG" lat="63.8748" lon="-16.6536">
    <comp name="--.HHE">
      <acc value="0.0213045737" flag="0"/>
      <vel value="0.1047915586" flag="0"/>
      <psa03 value="0.0258506658" flag="0"/>
      <psa10 value="0.0487974264" flag="0"/>
      <psa30 value="0.0714852797" flag="0"/>
    </comp>
    <comp name="--.HHN">
      <acc value="0.0264375677" flag="0"/>
      <vel value="0.1103118139" flag="0"/>
      <psa03 value="0.0279101987" flag="0"/>
      <psa10 value="0.0507392514" flag="0"/>
      <psa30 value="0.0746144469" flag="0"/>
    </comp>
    <comp name="--.HHZ">
      <acc value="0.0343940296" flag="0"/>
      <vel value="0.1997794730" flag="0"/>
      <psa03 value="0.0379407505" flag="0"/>
      <psa10 value="0.0517678257" flag="0"/>
      <psa30 value="0.0961300064" flag="0"/>
    </comp>
  </station>
  <station code="GIL" name="GIL" netid="VI" insttype="CMG-3ESP" commtype="DIG" lat="66.0773" lon="-16.3513">
    <comp name="--.HHN">
      <acc value="0.0117607985" flag="0"/>
      <vel value="0.0512622946" flag="0"/>
      <psa03 value="0.0119412831" flag="0"/>
      <psa10 value="0.0290479917" flag="0"/>
      <psa30 value="0.0354889236" flag="0"/>
    </comp>
    <comp name="--.HHE">
      <acc value="0.0139330411" flag="0"/>
      <vel value="0.0626446344" flag="0"/>
      <psa03 value="0.0146101370" flag="0"/>
      <psa10 value="0.0283957018" flag="0"/>
      <psa30 value="0.0310975280" flag="0"/>
    </comp>
    <comp name="--.HHZ">
      <acc value="0.0097193959" flag="0"/>
      <vel value="0.0486690167" flag="0"/>
      <psa03 value="0.0113532238" flag="0"/>
      <psa10 value="0.0132076408" flag="0"/>
      <psa30 value="0.0316471804" flag="0"/>
    </comp>
  </station>
  <station code="GOD" name="GOD" netid="VI" insttype="CMG-3ESP" commtype="DIG" lat="63.6598" lon="-19.3224">
    <comp name="--.HHZ">
      <acc value="0.0313899173" flag="0"/>
      <vel value="0.1576316426" flag="0"/>
      <psa03 value="0.0321560607" flag="0"/>
      <psa10 value="0.0666293718" flag="0"/>
      <psa30 value="0.1157062498" flag="0"/>
    </comp>
    <comp name="--.HHN">
      <acc value="0.0573353333" flag="0"/>
      <vel value="0.3386146055" flag="0"/>
      <psa03 value="0.0575485730" flag="0"/>
      <psa10 value="0.0833384777" flag="0"/>
      <psa30 value="0.2093227379" flag="0"/>
    </comp>
    <comp name="--.HHE">
      <acc value="0.1047777807" flag="0"/>
      <vel value="0.5440749477" flag="0"/>
      <psa03 value="0.1064983688" flag="0"/>
      <psa10 value="0.1228027731" flag="0"/>
      <psa30 value="0.3186470533" flag="0"/>
    </comp>
  </station>
  <station code="SKR" name="SKR" netid="VI" insttype="LE-3D/5s" commtype="DIG" lat="64.5601" lon="-18.3865">
    <comp name="--.HHN">
      <acc value="0.3577392943" flag="0"/>
      <vel value="1.2513639803" flag="0"/>
      <psa03 value="0.5345715970" flag="0"/>
      <psa10 value="0.5395869982" flag="0"/>
      <psa30 value="0.4540883094" flag="0"/>
    </comp>
    <comp name="--.HHZ">
      <acc value="0.2416912146" flag="0"/>
      <vel value="0.7887895089" flag="0"/>
      <psa03 value="0.2808375007" flag="0"/>
      <psa10 value="0.4592905592" flag="0"/>
      <psa30 value="0.7481580853" flag="0"/>
    </comp>
    <comp name="--.HHE">
      <acc value="0.2514381058" flag="0"/>
      <vel value="0.9505697137" flag="0"/>
      <psa03 value="0.2743649767" flag="0"/>
      <psa10 value="0.5777889005" flag="0"/>
      <psa30 value="0.7986866451" flag="0"/>
    </comp>
  </station>
</stationlist>
