<stationlist created="1778135766">
	<station code="MYT1" name="MYT1" netid="HI" source="ITSAK Strong Motion Network" insttype="" lat="39.085" lon="26.5694">
		<comp name="--.HNE" depth="0.0">
			<acc value="0.00633684670765191" flag="0"/>
			<vel value="0.00783146094433957" flag="0"/>
			<psa03 value="0.0158812109064587" flag="0"/>
			<psa10 value="0.0156619881548627" flag="0"/>
			<psa30 value="0.00116044156105696" flag="0"/>
		</comp>
		<comp name="--.HNN" depth="0.0">
			<acc value="0.00398739440569207" flag="0"/>
			<vel value="0.0058537164274665" flag="0"/>
			<psa03 value="0.00736479842863506" flag="0"/>
			<psa10 value="0.0138034381600437" flag="0"/>
			<psa30 value="0.00178567183366064" flag="0"/>
		</comp>
		<comp name="--.HNZ" depth="0.0">
			<acc value="0.0033723270473432" flag="0"/>
			<vel value="0.00435973879677007" flag="0"/>
			<psa03 value="0.00715365032649892" flag="0"/>
			<psa10 value="0.00911029851256623" flag="0"/>
			<psa30 value="0.00134087195118505" flag="0"/>
		</comp>
	</station>
	<station code="NAX1" name="NAX1" netid="HI" source="ITSAK Strong Motion Network" insttype="" lat="37.101394" lon="25.374103">
		<comp name="--.HNE" depth="0.0">
			<acc value="0.00660203312053145" flag="0"/>
			<vel value="0.00309227131912804" flag="0"/>
			<psa03 value="0.0153181163125273" flag="0"/>
			<psa10 value="0.00204470107640977" flag="0"/>
			<psa30 value="0.000224184851146269" flag="0"/>
		</comp>
		<comp name="--.HNN" depth="0.0">
			<acc value="0.0092928115196948" flag="0"/>
			<vel value="0.00229317063677641" flag="0"/>
			<psa03 value="0.0113299159159031" flag="0"/>
			<psa10 value="0.00208849788398605" flag="0"/>
			<psa30 value="0.000238657450510001" flag="0"/>
		</comp>
		<comp name="--.HNZ" depth="0.0">
			<acc value="0.00365556805627248" flag="0"/>
			<vel value="0.00157767948467433" flag="0"/>
			<psa03 value="0.00946054338125591" flag="0"/>
			<psa10 value="0.00158314944619416" flag="0"/>
			<psa30 value="0.000154043720265247" flag="0"/>
		</comp>
	</station>
	<station code="KLNA" name="KLNA" netid="HL" source="National Observatory of Athens Seismic Network" insttype="" lat="36.95708" lon="26.97274">
		<comp name="00.HNE" depth="0.0">
			<acc value="0.130243369937576" flag="0"/>
			<vel value="0.0500043092234239" flag="0"/>
			<psa03 value="0.282502292587768" flag="0"/>
			<psa10 value="0.0243379707120751" flag="0"/>
			<psa30 value="0.00111855516545679" flag="0"/>
		</comp>
		<comp name="00.HNN" depth="0.0">
			<acc value="0.117882791278194" flag="0"/>
			<vel value="0.051199162912483" flag="0"/>
			<psa03 value="0.270108701354507" flag="0"/>
			<psa10 value="0.0191272933293112" flag="0"/>
			<psa30 value="0.00119014269604603" flag="0"/>
		</comp>
		<comp name="00.HNZ" depth="0.0">
			<acc value="0.0981151002908937" flag="0"/>
			<vel value="0.0343120875449247" flag="0"/>
			<psa03 value="0.134808268540853" flag="0"/>
			<psa10 value="0.0189662213854854" flag="0"/>
			<psa30 value="0.00176955427175265" flag="0"/>
		</comp>
	</station>
	<station code="PRK" name="PRK" netid="HL" source="National Observatory of Athens Seismic Network" insttype="" lat="39.24565" lon="26.26499">
		<comp name="--.HNE" depth="0.0">
			<acc value="0.00432989398958046" flag="0"/>
			<vel value="0.0035789856726009" flag="0"/>
			<psa03 value="0.0147245678782569" flag="0"/>
			<psa10 value="0.00665642751814855" flag="0"/>
			<psa30 value="0.000562562266991346" flag="0"/>
		</comp>
		<comp name="--.HNN" depth="0.0">
			<acc value="0.00415739901509204" flag="0"/>
			<vel value="0.00493842228268669" flag="0"/>
			<psa03 value="0.0105965978059514" flag="0"/>
			<psa10 value="0.00697776005484896" flag="0"/>
			<psa30 value="0.000660721998755646" flag="0"/>
		</comp>
		<comp name="--.HNZ" depth="0.0">
			<acc value="0.00339828829490892" flag="0"/>
			<vel value="0.00284503572417186" flag="0"/>
			<psa03 value="0.00888829388398324" flag="0"/>
			<psa10 value="0.00339431751312574" flag="0"/>
			<psa30 value="0.000501981482977733" flag="0"/>
		</comp>
	</station>
	<station code="CESE" name="CESE" netid="KO" source="Bogazici University Kandilli Observatory And Earthquake Research Institute (KOERI)" insttype="" lat="38.3306" lon="26.2997">
		<comp name="--.HNE" depth="0.0">
			<acc value="0.00757544464909036" flag="0"/>
			<vel value="0.00459485276062635" flag="0"/>
			<psa03 value="0.0107381295883852" flag="0"/>
			<psa10 value="0.00753816697104642" flag="0"/>
			<psa30 value="0.000659052703487143" flag="0"/>
		</comp>
		<comp name="--.HNN" depth="0.0">
			<acc value="0.0130132521938932" flag="0"/>
			<vel value="0.0101466113060638" flag="0"/>
			<psa03 value="0.0173599761678894" flag="0"/>
			<psa10 value="0.0095918342548251" flag="0"/>
			<psa30 value="0.000923479144601129" flag="0"/>
		</comp>
		<comp name="--.HNZ" depth="0.0">
			<acc value="0.00717397988659611" flag="0"/>
			<vel value="0.00388467039669047" flag="0"/>
			<psa03 value="0.00800885498467064" flag="0"/>
			<psa10 value="0.00622543062886633" flag="0"/>
			<psa30 value="0.000371360314931656" flag="0"/>
		</comp>
	</station>
	<station code="DATC" name="DATC" netid="KO" source="Bogazici University Kandilli Observatory And Earthquake Research Institute (KOERI)" insttype="" lat="36.7584" lon="27.6602">
		<comp name="--.HNE" depth="0.0">
			<acc value="0.248160126038993" flag="0"/>
			<vel value="0.137415302150003" flag="0"/>
			<psa03 value="0.499770447926096" flag="0"/>
			<psa10 value="0.176542904030244" flag="0"/>
			<psa30 value="0.0117877817556499" flag="0"/>
		</comp>
		<comp name="--.HNN" depth="0.0">
			<acc value="0.236050599269579" flag="0"/>
			<vel value="0.0905004298334107" flag="0"/>
			<psa03 value="0.382322155553132" flag="0"/>
			<psa10 value="0.0990995134388101" flag="0"/>
			<psa30 value="0.010081313995229" flag="0"/>
		</comp>
		<comp name="--.HNZ" depth="0.0">
			<acc value="0.208244995469844" flag="0"/>
			<vel value="0.0581251184508896" flag="0"/>
			<psa03 value="0.236238850944475" flag="0"/>
			<psa10 value="0.0664341232309423" flag="0"/>
			<psa30 value="0.00428361886163334" flag="0"/>
		</comp>
	</station>
	<station code="EZNE" name="EZNE" netid="KO" source="Bogazici University Kandilli Observatory And Earthquake Research Institute (KOERI)" insttype="" lat="39.756" lon="26.3655">
		<comp name="--.HNE" depth="0.0">
			<acc value="0.0108434180817411" flag="0"/>
			<vel value="0.00402134866150823" flag="0"/>
			<psa03 value="0.0171362651347981" flag="0"/>
			<psa10 value="0.00587912594964091" flag="0"/>
			<psa30 value="0.00140177333335045" flag="0"/>
		</comp>
		<comp name="--.HNN" depth="0.0">
			<acc value="0.0165754338410599" flag="0"/>
			<vel value="0.00516024912958592" flag="0"/>
			<psa03 value="0.015480803489922" flag="0"/>
			<psa10 value="0.00655160131511353" flag="0"/>
			<psa30 value="0.00154539581659511" flag="0"/>
		</comp>
		<comp name="--.HNZ" depth="0.0">
			<acc value="0.0184891453675872" flag="0"/>
			<vel value="0.00353073869594298" flag="0"/>
			<psa03 value="0.0124383334398795" flag="0"/>
			<psa10 value="0.0043207548931265" flag="0"/>
			<psa30 value="0.00170244096182524" flag="0"/>
		</comp>
	</station>
	<station code="FOCM" name="FOCM" netid="KO" source="Bogazici University Kandilli Observatory And Earthquake Research Institute (KOERI)" insttype="" lat="38.7131" lon="26.7309">
		<comp name="--.HNE" depth="0.0">
			<acc value="0.00288105014856425" flag="0"/>
			<vel value="0.0029175031686343" flag="0"/>
			<psa03 value="0.0183890469201097" flag="0"/>
			<psa10 value="0.00523886497293344" flag="0"/>
			<psa30 value="0.000476504500484594" flag="0"/>
		</comp>
		<comp name="--.HNN" depth="0.0">
			<acc value="0.00248909507714761" flag="0"/>
			<vel value="0.00395464752836572" flag="0"/>
			<psa03 value="0.0163309054156692" flag="0"/>
			<psa10 value="0.00643482415583984" flag="0"/>
			<psa30 value="0.000464424104697661" flag="0"/>
		</comp>
		<comp name="--.HNZ" depth="0.0">
			<acc value="0.00144327989983398" flag="0"/>
			<vel value="0.00160422448491863" flag="0"/>
			<psa03 value="0.0227290409620821" flag="0"/>
			<psa10 value="0.00308050092566801" flag="0"/>
			<psa30 value="0.000502007558257009" flag="0"/>
		</comp>
	</station>
	<station code="GMLD" name="GMLD" netid="KO" source="Bogazici University Kandilli Observatory And Earthquake Research Institute (KOERI)" insttype="" lat="38.0766" lon="26.9157">
		<comp name="--.HNE" depth="0.0">
			<acc value="1.63101266742296" flag="0"/>
			<vel value="0.508685782214582" flag="0"/>
			<psa03 value="1.72105371977844" flag="0"/>
			<psa10 value="0.336660496588855" flag="0"/>
			<psa30 value="0.0212896841751722" flag="0"/>
		</comp>
		<comp name="--.HNN" depth="0.0">
			<acc value="1.739300565761" flag="0"/>
			<vel value="0.508069090360933" flag="0"/>
			<psa03 value="1.94722557423381" flag="0"/>
			<psa10 value="0.176148277767871" flag="0"/>
			<psa30 value="0.0154816983340544" flag="0"/>
		</comp>
		<comp name="--.HNZ" depth="0.0">
			<acc value="1.14846431103972" flag="0"/>
			<vel value="0.24749480290979" flag="0"/>
			<psa03 value="1.74794378595602" flag="0"/>
			<psa10 value="0.0810272413415578" flag="0"/>
			<psa30 value="0.00864374689658392" flag="0"/>
		</comp>
	</station>
	<station code="GOMA" name="GOMA" netid="KO" source="Bogazici University Kandilli Observatory And Earthquake Research Institute (KOERI)" insttype="" lat="38.7077" lon="27.9175">
		<comp name="--.HNE" depth="0.0">
			<acc value="0.0259664631154215" flag="0"/>
			<vel value="0.0150940828516672" flag="0"/>
			<psa03 value="0.0702005221840684" flag="0"/>
			<psa10 value="0.00831533910000581" flag="0"/>
			<psa30 value="0.000599992990751024" flag="0"/>
		</comp>
		<comp name="--.HNN" depth="0.0">
			<acc value="0.0170521448601867" flag="0"/>
			<vel value="0.00929715014136692" flag="0"/>
			<psa03 value="0.047739934461696" flag="0"/>
			<psa10 value="0.00376505668692757" flag="0"/>
			<psa30 value="0.000629970269185266" flag="0"/>
		</comp>
		<comp name="--.HNZ" depth="0.0">
			<acc value="0.0260896860559378" flag="0"/>
			<vel value="0.00867226949235564" flag="0"/>
			<psa03 value="0.0437578780726698" flag="0"/>
			<psa10 value="0.00324962646668508" flag="0"/>
			<psa30 value="0.000333329439306125" flag="0"/>
		</comp>
	</station>
	<station code="GORD" name="GORD" netid="KO" source="Bogazici University Kandilli Observatory And Earthquake Research Institute (KOERI)" insttype="" lat="38.9088" lon="28.1769">
		<comp name="--.HNE" depth="0.0">
			<acc value="0.0230200790772187" flag="0"/>
			<vel value="0.0172887984567195" flag="0"/>
			<psa03 value="0.0741825785730946" flag="0"/>
			<psa10 value="0.0353230772809932" flag="0"/>
			<psa30 value="0.00191407159912967" flag="0"/>
		</comp>
		<comp name="--.HNN" depth="0.0">
			<acc value="0.0168150882048739" flag="0"/>
			<vel value="0.0149780234741416" flag="0"/>
			<psa03 value="0.0483663253543518" flag="0"/>
			<psa10 value="0.0279902770383246" flag="0"/>
			<psa30 value="0.00229930199811299" flag="0"/>
		</comp>
		<comp name="--.HNZ" depth="0.0">
			<acc value="0.0207158504055091" flag="0"/>
			<vel value="0.0164463093230919" flag="0"/>
			<psa03 value="0.0492164272800989" flag="0"/>
			<psa10 value="0.0338855101823481" flag="0"/>
			<psa30 value="0.00301562472607152" flag="0"/>
		</comp>
	</station>
	<station code="NAZL" name="NAZL" netid="KO" source="Bogazici University Kandilli Observatory And Earthquake Research Institute (KOERI)" insttype="" lat="37.9641" lon="28.2922">
		<comp name="--.HNE" depth="0.0">
			<acc value="0.101482899287086" flag="0"/>
			<vel value="0.0763454556808044" flag="0"/>
			<psa03 value="0.391628534529733" flag="0"/>
			<psa10 value="0.0831775517916319" flag="0"/>
			<psa30 value="0.00355432089375551" flag="0"/>
		</comp>
		<comp name="--.HNN" depth="0.0">
			<acc value="0.175959364497168" flag="0"/>
			<vel value="0.0795297887111497" flag="0"/>
			<psa03 value="0.289795272266546" flag="0"/>
			<psa10 value="0.0591214569812519" flag="0"/>
			<psa30 value="0.00443261040967218" flag="0"/>
		</comp>
		<comp name="--.HNZ" depth="0.0">
			<acc value="0.0439575292644145" flag="0"/>
			<vel value="0.024354504959905" flag="0"/>
			<psa03 value="0.106128514098541" flag="0"/>
			<psa10 value="0.0265486831410839" flag="0"/>
			<psa30 value="0.00152347213535215" flag="0"/>
		</comp>
	</station>
	<station code="SMAA" name="SMAA" netid="KO" source="Bogazici University Kandilli Observatory And Earthquake Research Institute (KOERI)" insttype="" lat="39.1005" lon="28.9805">
		<comp name="--.HNE" depth="0.0">
			<acc value="0.00371947698259995" flag="0"/>
			<vel value="0.00517987571014406" flag="0"/>
			<psa03 value="0.00827730822438028" flag="0"/>
			<psa10 value="0.0116334211428168" flag="0"/>
			<psa30 value="0.000816097848717277" flag="0"/>
		</comp>
		<comp name="--.HNN" depth="0.0">
			<acc value="0.00349885136933208" flag="0"/>
			<vel value="0.00445613303360811" flag="0"/>
			<psa03 value="0.00680081540597731" flag="0"/>
			<psa10 value="0.00947103029695576" flag="0"/>
			<psa30 value="0.000580753841905167" flag="0"/>
		</comp>
		<comp name="--.HNZ" depth="0.0">
			<acc value="0.00171019913183366" flag="0"/>
			<vel value="0.0022350653401277" flag="0"/>
			<psa03 value="0.00541380700081088" flag="0"/>
			<psa10 value="0.00543617810412002" flag="0"/>
			<psa30 value="0.000382545866586223" flag="0"/>
		</comp>
	</station>
	<station code="SOMA" name="SOMA" netid="KO" source="Bogazici University Kandilli Observatory And Earthquake Research Institute (KOERI)" insttype="" lat="39.1564" lon="27.5341">
		<comp name="--.HNE" depth="0.0">
			<acc value="0.0246463765079225" flag="0"/>
			<vel value="0.0135027450108534" flag="0"/>
			<psa03 value="0.0927058521130591" flag="0"/>
			<psa10 value="0.0179474413407873" flag="0"/>
			<psa30 value="0.00277177970000193" flag="0"/>
		</comp>
		<comp name="--.HNN" depth="0.0">
			<acc value="0.0318042586938408" flag="0"/>
			<vel value="0.016394763325451" flag="0"/>
			<psa03 value="0.0868446230460655" flag="0"/>
			<psa10 value="0.0199809746315878" flag="0"/>
			<psa30 value="0.00311853180129354" flag="0"/>
		</comp>
		<comp name="--.HNZ" depth="0.0">
			<acc value="0.0223517864119529" flag="0"/>
			<vel value="0.0115335054541223" flag="0"/>
			<psa03 value="0.0739588675400032" flag="0"/>
			<psa10 value="0.00982941537196812" flag="0"/>
			<psa30 value="0.00181608616663565" flag="0"/>
		</comp>
	</station>
	<station code="YKAV" name="YKAV" netid="KO" source="Bogazici University Kandilli Observatory And Earthquake Research Institute (KOERI)" insttype="" lat="37.1246" lon="27.2801">
		<comp name="--.HNE" depth="0.0">
			<acc value="0.0766934594265523" flag="0"/>
			<vel value="0.036360471539661" flag="0"/>
			<psa03 value="0.163845960636111" flag="0"/>
			<psa10 value="0.0333861871564882" flag="0"/>
			<psa30 value="0.00214673107354468" flag="0"/>
		</comp>
		<comp name="--.HNN" depth="0.0">
			<acc value="0.0894159649444457" flag="0"/>
			<vel value="0.0630792338354197" flag="0"/>
			<psa03 value="0.142235474839486" flag="0"/>
			<psa10 value="0.0682663165919605" flag="0"/>
			<psa30 value="0.00345409835093058" flag="0"/>
		</comp>
		<comp name="--.HNZ" depth="0.0">
			<acc value="0.0293621019152826" flag="0"/>
			<vel value="0.0183619735531106" flag="0"/>
			<psa03 value="0.0463529260565295" flag="0"/>
			<psa10 value="0.0274788736166778" flag="0"/>
			<psa30 value="0.00191407159912967" flag="0"/>
		</comp>
	</station>
</stationlist>
