<stationlist created="1642764339">
	<station code="MYT1" name="MYT1" netid="HI" source="ITSAK Strong Motion Network" insttype="" lat="39.085" lon="26.5694">
		<comp name=".HNE" depth="0.0">
			<acc value="0.00632961" flag="0"/>
			<vel value="0.007925" flag="0"/>
			<psa03 value="0.0158834833495" flag="0"/>
			<psa10 value="0.0156602197385" flag="0"/>
			<psa30 value="0.00118253652092" flag="0"/>
		</comp>
		<comp name=".HNN" depth="0.0">
			<acc value="0.003994014" flag="0"/>
			<vel value="0.005987" flag="0"/>
			<psa03 value="0.00738246409201" flag="0"/>
			<psa10 value="0.0138239995788" flag="0"/>
			<psa30 value="0.00188543658689" flag="0"/>
		</comp>
		<comp name=".HNZ" depth="0.0">
			<acc value="0.003521448" flag="0"/>
			<vel value="0.004452" flag="0"/>
			<psa03 value="0.00720349526554" flag="0"/>
			<psa10 value="0.0091488864093" flag="0"/>
			<psa30 value="0.00143354030005" flag="0"/>
		</comp>
	</station>
	<station code="NAX1" name="NAX1" netid="HI" source="ITSAK Strong Motion Network" insttype="" lat="37.101394" lon="25.374103">
		<comp name=".HNE" depth="0.0">
			<acc value="0.00685134" flag="0"/>
			<vel value="0.003174" flag="0"/>
			<psa03 value="0.0153018346634" flag="0"/>
			<psa10 value="0.00208185487395" flag="0"/>
			<psa30 value="0.000303352160872" flag="0"/>
		</comp>
		<comp name=".HNN" depth="0.0">
			<acc value="0.009560868" flag="0"/>
			<vel value="0.002331" flag="0"/>
			<psa03 value="0.0113197782744" flag="0"/>
			<psa10 value="0.00210198886693" flag="0"/>
			<psa30 value="0.000349436633689" flag="0"/>
		</comp>
		<comp name=".HNZ" depth="0.0">
			<acc value="0.00387396" flag="0"/>
			<vel value="0.001603" flag="0"/>
			<psa03 value="0.00944060559646" flag="0"/>
			<psa10 value="0.00157850504949" flag="0"/>
			<psa30 value="0.000227737831687" flag="0"/>
		</comp>
	</station>
	<station code="RDI1" name="RDI1" netid="HI" source="ITSAK Strong Motion Network" insttype="" lat="36.4514" lon="28.224">
		<comp name=".HNE" depth="0.0">
			<acc value="0.006410904" flag="0"/>
			<vel value="0.006416" flag="0"/>
			<psa03 value="0.0161966787958" flag="0"/>
			<psa10 value="0.00843211625928" flag="0"/>
			<psa30 value="0.00189438502822" flag="0"/>
		</comp>
		<comp name=".HNN" depth="0.0">
			<acc value="0.006411312" flag="0"/>
			<vel value="0.006088" flag="0"/>
			<psa03 value="0.0194181176723" flag="0"/>
			<psa10 value="0.00759051535279" flag="0"/>
			<psa30 value="0.00139729911269" flag="0"/>
		</comp>
		<comp name=".HNZ" depth="0.0">
			<acc value="0.005738622" flag="0"/>
			<vel value="0.004238" flag="0"/>
			<psa03 value="0.0148991548039" flag="0"/>
			<psa10 value="0.00699052236204" flag="0"/>
			<psa30 value="0.000640260976707" flag="0"/>
		</comp>
	</station>
	<station code="ASTA" name="ASTA" netid="HL" source="National Observatory of Athens Seismic Network" insttype="" lat="36.54543" lon="26.3528">
		<comp name="00.HNE" depth="0.0">
			<acc value="0.008142456" flag="0"/>
			<vel value="0.005851" flag="0"/>
			<psa03 value="0.0191496644326" flag="0"/>
			<psa10 value="0.00595966192155" flag="0"/>
			<psa30 value="0.00048992716247" flag="0"/>
		</comp>
		<comp name="00.HNN" depth="0.0">
			<acc value="0.009295362" flag="0"/>
			<vel value="0.005097" flag="0"/>
			<psa03 value="0.0124830756465" flag="0"/>
			<psa10 value="0.0050858466263" flag="0"/>
			<psa30 value="0.000433999404197" flag="0"/>
		</comp>
		<comp name="00.HNZ" depth="0.0">
			<acc value="0.004901406" flag="0"/>
			<vel value="0.003414" flag="0"/>
			<psa03 value="0.0133331775722" flag="0"/>
			<psa10 value="0.00523483817434" flag="0"/>
			<psa30 value="0.000757038135981" flag="0"/>
		</comp>
	</station>
	<station code="KLNA" name="KLNA" netid="HL" source="National Observatory of Athens Seismic Network" insttype="" lat="36.95708" lon="26.97274">
		<comp name="00.HNE" depth="0.0">
			<acc value="0.130243392" flag="0"/>
			<vel value="0.050004" flag="0"/>
			<psa03 value="0.282502292588" flag="0"/>
			<psa10 value="0.0243379707121" flag="0"/>
			<psa30 value="0.00111855516546" flag="0"/>
		</comp>
		<comp name="00.HNN" depth="0.0">
			<acc value="0.117882828" flag="0"/>
			<vel value="0.051199" flag="0"/>
			<psa03 value="0.270108701355" flag="0"/>
			<psa10 value="0.0191272933293" flag="0"/>
			<psa30 value="0.00119014269605" flag="0"/>
		</comp>
		<comp name="00.HNZ" depth="0.0">
			<acc value="0.098115126" flag="0"/>
			<vel value="0.034312" flag="0"/>
			<psa03 value="0.134808268541" flag="0"/>
			<psa10 value="0.0189662213855" flag="0"/>
			<psa30 value="0.00176955427175" flag="0"/>
		</comp>
	</station>
	<station code="PRK" name="PRK" netid="HL" source="National Observatory of Athens Seismic Network" insttype="" lat="39.24565" lon="26.26499">
		<comp name=".HNE" depth="0.0">
			<acc value="0.004333368" flag="0"/>
			<vel value="0.003629" flag="0"/>
			<psa03 value="0.0147201859774" flag="0"/>
			<psa10 value="0.00666435167579" flag="0"/>
			<psa30 value="0.00057896415364" flag="0"/>
		</comp>
		<comp name=".HNN" depth="0.0">
			<acc value="0.004174044" flag="0"/>
			<vel value="0.005037" flag="0"/>
			<psa03 value="0.0106039029685" flag="0"/>
			<psa10 value="0.00696636157046" flag="0"/>
			<psa30 value="0.000674265053737" flag="0"/>
		</comp>
		<comp name=".HNZ" depth="0.0">
			<acc value="0.0034068" flag="0"/>
			<vel value="0.002921" flag="0"/>
			<psa03 value="0.00890369911704" flag="0"/>
			<psa10 value="0.00339459121613" flag="0"/>
			<psa30 value="0.000527510616029" flag="0"/>
		</comp>
	</station>
	<station code="RODB" name="RODB" netid="HL" source="National Observatory of Athens Seismic Network" insttype="" lat="36.4471" lon="28.22116">
		<comp name="00.HNE" depth="0.0">
			<acc value="0.005682216" flag="0"/>
			<vel value="0.00665" flag="0"/>
			<psa03 value="0.0149886392171" flag="0"/>
			<psa10 value="0.00921331518683" flag="0"/>
			<psa30 value="0.00122593646134" flag="0"/>
		</comp>
		<comp name="00.HNN" depth="0.0">
			<acc value="0.005269524" flag="0"/>
			<vel value="0.005921" flag="0"/>
			<psa03 value="0.0171810073414" flag="0"/>
			<psa10 value="0.0126320671945" flag="0"/>
			<psa30 value="0.00107202327057" flag="0"/>
		</comp>
		<comp name="00.HNZ" depth="0.0">
			<acc value="0.00835329" flag="0"/>
			<vel value="0.003658" flag="0"/>
			<psa03 value="0.00975380104278" flag="0"/>
			<psa10 value="0.00584691156088" flag="0"/>
			<psa30 value="0.000519904440904" flag="0"/>
		</comp>
	</station>
	<station code="THRA" name="THRA" netid="HL" source="National Observatory of Athens Seismic Network" insttype="" lat="36.41502" lon="25.43244">
		<comp name="00.HNE" depth="0.0">
			<acc value="0.011214594" flag="0"/>
			<vel value="0.008332" flag="0"/>
			<psa03 value="0.0284113012026" flag="0"/>
			<psa10 value="0.0109851065689" flag="0"/>
			<psa30 value="0.00101162129164" flag="0"/>
		</comp>
		<comp name="00.HNN" depth="0.0">
			<acc value="0.010750596" flag="0"/>
			<vel value="0.01196" flag="0"/>
			<psa03 value="0.0234001740614" flag="0"/>
			<psa10 value="0.014440099764" flag="0"/>
			<psa30 value="0.00145546398129" flag="0"/>
		</comp>
		<comp name="00.HNZ" depth="0.0">
			<acc value="0.013525608" flag="0"/>
			<vel value="0.006227" flag="0"/>
			<psa03 value="0.0217894546231" flag="0"/>
			<psa10 value="0.00537174932659" flag="0"/>
			<psa30 value="0.000661737235884" flag="0"/>
		</comp>
	</station>
	<station code="TNSA" name="TNSA" netid="HL" source="National Observatory of Athens Seismic Network" insttype="" lat="37.53942" lon="25.1631">
		<comp name="00.HNE" depth="0.0">
			<acc value="0.004703322" flag="0"/>
			<vel value="0.001785" flag="0"/>
			<psa03 value="0.0103801919354" flag="0"/>
			<psa10 value="0.00223487322058" flag="0"/>
			<psa30 value="0.000176731716142" flag="0"/>
		</comp>
		<comp name="00.HNN" depth="0.0">
			<acc value="0.00646374" flag="0"/>
			<vel value="0.001938" flag="0"/>
			<psa03 value="0.0093063789766" flag="0"/>
			<psa10 value="0.00124025396746" flag="0"/>
			<psa30 value="0.000155702879032" flag="0"/>
		</comp>
		<comp name="00.HNZ" depth="0.0">
			<acc value="0.006320838" flag="0"/>
			<vel value="0.001833" flag="0"/>
			<psa03 value="0.0046531894883" flag="0"/>
			<psa10 value="0.00117985198852" flag="0"/>
			<psa30 value="0.000127962710928" flag="0"/>
		</comp>
	</station>
	<station code="CESE" name="CESE" netid="KO" source="Bogazici University Kandilli Observatory And Earthquake Research Institute (KOERI)" insttype="" lat="38.3306" lon="26.2997">
		<comp name=".HNE" depth="0.0">
			<acc value="0.007406832" flag="0"/>
			<vel value="0.004609" flag="0"/>
			<psa03 value="0.0107381295884" flag="0"/>
			<psa10 value="0.00753816697105" flag="0"/>
			<psa30 value="0.000659052703487" flag="0"/>
		</comp>
		<comp name=".HNN" depth="0.0">
			<acc value="0.012961038" flag="0"/>
			<vel value="0.010194" flag="0"/>
			<psa03 value="0.0173599761679" flag="0"/>
			<psa10 value="0.00959183425483" flag="0"/>
			<psa30 value="0.000923479144601" flag="0"/>
		</comp>
		<comp name=".HNZ" depth="0.0">
			<acc value="0.007025658" flag="0"/>
			<vel value="0.003872" flag="0"/>
			<psa03 value="0.00800885498467" flag="0"/>
			<psa10 value="0.00622543062887" flag="0"/>
			<psa30 value="0.000371360314932" flag="0"/>
		</comp>
	</station>
	<station code="DATC" name="DATC" netid="KO" source="Bogazici University Kandilli Observatory And Earthquake Research Institute (KOERI)" insttype="" lat="36.7584" lon="27.6602">
		<comp name=".HNE" depth="0.0">
			<acc value="0.246460662" flag="0"/>
			<vel value="0.136931" flag="0"/>
			<psa03 value="0.499770447926" flag="0"/>
			<psa10 value="0.17654290403" flag="0"/>
			<psa30 value="0.0117877817556" flag="0"/>
		</comp>
		<comp name=".HNN" depth="0.0">
			<acc value="0.229218888" flag="0"/>
			<vel value="0.090177" flag="0"/>
			<psa03 value="0.382322155553" flag="0"/>
			<psa10 value="0.0990995134388" flag="0"/>
			<psa30 value="0.0100813139952" flag="0"/>
		</comp>
		<comp name=".HNZ" depth="0.0">
			<acc value="0.205502664" flag="0"/>
			<vel value="0.057841" flag="0"/>
			<psa03 value="0.236238850944" flag="0"/>
			<psa10 value="0.0664341232309" flag="0"/>
			<psa30 value="0.00428361886163" flag="0"/>
		</comp>
	</station>
	<station code="EZNE" name="EZNE" netid="KO" source="Bogazici University Kandilli Observatory And Earthquake Research Institute (KOERI)" insttype="" lat="39.756" lon="26.3655">
		<comp name=".HNE" depth="0.0">
			<acc value="0.01095888" flag="0"/>
			<vel value="0.004241" flag="0"/>
			<psa03 value="0.0171362651348" flag="0"/>
			<psa10 value="0.00587912594964" flag="0"/>
			<psa30 value="0.00140177333335" flag="0"/>
		</comp>
		<comp name=".HNN" depth="0.0">
			<acc value="0.020898576" flag="0"/>
			<vel value="0.005192" flag="0"/>
			<psa03 value="0.0154808034899" flag="0"/>
			<psa10 value="0.00655160131511" flag="0"/>
			<psa30 value="0.0015453958166" flag="0"/>
		</comp>
		<comp name=".HNZ" depth="0.0">
			<acc value="0.02001597" flag="0"/>
			<vel value="0.004125" flag="0"/>
			<psa03 value="0.0124383334399" flag="0"/>
			<psa10 value="0.00432075489313" flag="0"/>
			<psa30 value="0.00170244096183" flag="0"/>
		</comp>
	</station>
	<station code="FOCM" name="FOCM" netid="KO" source="Bogazici University Kandilli Observatory And Earthquake Research Institute (KOERI)" insttype="" lat="38.7131" lon="26.7309">
		<comp name=".HNE" depth="0.0">
			<acc value="0.012625254" flag="0"/>
			<vel value="0.005665" flag="0"/>
			<psa03 value="0.0183890469201" flag="0"/>
			<psa10 value="0.00523886497293" flag="0"/>
			<psa30 value="0.000476504500485" flag="0"/>
		</comp>
		<comp name=".HNN" depth="0.0">
			<acc value="0.01256232" flag="0"/>
			<vel value="0.005308" flag="0"/>
			<psa03 value="0.0163309054157" flag="0"/>
			<psa10 value="0.00643482415584" flag="0"/>
			<psa30 value="0.000464424104698" flag="0"/>
		</comp>
		<comp name=".HNZ" depth="0.0">
			<acc value="0.013263774" flag="0"/>
			<vel value="0.003668" flag="0"/>
			<psa03 value="0.0227290409621" flag="0"/>
			<psa10 value="0.00308050092567" flag="0"/>
			<psa30 value="0.000502007558257" flag="0"/>
		</comp>
	</station>
	<station code="GMLD" name="GMLD" netid="KO" source="Bogazici University Kandilli Observatory And Earthquake Research Institute (KOERI)" insttype="" lat="38.0766" lon="26.9157">
		<comp name=".HNE" depth="0.0">
			<acc value="1.61051676" flag="0"/>
			<vel value="0.505851" flag="0"/>
			<psa03 value="1.72105371978" flag="0"/>
			<psa10 value="0.336660496589" flag="0"/>
			<psa30 value="0.0212896841752" flag="0"/>
		</comp>
		<comp name=".HNN" depth="0.0">
			<acc value="1.724682606" flag="0"/>
			<vel value="0.503688" flag="0"/>
			<psa03 value="1.94722557423" flag="0"/>
			<psa10 value="0.176148277768" flag="0"/>
			<psa30 value="0.0154816983341" flag="0"/>
		</comp>
		<comp name=".HNZ" depth="0.0">
			<acc value="1.102761984" flag="0"/>
			<vel value="0.245963" flag="0"/>
			<psa03 value="1.74794378596" flag="0"/>
			<psa10 value="0.0810272413416" flag="0"/>
			<psa30 value="0.00864374689658" flag="0"/>
		</comp>
	</station>
	<station code="GOMA" name="GOMA" netid="KO" source="Bogazici University Kandilli Observatory And Earthquake Research Institute (KOERI)" insttype="" lat="38.7077" lon="27.9175">
		<comp name=".HNE" depth="0.0">
			<acc value="0.025683294" flag="0"/>
			<vel value="0.015042" flag="0"/>
			<psa03 value="0.0702005221841" flag="0"/>
			<psa10 value="0.00831533910001" flag="0"/>
			<psa30 value="0.000599992990751" flag="0"/>
		</comp>
		<comp name=".HNN" depth="0.0">
			<acc value="0.01704318" flag="0"/>
			<vel value="0.009299" flag="0"/>
			<psa03 value="0.0477399344617" flag="0"/>
			<psa10 value="0.00376505668693" flag="0"/>
			<psa30 value="0.000629970269185" flag="0"/>
		</comp>
		<comp name=".HNZ" depth="0.0">
			<acc value="0.025826604" flag="0"/>
			<vel value="0.008525" flag="0"/>
			<psa03 value="0.0437578780727" flag="0"/>
			<psa10 value="0.00324962646669" flag="0"/>
			<psa30 value="0.000333329439306" flag="0"/>
		</comp>
	</station>
	<station code="GORD" name="GORD" netid="KO" source="Bogazici University Kandilli Observatory And Earthquake Research Institute (KOERI)" insttype="" lat="38.9088" lon="28.1769">
		<comp name=".HNE" depth="0.0">
			<acc value="0.02293725" flag="0"/>
			<vel value="0.017276" flag="0"/>
			<psa03 value="0.0741825785731" flag="0"/>
			<psa10 value="0.035323077281" flag="0"/>
			<psa30 value="0.00191407159913" flag="0"/>
		</comp>
		<comp name=".HNN" depth="0.0">
			<acc value="0.017121108" flag="0"/>
			<vel value="0.014977" flag="0"/>
			<psa03 value="0.0483663253544" flag="0"/>
			<psa10 value="0.0279902770383" flag="0"/>
			<psa30 value="0.00229930199811" flag="0"/>
		</comp>
		<comp name=".HNZ" depth="0.0">
			<acc value="0.020693964" flag="0"/>
			<vel value="0.016425" flag="0"/>
			<psa03 value="0.0492164272801" flag="0"/>
			<psa10 value="0.0338855101823" flag="0"/>
			<psa30 value="0.00301562472607" flag="0"/>
		</comp>
	</station>
	<station code="NAZL" name="NAZL" netid="KO" source="Bogazici University Kandilli Observatory And Earthquake Research Institute (KOERI)" insttype="" lat="37.9641" lon="28.2922">
		<comp name=".HNE" depth="0.0">
			<acc value="0.101174004" flag="0"/>
			<vel value="0.076056" flag="0"/>
			<psa03 value="0.39162853453" flag="0"/>
			<psa10 value="0.0831775517916" flag="0"/>
			<psa30 value="0.00355432089376" flag="0"/>
		</comp>
		<comp name=".HNN" depth="0.0">
			<acc value="0.175562604" flag="0"/>
			<vel value="0.079308" flag="0"/>
			<psa03 value="0.289795272267" flag="0"/>
			<psa10 value="0.0591214569813" flag="0"/>
			<psa30 value="0.00443261040967" flag="0"/>
		</comp>
		<comp name=".HNZ" depth="0.0">
			<acc value="0.04382226" flag="0"/>
			<vel value="0.02426" flag="0"/>
			<psa03 value="0.106128514099" flag="0"/>
			<psa10 value="0.0265486831411" flag="0"/>
			<psa30 value="0.00152347213535" flag="0"/>
		</comp>
	</station>
	<station code="SMAA" name="SMAA" netid="KO" source="Bogazici University Kandilli Observatory And Earthquake Research Institute (KOERI)" insttype="" lat="39.1005" lon="28.9805">
		<comp name=".HNE" depth="0.0">
			<acc value="0.003798888" flag="0"/>
			<vel value="0.005286" flag="0"/>
			<psa03 value="0.00827730822438" flag="0"/>
			<psa10 value="0.0116334211428" flag="0"/>
			<psa30 value="0.000816097848717" flag="0"/>
		</comp>
		<comp name=".HNN" depth="0.0">
			<acc value="0.003934446" flag="0"/>
			<vel value="0.004612" flag="0"/>
			<psa03 value="0.00680081540598" flag="0"/>
			<psa10 value="0.00947103029696" flag="0"/>
			<psa30 value="0.000580753841905" flag="0"/>
		</comp>
		<comp name=".HNZ" depth="0.0">
			<acc value="0.002397918" flag="0"/>
			<vel value="0.002204" flag="0"/>
			<psa03 value="0.00541380700081" flag="0"/>
			<psa10 value="0.00543617810412" flag="0"/>
			<psa30 value="0.000382545866586" flag="0"/>
		</comp>
	</station>
	<station code="SOMA" name="SOMA" netid="KO" source="Bogazici University Kandilli Observatory And Earthquake Research Institute (KOERI)" insttype="" lat="39.1564" lon="27.5341">
		<comp name=".HNE" depth="0.0">
			<acc value="0.029662926" flag="0"/>
			<vel value="0.014531" flag="0"/>
			<psa03 value="0.0927058521131" flag="0"/>
			<psa10 value="0.0179474413408" flag="0"/>
			<psa30 value="0.0027717797" flag="0"/>
		</comp>
		<comp name=".HNN" depth="0.0">
			<acc value="0.036535176" flag="0"/>
			<vel value="0.017081" flag="0"/>
			<psa03 value="0.0868446230461" flag="0"/>
			<psa10 value="0.0199809746316" flag="0"/>
			<psa30 value="0.00311853180129" flag="0"/>
		</comp>
		<comp name=".HNZ" depth="0.0">
			<acc value="0.026927388" flag="0"/>
			<vel value="0.011778" flag="0"/>
			<psa03 value="0.07395886754" flag="0"/>
			<psa10 value="0.00982941537197" flag="0"/>
			<psa30 value="0.00181608616664" flag="0"/>
		</comp>
	</station>
	<station code="YKAV" name="YKAV" netid="KO" source="Bogazici University Kandilli Observatory And Earthquake Research Institute (KOERI)" insttype="" lat="37.1246" lon="27.2801">
		<comp name=".HNE" depth="0.0">
			<acc value="0.076409832" flag="0"/>
			<vel value="0.036219" flag="0"/>
			<psa03 value="0.163845960636" flag="0"/>
			<psa10 value="0.0333861871565" flag="0"/>
			<psa30 value="0.00214673107354" flag="0"/>
		</comp>
		<comp name=".HNN" depth="0.0">
			<acc value="0.089327826" flag="0"/>
			<vel value="0.063076" flag="0"/>
			<psa03 value="0.142235474839" flag="0"/>
			<psa10 value="0.068266316592" flag="0"/>
			<psa30 value="0.00345409835093" flag="0"/>
		</comp>
		<comp name=".HNZ" depth="0.0">
			<acc value="0.029363352" flag="0"/>
			<vel value="0.018306" flag="0"/>
			<psa03 value="0.0463529260565" flag="0"/>
			<psa10 value="0.0274788736167" flag="0"/>
			<psa30 value="0.00191407159913" flag="0"/>
		</comp>
	</station>
</stationlist>
