<stationlist created="1631873513">
	<station code="KLNA" name="KLNA" netid="HL" source="National Observatory of Athens Seismic Network" insttype="" lat="36.95708" lon="26.97274">
		<comp name="--.HNE" depth="0.0">
			<acc value="0.130243392" flag="0"/>
			<vel value="0.050004" flag="0"/>
			<psa03 value="0.282502292588" flag="0"/>
			<psa10 value="0.0243379707121" flag="0"/>
			<psa30 value="0.00111855516546" flag="0"/>
		</comp>
		<comp name="--.HNN" depth="0.0">
			<acc value="-0.117882828" flag="0"/>
			<vel value="-0.051199" flag="0"/>
			<psa03 value="0.270108701355" flag="0"/>
			<psa10 value="0.0191272933293" flag="0"/>
			<psa30 value="0.00119014269605" flag="0"/>
		</comp>
		<comp name="--.HNZ" depth="0.0">
			<acc value="-0.098115126" flag="0"/>
			<vel value="0.034312" flag="0"/>
			<psa03 value="0.134808268541" flag="0"/>
			<psa10 value="0.0189662213855" flag="0"/>
			<psa30 value="0.00176955427175" flag="0"/>
		</comp>
	</station>
	<station code="GMLD" name="GMLD" netid="KO" source="Bogazici University Kandilli Observatory And Earthquake Research Institute (KOERI)" insttype="" lat="38.0766" lon="26.9157">
		<comp name="--.HNE" depth="0.0">
			<acc value="-1.61051676" flag="0"/>
			<vel value="-0.505851" flag="0"/>
			<psa03 value="1.72105371978" flag="0"/>
			<psa10 value="0.336660496589" flag="0"/>
			<psa30 value="0.0212896841752" flag="0"/>
		</comp>
		<comp name="--.HNN" depth="0.0">
			<acc value="1.724682606" flag="0"/>
			<vel value="0.503688" flag="0"/>
			<psa03 value="1.94722557423" flag="0"/>
			<psa10 value="0.176148277768" flag="0"/>
			<psa30 value="0.0154816983341" flag="0"/>
		</comp>
		<comp name="--.HNZ" depth="0.0">
			<acc value="1.102761984" flag="0"/>
			<vel value="0.245963" flag="0"/>
			<psa03 value="1.74794378596" flag="0"/>
			<psa10 value="0.0810272413416" flag="0"/>
			<psa30 value="0.00864374689658" flag="0"/>
		</comp>
	</station>
</stationlist>
