<?xml version="1.0" encoding="UTF-8" standalone="yes"?>
<!DOCTYPE earthquake SYSTEM "stationlist.dtd">
<stationlist created="" xmlns="ch.ethz.sed.shakemap.usgs.xml">
  <station code="KRL1" name="KRL1" netid="HI" insttype="CMG-5TD,ACCELEROMETER,GURALP" lat="37.7951" lon="26.7065">
    <comp name="--.HNE">
      <acc value="0.4675340684" flag="0"/>
      <vel value="0.1216411689" flag="0"/>
      <psa03 value="0.4001664800" flag="0"/>
      <psa10 value="0.0625198495" flag="0"/>
      <psa30 value="0.0045052827" flag="0"/>
    </comp>
    <comp name="--.HNN">
      <acc value="0.5250244903" flag="0"/>
      <vel value="0.2499162687" flag="0"/>
      <psa03 value="0.8053916602" flag="0"/>
      <psa10 value="0.1227539298" flag="0"/>
      <psa30 value="0.0086280378" flag="0"/>
    </comp>
    <comp name="--.HNZ">
      <acc value="0.2595998884" flag="0"/>
      <vel value="0.0552825805" flag="0"/>
      <psa03 value="0.2536165146" flag="0"/>
      <psa10 value="0.0533132849" flag="0"/>
      <psa30 value="0.0026703834" flag="0"/>
    </comp>
  </station>
  <station code="GMLD" name="GMLD" netid="KO" insttype="100" lat="38.0764" lon="26.8747">
    <comp name="--.HNE">
      <acc value="0.2613166965" flag="0"/>
      <vel value="0.0801649148" flag="0"/>
      <psa03 value="0.2736276117" flag="0"/>
      <psa10 value="0.0535137607" flag="0"/>
      <psa30 value="0.0033176835" flag="0"/>
    </comp>
    <comp name="--.HNZ">
      <acc value="0.1916133463" flag="0"/>
      <vel value="0.0389694180" flag="0"/>
      <psa03 value="0.2833462533" flag="0"/>
      <psa10 value="0.0128388920" flag="0"/>
      <psa30 value="0.0013386290" flag="0"/>
    </comp>
    <comp name="--.HNN">
      <acc value="0.2721927249" flag="0"/>
      <vel value="0.0790296170" flag="0"/>
      <psa03 value="0.3164876412" flag="0"/>
      <psa10 value="0.0279930714" flag="0"/>
      <psa30 value="0.0023634976" flag="0"/>
    </comp>
  </station>
  <station code="AYDN" name="AYDN" netid="TU" source="ODC" insttype="T" lat="37.6608" lon="27.8792">
    <comp name="--.HHZ">
      <acc value="0.0704272635" flag="0"/>
      <vel value="0.0237254503" flag="0"/>
      <psa03 value="0.0843156914" flag="0"/>
      <psa10 value="0.0102268393" flag="0"/>
      <psa30 value="0.0011503536" flag="0"/>
    </comp>
    <comp name="--.HHN">
      <acc value="0.0780374372" flag="0"/>
      <vel value="0.0258732928" flag="0"/>
      <psa03 value="0.1717725885" flag="0"/>
      <psa10 value="0.0290541280" flag="0"/>
      <psa30 value="0.0023388292" flag="0"/>
    </comp>
    <comp name="--.HHE">
      <acc value="0.1520803124" flag="0"/>
      <vel value="0.0471909578" flag="0"/>
      <psa03 value="0.2495690372" flag="0"/>
      <psa10 value="0.0251187682" flag="0"/>
      <psa30 value="0.0019363623" flag="0"/>
    </comp>
  </station>
</stationlist>
