<?xml version="1.0" encoding="UTF-8" standalone="yes"?>
<!DOCTYPE earthquake SYSTEM "stationlist.dtd">
<stationlist created="" xmlns="ch.ethz.sed.shakemap.usgs.xml">
  <station code="BALJ" name="BALJ" netid="GE" insttype="STS-2/N" commtype="DIG" lat="32.0873" lon="35.64">
    <comp name="--.HHE">
      <acc value="0.0272119535" flag="0"/>
      <vel value="0.0074859152" flag="0"/>
      <psa03 value="0.0476590272" flag="0"/>
      <psa10 value="0.0064191814" flag="0"/>
      <psa30 value="0.0003606181" flag="0"/>
    </comp>
    <comp name="--.HHN">
      <acc value="0.0205314117" flag="0"/>
      <vel value="0.0076558519" flag="0"/>
      <psa03 value="0.0595675803" flag="0"/>
      <psa10 value="0.0045189577" flag="0"/>
      <psa30 value="0.0003613666" flag="0"/>
    </comp>
    <comp name="--.HHZ">
      <acc value="0.0187432165" flag="0"/>
      <vel value="0.0047842399" flag="0"/>
      <psa03 value="0.0301906168" flag="0"/>
      <psa10 value="0.0019726472" flag="0"/>
      <psa30 value="0.0002187949" flag="0"/>
    </comp>
  </station>
  <station code="GHAJ" name="GHAJ" netid="GE" insttype="Trillium-240" commtype="DIG" lat="31.3034" lon="35.5665">
    <comp name="--.HHZ">
      <acc value="0.2694750526" flag="0"/>
      <vel value="0.0807873775" flag="0"/>
      <psa03 value="0.3170728674" flag="0"/>
      <psa10 value="0.0122711824" flag="0"/>
      <psa30 value="0.0014597126" flag="0"/>
    </comp>
    <comp name="--.HHE">
      <acc value="0.2718598244" flag="0"/>
      <vel value="0.1066895081" flag="0"/>
      <psa03 value="0.6016402846" flag="0"/>
      <psa10 value="0.0307230913" flag="0"/>
      <psa30 value="0.0027178071" flag="0"/>
    </comp>
    <comp name="--.HHN">
      <acc value="0.3499619995" flag="0"/>
      <vel value="0.1307946534" flag="0"/>
      <psa03 value="0.7449399954" flag="0"/>
      <psa10 value="0.0455134964" flag="0"/>
      <psa30 value="0.0034391228" flag="0"/>
    </comp>
  </station>
  <station code="MSBI" name="MSBI" netid="GE" insttype="Trillium-240" commtype="DIG" lat="31.3126" lon="35.358">
    <comp name="--.HHE">
      <acc value="0.0863710283" flag="0"/>
      <vel value="0.0348024449" flag="0"/>
      <psa03 value="0.1174293631" flag="0"/>
      <psa10 value="0.0151344148" flag="0"/>
      <psa30 value="0.0013790761" flag="0"/>
    </comp>
    <comp name="--.HHN">
      <acc value="0.0610057701" flag="0"/>
      <vel value="0.0156201061" flag="0"/>
      <psa03 value="0.0770554890" flag="0"/>
      <psa10 value="0.0096851712" flag="0"/>
      <psa30 value="0.0012072779" flag="0"/>
    </comp>
    <comp name="--.HHZ">
      <acc value="0.0582779900" flag="0"/>
      <vel value="0.0185213643" flag="0"/>
      <psa03 value="0.0943032125" flag="0"/>
      <psa10 value="0.0071855210" flag="0"/>
      <psa30 value="0.0006211378" flag="0"/>
    </comp>
  </station>
</stationlist>
