<stationlist xmlns:esm="https://esm-db.eu/esmws/shakemap/1/" created="1781229270">
	<station code="BSSO" name="BSSO" netid="IV" source="Italian National Seismic Network (INSN)" insttype="" lat="41.5461" lon="14.5938" esm:processing="manual (Paolucci et al 2011)" esm:quality="good">
		<comp name="--.HNE" depth="0.0">
			<acc value="0.00131469252189241" flag="0"/>
			<vel value="0.00470452357159227" flag="0"/>
			<psa03 value="0.0023713369507684" flag="0"/>
			<psa10 value="0.00318922448775041" flag="0"/>
			<psa30 value="0.00231227723803228" flag="0"/>
		</comp>
		<comp name="--.HNN" depth="0.0">
			<acc value="0.00175450295291275" flag="0"/>
			<vel value="0.00437674369830443" flag="0"/>
			<psa03 value="0.00232659474415013" flag="0"/>
			<psa10 value="0.0043932372678481" flag="0"/>
			<psa30 value="0.00156284527717623" flag="0"/>
		</comp>
		<comp name="--.HNZ" depth="0.0">
			<acc value="0.000804896675174215" flag="0"/>
			<vel value="0.00320259410714944" flag="0"/>
			<psa03 value="0.00201339929782223" flag="0"/>
			<psa10 value="0.00235165037985636" flag="0"/>
			<psa30 value="0.00131363118631246" flag="0"/>
		</comp>
	</station>
	<station code="BULG" name="BULG" netid="IV" source="Italian National Seismic Network (INSN)" insttype="" lat="40.0783" lon="15.3776" esm:processing="manual (Paolucci et al 2011)" esm:quality="bad">
		<comp name="--.HNE" depth="1.0">
			<acc value="0.000657074766105131" flag="0"/>
			<vel value="0.00230185616516069" flag="0"/>
			<psa03 value="0.00187917267796741" flag="0"/>
			<psa10 value="0.00128454875201058" flag="0"/>
			<psa30 value="0.00167022657306008" flag="0"/>
		</comp>
		<comp name="--.HNN" depth="1.0">
			<acc value="0.000845607733673897" flag="0"/>
			<vel value="0.0021078932759149" flag="0"/>
			<psa03 value="0.00192391488458569" flag="0"/>
			<psa10 value="0.00215433724866978" flag="0"/>
			<psa30 value="0.00182995625068731" flag="0"/>
		</comp>
		<comp name="--.HNZ" depth="1.0">
			<acc value="0.000811534674443181" flag="0"/>
			<vel value="0.00394987866923844" flag="0"/>
			<psa03 value="0.000984328545601979" flag="0"/>
			<psa10 value="0.00182011296523129" flag="0"/>
			<psa30 value="0.00256954492608735" flag="0"/>
		</comp>
	</station>
	<station code="CAFE" name="CAFE" netid="IV" source="Italian National Seismic Network (INSN)" insttype="" lat="41.028" lon="15.2366" esm:processing="manual (Paolucci et al 2011)" esm:quality="bad">
		<comp name="--.HNE" depth="0.0">
			<acc value="0.00108127862888042" flag="0"/>
			<vel value="0.00381413772779675" flag="0"/>
			<psa03 value="0.00196865709120396" flag="0"/>
			<psa10 value="0.0024362131503649" flag="0"/>
			<psa30 value="0.00223576806471504" flag="0"/>
		</comp>
		<comp name="--.HNN" depth="0.0">
			<acc value="0.0010182707705976" flag="0"/>
			<vel value="0.00264626529615718" flag="0"/>
			<psa03 value="0.00134226619854815" flag="0"/>
			<psa10 value="0.00235970397704765" flag="0"/>
			<psa30 value="0.00155344941378639" flag="0"/>
		</comp>
		<comp name="--.HNZ" depth="0.0">
			<acc value="0.000688119329712283" flag="0"/>
			<vel value="0.0029302483185791" flag="0"/>
			<psa03 value="0.00138700840516642" flag="0"/>
			<psa10 value="0.00173152339612712" flag="0"/>
			<psa30 value="0.00223800517504595" flag="0"/>
		</comp>
	</station>
	<station code="CERA" name="CERA" netid="IV" source="Italian National Seismic Network (INSN)" insttype="" lat="41.5978" lon="14.0183" esm:processing="manual (Paolucci et al 2011)" esm:quality="good">
		<comp name="--.HNE" depth="0.0">
			<acc value="0.00316776867516321" flag="0"/>
			<vel value="0.00516883343345253" flag="0"/>
			<psa03 value="0.0079193705714341" flag="0"/>
			<psa10 value="0.0129542110821882" flag="0"/>
			<psa30 value="0.00161743076925052" flag="0"/>
		</comp>
		<comp name="--.HNN" depth="0.0">
			<acc value="0.00187639596721838" flag="0"/>
			<vel value="0.00356670608177006" flag="0"/>
			<psa03 value="0.00536906479419261" flag="0"/>
			<psa10 value="0.00597174231734073" flag="0"/>
			<psa30 value="0.00086934107459302" flag="0"/>
		</comp>
		<comp name="--.HNZ" depth="0.0">
			<acc value="0.00181845499042854" flag="0"/>
			<vel value="0.0027476476954434" flag="0"/>
			<psa03 value="0.00425050962873582" flag="0"/>
			<psa10 value="0.0085327862241706" flag="0"/>
			<psa30 value="0.00108947273115492" flag="0"/>
		</comp>
	</station>
	<station code="IOCA" name="IOCA" netid="IV" source="Italian National Seismic Network (INSN)" insttype="" lat="40.746797" lon="13.90142" esm:processing="manual (Paolucci et al 2011)" esm:quality="good">
		<comp name="--.HNE" depth="0.0">
			<acc value="28.0639161233073" flag="0"/>
			<vel value="17.8015316980556" flag="0"/>
			<psa03 value="46.7350245010496" flag="0"/>
			<psa10 value="22.4249192352563" flag="0"/>
			<psa30 value="1.611444262005" flag="0"/>
		</comp>
		<comp name="--.HNN" depth="0.0">
			<acc value="19.1901350894947" flag="0"/>
			<vel value="11.4620780380288" flag="0"/>
			<psa03 value="29.7151338456656" flag="0"/>
			<psa10 value="21.2393491927267" flag="0"/>
			<psa30 value="1.19739540773885" flag="0"/>
		</comp>
		<comp name="--.HNZ" depth="0.0">
			<acc value="27.6234163570253" flag="0"/>
			<vel value="11.8093044710655" flag="0"/>
			<psa03 value="70.6054391539637" flag="0"/>
			<psa10 value="6.00540635360032" flag="0"/>
			<psa30 value="0.846285415522625" flag="0"/>
		</comp>
	</station>
	<station code="MCEL" name="MCEL" netid="IV" source="Italian National Seismic Network (INSN)" insttype="" lat="40.3249" lon="15.8019" esm:processing="manual (Paolucci et al 2011)" esm:quality="bad">
		<comp name="--.HNE" depth="0.0">
			<acc value="0.000401498150423333" flag="0"/>
			<vel value="0.00150864595161687" flag="0"/>
			<psa03 value="0.000939586338983707" flag="0"/>
			<psa10 value="0.00132481673796703" flag="0"/>
			<psa30 value="0.000881868892446136" flag="0"/>
		</comp>
		<comp name="--.HNN" depth="0.0">
			<acc value="0.00063798523152872" flag="0"/>
			<vel value="0.00143907911054747" flag="0"/>
			<psa03 value="0.00107381295883852" flag="0"/>
			<psa10 value="0.0023274895882825" flag="0"/>
			<psa30 value="0.000876947249718126" flag="0"/>
		</comp>
		<comp name="--.HNZ" depth="0.0">
			<acc value="0.000303804438487824" flag="0"/>
			<vel value="0.00169340582595844" flag="0"/>
			<psa03 value="0.000850101925747163" flag="0"/>
			<psa10 value="0.000712743351429069" flag="0"/>
			<psa30 value="0.000962404864359025" flag="0"/>
		</comp>
	</station>
	<station code="MIDA" name="MIDA" netid="IV" source="Italian National Seismic Network (INSN)" insttype="" lat="41.64188" lon="14.25402" esm:processing="manual (Paolucci et al 2011)" esm:quality="bad">
		<comp name="--.HNE" depth="0.0">
			<acc value="0.0014144710667064" flag="0"/>
			<vel value="0.00287659367487539" flag="0"/>
			<psa03 value="0.00308721225666075" flag="0"/>
			<psa10 value="0.00383753906164917" flag="0"/>
			<psa30 value="0.00131184149804773" flag="0"/>
		</comp>
		<comp name="--.HNN" depth="0.0">
			<acc value="0.00126812405916268" flag="0"/>
			<vel value="0.00232151559384522" flag="0"/>
			<psa03 value="0.00286350122356939" flag="0"/>
			<psa10 value="0.00255299030963859" flag="0"/>
			<psa30 value="0.00179774186192216" flag="0"/>
		</comp>
		<comp name="--.HNZ" depth="0.0">
			<acc value="0.000912804811439038" flag="0"/>
			<vel value="0.00205216011544783" flag="0"/>
			<psa03 value="0.0017449460581126" flag="0"/>
			<psa10 value="0.00171541620174454" flag="0"/>
			<psa30 value="0.00134137135441579" flag="0"/>
		</comp>
	</station>
	<station code="MRB1" name="MRB1" netid="IV" source="Italian National Seismic Network (INSN)" insttype="" lat="41.1227" lon="14.96815" esm:processing="manual (Paolucci et al 2011)" esm:quality="bad">
		<comp name="--.HNE" depth="0.0">
			<acc value="0.002956293358581" flag="0"/>
			<vel value="0.00820322490115977" flag="0"/>
			<psa03 value="0.00568226024052051" flag="0"/>
			<psa10 value="0.00884687651463087" flag="0"/>
			<psa30 value="0.00302457316739517" flag="0"/>
		</comp>
		<comp name="--.HNN" depth="0.0">
			<acc value="0.00311476462276352" flag="0"/>
			<vel value="0.00753114615742907" flag="0"/>
			<psa03 value="0.00800885498467064" flag="0"/>
			<psa10 value="0.0101918272455761" flag="0"/>
			<psa30 value="0.00281741675075257" flag="0"/>
		</comp>
		<comp name="--.HNZ" depth="0.0">
			<acc value="0.00172796266279904" flag="0"/>
			<vel value="0.0027035018810636" flag="0"/>
			<psa03 value="0.00599545568684842" flag="0"/>
			<psa10 value="0.0032697604596633" flag="0"/>
			<psa30 value="0.00140222075541664" flag="0"/>
		</comp>
	</station>
	<station code="MRLC" name="MRLC" netid="IV" source="Italian National Seismic Network (INSN)" insttype="" lat="40.7564" lon="15.48892" esm:processing="manual (Paolucci et al 2011)" esm:quality="bad">
		<comp name="--.HNE" depth="0.0">
			<acc value="0.000347926236859088" flag="0"/>
			<vel value="0.00100305619427132" flag="0"/>
			<psa03 value="0.000626390892655805" flag="0"/>
			<psa10 value="0.000720796948620358" flag="0"/>
			<psa30 value="0.000764644311106264" flag="0"/>
		</comp>
		<comp name="--.HNN" depth="0.0">
			<acc value="0.000372967285048546" flag="0"/>
			<vel value="0.000801048395895036" flag="0"/>
			<psa03 value="0.000939586338983707" flag="0"/>
			<psa10 value="0.00103488723908063" flag="0"/>
			<psa30 value="0.000583885796368446" flag="0"/>
		</comp>
		<comp name="--.HNZ" depth="0.0">
			<acc value="0.000240035781999075" flag="0"/>
			<vel value="0.000811660542567998" flag="0"/>
			<psa03 value="0.000536906479419261" flag="0"/>
			<psa10 value="0.000583885796368446" flag="0"/>
			<psa30 value="0.000424603540807399" flag="0"/>
		</comp>
	</station>
	<station code="PAOL" name="PAOL" netid="IV" source="Italian National Seismic Network (INSN)" insttype="" lat="41.031206" lon="14.567486" esm:processing="manual (Paolucci et al 2011)" esm:quality="good">
		<comp name="--.HNE" depth="0.0">
			<acc value="0.00351096993506383" flag="0"/>
			<vel value="0.00302427047152984" flag="0"/>
			<psa03 value="0.0090379257368909" flag="0"/>
			<psa10 value="0.00423619212261797" flag="0"/>
			<psa30 value="0.0023946028982099" flag="0"/>
		</comp>
		<comp name="--.HNN" depth="0.0">
			<acc value="0.00493094168137467" flag="0"/>
			<vel value="0.00395600016952153" flag="0"/>
			<psa03 value="0.0168230696884702" flag="0"/>
			<psa10 value="0.00580664357491931" flag="0"/>
			<psa30 value="0.00178745115439996" flag="0"/>
		</comp>
		<comp name="--.HNZ" depth="0.0">
			<acc value="0.00225081325782258" flag="0"/>
			<vel value="0.00256831349539524" flag="0"/>
			<psa03 value="0.00456370507506372" flag="0"/>
			<psa10 value="0.0023274895882825" flag="0"/>
			<psa30 value="0.00187201392490849" flag="0"/>
		</comp>
	</station>
	<station code="PIGN" name="PIGN" netid="IV" source="Italian National Seismic Network (INSN)" insttype="" lat="41.200001" lon="14.17989" esm:processing="manual (Paolucci et al 2011)" esm:quality="best">
		<comp name="--.HNE" depth="2.0">
			<acc value="0.00419703959592619" flag="0"/>
			<vel value="0.00487926173207383" flag="0"/>
			<psa03 value="0.00930637897660052" flag="0"/>
			<psa10 value="0.00525094536872037" flag="0"/>
			<psa30 value="0.00193778496863735" flag="0"/>
		</comp>
		<comp name="--.HNN" depth="2.0">
			<acc value="0.00353420054222836" flag="0"/>
			<vel value="0.00446695510866055" flag="0"/>
			<psa03 value="0.00908266794350917" flag="0"/>
			<psa10 value="0.00474759554426481" flag="0"/>
			<psa30 value="0.00252569756360144" flag="0"/>
		</comp>
		<comp name="--.HNZ" depth="2.0">
			<acc value="0.00365430774796612" flag="0"/>
			<vel value="0.00416963604064801" flag="0"/>
			<psa03 value="0.00653236216626768" flag="0"/>
			<psa10 value="0.00549658008305468" flag="0"/>
			<psa30 value="0.00224605877223724" flag="0"/>
		</comp>
	</station>
	<station code="POFI" name="POFI" netid="IV" source="Italian National Seismic Network (INSN)" insttype="" lat="41.71743" lon="13.71202" esm:processing="manual (Paolucci et al 2011)" esm:quality="bad">
		<comp name="--.HNE" depth="0.0">
			<acc value="0.000869142473249856" flag="0"/>
			<vel value="0.00223298046201201" flag="0"/>
			<psa03 value="0.00214762591767704" flag="0"/>
			<psa10 value="0.00251272232368214" flag="0"/>
			<psa30 value="0.00103130786255116" flag="0"/>
		</comp>
		<comp name="--.HNN" depth="0.0">
			<acc value="0.00080134521645148" flag="0"/>
			<vel value="0.00252132512328637" flag="0"/>
			<psa03 value="0.00178968826473087" flag="0"/>
			<psa10 value="0.00200534570063094" flag="0"/>
			<psa30 value="0.00123801685712758" flag="0"/>
		</comp>
		<comp name="--.HNZ" depth="0.0">
			<acc value="0.000824215992167392" flag="0"/>
			<vel value="0.00257517576503487" flag="0"/>
			<psa03 value="0.00214762591767704" flag="0"/>
			<psa10 value="0.00166709461859681" flag="0"/>
			<psa30 value="0.00106173256305159" flag="0"/>
		</comp>
	</station>
	<station code="PSB1" name="PSB1" netid="IV" source="Italian National Seismic Network (INSN)" insttype="" lat="41.22345" lon="14.81078" esm:processing="manual (Paolucci et al 2011)" esm:quality="bad">
		<comp name="--.HNE" depth="0.0">
			<acc value="0.00138253482154576" flag="0"/>
			<vel value="0.00392923733752788" flag="0"/>
			<psa03 value="0.00192391488458569" flag="0"/>
			<psa10 value="0.00365633312484517" flag="0"/>
			<psa30 value="0.00324694193428798" flag="0"/>
		</comp>
		<comp name="--.HNN" depth="0.0">
			<acc value="0.00175015122081765" flag="0"/>
			<vel value="0.00416837480528636" flag="0"/>
			<psa03 value="0.00272927460371458" flag="0"/>
			<psa10 value="0.0036321723332713" flag="0"/>
			<psa30 value="0.00247603371425516" flag="0"/>
		</comp>
		<comp name="--.HNZ" depth="0.0">
			<acc value="0.000818811133078596" flag="0"/>
			<vel value="0.0021928102176655" flag="0"/>
			<psa03 value="0.00156597723163951" flag="0"/>
			<psa10 value="0.00282278581554677" flag="0"/>
			<psa30 value="0.000871130762857751" flag="0"/>
		</comp>
	</station>
	<station code="RM33" name="RM33" netid="IV" source="Italian National Seismic Network (INSN)" insttype="" lat="42.50898" lon="13.21452" esm:processing="manual (Paolucci et al 2011)" esm:quality="bad">
		<comp name="--.HNE" depth="0.0">
			<acc value="0.000406148319554238" flag="0"/>
			<vel value="0.000874050395709088" flag="0"/>
			<psa03 value="0.000626390892655805" flag="0"/>
			<psa10 value="0.00104294083627191" flag="0"/>
			<psa30 value="0.000347199523357789" flag="0"/>
		</comp>
		<comp name="--.HNN" depth="0.0">
			<acc value="0.00042657227286642" flag="0"/>
			<vel value="0.000989024621974276" flag="0"/>
			<psa03 value="0.000626390892655805" flag="0"/>
			<psa10 value="0.000765091733172447" flag="0"/>
			<psa30 value="0.000465766370896209" flag="0"/>
		</comp>
		<comp name="--.HNZ" depth="0.0">
			<acc value="0.00034414832482059" flag="0"/>
			<vel value="0.00105103755516228" flag="0"/>
			<psa03 value="0.000402679859564446" flag="0"/>
			<psa10 value="0.000487242630072979" flag="0"/>
			<psa30 value="0.000328407796578115" flag="0"/>
		</comp>
	</station>
	<station code="RNI2" name="RNI2" netid="IV" source="Italian National Seismic Network (INSN)" insttype="" lat="41.70328" lon="14.1524" esm:processing="manual (Paolucci et al 2011)" esm:quality="good">
		<comp name="--.HNE" depth="0.0">
			<acc value="0.00150465208346536" flag="0"/>
			<vel value="0.0038672981409502" flag="0"/>
			<psa03 value="0.00362411873608001" flag="0"/>
			<psa10 value="0.00482007791898642" flag="0"/>
			<psa30 value="0.00189841182681327" flag="0"/>
		</comp>
		<comp name="--.HNN" depth="0.0">
			<acc value="0.00156846119006349" flag="0"/>
			<vel value="0.0056163472912743" flag="0"/>
			<psa03 value="0.0023713369507684" flag="0"/>
			<psa10 value="0.00344291279927601" flag="0"/>
			<psa30 value="0.0026303943270882" flag="0"/>
		</comp>
		<comp name="--.HNZ" depth="0.0">
			<acc value="0.00147800849550609" flag="0"/>
			<vel value="0.00430932721298302" flag="0"/>
			<psa03 value="0.00156597723163951" flag="0"/>
			<psa10 value="0.00359995794450615" flag="0"/>
			<psa30 value="0.00240399876159974" flag="0"/>
		</comp>
	</station>
	<station code="SACR" name="SACR" netid="IV" source="Italian National Seismic Network (INSN)" insttype="" lat="41.3974" lon="14.7057" esm:processing="manual (Paolucci et al 2011)" esm:quality="bad">
		<comp name="--.HNE" depth="0.0">
			<acc value="0.00136029897209353" flag="0"/>
			<vel value="0.00317929405188694" flag="0"/>
			<psa03 value="0.00178968826473087" flag="0"/>
			<psa10 value="0.00336640362595877" flag="0"/>
			<psa30 value="0.00225903401215654" flag="0"/>
		</comp>
		<comp name="--.HNN" depth="0.0">
			<acc value="0.00159162655925627" flag="0"/>
			<vel value="0.0033318007334451" flag="0"/>
			<psa03 value="0.00210288371105877" flag="0"/>
			<psa10 value="0.0028348662113337" flag="0"/>
			<psa30 value="0.00248990379830682" flag="0"/>
		</comp>
		<comp name="--.HNZ" depth="0.0">
			<acc value="0.000935955453590446" flag="0"/>
			<vel value="0.00218292675094174" flag="0"/>
			<psa03 value="0.00156597723163951" flag="0"/>
			<psa10 value="0.00344693959787166" flag="0"/>
			<psa30 value="0.00135434659433509" flag="0"/>
		</comp>
	</station>
	<station code="SNAL" name="SNAL" netid="IV" source="Italian National Seismic Network (INSN)" insttype="" lat="40.92542" lon="15.20908" esm:processing="manual (Paolucci et al 2011)" esm:quality="bad">
		<comp name="--.HNE" depth="0.0">
			<acc value="0.0023085119246654" flag="0"/>
			<vel value="0.00726754638833635" flag="0"/>
			<psa03 value="0.00255030577724149" flag="0"/>
			<psa10 value="0.00633818098954438" flag="0"/>
			<psa30 value="0.00318653995535331" flag="0"/>
		</comp>
		<comp name="--.HNN" depth="0.0">
			<acc value="0.00306010071420733" flag="0"/>
			<vel value="0.00991308576001998" flag="0"/>
			<psa03 value="0.00322143887651557" flag="0"/>
			<psa10 value="0.00842003586349256" flag="0"/>
			<psa30 value="0.00437444554106843" flag="0"/>
		</comp>
		<comp name="--.HNZ" depth="0.0">
			<acc value="0.00175569218765744" flag="0"/>
			<vel value="0.00563133906003051" flag="0"/>
			<psa03 value="0.00201339929782223" flag="0"/>
			<psa10 value="0.00480397072460384" flag="0"/>
			<psa30 value="0.00360666927549889" flag="0"/>
		</comp>
	</station>
	<station code="TRIV" name="TRIV" netid="IV" source="Italian National Seismic Network (INSN)" insttype="" lat="41.7666" lon="14.5502" esm:processing="manual (Paolucci et al 2011)" esm:quality="bad">
		<comp name="--.HNE" depth="0.0">
			<acc value="0.000780272568759385" flag="0"/>
			<vel value="0.00334090727695419" flag="0"/>
			<psa03 value="0.00125278178531161" flag="0"/>
			<psa10 value="0.00213823005428721" flag="0"/>
			<psa30 value="0.002350755535724" flag="0"/>
		</comp>
		<comp name="--.HNN" depth="0.0">
			<acc value="0.000900712739829671" flag="0"/>
			<vel value="0.00364645908462824" flag="0"/>
			<psa03 value="0.00192391488458569" flag="0"/>
			<psa10 value="0.00167514821578809" flag="0"/>
			<psa30 value="0.00206664252369797" flag="0"/>
		</comp>
		<comp name="--.HNZ" depth="0.0">
			<acc value="0.000673256387008197" flag="0"/>
			<vel value="0.0026640988466642" flag="0"/>
			<psa03 value="0.00134226619854815" flag="0"/>
			<psa10 value="0.0020013189020353" flag="0"/>
			<psa30 value="0.00217491866371419" flag="0"/>
		</comp>
	</station>
	<station code="VAGA" name="VAGA" netid="IV" source="Italian National Seismic Network (INSN)" insttype="" lat="41.4154" lon="14.2342" esm:processing="manual (Paolucci et al 2011)" esm:quality="good">
		<comp name="--.HNE" depth="0.0">
			<acc value="0.00398211420879247" flag="0"/>
			<vel value="0.0038123528717607" flag="0"/>
			<psa03 value="0.00867998808394472" flag="0"/>
			<psa10 value="0.00868983136940074" flag="0"/>
			<psa30 value="0.00121609317588463" flag="0"/>
		</comp>
		<comp name="--.HNN" depth="0.0">
			<acc value="0.00627696912880321" flag="0"/>
			<vel value="0.00501672417289186" flag="0"/>
			<psa03 value="0.0195076020855665" flag="0"/>
