<?xml version="1.0" encoding="UTF-8" standalone="yes"?>
<!DOCTYPE earthquake SYSTEM "stationlist.dtd">
<stationlist created="" xmlns="ch.ethz.sed.shakemap.usgs.xml">
  <station code="BIOG" name="BIOG" netid="IV" source="INGV" insttype="" lat="41.1999" lon="15.1326">
    <comp name="--.HHE">
      <acc value="0.0030626455" flag="0"/>
      <vel value="0.0082192399" flag="0"/>
      <psa03 value="0.0035020187" flag="0"/>
      <psa10 value="0.0070180296" flag="0"/>
      <psa30 value="0.0052832022" flag="0"/>
    </comp>
    <comp name="--.HHN">
      <acc value="0.0025201009" flag="0"/>
      <vel value="0.0069315320" flag="0"/>
      <psa03 value="0.0031333719" flag="0"/>
      <psa10 value="0.0068436591" flag="0"/>
      <psa30 value="0.0050129472" flag="0"/>
    </comp>
    <comp name="--.HHZ">
      <acc value="0.0020663160" flag="0"/>
      <vel value="0.0072467212" flag="0"/>
      <psa03 value="0.0028437204" flag="0"/>
      <psa10 value="0.0055906753" flag="0"/>
      <psa30 value="0.0062005369" flag="0"/>
    </comp>
  </station>
  <station code="BSSO" name="BSSO" netid="IV" source="INGV" insttype="" lat="41.5461" lon="14.5938">
    <comp name="--.HHE">
      <acc value="0.0005611224" flag="0"/>
      <vel value="0.0015277427" flag="0"/>
      <psa03 value="0.0010021395" flag="0"/>
      <psa10 value="0.0012944774" flag="0"/>
      <psa30 value="0.0008282114" flag="0"/>
    </comp>
    <comp name="--.HHN">
      <acc value="0.0007341051" flag="0"/>
      <vel value="0.0017638974" flag="0"/>
      <psa03 value="0.0009941549" flag="0"/>
      <psa10 value="0.0018695664" flag="0"/>
      <psa30 value="0.0004978738" flag="0"/>
    </comp>
    <comp name="--.HHZ">
      <acc value="0.0003397037" flag="0"/>
      <vel value="0.0009691942" flag="0"/>
      <psa03 value="0.0008659811" flag="0"/>
      <psa10 value="0.0009345849" flag="0"/>
      <psa30 value="0.0004227450" flag="0"/>
    </comp>
  </station>
  <station code="CAFE" name="CAFE" netid="IV" source="INGV" insttype="" lat="41.028" lon="15.2366">
    <comp name="--.HHE">
      <acc value="0.0010585109" flag="0"/>
      <vel value="0.0027024986" flag="0"/>
      <psa03 value="0.0019025407" flag="0"/>
      <psa10 value="0.0025246967" flag="0"/>
      <psa30 value="0.0017470143" flag="0"/>
    </comp>
    <comp name="--.HHN">
      <acc value="0.0009099799" flag="0"/>
      <vel value="0.0021725829" flag="0"/>
      <psa03 value="0.0013242757" flag="0"/>
      <psa10 value="0.0025035608" flag="0"/>
      <psa30 value="0.0013810412" flag="0"/>
    </comp>
    <comp name="--.HHZ">
      <acc value="0.0006253315" flag="0"/>
      <vel value="0.0021438626" flag="0"/>
      <psa03 value="0.0013826194" flag="0"/>
      <psa10 value="0.0017115451" flag="0"/>
      <psa30 value="0.0018827057" flag="0"/>
    </comp>
  </station>
  <station code="CAFL" name="CAFL" netid="IV" source="INGV" insttype="" lat="40.8439" lon="14.0935">
    <comp name="--.HHE">
      <acc value="0.1687094759" flag="0"/>
      <vel value="0.0402001783" flag="0"/>
      <psa03 value="0.1384178900" flag="0"/>
      <psa10 value="0.0451913066" flag="0"/>
      <psa30 value="0.0168075911" flag="0"/>
    </comp>
    <comp name="--.HHN">
      <acc value="0.1311469285" flag="0"/>
      <vel value="0.0392652478" flag="0"/>
      <psa03 value="0.1250914073" flag="0"/>
      <psa10 value="0.0452657642" flag="0"/>
      <psa30 value="0.0186423387" flag="0"/>
    </comp>
    <comp name="--.HHZ">
      <acc value="0.3490145833" flag="0"/>
      <vel value="0.0378238395" flag="0"/>
      <psa03 value="0.0814412886" flag="0"/>
      <psa10 value="0.0327846908" flag="0"/>
      <psa30 value="0.0066098797" flag="0"/>
    </comp>
  </station>
  <station code="CMSN" name="CMSN" netid="IV" source="INGV" insttype="" lat="40.8382" lon="14.1818">
    <comp name="--.HHE">
      <acc value="0.0196952475" flag="0"/>
      <vel value="0.0486093025" flag="0"/>
      <psa03 value="0.0328062343" flag="0"/>
      <psa10 value="0.0542996128" flag="0"/>
      <psa30 value="0.0167017592" flag="0"/>
    </comp>
    <comp name="--.HHN">
      <acc value="0.0168005746" flag="0"/>
      <vel value="0.0353843725" flag="0"/>
      <psa03 value="0.0383753079" flag="0"/>
      <psa10 value="0.0468696098" flag="0"/>
      <psa30 value="0.0117243797" flag="0"/>
    </comp>
    <comp name="--.HHZ">
      <acc value="0.0191482160" flag="0"/>
      <vel value="0.0278386437" flag="0"/>
      <psa03 value="0.0401967705" flag="0"/>
      <psa10 value="0.0316169634" flag="0"/>
      <psa30 value="0.0101836420" flag="0"/>
    </comp>
  </station>
  <station code="CPIS" name="CPIS" netid="IV" source="INGV" insttype="" lat="40.8292" lon="14.147">
    <comp name="--.HHE">
      <acc value="0.0899926167" flag="0"/>
      <vel value="0.1551090595" flag="0"/>
      <psa03 value="0.1802708883" flag="0"/>
      <psa10 value="0.1589606782" flag="0"/>
      <psa30 value="0.0959715014" flag="0"/>
    </comp>
    <comp name="--.HHN">
      <acc value="0.0236413835" flag="0"/>
      <vel value="0.0389011908" flag="0"/>
      <psa03 value="0.0324969472" flag="0"/>
      <psa10 value="0.0450399214" flag="0"/>
      <psa30 value="0.0190133461" flag="0"/>
    </comp>
    <comp name="--.HHZ">
      <acc value="0.0437329275" flag="0"/>
      <vel value="0.0368033382" flag="0"/>
      <psa03 value="0.0728463481" flag="0"/>
      <psa10 value="0.0580994495" flag="0"/>
      <psa30 value="0.0143745391" flag="0"/>
    </comp>
  </station>
  <station code="CSOB" name="CSOB" netid="IV" source="INGV" insttype="" lat="40.8275" lon="14.1443">
    <comp name="--.HHE">
      <acc value="0.0544877068" flag="0"/>
      <vel value="0.0466435871" flag="0"/>
      <psa03 value="0.1922830634" flag="0"/>
      <psa10 value="0.0454169271" flag="0"/>
      <psa30 value="0.0272256681" flag="0"/>
    </comp>
    <comp name="--.HHN">
      <acc value="0.0000000000" flag="0"/>
      <vel value="0.0000000000" flag="0"/>
    </comp>
    <comp name="--.HHZ">
      <acc value="0.0334397279" flag="0"/>
      <vel value="0.0350074726" flag="0"/>
      <psa03 value="0.0815589987" flag="0"/>
      <psa10 value="0.0319692902" flag="0"/>
      <psa30 value="0.0115916562" flag="0"/>
    </comp>
  </station>
  <station code="GATE" name="GATE" netid="IV" source="INGV" insttype="" lat="41.5131" lon="14.9102">
    <comp name="--.HHE">
      <acc value="0.0007477599" flag="0"/>
      <vel value="0.0013885063" flag="0"/>
      <psa03 value="0.0016558537" flag="0"/>
      <psa10 value="0.0016666151" flag="0"/>
      <psa30 value="0.0007652042" flag="0"/>
    </comp>
    <comp name="--.HHN">
      <acc value="0.0007095016" flag="0"/>
      <vel value="0.0016145993" flag="0"/>
      <psa03 value="0.0011616212" flag="0"/>
      <psa10 value="0.0015692762" flag="0"/>
      <psa30 value="0.0009978913" flag="0"/>
    </comp>
    <comp name="--.HHZ">
      <acc value="0.0006210168" flag="0"/>
      <vel value="0.0015213510" flag="0"/>
      <psa03 value="0.0014435335" flag="0"/>
      <psa10 value="0.0012279829" flag="0"/>
      <psa30 value="0.0009969655" flag="0"/>
    </comp>
  </station>
  <station code="GIUL" name="GIUL" netid="IV" source="INGV" insttype="" lat="41.5583" lon="13.2546">
    <comp name="--.HHE">
      <acc value="0.0020741059" flag="0"/>
      <vel value="0.0019286626" flag="0"/>
      <psa03 value="0.0045537220" flag="0"/>
      <psa10 value="0.0020952248" flag="0"/>
      <psa30 value="0.0005309733" flag="0"/>
    </comp>
    <comp name="--.HHN">
      <acc value="0.0019087524" flag="0"/>
      <vel value="0.0017798476" flag="0"/>
      <psa03 value="0.0046537245" flag="0"/>
      <psa10 value="0.0027557441" flag="0"/>
      <psa30 value="0.0005408513" flag="0"/>
    </comp>
    <comp name="--.HHZ">
      <acc value="0.0018181496" flag="0"/>
      <vel value="0.0017820146" flag="0"/>
      <psa03 value="0.0033635564" flag="0"/>
      <psa10 value="0.0015630419" flag="0"/>
      <psa30 value="0.0007626177" flag="0"/>
    </comp>
  </station>
  <station code="GUAR" name="GUAR" netid="IV" source="INGV" insttype="" lat="41.7945" lon="13.3123">
    <comp name="--.HHE">
      <acc value="0.0011728160" flag="0"/>
      <vel value="0.0013162826" flag="0"/>
      <psa03 value="0.0031163798" flag="0"/>
      <psa10 value="0.0020951745" flag="0"/>
      <psa30 value="0.0007523169" flag="0"/>
    </comp>
    <comp name="--.HHN">
      <acc value="0.0013958989" flag="0"/>
      <vel value="0.0013557277" flag="0"/>
      <psa03 value="0.0037776286" flag="0"/>
      <psa10 value="0.0018672605" flag="0"/>
      <psa30 value="0.0005512480" flag="0"/>
    </comp>
    <comp name="--.HHZ">
      <acc value="0.0010654826" flag="0"/>
      <vel value="0.0014357338" flag="0"/>
      <psa03 value="0.0024105431" flag="0"/>
      <psa10 value="0.0015871130" flag="0"/>
      <psa30 value="0.0007692348" flag="0"/>
    </comp>
  </station>
  <station code="MCRV" name="MCRV" netid="IV" source="INGV" insttype="" lat="40.7826" lon="15.1684">
    <comp name="--.HHE">
      <acc value="0.0034139979" flag="0"/>
      <vel value="0.0022814010" flag="0"/>
      <psa03 value="0.0038763314" flag="0"/>
      <psa10 value="0.0028804345" flag="0"/>
      <psa30 value="0.0008578342" flag="0"/>
    </comp>
    <comp name="--.HHN">
      <acc value="0.0037120809" flag="0"/>
      <vel value="0.0021487310" flag="0"/>
      <psa03 value="0.0031516778" flag="0"/>
      <psa10 value="0.0031441376" flag="0"/>
      <psa30 value="0.0006391748" flag="0"/>
    </comp>
    <comp name="--.HHZ">
      <acc value="0.0019480616" flag="0"/>
      <vel value="0.0016976858" flag="0"/>
      <psa03 value="0.0021452811" flag="0"/>
      <psa10 value="0.0016042939" flag="0"/>
      <psa30 value="0.0007096271" flag="0"/>
    </comp>
  </station>
  <station code="MIDA" name="MIDA" netid="IV" source="INGV" insttype="" lat="41.6419" lon="14.254">
    <comp name="--.HHE">
      <acc value="0.0018370299" flag="0"/>
      <vel value="0.0027496661" flag="0"/>
      <psa03 value="0.0030957100" flag="0"/>
      <psa10 value="0.0041732279" flag="0"/>
      <psa30 value="0.0012859675" flag="0"/>
    </comp>
    <comp name="--.HHN">
      <acc value="0.0018054563" flag="0"/>
      <vel value="0.0022243035" flag="0"/>
      <psa03 value="0.0030953977" flag="0"/>
      <psa10 value="0.0026174524" flag="0"/>
      <psa30 value="0.0010664184" flag="0"/>
    </comp>
    <comp name="--.HHZ">
      <acc value="0.0010040468" flag="0"/>
      <vel value="0.0020725257" flag="0"/>
      <psa03 value="0.0018760758" flag="0"/>
      <psa10 value="0.0018199084" flag="0"/>
      <psa30 value="0.0008316590" flag="0"/>
    </comp>
  </station>
  <station code="MRB1" name="MRB1" netid="IV" source="INGV" insttype="" lat="41.1227" lon="14.9681">
    <comp name="--.HHE">
      <acc value="0.0029991972" flag="0"/>
      <vel value="0.0070205261" flag="0"/>
      <psa03 value="0.0059273827" flag="0"/>
      <psa10 value="0.0091153543" flag="0"/>
      <psa30 value="0.0025103534" flag="0"/>
    </comp>
    <comp name="--.HHN">
      <acc value="0.0032188390" flag="0"/>
      <vel value="0.0057761671" flag="0"/>
      <psa03 value="0.0083767938" flag="0"/>
      <psa10 value="0.0105246423" flag="0"/>
      <psa30 value="0.0021420192" flag="0"/>
    </comp>
    <comp name="--.HHZ">
      <acc value="0.0019314574" flag="0"/>
      <vel value="0.0019951100" flag="0"/>
      <psa03 value="0.0060864698" flag="0"/>
      <psa10 value="0.0029892109" flag="0"/>
      <psa30 value="0.0006628432" flag="0"/>
    </comp>
  </station>
  <station code="OVO" name="OVO" netid="IV" source="INGV" insttype="" lat="40.8275" lon="14.3967">
    <comp name="--.HHE">
      <acc value="0.0067102735" flag="0"/>
      <vel value="0.0082103777" flag="0"/>
      <psa03 value="0.0206965647" flag="0"/>
      <psa10 value="0.0121586541" flag="0"/>
      <psa30 value="0.0052940155" flag="0"/>
    </comp>
    <comp name="--.HHN">
      <acc value="0.0083332174" flag="0"/>
      <vel value="0.0124728727" flag="0"/>
      <psa03 value="0.0258370020" flag="0"/>
      <psa10 value="0.0184849418" flag="0"/>
      <psa30 value="0.0043976150" flag="0"/>
    </comp>
    <comp name="--.HHZ">
      <acc value="0.0049360715" flag="0"/>
      <vel value="0.0048076539" flag="0"/>
      <psa03 value="0.0183580904" flag="0"/>
      <psa10 value="0.0066478143" flag="0"/>
      <psa30 value="0.0026134927" flag="0"/>
    </comp>
  </station>
  <station code="PAOL" name="PAOL" netid="IV" source="INGV" insttype="" lat="41.0312" lon="14.5675">
    <comp name="--.HHE">
      <acc value="0.0037789464" flag="0"/>
      <vel value="0.0031988730" flag="0"/>
      <psa03 value="0.0096058532" flag="0"/>
      <psa10 value="0.0043466530" flag="0"/>
      <psa30 value="0.0023300401" flag="0"/>
    </comp>
    <comp name="--.HHN">
      <acc value="0.0050729912" flag="0"/>
      <vel value="0.0045343246" flag="0"/>
      <psa03 value="0.0173488531" flag="0"/>
      <psa10 value="0.0061608839" flag="0"/>
      <psa30 value="0.0016829141" flag="0"/>
    </comp>
    <comp name="--.HHZ">
      <acc value="0.0023715445" flag="0"/>
      <vel value="0.0023628061" flag="0"/>
      <psa03 value="0.0047160385" flag="0"/>
      <psa10 value="0.0024424426" flag="0"/>
      <psa30 value="0.0016513262" flag="0"/>
    </comp>
  </station>
  <station code="PIGN" name="PIGN" netid="IV" source="INGV" insttype="" lat="41.2" lon="14.1799">
    <comp name="--.HHE">
      <acc value="0.0042316259" flag="0"/>
      <vel value="0.0043638647" flag="0"/>
      <psa03 value="0.0095172842" flag="0"/>
      <psa10 value="0.0047094648" flag="0"/>
      <psa30 value="0.0019616731" flag="0"/>
    </comp>
    <comp name="--.HHN">
      <acc value="0.0036326783" flag="0"/>
      <vel value="0.0040981127" flag="0"/>
      <psa03 value="0.0080675772" flag="0"/>
      <psa10 value="0.0048062035" flag="0"/>
      <psa30 value="0.0019708002" flag="0"/>
    </comp>
    <comp name="--.HHZ">
      <acc value="0.0038303510" flag="0"/>
      <vel value="0.0043224323" flag="0"/>
      <psa03 value="0.0065048119" flag="0"/>
      <psa10 value="0.0054901937" flag="0"/>
      <psa30 value="0.0020094108" flag="0"/>
    </comp>
  </station>
  <station code="POFI" name="POFI" netid="IV" source="INGV" insttype="" lat="41.7174" lon="13.712">
    <comp name="--.HHE">
      <acc value="0.0009190883" flag="0"/>
      <vel value="0.0021554714" flag="0"/>
      <psa03 value="0.0023059024" flag="0"/>
      <psa10 value="0.0025721873" flag="0"/>
      <psa30 value="0.0010399581" flag="0"/>
    </comp>
    <comp name="--.HHN">
      <acc value="0.0008655144" flag="0"/>
      <vel value="0.0022742874" flag="0"/>
      <psa03 value="0.0018969057" flag="0"/>
      <psa10 value="0.0020211571" flag="0"/>
      <psa30 value="0.0011397717" flag="0"/>
    </comp>
    <comp name="--.HHZ">
      <acc value="0.0008552732" flag="0"/>
      <vel value="0.0024022440" flag="0"/>
      <psa03 value="0.0023013737" flag="0"/>
      <psa10 value="0.0017607726" flag="0"/>
      <psa30 value="0.0009775620" flag="0"/>
    </comp>
  </station>
  <station code="PSB1" name="PSB1" netid="IV" source="INGV" insttype="" lat="41.2234" lon="14.8108">
    <comp name="--.HHE">
      <acc value="0.0015000875" flag="0"/>
      <vel value="0.0037010187" flag="0"/>
      <psa03 value="0.0018633381" flag="0"/>
      <psa10 value="0.0037822209" flag="0"/>
      <psa30 value="0.0028657184" flag="0"/>
    </comp>
    <comp name="--.HHN">
      <acc value="0.0017716732" flag="0"/>
      <vel value="0.0035015315" flag="0"/>
      <psa03 value="0.0027609209" flag="0"/>
      <psa10 value="0.0035591813" flag="0"/>
      <psa30 value="0.0022515405" flag="0"/>
    </comp>
    <comp name="--.HHZ">
      <acc value="0.0008776550" flag="0"/>
      <vel value="0.0012673494" flag="0"/>
      <psa03 value="0.0016067295" flag="0"/>
      <psa10 value="0.0009884358" flag="0"/>
      <psa30 value="0.0004416419" flag="0"/>
    </comp>
  </station>
  <station code="RNI2" name="RNI2" netid="IV" source="INGV" insttype="" lat="41.7033" lon="14.1524">
    <comp name="--.HNE">
      <acc value="0.0014936491" flag="0"/>
      <vel value="0.0029812925" flag="0"/>
      <psa03 value="0.0035702194" flag="0"/>
      <psa10 value="0.0047650251" flag="0"/>
      <psa30 value="0.0017621782" flag="0"/>
    </comp>
    <comp name="--.HNN">
      <acc value="0.0013400252" flag="0"/>
      <vel value="0.0029856361" flag="0"/>
      <psa03 value="0.0023910819" flag="0"/>
      <psa10 value="0.0032698852" flag="0"/>
      <psa30 value="0.0019590584" flag="0"/>
    </comp>
    <comp name="--.HNZ">
      <acc value="0.0013813923" flag="0"/>
      <vel value="0.0035961366" flag="0"/>
      <psa03 value="0.0016455066" flag="0"/>
      <psa10 value="0.0036327750" flag="0"/>
      <psa30 value="0.0014751281" flag="0"/>
    </comp>
  </station>
  <station code="SACR" name="SACR" netid="IV" source="INGV" insttype="" lat="41.3974" lon="14.7057">
    <comp name="--.HHE">
      <acc value="0.0012663591" flag="0"/>
      <vel value="0.0034768147" flag="0"/>
      <psa03 value="0.0018748097" flag="0"/>
      <psa10 value="0.0034079519" flag="0"/>
      <psa30 value="0.0018648409" flag="0"/>
    </comp>
    <comp name="--.HHN">
      <acc value="0.0016198677" flag="0"/>
      <vel value="0.0034993479" flag="0"/>
      <psa03 value="0.0021601730" flag="0"/>
      <psa10 value="0.0030018388" flag="0"/>
      <psa30 value="0.0022225796" flag="0"/>
    </comp>
    <comp name="--.HHZ">
      <acc value="0.0010175719" flag="0"/>
      <vel value="0.0021867381" flag="0"/>
      <psa03 value="0.0016827251" flag="0"/>
      <psa10 value="0.0035876334" flag="0"/>
      <psa30 value="0.0007239166" flag="0"/>
    </comp>
  </station>
  <station code="SGG" name="SGG" netid="IV" source="INGV" insttype="" lat="41.3867" lon="14.3792">
    <comp name="--.HHE">
      <acc value="0.0033211365" flag="0"/>
      <vel value="0.0038122051" flag="0"/>
      <psa03 value="0.0061389016" flag="0"/>
      <psa10 value="0.0071651766" flag="0"/>
      <psa30 value="0.0012451148" flag="0"/>
    </comp>
    <comp name="--.HHN">
      <acc value="0.0030753725" flag="0"/>
      <vel value="0.0034273898" flag="0"/>
      <psa03 value="0.0084342611" flag="0"/>
      <psa10 value="0.0061624435" flag="0"/>
      <psa30 value="0.0015399219" flag="0"/>
    </comp>
    <comp name="--.HHZ">
      <acc value="0.0024506506" flag="0"/>
      <vel value="0.0024340786" flag="0"/>
      <psa03 value="0.0060816907" flag="0"/>
      <psa10 value="0.0020737064" flag="0"/>
      <psa30 value="0.0010386193" flag="0"/>
    </comp>
  </station>
  <station code="SNAL" name="SNAL" netid="IV" source="INGV" insttype="" lat="40.9254" lon="15.2091">
    <comp name="--.HNE">
      <acc value="0.0019792927" flag="0"/>
      <vel value="0.0054077604" flag="0"/>
      <psa03 value="0.0022245374" flag="0"/>
      <psa10 value="0.0063498070" flag="0"/>
      <psa30 value="0.0027092794" flag="0"/>
    </comp>
    <comp name="--.HNN">
      <acc value="0.0030121416" flag="0"/>
      <vel value="0.0076667906" flag="0"/>
      <psa03 value="0.0031927519" flag="0"/>
      <psa10 value="0.0083997532" flag="0"/>
      <psa30 value="0.0028382955" flag="0"/>
    </comp>
    <comp name="--.HNZ">
      <acc value="0.0017511611" flag="0"/>
      <vel value="0.0049854546" flag="0"/>
      <psa03 value="0.0019143413" flag="0"/>
      <psa10 value="0.0046440432" flag="0"/>
      <psa30 value="0.0030324482" flag="0"/>
    </comp>
  </station>
  <station code="VAGA" name="VAGA" netid="IV" source="INGV" insttype="" lat="41.4154" lon="14.2342">
    <comp name="--.HNE">
      <acc value="0.0040114929" flag="0"/>
      <vel value="0.0036599614" flag="0"/>
      <psa03 value="0.0086618858" flag="0"/>
      <psa10 value="0.0086916456" flag="0"/>
      <psa30 value="0.0010051031" flag="0"/>
    </comp>
    <comp name="--.HNN">
      <acc value="0.0062615278" flag="0"/>
