<?xml version="1.0" encoding="UTF-8" standalone="yes"?>
<!DOCTYPE earthquake SYSTEM "stationlist.dtd">
<stationlist created="" xmlns="ch.ethz.sed.shakemap.usgs.xml">
  <station code="KTHR" name="KTHR" netid="HC" source="NOA" insttype="120" lat="36.2447" lon="22.9939">
    <comp name="--.HHE">
      <acc value="0.0810788236" flag="0"/>
      <vel value="0.0267401365" flag="0"/>
      <psa03 value="0.1996745787" flag="0"/>
      <psa10 value="0.0103887320" flag="0"/>
      <psa30 value="0.0008083312" flag="0"/>
    </comp>
    <comp name="--.HHN">
      <acc value="0.0624438886" flag="0"/>
      <vel value="0.0255867003" flag="0"/>
      <psa03 value="0.2150267540" flag="0"/>
      <psa10 value="0.0131353882" flag="0"/>
      <psa30 value="0.0010200733" flag="0"/>
    </comp>
    <comp name="--.HHZ">
      <acc value="0.0390256810" flag="0"/>
      <vel value="0.0141959312" flag="0"/>
      <psa03 value="0.0751978669" flag="0"/>
      <psa10 value="0.0061890237" flag="0"/>
      <psa30 value="0.0006409336" flag="0"/>
    </comp>
  </station>
  <station code="ANKY" name="ANKY" netid="HL" source="NOA" insttype="60" lat="35.867" lon="23.3012">
    <comp name="--.HHE">
      <acc value="0.0147555302" flag="0"/>
      <vel value="0.0079773267" flag="0"/>
      <psa03 value="0.0428483780" flag="0"/>
      <psa10 value="0.0065235024" flag="0"/>
      <psa30 value="0.0003773064" flag="0"/>
    </comp>
    <comp name="--.HHN">
      <acc value="0.0189919537" flag="0"/>
      <vel value="0.0066210348" flag="0"/>
      <psa03 value="0.0314569313" flag="0"/>
      <psa10 value="0.0048762626" flag="0"/>
      <psa30 value="0.0007545621" flag="0"/>
    </comp>
    <comp name="--.HHZ">
      <acc value="0.0100644440" flag="0"/>
      <vel value="0.0035123443" flag="0"/>
      <psa03 value="0.0150197336" flag="0"/>
      <psa10 value="0.0025512890" flag="0"/>
      <psa30 value="0.0003397986" flag="0"/>
    </comp>
  </station>
  <station code="KTHA" name="KTHA" netid="HL" source="NOA" insttype="DC" lat="36.2566" lon="23.0621">
    <comp name="--.HNE">
      <acc value="0.0201207302" flag="0"/>
      <vel value="0.0051917928" flag="0"/>
      <psa03 value="0.0295633882" flag="0"/>
      <psa10 value="0.0038950239" flag="0"/>
      <psa30 value="0.0004648073" flag="0"/>
    </comp>
    <comp name="--.HNN">
      <acc value="0.0119672624" flag="0"/>
      <vel value="0.0043070861" flag="0"/>
      <psa03 value="0.0229315080" flag="0"/>
      <psa10 value="0.0018011071" flag="0"/>
      <psa30 value="0.0003388259" flag="0"/>
    </comp>
    <comp name="--.HNZ">
      <acc value="0.0068423187" flag="0"/>
      <vel value="0.0034956711" flag="0"/>
      <psa03 value="0.0105297826" flag="0"/>
      <psa10 value="0.0033197464" flag="0"/>
      <psa30 value="0.0002996812" flag="0"/>
    </comp>
  </station>
</stationlist>
