<stationlist xmlns:esm="https://esm-db.eu/esmws/shakemap/1/" created="1783475623">
	<station code="IMMV" name="IMMV" netid="GE" source="GEOFON" insttype="" lat="35.4606" lon="23.9811" esm:processing="manual (Paolucci et al 2011)" esm:quality="best">
		<comp name="--.HNE" depth="0.0">
			<acc value="0.00559208526253385" flag="0"/>
			<vel value="0.00178405554010943" flag="0"/>
			<psa03 value="0.0102907075222025" flag="0"/>
			<psa10 value="0.00227514120653912" flag="0"/>
			<psa30 value="0.000295298563680594" flag="0"/>
		</comp>
		<comp name="--.HNN" depth="0.0">
			<acc value="0.00575865555772454" flag="0"/>
			<vel value="0.00276341787547174" flag="0"/>
			<psa03 value="0.016465132035524" flag="0"/>
			<psa10 value="0.00260936548997761" flag="0"/>
			<psa30 value="0.000294851141614411" flag="0"/>
		</comp>
		<comp name="--.HNZ" depth="0.0">
			<acc value="0.00377283187630421" flag="0"/>
			<vel value="0.00126589267648851" flag="0"/>
			<psa03 value="0.00724823747216002" flag="0"/>
			<psa10 value="0.00103891403767627" flag="0"/>
			<psa30 value="0.000181653358870183" flag="0"/>
		</comp>
	</station>
	<station code="NPS1" name="NPS1" netid="HI" source="ITSAK Strong Motion Network" insttype="" lat="36.51263" lon="23.06248" esm:processing="manual (Paolucci et al 2011)" esm:quality="best">
		<comp name="--.HNE" depth="0.0">
			<acc value="0.0121225286803309" flag="0"/>
			<vel value="0.00739297928051763" flag="0"/>
			<psa03 value="0.0361924236121244" flag="0"/>
			<psa10 value="0.00553494197523826" flag="0"/>
			<psa30 value="0.000255680921981272" flag="0"/>
		</comp>
		<comp name="--.HNN" depth="0.0">
			<acc value="0.0114372091663562" flag="0"/>
			<vel value="0.00672262316488555" flag="0"/>
			<psa03 value="0.0479569581630668" flag="0"/>
			<psa10 value="0.00580935374740613" flag="0"/>
			<psa30 value="0.000310233936892239" flag="0"/>
		</comp>
		<comp name="--.HNZ" depth="0.0">
			<acc value="0.00674933990353807" flag="0"/>
			<vel value="0.0030616193454216" flag="0"/>
			<psa03 value="0.0226084664499439" flag="0"/>
			<psa10 value="0.00141534715824071" flag="0"/>
			<psa30 value="0.000153899283613885" flag="0"/>
		</comp>
	</station>
	<station code="IMMV" name="IMMV" netid="HL" source="National Observatory of Athens Seismic Network" insttype="" lat="35.4606" lon="23.9811" esm:processing="manual (Paolucci et al 2011)" esm:quality="good">
		<comp name="--.HNE" depth="0.0">
			<acc value="0.00219964874620422" flag="0"/>
			<vel value="0.000689565692875375" flag="0"/>
			<psa03 value="0.00403777301650015" flag="0"/>
			<psa10 value="0.000876910864478616" flag="0"/>
			<psa30 value="6.32637807587427e-05" flag="0"/>
		</comp>
		<comp name="--.HNN" depth="0.0">
			<acc value="0.00575453309199082" flag="0"/>
			<vel value="0.00280980712565945" flag="0"/>
			<psa03 value="0.0164946825355163" flag="0"/>
			<psa10 value="0.00258148233866068" flag="0"/>
			<psa30 value="0.000136221211486722" flag="0"/>
		</comp>
		<comp name="--.HNZ" depth="0.0">
			<acc value="0.00148375277865695" flag="0"/>
			<vel value="0.00047938404773985" flag="0"/>
			<psa03 value="0.0028497151468303" flag="0"/>
			<psa10 value="0.000403297585626391" flag="0"/>
			<psa30 value="3.90904639003457e-05" flag="0"/>
		</comp>
	</station>
	<station code="KTHA" name="KTHA" netid="HL" source="National Observatory of Athens Seismic Network" insttype="" lat="36.2566" lon="23.0621" esm:processing="automatic (Paolucci et al 2011)" esm:quality="best">
		<comp name="--.HNE" depth="0.0">
			<acc value="0.0194865489262794" flag="0"/>
			<vel value="0.00528114906295565" flag="0"/>
			<psa03 value="0.0298877940210055" flag="0"/>
			<psa10 value="0.00390599463777512" flag="0"/>
			<psa30 value="0.000423708696675033" flag="0"/>
		</comp>
		<comp name="--.HNN" depth="0.0">
			<acc value="0.0119812142597843" flag="0"/>
			<vel value="0.00431082505735218" flag="0"/>
			<psa03 value="0.0231764630282648" flag="0"/>
			<psa10 value="0.00180803256944436" flag="0"/>
			<psa30 value="0.000314985134592633" flag="0"/>
		</comp>
		<comp name="--.HNZ" depth="0.0">
			<acc value="0.0068847795240098" flag="0"/>
			<vel value="0.00352109155212704" flag="0"/>
			<psa03 value="0.0106039029685304" flag="0"/>
			<psa10 value="0.00331405524421539" flag="0"/>
			<psa30 value="0.000277401681033285" flag="0"/>
		</comp>
	</station>
	<station code="CH01" name="CH01" netid="HI" source="ITSAK Strong Motion Network" insttype="" lat="35.517" lon="24.0208" esm:processing="discarded" esm:quality="good">
		<comp name="--.HNE" depth="0.0">
			<acc value="0" flag="1"/>
			<vel value="0" flag="1"/>
			<psa03 value="0" flag="1"/>
			<psa10 value="0" flag="1"/>
			<psa30 value="0" flag="1"/>
		</comp>
		<comp name="--.HNN" depth="0.0">
			<acc value="0" flag="1"/>
			<vel value="0" flag="1"/>
			<psa03 value="0" flag="1"/>
			<psa10 value="0" flag="1"/>
			<psa30 value="0" flag="1"/>
		</comp>
		<comp name="--.HNZ" depth="0.0">
			<acc value="0" flag="1"/>
			<vel value="0" flag="1"/>
			<psa03 value="0" flag="1"/>
			<psa10 value="0" flag="1"/>
			<psa30 value="0" flag="1"/>
		</comp>
	</station>
	<station code="ANKY" name="ANKY" netid="HL" source="National Observatory of Athens Seismic Network" insttype="" lat="35.86704" lon="23.30117" esm:processing="automatic (Paolucci et al 2011)" esm:quality="bad">
		<comp name="00.HNE" depth="0.0">
			<acc value="0" flag="1"/>
			<vel value="0" flag="1"/>
			<psa03 value="0" flag="1"/>
			<psa10 value="0" flag="1"/>
			<psa30 value="0" flag="1"/>
		</comp>
		<comp name="00.HNN" depth="0.0">
			<acc value="0" flag="1"/>
			<vel value="0" flag="1"/>
			<psa03 value="0" flag="1"/>
			<psa10 value="0" flag="1"/>
			<psa30 value="0" flag="1"/>
		</comp>
		<comp name="00.HNZ" depth="0.0">
			<acc value="0" flag="1"/>
			<vel value="0" flag="1"/>
			<psa03 value="0" flag="1"/>
			<psa10 value="0" flag="1"/>
			<psa30 value="0" flag="1"/>
		</comp>
	</station>
	<station code="CHNB" name="CHNB" netid="HL" source="National Observatory of Athens Seismic Network" insttype="" lat="35.48765" lon="24.06605" esm:processing="automatic (Paolucci et al 2011)" esm:quality="bad">
		<comp name="00.HNE" depth="0.0">
			<acc value="0" flag="1"/>
			<vel value="0" flag="1"/>
			<psa03 value="0" flag="1"/>
			<psa10 value="0" flag="1"/>
			<psa30 value="0" flag="1"/>
		</comp>
		<comp name="00.HNN" depth="0.0">
			<acc value="0" flag="1"/>
			<vel value="0" flag="1"/>
			<psa03 value="0" flag="1"/>
			<psa10 value="0" flag="1"/>
			<psa30 value="0" flag="1"/>
		</comp>
		<comp name="00.HNZ" depth="0.0">
			<acc value="0" flag="1"/>
			<vel value="0" flag="1"/>
			<psa03 value="0" flag="1"/>
			<psa10 value="0" flag="1"/>
			<psa30 value="0" flag="1"/>
		</comp>
	</station>
</stationlist>
