<?xml version="1.0" encoding="UTF-8" standalone="yes"?>
<!DOCTYPE earthquake SYSTEM "stationlist.dtd">
<stationlist created="" xmlns="ch.ethz.sed.shakemap.usgs.xml">
  <station code="APE" name="APE" netid="GE" insttype="STS-2/N" lat="37.0727" lon="25.523">
    <comp name="--.HHN">
      <acc value="0.4849608154" flag="0"/>
      <vel value="0.0790002392" flag="0"/>
      <psa03 value="0.2418969031" flag="0"/>
      <psa10 value="0.0548935163" flag="0"/>
      <psa30 value="0.0091803011" flag="0"/>
    </comp>
    <comp name="--.HHZ">
      <acc value="0.1630489101" flag="0"/>
      <vel value="0.0441004683" flag="0"/>
      <psa03 value="0.1380855313" flag="0"/>
      <psa10 value="0.0345786404" flag="0"/>
      <psa30 value="0.0091323098" flag="0"/>
    </comp>
    <comp name="--.HHE">
      <acc value="0.3937290979" flag="0"/>
      <vel value="0.0674531193" flag="0"/>
      <psa03 value="0.2805655774" flag="0"/>
      <psa10 value="0.0475596790" flag="0"/>
      <psa30 value="0.0081153325" flag="0"/>
    </comp>
  </station>
  <station code="THERA" name="THERA" netid="GE" insttype="STS-2/N" lat="36.367" lon="25.4753">
    <comp name="--.HHN">
      <acc value="0.1362507789" flag="0"/>
      <vel value="0.0327785008" flag="0"/>
      <psa03 value="0.2245397994" flag="0"/>
      <psa10 value="0.0138958061" flag="0"/>
      <psa30 value="0.0024439554" flag="0"/>
    </comp>
    <comp name="--.HHZ">
      <acc value="0.1920892732" flag="0"/>
      <vel value="0.0444600560" flag="0"/>
      <psa03 value="0.2342140000" flag="0"/>
      <psa10 value="0.0162730317" flag="0"/>
      <psa30 value="0.0046090705" flag="0"/>
    </comp>
    <comp name="--.HHE">
      <acc value="0.2629238070" flag="0"/>
      <vel value="0.0770927747" flag="0"/>
      <psa03 value="0.4217300909" flag="0"/>
      <psa10 value="0.0320481719" flag="0"/>
      <psa30 value="0.0051140954" flag="0"/>
    </comp>
  </station>
</stationlist>
