<?xml version="1.0" encoding="UTF-8" standalone="yes"?>
<!DOCTYPE earthquake SYSTEM "stationlist.dtd">
<stationlist created="" xmlns="ch.ethz.sed.shakemap.usgs.xml">
  <station code="APE" name="APE" netid="GE" insttype="STS-2/N" lat="37.0727" lon="25.523">
    <comp name="--.HHE">
      <acc value="0.3937290979" flag="0"/>
      <vel value="0.0674531235" flag="0"/>
      <psa03 value="0.2805655774" flag="0"/>
      <psa10 value="0.0475596816" flag="0"/>
      <psa30 value="0.0081156279" flag="0"/>
    </comp>
    <comp name="--.HHN">
      <acc value="0.4849608159" flag="0"/>
      <vel value="0.0790002457" flag="0"/>
      <psa03 value="0.2418969031" flag="0"/>
      <psa10 value="0.0548935148" flag="0"/>
      <psa30 value="0.0091804521" flag="0"/>
    </comp>
    <comp name="--.HHZ">
      <acc value="0.1630489099" flag="0"/>
      <vel value="0.0441004631" flag="0"/>
      <psa03 value="0.1380855313" flag="0"/>
      <psa10 value="0.0345786357" flag="0"/>
      <psa30 value="0.0091324460" flag="0"/>
    </comp>
  </station>
  <station code="THERA" name="THERA" netid="GE" insttype="STS-2/N" lat="36.367" lon="25.4753">
    <comp name="--.HHZ">
      <acc value="0.1920892726" flag="0"/>
      <vel value="0.0444600629" flag="0"/>
      <psa03 value="0.2342140000" flag="0"/>
      <psa10 value="0.0162730326" flag="0"/>
      <psa30 value="0.0046084281" flag="0"/>
    </comp>
    <comp name="--.HHE">
      <acc value="0.2629238069" flag="0"/>
      <vel value="0.0770927735" flag="0"/>
      <psa03 value="0.4217300909" flag="0"/>
      <psa10 value="0.0320481714" flag="0"/>
      <psa30 value="0.0051140192" flag="0"/>
    </comp>
    <comp name="--.HHN">
      <acc value="0.1362507784" flag="0"/>
      <vel value="0.0327785042" flag="0"/>
      <psa03 value="0.2245397994" flag="0"/>
      <psa10 value="0.0138958049" flag="0"/>
      <psa30 value="0.0024443063" flag="0"/>
    </comp>
  </station>
</stationlist>
