<?xml version="1.0" encoding="UTF-8" standalone="yes"?>
<!DOCTYPE earthquake SYSTEM "stationlist.dtd">
<stationlist created="" xmlns="ch.ethz.sed.shakemap.usgs.xml">
  <station code="APE" name="APE" netid="GE" insttype="STS-2/N" lat="37.0727" lon="25.523">
    <comp name="--.HHN">
      <acc value="0.4849608152" flag="0"/>
      <vel value="0.0790002429" flag="0"/>
      <psa03 value="0.2418969031" flag="0"/>
      <psa10 value="0.0548935129" flag="0"/>
      <psa30 value="0.0091805660" flag="0"/>
    </comp>
    <comp name="--.HHE">
      <acc value="0.3937290982" flag="0"/>
      <vel value="0.0674531310" flag="0"/>
      <psa03 value="0.2805655774" flag="0"/>
      <psa10 value="0.0475596850" flag="0"/>
      <psa30 value="0.0081159997" flag="0"/>
    </comp>
    <comp name="--.HHZ">
      <acc value="0.1630489097" flag="0"/>
      <vel value="0.0441004556" flag="0"/>
      <psa03 value="0.1380855313" flag="0"/>
      <psa10 value="0.0345786364" flag="0"/>
      <psa30 value="0.0091328080" flag="0"/>
    </comp>
  </station>
  <station code="THERA" name="THERA" netid="GE" insttype="STS-2/N" lat="36.367" lon="25.4753">
    <comp name="--.HHE">
      <acc value="0.2629238071" flag="0"/>
      <vel value="0.0770927752" flag="0"/>
      <psa03 value="0.4217300909" flag="0"/>
      <psa10 value="0.0320481699" flag="0"/>
      <psa30 value="0.0051141520" flag="0"/>
    </comp>
    <comp name="--.HHZ">
      <acc value="0.1920892729" flag="0"/>
      <vel value="0.0444600778" flag="0"/>
      <psa03 value="0.2342140000" flag="0"/>
      <psa10 value="0.0162730338" flag="0"/>
      <psa30 value="0.0046070895" flag="0"/>
    </comp>
    <comp name="--.HHN">
      <acc value="0.1362507787" flag="0"/>
      <vel value="0.0327785030" flag="0"/>
      <psa03 value="0.2245397994" flag="0"/>
      <psa10 value="0.0138957964" flag="0"/>
      <psa30 value="0.0024449088" flag="0"/>
    </comp>
  </station>
</stationlist>
