<?xml version="1.0" encoding="UTF-8" standalone="yes"?>
<!DOCTYPE earthquake SYSTEM "stationlist.dtd">
<stationlist created="" xmlns="ch.ethz.sed.shakemap.usgs.xml">
  <station code="APE" name="APE" netid="GE" insttype="STS-2/N" lat="37.0727" lon="25.523">
    <comp name="--.HHN">
      <acc value="0.4849608152" flag="0"/>
      <vel value="0.0790002429" flag="0"/>
      <psa03 value="0.2418969031" flag="0"/>
      <psa10 value="0.0548935129" flag="0"/>
      <psa30 value="0.0091805660" flag="0"/>
    </comp>
    <comp name="--.HHE">
      <acc value="0.3937290982" flag="0"/>
      <vel value="0.0674531310" flag="0"/>
      <psa03 value="0.2805655774" flag="0"/>
      <psa10 value="0.0475596850" flag="0"/>
      <psa30 value="0.0081159997" flag="0"/>
    </comp>
    <comp name="--.HHZ">
      <acc value="0.1630489097" flag="0"/>
      <vel value="0.0441004556" flag="0"/>
      <psa03 value="0.1380855313" flag="0"/>
      <psa10 value="0.0345786364" flag="0"/>
      <psa30 value="0.0091328080" flag="0"/>
    </comp>
  </station>
  <station code="THERA" name="THERA" netid="GE" insttype="STS-2/N" lat="36.367" lon="25.4753">
    <comp name="--.HHE">
      <acc value="0.2629238071" flag="0"/>
      <vel value="0.0770927752" flag="0"/>
      <psa03 value="0.4217300909" flag="0"/>
      <psa10 value="0.0320481699" flag="0"/>
      <psa30 value="0.0051141520" flag="0"/>
    </comp>
    <comp name="--.HHZ">
      <acc value="0.1920892729" flag="0"/>
      <vel value="0.0444600778" flag="0"/>
      <psa03 value="0.2342140000" flag="0"/>
      <psa10 value="0.0162730338" flag="0"/>
      <psa30 value="0.0046070895" flag="0"/>
    </comp>
    <comp name="--.HHN">
      <acc value="0.1362507787" flag="0"/>
      <vel value="0.0327785030" flag="0"/>
      <psa03 value="0.2245397994" flag="0"/>
      <psa10 value="0.0138957964" flag="0"/>
      <psa30 value="0.0024449088" flag="0"/>
    </comp>
  </station>
  <station code="SNT1" name="SNT1" netid="HA" insttype="30" lat="36.4159" lon="25.4282">
    <comp name="--.HHE">
      <acc value="0.1497075147" flag="0"/>
      <vel value="0.0393404811" flag="0"/>
      <psa03 value="0.2144805253" flag="0"/>
      <psa10 value="0.0348257058" flag="0"/>
      <psa30 value="0.0063476212" flag="0"/>
    </comp>
    <comp name="--.HHN">
      <acc value="0.1551157755" flag="0"/>
      <vel value="0.0490158246" flag="0"/>
      <psa03 value="0.1511191649" flag="0"/>
      <psa10 value="0.0531841158" flag="0"/>
      <psa30 value="0.0108235128" flag="0"/>
    </comp>
    <comp name="--.HHZ">
      <acc value="0.1166299380" flag="0"/>
      <vel value="0.0367908600" flag="0"/>
      <psa03 value="0.1108277771" flag="0"/>
      <psa10 value="0.0333439452" flag="0"/>
      <psa30 value="0.0045476314" flag="0"/>
    </comp>
  </station>
  <station code="NAX1" name="NAX1" netid="HI" insttype="CMG-5TD,ACCELEROMETER,GURALP" lat="37.1014" lon="25.3741">
    <comp name="--.HNE">
      <acc value="0.2757878627" flag="0"/>
      <vel value="0.0675951638" flag="0"/>
      <psa03 value="0.3549549795" flag="0"/>
      <psa10 value="0.0310108615" flag="0"/>
      <psa30 value="0.0032813233" flag="0"/>
    </comp>
    <comp name="--.HNN">
      <acc value="0.2510999241" flag="0"/>
      <vel value="0.0656818471" flag="0"/>
      <psa03 value="0.3115034333" flag="0"/>
      <psa10 value="0.0416049957" flag="0"/>
      <psa30 value="0.0055939755" flag="0"/>
    </comp>
    <comp name="--.HNZ">
      <acc value="0.1531986051" flag="0"/>
      <vel value="0.0413286749" flag="0"/>
      <psa03 value="0.1787218382" flag="0"/>
      <psa10 value="0.0472337503" flag="0"/>
      <psa30 value="0.0067238522" flag="0"/>
    </comp>
  </station>
  <station code="APE" name="APE" netid="HL" insttype="120" lat="37.0727" lon="25.523">
    <comp name="--.HHE">
      <acc value="0.3246289675" flag="0"/>
      <vel value="0.0643178090" flag="0"/>
      <psa03 value="0.2709973535" flag="0"/>
      <psa10 value="0.0471204436" flag="0"/>
      <psa30 value="0.0080968304" flag="0"/>
    </comp>
    <comp name="--.HHN">
      <acc value="0.4309637208" flag="0"/>
      <vel value="0.0739639020" flag="0"/>
      <psa03 value="0.2375644495" flag="0"/>
      <psa10 value="0.0544383645" flag="0"/>
      <psa30 value="0.0091606381" flag="0"/>
    </comp>
    <comp name="--.HHZ">
      <acc value="0.1490367797" flag="0"/>
      <vel value="0.0422865594" flag="0"/>
      <psa03 value="0.1346485263" flag="0"/>
      <psa10 value="0.0343759890" flag="0"/>
      <psa30 value="0.0091159306" flag="0"/>
    </comp>
  </station>
  <station code="MHLO" name="MHLO" netid="HL" insttype="20" lat="36.6898" lon="24.4017">
    <comp name="--.HHE">
      <acc value="0.1527958104" flag="0"/>
      <vel value="0.0676683165" flag="0"/>
      <psa03 value="0.5514377858" flag="0"/>
      <psa10 value="0.0534371670" flag="0"/>
      <psa30 value="0.0046968709" flag="0"/>
    </comp>
    <comp name="--.HHN">
      <acc value="0.1266735530" flag="0"/>
      <vel value="0.0730777260" flag="0"/>
      <psa03 value="0.4110019350" flag="0"/>
      <psa10 value="0.0608086123" flag="0"/>
      <psa30 value="0.0039661738" flag="0"/>
    </comp>
    <comp name="--.HHZ">
      <acc value="0.0968899434" flag="0"/>
      <vel value="0.0468703683" flag="0"/>
      <psa03 value="0.2477032493" flag="0"/>
      <psa10 value="0.0381197465" flag="0"/>
      <psa30 value="0.0040424944" flag="0"/>
    </comp>
  </station>
  <station code="NISR" name="NISR" netid="HL" insttype="65535" lat="36.6106" lon="27.131">
    <comp name="--.HHE">
      <acc value="0.0000000000" flag="0"/>
      <vel value="-100.0000000000" flag="0"/>
      <psa03 value="0.0000000000" flag="0"/>
      <psa10 value="0.0000000000" flag="0"/>
      <psa30 value="0.0000000000" flag="0"/>
    </comp>
    <comp name="--.HHN">
      <acc value="0.0472106111" flag="0"/>
      <vel value="0.0317500021" flag="0"/>
      <psa03 value="0.0942331252" flag="0"/>
      <psa10 value="0.0275047277" flag="0"/>
      <psa30 value="0.0073941232" flag="0"/>
    </comp>
    <comp name="--.HHZ">
      <acc value="0.0268361716" flag="0"/>
      <vel value="0.0121110998" flag="0"/>
      <psa03 value="0.0541563790" flag="0"/>
      <psa10 value="0.0155760322" flag="0"/>
      <psa30 value="0.0016245294" flag="0"/>
    </comp>
  </station>
  <station code="NISR2" name="NISR2" netid="HL" insttype="120" lat="36.5744" lon="27.1767">
    <comp name="--.HHE">
      <acc value="0.0506049233" flag="0"/>
      <vel value="0.0399286467" flag="0"/>
      <psa03 value="0.2004184679" flag="0"/>
      <psa10 value="0.0820889104" flag="0"/>
      <psa30 value="0.0053945976" flag="0"/>
    </comp>
    <comp name="--.HHN">
      <acc value="0.0840860032" flag="0"/>
      <vel value="0.0733211246" flag="0"/>
      <psa03 value="0.2481746233" flag="0"/>
      <psa10 value="0.0773266252" flag="0"/>
      <psa30 value="0.0078127886" flag="0"/>
    </comp>
    <comp name="--.HHZ">
      <acc value="0.0198800108" flag="0"/>
      <vel value="0.0128892739" flag="0"/>
      <psa03 value="0.0715378807" flag="0"/>
      <psa10 value="0.0157826824" flag="0"/>
      <psa30 value="0.0023397022" flag="0"/>
    </comp>
  </station>
  <station code="SAP3" name="SAP3" netid="HL" insttype="LE3D20_SMART24" lat="36.4356" lon="25.3454">
    <comp name="--.HHE">
      <acc value="0.5151402532" flag="0"/>
      <vel value="0.1317641352" flag="0"/>
      <psa03 value="0.7238395424" flag="0"/>
      <psa10 value="0.1237533434" flag="0"/>
      <psa30 value="0.0308114959" flag="0"/>
    </comp>
    <comp name="--.HHN">
      <acc value="0.6049341817" flag="0"/>
      <vel value="0.1492868496" flag="0"/>
      <psa03 value="0.6748442483" flag="0"/>
      <psa10 value="0.1366999511" flag="0"/>
      <psa30 value="0.0300493711" flag="0"/>
    </comp>
    <comp name="--.HHZ">
      <acc value="0.5961409629" flag="0"/>
      <vel value="0.1217296040" flag="0"/>
      <psa03 value="0.6902438261" flag="0"/>
      <psa10 value="0.0463430599" flag="0"/>
      <psa30 value="0.0140726694" flag="0"/>
    </comp>
  </station>
  <station code="THERA" name="THERA" netid="HL" insttype="120" lat="36.367" lon="25.4753">
    <comp name="--.HHE">
      <acc value="0.2649376127" flag="0"/>
      <vel value="0.0746635009" flag="0"/>
      <psa03 value="0.4098211784" flag="0"/>
      <psa10 value="0.0318147610" flag="0"/>
      <psa30 value="0.0051111367" flag="0"/>
    </comp>
    <comp name="--.HHN">
      <acc value="0.1408899421" flag="0"/>
      <vel value="0.0322178436" flag="0"/>
      <psa03 value="0.2174541695" flag="0"/>
      <psa10 value="0.0136853186" flag="0"/>
      <psa30 value="0.0024418266" flag="0"/>
    </comp>
    <comp name="--.HHZ">
      <acc value="0.1870123075" flag="0"/>
      <vel value="0.0435179913" flag="0"/>
      <psa03 value="0.2280684574" flag="0"/>
      <psa10 value="0.0161890693" flag="0"/>
      <psa30 value="0.0046109501" flag="0"/>
    </comp>
  </station>
  <station code="THRA" name="THRA" netid="HL" insttype="CMG-5" lat="36.415" lon="25.4324">
    <comp name="00.HNN">
      <acc value="0.3181713398" flag="0"/>
      <vel value="0.1107027273" flag="0"/>
      <psa03 value="0.5967145976" flag="0"/>
      <psa10 value="0.1189817217" flag="0"/>
      <psa30 value="0.0189635175" flag="0"/>
    </comp>
    <comp name="00.HNE">
      <acc value="0.5125323886" flag="0"/>
      <vel value="0.1344806507" flag="0"/>
      <psa03 value="0.8186664739" flag="0"/>
      <psa10 value="0.1070760626" flag="0"/>
      <psa30 value="0.0105889091" flag="0"/>
    </comp>
    <comp name="00.HNZ">
      <acc value="0.4093698339" flag="0"/>
      <vel value="0.0967163058" flag="0"/>
      <psa03 value="0.4485211528" flag="0"/>
      <psa10 value="0.0564016463" flag="0"/>
      <psa30 value="0.0078370187" flag="0"/>
    </comp>
  </station>
  <station code="TNSA" name="TNSA" netid="HL" insttype="CMG-5" lat="37.5394" lon="25.1631">
    <comp name="00.HNE">
      <acc value="0.1108963290" flag="0"/>
      <vel value="0.0306404418" flag="0"/>
      <psa03 value="0.1045804245" flag="0"/>
      <psa10 value="0.0138930350" flag="0"/>
      <psa30 value="0.0019805816" flag="0"/>
    </comp>
    <comp name="00.HNN">
      <acc value="0.1475556986" flag="0"/>
      <vel value="0.0371924802" flag="0"/>
      <psa03 value="0.2087455510" flag="0"/>
      <psa10 value="0.0242994724" flag="0"/>
      <psa30 value="0.0031819847" flag="0"/>
    </comp>
    <comp name="00.HNZ">
      <acc value="0.1229516915" flag="0"/>
      <vel value="0.0559051424" flag="0"/>
      <psa03 value="0.1333805321" flag="0"/>
      <psa10 value="0.0237855055" flag="0"/>
      <psa30 value="0.0044881255" flag="0"/>
    </comp>
  </station>
</stationlist>
