<?xml version="1.0" encoding="UTF-8" standalone="yes"?>
<!DOCTYPE earthquake SYSTEM "stationlist.dtd">
<stationlist created="" xmlns="ch.ethz.sed.shakemap.usgs.xml">
  <station code="CLDR" name="CLDR" netid="KO" insttype="CMG-3ESP" commtype="DIG" lat="39.144" lon="43.9172">
    <comp name="--.HHZ">
      <acc value="0.0068869855" flag="0"/>
      <vel value="0.0029594776" flag="0"/>
      <psa03 value="0.0155449135" flag="0"/>
      <psa10 value="0.0029384339" flag="0"/>
      <psa30 value="0.0002138042" flag="0"/>
    </comp>
    <comp name="--.HHE">
      <acc value="0.0149152928" flag="0"/>
      <vel value="0.0084600806" flag="0"/>
      <psa03 value="0.0479523697" flag="0"/>
      <psa10 value="0.0065518900" flag="0"/>
      <psa30 value="0.0004363317" flag="0"/>
    </comp>
    <comp name="--.HHN">
      <acc value="0.0105611178" flag="0"/>
      <vel value="0.0038379992" flag="0"/>
      <psa03 value="0.0231190732" flag="0"/>
      <psa10 value="0.0043014729" flag="0"/>
      <psa30 value="0.0003073700" flag="0"/>
    </comp>
  </station>
</stationlist>
