<?xml version="1.0" encoding="UTF-8" standalone="yes"?>
<!DOCTYPE earthquake SYSTEM "stationlist.dtd">
<stationlist created="" xmlns="ch.ethz.sed.shakemap.usgs.xml">
  <station code="AGRB" name="AGRB" netid="KO" insttype="CMG-3T" commtype="DIG" lat="39.5755" lon="42.992">
    <comp name="--.HHN">
      <acc value="0.0000194344" flag="0"/>
      <vel value="0.0000047309" flag="0"/>
      <psa03 value="0.0000146757" flag="0"/>
      <psa10 value="0.0000037144" flag="0"/>
      <psa30 value="0.0000004772" flag="0"/>
    </comp>
    <comp name="--.HHE">
      <acc value="0.0116408439" flag="0"/>
      <vel value="0.0082927696" flag="0"/>
      <psa03 value="0.0395350526" flag="0"/>
      <psa10 value="0.0113839918" flag="0"/>
      <psa30 value="0.0006730097" flag="0"/>
    </comp>
    <comp name="--.HHZ">
      <acc value="0.0105383815" flag="0"/>
      <vel value="0.0051235107" flag="0"/>
      <psa03 value="0.0212620600" flag="0"/>
      <psa10 value="0.0111654091" flag="0"/>
      <psa30 value="0.0004232499" flag="0"/>
    </comp>
  </station>
  <station code="KARO" name="KARO" netid="KO" insttype="CMG-3T" commtype="DIG" lat="39.3089" lon="41.0493">
    <comp name="--.HHE">
      <acc value="0.0824589306" flag="0"/>
      <vel value="0.0420755755" flag="0"/>
      <psa03 value="0.2678208747" flag="0"/>
      <psa10 value="0.0288860084" flag="0"/>
      <psa30 value="0.0013989162" flag="0"/>
    </comp>
    <comp name="--.HHN">
      <acc value="0.0821420782" flag="0"/>
      <vel value="0.0309179827" flag="0"/>
      <psa03 value="0.2028926919" flag="0"/>
      <psa10 value="0.0258986603" flag="0"/>
      <psa30 value="0.0017205925" flag="0"/>
    </comp>
    <comp name="--.HHZ">
      <acc value="0.0639944062" flag="0"/>
      <vel value="0.0255166746" flag="0"/>
      <psa03 value="0.1639514334" flag="0"/>
      <psa10 value="0.0125436079" flag="0"/>
      <psa30 value="0.0007429825" flag="0"/>
    </comp>
  </station>
  <station code="KOPR" name="KOPR" netid="KO" insttype="CMG-3T" commtype="DIG" lat="39.9917" lon="41.8535">
    <comp name="--.HHE">
      <acc value="0.0666793847" flag="0"/>
      <vel value="0.0339829580" flag="0"/>
      <psa03 value="0.1427614943" flag="0"/>
      <psa10 value="0.0560902957" flag="0"/>
      <psa30 value="0.0048448311" flag="0"/>
    </comp>
    <comp name="--.HHN">
      <acc value="0.0771109092" flag="0"/>
      <vel value="0.0375255228" flag="0"/>
      <psa03 value="0.1678610472" flag="0"/>
      <psa10 value="0.0494597068" flag="0"/>
      <psa30 value="0.0042528338" flag="0"/>
    </comp>
    <comp name="--.HHZ">
      <acc value="0.0987566649" flag="0"/>
      <vel value="0.0322632033" flag="0"/>
      <psa03 value="0.1415473659" flag="0"/>
      <psa10 value="0.0502651601" flag="0"/>
      <psa30 value="0.0098780661" flag="0"/>
    </comp>
  </station>
  <station code="SENK" name="SENK" netid="KO" insttype="CMG-3T" commtype="DIG" lat="40.5614" lon="42.3505">
    <comp name="--.HHZ">
      <acc value="0.0077374792" flag="0"/>
      <vel value="0.0040173603" flag="0"/>
      <psa03 value="0.0203265171" flag="0"/>
      <psa10 value="0.0040927227" flag="0"/>
      <psa30 value="0.0003452611" flag="0"/>
    </comp>
  </station>
  <station code="VRTB" name="VRTB" netid="KO" insttype="CMG-40T" commtype="DIG" lat="39.1603" lon="41.4558">
    <comp name="--.HHE">
      <acc value="0.0411424222" flag="0"/>
      <vel value="0.0240436456" flag="0"/>
      <psa03 value="0.1039408200" flag="0"/>
      <psa10 value="0.0252069804" flag="0"/>
      <psa30 value="0.0021829130" flag="0"/>
    </comp>
    <comp name="--.HHZ">
      <acc value="0.0151237573" flag="0"/>
      <vel value="0.0103102027" flag="0"/>
      <psa03 value="0.0656861814" flag="0"/>
      <psa10 value="0.0146177500" flag="0"/>
      <psa30 value="0.0013577651" flag="0"/>
    </comp>
    <comp name="--.HHN">
      <acc value="0.0153731822" flag="0"/>
      <vel value="0.0086549656" flag="0"/>
      <psa03 value="0.0391921748" flag="0"/>
      <psa10 value="0.0113036283" flag="0"/>
      <psa30 value="0.0022630316" flag="0"/>
    </comp>
  </station>
</stationlist>
