<?xml version="1.0" encoding="UTF-8" standalone="yes"?>
<!DOCTYPE earthquake SYSTEM "stationlist.dtd">
<stationlist created="" xmlns="ch.ethz.sed.shakemap.usgs.xml">
  <station code="IMMV" name="IMMV" netid="GE" source="GFZ" insttype="STS-2/N" lat="35.4606" lon="23.9811">
    <comp name="--.HHE">
      <acc value="0.1421326295" flag="0"/>
      <vel value="0.0368013328" flag="0"/>
      <psa03 value="0.1497847281" flag="0"/>
      <psa10 value="0.0101987654" flag="0"/>
      <psa30 value="0.0006307459" flag="0"/>
    </comp>
    <comp name="--.HHN">
      <acc value="0.0877168798" flag="0"/>
      <vel value="0.0254289970" flag="0"/>
      <psa03 value="0.1610325911" flag="0"/>
      <psa10 value="0.0111039658" flag="0"/>
      <psa30 value="0.0007829023" flag="0"/>
    </comp>
    <comp name="--.HHZ">
      <acc value="0.0650346654" flag="0"/>
      <vel value="0.0173730443" flag="0"/>
      <psa03 value="0.0799009919" flag="0"/>
      <psa10 value="0.0053219573" flag="0"/>
      <psa30 value="0.0004637122" flag="0"/>
    </comp>
  </station>
  <station code="KTHA" name="KTHA" netid="GE" source="GFZ" insttype="STS-2/N" lat="36.2566" lon="23.0621">
    <comp name="--.HHE">
      <acc value="0.2219162016" flag="0"/>
      <vel value="0.0459130449" flag="0"/>
      <psa03 value="0.2449634133" flag="0"/>
      <psa10 value="0.0143871344" flag="0"/>
      <psa30 value="0.0014689772" flag="0"/>
    </comp>
    <comp name="--.HHN">
      <acc value="0.1669937869" flag="0"/>
      <vel value="0.0372145202" flag="0"/>
      <psa03 value="0.1720251126" flag="0"/>
      <psa10 value="0.0074555162" flag="0"/>
      <psa30 value="0.0006383659" flag="0"/>
    </comp>
    <comp name="--.HHZ">
      <acc value="0.0934221476" flag="0"/>
      <vel value="0.0240439159" flag="0"/>
      <psa03 value="0.0633909916" flag="0"/>
      <psa10 value="0.0033890607" flag="0"/>
      <psa30 value="0.0003983824" flag="0"/>
    </comp>
  </station>
  <station code="CHAN" name="CHAN" netid="HC" source="NOA" insttype="120" lat="35.5193" lon="24.0428">
    <comp name="--.HHE">
      <acc value="0.3374305262" flag="0"/>
      <vel value="0.0892996769" flag="0"/>
      <psa03 value="0.4285150276" flag="0"/>
      <psa10 value="0.0329934227" flag="0"/>
      <psa30 value="0.0020906031" flag="0"/>
    </comp>
    <comp name="--.HHN">
      <acc value="0.4222646554" flag="0"/>
      <vel value="0.1524625680" flag="0"/>
      <psa03 value="0.7849345925" flag="0"/>
      <psa10 value="0.0499849956" flag="0"/>
      <psa30 value="0.0044347167" flag="0"/>
    </comp>
    <comp name="--.HHZ">
      <acc value="0.4049132099" flag="0"/>
      <vel value="0.0536833012" flag="0"/>
      <psa03 value="0.3488927411" flag="0"/>
      <psa10 value="0.0143535186" flag="0"/>
      <psa30 value="0.0011462976" flag="0"/>
    </comp>
  </station>
  <station code="KTHR" name="KTHR" netid="HC" source="NOA" insttype="120" lat="36.2447" lon="22.9939">
    <comp name="--.HHE">
      <acc value="0.6441344259" flag="0"/>
      <vel value="0.1968846736" flag="0"/>
      <psa03 value="0.6686015322" flag="0"/>
      <psa10 value="0.0662757121" flag="0"/>
      <psa30 value="0.0044535042" flag="0"/>
    </comp>
    <comp name="--.HHN">
      <acc value="0.7317106896" flag="0"/>
      <vel value="0.1957745580" flag="0"/>
      <psa03 value="0.9007175022" flag="0"/>
      <psa10 value="0.0311264533" flag="0"/>
      <psa30 value="0.0023454884" flag="0"/>
    </comp>
    <comp name="--.HHZ">
      <acc value="0.4669232041" flag="0"/>
      <vel value="0.1112140753" flag="0"/>
      <psa03 value="0.3575057597" flag="0"/>
      <psa10 value="0.0196797852" flag="0"/>
      <psa30 value="0.0019514011" flag="0"/>
    </comp>
  </station>
  <station code="PRNS" name="PRNS" netid="HC" source="NOA" insttype="120" lat="35.3445" lon="24.4266">
    <comp name="--.HHE">
      <acc value="0.1915868315" flag="0"/>
      <vel value="0.0413047574" flag="0"/>
      <psa03 value="0.1309645075" flag="0"/>
      <psa10 value="0.0121390404" flag="0"/>
      <psa30 value="0.0005284159" flag="0"/>
    </comp>
    <comp name="--.HHN">
      <acc value="0.1712316674" flag="0"/>
      <vel value="0.0381912595" flag="0"/>
      <psa03 value="0.1873594252" flag="0"/>
      <psa10 value="0.0103023694" flag="0"/>
      <psa30 value="0.0008932636" flag="0"/>
    </comp>
    <comp name="--.HHZ">
      <acc value="0.0863465642" flag="0"/>
      <vel value="0.0193471870" flag="0"/>
      <psa03 value="0.0576797449" flag="0"/>
      <psa10 value="0.0060530897" flag="0"/>
      <psa30 value="0.0003944688" flag="0"/>
    </comp>
  </station>
  <station code="RODP" name="RODP" netid="HC" source="NOA" insttype="1s-100Hz," lat="35.5604" lon="23.7577">
    <comp name="--.HHE">
      <acc value="0.1042639923" flag="0"/>
      <vel value="0.0200773283" flag="0"/>
      <psa03 value="0.0747380952" flag="0"/>
      <psa10 value="0.0047161601" flag="0"/>
      <psa30 value="0.0003882175" flag="0"/>
    </comp>
    <comp name="--.HHN">
      <acc value="0.2086300947" flag="0"/>
      <vel value="0.0445546842" flag="0"/>
      <psa03 value="0.1599888928" flag="0"/>
      <psa10 value="0.0063147071" flag="0"/>
      <psa30 value="0.0007615213" flag="0"/>
    </comp>
    <comp name="--.HHZ">
      <acc value="0.1095764978" flag="0"/>
      <vel value="0.0305147357" flag="0"/>
      <psa03 value="0.1981645107" flag="0"/>
      <psa10 value="0.0095936314" flag="0"/>
      <psa30 value="0.0010610883" flag="0"/>
    </comp>
  </station>
  <station code="ANKY" name="ANKY" netid="HL" source="NOA" insttype="60" lat="35.867" lon="23.3012">
    <comp name="--.HHE">
      <acc value="0.0483272021" flag="0"/>
      <vel value="0.0200934114" flag="0"/>
      <psa03 value="0.0658361421" flag="0"/>
      <psa10 value="0.0134138742" flag="0"/>
      <psa30 value="0.0008814987" flag="0"/>
    </comp>
    <comp name="--.HHN">
      <acc value="0.0598084131" flag="0"/>
      <vel value="0.0226943936" flag="0"/>
      <psa03 value="0.1033709611" flag="0"/>
      <psa10 value="0.0089472192" flag="0"/>
      <psa30 value="0.0007028957" flag="0"/>
    </comp>
    <comp name="--.HHZ">
      <acc value="0.0425416125" flag="0"/>
      <vel value="0.0166538407" flag="0"/>
      <psa03 value="0.0473689735" flag="0"/>
      <psa10 value="0.0063230022" flag="0"/>
      <psa30 value="0.0003071859" flag="0"/>
    </comp>
  </station>
  <station code="IMMV" name="IMMV" netid="HL" source="NOA" insttype="120" lat="35.4606" lon="23.9811">
    <comp name="--.HHE">
      <acc value="0.1398644802" flag="0"/>
      <vel value="0.0360789436" flag="0"/>
      <psa03 value="0.1451875739" flag="0"/>
      <psa10 value="0.0100931655" flag="0"/>
      <psa30 value="0.0006163830" flag="0"/>
    </comp>
    <comp name="--.HHN">
      <acc value="0.0867663053" flag="0"/>
      <vel value="0.0246321287" flag="0"/>
      <psa03 value="0.1563537277" flag="0"/>
      <psa10 value="0.0110244571" flag="0"/>
      <psa30 value="0.0007704352" flag="0"/>
    </comp>
    <comp name="--.HHZ">
      <acc value="0.0646342771" flag="0"/>
      <vel value="0.0168673478" flag="0"/>
      <psa03 value="0.0775485195" flag="0"/>
      <psa10 value="0.0052573704" flag="0"/>
      <psa30 value="0.0004562501" flag="0"/>
    </comp>
  </station>
  <station code="KTHA" name="KTHA" netid="HL" source="NOA" insttype="120" lat="36.2566" lon="23.0621">
    <comp name="--.HHZ">
      <acc value="0.0860991825" flag="0"/>
      <vel value="0.0232894054" flag="0"/>
      <psa03 value="0.0618919115" flag="0"/>
      <psa10 value="0.0032675437" flag="0"/>
      <psa30 value="0.0003890874" flag="0"/>
    </comp>
  </station>
  <station code="MHLO" name="MHLO" netid="HL" source="NOA" insttype="20" lat="36.6898" lon="24.4017">
    <comp name="--.HHE">
      <acc value="0.0785301358" flag="0"/>
      <vel value="0.0318300284" flag="0"/>
      <psa03 value="0.1470487663" flag="0"/>
      <psa10 value="0.0361528442" flag="0"/>
      <psa30 value="0.0017383290" flag="0"/>
    </comp>
    <comp name="--.HHN">
      <acc value="0.1147459498" flag="0"/>
      <vel value="0.0318089427" flag="0"/>
      <psa03 value="0.2076494981" flag="0"/>
      <psa10 value="0.0237155040" flag="0"/>
      <psa30 value="0.0014567029" flag="0"/>
    </comp>
    <comp name="--.HHZ">
      <acc value="0.0458331247" flag="0"/>
      <vel value="0.0168340765" flag="0"/>
      <psa03 value="0.1233671861" flag="0"/>
      <psa10 value="0.0163873271" flag="0"/>
      <psa30 value="0.0006640753" flag="0"/>
    </comp>
  </station>
  <station code="MNVA" name="MNVA" netid="HL" source="NOA" insttype="CMG-5" lat="36.6871" lon="23.0373">
    <comp name="00.HNE">
      <acc value="0.0278937840" flag="0"/>
      <vel value="0.0104154662" flag="0"/>
      <psa03 value="0.0556888254" flag="0"/>
      <psa10 value="0.0034070895" flag="0"/>
      <psa30 value="0.0004258059" flag="0"/>
    </comp>
    <comp name="00.HNN">
      <acc value="0.0393726509" flag="0"/>
      <vel value="0.0090796346" flag="0"/>
      <psa03 value="0.0353704600" flag="0"/>
      <psa10 value="0.0029451656" flag="0"/>
      <psa30 value="0.0002899953" flag="0"/>
    </comp>
    <comp name="00.HNZ">
      <acc value="0.0319743230" flag="0"/>
      <vel value="0.0074759263" flag="0"/>
      <psa03 value="0.0452745515" flag="0"/>
      <psa10 value="0.0026095960" flag="0"/>
      <psa30 value="0.0001874130" flag="0"/>
    </comp>
  </station>
  <station code="VAM" name="VAM" netid="HL" source="NOA" insttype="120" lat="35.407" lon="24.1997">
    <comp name="--.HHE">
      <acc value="0.1168047726" flag="0"/>
      <vel value="0.0274799197" flag="0"/>
      <psa03 value="0.1397866444" flag="0"/>
      <psa10 value="0.0091597646" flag="0"/>
      <psa30 value="0.0005059088" flag="0"/>
    </comp>
    <comp name="--.HHN">
      <acc value="0.1907731537" flag="0"/>
      <vel value="0.0387610505" flag="0"/>
      <psa03 value="0.1323428102" flag="0"/>
      <psa10 value="0.0085696396" flag="0"/>
      <psa30 value="0.0006449363" flag="0"/>
    </comp>
    <comp name="--.HHZ">
      <acc value="0.1297195629" flag="0"/>
      <vel value="0.0208410565" flag="0"/>
      <psa03 value="0.0728726059" flag="0"/>
      <psa10 value="0.0041703403" flag="0"/>
      <psa30 value="0.0003672566" flag="0"/>
    </comp>
  </station>
  <station code="VLI" name="VLI" netid="HL" source="NOA" insttype="60" lat="36.718" lon="22.9469">
    <comp name="--.HHE">
      <acc value="0.0813158919" flag="0"/>
      <vel value="0.0207840800" flag="0"/>
      <psa03 value="0.1275868735" flag="0"/>
      <psa10 value="0.0068586788" flag="0"/>
      <psa30 value="0.0005996987" flag="0"/>
    </comp>
    <comp name="--.HHN">
      <acc value="0.0612901694" flag="0"/>
      <vel value="0.0227564077" flag="0"/>
      <psa03 value="0.1156928526" flag="0"/>
      <psa10 value="0.0101108569" flag="0"/>
      <psa30 value="0.0006431651" flag="0"/>
    </comp>
    <comp name="--.HHZ">
      <acc value="0.0570904870" flag="0"/>
      <vel value="0.0119267761" flag="0"/>
      <psa03 value="0.0449459569" flag="0"/>
      <psa10 value="0.0030775664" flag="0"/>
      <psa30 value="0.0002955533" flag="0"/>
    </comp>
  </station>
</stationlist>
