<stationlist xmlns:esm="https://esm-db.eu/esmws/shakemap/1/" created="1783475696">
	<station code="IMMV" name="IMMV" netid="GE" source="GEOFON" insttype="" lat="35.4606" lon="23.9811" esm:processing="manual (Paolucci et al 2011)" esm:quality="best">
		<comp name="--.HNE" depth="0.0">
			<acc value="0.136032149727342" flag="0"/>
			<vel value="0.0368668247429393" flag="0"/>
			<psa03 value="0.146754437707931" flag="0"/>
			<psa10 value="0.0101273984680458" flag="0"/>
			<psa30 value="0.000623706360258708" flag="0"/>
		</comp>
		<comp name="--.HNN" depth="0.0">
			<acc value="0.0835461099452767" flag="0"/>
			<vel value="0.0248901177272672" flag="0"/>
			<psa03 value="0.159371739974284" flag="0"/>
			<psa10 value="0.0110978569295961" flag="0"/>
			<psa30 value="0.000799543232268516" flag="0"/>
		</comp>
		<comp name="--.HNZ" depth="0.0">
			<acc value="0.0642893076726005" flag="0"/>
			<vel value="0.0173681257138534" flag="0"/>
			<psa03 value="0.077046079796664" flag="0"/>
			<psa10 value="0.00531537414625068" flag="0"/>
			<psa30 value="0.000470688013624219" flag="0"/>
		</comp>
	</station>
	<station code="KTHA" name="KTHA" netid="GE" source="GEOFON" insttype="" lat="36.2566" lon="23.0621" esm:processing="manual (Paolucci et al 2011)" esm:quality="best">
		<comp name="--.HNE" depth="0.0">
			<acc value="0.20904645974728" flag="0"/>
			<vel value="0.0471537066560551" flag="0"/>
			<psa03 value="0.250153677202757" flag="0"/>
			<psa10 value="0.0141541970636903" flag="0"/>
			<psa30 value="0.00146485984468222" flag="0"/>
		</comp>
		<comp name="--.HNN" depth="0.0">
			<acc value="0.156511233760102" flag="0"/>
			<vel value="0.0358571703586662" flag="0"/>
			<psa03 value="0.173062855199475" flag="0"/>
			<psa10 value="0.00794084683061087" flag="0"/>
			<psa30 value="0.00064876199596494" flag="0"/>
		</comp>
		<comp name="--.HNZ" depth="0.0">
			<acc value="0.0907331830769625" flag="0"/>
			<vel value="0.024065829637218" flag="0"/>
			<psa03 value="0.0647867151832575" flag="0"/>
			<psa10 value="0.00341875200770214" flag="0"/>
			<psa30 value="0.000405811814027725" flag="0"/>
		</comp>
	</station>
	<station code="CH01" name="CH01" netid="HI" source="ITSAK Strong Motion Network" insttype="" lat="35.517" lon="24.0208" esm:processing="manual (Paolucci et al 2011)" esm:quality="best">
		<comp name="--.HNE" depth="0.0">
			<acc value="0.27402875371293" flag="0"/>
			<vel value="0.0457775323947218" flag="0"/>
			<psa03 value="0.136195276946019" flag="0"/>
			<psa10 value="0.0137595708013171" flag="0"/>
			<psa30 value="0.000908266794350916" flag="0"/>
		</comp>
		<comp name="--.HNN" depth="0.0">
			<acc value="0.326717839317375" flag="0"/>
			<vel value="0.0538674788028647" flag="0"/>
			<psa03 value="0.268632208536104" flag="0"/>
			<psa10 value="0.0136065524546826" flag="0"/>
			<psa30 value="0.00128320648581203" flag="0"/>
		</comp>
		<comp name="--.HNZ" depth="0.0">
			<acc value="0.170216293831884" flag="0"/>
			<vel value="0.0311380291609544" flag="0"/>
			<psa03 value="0.105546865412503" flag="0"/>
			<psa10 value="0.00745763099913354" flag="0"/>
			<psa30 value="0.000441158157256159" flag="0"/>
		</comp>
	</station>
	<station code="NPS1" name="NPS1" netid="HI" source="ITSAK Strong Motion Network" insttype="" lat="36.51263" lon="23.06248" esm:processing="manual (Paolucci et al 2011)" esm:quality="best">
		<comp name="--.HNE" depth="0.0">
			<acc value="0.0917063726233633" flag="0"/>
			<vel value="0.0318864695174324" flag="0"/>
			<psa03 value="0.21955000787586" flag="0"/>
			<psa10 value="0.0090844576317739" flag="0"/>
			<psa30 value="0.000710506241098155" flag="0"/>
		</comp>
		<comp name="--.HNN" depth="0.0">
			<acc value="0.081891540573078" flag="0"/>
			<vel value="0.0319666647530378" flag="0"/>
			<psa03 value="0.185143250986409" flag="0"/>
			<psa10 value="0.0136709812322129" flag="0"/>
			<psa30 value="0.000872025606990116" flag="0"/>
		</comp>
		<comp name="--.HNZ" depth="0.0">
			<acc value="0.0834722066403793" flag="0"/>
			<vel value="0.0186230686596525" flag="0"/>
			<psa03 value="0.0795963855739055" flag="0"/>
			<psa10 value="0.00647509214179629" flag="0"/>
			<psa30 value="0.000354358276416712" flag="0"/>
		</comp>
	</station>
	<station code="PYL1" name="PYL1" netid="HI" source="ITSAK Strong Motion Network" insttype="" lat="36.914188" lon="21.695161" esm:processing="manual (Paolucci et al 2011)" esm:quality="good">
		<comp name="--.HNE" depth="0.0">
			<acc value="0.00153834348639235" flag="0"/>
			<vel value="0.000687381115288708" flag="0"/>
			<psa03 value="0.00501014862954563" flag="0"/>
			<psa10 value="0.000996644929083954" flag="0"/>
			<psa30 value="0.000116394181897603" flag="0"/>
		</comp>
		<comp name="--.HNN" depth="0.0">
			<acc value="0.00243365874682517" flag="0"/>
			<vel value="0.000780992807135759" flag="0"/>
			<psa03 value="0.00321710537004434" flag="0"/>
			<psa10 value="0.000586883116408133" flag="0"/>
			<psa30 value="0.000102428321831929" flag="0"/>
		</comp>
		<comp name="--.HNZ" depth="0.0">
			<acc value="0.00347008170770662" flag="0"/>
			<vel value="0.000706882705818398" flag="0"/>
			<psa03 value="0.0032543103086475" flag="0"/>
			<psa10 value="0.000569954494969297" flag="0"/>
			<psa30 value="7.66738878623647e-05" flag="0"/>
		</comp>
	</station>
	<station code="ANKY" name="ANKY" netid="HL" source="National Observatory of Athens Seismic Network" insttype="" lat="35.86704" lon="23.30117" esm:processing="manual (Paolucci et al 2011)" esm:quality="best">
		<comp name="00.HNE" depth="0.0">
			<acc value="0.0588518128183104" flag="0"/>
			<vel value="0.0197404463977346" flag="0"/>
			<psa03 value="0.0721691792752723" flag="0"/>
			<psa10 value="0.0119636186276597" flag="0"/>
			<psa30 value="0.000723481481017454" flag="0"/>
		</comp>
		<comp name="00.HNN" depth="0.0">
			<acc value="0.0700490012873555" flag="0"/>
			<vel value="0.023601502588447" flag="0"/>
			<psa03 value="0.113197782744228" flag="0"/>
			<psa10 value="0.0106428286882883" flag="0"/>
			<psa30 value="0.000927953365262956" flag="0"/>
		</comp>
		<comp name="00.HNZ" depth="0.0">
			<acc value="0.0588079287202002" flag="0"/>
			<vel value="0.0168364098814143" flag="0"/>
			<psa03 value="0.0433104560064871" flag="0"/>
			<psa10 value="0.00613684105976215" flag="0"/>
			<psa30 value="0.000308721225666075" flag="0"/>
		</comp>
	</station>
	<station code="CHNB" name="CHNB" netid="HL" source="National Observatory of Athens Seismic Network" insttype="" lat="35.48765" lon="24.06605" esm:processing="manual (Paolucci et al 2011)" esm:quality="best">
		<comp name="00.HNE" depth="0.0">
			<acc value="0.229875880368331" flag="0"/>
			<vel value="0.0729939039334691" flag="0"/>
			<psa03 value="0.260143587402698" flag="0"/>
			<psa10 value="0.026987427159594" flag="0"/>
			<psa30 value="0.00177019309994072" flag="0"/>
		</comp>
		<comp name="00.HNN" depth="0.0">
			<acc value="0.278370839970419" flag="0"/>
			<vel value="0.104124350996409" flag="0"/>
			<psa03 value="0.339966396105081" flag="0"/>
			<psa10 value="0.0415522838848082" flag="0"/>
			<psa30 value="0.00224489287980376" flag="0"/>
		</comp>
		<comp name="00.HNZ" depth="0.0">
			<acc value="0.177407994769021" flag="0"/>
			<vel value="0.0428172408732483" flag="0"/>
			<psa03 value="0.329366131389797" flag="0"/>
			<psa10 value="0.0126202029014869" flag="0"/>
			<psa30 value="0.000882191982555396" flag="0"/>
		</comp>
	</station>
	<station code="GVD" name="GVD" netid="HL" source="National Observatory of Athens Seismic Network" insttype="" lat="34.83914" lon="24.08738" esm:processing="manual (Paolucci et al 2011)" esm:quality="bad">
		<comp name="00.HNE" depth="1.0">
			<acc value="0.00929884835271688" flag="0"/>
			<vel value="0.00353994866192311" flag="0"/>
			<psa03 value="0.0256951891593483" flag="0"/>
			<psa10 value="0.00222227346471" flag="0"/>
			<psa30 value="0.000226962951848491" flag="0"/>
		</comp>
		<comp name="00.HNN" depth="1.0">
			<acc value="0.0132712311694861" flag="0"/>
			<vel value="0.00437211667567862" flag="0"/>
			<psa03 value="0.0312736185987489" flag="0"/>
			<psa10 value="0.00240824289364705" flag="0"/>
			<psa30 value="0.000256316875568478" flag="0"/>
		</comp>
		<comp name="00.HNZ" depth="1.0">
			<acc value="0.00997619091631625" flag="0"/>
			<vel value="0.0027490846151498" flag="0"/>
			<psa03 value="0.011339094909388" flag="0"/>
			<psa10 value="0.00154668214760102" flag="0"/>
			<psa30 value="0.000147811823057786" flag="0"/>
		</comp>
	</station>
	<station code="HERG" name="HERG" netid="HL" source="National Observatory of Athens Seismic Network" insttype="" lat="35.32622" lon="25.06586" esm:processing="manual (Paolucci et al 2011)" esm:quality="good">
		<comp name="00.HNE" depth="0.0">
			<acc value="0.0483302472128536" flag="0"/>
			<vel value="0.0172591232669907" flag="0"/>
			<psa03 value="0.0895126068543831" flag="0"/>
			<psa10 value="0.0130342378292983" flag="0"/>
			<psa30 value="0.000742301725929298" flag="0"/>
		</comp>
		<comp name="00.HNN" depth="0.0">
			<acc value="0.0526896302631632" flag="0"/>
			<vel value="0.0159981091066232" flag="0"/>
			<psa03 value="0.135877188696895" flag="0"/>
			<psa10 value="0.0107268749778238" flag="0"/>
			<psa30 value="0.000446817151526867" flag="0"/>
		</comp>
		<comp name="00.HNZ" depth="0.0">
			<acc value="0.0722297765605063" flag="0"/>
			<vel value="0.019168416485398" flag="0"/>
			<psa03 value="0.0701709870253014" flag="0"/>
			<psa10 value="0.00906835760920015" flag="0"/>
			<psa30 value="0.000508008705165962" flag="0"/>
		</comp>
	</station>
	<station code="IACM" name="IACM" netid="HL" source="National Observatory of Athens Seismic Network" insttype="" lat="35.3058" lon="25.0709" esm:processing="manual (Paolucci et al 2011)" esm:quality="good">
		<comp name="--.HNE" depth="0.0">
			<acc value="0.134618422611981" flag="0"/>
			<vel value="0.0473360541158869" flag="0"/>
			<psa03 value="0.219728976702333" flag="0"/>
			<psa10 value="0.017883012563257" flag="0"/>
			<psa30 value="0.000798648388136151" flag="0"/>
		</comp>
		<comp name="--.HNN" depth="0.0">
			<acc value="0.117336110026982" flag="0"/>
			<vel value="0.0354369043394075" flag="0"/>
			<psa03 value="0.215120529420651" flag="0"/>
			<psa10 value="0.0167595357550722" flag="0"/>
			<psa30 value="0.000743615473995676" flag="0"/>
		</comp>
		<comp name="--.HNZ" depth="0.0">
			<acc value="0.13853867452207" flag="0"/>
			<vel value="0.031742532677907" flag="0"/>
			<psa03 value="0.15015484541092" flag="0"/>
			<psa10 value="0.00727239826373389" flag="0"/>
			<psa30 value="0.000484558097675883" flag="0"/>
		</comp>
	</station>
	<station code="IMMV" name="IMMV" netid="HL" source="National Observatory of Athens Seismic Network" insttype="" lat="35.4606" lon="23.9811" esm:processing="manual (Paolucci et al 2011)" esm:quality="best">
		<comp name="--.HNE" depth="0.0">
			<acc value="0.13603210246749" flag="0"/>
			<vel value="0.0368668021675854" flag="0"/>
			<psa03 value="0.146754437707931" flag="0"/>
			<psa10 value="0.0101273984680458" flag="0"/>
			<psa30 value="0.000623706360258708" flag="0"/>
		</comp>
		<comp name="--.HNN" depth="0.0">
			<acc value="0.0835460715497787" flag="0"/>
			<vel value="0.0248900931813102" flag="0"/>
			<psa03 value="0.159371739974284" flag="0"/>
			<psa10 value="0.0110978569295961" flag="0"/>
			<psa30 value="0.000799543232268516" flag="0"/>
		</comp>
		<comp name="--.HNZ" depth="0.0">
			<acc value="0.0642892229962252" flag="0"/>
			<vel value="0.0173681308996583" flag="0"/>
			<psa03 value="0.077046079796664" flag="0"/>
			<psa10 value="0.00531537414625068" flag="0"/>
			<psa30 value="0.000470688013624219" flag="0"/>
		</comp>
	</station>
	<station code="KTHA" name="KTHA" netid="HL" source="National Observatory of Athens Seismic Network" insttype="" lat="36.2566" lon="23.0621" esm:processing="manual (Paolucci et al 2011)" esm:quality="best">
		<comp name="--.HNE" depth="0.0">
			<acc value="0.204868986286174" flag="0"/>
			<vel value="0.0461846553878273" flag="0"/>
			<psa03 value="0.245097807854893" flag="0"/>
			<psa10 value="0.0138682943633995" flag="0"/>
			<psa30 value="0.0014317506117847" flag="0"/>
		</comp>
		<comp name="--.HNN" depth="0.0">
			<acc value="0.153371951574648" flag="0"/>
			<vel value="0.035179998856492" flag="0"/>
			<psa03 value="0.16957296308325" flag="0"/>
			<psa10 value="0.00778380168538074" flag="0"/>
			<psa30 value="0.000640260976707469" flag="0"/>
		</comp>
		<comp name="--.HNZ" depth="0.0">
			<acc value="0.0889152246336593" flag="0"/>
			<vel value="0.0235895842275326" flag="0"/>
			<psa03 value="0.0634891911913276" flag="0"/>
			<psa10 value="0.00334626963298054" flag="0"/>
			<psa30 value="0.000394626262373157" flag="0"/>
		</comp>
	</station>
	<station code="MNVA" name="MNVA" netid="HL" source="National Observatory of Athens Seismic Network" insttype="" lat="36.68709" lon="23.03734" esm:processing="manual (Paolucci et al 2011)" esm:quality="best">
		<comp name="00.HNE" depth="0.0">
			<acc value="0.0262785026271912" flag="0"/>
			<vel value="0.010405498117871" flag="0"/>
			<psa03 value="0.0556593050331301" flag="0"/>
			<psa10 value="0.00341069841051086" flag="0"/>
			<psa30 value="0.000434446826263419" flag="0"/>
		</comp>
		<comp name="00.HNN" depth="0.0">
			<acc value="0.0369265484961172" flag="0"/>
			<vel value="0.0091180414703315" flag="0"/>
			<psa03 value="0.0354805698482895" flag="0"/>
			<psa10 value="0.00295567016920303" flag="0"/>
			<psa30 value="0.000302009894673334" flag="0"/>
		</comp>
		<comp name="00.HNZ" depth="0.0">
			<acc value="0.0280595971471787" flag="0"/>
			<vel value="0.00740264689350356" flag="0"/>
			<psa03 value="0.0454133397175458" flag="0"/>
			<psa10 value="0.00260936548997761" flag="0"/>
			<psa30 value="0.00019104922226002" flag="0"/>
		</comp>
	</station>
	<station code="ARS1" name="ARS1" netid="HI" source="ITSAK Strong Motion Network" insttype="" lat="37.6349" lon="22.7293" esm:processing="discarded" esm:quality="bad">
		<comp name="--.HNE" depth="0.0">
			<acc value="0" flag="1"/>
			<vel value="0" flag="1"/>
			<psa03 value="0" flag="1"/>
			<psa10 value="0" flag="1"/>
			<psa30 value="0" flag="1"/>
		</comp>
		<comp name="--.HNN" depth="0.0">
			<acc value="0" flag="1"/>
			<vel value="0" flag="1"/>
			<psa03 value="0" flag="1"/>
			<psa10 value="0" flag="1"/>
			<psa30 value="0" flag="1"/>
		</comp>
		<comp name="--.HNZ" depth="0.0">
			<acc value="0" flag="1"/>
			<vel value="0" flag="1"/>
			<psa03 value="0" flag="1"/>
			<psa10 value="0" flag="1"/>
			<psa30 value="0" flag="1"/>
		</comp>
	</station>
	<station code="NAX1" name="NAX1" netid="HI" source="ITSAK Strong Motion Network" insttype="" lat="37.101394" lon="25.374103" esm:processing="discarded" esm:quality="good">
		<comp name="--.HNE" depth="0.0">
			<acc value="0" flag="1"/>
			<vel value="0" flag="1"/>
			<psa03 value="0" flag="1"/>
			<psa10 value="0" flag="1"/>
			<psa30 value="0" flag="1"/>
		</comp>
		<comp name="--.HNN" depth="0.0">
			<acc value="0" flag="1"/>
			<vel value="0" flag="1"/>
			<psa03 value="0" flag="1"/>
			<psa10 value="0" flag="1"/>
			<psa30 value="0" flag="1"/>
		</comp>
		<comp name="--.HNZ" depth="0.0">
			<acc value="0" flag="1"/>
			<vel value="0" flag="1"/>
			<psa03 value="0" flag="1"/>
			<psa10 value="0" flag="1"/>
			<psa30 value="0" flag="1"/>
		</comp>
	</station>
	<station code="AGNA" name="AGNA" netid="HL" source="National Observatory of Athens Seismic Network" insttype="" lat="35.1895" lon="25.71853" esm:processing="discarded" esm:quality="bad">
		<comp name="00.HNE" depth="0.0">
			<acc value="0" flag="1"/>
			<vel value="0" flag="1"/>
			<psa03 value="0" flag="1"/>
			<psa10 value="0" flag="1"/>
			<psa30 value="0" flag="1"/>
		</comp>
		<comp name="00.HNN" depth="0.0">
			<acc value="0" flag="1"/>
			<vel value="0" flag="1"/>
			<psa03 value="0" flag="1"/>
			<psa10 value="0" flag="1"/>
			<psa30 value="0" flag="1"/>
		</comp>
		<comp name="00.HNZ" depth="0.0">
			<acc value="0" flag="1"/>
			<vel value="0" flag="1"/>
			<psa03 value="0" flag="1"/>
			<psa10 value="0" flag="1"/>
			<psa30 value="0" flag="1"/>
		</comp>
	</station>
	<station code="DRPA" name="DRPA" netid="HL" source="National Observatory of Athens Seismic Network" insttype="" lat="37.94738" lon="23.63024" esm:processing="discarded" esm:quality="bad">
		<comp name="00.HNE" depth="0.0">
			<acc value="0" flag="1"/>
			<vel value="0" flag="1"/>
			<psa03 value="0" flag="1"/>
			<psa10 value="0" flag="1"/>
			<psa30 value="0" flag="1"/>
		</comp>
		<comp name="00.HNN" depth="0.0">
			<acc value="0" flag="1"/>
			<vel value="0" flag="1"/>
			<psa03 value="0" flag="1"/>
			<psa10 value="0" flag="1"/>
			<psa30 value="0" flag="1"/>
		</comp>
		<comp name="00.HNZ" depth="0.0">
			<acc value="0" flag="1"/>
			<vel value="0" flag="1"/>
			<psa03 value="0" flag="1"/>
			<psa10 value="0" flag="1"/>
			<psa30 value="0" flag="1"/>
		</comp>
	</station>
	<station code="ELFA" name="ELFA" netid="HL" source="National Observatory of Athens Seismic Network" insttype="" lat="38.04472" lon="23.5405" esm:processing="discarded" esm:quality="bad">
		<comp name="00.HNE" depth="0.0">
			<acc value="0" flag="1"/>
			<vel value="0" flag="1"/>
			<psa03 value="0" flag="1"/>
			<psa10 value="0" flag="1"/>
			<psa30 value="0" flag="1"/>
		</comp>
		<comp name="00.HNN" depth="0.0">
			<acc value="0" flag="1"/>
			<vel value="0" flag="1"/>
			<psa03 value="0" flag="1"/>
			<psa10 value="0" flag="1"/>
			<psa30 value="0" flag="1"/>
		</comp>
		<comp name="00.HNZ" depth="0.0">
			<acc value="0" flag="1"/>
			<vel value="0" flag="1"/>
			<psa03 value="0" flag="1"/>
			<psa10 value="0" flag="1"/>
			<psa30 value="0" flag="1"/>
		</comp>
	</station>
	<station code="ITM" name="ITM" netid="HL" source="National Observatory of Athens Seismic Network" insttype="" lat="37.17872" lon="21.92522" esm:processing="discarded" esm:quality="bad">
		<comp name="00.HNE" depth="0.0">
			<acc value="0" flag="1"/>
			<vel value="0" flag="1"/>
			<psa03 value="0" flag="1"/>
			<psa10 value="0" flag="1"/>
			<psa30 value="0" flag="1"/>
		</comp>
		<comp name="00.HNN" depth="0.0">
			<acc value="0" flag="1"/>
			<vel value="0" flag="1"/>
			<psa03 value="0" flag="1"/>
			<psa10 value="0" flag="1"/>
			<psa30 value="0" flag="1"/>
		</comp>
		<comp name="00.HNZ" depth="0.0">
			<acc value="0" flag="1"/>
			<vel value="0" flag="1"/>
			<psa03 value="0" flag="1"/>
			<psa10 value="0" flag="1"/>
			<psa30 value="0" flag="1"/>
		</comp>
	</station>
	<station code="KARA" name="KARA" netid="HL" source="National Observatory of Athens Seismic Network" insttype="" lat="38.01581" lon="24.42014" esm:processing="discarded" esm:quality="bad">
		<comp name="00.HNE" depth="0.0">
			<acc value="0" flag="1"/>
			<vel value="0" flag="1"/>
			<psa03 value="0" flag="1"/>
			<psa10 value="0" flag="1"/>
			<psa30 value="0" flag="1"/>
		</comp>
		<comp name="00.HNN" depth="0.0">
			<acc value="0" flag="1"/>
			<vel value="0" flag="1"/>
			<psa03 value="0" flag="1"/>
			<psa10 value="0" flag="1"/>
			<psa30 value="0" flag="1"/>
		</comp>
		<comp name="00.HNZ" depth="0.0">
			<acc value="0" flag="1"/>
			<vel value="0" flag="1"/>
			<psa03 value="0" flag="1"/>
			<psa10 value="0" flag="1"/>
			<psa30 value="0" flag="1"/>
		</comp>
	</station>
	<station code="NOAC" name="NOAC" netid="HL" source="National Observatory of Athens Seismic Network" insttype="" lat="37.97384" lon="23.71767" esm:processing="discarded" esm:quality="bad">
		<comp name="02.HNE" depth="0.0">
			<acc value="0" flag="1"/>
			<vel value="0" flag="1"/>
			<psa03 value="0" flag="1"/>
			<psa10 value="0" flag="1"/>
			<psa30 value="0" flag="1"/>
		</comp>
		<comp name="02.HNN" depth="0.0">
			<acc value="0" flag="1"/>
			<vel value="0" flag="1"/>
			<psa03 value="0" flag="1"/>
			<psa10 value="0" flag="1"/>
			<psa30 value="0" flag="1"/>
		</comp>
		<comp name="02.HNZ" depth="0.0">
			<acc value="0" flag="1"/>
			<vel value="0" flag="1"/>
