<?xml version="1.0" encoding="UTF-8" standalone="yes"?>
<!DOCTYPE earthquake SYSTEM "stationlist.dtd">
<stationlist created="" xmlns="ch.ethz.sed.shakemap.usgs.xml">
  <station code="DARE" name="DARE" netid="KO" insttype="CMG-3ESP" lat="38.5712" lon="37.4832">
    <comp name="--.HHE">
      <acc value="0.0078679445" flag="0"/>
      <vel value="0.0043608077" flag="0"/>
      <psa03 value="0.0146769845" flag="0"/>
      <psa10 value="0.0063644799" flag="0"/>
      <psa30 value="0.0004468501" flag="0"/>
    </comp>
    <comp name="--.HHN">
      <acc value="0.0064700236" flag="0"/>
      <vel value="0.0067720581" flag="0"/>
      <psa03 value="0.0193075239" flag="0"/>
      <psa10 value="0.0092626326" flag="0"/>
      <psa30 value="0.0006610123" flag="0"/>
    </comp>
    <comp name="--.HHZ">
      <acc value="0.0054801381" flag="0"/>
      <vel value="0.0035453458" flag="0"/>
      <psa03 value="0.0119373057" flag="0"/>
      <psa10 value="0.0055320404" flag="0"/>
      <psa30 value="0.0004978842" flag="0"/>
    </comp>
  </station>
  <station code="GAZ" name="GAZ" netid="KO" insttype="CMG-3T" lat="37.1721" lon="37.2096">
    <comp name="--.HHE">
      <acc value="0.0477261215" flag="0"/>
      <vel value="0.0316447347" flag="0"/>
      <psa03 value="0.1342093605" flag="0"/>
      <psa10 value="0.0293881873" flag="0"/>
      <psa30 value="0.0016630556" flag="0"/>
    </comp>
    <comp name="--.HHN">
      <acc value="0.0527733006" flag="0"/>
      <vel value="0.0413930280" flag="0"/>
      <psa03 value="0.1205068436" flag="0"/>
      <psa10 value="0.0247203470" flag="0"/>
      <psa30 value="0.0016743528" flag="0"/>
    </comp>
    <comp name="--.HHZ">
      <acc value="0.0444530017" flag="0"/>
      <vel value="0.0293107830" flag="0"/>
      <psa03 value="0.0878842714" flag="0"/>
      <psa10 value="0.0189111978" flag="0"/>
      <psa30 value="0.0015578133" flag="0"/>
    </comp>
  </station>
  <station code="KMRS" name="KMRS" netid="KO" insttype="CMG-3T" lat="37.5087" lon="36.9">
    <comp name="--.HHE">
      <acc value="0.1263607389" flag="0"/>
      <vel value="0.0642433345" flag="0"/>
      <psa03 value="0.2967792678" flag="0"/>
      <psa10 value="0.0346567165" flag="0"/>
      <psa30 value="0.0036345024" flag="0"/>
    </comp>
    <comp name="--.HHN">
      <acc value="0.2324214744" flag="0"/>
      <vel value="0.1059831260" flag="0"/>
      <psa03 value="0.7155915724" flag="0"/>
      <psa10 value="0.0332476483" flag="0"/>
      <psa30 value="0.0033707204" flag="0"/>
    </comp>
    <comp name="--.HHZ">
      <acc value="0.1270539147" flag="0"/>
      <vel value="0.0562020557" flag="0"/>
      <psa03 value="0.3237844936" flag="0"/>
      <psa10 value="0.0150178311" flag="0"/>
      <psa30 value="0.0032755705" flag="0"/>
    </comp>
  </station>
  <station code="SARI" name="SARI" netid="KO" insttype="CMG-3T" lat="38.4072" lon="36.4181">
    <comp name="--.HHN">
      <acc value="0.0650990626" flag="0"/>
      <vel value="0.0241668284" flag="0"/>
      <psa03 value="0.0696669280" flag="0"/>
      <psa10 value="0.0139581319" flag="0"/>
      <psa30 value="0.0012312650" flag="0"/>
    </comp>
    <comp name="--.HHZ">
      <acc value="0.0324475285" flag="0"/>
      <vel value="0.0168633448" flag="0"/>
      <psa03 value="0.0465642082" flag="0"/>
      <psa10 value="0.0223161960" flag="0"/>
      <psa30 value="0.0011881290" flag="0"/>
    </comp>
  </station>
  <station code="ANDN" name="ANDN" netid="TU" insttype="T" lat="37.58" lon="36.3452">
    <comp name="--.HHN">
      <acc value="0.2583901880" flag="0"/>
      <vel value="0.0880512477" flag="0"/>
      <psa03 value="0.3738962317" flag="0"/>
      <psa10 value="0.0988473638" flag="0"/>
      <psa30 value="0.0091187652" flag="0"/>
    </comp>
    <comp name="--.HHE">
      <acc value="0.1633303503" flag="0"/>
      <vel value="0.1158116715" flag="0"/>
      <psa03 value="0.3466987738" flag="0"/>
      <psa10 value="0.1681797829" flag="0"/>
      <psa30 value="0.0081258564" flag="0"/>
    </comp>
    <comp name="--.HHZ">
      <acc value="0.1297427479" flag="0"/>
      <vel value="0.1019574500" flag="0"/>
      <psa03 value="0.1497998134" flag="0"/>
      <psa10 value="0.1215373995" flag="0"/>
      <psa30 value="0.0068113784" flag="0"/>
    </comp>
  </station>
</stationlist>
