<?xml version="1.0" encoding="UTF-8" standalone="yes"?>
<!DOCTYPE earthquake SYSTEM "stationlist.dtd">
<stationlist created="" xmlns="ch.ethz.sed.shakemap.usgs.xml">
  <station code="DARE" name="DARE" netid="KO" insttype="CMG-3ESP" lat="38.5712" lon="37.4832">
    <comp name="--.HHZ">
      <acc value="0.0054801382" flag="0"/>
      <vel value="0.0035453457" flag="0"/>
      <psa03 value="0.0119373057" flag="0"/>
      <psa10 value="0.0055320404" flag="0"/>
      <psa30 value="0.0004978823" flag="0"/>
    </comp>
    <comp name="--.HHE">
      <acc value="0.0078679445" flag="0"/>
      <vel value="0.0043608094" flag="0"/>
      <psa03 value="0.0146769845" flag="0"/>
      <psa10 value="0.0063644799" flag="0"/>
      <psa30 value="0.0004468489" flag="0"/>
    </comp>
    <comp name="--.HHN">
      <acc value="0.0064700236" flag="0"/>
      <vel value="0.0067720570" flag="0"/>
      <psa03 value="0.0193075239" flag="0"/>
      <psa10 value="0.0092626326" flag="0"/>
      <psa30 value="0.0006610255" flag="0"/>
    </comp>
  </station>
  <station code="GAZ" name="GAZ" netid="KO" insttype="CMG-3T" lat="37.1721" lon="37.2096">
    <comp name="--.HHE">
      <acc value="0.0477261218" flag="0"/>
      <vel value="0.0316447339" flag="0"/>
      <psa03 value="0.1342093605" flag="0"/>
      <psa10 value="0.0293881873" flag="0"/>
      <psa30 value="0.0016630294" flag="0"/>
    </comp>
    <comp name="--.HHN">
      <acc value="0.0527733010" flag="0"/>
      <vel value="0.0413930284" flag="0"/>
      <psa03 value="0.1205068436" flag="0"/>
      <psa10 value="0.0247203470" flag="0"/>
      <psa30 value="0.0016743224" flag="0"/>
    </comp>
    <comp name="--.HHZ">
      <acc value="0.0444530019" flag="0"/>
      <vel value="0.0293107833" flag="0"/>
      <psa03 value="0.0878842714" flag="0"/>
      <psa10 value="0.0189111978" flag="0"/>
      <psa30 value="0.0015578142" flag="0"/>
    </comp>
  </station>
  <station code="KMRS" name="KMRS" netid="KO" insttype="CMG-3T" lat="37.5087" lon="36.9">
    <comp name="--.HHZ">
      <acc value="0.1270539149" flag="0"/>
      <vel value="0.0562020558" flag="0"/>
      <psa03 value="0.3237844936" flag="0"/>
      <psa10 value="0.0150178310" flag="0"/>
      <psa30 value="0.0032755637" flag="0"/>
    </comp>
    <comp name="--.HHN">
      <acc value="0.2324214741" flag="0"/>
      <vel value="0.1059831259" flag="0"/>
      <psa03 value="0.7155915724" flag="0"/>
      <psa10 value="0.0332476474" flag="0"/>
      <psa30 value="0.0033707109" flag="0"/>
    </comp>
    <comp name="--.HHE">
      <acc value="0.1263607389" flag="0"/>
      <vel value="0.0642433343" flag="0"/>
      <psa03 value="0.2967792678" flag="0"/>
      <psa10 value="0.0346567162" flag="0"/>
      <psa30 value="0.0036345252" flag="0"/>
    </comp>
  </station>
  <station code="SARI" name="SARI" netid="KO" insttype="CMG-3T" lat="38.4072" lon="36.4181">
    <comp name="--.HHN">
      <acc value="0.0650990624" flag="0"/>
      <vel value="0.0241668283" flag="0"/>
      <psa03 value="0.0696669280" flag="0"/>
      <psa10 value="0.0139581319" flag="0"/>
      <psa30 value="0.0012312625" flag="0"/>
    </comp>
    <comp name="--.HHZ">
      <acc value="0.0324475287" flag="0"/>
      <vel value="0.0168633450" flag="0"/>
      <psa03 value="0.0465642082" flag="0"/>
      <psa10 value="0.0223161961" flag="0"/>
      <psa30 value="0.0011880866" flag="0"/>
    </comp>
  </station>
  <station code="ANDN" name="ANDN" netid="TU" insttype="T" lat="37.58" lon="36.3452">
    <comp name="--.HHE">
      <acc value="0.1633303502" flag="0"/>
      <vel value="0.1158116710" flag="0"/>
      <psa03 value="0.3466987738" flag="0"/>
      <psa10 value="0.1681797825" flag="0"/>
      <psa30 value="0.0081258912" flag="0"/>
    </comp>
    <comp name="--.HHN">
      <acc value="0.2583901880" flag="0"/>
      <vel value="0.0880512478" flag="0"/>
      <psa03 value="0.3738962317" flag="0"/>
      <psa10 value="0.0988473638" flag="0"/>
      <psa30 value="0.0091187660" flag="0"/>
    </comp>
    <comp name="--.HHZ">
      <acc value="0.1297427479" flag="0"/>
      <vel value="0.1019574501" flag="0"/>
      <psa03 value="0.1497998134" flag="0"/>
      <psa10 value="0.1215373996" flag="0"/>
      <psa30 value="0.0068113385" flag="0"/>
    </comp>
  </station>
</stationlist>
