<?xml version="1.0" encoding="UTF-8" standalone="yes"?>
<!DOCTYPE earthquake SYSTEM "stationlist.dtd">
<stationlist created="" xmlns="ch.ethz.sed.shakemap.usgs.xml">
  <station code="KARP" name="KARP" netid="GE" source="GFZ" insttype="STS-2/N" lat="35.5471" lon="27.1611">
    <comp name="--.HHE">
      <acc value="0.1890759932" flag="0"/>
      <vel value="0.0796283419" flag="0"/>
      <psa03 value="0.4079341362" flag="0"/>
      <psa10 value="0.0593012620" flag="0"/>
      <psa30 value="0.0045144934" flag="0"/>
    </comp>
    <comp name="--.HHN">
      <acc value="0.2002069013" flag="0"/>
      <vel value="0.0544358447" flag="0"/>
      <psa03 value="0.3424509585" flag="0"/>
      <psa10 value="0.0604249159" flag="0"/>
      <psa30 value="0.0029052248" flag="0"/>
    </comp>
    <comp name="--.HHZ">
      <acc value="0.1156066934" flag="0"/>
      <vel value="0.0561763638" flag="0"/>
      <psa03 value="0.2785939132" flag="0"/>
      <psa10 value="0.0403260397" flag="0"/>
      <psa30 value="0.0027283961" flag="0"/>
    </comp>
  </station>
  <station code="ZKR" name="ZKR" netid="GE" source="GFZ" insttype="STS-2/N" lat="35.1147" lon="26.2169">
    <comp name="--.HHE">
      <acc value="0.0146975180" flag="0"/>
      <vel value="0.0114858532" flag="0"/>
      <psa03 value="0.0452365889" flag="0"/>
      <psa10 value="0.0223820865" flag="0"/>
      <psa30 value="0.0009037121" flag="0"/>
    </comp>
    <comp name="--.HHN">
      <acc value="0.0089397881" flag="0"/>
      <vel value="0.0080294775" flag="0"/>
      <psa03 value="0.0271178783" flag="0"/>
      <psa10 value="0.0077903931" flag="0"/>
      <psa30 value="0.0006006969" flag="0"/>
    </comp>
    <comp name="--.HHZ">
      <acc value="0.0074450651" flag="0"/>
      <vel value="0.0045676837" flag="0"/>
      <psa03 value="0.0134264598" flag="0"/>
      <psa10 value="0.0124281529" flag="0"/>
      <psa30 value="0.0008249317" flag="0"/>
    </comp>
  </station>
  <station code="STIA" name="STIA" netid="HC" source="NOA" insttype="120" lat="35.2021" lon="26.0909">
    <comp name="--.HHE">
      <acc value="0.0110060115" flag="0"/>
      <vel value="0.0093554126" flag="0"/>
      <psa03 value="0.0268702817" flag="0"/>
      <psa10 value="0.0186339414" flag="0"/>
      <psa30 value="0.0012045420" flag="0"/>
    </comp>
    <comp name="--.HHN">
      <acc value="0.0130304456" flag="0"/>
      <vel value="0.0115431522" flag="0"/>
      <psa03 value="0.0303129662" flag="0"/>
      <psa10 value="0.0255368669" flag="0"/>
      <psa30 value="0.0010176708" flag="0"/>
    </comp>
    <comp name="--.HHZ">
      <acc value="0.0099556666" flag="0"/>
      <vel value="0.0074502075" flag="0"/>
      <psa03 value="0.0344489272" flag="0"/>
      <psa10 value="0.0116787850" flag="0"/>
      <psa30 value="0.0007059016" flag="0"/>
    </comp>
  </station>
  <station code="ARG" name="ARG" netid="HL" source="NOA" insttype="LE3D20_DR24" lat="36.2136" lon="28.1212">
    <comp name="--.HHE">
      <acc value="0.0125851779" flag="0"/>
      <vel value="0.0086442123" flag="0"/>
      <psa03 value="0.0247801539" flag="0"/>
      <psa10 value="0.0158583787" flag="0"/>
      <psa30 value="0.0021842825" flag="0"/>
    </comp>
    <comp name="--.HHN">
      <acc value="0.0099063378" flag="0"/>
      <vel value="0.0096382381" flag="0"/>
      <psa03 value="0.0179631296" flag="0"/>
      <psa10 value="0.0186896344" flag="0"/>
      <psa30 value="0.0019304238" flag="0"/>
    </comp>
    <comp name="--.HHZ">
      <acc value="0.0061783168" flag="0"/>
      <vel value="0.0051858749" flag="0"/>
      <psa03 value="0.0120047361" flag="0"/>
      <psa10 value="0.0080342158" flag="0"/>
      <psa30 value="0.0009267383" flag="0"/>
    </comp>
  </station>
  <station code="KARP" name="KARP" netid="HL" source="NOA" insttype="120" lat="35.5471" lon="27.1611">
    <comp name="--.HHE">
      <acc value="0.1828388387" flag="0"/>
      <vel value="0.0780188501" flag="0"/>
      <psa03 value="0.3994082288" flag="0"/>
      <psa10 value="0.0588173492" flag="0"/>
      <psa30 value="0.0044593623" flag="0"/>
    </comp>
    <comp name="--.HHN">
      <acc value="0.1914516690" flag="0"/>
      <vel value="0.0533528583" flag="0"/>
      <psa03 value="0.3337806348" flag="0"/>
      <psa10 value="0.0601030154" flag="0"/>
      <psa30 value="0.0028733730" flag="0"/>
    </comp>
    <comp name="--.HHZ">
      <acc value="0.1093559181" flag="0"/>
      <vel value="0.0546556073" flag="0"/>
      <psa03 value="0.2726647044" flag="0"/>
      <psa10 value="0.0399124436" flag="0"/>
      <psa30 value="0.0026960260" flag="0"/>
    </comp>
  </station>
  <station code="ZKR" name="ZKR" netid="HL" source="NOA" insttype="120" lat="35.1147" lon="26.2169">
    <comp name="--.HHE">
      <acc value="0.0143881582" flag="0"/>
      <vel value="0.0113990267" flag="0"/>
      <psa03 value="0.0439976337" flag="0"/>
      <psa10 value="0.0222174982" flag="0"/>
      <psa30 value="0.0008977460" flag="0"/>
    </comp>
  </station>
</stationlist>
