<stationlist xmlns:esm="https://esm-db.eu/esmws/shakemap/1/" created="1781229255">
	<station code="KARP" name="KARP" netid="GE" source="GEOFON" insttype="" lat="35.5471" lon="27.16106" esm:processing="manual (Paolucci et al 2011)" esm:quality="best">
		<comp name="--.HNE" depth="0.0">
			<acc value="0.186315998877184" flag="0"/>
			<vel value="0.080262518913962" flag="0"/>
			<psa03 value="0.410822941168971" flag="0"/>
			<psa10 value="0.065520039949731" flag="0"/>
			<psa30 value="0.00479278517294927" flag="0"/>
		</comp>
		<comp name="--.HNN" depth="0.0">
			<acc value="0.170106388043798" flag="0"/>
			<vel value="0.0494049640076966" flag="0"/>
			<psa03 value="0.291316507291567" flag="0"/>
			<psa10 value="0.0497349894548047" flag="0"/>
			<psa30 value="0.00246887496119624" flag="0"/>
		</comp>
		<comp name="--.HNZ" depth="0.0">
			<acc value="0.113388285177101" flag="0"/>
			<vel value="0.0573619673752911" flag="0"/>
			<psa03 value="0.290063725506256" flag="0"/>
			<psa10 value="0.0409847561064693" flag="0"/>
			<psa30 value="0.00290958569638621" flag="0"/>
		</comp>
	</station>
	<station code="ARK1" name="ARK1" netid="HI" source="ITSAK Strong Motion Network" insttype="" lat="35.148777" lon="25.264194" esm:processing="manual (Paolucci et al 2011)" esm:quality="good">
		<comp name="--.HNE" depth="0.0">
			<acc value="0.00540510040587727" flag="0"/>
			<vel value="0.00640576823721492" flag="0"/>
			<psa03 value="0.0122641744205326" flag="0"/>
			<psa10 value="0.01125543968014" flag="0"/>
			<psa30 value="0.00144938955661156" flag="0"/>
		</comp>
		<comp name="--.HNN" depth="0.0">
			<acc value="0.00456192064554683" flag="0"/>
			<vel value="0.00460027494380705" flag="0"/>
			<psa03 value="0.0152011775763276" flag="0"/>
			<psa10 value="0.0097006551207934" flag="0"/>
			<psa30 value="0.00099804059445792" flag="0"/>
		</comp>
		<comp name="--.HNZ" depth="0.0">
			<acc value="0.00437231237923386" flag="0"/>
			<vel value="0.00489208885279726" flag="0"/>
			<psa03 value="0.00913956313349461" flag="0"/>
			<psa10 value="0.00893713922911272" flag="0"/>
			<psa30 value="0.00124383635638751" flag="0"/>
		</comp>
	</station>
	<station code="KSS1" name="KSS1" netid="HI" source="ITSAK Strong Motion Network" insttype="" lat="35.4189" lon="26.9207" esm:processing="automatic (Paolucci et al 2011)" esm:quality="best">
		<comp name="--.HNE" depth="0.0">
			<acc value="0.0409146755710353" flag="0"/>
			<vel value="0.0153648085206549" flag="0"/>
			<psa03 value="0.0636683062544882" flag="0"/>
			<psa10 value="0.0101845815535446" flag="0"/>
			<psa30 value="0.00104789108430822" flag="0"/>
		</comp>
		<comp name="--.HNN" depth="0.0">
			<acc value="0.0518870729353391" flag="0"/>
			<vel value="0.0154089435074453" flag="0"/>
			<psa03 value="0.0799817567321867" flag="0"/>
			<psa10 value="0.0160594151074353" flag="0"/>
			<psa30 value="0.00151118354599342" flag="0"/>
		</comp>
		<comp name="--.HNZ" depth="0.0">
			<acc value="0.0378260498348155" flag="0"/>
			<vel value="0.0200815931513907" flag="0"/>
			<psa03 value="0.087394851980032" flag="0"/>
			<psa10 value="0.0150813465651945" flag="0"/>
			<psa30 value="0.000960390496157018" flag="0"/>
		</comp>
	</station>
	<station code="RDI1" name="RDI1" netid="HI" source="ITSAK Strong Motion Network" insttype="" lat="36.4514" lon="28.224" esm:processing="manual (Paolucci et al 2011)" esm:quality="good">
		<comp name="--.HNE" depth="0.0">
			<acc value="0.00895230181630032" flag="0"/>
			<vel value="0.0118762293516563" flag="0"/>
			<psa03 value="0.0296836643137476" flag="0"/>
			<psa10 value="0.0143979884835754" flag="0"/>
			<psa30 value="0.00451850349534757" flag="0"/>
		</comp>
		<comp name="--.HNN" depth="0.0">
			<acc value="0.00887229417173674" flag="0"/>
			<vel value="0.0130929778133185" flag="0"/>
			<psa03 value="0.0264845122814594" flag="0"/>
			<psa10 value="0.017314630759312" flag="0"/>
			<psa30 value="0.00521554967123579" flag="0"/>
		</comp>
		<comp name="--.HNZ" depth="0.0">
			<acc value="0.00534163033771974" flag="0"/>
			<vel value="0.00639405227717492" flag="0"/>
			<psa03 value="0.0195400808927947" flag="0"/>
			<psa10 value="0.0107543221085602" flag="0"/>
			<psa30 value="0.00191586358322648" flag="0"/>
		</comp>
	</station>
	<station code="RGE1" name="RGE1" netid="HI" source="ITSAK Strong Motion Network" insttype="" lat="36.0269" lon="27.9306" esm:processing="manual (Paolucci et al 2011)" esm:quality="good">
		<comp name="--.HNE" depth="0.0">
			<acc value="0.0272661253213193" flag="0"/>
			<vel value="0.0219322835002209" flag="0"/>
			<psa03 value="0.0739394397916769" flag="0"/>
			<psa10 value="0.017504918364932" flag="0"/>
			<psa30 value="0.00183882848002897" flag="0"/>
		</comp>
		<comp name="--.HNN" depth="0.0">
			<acc value="0.0236839873132824" flag="0"/>
			<vel value="0.0137321139064082" flag="0"/>
			<psa03 value="0.0498074349147875" flag="0"/>
			<psa10 value="0.0187926092931363" flag="0"/>
			<psa30 value="0.00252867272049098" flag="0"/>
		</comp>
		<comp name="--.HNZ" depth="0.0">
			<acc value="0.0140292822034671" flag="0"/>
			<vel value="0.00569221252228708" flag="0"/>
			<psa03 value="0.0300122251417899" flag="0"/>
			<psa10 value="0.0069764085590786" flag="0"/>
			<psa30 value="0.00145400913346918" flag="0"/>
		</comp>
	</station>
	<station code="RKL1" name="RKL1" netid="HI" source="ITSAK Strong Motion Network" insttype="" lat="36.336699" lon="28.171224" esm:processing="manual (Paolucci et al 2011)" esm:quality="good">
		<comp name="--.HNE" depth="0.0">
			<acc value="0.0160602072389693" flag="0"/>
			<vel value="0.0155646043243403" flag="0"/>
			<psa03 value="0.0432899302454228" flag="0"/>
			<psa10 value="0.0319542505622764" flag="0"/>
			<psa30 value="0.00201688381698786" flag="0"/>
		</comp>
		<comp name="--.HNN" depth="0.0">
			<acc value="0.0182584582676418" flag="0"/>
			<vel value="0.0177727671334464" flag="0"/>
			<psa03 value="0.0396640442149349" flag="0"/>
			<psa10 value="0.0248765454490482" flag="0"/>
			<psa30 value="0.00250356709903344" flag="0"/>
		</comp>
		<comp name="--.HNZ" depth="0.0">
			<acc value="0.00960948090059291" flag="0"/>
			<vel value="0.00787863620057699" flag="0"/>
			<psa03 value="0.0272619465951672" flag="0"/>
			<psa10 value="0.00902124605077688" flag="0"/>
			<psa30 value="0.000942045635066669" flag="0"/>
		</comp>
	</station>
	<station code="RKT1" name="RKT1" netid="HI" source="ITSAK Strong Motion Network" insttype="" lat="35.954336" lon="27.767327" esm:processing="automatic (Paolucci et al 2011)" esm:quality="best">
		<comp name="--.HNE" depth="0.0">
			<acc value="0.0379572377436121" flag="0"/>
			<vel value="0.0153243571258577" flag="0"/>
			<psa03 value="0.101059319683956" flag="0"/>
			<psa10 value="0.0168853191945278" flag="0"/>
			<psa30 value="0.0019480936349759" flag="0"/>
		</comp>
		<comp name="--.HNN" depth="0.0">
			<acc value="0.0381579297399495" flag="0"/>
			<vel value="0.0180146050718889" flag="0"/>
			<psa03 value="0.120225339338696" flag="0"/>
			<psa10 value="0.0186828976502784" flag="0"/>
			<psa30 value="0.00231200545068104" flag="0"/>
		</comp>
		<comp name="--.HNZ" depth="0.0">
			<acc value="0.0284452675652301" flag="0"/>
			<vel value="0.00837701150528685" flag="0"/>
			<psa03 value="0.0445536389599232" flag="0"/>
			<psa10 value="0.00928566012941191" flag="0"/>
			<psa30 value="0.00106645325146069" flag="0"/>
		</comp>
	</station>
	<station code="RSO1" name="RSO1" netid="HI" source="ITSAK Strong Motion Network" insttype="" lat="36.3632" lon="28.0016" esm:processing="manual (Paolucci et al 2011)" esm:quality="good">
		<comp name="--.HNE" depth="0.0">
			<acc value="0.0174088912599279" flag="0"/>
			<vel value="0.0147212277805999" flag="0"/>
			<psa03 value="0.0566048018736555" flag="0"/>
			<psa10 value="0.0257505014693454" flag="0"/>
			<psa30 value="0.00469920213241212" flag="0"/>
		</comp>
		<comp name="--.HNN" depth="0.0">
			<acc value="0.0156585940492475" flag="0"/>
			<vel value="0.018403475306209" flag="0"/>
			<psa03 value="0.0342387056462142" flag="0"/>
			<psa10 value="0.0285678287284496" flag="0"/>
			<psa30 value="0.00748704848021728" flag="0"/>
		</comp>
		<comp name="--.HNZ" depth="0.0">
			<acc value="0.00997940173057195" flag="0"/>
			<vel value="0.0121253477976661" flag="0"/>
			<psa03 value="0.0471076050226406" flag="0"/>
			<psa10 value="0.0130342078273" flag="0"/>
			<psa30 value="0.00380639465496507" flag="0"/>
		</comp>
	</station>
</stationlist>
