<?xml version="1.0" encoding="UTF-8" standalone="yes"?>
<!DOCTYPE earthquake SYSTEM "stationlist.dtd">
<stationlist created="" xmlns="ch.ethz.sed.shakemap.usgs.xml">
  <station code="AKDM" name="AKDM" netid="KO" insttype="CMG-3ESP" lat="38.3285" lon="42.98">
    <comp name="--.HHE">
      <acc value="0.0071711221" flag="0"/>
      <vel value="0.0075769137" flag="0"/>
      <psa03 value="0.0149069564" flag="0"/>
      <psa10 value="0.0147779911" flag="0"/>
      <psa30 value="0.0013249797" flag="0"/>
    </comp>
    <comp name="--.HHN">
      <acc value="0.0084248958" flag="0"/>
      <vel value="0.0061211884" flag="0"/>
      <psa03 value="0.0205501892" flag="0"/>
      <psa10 value="0.0056345634" flag="0"/>
      <psa30 value="0.0009738334" flag="0"/>
    </comp>
    <comp name="--.HHZ">
      <acc value="0.0126667137" flag="0"/>
      <vel value="0.0080202237" flag="0"/>
      <psa03 value="0.0372938565" flag="0"/>
      <psa10 value="0.0071637249" flag="0"/>
      <psa30 value="0.0016468119" flag="0"/>
    </comp>
  </station>
  <station code="CUKT" name="CUKT" netid="KO" insttype="CMG-3ESP" lat="37.2473" lon="43.6077">
    <comp name="--.HHN">
      <acc value="0.4506652989" flag="0"/>
      <vel value="0.1752237105" flag="0"/>
      <psa03 value="0.5831598276" flag="0"/>
      <psa10 value="0.3473387110" flag="0"/>
      <psa30 value="0.0107368125" flag="0"/>
    </comp>
    <comp name="--.HHZ">
      <acc value="0.5578758693" flag="0"/>
      <vel value="0.1738671387" flag="0"/>
      <psa03 value="1.2081742991" flag="0"/>
      <psa10 value="0.1108719843" flag="0"/>
      <psa30 value="0.0090768294" flag="0"/>
    </comp>
    <comp name="--.HHE">
      <acc value="0.7118142212" flag="0"/>
      <vel value="0.2830383332" flag="0"/>
      <psa03 value="1.7410379082" flag="0"/>
      <psa10 value="0.2773026502" flag="0"/>
      <psa30 value="0.0157979323" flag="0"/>
    </comp>
  </station>
  <station code="VANB" name="VANB" netid="KO" insttype="CMG-3T" lat="38.509" lon="43.4056">
    <comp name="--.HHZ">
      <acc value="0.0049037309" flag="0"/>
      <vel value="0.0061030319" flag="0"/>
      <psa03 value="0.0084096724" flag="0"/>
      <psa10 value="0.0105563161" flag="0"/>
      <psa30 value="0.0009951081" flag="0"/>
    </comp>
    <comp name="--.HHE">
      <acc value="0.0316154637" flag="0"/>
      <vel value="0.0334987556" flag="0"/>
      <psa03 value="0.0483370396" flag="0"/>
      <psa10 value="0.0465066768" flag="0"/>
      <psa30 value="0.0023908097" flag="0"/>
    </comp>
    <comp name="--.HHN">
      <acc value="0.0065740701" flag="0"/>
      <vel value="0.0106571730" flag="0"/>
      <psa03 value="0.0156063215" flag="0"/>
      <psa10 value="0.0166483091" flag="0"/>
      <psa30 value="0.0013971927" flag="0"/>
    </comp>
  </station>
</stationlist>
