<?xml version="1.0" encoding="UTF-8" standalone="yes"?>
<!DOCTYPE earthquake SYSTEM "stationlist.dtd">
<stationlist created="" xmlns="ch.ethz.sed.shakemap.usgs.xml">
  <station code="BALB" name="BALB" netid="KO" insttype="CMG-5T" commtype="DIG" lat="39.6507" lon="27.8642">
    <comp name="--.HNN">
      <acc value="0.0723676894" flag="0"/>
      <vel value="0.0233153288" flag="0"/>
      <psa03 value="0.0951276981" flag="0"/>
      <psa10 value="0.0145057748" flag="0"/>
      <psa30 value="0.0013388919" flag="0"/>
    </comp>
    <comp name="--.HNE">
      <acc value="0.0398437988" flag="0"/>
      <vel value="0.0150173567" flag="0"/>
      <psa03 value="0.0740349176" flag="0"/>
      <psa10 value="0.0156155604" flag="0"/>
      <psa30 value="0.0009513311" flag="0"/>
    </comp>
    <comp name="--.HNZ">
      <acc value="0.0324835204" flag="0"/>
      <vel value="0.0078808754" flag="0"/>
      <psa03 value="0.0457047299" flag="0"/>
      <psa10 value="0.0090490409" flag="0"/>
      <psa30 value="0.0006432270" flag="0"/>
    </comp>
  </station>
  <station code="DKL" name="DKL" netid="KO" insttype="CMG-3ESPC" commtype="DIG" lat="39.0713" lon="26.9053">
    <comp name="--.HHN">
      <acc value="0.0151791500" flag="0"/>
      <vel value="0.0089057677" flag="0"/>
      <psa03 value="0.0379661694" flag="0"/>
      <psa10 value="0.0090270089" flag="0"/>
      <psa30 value="0.0007933965" flag="0"/>
    </comp>
    <comp name="--.HHZ">
      <acc value="0.0124506384" flag="0"/>
      <vel value="0.0047923744" flag="0"/>
      <psa03 value="0.0315017663" flag="0"/>
      <psa10 value="0.0037169434" flag="0"/>
      <psa30 value="0.0004274740" flag="0"/>
    </comp>
    <comp name="--.HHE">
      <acc value="0.0119328963" flag="0"/>
      <vel value="0.0052175953" flag="0"/>
      <psa03 value="0.0333120969" flag="0"/>
      <psa10 value="0.0057056274" flag="0"/>
      <psa30 value="0.0003814583" flag="0"/>
    </comp>
  </station>
  <station code="DST" name="DST" netid="KO" insttype="CMG-5T" commtype="DIG" lat="39.6041" lon="28.6267">
    <comp name="--.HNZ">
      <acc value="0.0312149687" flag="0"/>
      <vel value="0.0097311323" flag="0"/>
      <psa03 value="0.0675538088" flag="0"/>
      <psa10 value="0.0091414658" flag="0"/>
      <psa30 value="0.0007526308" flag="0"/>
    </comp>
    <comp name="--.HNN">
      <acc value="0.0346760739" flag="0"/>
      <vel value="0.0136914641" flag="0"/>
      <psa03 value="0.0541525747" flag="0"/>
      <psa10 value="0.0096477414" flag="0"/>
      <psa30 value="0.0006740328" flag="0"/>
    </comp>
    <comp name="--.HNE">
      <acc value="0.0451229306" flag="0"/>
      <vel value="0.0100062161" flag="0"/>
      <psa03 value="0.0476023548" flag="0"/>
      <psa10 value="0.0128719585" flag="0"/>
      <psa30 value="0.0006446615" flag="0"/>
    </comp>
  </station>
  <station code="GOMA" name="GOMA" netid="KO" insttype="CMG-5T" commtype="DIG" lat="38.7077" lon="27.9175">
    <comp name="--.HNZ">
      <acc value="0.0553683987" flag="0"/>
      <vel value="0.0168991439" flag="0"/>
      <psa03 value="0.0840182545" flag="0"/>
      <psa10 value="0.0054621503" flag="0"/>
      <psa30 value="0.0009311927" flag="0"/>
    </comp>
    <comp name="--.HNN">
      <acc value="0.0942689988" flag="0"/>
      <vel value="0.0514205525" flag="0"/>
      <psa03 value="0.4107877735" flag="0"/>
      <psa10 value="0.0155493534" flag="0"/>
      <psa30 value="0.0016365601" flag="0"/>
    </comp>
  </station>
  <station code="GONE" name="GONE" netid="KO" insttype="CMG-5T" commtype="DIG" lat="40.0466" lon="27.686">
    <comp name="--.HNE">
      <acc value="0.0337185762" flag="0"/>
      <vel value="0.0136083951" flag="0"/>
      <psa03 value="0.0605402543" flag="0"/>
      <psa10 value="0.0087639489" flag="0"/>
      <psa30 value="0.0004816088" flag="0"/>
    </comp>
    <comp name="--.HNZ">
      <acc value="0.0205923017" flag="0"/>
      <vel value="0.0094467204" flag="0"/>
      <psa03 value="0.0326007991" flag="0"/>
      <psa10 value="0.0045548541" flag="0"/>
      <psa30 value="0.0002363118" flag="0"/>
    </comp>
    <comp name="--.HNN">
      <acc value="0.0651224219" flag="0"/>
      <vel value="0.0339101150" flag="0"/>
      <psa03 value="0.1967856319" flag="0"/>
      <psa10 value="0.0143526462" flag="0"/>
      <psa30 value="0.0009582080" flag="0"/>
    </comp>
  </station>
  <station code="GORD" name="GORD" netid="KO" insttype="CMG-5T" commtype="DIG" lat="38.9088" lon="28.1769">
    <comp name="--.HNE">
      <acc value="0.0520694722" flag="0"/>
      <vel value="0.0297562835" flag="0"/>
      <psa03 value="0.0570595094" flag="0"/>
      <psa10 value="0.0543194541" flag="0"/>
      <psa30 value="0.0025459975" flag="0"/>
    </comp>
    <comp name="--.HNZ">
      <acc value="0.0692397651" flag="0"/>
      <vel value="0.0237585522" flag="0"/>
      <psa03 value="0.0886028107" flag="0"/>
      <psa10 value="0.0323095510" flag="0"/>
      <psa30 value="0.0042828740" flag="0"/>
    </comp>
    <comp name="--.HNN">
      <acc value="0.0531317707" flag="0"/>
      <vel value="0.0430830178" flag="0"/>
      <psa03 value="0.0919027644" flag="0"/>
      <psa10 value="0.0637494352" flag="0"/>
      <psa30 value="0.0033048604" flag="0"/>
    </comp>
  </station>
  <station code="KCTX" name="KCTX" netid="KO" insttype="CMG-3ESP" commtype="DIG" lat="40.2626" lon="28.3353">
    <comp name="--.HHE">
      <acc value="0.0202766089" flag="0"/>
      <vel value="0.0073328082" flag="0"/>
      <psa03 value="0.0376417392" flag="0"/>
      <psa10 value="0.0074726642" flag="0"/>
      <psa30 value="0.0004300593" flag="0"/>
    </comp>
    <comp name="--.HHN">
      <acc value="0.0278914026" flag="0"/>
      <vel value="0.0109342296" flag="0"/>
      <psa03 value="0.0721379903" flag="0"/>
      <psa10 value="0.0066677298" flag="0"/>
      <psa30 value="0.0005949087" flag="0"/>
    </comp>
    <comp name="--.HHZ">
      <acc value="0.0189563448" flag="0"/>
      <vel value="0.0066108210" flag="0"/>
      <psa03 value="0.0441704147" flag="0"/>
      <psa10 value="0.0042576333" flag="0"/>
      <psa30 value="0.0005389478" flag="0"/>
    </comp>
  </station>
  <station code="KULA" name="KULA" netid="KO" insttype="CMG-3T" commtype="DIG" lat="38.5145" lon="28.6607">
    <comp name="--.HHN">
      <acc value="0.0301020309" flag="0"/>
      <vel value="0.0056167433" flag="0"/>
      <psa03 value="0.0265914822" flag="0"/>
      <psa10 value="0.0021950346" flag="0"/>
      <psa30 value="0.0003075822" flag="0"/>
    </comp>
    <comp name="--.HHE">
      <acc value="0.0275290229" flag="0"/>
      <vel value="0.0066817900" flag="0"/>
      <psa03 value="0.0198973539" flag="0"/>
      <psa10 value="0.0070696282" flag="0"/>
      <psa30 value="0.0005347029" flag="0"/>
    </comp>
  </station>
  <station code="ORLT" name="ORLT" netid="KO" insttype="CMG-5T" commtype="DIG" lat="40.0452" lon="28.8914">
    <comp name="--.HNZ">
      <acc value="0.0182710285" flag="0"/>
      <vel value="0.0115735972" flag="0"/>
      <psa03 value="0.0303168635" flag="0"/>
      <psa10 value="0.0225705011" flag="0"/>
      <psa30 value="0.0009643753" flag="0"/>
    </comp>
    <comp name="--.HNE">
      <acc value="0.0353743755" flag="0"/>
      <vel value="0.0196021666" flag="0"/>
      <psa03 value="0.1138098074" flag="0"/>
      <psa10 value="0.0176361776" flag="0"/>
      <psa30 value="0.0010194095" flag="0"/>
    </comp>
    <comp name="--.HNN">
      <acc value="0.0318838702" flag="0"/>
      <vel value="0.0175211931" flag="0"/>
      <psa03 value="0.1393500120" flag="0"/>
      <psa10 value="0.0277039562" flag="0"/>
      <psa30 value="0.0009993349" flag="0"/>
    </comp>
  </station>
  <station code="SHAP" name="SHAP" netid="KO" insttype="CMG-5T" commtype="DIG" lat="39.0231" lon="29.222">
    <comp name="--.HNE">
      <acc value="0.1026363735" flag="0"/>
      <vel value="0.0210328705" flag="0"/>
      <psa03 value="0.1082075143" flag="0"/>
      <psa10 value="0.0078459748" flag="0"/>
      <psa30 value="0.0003637166" flag="0"/>
    </comp>
    <comp name="--.HNN">
      <acc value="0.0619313681" flag="0"/>
      <vel value="0.0132872319" flag="0"/>
      <psa03 value="0.0741561806" flag="0"/>
      <psa10 value="0.0049083035" flag="0"/>
      <psa30 value="0.0005607509" flag="0"/>
    </comp>
    <comp name="--.HNZ">
      <acc value="0.0455829428" flag="0"/>
      <vel value="0.0080051760" flag="0"/>
      <psa03 value="0.0415776654" flag="0"/>
      <psa10 value="0.0025362386" flag="0"/>
      <psa30 value="0.0002697679" flag="0"/>
    </comp>
  </station>
  <station code="SIMA" name="SIMA" netid="KO" insttype="CMG-6T" commtype="DIG" lat="39.0833" lon="28.9825">
    <comp name="--.HHE">
      <acc value="0.0664817562" flag="0"/>
      <vel value="0.0154165464" flag="0"/>
      <psa03 value="0.0811366517" flag="0"/>
      <psa10 value="0.0038654445" flag="0"/>
      <psa30 value="0.0004275494" flag="0"/>
    </comp>
    <comp name="--.HHN">
      <acc value="0.0455442580" flag="0"/>
      <vel value="0.0144844135" flag="0"/>
      <psa03 value="0.1225920581" flag="0"/>
      <psa10 value="0.0044542148" flag="0"/>
      <psa30 value="0.0010596730" flag="0"/>
    </comp>
    <comp name="--.HHZ">
      <acc value="0.0401502527" flag="0"/>
      <vel value="0.0067426978" flag="0"/>
      <psa03 value="0.0358752885" flag="0"/>
      <psa10 value="0.0029906923" flag="0"/>
      <psa30 value="0.0003662019" flag="0"/>
    </comp>
  </station>
  <station code="SMAA" name="SMAA" netid="KO" insttype="CMG-5T" commtype="DIG" lat="39.1005" lon="28.9805">
    <comp name="--.HNE">
      <acc value="0.0679314854" flag="0"/>
      <vel value="0.0248606519" flag="0"/>
      <psa03 value="0.1423629485" flag="0"/>
      <psa10 value="0.0285767703" flag="0"/>
      <psa30 value="0.0026837279" flag="0"/>
    </comp>
    <comp name="--.HNN">
      <acc value="0.0476747098" flag="0"/>
      <vel value="0.0196152453" flag="0"/>
      <psa03 value="0.1091765708" flag="0"/>
      <psa10 value="0.0237018137" flag="0"/>
      <psa30 value="0.0025850908" flag="0"/>
    </comp>
    <comp name="--.HNZ">
      <acc value="0.0281808911" flag="0"/>
      <vel value="0.0087536011" flag="0"/>
      <psa03 value="0.0233632109" flag="0"/>
      <psa10 value="0.0181403426" flag="0"/>
      <psa30 value="0.0008720591" flag="0"/>
    </comp>
  </station>
  <station code="SOMA" name="SOMA" netid="KO" insttype="CMG-5T" commtype="DIG" lat="39.1564" lon="27.5341">
    <comp name="--.HNE">
      <acc value="0.0716238260" flag="0"/>
      <vel value="0.0222504931" flag="0"/>
      <psa03 value="0.1492517954" flag="0"/>
      <psa10 value="0.0131351821" flag="0"/>
      <psa30 value="0.0007028552" flag="0"/>
    </comp>
    <comp name="--.HNN">
      <acc value="0.0740436301" flag="0"/>
      <vel value="0.0305258242" flag="0"/>
      <psa03 value="0.1514537674" flag="0"/>
      <psa10 value="0.0201438279" flag="0"/>
      <psa30 value="0.0010309067" flag="0"/>
    </comp>
    <comp name="--.HNZ">
      <acc value="0.0667732799" flag="0"/>
      <vel value="0.0154893995" flag="0"/>
      <psa03 value="0.0531137003" flag="0"/>
      <psa10 value="0.0128746645" flag="0"/>
      <psa30 value="0.0005849074" flag="0"/>
    </comp>
  </station>
  <station code="SUSR" name="SUSR" netid="KO" insttype="CMG-5T" commtype="DIG" lat="39.9627" lon="28.0835">
    <comp name="--.HNZ">
      <acc value="0.0304275007" flag="0"/>
      <vel value="0.0079685150" flag="0"/>
      <psa03 value="0.0416947864" flag="0"/>
      <psa10 value="0.0023867252" flag="0"/>
      <psa30 value="0.0002688610" flag="0"/>
    </comp>
    <comp name="--.HNE">
      <acc value="0.0288387424" flag="0"/>
      <vel value="0.0095260261" flag="0"/>
      <psa03 value="0.0357866277" flag="0"/>
      <psa10 value="0.0049581835" flag="0"/>
      <psa30 value="0.0003656389" flag="0"/>
    </comp>
    <comp name="--.HNN">
      <acc value="0.0327269950" flag="0"/>
      <vel value="0.0109556680" flag="0"/>
      <psa03 value="0.0740873068" flag="0"/>
      <psa10 value="0.0045735297" flag="0"/>
      <psa30 value="0.0003776947" flag="0"/>
    </comp>
  </station>
  <station code="TVSB" name="TVSB" netid="KO" insttype="CMG-3T" commtype="DIG" lat="39.4497" lon="29.4615">
    <comp name="--.HHE">
      <acc value="0.0179115896" flag="0"/>
      <vel value="0.0127312253" flag="0"/>
      <psa03 value="0.0662632337" flag="0"/>
      <psa10 value="0.0099497727" flag="0"/>
      <psa30 value="0.0005218831" flag="0"/>
    </comp>
    <comp name="--.HHN">
      <acc value="0.0225278804" flag="0"/>
      <vel value="0.0119891565" flag="0"/>
      <psa03 value="0.0864860124" flag="0"/>
      <psa10 value="0.0078566051" flag="0"/>
      <psa30 value="0.0004033658" flag="0"/>
    </comp>
    <comp name="--.HHZ">
      <acc value="0.0120134263" flag="0"/>
      <vel value="0.0074292823" flag="0"/>
      <psa03 value="0.0352049759" flag="0"/>
      <psa10 value="0.0078333299" flag="0"/>
      <psa30 value="0.0004337372" flag="0"/>
    </comp>
  </station>
  <station code="YAYO" name="YAYO" netid="KO" insttype="CMG-6T" commtype="DIG" lat="39.6113" lon="27.0726">
    <comp name="--.HHZ">
      <acc value="0.0112115569" flag="0"/>
      <vel value="0.0048732720" flag="0"/>
      <psa03 value="0.0270492766" flag="0"/>
      <psa10 value="0.0024395068" flag="0"/>
      <psa30 value="0.0002038658" flag="0"/>
    </comp>
    <comp name="--.HHN">
      <acc value="0.0238049117" flag="0"/>
      <vel value="0.0112469344" flag="0"/>
      <psa03 value="0.0482409764" flag="0"/>
      <psa10 value="0.0095191727" flag="0"/>
      <psa30 value="0.0006907304" flag="0"/>
    </comp>
    <comp name="--.HHE">
      <acc value="0.0281035560" flag="0"/>
      <vel value="0.0151477099" flag="0"/>
      <psa03 value="0.0435774629" flag="0"/>
      <psa10 value="0.0093074122" flag="0"/>
      <psa30 value="0.0007474442" flag="0"/>
    </comp>
  </station>
  <station code="YENI" name="YENI" netid="KO" insttype="CMG-5T" commtype="DIG" lat="39.9364" lon="27.2422">
    <comp name="--.HNZ">
      <acc value="0.0110838168" flag="0"/>
      <vel value="0.0038925102" flag="0"/>
      <psa03 value="0.0275029622" flag="0"/>
      <psa10 value="0.0032917497" flag="0"/>
      <psa30 value="0.0004912349" flag="0"/>
    </comp>
    <comp name="--.HNE">
      <acc value="0.0369524241" flag="0"/>
      <vel value="0.0194031840" flag="0"/>
      <psa03 value="0.0410993300" flag="0"/>
      <psa10 value="0.0134207569" flag="0"/>
      <psa30 value="0.0010028230" flag="0"/>
    </comp>
    <comp name="--.HNN">
      <acc value="0.0456359176" flag="0"/>
      <vel value="0.0150439193" flag="0"/>
      <psa03 value="0.0794808457" flag="0"/>
      <psa10 value="0.0113381136" flag="0"/>
      <psa30 value="0.0006378906" flag="0"/>
    </comp>
  </station>
</stationlist>
