<?xml version="1.0" encoding="UTF-8" standalone="yes"?>
<!DOCTYPE earthquake SYSTEM "stationlist.dtd">
<stationlist created="" xmlns="ch.ethz.sed.shakemap.usgs.xml">
  <station code="BALB" name="BALB" netid="KO" insttype="CMG-5T" commtype="DIG" lat="39.6507" lon="27.8642">
    <comp name="--.HNN">
      <acc value="0.0723676896" flag="0"/>
      <vel value="0.0233153318" flag="0"/>
      <psa03 value="0.0951276981" flag="0"/>
      <psa10 value="0.0145057775" flag="0"/>
      <psa30 value="0.0013390744" flag="0"/>
    </comp>
    <comp name="--.HNE">
      <acc value="0.0398437993" flag="0"/>
      <vel value="0.0150173571" flag="0"/>
      <psa03 value="0.0740349176" flag="0"/>
      <psa10 value="0.0156155602" flag="0"/>
      <psa30 value="0.0009514541" flag="0"/>
    </comp>
    <comp name="--.HNZ">
      <acc value="0.0324835206" flag="0"/>
      <vel value="0.0078808777" flag="0"/>
      <psa03 value="0.0457047299" flag="0"/>
      <psa10 value="0.0090490412" flag="0"/>
      <psa30 value="0.0006430984" flag="0"/>
    </comp>
  </station>
  <station code="DKL" name="DKL" netid="KO" insttype="CMG-3ESPC" commtype="DIG" lat="39.0713" lon="26.9053">
    <comp name="--.HHE">
      <acc value="0.0119328962" flag="0"/>
      <vel value="0.0052175946" flag="0"/>
      <psa03 value="0.0333120969" flag="0"/>
      <psa10 value="0.0057056276" flag="0"/>
      <psa30 value="0.0003815210" flag="0"/>
    </comp>
    <comp name="--.HHZ">
      <acc value="0.0124506385" flag="0"/>
      <vel value="0.0047923747" flag="0"/>
      <psa03 value="0.0315017663" flag="0"/>
      <psa10 value="0.0037169434" flag="0"/>
      <psa30 value="0.0004274987" flag="0"/>
    </comp>
    <comp name="--.HHN">
      <acc value="0.0151791501" flag="0"/>
      <vel value="0.0089057669" flag="0"/>
      <psa03 value="0.0379661694" flag="0"/>
      <psa10 value="0.0090270089" flag="0"/>
      <psa30 value="0.0007934809" flag="0"/>
    </comp>
  </station>
  <station code="DST" name="DST" netid="KO" insttype="CMG-5T" commtype="DIG" lat="39.6041" lon="28.6267">
    <comp name="--.HNE">
      <acc value="0.0451229345" flag="0"/>
      <vel value="0.0100062144" flag="0"/>
      <psa03 value="0.0476023548" flag="0"/>
      <psa10 value="0.0128719659" flag="0"/>
      <psa30 value="0.0006446128" flag="0"/>
    </comp>
    <comp name="--.HNN">
      <acc value="0.0346760727" flag="0"/>
      <vel value="0.0136914667" flag="0"/>
      <psa03 value="0.0541525747" flag="0"/>
      <psa10 value="0.0096477415" flag="0"/>
      <psa30 value="0.0006737269" flag="0"/>
    </comp>
    <comp name="--.HNZ">
      <acc value="0.0312149654" flag="0"/>
      <vel value="0.0097311284" flag="0"/>
      <psa03 value="0.0675538088" flag="0"/>
      <psa10 value="0.0091414663" flag="0"/>
      <psa30 value="0.0007527464" flag="0"/>
    </comp>
  </station>
  <station code="GOMA" name="GOMA" netid="KO" insttype="CMG-5T" commtype="DIG" lat="38.7077" lon="27.9175">
    <comp name="--.HNN">
      <acc value="0.0942689950" flag="0"/>
      <vel value="0.0514205527" flag="0"/>
      <psa03 value="0.4107877735" flag="0"/>
      <psa10 value="0.0155493523" flag="0"/>
      <psa30 value="0.0016368590" flag="0"/>
    </comp>
    <comp name="--.HNZ">
      <acc value="0.0553683951" flag="0"/>
      <vel value="0.0168991420" flag="0"/>
      <psa03 value="0.0840182544" flag="0"/>
      <psa10 value="0.0054621502" flag="0"/>
      <psa30 value="0.0009313638" flag="0"/>
    </comp>
  </station>
  <station code="GONE" name="GONE" netid="KO" insttype="CMG-5T" commtype="DIG" lat="40.0466" lon="27.686">
    <comp name="--.HNZ">
      <acc value="0.0205923014" flag="0"/>
      <vel value="0.0094467209" flag="0"/>
      <psa03 value="0.0326007991" flag="0"/>
      <psa10 value="0.0045548541" flag="0"/>
      <psa30 value="0.0002362942" flag="0"/>
    </comp>
    <comp name="--.HNN">
      <acc value="0.0651224219" flag="0"/>
      <vel value="0.0339101148" flag="0"/>
      <psa03 value="0.1967856319" flag="0"/>
      <psa10 value="0.0143526462" flag="0"/>
      <psa30 value="0.0009581272" flag="0"/>
    </comp>
    <comp name="--.HNE">
      <acc value="0.0337185757" flag="0"/>
      <vel value="0.0136083949" flag="0"/>
      <psa03 value="0.0605402543" flag="0"/>
      <psa10 value="0.0087639490" flag="0"/>
      <psa30 value="0.0004816048" flag="0"/>
    </comp>
  </station>
  <station code="GORD" name="GORD" netid="KO" insttype="CMG-5T" commtype="DIG" lat="38.9088" lon="28.1769">
    <comp name="--.HNZ">
      <acc value="0.0692397651" flag="0"/>
      <vel value="0.0237585541" flag="0"/>
      <psa03 value="0.0886028107" flag="0"/>
      <psa10 value="0.0323095502" flag="0"/>
      <psa30 value="0.0042816149" flag="0"/>
    </comp>
    <comp name="--.HNN">
      <acc value="0.0531317723" flag="0"/>
      <vel value="0.0430830178" flag="0"/>
      <psa03 value="0.0919027644" flag="0"/>
      <psa10 value="0.0637494362" flag="0"/>
      <psa30 value="0.0033044179" flag="0"/>
    </comp>
    <comp name="--.HNE">
      <acc value="0.0520694728" flag="0"/>
      <vel value="0.0297562846" flag="0"/>
      <psa03 value="0.0570595094" flag="0"/>
      <psa10 value="0.0543194471" flag="0"/>
      <psa30 value="0.0025456506" flag="0"/>
    </comp>
  </station>
  <station code="KCTX" name="KCTX" netid="KO" insttype="CMG-3ESP" commtype="DIG" lat="40.2626" lon="28.3353">
    <comp name="--.HHZ">
      <acc value="0.0189563449" flag="0"/>
      <vel value="0.0066108217" flag="0"/>
      <psa03 value="0.0441704147" flag="0"/>
      <psa10 value="0.0042576333" flag="0"/>
      <psa30 value="0.0005389694" flag="0"/>
    </comp>
    <comp name="--.HHN">
      <acc value="0.0278914029" flag="0"/>
      <vel value="0.0109342287" flag="0"/>
      <psa03 value="0.0721379903" flag="0"/>
      <psa10 value="0.0066677298" flag="0"/>
      <psa30 value="0.0005949322" flag="0"/>
    </comp>
    <comp name="--.HHE">
      <acc value="0.0202766088" flag="0"/>
      <vel value="0.0073328081" flag="0"/>
      <psa03 value="0.0376417392" flag="0"/>
      <psa10 value="0.0074726642" flag="0"/>
      <psa30 value="0.0004300724" flag="0"/>
    </comp>
  </station>
  <station code="KULA" name="KULA" netid="KO" insttype="CMG-3T" commtype="DIG" lat="38.5145" lon="28.6607">
    <comp name="--.HHE">
      <acc value="0.0275290229" flag="0"/>
      <vel value="0.0066817898" flag="0"/>
      <psa03 value="0.0198973539" flag="0"/>
      <psa10 value="0.0070696282" flag="0"/>
      <psa30 value="0.0005346853" flag="0"/>
    </comp>
    <comp name="--.HHN">
      <acc value="0.0301020308" flag="0"/>
      <vel value="0.0056167447" flag="0"/>
      <psa03 value="0.0265914822" flag="0"/>
      <psa10 value="0.0021950344" flag="0"/>
      <psa30 value="0.0003075754" flag="0"/>
    </comp>
  </station>
  <station code="ORLT" name="ORLT" netid="KO" insttype="CMG-5T" commtype="DIG" lat="40.0452" lon="28.8914">
    <comp name="--.HNN">
      <acc value="0.0318838716" flag="0"/>
      <vel value="0.0175211961" flag="0"/>
      <psa03 value="0.1393500120" flag="0"/>
      <psa10 value="0.0277039568" flag="0"/>
      <psa30 value="0.0009993748" flag="0"/>
    </comp>
    <comp name="--.HNZ">
      <acc value="0.0182710239" flag="0"/>
      <vel value="0.0115735909" flag="0"/>
      <psa03 value="0.0303168635" flag="0"/>
      <psa10 value="0.0225705007" flag="0"/>
      <psa30 value="0.0009642370" flag="0"/>
    </comp>
    <comp name="--.HNE">
      <acc value="0.0353743751" flag="0"/>
      <vel value="0.0196021635" flag="0"/>
      <psa03 value="0.1138098074" flag="0"/>
      <psa10 value="0.0176361774" flag="0"/>
      <psa30 value="0.0010188291" flag="0"/>
    </comp>
  </station>
  <station code="SHAP" name="SHAP" netid="KO" insttype="CMG-5T" commtype="DIG" lat="39.0231" lon="29.222">
    <comp name="--.HNE">
      <acc value="0.1026363749" flag="0"/>
      <vel value="0.0210328703" flag="0"/>
      <psa03 value="0.1082075143" flag="0"/>
      <psa10 value="0.0078459749" flag="0"/>
      <psa30 value="0.0003635969" flag="0"/>
    </comp>
    <comp name="--.HNN">
      <acc value="0.0619313679" flag="0"/>
      <vel value="0.0132872323" flag="0"/>
      <psa03 value="0.0741561806" flag="0"/>
      <psa10 value="0.0049083035" flag="0"/>
      <psa30 value="0.0005607490" flag="0"/>
    </comp>
    <comp name="--.HNZ">
      <acc value="0.0455829422" flag="0"/>
      <vel value="0.0080051762" flag="0"/>
      <psa03 value="0.0415776654" flag="0"/>
      <psa10 value="0.0025362389" flag="0"/>
      <psa30 value="0.0002693733" flag="0"/>
    </comp>
  </station>
  <station code="SIMA" name="SIMA" netid="KO" insttype="CMG-6T" commtype="DIG" lat="39.0833" lon="28.9825">
    <comp name="--.HHE">
      <acc value="0.0664817502" flag="0"/>
      <vel value="0.0154165404" flag="0"/>
      <psa03 value="0.0811366517" flag="0"/>
      <psa10 value="0.0038654444" flag="0"/>
      <psa30 value="0.0004275318" flag="0"/>
    </comp>
    <comp name="--.HHN">
      <acc value="0.0455442559" flag="0"/>
      <vel value="0.0144844167" flag="0"/>
      <psa03 value="0.1225920581" flag="0"/>
      <psa10 value="0.0044542146" flag="0"/>
      <psa30 value="0.0010596458" flag="0"/>
    </comp>
    <comp name="--.HHZ">
      <acc value="0.0401502517" flag="0"/>
      <vel value="0.0067427001" flag="0"/>
      <psa03 value="0.0358752885" flag="0"/>
      <psa10 value="0.0029906923" flag="0"/>
      <psa30 value="0.0003662018" flag="0"/>
    </comp>
  </station>
  <station code="SMAA" name="SMAA" netid="KO" insttype="CMG-5T" commtype="DIG" lat="39.1005" lon="28.9805">
    <comp name="--.HNN">
      <acc value="0.0476747104" flag="0"/>
      <vel value="0.0196152459" flag="0"/>
      <psa03 value="0.1091765709" flag="0"/>
      <psa10 value="0.0237018134" flag="0"/>
      <psa30 value="0.0025847941" flag="0"/>
    </comp>
    <comp name="--.HNE">
      <acc value="0.0679314843" flag="0"/>
      <vel value="0.0248606491" flag="0"/>
      <psa03 value="0.1423629485" flag="0"/>
      <psa10 value="0.0285767705" flag="0"/>
      <psa30 value="0.0026833438" flag="0"/>
    </comp>
    <comp name="--.HNZ">
      <acc value="0.0281808922" flag="0"/>
      <vel value="0.0087535974" flag="0"/>
      <psa03 value="0.0233632109" flag="0"/>
      <psa10 value="0.0181403423" flag="0"/>
      <psa30 value="0.0008722034" flag="0"/>
    </comp>
  </station>
  <station code="SOMA" name="SOMA" netid="KO" insttype="CMG-5T" commtype="DIG" lat="39.1564" lon="27.5341">
    <comp name="--.HNZ">
      <acc value="0.0667732793" flag="0"/>
      <vel value="0.0154894000" flag="0"/>
      <psa03 value="0.0531137003" flag="0"/>
      <psa10 value="0.0128746642" flag="0"/>
      <psa30 value="0.0005849973" flag="0"/>
    </comp>
    <comp name="--.HNE">
      <acc value="0.0716238260" flag="0"/>
      <vel value="0.0222504944" flag="0"/>
      <psa03 value="0.1492517954" flag="0"/>
      <psa10 value="0.0131351823" flag="0"/>
      <psa30 value="0.0007029576" flag="0"/>
    </comp>
    <comp name="--.HNN">
      <acc value="0.0740436292" flag="0"/>
      <vel value="0.0305258241" flag="0"/>
      <psa03 value="0.1514537674" flag="0"/>
      <psa10 value="0.0201438290" flag="0"/>
      <psa30 value="0.0010309032" flag="0"/>
    </comp>
  </station>
  <station code="SUSR" name="SUSR" netid="KO" insttype="CMG-5T" commtype="DIG" lat="39.9627" lon="28.0835">
    <comp name="--.HNN">
      <acc value="0.0327269958" flag="0"/>
      <vel value="0.0109556696" flag="0"/>
      <psa03 value="0.0740873068" flag="0"/>
      <psa10 value="0.0045735296" flag="0"/>
      <psa30 value="0.0003777187" flag="0"/>
    </comp>
    <comp name="--.HNE">
      <acc value="0.0288387438" flag="0"/>
      <vel value="0.0095260248" flag="0"/>
      <psa03 value="0.0357866277" flag="0"/>
      <psa10 value="0.0049581833" flag="0"/>
      <psa30 value="0.0003657036" flag="0"/>
    </comp>
    <comp name="--.HNZ">
      <acc value="0.0304275015" flag="0"/>
      <vel value="0.0079685147" flag="0"/>
      <psa03 value="0.0416947864" flag="0"/>
      <psa10 value="0.0023867251" flag="0"/>
      <psa30 value="0.0002688774" flag="0"/>
    </comp>
  </station>
  <station code="TVSB" name="TVSB" netid="KO" insttype="CMG-3T" commtype="DIG" lat="39.4497" lon="29.4615">
    <comp name="--.HHZ">
      <acc value="0.0120134263" flag="0"/>
      <vel value="0.0074292823" flag="0"/>
      <psa03 value="0.0352049759" flag="0"/>
      <psa10 value="0.0078333299" flag="0"/>
      <psa30 value="0.0004337654" flag="0"/>
    </comp>
    <comp name="--.HHN">
      <acc value="0.0225278805" flag="0"/>
      <vel value="0.0119891559" flag="0"/>
      <psa03 value="0.0864860124" flag="0"/>
      <psa10 value="0.0078566051" flag="0"/>
      <psa30 value="0.0004033668" flag="0"/>
    </comp>
    <comp name="--.HHE">
      <acc value="0.0179115898" flag="0"/>
      <vel value="0.0127312250" flag="0"/>
      <psa03 value="0.0662632337" flag="0"/>
      <psa10 value="0.0099497728" flag="0"/>
      <psa30 value="0.0005218714" flag="0"/>
    </comp>
  </station>
  <station code="YAYO" name="YAYO" netid="KO" insttype="CMG-6T" commtype="DIG" lat="39.6113" lon="27.0726">
    <comp name="--.HHE">
      <acc value="0.0281035560" flag="0"/>
      <vel value="0.0151477101" flag="0"/>
      <psa03 value="0.0435774629" flag="0"/>
      <psa10 value="0.0093074124" flag="0"/>
      <psa30 value="0.0007474175" flag="0"/>
    </comp>
    <comp name="--.HHN">
      <acc value="0.0238049115" flag="0"/>
      <vel value="0.0112469344" flag="0"/>
      <psa03 value="0.0482409764" flag="0"/>
      <psa10 value="0.0095191728" flag="0"/>
      <psa30 value="0.0006907171" flag="0"/>
    </comp>
    <comp name="--.HHZ">
      <acc value="0.0112115566" flag="0"/>
      <vel value="0.0048732775" flag="0"/>
      <psa03 value="0.0270492766" flag="0"/>
      <psa10 value="0.0024395068" flag="0"/>
      <psa30 value="0.0002038623" flag="0"/>
    </comp>
  </station>
  <station code="YENI" name="YENI" netid="KO" insttype="CMG-5T" commtype="DIG" lat="39.9364" lon="27.2422">
    <comp name="--.HNE">
      <acc value="0.0369524301" flag="0"/>
      <vel value="0.0194031810" flag="0"/>
      <psa03 value="0.0410993300" flag="0"/>
      <psa10 value="0.0134207568" flag="0"/>
      <psa30 value="0.0010031705" flag="0"/>
    </comp>
    <comp name="--.HNN">
      <acc value="0.0456359167" flag="0"/>
      <vel value="0.0150439168" flag="0"/>
      <psa03 value="0.0794808457" flag="0"/>
      <psa10 value="0.0113381135" flag="0"/>
      <psa30 value="0.0006377858" flag="0"/>
    </comp>
    <comp name="--.HNZ">
      <acc value="0.0110838138" flag="0"/>
      <vel value="0.0038925146" flag="0"/>
      <psa03 value="0.0275029622" flag="0"/>
      <psa10 value="0.0032917495" flag="0"/>
      <psa30 value="0.0004917102" flag="0"/>
    </comp>
  </station>
</stationlist>
