<?xml version="1.0" encoding="UTF-8" standalone="yes"?>
<!DOCTYPE earthquake SYSTEM "stationlist.dtd">
<stationlist created="" xmlns="ch.ethz.sed.shakemap.usgs.xml">
  <station code="KARP" name="KARP" netid="GE" insttype="STS-2/N" lat="35.5471" lon="27.1611">
    <comp name="--.HHZ">
      <acc value="0.0322592240" flag="0"/>
      <vel value="0.0092064881" flag="0"/>
      <psa03 value="0.0315111958" flag="0"/>
      <psa10 value="0.0088039520" flag="0"/>
      <psa30 value="0.0008771100" flag="0"/>
    </comp>
    <comp name="--.HHN">
      <acc value="0.0763153341" flag="0"/>
      <vel value="0.0147878255" flag="0"/>
      <psa03 value="0.0536718065" flag="0"/>
      <psa10 value="0.0145611788" flag="0"/>
      <psa30 value="0.0008272153" flag="0"/>
    </comp>
    <comp name="--.HHE">
      <acc value="0.0481462750" flag="0"/>
      <vel value="0.0116257169" flag="0"/>
      <psa03 value="0.0665102588" flag="0"/>
      <psa10 value="0.0195864224" flag="0"/>
      <psa30 value="0.0015677778" flag="0"/>
    </comp>
  </station>
  <station code="RDI1" name="RDI1" netid="HI" insttype="CMG-5TD,ACCELEROMETER,GURALP" lat="36.4514" lon="28.224">
    <comp name="--.HNE">
      <acc value="0.0179640119" flag="0"/>
      <vel value="0.0171090338" flag="0"/>
      <psa03 value="0.0416131825" flag="0"/>
      <psa10 value="0.0223971145" flag="0"/>
      <psa30 value="0.0043199115" flag="0"/>
    </comp>
    <comp name="--.HNN">
      <acc value="0.0240229365" flag="0"/>
      <vel value="0.0264672190" flag="0"/>
      <psa03 value="0.0443723440" flag="0"/>
      <psa10 value="0.0365838099" flag="0"/>
      <psa30 value="0.0034653525" flag="0"/>
    </comp>
    <comp name="--.HNZ">
      <acc value="0.0161441177" flag="0"/>
      <vel value="0.0099152128" flag="0"/>
      <psa03 value="0.0377815837" flag="0"/>
      <psa10 value="0.0200382538" flag="0"/>
      <psa30 value="0.0015775559" flag="0"/>
    </comp>
  </station>
  <station code="ARG" name="ARG" netid="HL" insttype="LE3D20_DR24" lat="36.2136" lon="28.1212">
    <comp name="--.HHZ">
      <acc value="0.0377516831" flag="0"/>
      <vel value="0.0141021284" flag="0"/>
      <psa03 value="0.0382758144" flag="0"/>
      <psa10 value="0.0119122072" flag="0"/>
      <psa30 value="0.0011423124" flag="0"/>
    </comp>
    <comp name="--.HHN">
      <acc value="0.0335581259" flag="0"/>
      <vel value="0.0168036327" flag="0"/>
      <psa03 value="0.0650430097" flag="0"/>
      <psa10 value="0.0110297189" flag="0"/>
      <psa30 value="0.0017726610" flag="0"/>
    </comp>
    <comp name="--.HHE">
      <acc value="0.0529208329" flag="0"/>
      <vel value="0.0337131829" flag="0"/>
      <psa03 value="0.1218009421" flag="0"/>
      <psa10 value="0.0194267081" flag="0"/>
      <psa30 value="0.0026545754" flag="0"/>
    </comp>
  </station>
  <station code="KARP" name="KARP" netid="HL" insttype="120" lat="35.5471" lon="27.1611">
    <comp name="--.HHN">
      <acc value="0.0697552923" flag="0"/>
      <vel value="0.0140161269" flag="0"/>
      <psa03 value="0.0520791166" flag="0"/>
      <psa10 value="0.0144617353" flag="0"/>
      <psa30 value="0.0008230836" flag="0"/>
    </comp>
    <comp name="--.HHZ">
      <acc value="0.0300722378" flag="0"/>
      <vel value="0.0087934980" flag="0"/>
      <psa03 value="0.0308197185" flag="0"/>
      <psa10 value="0.0087361015" flag="0"/>
      <psa30 value="0.0008735334" flag="0"/>
    </comp>
    <comp name="--.HHE">
      <acc value="0.0458612775" flag="0"/>
      <vel value="0.0113232838" flag="0"/>
      <psa03 value="0.0649677142" flag="0"/>
      <psa10 value="0.0194506087" flag="0"/>
      <psa30 value="0.0015601237" flag="0"/>
    </comp>
  </station>
  <station code="KLNA" name="KLNA" netid="HL" insttype="CMG-5" lat="36.9571" lon="26.9727">
    <comp name="00.HNE">
      <acc value="0.0632836533" flag="0"/>
      <vel value="0.0227741353" flag="0"/>
      <psa03 value="0.1294671278" flag="0"/>
      <psa10 value="0.0070792306" flag="0"/>
      <psa30 value="0.0006480624" flag="0"/>
    </comp>
    <comp name="00.HNN">
      <acc value="0.0550296612" flag="0"/>
      <vel value="0.0195956091" flag="0"/>
      <psa03 value="0.0885384219" flag="0"/>
      <psa10 value="0.0080506343" flag="0"/>
      <psa30 value="0.0008555390" flag="0"/>
    </comp>
    <comp name="00.HNZ">
      <acc value="0.0736081060" flag="0"/>
      <vel value="0.0149317602" flag="0"/>
      <psa03 value="0.0404464629" flag="0"/>
      <psa10 value="0.0038771346" flag="0"/>
      <psa30 value="0.0006147026" flag="0"/>
    </comp>
  </station>
  <station code="NISR" name="NISR" netid="HL" insttype="65535" lat="36.6106" lon="27.131">
    <comp name="--.HHE">
      <acc value="1.2695819088" flag="0"/>
      <vel value="0.2597884962" flag="0"/>
      <psa03 value="1.1761950974" flag="0"/>
      <psa10 value="0.1616593565" flag="0"/>
      <psa30 value="0.0192953250" flag="0"/>
    </comp>
    <comp name="--.HHN">
      <acc value="0.6703156251" flag="0"/>
      <vel value="0.3315376743" flag="0"/>
      <psa03 value="0.9073443105" flag="0"/>
      <psa10 value="0.1347335349" flag="0"/>
      <psa30 value="0.0640103353" flag="0"/>
    </comp>
    <comp name="--.HHZ">
      <acc value="0.6231462258" flag="0"/>
      <vel value="0.1277318926" flag="0"/>
      <psa03 value="0.6191948461" flag="0"/>
      <psa10 value="0.1714460118" flag="0"/>
      <psa30 value="0.0073681670" flag="0"/>
    </comp>
  </station>
</stationlist>
