<stationlist created="1778136695">
	<station code="KRL1" name="KRL1" netid="HI" source="ITSAK Strong Motion Network" insttype="" lat="37.7951" lon="26.7065">
		<comp name="--.HNE" depth="0.0">
			<acc value="0.00723641217761693" flag="0"/>
			<vel value="0.00627786987935253" flag="0"/>
			<psa03 value="0.0253927472490507" flag="0"/>
			<psa10 value="0.00940691972478193" flag="0"/>
			<psa30 value="0.00115875842872415" flag="0"/>
		</comp>
		<comp name="--.HNN" depth="0.0">
			<acc value="0.00737393335731254" flag="0"/>
			<vel value="0.00641415061596018" flag="0"/>
			<psa03 value="0.0118328698070422" flag="0"/>
			<psa10 value="0.00977817181840515" flag="0"/>
			<psa30 value="0.00072616649038437" flag="0"/>
		</comp>
		<comp name="--.HNZ" depth="0.0">
			<acc value="0.0039305099795365" flag="0"/>
			<vel value="0.00354982453116976" flag="0"/>
			<psa03 value="0.00771213784440781" flag="0"/>
			<psa10 value="0.00458572643811408" flag="0"/>
			<psa30 value="0.000430972403973183" flag="0"/>
		</comp>
	</station>
	<station code="KSS1" name="KSS1" netid="HI" source="ITSAK Strong Motion Network" insttype="" lat="35.4189" lon="26.9207">
		<comp name="--.HNE" depth="0.0">
			<acc value="0.00885973914073631" flag="0"/>
			<vel value="0.0035134413580692" flag="0"/>
			<psa03 value="0.0298204806688066" flag="0"/>
			<psa10 value="0.0055079073718275" flag="0"/>
			<psa30 value="0.000449653693602292" flag="0"/>
		</comp>
		<comp name="--.HNN" depth="0.0">
			<acc value="0.0104821499904688" flag="0"/>
			<vel value="0.00343205476191956" flag="0"/>
			<psa03 value="0.0285004557236303" flag="0"/>
			<psa10 value="0.00432951884062335" flag="0"/>
			<psa30 value="0.000368143137676048" flag="0"/>
		</comp>
		<comp name="--.HNZ" depth="0.0">
			<acc value="0.00785887617936008" flag="0"/>
			<vel value="0.00281361020090677" flag="0"/>
			<psa03 value="0.00730773410153695" flag="0"/>
			<psa10 value="0.00514564181102031" flag="0"/>
			<psa30 value="0.000280829176471283" flag="0"/>
		</comp>
	</station>
	<station code="RDI1" name="RDI1" netid="HI" source="ITSAK Strong Motion Network" insttype="" lat="36.4514" lon="28.224">
		<comp name="--.HNE" depth="0.0">
			<acc value="0.0179264256778823" flag="0"/>
			<vel value="0.0174378468747409" flag="0"/>
			<psa03 value="0.0413449237941243" flag="0"/>
			<psa10 value="0.0224478676860669" flag="0"/>
			<psa30 value="0.00444171924210198" flag="0"/>
		</comp>
		<comp name="--.HNN" depth="0.0">
			<acc value="0.0240965476448975" flag="0"/>
			<vel value="0.0268753067889338" flag="0"/>
			<psa03 value="0.0443970452530277" flag="0"/>
			<psa10 value="0.0365514176020322" flag="0"/>
			<psa30 value="0.0035691022688436" flag="0"/>
		</comp>
		<comp name="--.HNZ" depth="0.0">
			<acc value="0.0161986367557135" flag="0"/>
			<vel value="0.00992980510951797" flag="0"/>
			<psa03 value="0.0374103897130642" flag="0"/>
			<psa10 value="0.0200319070155376" flag="0"/>
			<psa30 value="0.00162646014083679" flag="0"/>
		</comp>
	</station>
	<station code="SIT2" name="SIT2" netid="HI" source="ITSAK Strong Motion Network" insttype="" lat="35.2059" lon="26.107">
		<comp name="--.HNE" depth="0.0">
			<acc value="0.0112508135929961" flag="0"/>
			<vel value="0.00677315516662601" flag="0"/>
			<psa03 value="0.0301235606422094" flag="0"/>
			<psa10 value="0.00674419036327311" flag="0"/>
			<psa30 value="0.000490140906930561" flag="0"/>
		</comp>
		<comp name="--.HNN" depth="0.0">
			<acc value="0.0152956738838095" flag="0"/>
			<vel value="0.00911331125242094" flag="0"/>
			<psa03 value="0.0443229570116971" flag="0"/>
			<psa10 value="0.00845105640351995" flag="0"/>
			<psa30 value="0.000438374977690675" flag="0"/>
		</comp>
		<comp name="--.HNZ" depth="0.0">
			<acc value="0.0109453204503011" flag="0"/>
			<vel value="0.00378917128096545" flag="0"/>
			<psa03 value="0.0222320144284992" flag="0"/>
			<psa10 value="0.00359048433634132" flag="0"/>
			<psa30 value="0.00026438462355866" flag="0"/>
		</comp>
	</station>
	<station code="KLNA" name="KLNA" netid="HL" source="National Observatory of Athens Seismic Network" insttype="" lat="36.95708" lon="26.97274">
		<comp name="00.HNE" depth="0.0">
			<acc value="0.062234336449154" flag="0"/>
			<vel value="0.0226810848516226" flag="0"/>
			<psa03 value="0.130079554631937" flag="0"/>
			<psa10 value="0.00707888409757637" flag="0"/>
			<psa30 value="0.000680274804451837" flag="0"/>
		</comp>
		<comp name="00.HNN" depth="0.0">
			<acc value="0.0550164818647268" flag="0"/>
			<vel value="0.0196918358571873" flag="0"/>
			<psa03 value="0.0888573342789952" flag="0"/>
			<psa10 value="0.00803987916504925" flag="0"/>
			<psa30 value="0.000862483072772333" flag="0"/>
		</comp>
		<comp name="00.HNZ" depth="0.0">
			<acc value="0.074132348480745" flag="0"/>
			<vel value="0.0151236537807154" flag="0"/>
			<psa03 value="0.0404973311869375" flag="0"/>
			<psa10 value="0.00389253708022683" flag="0"/>
			<psa30 value="0.000634113829844164" flag="0"/>
		</comp>
	</station>
	<station code="NISR" name="NISR" netid="HL" source="National Observatory of Athens Seismic Network" insttype="" lat="36.6106" lon="27.131">
		<comp name="--.HNE" depth="0.0">
			<acc value="1.18784033573221" flag="0"/>
			<vel value="0.249911545433588" flag="0"/>
			<psa03 value="1.03879898200024" flag="0"/>
			<psa10 value="0.166238552488061" flag="0"/>
			<psa30 value="0.0207332001394063" flag="0"/>
		</comp>
		<comp name="--.HNN" depth="0.0">
			<acc value="0.667814593043651" flag="0"/>
			<vel value="0.240730264466717" flag="0"/>
			<psa03 value="0.807433905202048" flag="0"/>
			<psa10 value="0.119297487873211" flag="0"/>
			<psa30 value="0.010421442869465" flag="0"/>
		</comp>
		<comp name="--.HNZ" depth="0.0">
			<acc value="0.632519446519711" flag="0"/>
			<vel value="0.124283207106438" flag="0"/>
			<psa03 value="0.605226634961682" flag="0"/>
			<psa10 value="0.172776090567867" flag="0"/>
			<psa30 value="0.00676337345698411" flag="0"/>
		</comp>
	</station>
	<station code="THRA" name="THRA" netid="HL" source="National Observatory of Athens Seismic Network" insttype="" lat="36.41502" lon="25.43244">
		<comp name="00.HNE" depth="0.0">
			<acc value="0.0266014259626337" flag="0"/>
			<vel value="0.0306781797492236" flag="0"/>
			<psa03 value="0.0601361503913643" flag="0"/>
			<psa10 value="0.0496763758161863" flag="0"/>
			<psa30 value="0.00564641571398445" flag="0"/>
		</comp>
		<comp name="00.HNN" depth="0.0">
			<acc value="0.0301123341330345" flag="0"/>
			<vel value="0.0261744424164973" flag="0"/>
			<psa03 value="0.0490374099459151" flag="0"/>
			<psa10 value="0.048639278363597" flag="0"/>
			<psa30 value="0.00336889713123625" flag="0"/>
		</comp>
		<comp name="00.HNZ" depth="0.0">
			<acc value="0.0203214606430474" flag="0"/>
			<vel value="0.0107081928387821" flag="0"/>
			<psa03 value="0.0455885825199856" flag="0"/>
			<psa10 value="0.0111761781794356" flag="0"/>
			<psa30 value="0.00119689137151078" flag="0"/>
		</comp>
	</station>
	<station code="TNSA" name="TNSA" netid="HL" source="National Observatory of Athens Seismic Network" insttype="" lat="37.53942" lon="25.1631">
		<comp name="00.HNE" depth="0.0">
			<acc value="0.00280254387439683" flag="0"/>
			<vel value="0.00168319899389546" flag="0"/>
			<psa03 value="0.00923860289750298" flag="0"/>
			<psa10 value="0.00167136337587053" flag="0"/>
			<psa30 value="0.000367784363908932" flag="0"/>
		</comp>
		<comp name="00.HNN" depth="0.0">
			<acc value="0.00320840889515202" flag="0"/>
			<vel value="0.00156957296728719" flag="0"/>
			<psa03 value="0.0118533412152733" flag="0"/>
			<psa10 value="0.00305076428566329" flag="0"/>
			<psa30 value="0.000222857237156417" flag="0"/>
		</comp>
		<comp name="00.HNZ" depth="0.0">
			<acc value="0.00204611033747626" flag="0"/>
			<vel value="0.00187232752812621" flag="0"/>
			<psa03 value="0.00445455746236023" flag="0"/>
			<psa10 value="0.00266689729385839" flag="0"/>
			<psa30 value="0.000240872675382492" flag="0"/>
		</comp>
	</station>
	<station code="NAZL" name="NAZL" netid="KO" source="Bogazici University Kandilli Observatory And Earthquake Research Institute (KOERI)" insttype="" lat="37.9641" lon="28.2922">
		<comp name="--.HNE" depth="0.0">
			<acc value="0.00250395777675595" flag="0"/>
			<vel value="0.00227371595036088" flag="0"/>
			<psa03 value="0.00764902298629311" flag="0"/>
			<psa10 value="0.00391394701415561" flag="0"/>
			<psa30 value="0.00040262143731943" flag="0"/>
		</comp>
		<comp name="--.HNN" depth="0.0">
			<acc value="0.00329943454261807" flag="0"/>
			<vel value="0.00255132424178655" flag="0"/>
			<psa03 value="0.00927313383083887" flag="0"/>
			<psa10 value="0.00404048016196107" flag="0"/>
			<psa30 value="0.000318608007258706" flag="0"/>
		</comp>
		<comp name="--.HNZ" depth="0.0">
			<acc value="0.000940605191671195" flag="0"/>
			<vel value="0.000888475461813813" flag="0"/>
			<psa03 value="0.00229659679972465" flag="0"/>
			<psa10 value="0.00184984555100284" flag="0"/>
			<psa30 value="0.000188754509268253" flag="0"/>
		</comp>
	</station>
</stationlist>
