<?xml version="1.0" encoding="UTF-8" standalone="yes"?>
<!DOCTYPE earthquake SYSTEM "stationlist.dtd">
<stationlist created="" xmlns="ch.ethz.sed.shakemap.usgs.xml">
  <station code="THERA" name="THERA" netid="GE" insttype="STS-2/N" lat="36.367" lon="25.4753">
    <comp name="--.HHE">
      <acc value="0.0598672997" flag="0"/>
      <vel value="0.0158809947" flag="0"/>
      <psa03 value="0.1214515350" flag="0"/>
      <psa10 value="0.0075222077" flag="0"/>
      <psa30 value="0.0008918806" flag="0"/>
    </comp>
    <comp name="--.HHZ">
      <acc value="0.0544674136" flag="0"/>
      <vel value="0.0107952183" flag="0"/>
      <psa03 value="0.0723061505" flag="0"/>
      <psa10 value="0.0048919172" flag="0"/>
      <psa30 value="0.0006313651" flag="0"/>
    </comp>
    <comp name="--.HHN">
      <acc value="0.0398200544" flag="0"/>
      <vel value="0.0125967506" flag="0"/>
      <psa03 value="0.0782084351" flag="0"/>
      <psa10 value="0.0057210123" flag="0"/>
      <psa30 value="0.0004499357" flag="0"/>
    </comp>
  </station>
</stationlist>
