<?xml version="1.0" encoding="UTF-8" standalone="yes"?>
<!DOCTYPE earthquake SYSTEM "stationlist.dtd">
<stationlist created="" xmlns="ch.ethz.sed.shakemap.usgs.xml">
  <station code="CHBY" name="CHBY" netid="KO" insttype="30s," lat="38.5823" lon="32.8902">
    <comp name="--.HHN">
      <acc value="0.0192027849" flag="0"/>
      <vel value="0.0101566696" flag="0"/>
      <psa03 value="0.0236943988" flag="0"/>
      <psa10 value="0.0098696034" flag="0"/>
      <psa30 value="0.0007508729" flag="0"/>
    </comp>
    <comp name="--.HHZ">
      <acc value="0.0140032146" flag="0"/>
      <vel value="0.0047812056" flag="0"/>
      <psa03 value="0.0191280279" flag="0"/>
      <psa10 value="0.0050651873" flag="0"/>
      <psa30 value="0.0003615580" flag="0"/>
    </comp>
    <comp name="--.HHE">
      <acc value="0.0178143300" flag="0"/>
      <vel value="0.0077117520" flag="0"/>
      <psa03 value="0.0347396153" flag="0"/>
      <psa10 value="0.0086479968" flag="0"/>
      <psa30 value="0.0003321074" flag="0"/>
    </comp>
  </station>
  <station code="SDAG" name="SDAG" netid="KO" insttype="30s," lat="38.4396" lon="30.9175">
    <comp name="--.HHE">
      <acc value="0.0335308785" flag="0"/>
      <vel value="0.0162353849" flag="0"/>
      <psa03 value="0.0664942537" flag="0"/>
      <psa10 value="0.0139487703" flag="0"/>
      <psa30 value="0.0009703034" flag="0"/>
    </comp>
    <comp name="--.HHZ">
      <acc value="0.0310763275" flag="0"/>
      <vel value="0.0084947143" flag="0"/>
      <psa03 value="0.0385815305" flag="0"/>
      <psa10 value="0.0090351344" flag="0"/>
      <psa30 value="0.0003793473" flag="0"/>
    </comp>
    <comp name="--.HHN">
      <acc value="0.0268506429" flag="0"/>
      <vel value="0.0157484840" flag="0"/>
      <psa03 value="0.0622515310" flag="0"/>
      <psa10 value="0.0086881586" flag="0"/>
      <psa30 value="0.0006217101" flag="0"/>
    </comp>
  </station>
</stationlist>
