<?xml version="1.0" encoding="UTF-8" standalone="yes"?>
<!DOCTYPE earthquake SYSTEM "stationlist.dtd">
<stationlist created="" xmlns="ch.ethz.sed.shakemap.usgs.xml">
  <station code="SRN" name="SRN" netid="AC" insttype="" lat="39.88" lon="20.0005">
    <comp name="--.HHE">
      <acc value="0.0029350514" flag="0"/>
      <vel value="0.0023523690" flag="0"/>
      <psa03 value="0.0073890106" flag="0"/>
      <psa10 value="0.0038595549" flag="0"/>
      <psa30 value="0.0006946699" flag="0"/>
    </comp>
    <comp name="--.HHN">
      <acc value="0.0030331668" flag="0"/>
      <vel value="0.0022621605" flag="0"/>
      <psa03 value="0.0074231875" flag="0"/>
      <psa10 value="0.0028802133" flag="0"/>
      <psa30 value="0.0007531977" flag="0"/>
    </comp>
    <comp name="--.HHZ">
      <acc value="0.0031085305" flag="0"/>
      <vel value="0.0028278320" flag="0"/>
      <psa03 value="0.0084225489" flag="0"/>
      <psa10 value="0.0056010352" flag="0"/>
      <psa30 value="0.0005736226" flag="0"/>
    </comp>
  </station>
  <station code="AIGS" name="AIGS" netid="HA" insttype="DC" lat="38.25" lon="22.0878">
    <comp name="--.HNN">
      <acc value="0.0502831686" flag="0"/>
      <vel value="0.0226603041" flag="0"/>
      <psa03 value="0.1550112125" flag="0"/>
      <psa10 value="0.0336691721" flag="0"/>
      <psa30 value="0.0053231643" flag="0"/>
    </comp>
    <comp name="--.HNE">
      <acc value="0.0421752820" flag="0"/>
      <vel value="0.0375337614" flag="0"/>
      <psa03 value="0.1333203162" flag="0"/>
      <psa10 value="0.0289475468" flag="0"/>
      <psa30 value="0.0041361675" flag="0"/>
    </comp>
    <comp name="--.HNZ">
      <acc value="0.0265256261" flag="0"/>
      <vel value="0.0143845005" flag="0"/>
      <psa03 value="0.0376821238" flag="0"/>
      <psa10 value="0.0272826070" flag="0"/>
      <psa30 value="0.0032714169" flag="0"/>
    </comp>
  </station>
  <station code="ATHR" name="ATHR" netid="HA" insttype="GEOtiny," lat="38.3172" lon="20.4165">
    <comp name="--.HHZ">
      <acc value="0.0222515032" flag="0"/>
      <vel value="0.0111356627" flag="0"/>
      <psa03 value="0.0949892594" flag="0"/>
      <psa10 value="0.0136871538" flag="0"/>
      <psa30 value="0.0026413157" flag="0"/>
    </comp>
    <comp name="--.HHN">
      <acc value="0.0337634498" flag="0"/>
      <vel value="0.0222006031" flag="0"/>
      <psa03 value="0.1271024041" flag="0"/>
      <psa10 value="0.0232125181" flag="0"/>
      <psa30 value="0.0024572758" flag="0"/>
    </comp>
    <comp name="--.HHE">
      <acc value="0.0348614515" flag="0"/>
      <vel value="0.0230646975" flag="0"/>
      <psa03 value="0.0884173708" flag="0"/>
      <psa10 value="0.0243098325" flag="0"/>
      <psa30 value="0.0031334475" flag="0"/>
    </comp>
  </station>
  <station code="AXAR" name="AXAR" netid="HA" insttype="Horizon,120s,1200" lat="38.7664" lon="22.659">
    <comp name="--.HHN">
      <acc value="0.0700096614" flag="0"/>
      <vel value="0.0497970046" flag="0"/>
      <psa03 value="0.2383021485" flag="0"/>
      <psa10 value="0.0431951139" flag="0"/>
      <psa30 value="0.0062364230" flag="0"/>
    </comp>
    <comp name="--.HHE">
      <acc value="0.0860180010" flag="0"/>
      <vel value="0.0562557524" flag="0"/>
      <psa03 value="0.2383459692" flag="0"/>
      <psa10 value="0.0514653247" flag="0"/>
      <psa30 value="0.0056546171" flag="0"/>
    </comp>
    <comp name="--.HHZ">
      <acc value="0.0368013571" flag="0"/>
      <vel value="0.0283054342" flag="0"/>
      <psa03 value="0.0980162128" flag="0"/>
      <psa10 value="0.0419066855" flag="0"/>
      <psa30 value="0.0045496416" flag="0"/>
    </comp>
  </station>
  <station code="DRES" name="DRES" netid="HA" insttype="DC" lat="38.3197" lon="21.8532">
    <comp name="--.HNE">
      <acc value="0.0511313375" flag="0"/>
      <vel value="0.0378468350" flag="0"/>
      <psa03 value="0.1724928169" flag="0"/>
      <psa10 value="0.0572075317" flag="0"/>
      <psa30 value="0.0040029068" flag="0"/>
    </comp>
    <comp name="--.HNN">
      <acc value="0.0398366831" flag="0"/>
      <vel value="0.0288015072" flag="0"/>
      <psa03 value="0.1257175348" flag="0"/>
      <psa10 value="0.0366474100" flag="0"/>
      <psa30 value="0.0052977985" flag="0"/>
    </comp>
    <comp name="--.HNZ">
      <acc value="0.0341521998" flag="0"/>
      <vel value="0.0158514963" flag="0"/>
      <psa03 value="0.0851762663" flag="0"/>
      <psa10 value="0.0222813777" flag="0"/>
      <psa30 value="0.0025832753" flag="0"/>
    </comp>
  </station>
  <station code="HAVD" name="HAVD" netid="HA" insttype="GEOtiny," lat="38.2036" lon="20.3848">
    <comp name="--.HHN">
      <acc value="0.0543746249" flag="0"/>
      <vel value="0.0391797963" flag="0"/>
      <psa03 value="0.2114331668" flag="0"/>
      <psa10 value="0.0335754822" flag="0"/>
      <psa30 value="0.0021628446" flag="0"/>
    </comp>
    <comp name="--.HHE">
      <acc value="0.0464791137" flag="0"/>
      <vel value="0.0218670704" flag="0"/>
      <psa03 value="0.1538768275" flag="0"/>
      <psa10 value="0.0236366612" flag="0"/>
      <psa30 value="0.0014066810" flag="0"/>
    </comp>
    <comp name="--.HHZ">
      <acc value="0.0345780722" flag="0"/>
      <vel value="0.0212139801" flag="0"/>
      <psa03 value="0.1341577130" flag="0"/>
      <psa10 value="0.0157083339" flag="0"/>
      <psa30 value="0.0018002534" flag="0"/>
    </comp>
  </station>
  <station code="KALE" name="KALE" netid="HA" insttype="40," lat="38.3911" lon="22.1398">
    <comp name="--.HHN">
      <acc value="0.0514741176" flag="0"/>
      <vel value="0.0247759650" flag="0"/>
      <psa03 value="0.1039354916" flag="0"/>
      <psa10 value="0.0358884606" flag="0"/>
      <psa30 value="0.0025509348" flag="0"/>
    </comp>
    <comp name="--.HHE">
      <acc value="0.0469024928" flag="0"/>
      <vel value="0.0286966611" flag="0"/>
      <psa03 value="0.1097376783" flag="0"/>
      <psa10 value="0.0349070533" flag="0"/>
      <psa30 value="0.0033203030" flag="0"/>
    </comp>
    <comp name="--.HHZ">
      <acc value="0.0177363624" flag="0"/>
      <vel value="0.0132699561" flag="0"/>
      <psa03 value="0.0458782499" flag="0"/>
      <psa10 value="0.0212690404" flag="0"/>
      <psa30 value="0.0029624305" flag="0"/>
    </comp>
  </station>
  <station code="LAKA" name="LAKA" netid="HA" insttype="120s," lat="38.2401" lon="21.9785">
    <comp name="--.HHN">
      <acc value="0.0090264237" flag="0"/>
      <vel value="0.0062943484" flag="0"/>
      <psa03 value="0.0156701881" flag="0"/>
      <psa10 value="0.0074481896" flag="0"/>
      <psa30 value="0.0010494812" flag="0"/>
    </comp>
    <comp name="--.HHE">
      <acc value="0.0051076493" flag="0"/>
      <vel value="0.0040676295" flag="0"/>
      <psa03 value="0.0220119803" flag="0"/>
      <psa10 value="0.0071387261" flag="0"/>
      <psa30 value="0.0009952082" flag="0"/>
    </comp>
    <comp name="--.HHZ">
      <acc value="0.0039807268" flag="0"/>
      <vel value="0.0041922930" flag="0"/>
      <psa03 value="0.0135017580" flag="0"/>
      <psa10 value="0.0060297545" flag="0"/>
      <psa30 value="0.0007734128" flag="0"/>
    </comp>
  </station>
  <station code="ARG2" name="ARG2" netid="HI" insttype="CMG-5TD,ACCELEROMETER,GURALP" lat="38.1783" lon="20.4878">
    <comp name="--.HNZ">
      <acc value="0.1118287855" flag="0"/>
      <vel value="0.0532215371" flag="0"/>
      <psa03 value="0.5377344674" flag="0"/>
      <psa10 value="0.0229732409" flag="0"/>
      <psa30 value="0.0016539596" flag="0"/>
    </comp>
    <comp name="--.HNE">
      <acc value="0.1555779151" flag="0"/>
      <vel value="0.0813715350" flag="0"/>
      <psa03 value="0.5369820123" flag="0"/>
      <psa10 value="0.0318972847" flag="0"/>
      <psa30 value="0.0028352861" flag="0"/>
    </comp>
    <comp name="--.HNN">
      <acc value="0.1673941316" flag="0"/>
      <vel value="0.1024905353" flag="0"/>
      <psa03 value="0.4282278407" flag="0"/>
      <psa10 value="0.0585559236" flag="0"/>
      <psa30 value="0.0040872896" flag="0"/>
    </comp>
  </station>
  <station code="ART2" name="ART2" netid="HI" insttype="CMG-5TD,ACCELEROMETER,GURALP" lat="39.1474" lon="20.9937">
    <comp name="--.HNN">
      <acc value="0.3793099282" flag="0"/>
      <vel value="0.1135532312" flag="0"/>
      <psa03 value="0.4959381685" flag="0"/>
      <psa10 value="0.0689815159" flag="0"/>
      <psa30 value="0.0084277230" flag="0"/>
    </comp>
    <comp name="--.HNE">
      <acc value="0.3400189470" flag="0"/>
      <vel value="0.1239153410" flag="0"/>
      <psa03 value="0.6373725131" flag="0"/>
      <psa10 value="0.0779552528" flag="0"/>
      <psa30 value="0.0056490021" flag="0"/>
    </comp>
    <comp name="--.HNZ">
      <acc value="0.2513301913" flag="0"/>
      <vel value="0.0859893752" flag="0"/>
      <psa03 value="0.3148658175" flag="0"/>
      <psa10 value="0.0668853378" flag="0"/>
      <psa30 value="0.0125417590" flag="0"/>
    </comp>
  </station>
  <station code="KLV1" name="KLV1" netid="HI" insttype="CMG-5TD,ACCELEROMETER,GURALP" lat="38.0326" lon="22.108">
    <comp name="--.HNZ">
      <acc value="0.0143735012" flag="0"/>
      <vel value="0.0110512008" flag="0"/>
      <psa03 value="0.0386095037" flag="0"/>
      <psa10 value="0.0206857296" flag="0"/>
      <psa30 value="0.0015207399" flag="0"/>
    </comp>
    <comp name="--.HNE">
      <acc value="0.0290113382" flag="0"/>
      <vel value="0.0276267219" flag="0"/>
      <psa03 value="0.0897637487" flag="0"/>
      <psa10 value="0.0483894816" flag="0"/>
      <psa30 value="0.0027963785" flag="0"/>
    </comp>
    <comp name="--.HNN">
      <acc value="0.0246731687" flag="0"/>
      <vel value="0.0209549536" flag="0"/>
      <psa03 value="0.0796374689" flag="0"/>
      <psa10 value="0.0276234935" flag="0"/>
      <psa30 value="0.0022624800" flag="0"/>
    </comp>
  </station>
  <station code="KRK1" name="KRK1" netid="HI" insttype="CMG-5TD,ACCELEROMETER,GURALP" lat="39.6189" lon="19.9202">
    <comp name="--.HNE">
      <acc value="0.0642947773" flag="0"/>
      <vel value="0.0265136676" flag="0"/>
      <psa03 value="0.1546380013" flag="0"/>
      <psa10 value="0.0202204621" flag="0"/>
      <psa30 value="0.0031721486" flag="0"/>
    </comp>
    <comp name="--.HNZ">
      <acc value="0.0216547902" flag="0"/>
      <vel value="0.0086355501" flag="0"/>
      <psa03 value="0.0548249405" flag="0"/>
      <psa10 value="0.0057432117" flag="0"/>
      <psa30 value="0.0014772150" flag="0"/>
    </comp>
    <comp name="--.HNN">
      <acc value="0.0469614209" flag="0"/>
      <vel value="0.0244573894" flag="0"/>
      <psa03 value="0.1096834235" flag="0"/>
      <psa10 value="0.0262864680" flag="0"/>
      <psa30 value="0.0020979695" flag="0"/>
    </comp>
  </station>
  <station code="LAM2" name="LAM2" netid="HI" insttype="CMG-5TD,ACCELEROMETER,GURALP" lat="38.902" lon="22.4313">
    <comp name="--.HNZ">
      <acc value="0.0283311986" flag="0"/>
      <vel value="0.0137661555" flag="0"/>
      <psa03 value="0.0682322032" flag="0"/>
      <psa10 value="0.0191392067" flag="0"/>
      <psa30 value="0.0025698041" flag="0"/>
    </comp>
    <comp name="--.HNN">
      <acc value="0.0661902890" flag="0"/>
      <vel value="0.0251193267" flag="0"/>
      <psa03 value="0.1715948555" flag="0"/>
      <psa10 value="0.0270096007" flag="0"/>
      <psa30 value="0.0038927415" flag="0"/>
    </comp>
    <comp name="--.HNE">
      <acc value="0.0766661176" flag="0"/>
      <vel value="0.0415768014" flag="0"/>
      <psa03 value="0.2336072240" flag="0"/>
      <psa10 value="0.0489239664" flag="0"/>
      <psa30 value="0.0036089095" flag="0"/>
    </comp>
  </station>
  <station code="MSL1" name="MSL1" netid="HI" insttype="CMG-5TD,ACCELEROMETER,GURALP" lat="38.3727" lon="21.4243">
    <comp name="--.HNZ">
      <acc value="0.2078280184" flag="0"/>
      <vel value="0.1285327342" flag="0"/>
      <psa03 value="0.4840582840" flag="0"/>
      <psa10 value="0.2688256076" flag="0"/>
      <psa30 value="0.0085511844" flag="0"/>
    </comp>
    <comp name="--.HNN">
      <acc value="0.5500756718" flag="0"/>
      <vel value="0.3599901859" flag="0"/>
      <psa03 value="1.5200442960" flag="0"/>
      <psa10 value="0.6610000562" flag="0"/>
      <psa30 value="0.0324788483" flag="0"/>
    </comp>
    <comp name="--.HNE">
      <acc value="0.5424809181" flag="0"/>
      <vel value="0.4458512560" flag="0"/>
      <psa03 value="0.9396628133" flag="0"/>
      <psa10 value="0.9169280520" flag="0"/>
      <psa30 value="0.0480605365" flag="0"/>
    </comp>
  </station>
  <station code="VAS2" name="VAS2" netid="HI" insttype="CMG-5TD,ACCELEROMETER,GURALP" lat="38.6306" lon="20.6081">
    <comp name="--.HNN">
      <acc value="1.4407984504" flag="0"/>
      <vel value="0.7430487083" flag="0"/>
      <psa03 value="3.8212043010" flag="0"/>
      <psa10 value="1.0079968681" flag="0"/>
      <psa30 value="0.0392940730" flag="0"/>
    </comp>
    <comp name="--.HNE">
      <acc value="1.0715815325" flag="0"/>
      <vel value="0.7223788045" flag="0"/>
      <psa03 value="2.2226990557" flag="0"/>
      <psa10 value="1.4084534832" flag="0"/>
      <psa30 value="0.0380594732" flag="0"/>
    </comp>
    <comp name="--.HNZ">
      <acc value="0.4132563104" flag="0"/>
      <vel value="0.2791340008" flag="0"/>
      <psa03 value="1.8259164917" flag="0"/>
      <psa10 value="0.4433724875" flag="0"/>
      <psa30 value="0.0155382844" flag="0"/>
    </comp>
  </station>
  <station code="EVR" name="EVR" netid="HL" insttype="DR24" lat="38.9166" lon="21.8105">
    <comp name="--.HHE">
      <acc value="0.1954386319" flag="0"/>
      <vel value="0.0704559122" flag="0"/>
      <psa03 value="0.2410834641" flag="0"/>
      <psa10 value="0.0390484205" flag="0"/>
      <psa30 value="0.0061890974" flag="0"/>
    </comp>
    <comp name="--.HHN">
      <acc value="0.2627445412" flag="0"/>
      <vel value="0.0868663914" flag="0"/>
      <psa03 value="0.3908549763" flag="0"/>
      <psa10 value="0.0496300315" flag="0"/>
      <psa30 value="0.0054703385" flag="0"/>
    </comp>
    <comp name="--.HHZ">
      <acc value="0.1156046066" flag="0"/>
      <vel value="0.0520802369" flag="0"/>
      <psa03 value="0.3116692519" flag="0"/>
      <psa10 value="0.0659064157" flag="0"/>
      <psa30 value="0.0040265387" flag="0"/>
    </comp>
  </station>
  <station code="GINA" name="GINA" netid="HL" insttype="CMG-5" lat="39.6689" lon="22.389">
    <comp name="00.HNE">
      <acc value="0.0498517267" flag="0"/>
      <vel value="0.0481741216" flag="0"/>
      <psa03 value="0.1236655811" flag="0"/>
      <psa10 value="0.0731474752" flag="0"/>
      <psa30 value="0.0040626265" flag="0"/>
    </comp>
    <comp name="00.HNN">
      <acc value="0.0412615825" flag="0"/>
      <vel value="0.0439369098" flag="0"/>
      <psa03 value="0.0864552496" flag="0"/>
      <psa10 value="0.0545292893" flag="0"/>
      <psa30 value="0.0052794850" flag="0"/>
    </comp>
    <comp name="00.HNZ">
      <acc value="0.0502037747" flag="0"/>
      <vel value="0.0314357354" flag="0"/>
      <psa03 value="0.0678960364" flag="0"/>
      <psa10 value="0.0406901852" flag="0"/>
      <psa30 value="0.0016986357" flag="0"/>
    </comp>
  </station>
  <station code="JAN" name="JAN" netid="HL" insttype="CMG3EPSC60_DR24" lat="39.6562" lon="20.8487">
    <comp name="--.HHN">
      <acc value="0.0592457197" flag="0"/>
      <vel value="0.0236996044" flag="0"/>
      <psa03 value="0.1348331897" flag="0"/>
      <psa10 value="0.0227307402" flag="0"/>
      <psa30 value="0.0025239747" flag="0"/>
    </comp>
    <comp name="--.HHE">
      <acc value="0.0692024171" flag="0"/>
      <vel value="0.0333516890" flag="0"/>
      <psa03 value="0.1741639542" flag="0"/>
      <psa10 value="0.0358389892" flag="0"/>
      <psa30 value="0.0030183980" flag="0"/>
    </comp>
    <comp name="--.HHZ">
      <acc value="0.0299923635" flag="0"/>
      <vel value="0.0171418321" flag="0"/>
      <psa03 value="0.1251340034" flag="0"/>
      <psa10 value="0.0124664610" flag="0"/>
      <psa30 value="0.0024866773" flag="0"/>
    </comp>
  </station>
  <station code="KEK" name="KEK" netid="HL" insttype="120" lat="39.7127" lon="19.7962">
    <comp name="--.HHE">
      <acc value="0.0153138429" flag="0"/>
      <vel value="0.0095694169" flag="0"/>
      <psa03 value="0.0384539199" flag="0"/>
      <psa10 value="0.0131618749" flag="0"/>
      <psa30 value="0.0014523578" flag="0"/>
    </comp>
    <comp name="--.HHN">
      <acc value="0.0080108209" flag="0"/>
      <vel value="0.0054081252" flag="0"/>
      <psa03 value="0.0261756338" flag="0"/>
      <psa10 value="0.0071814499" flag="0"/>
      <psa30 value="0.0005503603" flag="0"/>
    </comp>
    <comp name="--.HHZ">
      <acc value="0.0093603441" flag="0"/>
      <vel value="0.0079680203" flag="0"/>
      <psa03 value="0.0321391345" flag="0"/>
      <psa10 value="0.0129099710" flag="0"/>
      <psa30 value="0.0018972800" flag="0"/>
    </comp>
  </station>
  <station code="KLV" name="KLV" netid="HL" insttype="120" lat="38.0435" lon="22.1504">
    <comp name="--.HHE">
      <acc value="0.0095708897" flag="0"/>
      <vel value="0.0127311661" flag="0"/>
      <psa03 value="0.0284942094" flag="0"/>
      <psa10 value="0.0288104674" flag="0"/>
      <psa30 value="0.0017920969" flag="0"/>
    </comp>
    <comp name="--.HHZ">
      <acc value="0.0099216425" flag="0"/>
      <vel value="0.0142690696" flag="0"/>
      <psa03 value="0.0243165440" flag="0"/>
      <psa10 value="0.0211118825" flag="0"/>
      <psa30 value="0.0018221490" flag="0"/>
    </comp>
    <comp name="--.HHN">
      <acc value="0.0125401891" flag="0"/>
      <vel value="0.0095824567" flag="0"/>
      <psa03 value="0.0237758767" flag="0"/>
      <psa10 value="0.0185375068" flag="0"/>
      <psa30 value="0.0013206746" flag="0"/>
    </comp>
  </station>
  <station code="ORTH" name="ORTH" netid="HL" insttype="30" lat="37.8511" lon="20.6963">
    <comp name="--.HHE">
      <acc value="0.0350178501" flag="0"/>
      <vel value="0.0256481371" flag="0"/>
      <psa03 value="0.0788753480" flag="0"/>
      <psa10 value="0.0288403304" flag="0"/>
      <psa30 value="0.0028924181" flag="0"/>
    </comp>
    <comp name="--.HHN">
      <acc value="0.0357174128" flag="0"/>
      <vel value="0.0227409211" flag="0"/>
      <psa03 value="0.1126542993" flag="0"/>
      <psa10 value="0.0323307119" flag="0"/>
      <psa30 value="0.0016560758" flag="0"/>
    </comp>
    <comp name="--.HHZ">
      <acc value="0.0159920125" flag="0"/>
      <vel value="0.0098898782" flag="0"/>
      <psa03 value="0.0559770455" flag="0"/>
      <psa10 value="0.0091475971" flag="0"/>
      <psa30 value="0.0012770234" flag="0"/>
    </comp>
  </station>
  <station code="PATC" name="PATC" netid="HL" insttype="CMG-5" lat="38.2693" lon="21.76">
    <comp name="00.HNZ">
      <acc value="0.0564645247" flag="0"/>
      <vel value="0.0376477376" flag="0"/>
      <psa03 value="0.1215475374" flag="0"/>
      <psa10 value="0.0530104120" flag="0"/>
      <psa30 value="0.0045107750" flag="0"/>
    </comp>
    <comp name="00.HNN">
      <acc value="0.0694973761" flag="0"/>
      <vel value="0.0658879769" flag="0"/>
      <psa03 value="0.2783309183" flag="0"/>
      <psa10 value="0.1153879747" flag="0"/>
      <psa30 value="0.0093272156" flag="0"/>
    </comp>
    <comp name="00.HNE">
      <acc value="0.0864306931" flag="0"/>
      <vel value="0.0593260084" flag="0"/>
      <psa03 value="0.2424246373" flag="0"/>
      <psa10 value="0.0727318336" flag="0"/>
      <psa30 value="0.0115484466" flag="0"/>
    </comp>
  </station>
  <station code="PATG" name="PATG" netid="HL" insttype="CMG-5" lat="38.2386" lon="21.7266">
    <comp name="00.HNN">
      <acc value="0.1219877507" flag="0"/>
      <vel value="0.0845996423" flag="0"/>
      <psa03 value="0.3746674241" flag="0"/>
      <psa10 value="0.1396294435" flag="0"/>
      <psa30 value="0.0122805017" flag="0"/>
