<?xml version="1.0" encoding="UTF-8" standalone="yes"?>
<!DOCTYPE earthquake SYSTEM "stationlist.dtd">
<stationlist created="" xmlns="ch.ethz.sed.shakemap.usgs.xml">
  <station code="SRN" name="SRN" netid="AC" insttype="" lat="39.88" lon="20.0005">
    <comp name="--.HHE">
      <acc value="0.0029350514" flag="0"/>
      <vel value="0.0023523691" flag="0"/>
      <psa03 value="0.0073890106" flag="0"/>
      <psa10 value="0.0038595549" flag="0"/>
      <psa30 value="0.0006946692" flag="0"/>
    </comp>
    <comp name="--.HHN">
      <acc value="0.0030331668" flag="0"/>
      <vel value="0.0022621604" flag="0"/>
      <psa03 value="0.0074231875" flag="0"/>
      <psa10 value="0.0028802133" flag="0"/>
      <psa30 value="0.0007531976" flag="0"/>
    </comp>
    <comp name="--.HHZ">
      <acc value="0.0031085305" flag="0"/>
      <vel value="0.0028278316" flag="0"/>
      <psa03 value="0.0084225489" flag="0"/>
      <psa10 value="0.0056010352" flag="0"/>
      <psa30 value="0.0005736210" flag="0"/>
    </comp>
  </station>
  <station code="AIGS" name="AIGS" netid="HA" insttype="DC" lat="38.25" lon="22.0878">
    <comp name="--.HNE">
      <acc value="0.0421752834" flag="0"/>
      <vel value="0.0375337717" flag="0"/>
      <psa03 value="0.1333203162" flag="0"/>
      <psa10 value="0.0289475470" flag="0"/>
      <psa30 value="0.0041356697" flag="0"/>
    </comp>
    <comp name="--.HNN">
      <acc value="0.0502831700" flag="0"/>
      <vel value="0.0226603073" flag="0"/>
      <psa03 value="0.1550112125" flag="0"/>
      <psa10 value="0.0336691721" flag="0"/>
      <psa30 value="0.0053231493" flag="0"/>
    </comp>
    <comp name="--.HNZ">
      <acc value="0.0265256263" flag="0"/>
      <vel value="0.0143844898" flag="0"/>
      <psa03 value="0.0376821238" flag="0"/>
      <psa10 value="0.0272826072" flag="0"/>
      <psa30 value="0.0032715797" flag="0"/>
    </comp>
  </station>
  <station code="ATHR" name="ATHR" netid="HA" insttype="GEOtiny," lat="38.3172" lon="20.4165">
    <comp name="--.HHE">
      <acc value="0.0348614507" flag="0"/>
      <vel value="0.0230649074" flag="0"/>
      <psa03 value="0.0884173710" flag="0"/>
      <psa10 value="0.0243098324" flag="0"/>
      <psa30 value="0.0031334503" flag="0"/>
    </comp>
    <comp name="--.HHN">
      <acc value="0.0337634491" flag="0"/>
      <vel value="0.0222007616" flag="0"/>
      <psa03 value="0.1271024039" flag="0"/>
      <psa10 value="0.0232125183" flag="0"/>
      <psa30 value="0.0024572799" flag="0"/>
    </comp>
    <comp name="--.HHZ">
      <acc value="0.0222515034" flag="0"/>
      <vel value="0.0111359955" flag="0"/>
      <psa03 value="0.0949892594" flag="0"/>
      <psa10 value="0.0136871537" flag="0"/>
      <psa30 value="0.0026413050" flag="0"/>
    </comp>
  </station>
  <station code="AXAR" name="AXAR" netid="HA" insttype="Horizon,120s,1200" lat="38.7664" lon="22.659">
    <comp name="--.HHN">
      <acc value="0.0700096614" flag="0"/>
      <vel value="0.0497970047" flag="0"/>
      <psa03 value="0.2383021485" flag="0"/>
      <psa10 value="0.0431951139" flag="0"/>
      <psa30 value="0.0062364238" flag="0"/>
    </comp>
    <comp name="--.HHE">
      <acc value="0.0860180010" flag="0"/>
      <vel value="0.0562557523" flag="0"/>
      <psa03 value="0.2383459692" flag="0"/>
      <psa10 value="0.0514653247" flag="0"/>
      <psa30 value="0.0056546172" flag="0"/>
    </comp>
    <comp name="--.HHZ">
      <acc value="0.0368013571" flag="0"/>
      <vel value="0.0283054342" flag="0"/>
      <psa03 value="0.0980162128" flag="0"/>
      <psa10 value="0.0419066855" flag="0"/>
      <psa30 value="0.0045496419" flag="0"/>
    </comp>
  </station>
  <station code="DRES" name="DRES" netid="HA" insttype="DC" lat="38.3197" lon="21.8532">
    <comp name="--.HNE">
      <acc value="0.0511313343" flag="0"/>
      <vel value="0.0378468318" flag="0"/>
      <psa03 value="0.1724928169" flag="0"/>
      <psa10 value="0.0572075317" flag="0"/>
      <psa30 value="0.0040025248" flag="0"/>
    </comp>
    <comp name="--.HNZ">
      <acc value="0.0341522038" flag="0"/>
      <vel value="0.0158514734" flag="0"/>
      <psa03 value="0.0851762663" flag="0"/>
      <psa10 value="0.0222813777" flag="0"/>
      <psa30 value="0.0025829220" flag="0"/>
    </comp>
    <comp name="--.HNN">
      <acc value="0.0398366819" flag="0"/>
      <vel value="0.0288014990" flag="0"/>
      <psa03 value="0.1257175348" flag="0"/>
      <psa10 value="0.0366474100" flag="0"/>
      <psa30 value="0.0052976586" flag="0"/>
    </comp>
  </station>
  <station code="HAVD" name="HAVD" netid="HA" insttype="GEOtiny," lat="38.2036" lon="20.3848">
    <comp name="--.HHE">
      <acc value="0.0464791132" flag="0"/>
      <vel value="0.0218672211" flag="0"/>
      <psa03 value="0.1538768278" flag="0"/>
      <psa10 value="0.0236366616" flag="0"/>
      <psa30 value="0.0014066854" flag="0"/>
    </comp>
    <comp name="--.HHN">
      <acc value="0.0543746266" flag="0"/>
      <vel value="0.0391796692" flag="0"/>
      <psa03 value="0.2114331662" flag="0"/>
      <psa10 value="0.0335754830" flag="0"/>
      <psa30 value="0.0021628351" flag="0"/>
    </comp>
    <comp name="--.HHZ">
      <acc value="0.0345780719" flag="0"/>
      <vel value="0.0212138957" flag="0"/>
      <psa03 value="0.1341577132" flag="0"/>
      <psa10 value="0.0157083337" flag="0"/>
      <psa30 value="0.0018002828" flag="0"/>
    </comp>
  </station>
  <station code="KALE" name="KALE" netid="HA" insttype="40," lat="38.3911" lon="22.1398">
    <comp name="--.HHE">
      <acc value="0.0469024928" flag="0"/>
      <vel value="0.0286966613" flag="0"/>
      <psa03 value="0.1097376783" flag="0"/>
      <psa10 value="0.0349070533" flag="0"/>
      <psa30 value="0.0033203031" flag="0"/>
    </comp>
    <comp name="--.HHN">
      <acc value="0.0514741176" flag="0"/>
      <vel value="0.0247759660" flag="0"/>
      <psa03 value="0.1039354916" flag="0"/>
      <psa10 value="0.0358884606" flag="0"/>
      <psa30 value="0.0025509352" flag="0"/>
    </comp>
    <comp name="--.HHZ">
      <acc value="0.0177363625" flag="0"/>
      <vel value="0.0132699557" flag="0"/>
      <psa03 value="0.0458782499" flag="0"/>
      <psa10 value="0.0212690404" flag="0"/>
      <psa30 value="0.0029624291" flag="0"/>
    </comp>
  </station>
  <station code="LAKA" name="LAKA" netid="HA" insttype="120s," lat="38.2401" lon="21.9785">
    <comp name="--.HHE">
      <acc value="0.0051076492" flag="0"/>
      <vel value="0.0040676299" flag="0"/>
      <psa03 value="0.0220119803" flag="0"/>
      <psa10 value="0.0071387261" flag="0"/>
      <psa30 value="0.0009952180" flag="0"/>
    </comp>
    <comp name="--.HHZ">
      <acc value="0.0039807269" flag="0"/>
      <vel value="0.0041922930" flag="0"/>
      <psa03 value="0.0135017580" flag="0"/>
      <psa10 value="0.0060297545" flag="0"/>
      <psa30 value="0.0007734135" flag="0"/>
    </comp>
    <comp name="--.HHN">
      <acc value="0.0090264237" flag="0"/>
      <vel value="0.0062943485" flag="0"/>
      <psa03 value="0.0156701881" flag="0"/>
      <psa10 value="0.0074481896" flag="0"/>
      <psa30 value="0.0010494783" flag="0"/>
    </comp>
  </station>
  <station code="ARG2" name="ARG2" netid="HI" insttype="CMG-5TD,ACCELEROMETER,GURALP" lat="38.1783" lon="20.4878">
    <comp name="--.HNZ">
      <acc value="0.1118287856" flag="0"/>
      <vel value="0.0532215369" flag="0"/>
      <psa03 value="0.5377344674" flag="0"/>
      <psa10 value="0.0229732409" flag="0"/>
      <psa30 value="0.0016539489" flag="0"/>
    </comp>
    <comp name="--.HNE">
      <acc value="0.1555779155" flag="0"/>
      <vel value="0.0813715355" flag="0"/>
      <psa03 value="0.5369820123" flag="0"/>
      <psa10 value="0.0318972847" flag="0"/>
      <psa30 value="0.0028352322" flag="0"/>
    </comp>
    <comp name="--.HNN">
      <acc value="0.1673941315" flag="0"/>
      <vel value="0.1024905347" flag="0"/>
      <psa03 value="0.4282278407" flag="0"/>
      <psa10 value="0.0585559237" flag="0"/>
      <psa30 value="0.0040872141" flag="0"/>
    </comp>
  </station>
  <station code="ART2" name="ART2" netid="HI" insttype="CMG-5TD,ACCELEROMETER,GURALP" lat="39.1474" lon="20.9937">
    <comp name="--.HNN">
      <acc value="0.3793099293" flag="0"/>
      <vel value="0.1135532299" flag="0"/>
      <psa03 value="0.4959381685" flag="0"/>
      <psa10 value="0.0689815151" flag="0"/>
      <psa30 value="0.0084284707" flag="0"/>
    </comp>
    <comp name="--.HNE">
      <acc value="0.3400189470" flag="0"/>
      <vel value="0.1239153407" flag="0"/>
      <psa03 value="0.6373725131" flag="0"/>
      <psa10 value="0.0779552549" flag="0"/>
      <psa30 value="0.0056491310" flag="0"/>
    </comp>
    <comp name="--.HNZ">
      <acc value="0.2513301922" flag="0"/>
      <vel value="0.0859893754" flag="0"/>
      <psa03 value="0.3148658175" flag="0"/>
      <psa10 value="0.0668853367" flag="0"/>
      <psa30 value="0.0125415251" flag="0"/>
    </comp>
  </station>
  <station code="KLV1" name="KLV1" netid="HI" insttype="CMG-5TD,ACCELEROMETER,GURALP" lat="38.0326" lon="22.108">
    <comp name="--.HNE">
      <acc value="0.0290113381" flag="0"/>
      <vel value="0.0276267217" flag="0"/>
      <psa03 value="0.0897637487" flag="0"/>
      <psa10 value="0.0483894816" flag="0"/>
      <psa30 value="0.0027963851" flag="0"/>
    </comp>
    <comp name="--.HNZ">
      <acc value="0.0143735017" flag="0"/>
      <vel value="0.0110512005" flag="0"/>
      <psa03 value="0.0386095037" flag="0"/>
      <psa10 value="0.0206857296" flag="0"/>
      <psa30 value="0.0015207412" flag="0"/>
    </comp>
    <comp name="--.HNN">
      <acc value="0.0246731685" flag="0"/>
      <vel value="0.0209549534" flag="0"/>
      <psa03 value="0.0796374689" flag="0"/>
      <psa10 value="0.0276234935" flag="0"/>
      <psa30 value="0.0022624835" flag="0"/>
    </comp>
  </station>
  <station code="KRK1" name="KRK1" netid="HI" insttype="CMG-5TD,ACCELEROMETER,GURALP" lat="39.6189" lon="19.9202">
    <comp name="--.HNE">
      <acc value="0.0642947767" flag="0"/>
      <vel value="0.0265136676" flag="0"/>
      <psa03 value="0.1546380013" flag="0"/>
      <psa10 value="0.0202204621" flag="0"/>
      <psa30 value="0.0031721458" flag="0"/>
    </comp>
    <comp name="--.HNZ">
      <acc value="0.0216547899" flag="0"/>
      <vel value="0.0086355503" flag="0"/>
      <psa03 value="0.0548249405" flag="0"/>
      <psa10 value="0.0057432117" flag="0"/>
      <psa30 value="0.0014772296" flag="0"/>
    </comp>
    <comp name="--.HNN">
      <acc value="0.0469614203" flag="0"/>
      <vel value="0.0244573898" flag="0"/>
      <psa03 value="0.1096834235" flag="0"/>
      <psa10 value="0.0262864680" flag="0"/>
      <psa30 value="0.0020979713" flag="0"/>
    </comp>
  </station>
  <station code="LAM2" name="LAM2" netid="HI" insttype="CMG-5TD,ACCELEROMETER,GURALP" lat="38.902" lon="22.4313">
    <comp name="--.HNZ">
      <acc value="0.0283311983" flag="0"/>
      <vel value="0.0137661557" flag="0"/>
      <psa03 value="0.0682322032" flag="0"/>
      <psa10 value="0.0191392067" flag="0"/>
      <psa30 value="0.0025698172" flag="0"/>
    </comp>
    <comp name="--.HNN">
      <acc value="0.0661902891" flag="0"/>
      <vel value="0.0251193272" flag="0"/>
      <psa03 value="0.1715948555" flag="0"/>
      <psa10 value="0.0270096006" flag="0"/>
      <psa30 value="0.0038927724" flag="0"/>
    </comp>
    <comp name="--.HNE">
      <acc value="0.0766661174" flag="0"/>
      <vel value="0.0415768013" flag="0"/>
      <psa03 value="0.2336072240" flag="0"/>
      <psa10 value="0.0489239664" flag="0"/>
      <psa30 value="0.0036088994" flag="0"/>
    </comp>
  </station>
  <station code="MSL1" name="MSL1" netid="HI" insttype="CMG-5TD,ACCELEROMETER,GURALP" lat="38.3727" lon="21.4243">
    <comp name="--.HNN">
      <acc value="0.5500756723" flag="0"/>
      <vel value="0.3599901858" flag="0"/>
      <psa03 value="1.5200442960" flag="0"/>
      <psa10 value="0.6610000562" flag="0"/>
      <psa30 value="0.0324793425" flag="0"/>
    </comp>
    <comp name="--.HNZ">
      <acc value="0.2078280182" flag="0"/>
      <vel value="0.1285327358" flag="0"/>
      <psa03 value="0.4840582840" flag="0"/>
      <psa10 value="0.2688256075" flag="0"/>
      <psa30 value="0.0085510789" flag="0"/>
    </comp>
    <comp name="--.HNE">
      <acc value="0.5424809182" flag="0"/>
      <vel value="0.4458512560" flag="0"/>
      <psa03 value="0.9396628133" flag="0"/>
      <psa10 value="0.9169280522" flag="0"/>
      <psa30 value="0.0480603861" flag="0"/>
    </comp>
  </station>
  <station code="VAS2" name="VAS2" netid="HI" insttype="CMG-5TD,ACCELEROMETER,GURALP" lat="38.6306" lon="20.6081">
    <comp name="--.HNN">
      <acc value="1.4407984505" flag="0"/>
      <vel value="0.7430487093" flag="0"/>
      <psa03 value="3.8212043010" flag="0"/>
      <psa10 value="1.0079968678" flag="0"/>
      <psa30 value="0.0392939896" flag="0"/>
    </comp>
    <comp name="--.HNE">
      <acc value="1.0715815323" flag="0"/>
      <vel value="0.7223788026" flag="0"/>
      <psa03 value="2.2226990557" flag="0"/>
      <psa10 value="1.4084534831" flag="0"/>
      <psa30 value="0.0380594598" flag="0"/>
    </comp>
    <comp name="--.HNZ">
      <acc value="0.4132563107" flag="0"/>
      <vel value="0.2791340109" flag="0"/>
      <psa03 value="1.8259164917" flag="0"/>
      <psa10 value="0.4433724876" flag="0"/>
      <psa30 value="0.0155378462" flag="0"/>
    </comp>
  </station>
  <station code="EVR" name="EVR" netid="HL" insttype="DR24" lat="38.9166" lon="21.8105">
    <comp name="--.HHN">
      <acc value="0.2627445415" flag="0"/>
      <vel value="0.0868663908" flag="0"/>
      <psa03 value="0.3908549763" flag="0"/>
      <psa10 value="0.0496300315" flag="0"/>
      <psa30 value="0.0054703327" flag="0"/>
    </comp>
    <comp name="--.HHE">
      <acc value="0.1954386316" flag="0"/>
      <vel value="0.0704559123" flag="0"/>
      <psa03 value="0.2410834641" flag="0"/>
      <psa10 value="0.0390484205" flag="0"/>
      <psa30 value="0.0061890932" flag="0"/>
    </comp>
    <comp name="--.HHZ">
      <acc value="0.1156046066" flag="0"/>
      <vel value="0.0520802365" flag="0"/>
      <psa03 value="0.3116692519" flag="0"/>
      <psa10 value="0.0659064157" flag="0"/>
      <psa30 value="0.0040265277" flag="0"/>
    </comp>
  </station>
  <station code="GINA" name="GINA" netid="HL" insttype="CMG-5" lat="39.6689" lon="22.389">
    <comp name="00.HNN">
      <acc value="0.0412615817" flag="0"/>
      <vel value="0.0439369108" flag="0"/>
      <psa03 value="0.0864552496" flag="0"/>
      <psa10 value="0.0545292892" flag="0"/>
      <psa30 value="0.0052793437" flag="0"/>
    </comp>
    <comp name="00.HNZ">
      <acc value="0.0502037759" flag="0"/>
      <vel value="0.0314357343" flag="0"/>
      <psa03 value="0.0678960364" flag="0"/>
      <psa10 value="0.0406901853" flag="0"/>
      <psa30 value="0.0016986961" flag="0"/>
    </comp>
    <comp name="00.HNE">
      <acc value="0.0498517263" flag="0"/>
      <vel value="0.0481741218" flag="0"/>
      <psa03 value="0.1236655811" flag="0"/>
      <psa10 value="0.0731474752" flag="0"/>
      <psa30 value="0.0040626252" flag="0"/>
    </comp>
  </station>
  <station code="JAN" name="JAN" netid="HL" insttype="CMG3EPSC60_DR24" lat="39.6562" lon="20.8487">
    <comp name="--.HHE">
      <acc value="0.0692024171" flag="0"/>
      <vel value="0.0333516889" flag="0"/>
      <psa03 value="0.1741639542" flag="0"/>
      <psa10 value="0.0358389892" flag="0"/>
      <psa30 value="0.0030184019" flag="0"/>
    </comp>
    <comp name="--.HHN">
      <acc value="0.0592457198" flag="0"/>
      <vel value="0.0236996044" flag="0"/>
      <psa03 value="0.1348331897" flag="0"/>
      <psa10 value="0.0227307402" flag="0"/>
      <psa30 value="0.0025239731" flag="0"/>
    </comp>
    <comp name="--.HHZ">
      <acc value="0.0299923636" flag="0"/>
      <vel value="0.0171418318" flag="0"/>
      <psa03 value="0.1251340034" flag="0"/>
      <psa10 value="0.0124664610" flag="0"/>
      <psa30 value="0.0024866734" flag="0"/>
    </comp>
  </station>
  <station code="KEK" name="KEK" netid="HL" insttype="120" lat="39.7127" lon="19.7962">
    <comp name="--.HHN">
      <acc value="0.0080108209" flag="0"/>
      <vel value="0.0054081252" flag="0"/>
      <psa03 value="0.0261756338" flag="0"/>
      <psa10 value="0.0071814499" flag="0"/>
      <psa30 value="0.0005503620" flag="0"/>
    </comp>
    <comp name="--.HHZ">
      <acc value="0.0093603441" flag="0"/>
      <vel value="0.0079680204" flag="0"/>
      <psa03 value="0.0321391345" flag="0"/>
      <psa10 value="0.0129099710" flag="0"/>
      <psa30 value="0.0018972789" flag="0"/>
    </comp>
    <comp name="--.HHE">
      <acc value="0.0153138428" flag="0"/>
      <vel value="0.0095694170" flag="0"/>
      <psa03 value="0.0384539199" flag="0"/>
      <psa10 value="0.0131618749" flag="0"/>
      <psa30 value="0.0014523576" flag="0"/>
    </comp>
  </station>
  <station code="KLV" name="KLV" netid="HL" insttype="120" lat="38.0435" lon="22.1504">
    <comp name="--.HHE">
      <acc value="0.0095708897" flag="0"/>
      <vel value="0.0127311662" flag="0"/>
      <psa03 value="0.0284942094" flag="0"/>
      <psa10 value="0.0288104674" flag="0"/>
      <psa30 value="0.0017920971" flag="0"/>
    </comp>
    <comp name="--.HHN">
      <acc value="0.0125401891" flag="0"/>
      <vel value="0.0095824567" flag="0"/>
      <psa03 value="0.0237758767" flag="0"/>
      <psa10 value="0.0185375068" flag="0"/>
      <psa30 value="0.0013206748" flag="0"/>
    </comp>
    <comp name="--.HHZ">
      <acc value="0.0099216425" flag="0"/>
      <vel value="0.0142690696" flag="0"/>
      <psa03 value="0.0243165440" flag="0"/>
      <psa10 value="0.0211118825" flag="0"/>
      <psa30 value="0.0018221484" flag="0"/>
    </comp>
  </station>
  <station code="ORTH" name="ORTH" netid="HL" insttype="30" lat="37.8511" lon="20.6963">
    <comp name="--.HHE">
      <acc value="0.0350178502" flag="0"/>
      <vel value="0.0256481362" flag="0"/>
      <psa03 value="0.0788753480" flag="0"/>
      <psa10 value="0.0288403304" flag="0"/>
      <psa30 value="0.0028924183" flag="0"/>
    </comp>
    <comp name="--.HHZ">
      <acc value="0.0159920126" flag="0"/>
      <vel value="0.0098898783" flag="0"/>
      <psa03 value="0.0559770455" flag="0"/>
      <psa10 value="0.0091475971" flag="0"/>
      <psa30 value="0.0012770238" flag="0"/>
    </comp>
    <comp name="--.HHN">
      <acc value="0.0357174128" flag="0"/>
      <vel value="0.0227409213" flag="0"/>
      <psa03 value="0.1126542993" flag="0"/>
      <psa10 value="0.0323307119" flag="0"/>
      <psa30 value="0.0016560758" flag="0"/>
    </comp>
  </station>
  <station code="PATC" name="PATC" netid="HL" insttype="CMG-5" lat="38.2693" lon="21.76">
    <comp name="00.HNN">
      <acc value="0.0694973757" flag="0"/>
      <vel value="0.0658879740" flag="0"/>
      <psa03 value="0.2783309183" flag="0"/>
      <psa10 value="0.1153879747" flag="0"/>
      <psa30 value="0.0093271871" flag="0"/>
    </comp>
    <comp name="00.HNE">
      <acc value="0.0864306939" flag="0"/>
      <vel value="0.0593260066" flag="0"/>
      <psa03 value="0.2424246373" flag="0"/>
      <psa10 value="0.0727318335" flag="0"/>
      <psa30 value="0.0115484492" flag="0"/>
    </comp>
    <comp name="00.HNZ">
      <acc value="0.0564645209" flag="0"/>
      <vel value="0.0376477357" flag="0"/>
      <psa03 value="0.1215475374" flag="0"/>
      <psa10 value="0.0530104120" flag="0"/>
      <psa30 value="0.0045108564" flag="0"/>
    </comp>
  </station>
  <station code="PATG" name="PATG" netid="HL" insttype="CMG-5" lat="38.2386" lon="21.7266">
    <comp name="00.HNE">
      <acc value="0.0853148305" flag="0"/>
      <vel value="0.0598303346" flag="0"/>
      <psa03 value="0.1809448283" flag="0"/>
      <psa10 value="0.0890555960" flag="0"/>
      <psa30 value="0.0136904994" flag="0"/>
