<?xml version="1.0" encoding="UTF-8" standalone="yes"?>
<!DOCTYPE earthquake SYSTEM "stationlist.dtd">
<stationlist created="" xmlns="ch.ethz.sed.shakemap.usgs.xml">
  <station code="SRN" name="SRN" netid="AC" insttype="" lat="39.88" lon="20.0005">
    <comp name="--.HHE">
      <acc value="0.0029350514" flag="0"/>
      <vel value="0.0023523691" flag="0"/>
      <psa03 value="0.0073890106" flag="0"/>
      <psa10 value="0.0038595549" flag="0"/>
      <psa30 value="0.0006946692" flag="0"/>
    </comp>
    <comp name="--.HHN">
      <acc value="0.0030331668" flag="0"/>
      <vel value="0.0022621604" flag="0"/>
      <psa03 value="0.0074231875" flag="0"/>
      <psa10 value="0.0028802133" flag="0"/>
      <psa30 value="0.0007531976" flag="0"/>
    </comp>
    <comp name="--.HHZ">
      <acc value="0.0031085305" flag="0"/>
      <vel value="0.0028278316" flag="0"/>
      <psa03 value="0.0084225489" flag="0"/>
      <psa10 value="0.0056010352" flag="0"/>
      <psa30 value="0.0005736210" flag="0"/>
    </comp>
  </station>
  <station code="KEK" name="KEK" netid="MN" insttype="" lat="39.7127" lon="19.7962">
    <comp name="--.HHE">
      <acc value="0.0153138322" flag="0"/>
      <vel value="0.0095694104" flag="0"/>
      <psa03 value="0.0384538932" flag="0"/>
      <psa10 value="0.0131618657" flag="0"/>
      <psa30 value="0.0014523566" flag="0"/>
    </comp>
    <comp name="--.HHN">
      <acc value="0.0080108153" flag="0"/>
      <vel value="0.0054081214" flag="0"/>
      <psa03 value="0.0261756157" flag="0"/>
      <psa10 value="0.0071814449" flag="0"/>
      <psa30 value="0.0005503616" flag="0"/>
    </comp>
    <comp name="--.HHZ">
      <acc value="0.0093603376" flag="0"/>
      <vel value="0.0079680149" flag="0"/>
      <psa03 value="0.0321391122" flag="0"/>
      <psa10 value="0.0129099620" flag="0"/>
      <psa30 value="0.0018972776" flag="0"/>
    </comp>
  </station>
  <station code="KLV" name="KLV" netid="MN" insttype="" lat="38.0437" lon="22.1504">
    <comp name="--.HHZ">
      <acc value="0.0102170093" flag="0"/>
      <vel value="0.0144111235" flag="0"/>
      <psa03 value="0.0249343589" flag="0"/>
      <psa10 value="0.0212450005" flag="0"/>
      <psa30 value="0.0018282604" flag="0"/>
    </comp>
    <comp name="--.HHE">
      <acc value="0.0097824326" flag="0"/>
      <vel value="0.0128201058" flag="0"/>
      <psa03 value="0.0292335944" flag="0"/>
      <psa10 value="0.0289895395" flag="0"/>
      <psa30 value="0.0017967605" flag="0"/>
    </comp>
    <comp name="--.HHN">
      <acc value="0.0127457209" flag="0"/>
      <vel value="0.0096756775" flag="0"/>
      <psa03 value="0.0244776874" flag="0"/>
      <psa10 value="0.0186667861" flag="0"/>
      <psa30 value="0.0013262880" flag="0"/>
    </comp>
  </station>
  <station code="THL" name="THL" netid="MN" insttype="" lat="39.5647" lon="22.0144">
    <comp name="--.HHE">
      <acc value="0.0171294812" flag="0"/>
      <vel value="0.0098419917" flag="0"/>
      <psa03 value="0.0440214064" flag="0"/>
      <psa10 value="0.0150219019" flag="0"/>
      <psa30 value="0.0014020471" flag="0"/>
    </comp>
    <comp name="--.HHN">
      <acc value="0.0127359826" flag="0"/>
      <vel value="0.0077013794" flag="0"/>
      <psa03 value="0.0260138619" flag="0"/>
      <psa10 value="0.0107241146" flag="0"/>
      <psa30 value="0.0011953777" flag="0"/>
    </comp>
    <comp name="--.HHZ">
      <acc value="0.0126335626" flag="0"/>
      <vel value="0.0080048093" flag="0"/>
      <psa03 value="0.0313528431" flag="0"/>
      <psa10 value="0.0064470544" flag="0"/>
      <psa30 value="0.0013886888" flag="0"/>
    </comp>
  </station>
</stationlist>
