<?xml version="1.0" encoding="UTF-8" standalone="yes"?>
<!DOCTYPE earthquake SYSTEM "stationlist.dtd">
<stationlist created="" xmlns="ch.ethz.sed.shakemap.usgs.xml">
  <station code="SRN" name="SRN" netid="AC" insttype="" lat="39.88" lon="20.0005">
    <comp name="--.HHE">
      <acc value="0.0029350515" flag="0"/>
      <vel value="0.0023523690" flag="0"/>
      <psa03 value="0.0073890106" flag="0"/>
      <psa10 value="0.0038595549" flag="0"/>
      <psa30 value="0.0006946663" flag="0"/>
    </comp>
    <comp name="--.HHN">
      <acc value="0.0030331668" flag="0"/>
      <vel value="0.0022621606" flag="0"/>
      <psa03 value="0.0074231875" flag="0"/>
      <psa10 value="0.0028802133" flag="0"/>
      <psa30 value="0.0007531962" flag="0"/>
    </comp>
    <comp name="--.HHZ">
      <acc value="0.0031085305" flag="0"/>
      <vel value="0.0028278322" flag="0"/>
      <psa03 value="0.0084225489" flag="0"/>
      <psa10 value="0.0056010352" flag="0"/>
      <psa30 value="0.0005736173" flag="0"/>
    </comp>
  </station>
  <station code="KEK" name="KEK" netid="MN" insttype="" lat="39.7127" lon="19.7962">
    <comp name="--.HHE">
      <acc value="0.0153138322" flag="0"/>
      <vel value="0.0095694105" flag="0"/>
      <psa03 value="0.0384538932" flag="0"/>
      <psa10 value="0.0131618657" flag="0"/>
      <psa30 value="0.0014523562" flag="0"/>
    </comp>
    <comp name="--.HHN">
      <acc value="0.0080108152" flag="0"/>
      <vel value="0.0054081214" flag="0"/>
      <psa03 value="0.0261756157" flag="0"/>
      <psa10 value="0.0071814449" flag="0"/>
      <psa30 value="0.0005503589" flag="0"/>
    </comp>
    <comp name="--.HHZ">
      <acc value="0.0093603377" flag="0"/>
      <vel value="0.0079680144" flag="0"/>
      <psa03 value="0.0321391122" flag="0"/>
      <psa10 value="0.0129099620" flag="0"/>
      <psa30 value="0.0018972749" flag="0"/>
    </comp>
  </station>
  <station code="KLV" name="KLV" netid="MN" insttype="" lat="38.0437" lon="22.1504">
    <comp name="--.HHE">
      <acc value="0.0097824325" flag="0"/>
      <vel value="0.0128201058" flag="0"/>
      <psa03 value="0.0292335944" flag="0"/>
      <psa10 value="0.0289895395" flag="0"/>
      <psa30 value="0.0017967600" flag="0"/>
    </comp>
    <comp name="--.HHZ">
      <acc value="0.0102170093" flag="0"/>
      <vel value="0.0144111235" flag="0"/>
      <psa03 value="0.0249343589" flag="0"/>
      <psa10 value="0.0212450005" flag="0"/>
      <psa30 value="0.0018282611" flag="0"/>
    </comp>
    <comp name="--.HHN">
      <acc value="0.0127457209" flag="0"/>
      <vel value="0.0096756775" flag="0"/>
      <psa03 value="0.0244776874" flag="0"/>
      <psa10 value="0.0186667861" flag="0"/>
      <psa30 value="0.0013262877" flag="0"/>
    </comp>
  </station>
  <station code="THL" name="THL" netid="MN" insttype="" lat="39.5647" lon="22.0144">
    <comp name="--.HHE">
      <acc value="0.0171294812" flag="0"/>
      <vel value="0.0098419917" flag="0"/>
      <psa03 value="0.0440214064" flag="0"/>
      <psa10 value="0.0150219019" flag="0"/>
      <psa30 value="0.0014020481" flag="0"/>
    </comp>
    <comp name="--.HHN">
      <acc value="0.0127359826" flag="0"/>
      <vel value="0.0077013795" flag="0"/>
      <psa03 value="0.0260138619" flag="0"/>
      <psa10 value="0.0107241145" flag="0"/>
      <psa30 value="0.0011953777" flag="0"/>
    </comp>
    <comp name="--.HHZ">
      <acc value="0.0126335626" flag="0"/>
      <vel value="0.0080048093" flag="0"/>
      <psa03 value="0.0313528431" flag="0"/>
      <psa10 value="0.0064470544" flag="0"/>
      <psa30 value="0.0013886888" flag="0"/>
    </comp>
  </station>
</stationlist>
