<?xml version="1.0" encoding="UTF-8" standalone="yes"?>
<!DOCTYPE earthquake SYSTEM "stationlist.dtd">
<stationlist created="" xmlns="ch.ethz.sed.shakemap.usgs.xml">
  <station code="MORF" name="MORF" netid="LX" insttype="REFT" commtype="DIG" lat="37.3043" lon="-8.65267">
    <comp name="--.HHZ">
      <acc value="0.1331349392" flag="0"/>
      <vel value="0.0232241814" flag="0"/>
      <psa03 value="0.0664889139" flag="0"/>
      <psa10 value="0.0098466749" flag="0"/>
      <psa30 value="0.0011044119" flag="0"/>
    </comp>
    <comp name="--.HHN">
      <acc value="0.1278074652" flag="0"/>
      <vel value="0.0440750450" flag="0"/>
      <psa03 value="0.3862235370" flag="0"/>
      <psa10 value="0.0174927798" flag="0"/>
      <psa30 value="0.0014924330" flag="0"/>
    </comp>
    <comp name="--.HHE">
      <acc value="0.1258343734" flag="0"/>
      <vel value="0.0385638986" flag="0"/>
      <psa03 value="0.1842075015" flag="0"/>
      <psa10 value="0.0207256601" flag="0"/>
      <psa30 value="0.0017004535" flag="0"/>
    </comp>
  </station>
</stationlist>
