<?xml version="1.0" encoding="UTF-8" standalone="yes"?>
<!DOCTYPE earthquake SYSTEM "stationlist.dtd">
<stationlist created="" xmlns="ch.ethz.sed.shakemap.usgs.xml">
  <station code="KAPA" name="KAPA" netid="Z3" source="GFZ" insttype="CMG-3ESP/60" lat="35.6402" lon="27.1376">
    <comp name="--.HHE">
      <acc value="0.2485945638" flag="0"/>
      <vel value="0.0976709565" flag="0"/>
      <psa03 value="0.5431911393" flag="0"/>
      <psa10 value="0.1089784613" flag="0"/>
      <psa30 value="0.0051620186" flag="0"/>
    </comp>
    <comp name="--.HHN">
      <acc value="0.2217329582" flag="0"/>
      <vel value="0.0794171067" flag="0"/>
      <psa03 value="0.3797491485" flag="0"/>
      <psa10 value="0.0689807076" flag="0"/>
      <psa30 value="0.0044356296" flag="0"/>
    </comp>
    <comp name="--.HHZ">
      <acc value="0.1043787628" flag="0"/>
      <vel value="0.0553935397" flag="0"/>
      <psa03 value="0.1611255235" flag="0"/>
      <psa10 value="0.0582160268" flag="0"/>
      <psa30 value="0.0030777403" flag="0"/>
    </comp>
  </station>
  <station code="KASO" name="KASO" netid="Z3" source="GFZ" insttype="CMG-3ESP/60" lat="35.4115" lon="26.9152">
    <comp name="--.HHE">
      <acc value="0.4593265936" flag="0"/>
      <vel value="0.1012925724" flag="0"/>
      <psa03 value="0.3591610263" flag="0"/>
      <psa10 value="0.0265045278" flag="0"/>
      <psa30 value="0.0021266317" flag="0"/>
    </comp>
    <comp name="--.HHN">
      <acc value="0.2955968169" flag="0"/>
      <vel value="0.0756942301" flag="0"/>
      <psa03 value="0.3624605619" flag="0"/>
      <psa10 value="0.0512858103" flag="0"/>
      <psa30 value="0.0046072458" flag="0"/>
    </comp>
    <comp name="--.HHZ">
      <acc value="0.1295540627" flag="0"/>
      <vel value="0.0405629944" flag="0"/>
      <psa03 value="0.1204671320" flag="0"/>
      <psa10 value="0.0211297636" flag="0"/>
      <psa30 value="0.0024558290" flag="0"/>
    </comp>
  </station>
  <station code="RHOS" name="RHOS" netid="Z3" source="GFZ" insttype="CMG-3ESP/60" lat="36.011" lon="27.8197">
    <comp name="--.HHE">
      <acc value="0.0257025783" flag="0"/>
      <vel value="0.0184271235" flag="0"/>
      <psa03 value="0.0869146912" flag="0"/>
      <psa10 value="0.0218682131" flag="0"/>
      <psa30 value="0.0012479363" flag="0"/>
    </comp>
    <comp name="--.HHN">
      <acc value="0.0319290236" flag="0"/>
      <vel value="0.0215997605" flag="0"/>
      <psa03 value="0.0825297868" flag="0"/>
      <psa10 value="0.0358505732" flag="0"/>
      <psa30 value="0.0023618324" flag="0"/>
    </comp>
    <comp name="--.HHZ">
      <acc value="0.0118924836" flag="0"/>
      <vel value="0.0094946207" flag="0"/>
      <psa03 value="0.0292429991" flag="0"/>
      <psa10 value="0.0195694780" flag="0"/>
      <psa30 value="0.0009796973" flag="0"/>
    </comp>
  </station>
</stationlist>
