<?xml version="1.0" encoding="UTF-8" standalone="yes"?>
<!DOCTYPE earthquake SYSTEM "stationlist.dtd">
<stationlist created="" xmlns="ch.ethz.sed.shakemap.usgs.xml">
  <station code="BNN" name="BNN" netid="KO" insttype="CMG-3T" lat="38.8521" lon="35.8472">
    <comp name="--.HHE">
      <acc value="0.0207474472" flag="0"/>
      <vel value="0.0144345749" flag="0"/>
      <psa03 value="0.0461853535" flag="0"/>
      <psa10 value="0.0248232134" flag="0"/>
      <psa30 value="0.0027581742" flag="0"/>
    </comp>
    <comp name="--.HHZ">
      <acc value="0.0142716850" flag="0"/>
      <vel value="0.0083865464" flag="0"/>
      <psa03 value="0.0272969349" flag="0"/>
      <psa10 value="0.0131452837" flag="0"/>
      <psa30 value="0.0014344502" flag="0"/>
    </comp>
  </station>
  <station code="CEYT" name="CEYT" netid="KO" insttype="CMG-3ESP" lat="37.0105" lon="35.7478">
    <comp name="--.HHE">
      <acc value="0.0091450749" flag="0"/>
      <vel value="0.0111005181" flag="0"/>
      <psa03 value="0.0226702667" flag="0"/>
      <psa10 value="0.0170238851" flag="0"/>
      <psa30 value="0.0016800032" flag="0"/>
    </comp>
    <comp name="--.HHN">
      <acc value="0.0091782315" flag="0"/>
      <vel value="0.0097274944" flag="0"/>
      <psa03 value="0.0239805859" flag="0"/>
      <psa10 value="0.0208715075" flag="0"/>
      <psa30 value="0.0023136643" flag="0"/>
    </comp>
    <comp name="--.HHZ">
      <acc value="0.0064742825" flag="0"/>
      <vel value="0.0054840788" flag="0"/>
      <psa03 value="0.0135360776" flag="0"/>
      <psa10 value="0.0064142778" flag="0"/>
      <psa30 value="0.0003370059" flag="0"/>
    </comp>
  </station>
  <station code="DARE" name="DARE" netid="KO" insttype="CMG-3ESP" lat="38.5712" lon="37.4832">
    <comp name="--.HHN">
      <acc value="0.0121456214" flag="0"/>
      <vel value="0.0053329117" flag="0"/>
      <psa03 value="0.0254129248" flag="0"/>
      <psa10 value="0.0096096576" flag="0"/>
      <psa30 value="0.0014588010" flag="0"/>
    </comp>
    <comp name="--.HHZ">
      <acc value="0.0075114901" flag="0"/>
      <vel value="0.0063107403" flag="0"/>
      <psa03 value="0.0188552329" flag="0"/>
      <psa10 value="0.0055191464" flag="0"/>
      <psa30 value="0.0017903766" flag="0"/>
    </comp>
  </station>
  <station code="GAZ" name="GAZ" netid="KO" insttype="CMG-3T" lat="37.1721" lon="37.2096">
    <comp name="--.HHN">
      <acc value="0.0287164029" flag="0"/>
      <vel value="0.0231055227" flag="0"/>
      <psa03 value="0.0701620028" flag="0"/>
      <psa10 value="0.0438989081" flag="0"/>
      <psa30 value="0.0018108949" flag="0"/>
    </comp>
  </station>
  <station code="ANDN" name="ANDN" netid="TU" insttype="T" lat="37.58" lon="36.3452">
    <comp name="--.HHN">
      <acc value="0.2364373890" flag="0"/>
      <vel value="0.1165283189" flag="0"/>
      <psa03 value="0.3039713518" flag="0"/>
      <psa10 value="0.1197891905" flag="0"/>
      <psa30 value="0.0135763071" flag="0"/>
    </comp>
    <comp name="--.HHZ">
      <acc value="0.1008597380" flag="0"/>
      <vel value="0.0709221590" flag="0"/>
      <psa03 value="0.1782692908" flag="0"/>
      <psa10 value="0.1156525432" flag="0"/>
      <psa30 value="0.0098717049" flag="0"/>
    </comp>
    <comp name="--.HHE">
      <acc value="0.1293525703" flag="0"/>
      <vel value="0.0848223362" flag="0"/>
      <psa03 value="0.3310707497" flag="0"/>
      <psa10 value="0.0997597858" flag="0"/>
      <psa30 value="0.0133868029" flag="0"/>
    </comp>
  </station>
</stationlist>
