<?xml version="1.0" encoding="UTF-8" standalone="yes"?>
<!DOCTYPE earthquake SYSTEM "stationlist.dtd">
<stationlist created="" xmlns="ch.ethz.sed.shakemap.usgs.xml">
  <station code="CEYT" name="CEYT" netid="KO" insttype="CMG-3ESP" lat="37.0105" lon="35.7478">
    <comp name="--.HHN">
      <acc value="0.0091782315" flag="0"/>
      <vel value="0.0097274939" flag="0"/>
      <psa03 value="0.0239805859" flag="0"/>
      <psa10 value="0.0208715075" flag="0"/>
      <psa30 value="0.0023136645" flag="0"/>
    </comp>
    <comp name="--.HHZ">
      <acc value="0.0064742823" flag="0"/>
      <vel value="0.0054840799" flag="0"/>
      <psa03 value="0.0135360776" flag="0"/>
      <psa10 value="0.0064142950" flag="0"/>
      <psa30 value="0.0003371279" flag="0"/>
    </comp>
    <comp name="--.HHE">
      <acc value="0.0091450747" flag="0"/>
      <vel value="0.0111005226" flag="0"/>
      <psa03 value="0.0226702667" flag="0"/>
      <psa10 value="0.0170238851" flag="0"/>
      <psa30 value="0.0016800124" flag="0"/>
    </comp>
  </station>
  <station code="DARE" name="DARE" netid="KO" insttype="CMG-3ESP" lat="38.5712" lon="37.4832">
    <comp name="--.HHN">
      <acc value="0.0121456217" flag="0"/>
      <vel value="0.0053329119" flag="0"/>
      <psa03 value="0.0254129248" flag="0"/>
      <psa10 value="0.0096096576" flag="0"/>
      <psa30 value="0.0014588023" flag="0"/>
    </comp>
    <comp name="--.HHZ">
      <acc value="0.0075114900" flag="0"/>
      <vel value="0.0063107419" flag="0"/>
      <psa03 value="0.0188552329" flag="0"/>
      <psa10 value="0.0055191464" flag="0"/>
      <psa30 value="0.0017903805" flag="0"/>
    </comp>
  </station>
  <station code="GAZ" name="GAZ" netid="KO" insttype="CMG-3T" lat="37.1721" lon="37.2096">
    <comp name="--.HHN">
      <acc value="0.0287164046" flag="0"/>
      <vel value="0.0231055226" flag="0"/>
      <psa03 value="0.0701620028" flag="0"/>
      <psa10 value="0.0438989081" flag="0"/>
      <psa30 value="0.0018108895" flag="0"/>
    </comp>
  </station>
  <station code="SARI" name="SARI" netid="KO" insttype="CMG-3T" lat="38.4072" lon="36.4181">
    <comp name="--.HHZ">
      <acc value="0.1071770208" flag="0"/>
      <vel value="0.0595764407" flag="0"/>
      <psa03 value="0.2238712080" flag="0"/>
      <psa10 value="0.0611725075" flag="0"/>
      <psa30 value="0.0051179112" flag="0"/>
    </comp>
  </station>
  <station code="ANDN" name="ANDN" netid="TU" insttype="T" lat="37.58" lon="36.3452">
    <comp name="--.HHZ">
      <acc value="0.1008597386" flag="0"/>
      <vel value="0.0709221588" flag="0"/>
      <psa03 value="0.1782692908" flag="0"/>
      <psa10 value="0.1156525432" flag="0"/>
      <psa30 value="0.0098716548" flag="0"/>
    </comp>
    <comp name="--.HHN">
      <acc value="0.2364373885" flag="0"/>
      <vel value="0.1165283186" flag="0"/>
      <psa03 value="0.3039713518" flag="0"/>
      <psa10 value="0.1197891905" flag="0"/>
      <psa30 value="0.0135763881" flag="0"/>
    </comp>
    <comp name="--.HHE">
      <acc value="0.1293525704" flag="0"/>
      <vel value="0.0848223361" flag="0"/>
      <psa03 value="0.3310707497" flag="0"/>
      <psa10 value="0.0997597858" flag="0"/>
      <psa30 value="0.0133867610" flag="0"/>
    </comp>
  </station>
</stationlist>
