<?xml version="1.0" encoding="UTF-8" standalone="yes"?>
<!DOCTYPE earthquake SYSTEM "stationlist.dtd">
<stationlist created="" xmlns="ch.ethz.sed.shakemap.usgs.xml">
  <station code="BNN" name="BNN" netid="KO" insttype="CMG-3T" lat="38.8521" lon="35.8472">
    <comp name="--.HHE">
      <acc value="0.0207474477" flag="0"/>
      <vel value="0.0144345749" flag="0"/>
      <psa03 value="0.0461853535" flag="0"/>
      <psa10 value="0.0248232134" flag="0"/>
      <psa30 value="0.0027581712" flag="0"/>
    </comp>
    <comp name="--.HHZ">
      <acc value="0.0142716858" flag="0"/>
      <vel value="0.0083865465" flag="0"/>
      <psa03 value="0.0272969349" flag="0"/>
      <psa10 value="0.0131452837" flag="0"/>
      <psa30 value="0.0014344511" flag="0"/>
    </comp>
  </station>
  <station code="CEYT" name="CEYT" netid="KO" insttype="CMG-3ESP" lat="37.0105" lon="35.7478">
    <comp name="--.HHZ">
      <acc value="0.0064742823" flag="0"/>
      <vel value="0.0054840796" flag="0"/>
      <psa03 value="0.0135360776" flag="0"/>
      <psa10 value="0.0064142764" flag="0"/>
      <psa30 value="0.0003370739" flag="0"/>
    </comp>
    <comp name="--.HHE">
      <acc value="0.0091450746" flag="0"/>
      <vel value="0.0111005165" flag="0"/>
      <psa03 value="0.0226702667" flag="0"/>
      <psa10 value="0.0170238851" flag="0"/>
      <psa30 value="0.0016800033" flag="0"/>
    </comp>
    <comp name="--.HHN">
      <acc value="0.0091782317" flag="0"/>
      <vel value="0.0097274929" flag="0"/>
      <psa03 value="0.0239805858" flag="0"/>
      <psa10 value="0.0208715075" flag="0"/>
      <psa30 value="0.0023136643" flag="0"/>
    </comp>
  </station>
  <station code="DARE" name="DARE" netid="KO" insttype="CMG-3ESP" lat="38.5712" lon="37.4832">
    <comp name="--.HHN">
      <acc value="0.0121456217" flag="0"/>
      <vel value="0.0053329118" flag="0"/>
      <psa03 value="0.0254129248" flag="0"/>
      <psa10 value="0.0096096576" flag="0"/>
      <psa30 value="0.0014588017" flag="0"/>
    </comp>
    <comp name="--.HHZ">
      <acc value="0.0075114899" flag="0"/>
      <vel value="0.0063107419" flag="0"/>
      <psa03 value="0.0188552329" flag="0"/>
      <psa10 value="0.0055191464" flag="0"/>
      <psa30 value="0.0017903800" flag="0"/>
    </comp>
  </station>
  <station code="GAZ" name="GAZ" netid="KO" insttype="CMG-3T" lat="37.1721" lon="37.2096">
    <comp name="--.HHN">
      <acc value="0.0287164049" flag="0"/>
      <vel value="0.0231055219" flag="0"/>
      <psa03 value="0.0701620028" flag="0"/>
      <psa10 value="0.0438989081" flag="0"/>
      <psa30 value="0.0018108946" flag="0"/>
    </comp>
  </station>
  <station code="ANDN" name="ANDN" netid="TU" insttype="T" lat="37.58" lon="36.3452">
    <comp name="--.HHZ">
      <acc value="0.1008597385" flag="0"/>
      <vel value="0.0709221595" flag="0"/>
      <psa03 value="0.1782692908" flag="0"/>
      <psa10 value="0.1156525432" flag="0"/>
      <psa30 value="0.0098717047" flag="0"/>
    </comp>
    <comp name="--.HHE">
      <acc value="0.1293525709" flag="0"/>
      <vel value="0.0848223360" flag="0"/>
      <psa03 value="0.3310707497" flag="0"/>
      <psa10 value="0.0997597858" flag="0"/>
      <psa30 value="0.0133867896" flag="0"/>
    </comp>
    <comp name="--.HHN">
      <acc value="0.2364373889" flag="0"/>
      <vel value="0.1165283185" flag="0"/>
      <psa03 value="0.3039713518" flag="0"/>
      <psa10 value="0.1197891905" flag="0"/>
      <psa30 value="0.0135763125" flag="0"/>
    </comp>
  </station>
</stationlist>
