<?xml version="1.0" encoding="UTF-8" standalone="yes"?>
<!DOCTYPE earthquake SYSTEM "stationlist.dtd">
<stationlist created="" xmlns="ch.ethz.sed.shakemap.usgs.xml">
  <station code="EVR" name="EVR" netid="HL" insttype="DR24" lat="38.9166" lon="21.8105">
    <comp name="--.HHZ">
      <acc value="0.0047016634" flag="0"/>
      <vel value="0.0033864746" flag="0"/>
      <psa03 value="0.0105235496" flag="0"/>
      <psa10 value="0.0031254205" flag="0"/>
      <psa30 value="0.0012929014" flag="0"/>
    </comp>
    <comp name="--.HHN">
      <acc value="0.0050504406" flag="0"/>
      <vel value="0.0044722100" flag="0"/>
      <psa03 value="0.0098858539" flag="0"/>
      <psa10 value="0.0031250800" flag="0"/>
      <psa30 value="0.0009935062" flag="0"/>
    </comp>
    <comp name="--.HHE">
      <acc value="0.0053428787" flag="0"/>
      <vel value="0.0037171451" flag="0"/>
      <psa03 value="0.0099862275" flag="0"/>
      <psa10 value="0.0031449198" flag="0"/>
      <psa30 value="0.0015466443" flag="0"/>
    </comp>
  </station>
  <station code="KZN" name="KZN" netid="HL" insttype="120" lat="40.3033" lon="21.7821">
    <comp name="--.HHE">
      <acc value="0.0096551829" flag="0"/>
      <vel value="0.0065490233" flag="0"/>
      <psa03 value="0.0308313206" flag="0"/>
      <psa10 value="0.0065274469" flag="0"/>
      <psa30 value="0.0005925659" flag="0"/>
    </comp>
    <comp name="--.HHN">
      <acc value="0.0070687223" flag="0"/>
      <vel value="0.0047631876" flag="0"/>
      <psa03 value="0.0312003509" flag="0"/>
      <psa10 value="0.0059939226" flag="0"/>
      <psa30 value="0.0007071632" flag="0"/>
    </comp>
    <comp name="--.HHZ">
      <acc value="0.0035018443" flag="0"/>
      <vel value="0.0033576377" flag="0"/>
      <psa03 value="0.0093134833" flag="0"/>
      <psa10 value="0.0042348301" flag="0"/>
      <psa30 value="0.0006169609" flag="0"/>
    </comp>
  </station>
  <station code="NEO" name="NEO" netid="HL" insttype="120" lat="39.3057" lon="23.2219">
    <comp name="--.HHN">
      <acc value="0.0118069987" flag="0"/>
      <vel value="0.0071453165" flag="0"/>
      <psa03 value="0.0273586902" flag="0"/>
      <psa10 value="0.0096598021" flag="0"/>
      <psa30 value="0.0009099030" flag="0"/>
    </comp>
    <comp name="--.HHZ">
      <acc value="0.0044946849" flag="0"/>
      <vel value="0.0046564417" flag="0"/>
      <psa03 value="0.0106018123" flag="0"/>
      <psa10 value="0.0061861635" flag="0"/>
      <psa30 value="0.0008303473" flag="0"/>
    </comp>
    <comp name="--.HHE">
      <acc value="0.0065024269" flag="0"/>
      <vel value="0.0049525900" flag="0"/>
      <psa03 value="0.0196413513" flag="0"/>
      <psa10 value="0.0056516672" flag="0"/>
      <psa30 value="0.0007139469" flag="0"/>
    </comp>
  </station>
  <station code="TETR" name="TETR" netid="HL" insttype="60" lat="39.3445" lon="21.2747">
    <comp name="--.HHE">
      <acc value="0.0254595375" flag="0"/>
      <vel value="0.0130207030" flag="0"/>
      <psa03 value="0.0764732921" flag="0"/>
      <psa10 value="0.0102810637" flag="0"/>
      <psa30 value="0.0012633481" flag="0"/>
    </comp>
    <comp name="--.HHZ">
      <acc value="0.0093149962" flag="0"/>
      <vel value="0.0056840680" flag="0"/>
      <psa03 value="0.0275202075" flag="0"/>
      <psa10 value="0.0047081623" flag="0"/>
      <psa30 value="0.0011819485" flag="0"/>
    </comp>
    <comp name="--.HHN">
      <acc value="0.0188798033" flag="0"/>
      <vel value="0.0092643042" flag="0"/>
      <psa03 value="0.0670283919" flag="0"/>
      <psa10 value="0.0081733719" flag="0"/>
      <psa30 value="0.0013592033" flag="0"/>
    </comp>
  </station>
  <station code="THL" name="THL" netid="HL" insttype="120" lat="39.5647" lon="22.0144">
    <comp name="--.HHN">
      <acc value="0.0472113693" flag="0"/>
      <vel value="0.0189748643" flag="0"/>
      <psa03 value="0.0519745372" flag="0"/>
      <psa10 value="0.0358171295" flag="0"/>
      <psa30 value="0.0024334354" flag="0"/>
    </comp>
    <comp name="--.HHE">
      <acc value="0.0382373819" flag="0"/>
      <vel value="0.0195609180" flag="0"/>
      <psa03 value="0.0324875954" flag="0"/>
      <psa10 value="0.0176390709" flag="0"/>
      <psa30 value="0.0051853085" flag="0"/>
    </comp>
    <comp name="--.HHZ">
      <acc value="0.0428021753" flag="0"/>
      <vel value="0.0186084213" flag="0"/>
      <psa03 value="0.0426066196" flag="0"/>
      <psa10 value="0.0129452343" flag="0"/>
      <psa30 value="0.0058979447" flag="0"/>
    </comp>
  </station>
  <station code="KPRO" name="KPRO" netid="HT" insttype="100" lat="39.9549" lon="21.3632">
    <comp name="--.HHZ">
      <acc value="0.0040081124" flag="0"/>
      <vel value="0.0050285292" flag="0"/>
      <psa03 value="0.0077736719" flag="0"/>
      <psa10 value="0.0058056638" flag="0"/>
      <psa30 value="0.0024411709" flag="0"/>
    </comp>
    <comp name="--.HHE">
      <acc value="0.0078057222" flag="0"/>
      <vel value="0.0089288957" flag="0"/>
      <psa03 value="0.0222080576" flag="0"/>
      <psa10 value="0.0090730212" flag="0"/>
      <psa30 value="0.0048765305" flag="0"/>
    </comp>
    <comp name="--.HHN">
      <acc value="0.0054977633" flag="0"/>
      <vel value="0.0053788161" flag="0"/>
      <psa03 value="0.0227720460" flag="0"/>
      <psa10 value="0.0067462245" flag="0"/>
      <psa30 value="0.0026716185" flag="0"/>
    </comp>
  </station>
  <station code="LIT" name="LIT" netid="HT" insttype="100" lat="40.1033" lon="22.4892">
    <comp name="--.HHN">
      <acc value="0.0225666252" flag="0"/>
      <vel value="0.0178429184" flag="0"/>
      <psa03 value="0.0626475761" flag="0"/>
      <psa10 value="0.0091080708" flag="0"/>
      <psa30 value="0.0010065415" flag="0"/>
    </comp>
    <comp name="--.HHE">
      <acc value="0.0241096646" flag="0"/>
      <vel value="0.0117621080" flag="0"/>
      <psa03 value="0.0510487177" flag="0"/>
      <psa10 value="0.0063676434" flag="0"/>
      <psa30 value="0.0012832467" flag="0"/>
    </comp>
    <comp name="--.HHZ">
      <acc value="0.0131848975" flag="0"/>
      <vel value="0.0054545192" flag="0"/>
      <psa03 value="0.0309293566" flag="0"/>
      <psa10 value="0.0040624832" flag="0"/>
      <psa30 value="0.0007593576" flag="0"/>
    </comp>
  </station>
  <station code="THL" name="THL" netid="MN" insttype="" lat="39.5647" lon="22.0144">
    <comp name="--.HHN">
      <acc value="0.0472113693" flag="0"/>
      <vel value="0.0189748643" flag="0"/>
      <psa03 value="0.0519745372" flag="0"/>
      <psa10 value="0.0358171295" flag="0"/>
      <psa30 value="0.0024334354" flag="0"/>
    </comp>
    <comp name="--.HHZ">
      <acc value="0.0428021753" flag="0"/>
      <vel value="0.0186084213" flag="0"/>
      <psa03 value="0.0426066196" flag="0"/>
      <psa10 value="0.0129452343" flag="0"/>
      <psa30 value="0.0058979447" flag="0"/>
    </comp>
    <comp name="--.HHE">
      <acc value="0.0382373819" flag="0"/>
      <vel value="0.0195609180" flag="0"/>
      <psa03 value="0.0324875954" flag="0"/>
      <psa10 value="0.0176390709" flag="0"/>
      <psa30 value="0.0051853085" flag="0"/>
    </comp>
  </station>
</stationlist>
