<stationlist created="1778136378">
	<station code="MALA" name="MALA" netid="CL" source="Corinth Riff Laboratory (CRLNET)" insttype="" lat="38.39341" lon="21.87263">
		<comp name="01.HNE" depth="0.0">
			<acc value="0.0066368491659808" flag="0"/>
			<vel value="0.00994783488170647" flag="0"/>
			<psa03 value="0.0128857555060623" flag="0"/>
			<psa10 value="0.0148870744080976" flag="0"/>
			<psa30 value="0.00189572729441617" flag="0"/>
		</comp>
		<comp name="01.HNN" depth="0.0">
			<acc value="0.00580497926645447" flag="0"/>
			<vel value="0.00722125251547156" flag="0"/>
			<psa03 value="0.0120356535803151" flag="0"/>
			<psa10 value="0.0103851135781671" flag="0"/>
			<psa30 value="0.00224337423984015" flag="0"/>
		</comp>
		<comp name="01.HNZ" depth="0.0">
			<acc value="0.00451757806022716" flag="0"/>
			<vel value="0.00465599202773478" flag="0"/>
			<psa03 value="0.00501112714124644" flag="0"/>
			<psa10 value="0.0040308253942401" flag="0"/>
			<psa30 value="0.00229259066712024" flag="0"/>
		</comp>
	</station>
	<station code="ROD3" name="ROD3" netid="CL" source="Corinth Riff Laboratory (CRLNET)" insttype="" lat="38.30811" lon="21.89204">
		<comp name="00.HNE" depth="0.0">
			<acc value="0.00306543240914579" flag="0"/>
			<vel value="0.00287060975842697" flag="0"/>
			<psa03 value="0.0128857555060623" flag="0"/>
			<psa10 value="0.00230735559530427" flag="0"/>
			<psa30 value="0.000577621887441888" flag="0"/>
		</comp>
		<comp name="00.HNN" depth="0.0">
			<acc value="0.00254675748681822" flag="0"/>
			<vel value="0.00257587107874142" flag="0"/>
			<psa03 value="0.00827730822438028" flag="0"/>
			<psa10 value="0.0028348662113337" flag="0"/>
			<psa30 value="0.000693056780517029" flag="0"/>
		</comp>
		<comp name="00.HNZ" depth="0.0">
			<acc value="0.00185216118918566" flag="0"/>
			<vel value="0.00105062719870642" flag="0"/>
			<psa03 value="0.00317669666989729" flag="0"/>
			<psa10 value="0.0014134063070712" flag="0"/>
			<psa30 value="0.000488584896271528" flag="0"/>
		</comp>
	</station>
	<station code="AIGS" name="AIGS" netid="HA" source="Hellenic Seismological Network, University of Athens, Seismological Laboratory (HA)" insttype="" lat="38.25001" lon="22.0878">
		<comp name="--.HNE" depth="0.0">
			<acc value="0.00272244422662217" flag="0"/>
			<vel value="0.00183938360770884" flag="0"/>
			<psa03 value="0.00568226024052051" flag="0"/>
			<psa10 value="0.00277849103099468" flag="0"/>
			<psa30 value="0.00106352225131632" flag="0"/>
		</comp>
		<comp name="--.HNN" depth="0.0">
			<acc value="0.00381840555895105" flag="0"/>
			<vel value="0.00214682869748189" flag="0"/>
			<psa03 value="0.00595071348023014" flag="0"/>
			<psa10 value="0.00242815955317361" flag="0"/>
			<psa30 value="0.00080670198532744" flag="0"/>
		</comp>
		<comp name="--.HNZ" depth="0.0">
			<acc value="0.00953877547642041" flag="0"/>
			<vel value="0.00153591972290574" flag="0"/>
			<psa03 value="0.00304247005004248" flag="0"/>
			<psa10 value="0.00258923149699939" flag="0"/>
			<psa30 value="0.000659500125553326" flag="0"/>
		</comp>
	</station>
	<station code="KIAS" name="KIAS" netid="HA" source="Hellenic Seismological Network, University of Athens, Seismological Laboratory (HA)" insttype="" lat="37.9875" lon="22.7543">
		<comp name="--.HNE" depth="0.0">
			<acc value="0.00365508577068053" flag="0"/>
			<vel value="0.00160928648926402" flag="0"/>
			<psa03 value="0.00281875901695112" flag="0"/>
			<psa10 value="0.00235567717845201" flag="0"/>
			<psa30 value="0.000878736937982857" flag="0"/>
		</comp>
		<comp name="--.HNN" depth="0.0">
			<acc value="0.00314509386173671" flag="0"/>
			<vel value="0.00173802884135932" flag="0"/>
			<psa03 value="0.00384782976917137" flag="0"/>
			<psa10 value="0.0021825248388393" flag="0"/>
			<psa30 value="0.00110602734760368" flag="0"/>
		</comp>
		<comp name="--.HNZ" depth="0.0">
			<acc value="0.00312094824249694" flag="0"/>
			<vel value="0.00144250238629552" flag="0"/>
			<psa03 value="0.00241607915738667" flag="0"/>
			<psa10 value="0.00191272933293112" flag="0"/>
			<psa30 value="0.000671580521340259" flag="0"/>
		</comp>
	</station>
	<station code="LTRS" name="LTRS" netid="HA" source="Hellenic Seismological Network, University of Athens, Seismological Laboratory (HA)" insttype="" lat="37.97528" lon="22.9765">
		<comp name="--.HNE" depth="0.0">
			<acc value="0.00190008774157939" flag="0"/>
			<vel value="0.00190016228002076" flag="0"/>
			<psa03 value="0.0038030875625531" flag="0"/>
			<psa10 value="0.00376908348552321" flag="0"/>
			<psa30 value="0.00065368363869295" flag="0"/>
		</comp>
		<comp name="--.HNN" depth="0.0">
			<acc value="0.00185190536342205" flag="0"/>
			<vel value="0.00128701319411317" flag="0"/>
			<psa03 value="0.00335566549637038" flag="0"/>
			<psa10 value="0.00249661512929956" flag="0"/>
			<psa30 value="0.000544065232478184" flag="0"/>
		</comp>
		<comp name="--.HNZ" depth="0.0">
			<acc value="0.00439297840133932" flag="0"/>
			<vel value="0.0012625320217155" flag="0"/>
			<psa03 value="0.00255030577724149" flag="0"/>
			<psa10 value="0.00292345578043788" flag="0"/>
			<psa30 value="0.000435341670395784" flag="0"/>
		</comp>
	</station>
	<station code="XLKS" name="XLKS" netid="HA" source="Hellenic Seismological Network, University of Athens, Seismological Laboratory (HA)" insttype="" lat="38.0772" lon="22.6361">
		<comp name="--.HNE" depth="0.0">
			<acc value="0.00268580374510122" flag="0"/>
			<vel value="0.00269422628287612" flag="0"/>
			<psa03 value="0.00581648686037533" flag="0"/>
			<psa10 value="0.00263755308014712" flag="0"/>
			<psa30 value="0.00121788286414936" flag="0"/>
		</comp>
		<comp name="--.HNN" depth="0.0">
			<acc value="0.00278693018225108" flag="0"/>
			<vel value="0.00349508470199035" flag="0"/>
			<psa03 value="0.00536906479419261" flag="0"/>
			<psa10 value="0.00334626963298054" flag="0"/>
			<psa30 value="0.00131631571870955" flag="0"/>
		</comp>
		<comp name="--.HNZ" depth="0.0">
			<acc value="0.00372711066891922" flag="0"/>
			<vel value="0.00177237011879849" flag="0"/>
			<psa03 value="0.00420576742211754" flag="0"/>
			<psa10 value="0.00152615666774925" flag="0"/>
			<psa30 value="0.00108231397809599" flag="0"/>
		</comp>
	</station>
	<station code="LMS2" name="LMS2" netid="HI" source="ITSAK Strong Motion Network" insttype="" lat="40.834985" lon="21.141815">
		<comp name="--.HNE" depth="0.0">
			<acc value="0.00138894320271817" flag="0"/>
			<vel value="0.00089659243543329" flag="0"/>
			<psa03 value="0.00371219285466441" flag="0"/>
			<psa10 value="0.00127434918500442" flag="0"/>
			<psa30 value="0.000215185075267507" flag="0"/>
		</comp>
		<comp name="--.HNN" depth="0.0">
			<acc value="0.00173202938422577" flag="0"/>
			<vel value="0.00164765736420545" flag="0"/>
			<psa03 value="0.00433026309565587" flag="0"/>
			<psa10 value="0.00208628054959547" flag="0"/>
			<psa30 value="0.000251249482587002" flag="0"/>
		</comp>
		<comp name="--.HNZ" depth="0.0">
			<acc value="0.000814818871005661" flag="0"/>
			<vel value="0.00113558866978484" flag="0"/>
			<psa03 value="0.00272399864815481" flag="0"/>
			<psa10 value="0.00255644943035456" flag="0"/>
			<psa30 value="0.000330983228097626" flag="0"/>
		</comp>
	</station>
	<station code="SKO1" name="SKO1" netid="HI" source="ITSAK Strong Motion Network" insttype="" lat="39.123383" lon="23.728705">
		<comp name="--.HNE" depth="0.0">
			<acc value="0.00166741941482039" flag="0"/>
			<vel value="0.00136948204557333" flag="0"/>
			<psa03 value="0.0043817443706207" flag="0"/>
			<psa10 value="0.00243727637947288" flag="0"/>
			<psa30 value="0.000223246195214761" flag="0"/>
		</comp>
		<comp name="--.HNN" depth="0.0">
			<acc value="0.0014836049837888" flag="0"/>
			<vel value="0.00154567939591057" flag="0"/>
			<psa03 value="0.00361538240498538" flag="0"/>
			<psa10 value="0.00244907489544407" flag="0"/>
			<psa30 value="0.00022597598542498" flag="0"/>
		</comp>
		<comp name="--.HNZ" depth="0.0">
			<acc value="0.00119550696606507" flag="0"/>
			<vel value="0.0012705446135337" flag="0"/>
			<psa03 value="0.00348453910184305" flag="0"/>
			<psa10 value="0.00169825171958994" flag="0"/>
			<psa30 value="0.000255054578405736" flag="0"/>
		</comp>
	</station>
	<station code="VAS2" name="VAS2" netid="HI" source="ITSAK Strong Motion Network" insttype="" lat="38.630558" lon="20.608081">
		<comp name="--.HNE" depth="0.0">
			<acc value="0.00548253608955995" flag="0"/>
			<vel value="0.00723943861441737" flag="0"/>
			<psa03 value="0.0130943244659795" flag="0"/>
			<psa10 value="0.0135096436975838" flag="0"/>
			<psa30 value="0.000709516481152917" flag="0"/>
		</comp>
		<comp name="--.HNN" depth="0.0">
			<acc value="0.00565329249946969" flag="0"/>
			<vel value="0.0110618609077187" flag="0"/>
			<psa03 value="0.0132004070142616" flag="0"/>
			<psa10 value="0.0144316272744753" flag="0"/>
			<psa30 value="0.00200820345028859" flag="0"/>
		</comp>
		<comp name="--.HNZ" depth="0.0">
			<acc value="0.00365525253888479" flag="0"/>
			<vel value="0.00379038915285559" flag="0"/>
			<psa03 value="0.00872031726153531" flag="0"/>
			<psa10 value="0.00447866950237386" flag="0"/>
			<psa30 value="0.00049773443079854" flag="0"/>
		</comp>
	</station>
	<station code="ATHP" name="ATHP" netid="HL" source="National Observatory of Athens Seismic Network" insttype="" lat="38.000799" lon="23.773487">
		<comp name="00.HNE" depth="0.0">
			<acc value="0.00226356416968132" flag="0"/>
			<vel value="0.000535152836237125" flag="0"/>
			<psa03 value="0.000805359719128892" flag="0"/>
			<psa10 value="0.000612073386537958" flag="0"/>
			<psa30 value="0.000307378959467527" flag="0"/>
		</comp>
		<comp name="00.HNN" depth="0.0">
			<acc value="0.00285453625054373" flag="0"/>
			<vel value="0.000499171679130557" flag="0"/>
			<psa03 value="0.000805359719128892" flag="0"/>
			<psa10 value="0.00047918903288169" flag="0"/>
			<psa30 value="0.000207156416642598" flag="0"/>
		</comp>
		<comp name="00.HNZ" depth="0.0">
			<acc value="0.00281213467387323" flag="0"/>
			<vel value="0.000490350333599728" flag="0"/>
			<psa03 value="0.000715875305892348" flag="0"/>
			<psa10 value="0.00040670665816009" flag="0"/>
			<psa30 value="0.000225948143422272" flag="0"/>
		</comp>
	</station>
	<station code="DLFA" name="DLFA" netid="HL" source="National Observatory of Athens Seismic Network" insttype="" lat="38.47836" lon="22.49583">
		<comp name="00.HNE" depth="0.0">
			<acc value="0.00129059815884264" flag="0"/>
			<vel value="0.00194957024130163" flag="0"/>
			<psa03 value="0.0034898921162252" flag="0"/>
			<psa10 value="0.00133689713375396" flag="0"/>
			<psa30 value="0.000310510913930806" flag="0"/>
		</comp>
		<comp name="00.HNN" depth="0.0">
			<acc value="0.00111822881168846" flag="0"/>
			<vel value="0.00126773838417741" flag="0"/>
			<psa03 value="0.00371360314931656" flag="0"/>
			<psa10 value="0.0013771651197104" flag="0"/>
			<psa30 value="0.000414312833285196" flag="0"/>
		</comp>
		<comp name="00.HNZ" depth="0.0">
			<acc value="0.00132062032581093" flag="0"/>
			<vel value="0.00117903255260654" flag="0"/>
			<psa03 value="0.00268453239709631" flag="0"/>
			<psa10 value="0.001087235620824" flag="0"/>
			<psa30 value="0.000532879680823616" flag="0"/>
		</comp>
	</station>
	<station code="JAN" name="JAN" netid="HL" source="National Observatory of Athens Seismic Network" insttype="" lat="39.65616" lon="20.84874">
		<comp name="00.HNE" depth="0.0">
			<acc value="0.00328876545624824" flag="0"/>
			<vel value="0.00253736170055675" flag="0"/>
			<psa03 value="0.0093511211832188" flag="0"/>
			<psa10 value="0.00181608616663565" flag="0"/>
			<psa30 value="0.00144248874137308" flag="0"/>
		</comp>
		<comp name="00.HNN" depth="0.0">
			<acc value="0.00336548438636029" flag="0"/>
			<vel value="0.00207493914850922" flag="0"/>
			<psa03 value="0.010380191935439" flag="0"/>
			<psa10 value="0.00193689012450498" flag="0"/>
			<psa30 value="0.000542722966279636" flag="0"/>
		</comp>
		<comp name="00.HNZ" depth="0.0">
			<acc value="0.00153483523953294" flag="0"/>
			<vel value="0.0015150504993562" flag="0"/>
			<psa03 value="0.0052348381743378" flag="0"/>
			<psa10 value="0.00151407627196232" flag="0"/>
			<psa30 value="0.00103399239494826" flag="0"/>
		</comp>
	</station>
	<station code="KYMI" name="KYMI" netid="HL" source="National Observatory of Athens Seismic Network" insttype="" lat="38.633147" lon="24.100138">
		<comp name="--.HNE" depth="1.0">
			<acc value="0.000308160170611512" flag="0"/>
			<vel value="0.000328039108212834" flag="0"/>
			<psa03 value="0.000850101925747163" flag="0"/>
			<psa10 value="0.000571805400581513" flag="0"/>
			<psa30 value="0.000196865709120396" flag="0"/>
		</comp>
		<comp name="--.HNN" depth="1.0">
			<acc value="0.000294483539364797" flag="0"/>
			<vel value="0.000369069761731989" flag="0"/>
			<psa03 value="0.000805359719128892" flag="0"/>
			<psa10 value="0.000362411873608001" flag="0"/>
			<psa30 value="0.000111855516545679" flag="0"/>
		</comp>
		<comp name="--.HNZ" depth="1.0">
			<acc value="0.000205678738575676" flag="0"/>
			<vel value="0.00036343910062126" flag="0"/>
			<psa03 value="0.000626390892655805" flag="0"/>
			<psa10 value="0.000495296227264268" flag="0"/>
			<psa30 value="0.000148991548038845" flag="0"/>
		</comp>
	</station>
	<station code="NOAC" name="NOAC" netid="HL" source="National Observatory of Athens Seismic Network" insttype="" lat="37.97384" lon="23.71767">
		<comp name="00.HNE" depth="0.0">
			<acc value="0.00225008634921181" flag="0"/>
			<vel value="0.000468934356174222" flag="0"/>
			<psa03 value="0.00129752399192988" flag="0"/>
			<psa10 value="0.000624153782324891" flag="0"/>
			<psa30 value="0.000199997663583675" flag="0"/>
		</comp>
		<comp name="00.HNN" depth="0.0">
			<acc value="0.00121498894701871" flag="0"/>
			<vel value="0.000390418138633561" flag="0"/>
			<psa03 value="0.000894844132365435" flag="0"/>
			<psa10 value="0.000434894248329601" flag="0"/>
			<psa30 value="0.000177179138208356" flag="0"/>
		</comp>
		<comp name="00.HNZ" depth="0.0">
			<acc value="0.00103074281617567" flag="0"/>
			<vel value="0.000395782259629283" flag="0"/>
			<psa03 value="0.000805359719128892" flag="0"/>
			<psa10 value="0.000511403421646846" flag="0"/>
			<psa30 value="0.000125278178531161" flag="0"/>
		</comp>
	</station>
	<station code="PATC" name="PATC" netid="HL" source="National Observatory of Athens Seismic Network" insttype="" lat="38.26933" lon="21.76001">
		<comp name="00.HNE" depth="0.0">
			<acc value="0.00175151311751133" flag="0"/>
			<vel value="0.00355185346747015" flag="0"/>
			<psa03 value="0.00407154080226273" flag="0"/>
			<psa10 value="0.00309660812005059" flag="0"/>
			<psa30 value="0.00223084642198703" flag="0"/>
		</comp>
		<comp name="00.HNN" depth="0.0">
			<acc value="0.0019457938146398" flag="0"/>
			<vel value="0.00399173306286235" flag="0"/>
			<psa03 value="0.00384782976917137" flag="0"/>
			<psa10 value="0.00389794104058384" flag="0"/>
			<psa30 value="0.001807137725312" flag="0"/>
		</comp>
		<comp name="00.HNZ" depth="0.0">
			<acc value="0.00215498476241878" flag="0"/>
			<vel value="0.001853179301598" flag="0"/>
			<psa03 value="0.00290824343018766" flag="0"/>
			<psa10 value="0.0021100424641177" flag="0"/>
			<psa30 value="0.00068813513778902" flag="0"/>
		</comp>
	</station>
	<station code="PATG" name="PATG" netid="HL" source="National Observatory of Athens Seismic Network" insttype="" lat="38.23865" lon="21.72657">
		<comp name="00.HNE" depth="0.0">
			<acc value="0.00224596133331284" flag="0"/>
			<vel value="0.00331746649607373" flag="0"/>
			<psa03 value="0.00809833939790719" flag="0"/>
			<psa10 value="0.00393820902654028" flag="0"/>
			<psa30 value="0.00232838443241486" flag="0"/>
		</comp>
		<comp name="00.HNN" depth="0.0">
			<acc value="0.00257495222379411" flag="0"/>
			<vel value="0.00491393222832192" flag="0"/>
			<psa03 value="0.00626390892655805" flag="0"/>
			<psa10 value="0.00414357575491815" flag="0"/>
			<psa30 value="0.00230243395257626" flag="0"/>
		</comp>
		<comp name="00.HNZ" depth="0.0">
			<acc value="0.00847185238624462" flag="0"/>
			<vel value="0.00184238199029335" flag="0"/>
			<psa03 value="0.00371360314931656" flag="0"/>
			<psa10 value="0.00213420325569156" flag="0"/>
			<psa30 value="0.000578516731574254" flag="0"/>
		</comp>
	</station>
	<station code="PLG" name="PLG" netid="HL" source="National Observatory of Athens Seismic Network" insttype="" lat="40.37328" lon="23.44443">
		<comp name="--.HNE" depth="0.0">
			<acc value="0.0" flag="1"/>
			<vel value="0.0" flag="1"/>
			<psa03 value="0.0" flag="1"/>
			<psa10 value="0.0" flag="1"/>
			<psa30 value="0.0" flag="1"/>
		</comp>
		<comp name="--.HNN" depth="0.0">
			<acc value="0.0" flag="1"/>
			<vel value="0.0" flag="1"/>
			<psa03 value="0.0" flag="1"/>
			<psa10 value="0.0" flag="1"/>
			<psa30 value="0.0" flag="1"/>
		</comp>
		<comp name="--.HNZ" depth="0.0">
			<acc value="0.0" flag="1"/>
			<vel value="0.0" flag="1"/>
			<psa03 value="0.0" flag="1"/>
			<psa10 value="0.0" flag="1"/>
			<psa30 value="0.0" flag="1"/>
		</comp>
	</station>
	<station code="RIOA" name="RIOA" netid="HL" source="National Observatory of Athens Seismic Network" insttype="" lat="38.29585" lon="21.79118">
		<comp name="00.HNE" depth="0.0">
			<acc value="0.00358932447363978" flag="0"/>
			<vel value="0.00217430531684011" flag="0"/>
			<psa03 value="0.00357937652946174" flag="0"/>
			<psa10 value="0.00239191836581281" flag="0"/>
			<psa30 value="0.00140669497607846" flag="0"/>
		</comp>
		<comp name="00.HNN" depth="0.0">
			<acc value="0.00423103102907225" flag="0"/>
			<vel value="0.00247144432170598" flag="0"/>
			<psa03 value="0.00371360314931656" flag="0"/>
			<psa10 value="0.00340667161191521" flag="0"/>
			<psa30 value="0.00116106026174415" flag="0"/>
		</comp>
		<comp name="00.HNZ" depth="0.0">
			<acc value="0.00450118315658873" flag="0"/>
			<vel value="0.0020363167866662" flag="0"/>
			<psa03 value="0.00259504798385976" flag="0"/>
			<psa10 value="0.00156642465370569" flag="0"/>
			<psa30 value="0.000664421768281335" flag="0"/>
		</comp>
	</station>
	<station code="ANX" name="ANX" netid="HP" source="University of Patras, Seismological Laboratory (PSLNET)" insttype="" lat="38.5933" lon="21.9209">
		<comp name="--.HNE" depth="0.0">
			<acc value="0.00978634651635281" flag="0"/>
			<vel value="0.00661836421377678" flag="0"/>
			<psa03 value="0.0286347510783869" flag="0"/>
			<psa10 value="0.00698079775610012" flag="0"/>
			<psa30 value="0.000539409274883519" flag="0"/>
		</comp>
		<comp name="--.HNN" depth="0.0">
			<acc value="0.0177389672646592" flag="0"/>
			<vel value="0.0102934660791163" flag="0"/>
			<psa03 value="0.0450444527240559" flag="0"/>
			<psa10 value="0.00510785008875306" flag="0"/>
			<psa30 value="0.000585206579565167" flag="0"/>
		</comp>
		<comp name="--.HNZ" depth="0.0">
			<acc value="0.00629587792433056" flag="0"/>
			<vel value="0.00408989961046067" flag="0"/>
			<psa03 value="0.020890929494451" flag="0"/>
			<psa10 value="0.00337166976282384" flag="0"/>
			<psa30 value="0.000565984368686985" flag="0"/>
		</comp>
	</station>
	<station code="PDO" name="PDO" netid="HP" source="University of Patras, Seismological Laboratory (PSLNET)" insttype="" lat="38.5986" lon="21.1833">
		<comp name="--.HNE" depth="0.0">
			<acc value="0.00371621585641801" flag="0"/>
			<vel value="0.00299191752694404" flag="0"/>
			<psa03 value="0.00678729272377326" flag="0"/>
			<psa10 value="0.00309326444483965" flag="0"/>
			<psa30 value="0.000612360045014654" flag="0"/>
		</comp>
		<comp name="--.HNN" depth="0.0">
			<acc value="0.00461095453046955" flag="0"/>
			<vel value="0.00338708882784895" flag="0"/>
			<psa03 value="0.0131701393841857" flag="0"/>
			<psa10 value="0.00221988854109469" flag="0"/>
			<psa30 value="0.000477915097030306" flag="0"/>
		</comp>
		<comp name="--.HNZ" depth="0.0">
			<acc value="0.00190415131751441" flag="0"/>
			<vel value="0.00148229457833445" flag="0"/>
