<?xml version="1.0" encoding="UTF-8" standalone="yes"?>
<!DOCTYPE earthquake SYSTEM "stationlist.dtd">
<stationlist created="" xmlns="ch.ethz.sed.shakemap.usgs.xml">
  <station code="KRI1" name="KRI1" netid="HI" source="NOA" insttype="CMG-5TD,ACCELEROMETER,GURALP" lat="37.6621" lon="20.8172">
    <comp name="--.HNE">
      <acc value="0.1088503149" flag="0"/>
      <vel value="0.0612093998" flag="0"/>
      <psa03 value="0.2631509803" flag="0"/>
      <psa10 value="0.0306249000" flag="0"/>
      <psa30 value="0.0040431418" flag="0"/>
    </comp>
    <comp name="--.HNN">
      <acc value="0.1172479840" flag="0"/>
      <vel value="0.0596500444" flag="0"/>
      <psa03 value="0.3182629304" flag="0"/>
      <psa10 value="0.0292756397" flag="0"/>
      <psa30 value="0.0042046575" flag="0"/>
    </comp>
    <comp name="--.HNZ">
      <acc value="0.0764052049" flag="0"/>
      <vel value="0.0259951419" flag="0"/>
      <psa03 value="0.1724324351" flag="0"/>
      <psa10 value="0.0149280919" flag="0"/>
      <psa30 value="0.0044737414" flag="0"/>
    </comp>
  </station>
  <station code="MSL1" name="MSL1" netid="HI" source="NOA" insttype="CMG-5TD,ACCELEROMETER,GURALP" lat="38.3727" lon="21.4243">
    <comp name="--.HNE">
      <acc value="0.0137748770" flag="0"/>
      <vel value="0.0164385143" flag="0"/>
      <psa03 value="0.0358537555" flag="0"/>
      <psa10 value="0.0262636872" flag="0"/>
      <psa30 value="0.0025508414" flag="0"/>
    </comp>
    <comp name="--.HNN">
      <acc value="0.0111754491" flag="0"/>
      <vel value="0.0128991710" flag="0"/>
      <psa03 value="0.0431823882" flag="0"/>
      <psa10 value="0.0211702764" flag="0"/>
      <psa30 value="0.0018905341" flag="0"/>
    </comp>
    <comp name="--.HNZ">
      <acc value="0.0125648648" flag="0"/>
      <vel value="0.0070352401" flag="0"/>
      <psa03 value="0.0143326390" flag="0"/>
      <psa10 value="0.0127740071" flag="0"/>
      <psa30 value="0.0005998122" flag="0"/>
    </comp>
  </station>
  <station code="ITM" name="ITM" netid="HL" source="NOA" insttype="DR24" lat="37.1787" lon="21.9252">
    <comp name="--.HHE">
      <acc value="0.0035688623" flag="0"/>
      <vel value="0.0023495231" flag="0"/>
      <psa03 value="0.0050029289" flag="0"/>
      <psa10 value="0.0021880745" flag="0"/>
      <psa30 value="0.0008925967" flag="0"/>
    </comp>
    <comp name="--.HHN">
      <acc value="0.0054486408" flag="0"/>
      <vel value="0.0017634477" flag="0"/>
      <psa03 value="0.0077564978" flag="0"/>
      <psa10 value="0.0021384930" flag="0"/>
      <psa30 value="0.0009508965" flag="0"/>
    </comp>
    <comp name="--.HHZ">
      <acc value="0.0030160034" flag="0"/>
      <vel value="0.0021501236" flag="0"/>
      <psa03 value="0.0046395078" flag="0"/>
      <psa10 value="0.0029021754" flag="0"/>
      <psa30 value="0.0007062139" flag="0"/>
    </comp>
  </station>
  <station code="RLS" name="RLS" netid="HL" source="NOA" insttype="120" lat="38.0559" lon="21.4647">
    <comp name="--.HHE">
      <acc value="0.0051743183" flag="0"/>
      <vel value="0.0031864175" flag="0"/>
      <psa03 value="0.0211860660" flag="0"/>
      <psa10 value="0.0033473608" flag="0"/>
      <psa30 value="0.0004574119" flag="0"/>
    </comp>
    <comp name="--.HHN">
      <acc value="0.0056049804" flag="0"/>
      <vel value="0.0034876185" flag="0"/>
      <psa03 value="0.0214644105" flag="0"/>
      <psa10 value="0.0034310451" flag="0"/>
      <psa30 value="0.0004503923" flag="0"/>
    </comp>
    <comp name="--.HHZ">
      <acc value="0.0023994434" flag="0"/>
      <vel value="0.0016119607" flag="0"/>
      <psa03 value="0.0081381149" flag="0"/>
      <psa10 value="0.0022187686" flag="0"/>
      <psa30 value="0.0003157720" flag="0"/>
    </comp>
  </station>
  <station code="VLS" name="VLS" netid="HL" source="NOA" insttype="120P," lat="38.1768" lon="20.5886">
    <comp name="--.HHE">
      <acc value="0.0956605526" flag="0"/>
      <vel value="0.0174402004" flag="0"/>
      <psa03 value="0.1115043437" flag="0"/>
      <psa10 value="0.0073391974" flag="0"/>
      <psa30 value="0.0008318509" flag="0"/>
    </comp>
    <comp name="--.HHN">
      <acc value="0.0585988839" flag="0"/>
      <vel value="0.0150007228" flag="0"/>
      <psa03 value="0.0711721123" flag="0"/>
      <psa10 value="0.0100729175" flag="0"/>
      <psa30 value="0.0005458823" flag="0"/>
    </comp>
    <comp name="--.HHZ">
      <acc value="0.0363558111" flag="0"/>
      <vel value="0.0084792526" flag="0"/>
      <psa03 value="0.0483725482" flag="0"/>
      <psa10 value="0.0064061298" flag="0"/>
      <psa30 value="0.0007948120" flag="0"/>
    </comp>
  </station>
  <station code="AMT" name="AMT" netid="HP" source="NOA" insttype="CMG-3T," lat="37.5324" lon="21.7089">
    <comp name="00.HHE">
      <acc value="0.0110555399" flag="0"/>
      <vel value="0.0082784278" flag="0"/>
      <psa03 value="0.0388073329" flag="0"/>
      <psa10 value="0.0118652299" flag="0"/>
      <psa30 value="0.0010395096" flag="0"/>
    </comp>
    <comp name="00.HHN">
      <acc value="0.0086985092" flag="0"/>
      <vel value="0.0085225293" flag="0"/>
      <psa03 value="0.0236580333" flag="0"/>
      <psa10 value="0.0153241046" flag="0"/>
      <psa30 value="0.0011036418" flag="0"/>
    </comp>
    <comp name="00.HHZ">
      <acc value="0.0053613995" flag="0"/>
      <vel value="0.0036426795" flag="0"/>
      <psa03 value="0.0151988459" flag="0"/>
      <psa10 value="0.0046824211" flag="0"/>
      <psa30 value="0.0004432861" flag="0"/>
    </comp>
  </station>
  <station code="AXS" name="AXS" netid="HP" source="NOA" insttype="40," lat="38.1962" lon="21.3763">
    <comp name="--.HHE">
      <acc value="0.0026878653" flag="0"/>
      <vel value="0.0015201000" flag="0"/>
      <psa03 value="0.0058077378" flag="0"/>
      <psa10 value="0.0024508678" flag="0"/>
      <psa30 value="0.0003418230" flag="0"/>
    </comp>
    <comp name="--.HHE">
      <acc value="0.0026878653" flag="0"/>
      <vel value="0.0015201000" flag="0"/>
      <psa03 value="0.0058077378" flag="0"/>
      <psa10 value="0.0024508678" flag="0"/>
      <psa30 value="0.0003418230" flag="0"/>
    </comp>
    <comp name="--.HHN">
      <acc value="0.0035532626" flag="0"/>
      <vel value="0.0027910607" flag="0"/>
      <psa03 value="0.0093056312" flag="0"/>
      <psa10 value="0.0024541505" flag="0"/>
      <psa30 value="0.0003050484" flag="0"/>
    </comp>
    <comp name="--.HHN">
      <acc value="0.0035532626" flag="0"/>
      <vel value="0.0027910607" flag="0"/>
      <psa03 value="0.0093056312" flag="0"/>
      <psa10 value="0.0024541505" flag="0"/>
      <psa30 value="0.0003050484" flag="0"/>
    </comp>
    <comp name="--.HHZ">
      <acc value="0.0021846899" flag="0"/>
      <vel value="0.0017129240" flag="0"/>
      <psa03 value="0.0052962666" flag="0"/>
      <psa10 value="0.0023685889" flag="0"/>
      <psa30 value="0.0001766940" flag="0"/>
    </comp>
    <comp name="--.HHZ">
      <acc value="0.0021846899" flag="0"/>
      <vel value="0.0017129240" flag="0"/>
      <psa03 value="0.0052962666" flag="0"/>
      <psa10 value="0.0023685889" flag="0"/>
      <psa30 value="0.0001766940" flag="0"/>
    </comp>
  </station>
  <station code="DRO" name="DRO" netid="HP" source="NOA" insttype="120P," lat="37.952" lon="21.71">
    <comp name="--.HHE">
      <acc value="0.0109656598" flag="0"/>
      <vel value="0.0075746548" flag="0"/>
      <psa03 value="0.0254582141" flag="0"/>
      <psa10 value="0.0059878069" flag="0"/>
      <psa30 value="0.0007150111" flag="0"/>
    </comp>
    <comp name="--.HHN">
      <acc value="0.0097236987" flag="0"/>
      <vel value="0.0059236167" flag="0"/>
      <psa03 value="0.0294833590" flag="0"/>
      <psa10 value="0.0068648404" flag="0"/>
      <psa30 value="0.0007387542" flag="0"/>
    </comp>
    <comp name="--.HHZ">
      <acc value="0.0039399824" flag="0"/>
      <vel value="0.0033292754" flag="0"/>
      <psa03 value="0.0113020177" flag="0"/>
      <psa10 value="0.0041620983" flag="0"/>
      <psa30 value="0.0006060732" flag="0"/>
    </comp>
  </station>
  <station code="FSK" name="FSK" netid="HP" source="NOA" insttype="40," lat="38.4593" lon="20.5623">
    <comp name="--.HHE">
      <acc value="0.0255244371" flag="0"/>
      <vel value="0.0100640475" flag="0"/>
      <psa03 value="0.0368745137" flag="0"/>
      <psa10 value="0.0111908206" flag="0"/>
      <psa30 value="0.0010466840" flag="0"/>
    </comp>
    <comp name="--.HHN">
      <acc value="0.0120360618" flag="0"/>
      <vel value="0.0060566016" flag="0"/>
      <psa03 value="0.0220128828" flag="0"/>
      <psa10 value="0.0080169815" flag="0"/>
      <psa30 value="0.0006226387" flag="0"/>
    </comp>
    <comp name="--.HHZ">
      <acc value="0.0114840996" flag="0"/>
      <vel value="0.0059698567" flag="0"/>
      <psa03 value="0.0210129166" flag="0"/>
      <psa10 value="0.0044401519" flag="0"/>
      <psa30 value="0.0003337061" flag="0"/>
    </comp>
  </station>
  <station code="LTHK" name="LTHK" netid="HP" source="NOA" insttype="40," lat="37.7095" lon="20.8367">
    <comp name="--.HHE">
      <acc value="0.1314212025" flag="0"/>
      <vel value="0.0737692562" flag="0"/>
      <psa03 value="0.2644094536" flag="0"/>
      <psa10 value="0.0354334557" flag="0"/>
      <psa30 value="0.0038732248" flag="0"/>
    </comp>
    <comp name="--.HHN">
      <acc value="0.1164674604" flag="0"/>
      <vel value="0.0319444312" flag="0"/>
      <psa03 value="0.1589082952" flag="0"/>
      <psa10 value="0.0187904669" flag="0"/>
      <psa30 value="0.0034171610" flag="0"/>
    </comp>
    <comp name="--.HHZ">
      <acc value="0.1016817416" flag="0"/>
      <vel value="0.0309350939" flag="0"/>
      <psa03 value="0.1217455475" flag="0"/>
      <psa10 value="0.0192460337" flag="0"/>
      <psa30 value="0.0042452852" flag="0"/>
    </comp>
  </station>
  <station code="PYL" name="PYL" netid="HP" source="NOA" insttype="120s" lat="36.8955" lon="21.742">
    <comp name="--.HHE">
      <acc value="0.0026610349" flag="0"/>
      <vel value="0.0016638164" flag="0"/>
      <psa03 value="0.0051812818" flag="0"/>
      <psa10 value="0.0016366693" flag="0"/>
      <psa30 value="0.0003511438" flag="0"/>
    </comp>
    <comp name="--.HHN">
      <acc value="0.0001497529" flag="0"/>
      <vel value="0.0000685850" flag="0"/>
      <psa03 value="0.0002798745" flag="0"/>
      <psa10 value="0.0001286223" flag="0"/>
      <psa30 value="0.0000272249" flag="0"/>
    </comp>
    <comp name="--.HHZ">
      <acc value="0.0001041358" flag="0"/>
      <vel value="0.0000446912" flag="0"/>
      <psa03 value="0.0001649032" flag="0"/>
      <psa10 value="0.0000600676" flag="0"/>
      <psa30 value="0.0000121170" flag="0"/>
    </comp>
  </station>
  <station code="DMLN" name="DMLN" netid="HT" source="NOA" insttype="1s-100Hz," lat="38.2385" lon="20.3734">
    <comp name="--.HHE">
      <acc value="0.0530727740" flag="0"/>
      <vel value="0.0286833410" flag="0"/>
      <psa03 value="0.1241937345" flag="0"/>
      <psa10 value="0.0306920600" flag="0"/>
      <psa30 value="0.0018348353" flag="0"/>
    </comp>
    <comp name="--.HHN">
      <acc value="0.0947813115" flag="0"/>
      <vel value="0.0388604373" flag="0"/>
      <psa03 value="0.2398796249" flag="0"/>
      <psa10 value="0.0373631007" flag="0"/>
      <psa30 value="0.0018198892" flag="0"/>
    </comp>
    <comp name="--.HHZ">
      <acc value="0.0447417432" flag="0"/>
      <vel value="0.0183439961" flag="0"/>
      <psa03 value="0.1065623255" flag="0"/>
      <psa10 value="0.0129975457" flag="0"/>
      <psa30 value="0.0007715387" flag="0"/>
    </comp>
  </station>
  <station code="DRAG" name="DRAG" netid="HT" source="NOA" insttype="1s-100Hz," lat="38.6839" lon="20.5746">
    <comp name="--.HHE">
      <acc value="0.0002834114" flag="0"/>
      <vel value="0.0001376538" flag="0"/>
      <psa03 value="0.0008461662" flag="0"/>
      <psa10 value="0.0000897803" flag="0"/>
      <psa30 value="0.0000055665" flag="0"/>
    </comp>
    <comp name="--.HHN">
      <acc value="0.0000275465" flag="0"/>
      <vel value="0.0000092287" flag="0"/>
      <psa03 value="0.0000365142" flag="0"/>
      <psa10 value="0.0000047587" flag="0"/>
      <psa30 value="0.0000017360" flag="0"/>
    </comp>
    <comp name="--.HHZ">
      <acc value="0.0012989078" flag="0"/>
      <vel value="0.0005225105" flag="0"/>
      <psa03 value="0.0029439829" flag="0"/>
      <psa10 value="0.0005462088" flag="0"/>
      <psa30 value="0.0000422976" flag="0"/>
    </comp>
  </station>
  <station code="EVGI" name="EVGI" netid="HT" source="NOA" insttype="30" lat="38.621" lon="20.656">
    <comp name="--.HHE">
      <acc value="0.0235912393" flag="0"/>
      <vel value="0.0088179544" flag="0"/>
      <psa03 value="0.0390876949" flag="0"/>
      <psa10 value="0.0039648589" flag="0"/>
      <psa30 value="0.0006975124" flag="0"/>
    </comp>
    <comp name="--.HHN">
      <acc value="nan" flag="0"/>
      <vel value="-100.0000000000" flag="0"/>
      <psa03 value="0.0000000000" flag="0"/>
      <psa10 value="0.0000000000" flag="0"/>
      <psa30 value="0.0000000000" flag="0"/>
    </comp>
    <comp name="--.HHZ">
      <acc value="0.0182911382" flag="0"/>
      <vel value="0.0069414856" flag="0"/>
      <psa03 value="0.0419486281" flag="0"/>
      <psa10 value="0.0038558070" flag="0"/>
      <psa30 value="0.0004904027" flag="0"/>
    </comp>
  </station>
  <station code="LKD2" name="LKD2" netid="HT" source="NOA" insttype="100" lat="38.7889" lon="20.6578">
    <comp name="--.HHE">
      <acc value="0.0090226549" flag="0"/>
      <vel value="0.0067563427" flag="0"/>
      <psa03 value="0.0220069618" flag="0"/>
      <psa10 value="0.0064407667" flag="0"/>
      <psa30 value="0.0007388242" flag="0"/>
    </comp>
    <comp name="--.HHN">
      <acc value="0.0090100260" flag="0"/>
      <vel value="0.0052361635" flag="0"/>
      <psa03 value="0.0288707390" flag="0"/>
      <psa10 value="0.0077495791" flag="0"/>
      <psa30 value="0.0004325853" flag="0"/>
    </comp>
    <comp name="--.HHZ">
      <acc value="0.0046997816" flag="0"/>
      <vel value="0.0033611471" flag="0"/>
      <psa03 value="0.0134144358" flag="0"/>
      <psa10 value="0.0048621426" flag="0"/>
      <psa30 value="0.0002709529" flag="0"/>
    </comp>
  </station>
  <station code="NYDR" name="NYDR" netid="HT" source="NOA" insttype="1s-100Hz," lat="38.7135" lon="20.6983">
    <comp name="--.HHE">
      <acc value="0.0078027909" flag="0"/>
      <vel value="0.0056957246" flag="0"/>
      <psa03 value="0.0227221907" flag="0"/>
      <psa10 value="0.0066031161" flag="0"/>
      <psa30 value="0.0007154420" flag="0"/>
    </comp>
    <comp name="--.HHN">
      <acc value="0.0085443496" flag="0"/>
      <vel value="0.0047241408" flag="0"/>
      <psa03 value="0.0257582571" flag="0"/>
      <psa10 value="0.0065327583" flag="0"/>
      <psa30 value="0.0002800030" flag="0"/>
    </comp>
    <comp name="--.HHZ">
      <acc value="0.0051028779" flag="0"/>
      <vel value="0.0033944632" flag="0"/>
      <psa03 value="0.0190681314" flag="0"/>
      <psa10 value="0.0041611514" flag="0"/>
      <psa30 value="0.0004035952" flag="0"/>
    </comp>
  </station>
  <station code="PSDA" name="PSDA" netid="HT" source="NOA" insttype="30" lat="38.114" lon="20.5841">
    <comp name="--.HHE">
      <acc value="0.0945746064" flag="0"/>
      <vel value="0.0224131250" flag="0"/>
      <psa03 value="0.1172234862" flag="0"/>
      <psa10 value="0.0078973916" flag="0"/>
      <psa30 value="0.0020839295" flag="0"/>
    </comp>
    <comp name="--.HHN">
      <acc value="0.0929402787" flag="0"/>
      <vel value="0.0195966628" flag="0"/>
      <psa03 value="0.1011413923" flag="0"/>
      <psa10 value="0.0079577328" flag="0"/>
      <psa30 value="0.0019325418" flag="0"/>
    </comp>
    <comp name="--.HHZ">
      <acc value="0.0697319696" flag="0"/>
      <vel value="0.0137941414" flag="0"/>
      <psa03 value="0.0539791553" flag="0"/>
      <psa10 value="0.0044697034" flag="0"/>
      <psa30 value="0.0008880982" flag="0"/>
    </comp>
  </station>
  <station code="TSLK" name="TSLK" netid="HT" source="NOA" insttype="1s-100Hz," lat="38.8249" lon="20.6554">
    <comp name="--.HHE">
      <acc value="0.0100838320" flag="0"/>
      <vel value="0.0086012332" flag="0"/>
      <psa03 value="0.0224444270" flag="0"/>
      <psa10 value="0.0142735262" flag="0"/>
      <psa30 value="0.0011430282" flag="0"/>
    </comp>
    <comp name="--.HHN">
      <acc value="0.0093157780" flag="0"/>
      <vel value="0.0079705528" flag="0"/>
      <psa03 value="0.0277107788" flag="0"/>
      <psa10 value="0.0136845918" flag="0"/>
      <psa30 value="0.0008661209" flag="0"/>
    </comp>
    <comp name="--.HHZ">
      <acc value="0.0055952116" flag="0"/>
      <vel value="0.0035497215" flag="0"/>
      <psa03 value="0.0149967148" flag="0"/>
      <psa10 value="0.0041898392" flag="0"/>
      <psa30 value="0.0006817324" flag="0"/>
    </comp>
  </station>
</stationlist>
