<?xml version="1.0" encoding="UTF-8" standalone="yes"?>
<!DOCTYPE earthquake SYSTEM "stationlist.dtd">
<stationlist created="" xmlns="ch.ethz.sed.shakemap.usgs.xml">
  <station code="ARMT" name="ARMT" netid="KO" insttype="CMG-5T" commtype="DIG" lat="40.5683" lon="28.866">
    <comp name="--.HNE">
      <acc value="0.0391999414" flag="0"/>
      <vel value="0.0123287992" flag="0"/>
      <psa03 value="0.0848531011" flag="0"/>
      <psa10 value="0.0034401819" flag="0"/>
      <psa30 value="0.0004301228" flag="0"/>
    </comp>
    <comp name="--.HNN">
      <acc value="0.0350518332" flag="0"/>
      <vel value="0.0120117850" flag="0"/>
      <psa03 value="0.0513938049" flag="0"/>
      <psa10 value="0.0054794151" flag="0"/>
      <psa30 value="0.0004594606" flag="0"/>
    </comp>
    <comp name="--.HNZ">
      <acc value="0.0236143217" flag="0"/>
      <vel value="0.0072189120" flag="0"/>
      <psa03 value="0.0309061522" flag="0"/>
      <psa10 value="0.0023645729" flag="0"/>
      <psa30 value="0.0002772596" flag="0"/>
    </comp>
  </station>
  <station code="BIGA" name="BIGA" netid="KO" insttype="CMG-5T" commtype="DIG" lat="40.2813" lon="27.1505">
    <comp name="--.HNN">
      <acc value="0.0386469633" flag="0"/>
      <vel value="0.0125587349" flag="0"/>
      <psa03 value="0.0669210997" flag="0"/>
      <psa10 value="0.0055326328" flag="0"/>
      <psa30 value="0.0005137440" flag="0"/>
    </comp>
    <comp name="--.HNZ">
      <acc value="0.0180948024" flag="0"/>
      <vel value="0.0050860968" flag="0"/>
      <psa03 value="0.0255604327" flag="0"/>
      <psa10 value="0.0016630229" flag="0"/>
      <psa30 value="0.0003340065" flag="0"/>
    </comp>
    <comp name="--.HNE">
      <acc value="0.0364923090" flag="0"/>
      <vel value="0.0121674972" flag="0"/>
      <psa03 value="0.0527103348" flag="0"/>
      <psa10 value="0.0071093431" flag="0"/>
      <psa30 value="0.0004311317" flag="0"/>
    </comp>
  </station>
  <station code="BRGA" name="BRGA" netid="KO" insttype="CMG-5T" commtype="DIG" lat="40.8846" lon="29.065">
    <comp name="--.HNZ">
      <acc value="0.0595415459" flag="0"/>
      <vel value="0.0077084091" flag="0"/>
      <psa03 value="0.0239101947" flag="0"/>
      <psa10 value="0.0027654475" flag="0"/>
      <psa30 value="0.0003123003" flag="0"/>
    </comp>
    <comp name="--.HNE">
      <acc value="0.0368716165" flag="0"/>
      <vel value="0.0126246394" flag="0"/>
      <psa03 value="0.0365734767" flag="0"/>
      <psa10 value="0.0037858491" flag="0"/>
      <psa30 value="0.0004516184" flag="0"/>
    </comp>
    <comp name="--.HNN">
      <acc value="0.0641518308" flag="0"/>
      <vel value="0.0163881365" flag="0"/>
      <psa03 value="0.0861195650" flag="0"/>
      <psa10 value="0.0071870139" flag="0"/>
      <psa30 value="0.0007022821" flag="0"/>
    </comp>
  </station>
  <station code="CRLU" name="CRLU" netid="KO" insttype="ACEBOX" commtype="DIG" lat="41.1428" lon="27.8215">
    <comp name="--.HNE">
      <acc value="0.2615448596" flag="0"/>
      <vel value="0.1226193951" flag="0"/>
      <psa03 value="0.3777360085" flag="0"/>
      <psa10 value="0.0784881393" flag="0"/>
      <psa30 value="0.0173631898" flag="0"/>
    </comp>
    <comp name="--.HNN">
      <acc value="0.2042544648" flag="0"/>
      <vel value="0.0785402253" flag="0"/>
      <psa03 value="0.3126263269" flag="0"/>
      <psa10 value="0.0779217700" flag="0"/>
      <psa30 value="0.0220531603" flag="0"/>
    </comp>
    <comp name="--.HNZ">
      <acc value="0.2906910622" flag="0"/>
      <vel value="0.0717689887" flag="0"/>
      <psa03 value="0.3246561739" flag="0"/>
      <psa10 value="0.0478694631" flag="0"/>
      <psa30 value="0.0082744077" flag="0"/>
    </comp>
  </station>
  <station code="GONE" name="GONE" netid="KO" insttype="CMG-5T" commtype="DIG" lat="40.0466" lon="27.686">
    <comp name="--.HNE">
      <acc value="0.0157100323" flag="0"/>
      <vel value="0.0116836097" flag="0"/>
      <psa03 value="0.0303264655" flag="0"/>
      <psa10 value="0.0113183534" flag="0"/>
      <psa30 value="0.0006608122" flag="0"/>
    </comp>
    <comp name="--.HNN">
      <acc value="0.0245576037" flag="0"/>
      <vel value="0.0114827902" flag="0"/>
      <psa03 value="0.0550421735" flag="0"/>
      <psa10 value="0.0115301904" flag="0"/>
      <psa30 value="0.0007041988" flag="0"/>
    </comp>
    <comp name="--.HNZ">
      <acc value="0.0092798513" flag="0"/>
      <vel value="0.0026951436" flag="0"/>
      <psa03 value="0.0142174893" flag="0"/>
      <psa10 value="0.0035946919" flag="0"/>
      <psa30 value="0.0002627104" flag="0"/>
    </comp>
  </station>
  <station code="IZI" name="IZI" netid="KO" insttype="CMG-5T" commtype="DIG" lat="40.3483" lon="29.4612">
    <comp name="--.HNN">
      <acc value="0.0188713050" flag="0"/>
      <vel value="0.0069318368" flag="0"/>
      <psa03 value="0.0301483634" flag="0"/>
      <psa10 value="0.0032698832" flag="0"/>
      <psa30 value="0.0004173196" flag="0"/>
    </comp>
    <comp name="--.HNZ">
      <acc value="0.0097084285" flag="0"/>
      <vel value="0.0032910371" flag="0"/>
      <psa03 value="0.0149522150" flag="0"/>
      <psa10 value="0.0020874631" flag="0"/>
      <psa30 value="0.0006415670" flag="0"/>
    </comp>
    <comp name="--.HNE">
      <acc value="0.0166663367" flag="0"/>
      <vel value="0.0055243595" flag="0"/>
      <psa03 value="0.0432548841" flag="0"/>
      <psa10 value="0.0026400590" flag="0"/>
      <psa30 value="0.0005998580" flag="0"/>
    </comp>
  </station>
  <station code="KAVV" name="KAVV" netid="KO" insttype="CMG-5T" commtype="DIG" lat="41.0638" lon="29.06">
    <comp name="--.HNE">
      <acc value="0.0733723543" flag="0"/>
      <vel value="0.0191481151" flag="0"/>
      <psa03 value="0.0443589422" flag="0"/>
      <psa10 value="0.0026334554" flag="0"/>
      <psa30 value="0.0005232883" flag="0"/>
    </comp>
    <comp name="--.HNN">
      <acc value="0.0616562072" flag="0"/>
      <vel value="0.0111645864" flag="0"/>
      <psa03 value="0.0409542933" flag="0"/>
      <psa10 value="0.0031928458" flag="0"/>
      <psa30 value="0.0004064368" flag="0"/>
    </comp>
    <comp name="--.HNZ">
      <acc value="0.0476603003" flag="0"/>
      <vel value="0.0073495933" flag="0"/>
      <psa03 value="0.0206782843" flag="0"/>
      <psa10 value="0.0037561682" flag="0"/>
      <psa30 value="0.0005169097" flag="0"/>
    </comp>
  </station>
  <station code="KOUK" name="KOUK" netid="KO" insttype="CMG-5T" commtype="DIG" lat="40.6572" lon="29.1918">
    <comp name="--.HNN">
      <acc value="0.0267044797" flag="0"/>
      <vel value="0.0116410067" flag="0"/>
      <psa03 value="0.0532316639" flag="0"/>
      <psa10 value="0.0123523497" flag="0"/>
      <psa30 value="0.0016179335" flag="0"/>
    </comp>
    <comp name="--.HNZ">
      <acc value="0.0203456599" flag="0"/>
      <vel value="0.0086465834" flag="0"/>
      <psa03 value="0.0488726062" flag="0"/>
      <psa10 value="0.0072268207" flag="0"/>
      <psa30 value="0.0008693309" flag="0"/>
    </comp>
    <comp name="--.HNE">
      <acc value="0.0319825975" flag="0"/>
      <vel value="0.0142773728" flag="0"/>
      <psa03 value="0.0714094573" flag="0"/>
      <psa10 value="0.0157621325" flag="0"/>
      <psa30 value="0.0011047823" flag="0"/>
    </comp>
  </station>
  <station code="KRBG" name="KRBG" netid="KO" insttype="CMG-5T" commtype="DIG" lat="40.3932" lon="27.2977">
    <comp name="--.HNE">
      <acc value="0.0437962667" flag="0"/>
      <vel value="0.0230436311" flag="0"/>
      <psa03 value="0.1077635550" flag="0"/>
      <psa10 value="0.0104019455" flag="0"/>
      <psa30 value="0.0007009072" flag="0"/>
    </comp>
    <comp name="--.HNN">
      <acc value="0.0409680108" flag="0"/>
      <vel value="0.0152710491" flag="0"/>
      <psa03 value="0.1091389691" flag="0"/>
      <psa10 value="0.0054429552" flag="0"/>
      <psa30 value="0.0005250569" flag="0"/>
    </comp>
    <comp name="--.HNZ">
      <acc value="0.0167258529" flag="0"/>
      <vel value="0.0046610971" flag="0"/>
      <psa03 value="0.0333786071" flag="0"/>
      <psa10 value="0.0020118278" flag="0"/>
      <psa30 value="0.0002400449" flag="0"/>
    </comp>
  </station>
  <station code="MAEG" name="MAEG" netid="KO" insttype="CMG-5T" commtype="DIG" lat="40.9653" lon="27.9448">
    <comp name="--.HNE">
      <acc value="0.0673379128" flag="0"/>
      <vel value="0.0166137244" flag="0"/>
      <psa03 value="0.0631776079" flag="0"/>
      <psa10 value="0.0086168944" flag="0"/>
      <psa30 value="0.0007848654" flag="0"/>
    </comp>
    <comp name="--.HNN">
      <acc value="0.0708987266" flag="0"/>
      <vel value="0.0228080333" flag="0"/>
      <psa03 value="0.1034349821" flag="0"/>
      <psa10 value="0.0099352315" flag="0"/>
      <psa30 value="0.0011491626" flag="0"/>
    </comp>
    <comp name="--.HNZ">
      <acc value="0.0402799762" flag="0"/>
      <vel value="0.0055351477" flag="0"/>
      <psa03 value="0.0182117095" flag="0"/>
      <psa10 value="0.0034941866" flag="0"/>
      <psa30 value="0.0004920650" flag="0"/>
    </comp>
  </station>
  <station code="MDNY" name="MDNY" netid="KO" insttype="CMG-5T" commtype="DIG" lat="40.3709" lon="28.8846">
    <comp name="--.HNE">
      <acc value="0.0646501289" flag="0"/>
      <vel value="0.0191612278" flag="0"/>
      <psa03 value="0.0578826418" flag="0"/>
      <psa10 value="0.0041711817" flag="0"/>
      <psa30 value="0.0004720632" flag="0"/>
    </comp>
    <comp name="--.HNN">
      <acc value="0.0670116708" flag="0"/>
      <vel value="0.0143243055" flag="0"/>
      <psa03 value="0.1140217951" flag="0"/>
      <psa10 value="0.0036292189" flag="0"/>
      <psa30 value="0.0004520316" flag="0"/>
    </comp>
    <comp name="--.HNZ">
      <acc value="0.0527282804" flag="0"/>
      <vel value="0.0114249286" flag="0"/>
      <psa03 value="0.0329346803" flag="0"/>
      <psa10 value="0.0016273934" flag="0"/>
      <psa30 value="0.0003091633" flag="0"/>
    </comp>
  </station>
  <station code="ORLT" name="ORLT" netid="KO" insttype="CMG-5T" commtype="DIG" lat="40.0452" lon="28.8914">
    <comp name="--.HNN">
      <acc value="0.0342595385" flag="0"/>
      <vel value="0.0179346567" flag="0"/>
      <psa03 value="0.0707108144" flag="0"/>
      <psa10 value="0.0090413837" flag="0"/>
      <psa30 value="0.0006681201" flag="0"/>
    </comp>
    <comp name="--.HNE">
      <acc value="0.0307979863" flag="0"/>
      <vel value="0.0156137733" flag="0"/>
      <psa03 value="0.0918227576" flag="0"/>
      <psa10 value="0.0072918493" flag="0"/>
      <psa30 value="0.0005819082" flag="0"/>
    </comp>
    <comp name="--.HNZ">
      <acc value="0.0084154421" flag="0"/>
      <vel value="0.0046481900" flag="0"/>
      <psa03 value="0.0190931440" flag="0"/>
      <psa10 value="0.0037619558" flag="0"/>
      <psa30 value="0.0003386017" flag="0"/>
    </comp>
  </station>
  <station code="SILV" name="SILV" netid="KO" insttype="ACEBOX" commtype="DIG" lat="41.0723" lon="28.239">
    <comp name="--.HNE">
      <acc value="0.1352734215" flag="0"/>
      <vel value="0.0446521997" flag="0"/>
      <psa03 value="0.2048290857" flag="0"/>
      <psa10 value="0.0155033763" flag="0"/>
      <psa30 value="0.0015137517" flag="0"/>
    </comp>
    <comp name="--.HNN">
      <acc value="0.1024277810" flag="0"/>
      <vel value="0.0344451273" flag="0"/>
      <psa03 value="0.1340467260" flag="0"/>
      <psa10 value="0.0156514607" flag="0"/>
      <psa30 value="0.0015861591" flag="0"/>
    </comp>
    <comp name="--.HNZ">
      <acc value="0.0541345091" flag="0"/>
      <vel value="0.0100936668" flag="0"/>
      <psa03 value="0.0385662637" flag="0"/>
      <psa10 value="0.0048238420" flag="0"/>
      <psa30 value="0.0006402613" flag="0"/>
    </comp>
  </station>
  <station code="SUSR" name="SUSR" netid="KO" insttype="CMG-5T" commtype="DIG" lat="39.9627" lon="28.0835">
    <comp name="--.HNE">
      <acc value="0.0304311243" flag="0"/>
      <vel value="0.0136828002" flag="0"/>
      <psa03 value="0.0504301359" flag="0"/>
      <psa10 value="0.0086399666" flag="0"/>
      <psa30 value="0.0005360676" flag="0"/>
    </comp>
    <comp name="--.HNN">
      <acc value="0.0417844848" flag="0"/>
      <vel value="0.0175257211" flag="0"/>
      <psa03 value="0.1015329543" flag="0"/>
      <psa10 value="0.0098139861" flag="0"/>
      <psa30 value="0.0004731783" flag="0"/>
    </comp>
    <comp name="--.HNZ">
      <acc value="0.0241903968" flag="0"/>
      <vel value="0.0098626556" flag="0"/>
      <psa03 value="0.0259466163" flag="0"/>
      <psa10 value="0.0058625547" flag="0"/>
      <psa30 value="0.0005600705" flag="0"/>
    </comp>
  </station>
</stationlist>
