<?xml version="1.0" encoding="UTF-8" standalone="yes"?>
<!DOCTYPE earthquake SYSTEM "stationlist.dtd">
<stationlist created="" xmlns="ch.ethz.sed.shakemap.usgs.xml">
  <station code="ARMT" name="ARMT" netid="KO" insttype="CMG-5T" commtype="DIG" lat="40.5683" lon="28.866">
    <comp name="--.HNN">
      <acc value="0.0350518332" flag="0"/>
      <vel value="0.0120117870" flag="0"/>
      <psa03 value="0.0513938049" flag="0"/>
      <psa10 value="0.0054794151" flag="0"/>
      <psa30 value="0.0004594525" flag="0"/>
    </comp>
    <comp name="--.HNZ">
      <acc value="0.0236143214" flag="0"/>
      <vel value="0.0072189143" flag="0"/>
      <psa03 value="0.0309061522" flag="0"/>
      <psa10 value="0.0023645726" flag="0"/>
      <psa30 value="0.0002773583" flag="0"/>
    </comp>
    <comp name="--.HNE">
      <acc value="0.0391999414" flag="0"/>
      <vel value="0.0123288008" flag="0"/>
      <psa03 value="0.0848531011" flag="0"/>
      <psa10 value="0.0034401813" flag="0"/>
      <psa30 value="0.0004300818" flag="0"/>
    </comp>
  </station>
  <station code="BIGA" name="BIGA" netid="KO" insttype="CMG-5T" commtype="DIG" lat="40.2813" lon="27.1505">
    <comp name="--.HNE">
      <acc value="0.0364923105" flag="0"/>
      <vel value="0.0121674935" flag="0"/>
      <psa03 value="0.0527103348" flag="0"/>
      <psa10 value="0.0071093431" flag="0"/>
      <psa30 value="0.0004312279" flag="0"/>
    </comp>
    <comp name="--.HNN">
      <acc value="0.0386469639" flag="0"/>
      <vel value="0.0125587386" flag="0"/>
      <psa03 value="0.0669210997" flag="0"/>
      <psa10 value="0.0055326326" flag="0"/>
      <psa30 value="0.0005131786" flag="0"/>
    </comp>
    <comp name="--.HNZ">
      <acc value="0.0180948009" flag="0"/>
      <vel value="0.0050860978" flag="0"/>
      <psa03 value="0.0255604327" flag="0"/>
      <psa10 value="0.0016630230" flag="0"/>
      <psa30 value="0.0003336254" flag="0"/>
    </comp>
  </station>
  <station code="BRGA" name="BRGA" netid="KO" insttype="CMG-5T" commtype="DIG" lat="40.8846" lon="29.065">
    <comp name="--.HNE">
      <acc value="0.0368716169" flag="0"/>
      <vel value="0.0126246344" flag="0"/>
      <psa03 value="0.0365734767" flag="0"/>
      <psa10 value="0.0037858487" flag="0"/>
      <psa30 value="0.0004514128" flag="0"/>
    </comp>
    <comp name="--.HNN">
      <acc value="0.0641518311" flag="0"/>
      <vel value="0.0163881375" flag="0"/>
      <psa03 value="0.0861195650" flag="0"/>
      <psa10 value="0.0071870143" flag="0"/>
      <psa30 value="0.0007011429" flag="0"/>
    </comp>
    <comp name="--.HNZ">
      <acc value="0.0595415444" flag="0"/>
      <vel value="0.0077084075" flag="0"/>
      <psa03 value="0.0239101947" flag="0"/>
      <psa10 value="0.0027654461" flag="0"/>
      <psa30 value="0.0003124443" flag="0"/>
    </comp>
  </station>
  <station code="CRLU" name="CRLU" netid="KO" insttype="ACEBOX" commtype="DIG" lat="41.1428" lon="27.8215">
    <comp name="--.HNE">
      <acc value="0.2615448588" flag="0"/>
      <vel value="0.1226194720" flag="0"/>
      <psa03 value="0.3777360085" flag="0"/>
      <psa10 value="0.0784881404" flag="0"/>
      <psa30 value="0.0173582958" flag="0"/>
    </comp>
    <comp name="--.HNN">
      <acc value="0.2042544643" flag="0"/>
      <vel value="0.0785402242" flag="0"/>
      <psa03 value="0.3126263269" flag="0"/>
      <psa10 value="0.0779217690" flag="0"/>
      <psa30 value="0.0221326594" flag="0"/>
    </comp>
    <comp name="--.HNZ">
      <acc value="0.2906910615" flag="0"/>
      <vel value="0.0717690212" flag="0"/>
      <psa03 value="0.3246561741" flag="0"/>
      <psa10 value="0.0478694634" flag="0"/>
      <psa30 value="0.0083475424" flag="0"/>
    </comp>
  </station>
  <station code="GONE" name="GONE" netid="KO" insttype="CMG-5T" commtype="DIG" lat="40.0466" lon="27.686">
    <comp name="--.HNZ">
      <acc value="0.0092798513" flag="0"/>
      <vel value="0.0026951426" flag="0"/>
      <psa03 value="0.0142174893" flag="0"/>
      <psa10 value="0.0035946918" flag="0"/>
      <psa30 value="0.0002628453" flag="0"/>
    </comp>
    <comp name="--.HNE">
      <acc value="0.0157100323" flag="0"/>
      <vel value="0.0116836093" flag="0"/>
      <psa03 value="0.0303264655" flag="0"/>
      <psa10 value="0.0113183535" flag="0"/>
      <psa30 value="0.0006610754" flag="0"/>
    </comp>
    <comp name="--.HNN">
      <acc value="0.0245576035" flag="0"/>
      <vel value="0.0114827906" flag="0"/>
      <psa03 value="0.0550421735" flag="0"/>
      <psa10 value="0.0115301905" flag="0"/>
      <psa30 value="0.0007048888" flag="0"/>
    </comp>
  </station>
  <station code="IZI" name="IZI" netid="KO" insttype="CMG-5T" commtype="DIG" lat="40.3483" lon="29.4612">
    <comp name="--.HNE">
      <acc value="0.0166663367" flag="0"/>
      <vel value="0.0055243597" flag="0"/>
      <psa03 value="0.0432548841" flag="0"/>
      <psa10 value="0.0026400592" flag="0"/>
      <psa30 value="0.0005991718" flag="0"/>
    </comp>
    <comp name="--.HNN">
      <acc value="0.0188713047" flag="0"/>
      <vel value="0.0069318394" flag="0"/>
      <psa03 value="0.0301483634" flag="0"/>
      <psa10 value="0.0032698831" flag="0"/>
      <psa30 value="0.0004162999" flag="0"/>
    </comp>
    <comp name="--.HNZ">
      <acc value="0.0097084291" flag="0"/>
      <vel value="0.0032910382" flag="0"/>
      <psa03 value="0.0149522149" flag="0"/>
      <psa10 value="0.0020874632" flag="0"/>
      <psa30 value="0.0006415644" flag="0"/>
    </comp>
  </station>
  <station code="KAVV" name="KAVV" netid="KO" insttype="CMG-5T" commtype="DIG" lat="41.0638" lon="29.06">
    <comp name="--.HNE">
      <acc value="0.0733723494" flag="0"/>
      <vel value="0.0191481120" flag="0"/>
      <psa03 value="0.0443589422" flag="0"/>
      <psa10 value="0.0026334550" flag="0"/>
      <psa30 value="0.0005223768" flag="0"/>
    </comp>
    <comp name="--.HNZ">
      <acc value="0.0476602998" flag="0"/>
      <vel value="0.0073495922" flag="0"/>
      <psa03 value="0.0206782843" flag="0"/>
      <psa10 value="0.0037561694" flag="0"/>
      <psa30 value="0.0005161511" flag="0"/>
    </comp>
    <comp name="--.HNN">
      <acc value="0.0616562078" flag="0"/>
      <vel value="0.0111645895" flag="0"/>
      <psa03 value="0.0409542933" flag="0"/>
      <psa10 value="0.0031928464" flag="0"/>
      <psa30 value="0.0004065472" flag="0"/>
    </comp>
  </station>
  <station code="KOUK" name="KOUK" netid="KO" insttype="CMG-5T" commtype="DIG" lat="40.6572" lon="29.1918">
    <comp name="--.HNE">
      <acc value="0.0319825979" flag="0"/>
      <vel value="0.0142773730" flag="0"/>
      <psa03 value="0.0714094573" flag="0"/>
      <psa10 value="0.0157621325" flag="0"/>
      <psa30 value="0.0011033501" flag="0"/>
    </comp>
    <comp name="--.HNN">
      <acc value="0.0267044798" flag="0"/>
      <vel value="0.0116410023" flag="0"/>
      <psa03 value="0.0532316639" flag="0"/>
      <psa10 value="0.0123523494" flag="0"/>
      <psa30 value="0.0016181295" flag="0"/>
    </comp>
    <comp name="--.HNZ">
      <acc value="0.0203456598" flag="0"/>
      <vel value="0.0086465836" flag="0"/>
      <psa03 value="0.0488726062" flag="0"/>
      <psa10 value="0.0072268207" flag="0"/>
      <psa30 value="0.0008693591" flag="0"/>
    </comp>
  </station>
  <station code="KRBG" name="KRBG" netid="KO" insttype="CMG-5T" commtype="DIG" lat="40.3932" lon="27.2977">
    <comp name="--.HNZ">
      <acc value="0.0167258530" flag="0"/>
      <vel value="0.0046610985" flag="0"/>
      <psa03 value="0.0333786071" flag="0"/>
      <psa10 value="0.0020118277" flag="0"/>
      <psa30 value="0.0002398922" flag="0"/>
    </comp>
    <comp name="--.HNE">
      <acc value="0.0437962667" flag="0"/>
      <vel value="0.0230436317" flag="0"/>
      <psa03 value="0.1077635550" flag="0"/>
      <psa10 value="0.0104019459" flag="0"/>
      <psa30 value="0.0007015948" flag="0"/>
    </comp>
    <comp name="--.HNN">
      <acc value="0.0409680107" flag="0"/>
      <vel value="0.0152710570" flag="0"/>
      <psa03 value="0.1091389691" flag="0"/>
      <psa10 value="0.0054429550" flag="0"/>
      <psa30 value="0.0005212451" flag="0"/>
    </comp>
  </station>
  <station code="MAEG" name="MAEG" netid="KO" insttype="CMG-5T" commtype="DIG" lat="40.9653" lon="27.9448">
    <comp name="--.HNE">
      <acc value="0.0673379131" flag="0"/>
      <vel value="0.0166137289" flag="0"/>
      <psa03 value="0.0631776079" flag="0"/>
      <psa10 value="0.0086168957" flag="0"/>
      <psa30 value="0.0007716070" flag="0"/>
    </comp>
    <comp name="--.HNN">
      <acc value="0.0708987276" flag="0"/>
      <vel value="0.0228080329" flag="0"/>
      <psa03 value="0.1034349821" flag="0"/>
      <psa10 value="0.0099352331" flag="0"/>
      <psa30 value="0.0011520897" flag="0"/>
    </comp>
    <comp name="--.HNZ">
      <acc value="0.0402799751" flag="0"/>
      <vel value="0.0055351474" flag="0"/>
      <psa03 value="0.0182117095" flag="0"/>
      <psa10 value="0.0034941889" flag="0"/>
      <psa30 value="0.0004926164" flag="0"/>
    </comp>
  </station>
  <station code="MDNY" name="MDNY" netid="KO" insttype="CMG-5T" commtype="DIG" lat="40.3709" lon="28.8846">
    <comp name="--.HNN">
      <acc value="0.0670116709" flag="0"/>
      <vel value="0.0143243053" flag="0"/>
      <psa03 value="0.1140217951" flag="0"/>
      <psa10 value="0.0036292188" flag="0"/>
      <psa30 value="0.0004520108" flag="0"/>
    </comp>
    <comp name="--.HNE">
      <acc value="0.0646501289" flag="0"/>
      <vel value="0.0191612257" flag="0"/>
      <psa03 value="0.0578826418" flag="0"/>
      <psa10 value="0.0041711818" flag="0"/>
      <psa30 value="0.0004719047" flag="0"/>
    </comp>
    <comp name="--.HNZ">
      <acc value="0.0527282805" flag="0"/>
      <vel value="0.0114249294" flag="0"/>
      <psa03 value="0.0329346803" flag="0"/>
      <psa10 value="0.0016273934" flag="0"/>
      <psa30 value="0.0003091846" flag="0"/>
    </comp>
  </station>
  <station code="ORLT" name="ORLT" netid="KO" insttype="CMG-5T" commtype="DIG" lat="40.0452" lon="28.8914">
    <comp name="--.HNN">
      <acc value="0.0342595380" flag="0"/>
      <vel value="0.0179346575" flag="0"/>
      <psa03 value="0.0707108144" flag="0"/>
      <psa10 value="0.0090413840" flag="0"/>
      <psa30 value="0.0006679061" flag="0"/>
    </comp>
    <comp name="--.HNE">
      <acc value="0.0307979861" flag="0"/>
      <vel value="0.0156137763" flag="0"/>
      <psa03 value="0.0918227576" flag="0"/>
      <psa10 value="0.0072918493" flag="0"/>
      <psa30 value="0.0005832103" flag="0"/>
    </comp>
    <comp name="--.HNZ">
      <acc value="0.0084154427" flag="0"/>
      <vel value="0.0046481881" flag="0"/>
      <psa03 value="0.0190931440" flag="0"/>
      <psa10 value="0.0037619558" flag="0"/>
      <psa30 value="0.0003385522" flag="0"/>
    </comp>
  </station>
  <station code="SILV" name="SILV" netid="KO" insttype="ACEBOX" commtype="DIG" lat="41.0723" lon="28.239">
    <comp name="--.HNE">
      <acc value="0.1352734213" flag="0"/>
      <vel value="0.0446522018" flag="0"/>
      <psa03 value="0.2048290857" flag="0"/>
      <psa10 value="0.0155033787" flag="0"/>
      <psa30 value="0.0015144347" flag="0"/>
    </comp>
    <comp name="--.HNN">
      <acc value="0.1024277811" flag="0"/>
      <vel value="0.0344451207" flag="0"/>
      <psa03 value="0.1340467260" flag="0"/>
      <psa10 value="0.0156514617" flag="0"/>
      <psa30 value="0.0015865353" flag="0"/>
    </comp>
    <comp name="--.HNZ">
      <acc value="0.0541345091" flag="0"/>
      <vel value="0.0100936672" flag="0"/>
      <psa03 value="0.0385662637" flag="0"/>
      <psa10 value="0.0048238423" flag="0"/>
      <psa30 value="0.0006400747" flag="0"/>
    </comp>
  </station>
  <station code="SUSR" name="SUSR" netid="KO" insttype="CMG-5T" commtype="DIG" lat="39.9627" lon="28.0835">
    <comp name="--.HNE">
      <acc value="0.0304311242" flag="0"/>
      <vel value="0.0136828028" flag="0"/>
      <psa03 value="0.0504301359" flag="0"/>
      <psa10 value="0.0086399667" flag="0"/>
      <psa30 value="0.0005364270" flag="0"/>
    </comp>
    <comp name="--.HNN">
      <acc value="0.0417844850" flag="0"/>
      <vel value="0.0175257215" flag="0"/>
      <psa03 value="0.1015329543" flag="0"/>
      <psa10 value="0.0098139862" flag="0"/>
      <psa30 value="0.0004728739" flag="0"/>
    </comp>
    <comp name="--.HNZ">
      <acc value="0.0241903967" flag="0"/>
      <vel value="0.0098626567" flag="0"/>
      <psa03 value="0.0259466163" flag="0"/>
      <psa10 value="0.0058625547" flag="0"/>
      <psa30 value="0.0005602508" flag="0"/>
    </comp>
  </station>
</stationlist>
