<?xml version="1.0" encoding="UTF-8" standalone="yes"?>
<!DOCTYPE earthquake SYSTEM "stationlist.dtd">
<stationlist created="" xmlns="ch.ethz.sed.shakemap.usgs.xml">
  <station code="ARMT" name="ARMT" netid="KO" insttype="CMG-5T" commtype="DIG" lat="40.5683" lon="28.866">
    <comp name="--.HNN">
      <acc value="0.0350518321" flag="0"/>
      <vel value="0.0120117585" flag="0"/>
      <psa03 value="0.0513938049" flag="0"/>
      <psa10 value="0.0054794174" flag="0"/>
      <psa30 value="0.0004594288" flag="0"/>
    </comp>
    <comp name="--.HNZ">
      <acc value="0.0236143278" flag="0"/>
      <vel value="0.0072189089" flag="0"/>
      <psa03 value="0.0309061522" flag="0"/>
      <psa10 value="0.0023645707" flag="0"/>
      <psa30 value="0.0002748092" flag="0"/>
    </comp>
    <comp name="--.HNE">
      <acc value="0.0391999383" flag="0"/>
      <vel value="0.0123287329" flag="0"/>
      <psa03 value="0.0848531011" flag="0"/>
      <psa10 value="0.0034401868" flag="0"/>
      <psa30 value="0.0004361743" flag="0"/>
    </comp>
  </station>
  <station code="BIGA" name="BIGA" netid="KO" insttype="CMG-5T" commtype="DIG" lat="40.2813" lon="27.1505">
    <comp name="--.HNE">
      <acc value="0.0364922867" flag="0"/>
      <vel value="0.0121675370" flag="0"/>
      <psa03 value="0.0527103348" flag="0"/>
      <psa10 value="0.0071093429" flag="0"/>
      <psa30 value="0.0004291509" flag="0"/>
    </comp>
    <comp name="--.HNN">
      <acc value="0.0386469743" flag="0"/>
      <vel value="0.0125587132" flag="0"/>
      <psa03 value="0.0669210997" flag="0"/>
      <psa10 value="0.0055326340" flag="0"/>
      <psa30 value="0.0005203818" flag="0"/>
    </comp>
    <comp name="--.HNZ">
      <acc value="0.0180948128" flag="0"/>
      <vel value="0.0050860739" flag="0"/>
      <psa03 value="0.0255604327" flag="0"/>
      <psa10 value="0.0016630228" flag="0"/>
      <psa30 value="0.0003360749" flag="0"/>
    </comp>
  </station>
  <station code="BRGA" name="BRGA" netid="KO" insttype="CMG-5T" commtype="DIG" lat="40.8846" lon="29.065">
    <comp name="--.HNE">
      <acc value="0.0368716206" flag="0"/>
      <vel value="0.0126246372" flag="0"/>
      <psa03 value="0.0365734767" flag="0"/>
      <psa10 value="0.0037858538" flag="0"/>
      <psa30 value="0.0004763276" flag="0"/>
    </comp>
    <comp name="--.HNN">
      <acc value="0.0641518246" flag="0"/>
      <vel value="0.0163880612" flag="0"/>
      <psa03 value="0.0861195650" flag="0"/>
      <psa10 value="0.0071870265" flag="0"/>
      <psa30 value="0.0006763219" flag="0"/>
    </comp>
    <comp name="--.HNZ">
      <acc value="0.0595415698" flag="0"/>
      <vel value="0.0077084710" flag="0"/>
      <psa03 value="0.0239101947" flag="0"/>
      <psa10 value="0.0027654660" flag="0"/>
      <psa30 value="0.0003297926" flag="0"/>
    </comp>
  </station>
  <station code="BUYK" name="BUYK" netid="KO" insttype="ACEBOX" commtype="DIG" lat="41.0168" lon="28.5828">
    <comp name="--.HNE">
      <acc value="0.1581568493" flag="0"/>
      <vel value="0.0552970651" flag="0"/>
      <psa03 value="0.2954023469" flag="0"/>
      <psa10 value="0.0547350410" flag="0"/>
      <psa30 value="0.0028961969" flag="0"/>
    </comp>
  </station>
  <station code="CRLU" name="CRLU" netid="KO" insttype="ACEBOX" commtype="DIG" lat="41.1428" lon="27.8215">
    <comp name="--.HNZ">
      <acc value="0.2906910792" flag="0"/>
      <vel value="0.0717676791" flag="0"/>
      <psa03 value="0.3246561739" flag="0"/>
      <psa10 value="0.0478694637" flag="0"/>
      <psa30 value="0.0081078548" flag="0"/>
    </comp>
    <comp name="--.HNN">
      <acc value="0.2042544641" flag="0"/>
      <vel value="0.0785398119" flag="0"/>
      <psa03 value="0.3126263268" flag="0"/>
      <psa10 value="0.0779217701" flag="0"/>
      <psa30 value="0.0209106539" flag="0"/>
    </comp>
    <comp name="--.HNE">
      <acc value="0.2615448574" flag="0"/>
      <vel value="0.1226179650" flag="0"/>
      <psa03 value="0.3777360087" flag="0"/>
      <psa10 value="0.0784881196" flag="0"/>
      <psa30 value="0.0174465368" flag="0"/>
    </comp>
  </station>
  <station code="GONE" name="GONE" netid="KO" insttype="CMG-5T" commtype="DIG" lat="40.0466" lon="27.686">
    <comp name="--.HNN">
      <acc value="0.0245576038" flag="0"/>
      <vel value="0.0114827517" flag="0"/>
      <psa03 value="0.0550421735" flag="0"/>
      <psa10 value="0.0115301893" flag="0"/>
      <psa30 value="0.0006980477" flag="0"/>
    </comp>
    <comp name="--.HNE">
      <acc value="0.0157100318" flag="0"/>
      <vel value="0.0116836172" flag="0"/>
      <psa03 value="0.0303264656" flag="0"/>
      <psa10 value="0.0113183526" flag="0"/>
      <psa30 value="0.0006582617" flag="0"/>
    </comp>
    <comp name="--.HNZ">
      <acc value="0.0092798492" flag="0"/>
      <vel value="0.0026951546" flag="0"/>
      <psa03 value="0.0142174893" flag="0"/>
      <psa10 value="0.0035946918" flag="0"/>
      <psa30 value="0.0002633303" flag="0"/>
    </comp>
  </station>
  <station code="IZI" name="IZI" netid="KO" insttype="CMG-5T" commtype="DIG" lat="40.3483" lon="29.4612">
    <comp name="--.HNE">
      <acc value="0.0166663388" flag="0"/>
      <vel value="0.0055243845" flag="0"/>
      <psa03 value="0.0432548841" flag="0"/>
      <psa10 value="0.0026400563" flag="0"/>
      <psa30 value="0.0005922450" flag="0"/>
    </comp>
    <comp name="--.HNN">
      <acc value="0.0188713085" flag="0"/>
      <vel value="0.0069318000" flag="0"/>
      <psa03 value="0.0301483634" flag="0"/>
      <psa10 value="0.0032698846" flag="0"/>
      <psa30 value="0.0003991607" flag="0"/>
    </comp>
    <comp name="--.HNZ">
      <acc value="0.0097084286" flag="0"/>
      <vel value="0.0032910343" flag="0"/>
      <psa03 value="0.0149522150" flag="0"/>
      <psa10 value="0.0020874618" flag="0"/>
      <psa30 value="0.0006416099" flag="0"/>
    </comp>
  </station>
  <station code="KAVV" name="KAVV" netid="KO" insttype="CMG-5T" commtype="DIG" lat="41.0638" lon="29.06">
    <comp name="--.HNE">
      <acc value="0.0733723817" flag="0"/>
      <vel value="0.0191481358" flag="0"/>
      <psa03 value="0.0443589422" flag="0"/>
      <psa10 value="0.0026334485" flag="0"/>
      <psa30 value="0.0005242069" flag="0"/>
    </comp>
    <comp name="--.HNZ">
      <acc value="0.0476603021" flag="0"/>
      <vel value="0.0073496083" flag="0"/>
      <psa03 value="0.0206782842" flag="0"/>
      <psa10 value="0.0037561820" flag="0"/>
      <psa30 value="0.0005072264" flag="0"/>
    </comp>
    <comp name="--.HNN">
      <acc value="0.0616561999" flag="0"/>
      <vel value="0.0111645665" flag="0"/>
      <psa03 value="0.0409542933" flag="0"/>
      <psa10 value="0.0031928642" flag="0"/>
      <psa30 value="0.0003997324" flag="0"/>
    </comp>
  </station>
  <station code="KOUK" name="KOUK" netid="KO" insttype="CMG-5T" commtype="DIG" lat="40.6572" lon="29.1918">
    <comp name="--.HNE">
      <acc value="0.0319825980" flag="0"/>
      <vel value="0.0142773730" flag="0"/>
      <psa03 value="0.0714094573" flag="0"/>
      <psa10 value="0.0157621325" flag="0"/>
      <psa30 value="0.0011033501" flag="0"/>
    </comp>
    <comp name="--.HNN">
      <acc value="0.0267044814" flag="0"/>
      <vel value="0.0116409790" flag="0"/>
      <psa03 value="0.0532316639" flag="0"/>
      <psa10 value="0.0123523485" flag="0"/>
      <psa30 value="0.0016085008" flag="0"/>
    </comp>
    <comp name="--.HNZ">
      <acc value="0.0203456576" flag="0"/>
      <vel value="0.0086465334" flag="0"/>
      <psa03 value="0.0488726062" flag="0"/>
      <psa10 value="0.0072268217" flag="0"/>
      <psa30 value="0.0008686526" flag="0"/>
    </comp>
  </station>
  <station code="KRBG" name="KRBG" netid="KO" insttype="CMG-5T" commtype="DIG" lat="40.3932" lon="27.2977">
    <comp name="--.HNE">
      <acc value="0.0437962666" flag="0"/>
      <vel value="0.0230436262" flag="0"/>
      <psa03 value="0.1077635550" flag="0"/>
      <psa10 value="0.0104019456" flag="0"/>
      <psa30 value="0.0006997569" flag="0"/>
    </comp>
    <comp name="--.HNN">
      <acc value="0.0409680119" flag="0"/>
      <vel value="0.0152709817" flag="0"/>
      <psa03 value="0.1091389691" flag="0"/>
      <psa10 value="0.0054429553" flag="0"/>
      <psa30 value="0.0005620064" flag="0"/>
    </comp>
    <comp name="--.HNZ">
      <acc value="0.0167258522" flag="0"/>
      <vel value="0.0046610857" flag="0"/>
      <psa03 value="0.0333786071" flag="0"/>
      <psa10 value="0.0020118277" flag="0"/>
      <psa30 value="0.0002403663" flag="0"/>
    </comp>
  </station>
  <station code="MAEG" name="MAEG" netid="KO" insttype="CMG-5T" commtype="DIG" lat="40.9653" lon="27.9448">
    <comp name="--.HNE">
      <acc value="0.0673379099" flag="0"/>
      <vel value="0.0166136857" flag="0"/>
      <psa03 value="0.0631776079" flag="0"/>
      <psa10 value="0.0086168758" flag="0"/>
      <psa30 value="0.0007241353" flag="0"/>
    </comp>
    <comp name="--.HNN">
      <acc value="0.0708987244" flag="0"/>
      <vel value="0.0228080526" flag="0"/>
      <psa03 value="0.1034349821" flag="0"/>
      <psa10 value="0.0099352081" flag="0"/>
      <psa30 value="0.0011271471" flag="0"/>
    </comp>
    <comp name="--.HNZ">
      <acc value="0.0402799758" flag="0"/>
      <vel value="0.0055351864" flag="0"/>
      <psa03 value="0.0182117095" flag="0"/>
      <psa10 value="0.0034941847" flag="0"/>
      <psa30 value="0.0005190232" flag="0"/>
    </comp>
  </station>
  <station code="MDNY" name="MDNY" netid="KO" insttype="CMG-5T" commtype="DIG" lat="40.3709" lon="28.8846">
    <comp name="--.HNN">
      <acc value="0.0670116695" flag="0"/>
      <vel value="0.0143243539" flag="0"/>
      <psa03 value="0.1140217951" flag="0"/>
      <psa10 value="0.0036292201" flag="0"/>
      <psa30 value="0.0004516216" flag="0"/>
    </comp>
    <comp name="--.HNE">
      <acc value="0.0646501270" flag="0"/>
      <vel value="0.0191612487" flag="0"/>
      <psa03 value="0.0578826418" flag="0"/>
      <psa10 value="0.0041711818" flag="0"/>
      <psa30 value="0.0004656375" flag="0"/>
    </comp>
    <comp name="--.HNZ">
      <acc value="0.0527282758" flag="0"/>
      <vel value="0.0114249274" flag="0"/>
      <psa03 value="0.0329346803" flag="0"/>
      <psa10 value="0.0016273934" flag="0"/>
      <psa30 value="0.0003088408" flag="0"/>
    </comp>
  </station>
  <station code="ORLT" name="ORLT" netid="KO" insttype="CMG-5T" commtype="DIG" lat="40.0452" lon="28.8914">
    <comp name="--.HNZ">
      <acc value="0.0084154500" flag="0"/>
      <vel value="0.0046482026" flag="0"/>
      <psa03 value="0.0190931440" flag="0"/>
      <psa10 value="0.0037619572" flag="0"/>
      <psa30 value="0.0003389937" flag="0"/>
    </comp>
    <comp name="--.HNN">
      <acc value="0.0342595387" flag="0"/>
      <vel value="0.0179346435" flag="0"/>
      <psa03 value="0.0707108145" flag="0"/>
      <psa10 value="0.0090413792" flag="0"/>
      <psa30 value="0.0006655669" flag="0"/>
    </comp>
    <comp name="--.HNE">
      <acc value="0.0307979807" flag="0"/>
      <vel value="0.0156137303" flag="0"/>
      <psa03 value="0.0918227576" flag="0"/>
      <psa10 value="0.0072918469" flag="0"/>
      <psa30 value="0.0005776439" flag="0"/>
    </comp>
  </station>
  <station code="SILV" name="SILV" netid="KO" insttype="ACEBOX" commtype="DIG" lat="41.0723" lon="28.239">
    <comp name="--.HNE">
      <acc value="0.1352734227" flag="0"/>
      <vel value="0.0446521009" flag="0"/>
      <psa03 value="0.2048290857" flag="0"/>
      <psa10 value="0.0155033955" flag="0"/>
      <psa30 value="0.0015051484" flag="0"/>
    </comp>
    <comp name="--.HNZ">
      <acc value="0.0541345090" flag="0"/>
      <vel value="0.0100936099" flag="0"/>
      <psa03 value="0.0385662637" flag="0"/>
      <psa10 value="0.0048238396" flag="0"/>
      <psa30 value="0.0006418770" flag="0"/>
    </comp>
    <comp name="--.HNN">
      <acc value="0.1024277788" flag="0"/>
      <vel value="0.0344451831" flag="0"/>
      <psa03 value="0.1340467259" flag="0"/>
      <psa10 value="0.0156514589" flag="0"/>
      <psa30 value="0.0015748786" flag="0"/>
    </comp>
  </station>
  <station code="SUSR" name="SUSR" netid="KO" insttype="CMG-5T" commtype="DIG" lat="39.9627" lon="28.0835">
    <comp name="--.HNE">
      <acc value="0.0304311254" flag="0"/>
      <vel value="0.0136827819" flag="0"/>
      <psa03 value="0.0504301359" flag="0"/>
      <psa10 value="0.0086399666" flag="0"/>
      <psa30 value="0.0005339488" flag="0"/>
    </comp>
    <comp name="--.HNN">
      <acc value="0.0417844840" flag="0"/>
      <vel value="0.0175257330" flag="0"/>
      <psa03 value="0.1015329542" flag="0"/>
      <psa10 value="0.0098139861" flag="0"/>
      <psa30 value="0.0004773516" flag="0"/>
    </comp>
    <comp name="--.HNZ">
      <acc value="0.0241903977" flag="0"/>
      <vel value="0.0098626478" flag="0"/>
      <psa03 value="0.0259466163" flag="0"/>
      <psa10 value="0.0058625545" flag="0"/>
      <psa30 value="0.0005586639" flag="0"/>
    </comp>
  </station>
  <station code="TUZL" name="TUZL" netid="KO" insttype="CMG-5T" commtype="DIG" lat="40.8128" lon="29.2657">
    <comp name="--.HNE">
      <acc value="0.0552679641" flag="0"/>
      <vel value="0.0172603857" flag="0"/>
      <psa03 value="0.0490713121" flag="0"/>
      <psa10 value="0.0039043629" flag="0"/>
      <psa30 value="0.0004547324" flag="0"/>
    </comp>
  </station>
</stationlist>
