<?xml version="1.0" encoding="UTF-8" standalone="yes"?>
<!DOCTYPE earthquake SYSTEM "stationlist.dtd">
<stationlist created="" xmlns="ch.ethz.sed.shakemap.usgs.xml">
  <station code="ZKR" name="ZKR" netid="GE" insttype="STS-2/N" commtype="DIG" lat="35.1147" lon="26.2169">
    <comp name="--.HHE">
      <acc value="0.1028625136" flag="0"/>
      <vel value="0.0872028950" flag="0"/>
      <psa03 value="0.3208501871" flag="0"/>
      <psa10 value="0.1635984270" flag="0"/>
      <psa30 value="0.0173357750" flag="0"/>
    </comp>
  </station>
  <station code="PFKS" name="PFKS" netid="HC" insttype="120" commtype="DIG" lat="35.0429" lon="25.4733">
    <comp name="--.HHE">
      <acc value="0.0639033117" flag="0"/>
      <vel value="0.0382663584" flag="0"/>
      <psa03 value="0.1843619160" flag="0"/>
      <psa10 value="0.0588832458" flag="0"/>
      <psa30 value="0.0067944068" flag="0"/>
    </comp>
  </station>
  <station code="KOS2" name="KOS2" netid="HI" insttype="unknown" commtype="DIG" lat="36.8941" lon="27.2888">
    <comp name="--.HNN">
      <acc value="0.1275223395" flag="0"/>
      <vel value="0.1327200626" flag="0"/>
      <psa03 value="0.4171091561" flag="0"/>
      <psa10 value="0.2009324519" flag="0"/>
      <psa30 value="0.0278974959" flag="0"/>
    </comp>
  </station>
  <station code="ARG" name="ARG" netid="HL" insttype="LE3D20_DR24" commtype="DIG" lat="36.2136" lon="28.1212">
    <comp name="--.HHZ">
      <acc value="0.1514619649" flag="0"/>
      <vel value="0.1129148569" flag="0"/>
      <psa03 value="0.4036670203" flag="0"/>
      <psa10 value="0.2646605879" flag="0"/>
      <psa30 value="0.0247566586" flag="0"/>
    </comp>
    <comp name="--.HHN">
      <acc value="0.1752914815" flag="0"/>
      <vel value="0.2076050951" flag="0"/>
      <psa03 value="0.4554002672" flag="0"/>
      <psa10 value="0.4327108650" flag="0"/>
      <psa30 value="0.0408288141" flag="0"/>
    </comp>
  </station>
  <station code="ASTA" name="ASTA" netid="HL" insttype="LE3D20_SMART24" commtype="DIG" lat="36.5475" lon="26.3471">
    <comp name="--.HHZ">
      <acc value="0.0334816471" flag="0"/>
      <vel value="0.0363871183" flag="0"/>
      <psa03 value="0.0701466192" flag="0"/>
      <psa10 value="0.0477936653" flag="0"/>
      <psa30 value="0.0087433176" flag="0"/>
    </comp>
    <comp name="--.HHE">
      <acc value="0.0617155276" flag="0"/>
      <vel value="0.0387257806" flag="0"/>
      <psa03 value="0.2025861731" flag="0"/>
      <psa10 value="0.0768661833" flag="0"/>
      <psa30 value="0.0089692235" flag="0"/>
    </comp>
    <comp name="--.HHN">
      <acc value="0.0689491856" flag="0"/>
      <vel value="0.0491537337" flag="0"/>
      <psa03 value="0.1199173463" flag="0"/>
      <psa10 value="0.0703690516" flag="0"/>
      <psa30 value="0.0108367711" flag="0"/>
    </comp>
  </station>
  <station code="KARP" name="KARP" netid="HL" insttype="DC" commtype="DIG" lat="35.5471" lon="27.1611">
    <comp name="--.HNZ">
      <acc value="2.3709738882" flag="0"/>
      <vel value="1.1419382025" flag="0"/>
      <psa03 value="4.9817389292" flag="0"/>
      <psa10 value="1.2945886602" flag="0"/>
      <psa30 value="0.0719582310" flag="0"/>
    </comp>
    <comp name="--.HNN">
      <acc value="3.3928900162" flag="0"/>
      <vel value="1.6052278406" flag="0"/>
      <psa03 value="3.9728341646" flag="0"/>
      <psa10 value="1.9023854873" flag="0"/>
      <psa30 value="0.0897944760" flag="0"/>
    </comp>
  </station>
  <station code="NISR" name="NISR" netid="HL" insttype="0" commtype="DIG" lat="36.6106" lon="27.131">
    <comp name="--.HNZ">
      <acc value="0.0501878514" flag="0"/>
      <vel value="0.0570445850" flag="0"/>
      <psa03 value="0.0934283202" flag="0"/>
      <psa10 value="0.1047004664" flag="0"/>
      <psa30 value="0.0153083434" flag="0"/>
    </comp>
  </station>
  <station code="NISR2" name="NISR2" netid="HL" insttype="120" commtype="DIG" lat="36.5744" lon="27.1767">
    <comp name="--.HHZ">
      <acc value="0.1429050434" flag="0"/>
      <vel value="0.0895027050" flag="0"/>
      <psa03 value="0.4908719774" flag="0"/>
      <psa10 value="0.1176751786" flag="0"/>
      <psa30 value="0.0210998196" flag="0"/>
    </comp>
  </station>
  <station code="RODB" name="RODB" netid="HL" insttype="CMG-5" commtype="DIG" lat="36.4471" lon="28.2212">
    <comp name="00.HNZ">
      <acc value="0.1423224004" flag="0"/>
      <vel value="0.0655589195" flag="0"/>
      <psa03 value="0.3860436116" flag="0"/>
      <psa10 value="0.0665571871" flag="0"/>
      <psa30 value="0.0058587590" flag="0"/>
    </comp>
    <comp name="00.HNN">
      <acc value="0.1815894677" flag="0"/>
      <vel value="0.2259504711" flag="0"/>
      <psa03 value="0.5807817738" flag="0"/>
      <psa10 value="0.3412727282" flag="0"/>
      <psa30 value="0.0841252810" flag="0"/>
    </comp>
  </station>
  <station code="DAT" name="DAT" netid="KO" insttype="CMG-3T" commtype="DIG" lat="36.7308" lon="27.5767">
    <comp name="--.HHZ">
      <acc value="0.0000277324" flag="0"/>
      <vel value="0.0000035608" flag="0"/>
      <psa03 value="0.0000102717" flag="0"/>
      <psa10 value="0.0000030446" flag="0"/>
      <psa30 value="0.0000006413" flag="0"/>
    </comp>
    <comp name="--.HHE">
      <acc value="0.1121887307" flag="0"/>
      <vel value="0.0674561629" flag="0"/>
      <psa03 value="0.3526475123" flag="0"/>
      <psa10 value="0.0756595808" flag="0"/>
      <psa30 value="0.0112171792" flag="0"/>
    </comp>
  </station>
</stationlist>
