<?xml version="1.0" encoding="UTF-8" standalone="yes"?>
<!DOCTYPE earthquake SYSTEM "stationlist.dtd">
<stationlist created="" xmlns="ch.ethz.sed.shakemap.usgs.xml">
  <station code="ZKR" name="ZKR" netid="GE" insttype="STS-2/N" commtype="DIG" lat="35.1147" lon="26.2169">
    <comp name="--.HHN">
      <acc value="0.0341962800" flag="0"/>
      <vel value="0.0353523110" flag="0"/>
      <psa03 value="0.1203249236" flag="0"/>
      <psa10 value="0.0735677918" flag="0"/>
      <psa30 value="0.0076042064" flag="0"/>
    </comp>
    <comp name="--.HHZ">
      <acc value="0.0553763982" flag="0"/>
      <vel value="0.0452644765" flag="0"/>
      <psa03 value="0.1067616353" flag="0"/>
      <psa10 value="0.0662060178" flag="0"/>
      <psa30 value="0.0112415340" flag="0"/>
    </comp>
    <comp name="--.HHE">
      <acc value="0.1028625135" flag="0"/>
      <vel value="0.0872028950" flag="0"/>
      <psa03 value="0.3208501871" flag="0"/>
      <psa10 value="0.1635984270" flag="0"/>
      <psa30 value="0.0173357669" flag="0"/>
    </comp>
  </station>
  <station code="PFKS" name="PFKS" netid="HC" insttype="120" commtype="DIG" lat="35.0429" lon="25.4733">
    <comp name="--.HHZ">
      <acc value="0.0328744569" flag="0"/>
      <vel value="0.0185637335" flag="0"/>
      <psa03 value="0.0726061926" flag="0"/>
      <psa10 value="0.0195443736" flag="0"/>
      <psa30 value="0.0019357915" flag="0"/>
    </comp>
    <comp name="--.HHN">
      <acc value="0.0435332868" flag="0"/>
      <vel value="0.0218047124" flag="0"/>
      <psa03 value="0.1066449828" flag="0"/>
      <psa10 value="0.0189274930" flag="0"/>
      <psa30 value="0.0018409485" flag="0"/>
    </comp>
    <comp name="--.HHE">
      <acc value="0.0639033117" flag="0"/>
      <vel value="0.0382663581" flag="0"/>
      <psa03 value="0.1843619160" flag="0"/>
      <psa10 value="0.0588832458" flag="0"/>
      <psa30 value="0.0067944066" flag="0"/>
    </comp>
  </station>
  <station code="STIA" name="STIA" netid="HC" insttype="120" commtype="DIG" lat="35.2021" lon="26.0909">
    <comp name="--.HHN">
      <acc value="0.0000000000" flag="0"/>
      <vel value="-100.0000000000" flag="0"/>
      <psa03 value="0.0000000000" flag="0"/>
      <psa10 value="0.0000000000" flag="0"/>
      <psa30 value="0.0000000000" flag="0"/>
    </comp>
    <comp name="--.HHE">
      <acc value="0.1015567395" flag="0"/>
      <vel value="0.0961497948" flag="0"/>
      <psa03 value="0.2336071983" flag="0"/>
      <psa10 value="0.1430871121" flag="0"/>
      <psa30 value="0.0171220132" flag="0"/>
    </comp>
    <comp name="--.HHZ">
      <acc value="0.0624697281" flag="0"/>
      <vel value="0.0481823356" flag="0"/>
      <psa03 value="0.1823182125" flag="0"/>
      <psa10 value="0.0855785689" flag="0"/>
      <psa30 value="0.0099552321" flag="0"/>
    </comp>
  </station>
  <station code="KSS1" name="KSS1" netid="HI" insttype="CMG-5TD,ACCELEROMETER,GURALP" commtype="DIG" lat="35.4189" lon="26.9207">
    <comp name="--.HNN">
      <acc value="0.9327145710" flag="0"/>
      <vel value="0.3033050913" flag="0"/>
      <psa03 value="2.5951770997" flag="0"/>
      <psa10 value="0.1617572116" flag="0"/>
      <psa30 value="0.0361080561" flag="0"/>
    </comp>
    <comp name="--.HNZ">
      <acc value="0.5350965958" flag="0"/>
      <vel value="0.1777463166" flag="0"/>
      <psa03 value="0.6458158910" flag="0"/>
      <psa10 value="0.1724600421" flag="0"/>
      <psa30 value="0.0457510428" flag="0"/>
    </comp>
    <comp name="--.HNE">
      <acc value="0.7787010317" flag="0"/>
      <vel value="0.3344468786" flag="0"/>
      <psa03 value="2.3710780042" flag="0"/>
      <psa10 value="0.1918335507" flag="0"/>
      <psa30 value="0.0472698101" flag="0"/>
    </comp>
  </station>
  <station code="RDI1" name="RDI1" netid="HI" insttype="CMG-5TD,ACCELEROMETER,GURALP" commtype="DIG" lat="36.4514" lon="28.224">
    <comp name="--.HNN">
      <acc value="0.2117608832" flag="0"/>
      <vel value="0.2529826120" flag="0"/>
      <psa03 value="0.8590627928" flag="0"/>
      <psa10 value="0.3565642426" flag="0"/>
      <psa30 value="0.1189202179" flag="0"/>
    </comp>
    <comp name="--.HNZ">
      <acc value="0.1199921719" flag="0"/>
      <vel value="0.1620861353" flag="0"/>
      <psa03 value="0.3696634174" flag="0"/>
      <psa10 value="0.3530773533" flag="0"/>
      <psa30 value="0.0500748901" flag="0"/>
    </comp>
    <comp name="--.HNE">
      <acc value="0.2085486734" flag="0"/>
      <vel value="0.2008881485" flag="0"/>
      <psa03 value="0.5735555880" flag="0"/>
      <psa10 value="0.4495374381" flag="0"/>
      <psa30 value="0.0773327386" flag="0"/>
    </comp>
  </station>
  <station code="RKL1" name="RKL1" netid="HI" insttype="unknown" commtype="DIG" lat="36.3367" lon="28.1712">
    <comp name="--.HNE">
      <acc value="0.4538180627" flag="0"/>
      <vel value="0.3659494141" flag="0"/>
      <psa03 value="1.1136923029" flag="0"/>
      <psa10 value="0.7933631322" flag="0"/>
      <psa30 value="0.0396762685" flag="0"/>
    </comp>
    <comp name="--.HNZ">
      <acc value="0.2303351101" flag="0"/>
      <vel value="0.2058891276" flag="0"/>
      <psa03 value="0.7466520852" flag="0"/>
      <psa10 value="0.2693817949" flag="0"/>
      <psa30 value="0.0315646957" flag="0"/>
    </comp>
    <comp name="--.HNN">
      <acc value="0.3188643247" flag="0"/>
      <vel value="0.4950560936" flag="0"/>
      <psa03 value="0.7963415104" flag="0"/>
      <psa10 value="0.5417328643" flag="0"/>
      <psa30 value="0.0680591240" flag="0"/>
    </comp>
  </station>
  <station code="RKT1" name="RKT1" netid="HI" insttype="unknown" commtype="DIG" lat="35.9543" lon="27.7673">
    <comp name="--.HNN">
      <acc value="0.5851566612" flag="0"/>
      <vel value="0.3659344241" flag="0"/>
      <psa03 value="1.4880787879" flag="0"/>
      <psa10 value="0.4201147123" flag="0"/>
      <psa30 value="0.0405511231" flag="0"/>
    </comp>
    <comp name="--.HNE">
      <acc value="0.5957848961" flag="0"/>
      <vel value="0.3672614834" flag="0"/>
      <psa03 value="2.2297540402" flag="0"/>
      <psa10 value="0.4268295961" flag="0"/>
      <psa30 value="0.0581944011" flag="0"/>
    </comp>
    <comp name="--.HNZ">
      <acc value="0.3086628442" flag="0"/>
      <vel value="0.1781832255" flag="0"/>
      <psa03 value="0.6050259908" flag="0"/>
      <psa10 value="0.2988173448" flag="0"/>
      <psa30 value="0.0220015113" flag="0"/>
    </comp>
  </station>
  <station code="RLN1" name="RLN1" netid="HI" insttype="unknown" commtype="DIG" lat="36.0891" lon="28.0869">
    <comp name="--.HNZ">
      <acc value="0.1089142785" flag="0"/>
      <vel value="0.0855137469" flag="0"/>
      <psa03 value="0.3000180118" flag="0"/>
      <psa10 value="0.1447564144" flag="0"/>
      <psa30 value="0.0223530456" flag="0"/>
    </comp>
    <comp name="--.HNN">
      <acc value="0.1519436440" flag="0"/>
      <vel value="0.1336883290" flag="0"/>
      <psa03 value="0.3879212904" flag="0"/>
      <psa10 value="0.3012026578" flag="0"/>
      <psa30 value="0.0331851314" flag="0"/>
    </comp>
    <comp name="--.HNE">
      <acc value="0.1388707755" flag="0"/>
      <vel value="0.1719802975" flag="0"/>
      <psa03 value="0.4007297066" flag="0"/>
      <psa10 value="0.3269579895" flag="0"/>
      <psa30 value="0.0312219005" flag="0"/>
    </comp>
  </station>
  <station code="RPN1" name="RPN1" netid="HI" insttype="unknown" commtype="DIG" lat="36.4487" lon="28.218">
    <comp name="--.HNE">
      <acc value="0.3064783891" flag="0"/>
      <vel value="0.2989869835" flag="0"/>
      <psa03 value="1.0006025066" flag="0"/>
      <psa10 value="0.5420331500" flag="0"/>
      <psa30 value="0.0647404439" flag="0"/>
    </comp>
    <comp name="--.HNZ">
      <acc value="0.1423522749" flag="0"/>
      <vel value="0.0833366587" flag="0"/>
      <psa03 value="0.3571160802" flag="0"/>
      <psa10 value="0.0691773795" flag="0"/>
      <psa30 value="0.0089921263" flag="0"/>
    </comp>
    <comp name="--.HNN">
      <acc value="0.3192649573" flag="0"/>
      <vel value="0.3921951100" flag="0"/>
      <psa03 value="1.3083708833" flag="0"/>
      <psa10 value="0.5156272860" flag="0"/>
      <psa30 value="0.1239369445" flag="0"/>
    </comp>
  </station>
  <station code="SIT2" name="SIT2" netid="HI" insttype="CMG-5TD,ACCELEROMETER,GURALP" commtype="DIG" lat="35.2059" lon="26.107">
    <comp name="--.HNN">
      <acc value="0.2479005466" flag="0"/>
      <vel value="0.1845353914" flag="0"/>
      <psa03 value="0.7348613374" flag="0"/>
      <psa10 value="0.1807278157" flag="0"/>
      <psa30 value="0.0120543052" flag="0"/>
    </comp>
    <comp name="--.HNZ">
      <acc value="0.1331760118" flag="0"/>
      <vel value="0.0711568381" flag="0"/>
      <psa03 value="0.3412231734" flag="0"/>
      <psa10 value="0.0618755853" flag="0"/>
      <psa30 value="0.0121293009" flag="0"/>
    </comp>
    <comp name="--.HNE">
      <acc value="0.2629084779" flag="0"/>
      <vel value="0.2103001228" flag="0"/>
      <psa03 value="0.6964493401" flag="0"/>
      <psa10 value="0.2187746531" flag="0"/>
      <psa30 value="0.0169642785" flag="0"/>
    </comp>
  </station>
  <station code="ARG" name="ARG" netid="HL" insttype="LE3D20_DR24" commtype="DIG" lat="36.2136" lon="28.1212">
    <comp name="--.HHZ">
      <acc value="0.1514619649" flag="0"/>
      <vel value="0.1129148378" flag="0"/>
      <psa03 value="0.4036670203" flag="0"/>
      <psa10 value="0.2646605879" flag="0"/>
      <psa30 value="0.0247566632" flag="0"/>
    </comp>
    <comp name="--.HHN">
      <acc value="0.1752914816" flag="0"/>
      <vel value="0.2076050812" flag="0"/>
      <psa03 value="0.4554002672" flag="0"/>
      <psa10 value="0.4327108650" flag="0"/>
      <psa30 value="0.0408288152" flag="0"/>
    </comp>
    <comp name="--.HHE">
      <acc value="0.2053249930" flag="0"/>
      <vel value="0.1620857480" flag="0"/>
      <psa03 value="0.7099089980" flag="0"/>
      <psa10 value="0.2677800335" flag="0"/>
      <psa30 value="0.0295926994" flag="0"/>
    </comp>
  </station>
  <station code="ASTA" name="ASTA" netid="HL" insttype="LE3D20_SMART24" commtype="DIG" lat="36.5475" lon="26.3471">
    <comp name="--.HHE">
      <acc value="0.0617155276" flag="0"/>
      <vel value="0.0387257621" flag="0"/>
      <psa03 value="0.2025861730" flag="0"/>
      <psa10 value="0.0768661833" flag="0"/>
      <psa30 value="0.0089692241" flag="0"/>
    </comp>
    <comp name="--.HHN">
      <acc value="0.0689491854" flag="0"/>
      <vel value="0.0491537916" flag="0"/>
      <psa03 value="0.1199173464" flag="0"/>
      <psa10 value="0.0703690515" flag="0"/>
      <psa30 value="0.0108367756" flag="0"/>
    </comp>
    <comp name="--.HHZ">
      <acc value="0.0334816471" flag="0"/>
      <vel value="0.0363871227" flag="0"/>
      <psa03 value="0.0701466192" flag="0"/>
      <psa10 value="0.0477936654" flag="0"/>
      <psa30 value="0.0087433158" flag="0"/>
    </comp>
  </station>
  <station code="KARP" name="KARP" netid="HL" insttype="DC" commtype="DIG" lat="35.5471" lon="27.1611">
    <comp name="--.HNZ">
      <acc value="2.3709738874" flag="0"/>
      <vel value="1.1419382051" flag="0"/>
      <psa03 value="4.9817389292" flag="0"/>
      <psa10 value="1.2945886599" flag="0"/>
      <psa30 value="0.0719601206" flag="0"/>
    </comp>
    <comp name="--.HNE">
      <acc value="4.2634172039" flag="0"/>
      <vel value="1.7521875744" flag="0"/>
      <psa03 value="2.4325344233" flag="0"/>
      <psa10 value="2.7641374968" flag="0"/>
      <psa30 value="0.2108839368" flag="0"/>
    </comp>
    <comp name="--.HNN">
      <acc value="3.3928900158" flag="0"/>
      <vel value="1.6052278447" flag="0"/>
      <psa03 value="3.9728341646" flag="0"/>
      <psa10 value="1.9023854835" flag="0"/>
      <psa30 value="0.0897962551" flag="0"/>
    </comp>
  </station>
  <station code="NISR" name="NISR" netid="HL" insttype="65535" commtype="DIG" lat="36.6106" lon="27.131">
    <comp name="--.HHE">
      <acc value="0.0000000000" flag="0"/>
      <vel value="-100.0000000000" flag="0"/>
      <psa03 value="0.0000000000" flag="0"/>
      <psa10 value="0.0000000000" flag="0"/>
      <psa30 value="0.0000000000" flag="0"/>
    </comp>
    <comp name="--.HHN">
      <acc value="0.1088085967" flag="0"/>
      <vel value="0.0972140100" flag="0"/>
      <psa03 value="0.2178203218" flag="0"/>
      <psa10 value="0.1195590133" flag="0"/>
      <psa30 value="0.0365867472" flag="0"/>
    </comp>
    <comp name="--.HHZ">
      <acc value="0.0529736170" flag="0"/>
      <vel value="0.0544452957" flag="0"/>
      <psa03 value="0.0967732835" flag="0"/>
      <psa10 value="0.0992344807" flag="0"/>
      <psa30 value="0.0146400290" flag="0"/>
    </comp>
  </station>
  <station code="NISR2" name="NISR2" netid="HL" insttype="120" commtype="DIG" lat="36.5744" lon="27.1767">
    <comp name="--.HHE">
      <acc value="0.3547535675" flag="0"/>
      <vel value="0.3128920602" flag="0"/>
      <psa03 value="1.3533457691" flag="0"/>
      <psa10 value="0.6396308484" flag="0"/>
      <psa30 value="0.0766002964" flag="0"/>
    </comp>
    <comp name="--.HHZ">
      <acc value="0.1429050434" flag="0"/>
      <vel value="0.0895027045" flag="0"/>
      <psa03 value="0.4908719774" flag="0"/>
      <psa10 value="0.1176751786" flag="0"/>
      <psa30 value="0.0210998196" flag="0"/>
    </comp>
    <comp name="--.HHN">
      <acc value="0.3749232056" flag="0"/>
      <vel value="0.3961221088" flag="0"/>
      <psa03 value="1.2929308960" flag="0"/>
      <psa10 value="0.5155340915" flag="0"/>
      <psa30 value="0.0447835530" flag="0"/>
    </comp>
  </station>
  <station code="DAT" name="DAT" netid="KO" insttype="CMG-3T" commtype="DIG" lat="36.7308" lon="27.5767">
    <comp name="--.HHN">
      <acc value="0.1590005134" flag="0"/>
      <vel value="0.0998789838" flag="0"/>
      <psa03 value="0.4937653385" flag="0"/>
      <psa10 value="0.0998731692" flag="0"/>
      <psa30 value="0.0098998132" flag="0"/>
    </comp>
    <comp name="--.HHE">
      <acc value="0.1121887306" flag="0"/>
      <vel value="0.0674561625" flag="0"/>
      <psa03 value="0.3526475123" flag="0"/>
      <psa10 value="0.0756595808" flag="0"/>
      <psa30 value="0.0112171791" flag="0"/>
    </comp>
    <comp name="--.HHZ">
      <acc value="0.0000277324" flag="0"/>
      <vel value="0.0000035608" flag="0"/>
      <psa03 value="0.0000102717" flag="0"/>
      <psa10 value="0.0000030446" flag="0"/>
      <psa30 value="0.0000006413" flag="0"/>
    </comp>
  </station>
</stationlist>
