<stationlist xmlns:esm="https://esm-db.eu/esmws/shakemap/1/" created="1783417635">
	<station code="GOR1" name="GOR1" netid="HI" source="ITSAK Strong Motion Network" insttype="" lat="35.0582" lon="24.9628" esm:processing="manual (Paolucci et al 2011)" esm:quality="good">
		<comp name="--.HNE" depth="0.0">
			<acc value="0.0234152622452261" flag="0"/>
			<vel value="0.0421331202332147" flag="0"/>
			<psa03 value="0.0552027298265967" flag="0"/>
			<psa10 value="0.0458148162567295" flag="0"/>
			<psa30 value="0.0243571802103167" flag="0"/>
		</comp>
		<comp name="--.HNN" depth="0.0">
			<acc value="0.0237132425666857" flag="0"/>
			<vel value="0.0461975466168379" flag="0"/>
			<psa03 value="0.0430674337352876" flag="0"/>
			<psa10 value="0.0614766712777603" flag="0"/>
			<psa30 value="0.0204090970025138" flag="0"/>
		</comp>
		<comp name="--.HNZ" depth="0.0">
			<acc value="0.0183157407311581" flag="0"/>
			<vel value="0.0330458367751113" flag="0"/>
			<psa03 value="0.0497379928145892" flag="0"/>
			<psa10 value="0.0606617797951988" flag="0"/>
			<psa30 value="0.0140122099068046" flag="0"/>
		</comp>
	</station>
	<station code="HER1" name="HER1" netid="HI" source="ITSAK Strong Motion Network" insttype="" lat="35.317672" lon="25.10217" esm:processing="manual (Paolucci et al 2011)" esm:quality="good">
		<comp name="--.HNE" depth="0.0">
			<acc value="0.0927949126709787" flag="0"/>
			<vel value="0.156503500177455" flag="0"/>
			<psa03 value="0.203157020655575" flag="0"/>
			<psa10 value="0.270493448863474" flag="0"/>
			<psa30 value="0.029249007603207" flag="0"/>
		</comp>
		<comp name="--.HNN" depth="0.0">
			<acc value="0.0974692177903888" flag="0"/>
			<vel value="0.159120635262675" flag="0"/>
			<psa03 value="0.148079059510958" flag="0"/>
			<psa10 value="0.34228763487595" flag="0"/>
			<psa30 value="0.0203961578120226" flag="0"/>
		</comp>
		<comp name="--.HNZ" depth="0.0">
			<acc value="0.0726601735315061" flag="0"/>
			<vel value="0.0806594663765784" flag="0"/>
			<psa03 value="0.122977104962997" flag="0"/>
			<psa10 value="0.117964762086547" flag="0"/>
			<psa30 value="0.00725067948859829" flag="0"/>
		</comp>
	</station>
	<station code="KOS2" name="KOS2" netid="HI" source="ITSAK Strong Motion Network" insttype="" lat="36.8941" lon="27.2888" esm:processing="manual (Paolucci et al 2011)" esm:quality="good">
		<comp name="--.HNE" depth="0.0">
			<acc value="0.0921689337754816" flag="0"/>
			<vel value="0.139581566279363" flag="0"/>
			<psa03 value="0.341718762190926" flag="0"/>
			<psa10 value="0.148368633693827" flag="0"/>
			<psa30 value="0.0790355023808132" flag="0"/>
		</comp>
		<comp name="--.HNN" depth="0.0">
			<acc value="0.127486348588808" flag="0"/>
			<vel value="0.133918454815901" flag="0"/>
			<psa03 value="0.415723164619393" flag="0"/>
			<psa10 value="0.201231385591703" flag="0"/>
			<psa30 value="0.0286456476335702" flag="0"/>
		</comp>
		<comp name="--.HNZ" depth="0.0">
			<acc value="0.0541600811945213" flag="0"/>
			<vel value="0.0648035915130596" flag="0"/>
			<psa03 value="0.110793204089359" flag="0"/>
			<psa10 value="0.119009806315599" flag="0"/>
			<psa30 value="0.0181276608685666" flag="0"/>
		</comp>
	</station>
	<station code="KRL1" name="KRL1" netid="HI" source="ITSAK Strong Motion Network" insttype="" lat="37.7951" lon="26.7065" esm:processing="manual (Paolucci et al 2011)" esm:quality="good">
		<comp name="--.HNE" depth="0.0">
			<acc value="0.0178579785920781" flag="0"/>
			<vel value="0.0314932742570058" flag="0"/>
			<psa03 value="0.0412394506612136" flag="0"/>
			<psa10 value="0.0374162811449963" flag="0"/>
			<psa30 value="0.0142934518710378" flag="0"/>
		</comp>
		<comp name="--.HNN" depth="0.0">
			<acc value="0.0220875238082714" flag="0"/>
			<vel value="0.0414102439018912" flag="0"/>
			<psa03 value="0.0265727837540112" flag="0"/>
			<psa10 value="0.0622673024031921" flag="0"/>
			<psa30 value="0.00483511988629626" flag="0"/>
		</comp>
		<comp name="--.HNZ" depth="0.0">
			<acc value="0.00825913302010647" flag="0"/>
			<vel value="0.0111871673677646" flag="0"/>
			<psa03 value="0.0216573018774609" flag="0"/>
			<psa10 value="0.0252979702413725" flag="0"/>
			<psa30 value="0.00407509037140426" flag="0"/>
		</comp>
	</station>
	<station code="KSS1" name="KSS1" netid="HI" source="ITSAK Strong Motion Network" insttype="" lat="35.4189" lon="26.9207" esm:processing="automatic (Paolucci et al 2011)" esm:quality="best">
		<comp name="--.HNE" depth="0.0">
			<acc value="0.774644535042592" flag="0"/>
			<vel value="0.324558064455288" flag="0"/>
			<psa03 value="2.38287152021035" flag="0"/>
			<psa10 value="0.19380466360782" flag="0"/>
			<psa30 value="0.0467922597575644" flag="0"/>
		</comp>
		<comp name="--.HNN" depth="0.0">
			<acc value="0.940825525679925" flag="0"/>
			<vel value="0.320870160883169" flag="0"/>
			<psa03 value="2.59833946057061" flag="0"/>
			<psa10 value="0.162203675197427" flag="0"/>
			<psa30 value="0.0364328968339452" flag="0"/>
		</comp>
		<comp name="--.HNZ" depth="0.0">
			<acc value="0.526697676388751" flag="0"/>
			<vel value="0.183746247911688" flag="0"/>
			<psa03 value="0.652241416126117" flag="0"/>
			<psa10 value="0.172434652949492" flag="0"/>
			<psa30 value="0.0461627513890578" flag="0"/>
		</comp>
	</station>
	<station code="KTL1" name="KTL1" netid="HI" source="ITSAK Strong Motion Network" insttype="" lat="35.20778" lon="25.34272" esm:processing="manual (Paolucci et al 2011)" esm:quality="good">
		<comp name="--.HNE" depth="0.0">
			<acc value="0.0463067380736364" flag="0"/>
			<vel value="0.0458680786534814" flag="0"/>
			<psa03 value="0.140898552587615" flag="0"/>
			<psa10 value="0.0573247824855042" flag="0"/>
			<psa30 value="0.0182165334226038" flag="0"/>
		</comp>
		<comp name="--.HNN" depth="0.0">
			<acc value="0.0424017038811769" flag="0"/>
			<vel value="0.047323102756667" flag="0"/>
			<psa03 value="0.125164281102682" flag="0"/>
			<psa10 value="0.0613839651364334" flag="0"/>
			<psa30 value="0.015871499742298" flag="0"/>
		</comp>
		<comp name="--.HNZ" depth="0.0">
			<acc value="0.0299862001783076" flag="0"/>
			<vel value="0.0289695305524983" flag="0"/>
			<psa03 value="0.0566229749525328" flag="0"/>
			<psa10 value="0.0278525888473177" flag="0"/>
			<psa30 value="0.00954743580409897" flag="0"/>
		</comp>
	</station>
	<station code="NAX1" name="NAX1" netid="HI" source="ITSAK Strong Motion Network" insttype="" lat="37.101394" lon="25.374103" esm:processing="manual (Paolucci et al 2011)" esm:quality="good">
		<comp name="--.HNE" depth="0.0">
			<acc value="0.0119075648008632" flag="0"/>
			<vel value="0.0175173073027754" flag="0"/>
			<psa03 value="0.0267648120999467" flag="0"/>
			<psa10 value="0.0249262924945459" flag="0"/>
			<psa30 value="0.0067747508773302" flag="0"/>
		</comp>
		<comp name="--.HNN" depth="0.0">
			<acc value="0.0127603143000748" flag="0"/>
			<vel value="0.0168594593205777" flag="0"/>
			<psa03 value="0.0282703180823294" flag="0"/>
			<psa10 value="0.0214122497064572" flag="0"/>
			<psa30 value="0.00426229360603315" flag="0"/>
		</comp>
		<comp name="--.HNZ" depth="0.0">
			<acc value="0.00810612810034517" flag="0"/>
			<vel value="0.0115376457773745" flag="0"/>
			<psa03 value="0.0180102503823648" flag="0"/>
			<psa10 value="0.0172276306209798" flag="0"/>
			<psa30 value="0.00531696597290139" flag="0"/>
		</comp>
	</station>
	<station code="RDI1" name="RDI1" netid="HI" source="ITSAK Strong Motion Network" insttype="" lat="36.4514" lon="28.224" esm:processing="manual (Paolucci et al 2011)" esm:quality="good">
		<comp name="--.HNE" depth="0.0">
			<acc value="0.208261528485363" flag="0"/>
			<vel value="0.21213271217535" flag="0"/>
			<psa03 value="0.568976316888603" flag="0"/>
			<psa10 value="0.449158854569758" flag="0"/>
			<psa30 value="0.0789713647986799" flag="0"/>
		</comp>
		<comp name="--.HNN" depth="0.0">
			<acc value="0.21339160904347" flag="0"/>
			<vel value="0.265394282423052" flag="0"/>
			<psa03 value="0.853333445819509" flag="0"/>
			<psa10 value="0.357913840035352" flag="0"/>
			<psa30 value="0.1215135430092" flag="0"/>
		</comp>
		<comp name="--.HNZ" depth="0.0">
			<acc value="0.119881995047785" flag="0"/>
			<vel value="0.169137497673342" flag="0"/>
			<psa03 value="0.381792291865597" flag="0"/>
			<psa10 value="0.353488456875437" flag="0"/>
			<psa30 value="0.0511123559427347" flag="0"/>
		</comp>
	</station>
	<station code="RKL1" name="RKL1" netid="HI" source="ITSAK Strong Motion Network" insttype="" lat="36.336699" lon="28.171224" esm:processing="manual (Paolucci et al 2011)" esm:quality="good">
		<comp name="--.HNE" depth="0.0">
			<acc value="0.453444995850389" flag="0"/>
			<vel value="0.392288884919066" flag="0"/>
			<psa03 value="1.14240926234031" flag="0"/>
			<psa10 value="0.795280683442243" flag="0"/>
			<psa30 value="0.0399350721692067" flag="0"/>
		</comp>
		<comp name="--.HNN" depth="0.0">
			<acc value="0.319696974064626" flag="0"/>
			<vel value="0.508364996160251" flag="0"/>
			<psa03 value="0.809704722297361" flag="0"/>
			<psa10 value="0.542052328306495" flag="0"/>
			<psa30 value="0.0683930107013034" flag="0"/>
		</comp>
		<comp name="--.HNZ" depth="0.0">
			<acc value="0.230284725874496" flag="0"/>
			<vel value="0.20803524216117" flag="0"/>
			<psa03 value="0.754828086989592" flag="0"/>
			<psa10 value="0.269999136117681" flag="0"/>
			<psa30 value="0.0317292952434239" flag="0"/>
		</comp>
	</station>
	<station code="RKT1" name="RKT1" netid="HI" source="ITSAK Strong Motion Network" insttype="" lat="35.954336" lon="27.767327" esm:processing="manual (Paolucci et al 2011)" esm:quality="good">
		<comp name="--.HNE" depth="0.0">
			<acc value="0.598049991753436" flag="0"/>
			<vel value="0.352779185190971" flag="0"/>
			<psa03 value="2.23062576800979" flag="0"/>
			<psa10 value="0.427934938589486" flag="0"/>
			<psa30 value="0.0603867936620504" flag="0"/>
		</comp>
		<comp name="--.HNN" depth="0.0">
			<acc value="0.585401666246191" flag="0"/>
			<vel value="0.367622957972234" flag="0"/>
			<psa03 value="1.47913615217752" flag="0"/>
			<psa10 value="0.420543558946859" flag="0"/>
			<psa30 value="0.0413840714916338" flag="0"/>
		</comp>
		<comp name="--.HNZ" depth="0.0">
			<acc value="0.305156387881432" flag="0"/>
			<vel value="0.180885138063314" flag="0"/>
			<psa03 value="0.619400782261963" flag="0"/>
			<psa10 value="0.299109314524135" flag="0"/>
			<psa30 value="0.0219682752904233" flag="0"/>
		</comp>
	</station>
	<station code="RLN1" name="RLN1" netid="HI" source="ITSAK Strong Motion Network" insttype="" lat="36.089085" lon="28.086909" esm:processing="automatic (Paolucci et al 2011)" esm:quality="best">
		<comp name="--.HNE" depth="0.0">
			<acc value="0.137887393511315" flag="0"/>
			<vel value="0.160772397064557" flag="0"/>
			<psa03 value="0.397560461429444" flag="0"/>
			<psa10 value="0.325894968942283" flag="0"/>
			<psa30 value="0.0321931793067998" flag="0"/>
		</comp>
		<comp name="--.HNN" depth="0.0">
			<acc value="0.150724560264952" flag="0"/>
			<vel value="0.135352486408662" flag="0"/>
			<psa03 value="0.393692246845879" flag="0"/>
			<psa10 value="0.301332161776856" flag="0"/>
			<psa30 value="0.0334476257410529" flag="0"/>
		</comp>
		<comp name="--.HNZ" depth="0.0">
			<acc value="0.109261144045246" flag="0"/>
			<vel value="0.0830494136459655" flag="0"/>
			<psa03 value="0.30286606339031" flag="0"/>
			<psa10 value="0.144963093093475" flag="0"/>
			<psa30 value="0.0226382163373964" flag="0"/>
		</comp>
	</station>
	<station code="RPN1" name="RPN1" netid="HI" source="ITSAK Strong Motion Network" insttype="" lat="36.448678" lon="28.218047" esm:processing="manual (Paolucci et al 2011)" esm:quality="good">
		<comp name="--.HNE" depth="0.0">
			<acc value="0.306597062709537" flag="0"/>
			<vel value="0.293031575794296" flag="0"/>
			<psa03 value="1.00036360251247" flag="0"/>
			<psa10 value="0.540870009983709" flag="0"/>
			<psa30 value="0.0661738170239469" flag="0"/>
		</comp>
		<comp name="--.HNN" depth="0.0">
			<acc value="0.319405029418189" flag="0"/>
			<vel value="0.411955757993437" flag="0"/>
			<psa03 value="1.32978292492587" flag="0"/>
			<psa10 value="0.517187701146975" flag="0"/>
			<psa30 value="0.124253364508928" flag="0"/>
		</comp>
		<comp name="--.HNZ" depth="0.0">
			<acc value="0.147563556737094" flag="0"/>
			<vel value="0.18627586373154" flag="0"/>
			<psa03 value="0.597022674822172" flag="0"/>
			<psa10 value="0.32204214371152" flag="0"/>
			<psa30 value="0.0456233923258336" flag="0"/>
		</comp>
	</station>
	<station code="SFR2" name="SFR2" netid="HI" source="ITSAK Strong Motion Network" insttype="" lat="36.399841" lon="25.438209" esm:processing="automatic (Paolucci et al 2011)" esm:quality="best">
		<comp name="--.HNE" depth="0.0">
			<acc value="0.0869389006412546" flag="0"/>
			<vel value="0.147219672138084" flag="0"/>
			<psa03 value="0.246412656962526" flag="0"/>
			<psa10 value="0.192459719511874" flag="0"/>
			<psa30 value="0.0419668734327355" flag="0"/>
		</comp>
		<comp name="--.HNN" depth="0.0">
			<acc value="0.0792775367170874" flag="0"/>
			<vel value="0.0908907809684288" flag="0"/>
			<psa03 value="0.185694259666696" flag="0"/>
			<psa10 value="0.164681944370597" flag="0"/>
			<psa30 value="0.0209171956615563" flag="0"/>
		</comp>
		<comp name="--.HNZ" depth="0.0">
			<acc value="0.0929130206873309" flag="0"/>
			<vel value="0.0650909973719541" flag="0"/>
			<psa03 value="0.241455703588693" flag="0"/>
			<psa10 value="0.0763301489977621" flag="0"/>
			<psa30 value="0.00855377914588864" flag="0"/>
		</comp>
	</station>
	<station code="SIT2" name="SIT2" netid="HI" source="ITSAK Strong Motion Network" insttype="" lat="35.2059" lon="26.107" esm:processing="manual (Paolucci et al 2011)" esm:quality="good">
		<comp name="--.HNE" depth="0.0">
			<acc value="0.262812517796855" flag="0"/>
			<vel value="0.208482469607135" flag="0"/>
			<psa03 value="0.695066836433369" flag="0"/>
			<psa10 value="0.219248524138708" flag="0"/>
			<psa30 value="0.0170201124989227" flag="0"/>
		</comp>
		<comp name="--.HNN" depth="0.0">
			<acc value="0.247075584632332" flag="0"/>
			<vel value="0.188398944400951" flag="0"/>
			<psa03 value="0.72872577450616" flag="0"/>
			<psa10 value="0.180436468030471" flag="0"/>
			<psa30 value="0.0122000765285285" flag="0"/>
		</comp>
		<comp name="--.HNZ" depth="0.0">
			<acc value="0.13297797217217" flag="0"/>
			<vel value="0.0745758799016954" flag="0"/>
			<psa03 value="0.345434299993738" flag="0"/>
			<psa10 value="0.0618115534620615" flag="0"/>
			<psa30 value="0.0121673676950621" flag="0"/>
		</comp>
	</station>
	<station code="AGNA" name="AGNA" netid="HL" source="National Observatory of Athens Seismic Network" insttype="" lat="35.1895" lon="25.71853" esm:processing="automatic (Paolucci et al 2011)" esm:quality="best">
		<comp name="00.HNE" depth="0.0">
			<acc value="0.0585888467644093" flag="0"/>
			<vel value="0.0672121190556861" flag="0"/>
			<psa03 value="0.117527348110018" flag="0"/>
			<psa10 value="0.122189709468576" flag="0"/>
			<psa30 value="0.0158242116096913" flag="0"/>
		</comp>
		<comp name="00.HNN" depth="0.0">
			<acc value="0.046123256172458" flag="0"/>
			<vel value="0.0520500487539381" flag="0"/>
			<psa03 value="0.12164133939175" flag="0"/>
			<psa10 value="0.092733825660836" flag="0"/>
			<psa30 value="0.0148692550151702" flag="0"/>
		</comp>
		<comp name="00.HNZ" depth="0.0">
			<acc value="0.0372649605112661" flag="0"/>
			<vel value="0.0338767311399972" flag="0"/>
			<psa03 value="0.100456613090935" flag="0"/>
			<psa10 value="0.0242273099403821" flag="0"/>
			<psa30 value="0.0234459248441209" flag="0"/>
		</comp>
	</station>
	<station code="AMGA" name="AMGA" netid="HL" source="National Observatory of Athens Seismic Network" insttype="" lat="36.831561" lon="25.893836" esm:processing="automatic (Paolucci et al 2011)" esm:quality="best">
		<comp name="00.HNE" depth="0.0">
			<acc value="0.0463392910038267" flag="0"/>
			<vel value="0.0541207904562996" flag="0"/>
			<psa03 value="0.114101777432772" flag="0"/>
			<psa10 value="0.0688848182811419" flag="0"/>
			<psa30 value="0.0187640313583217" flag="0"/>
		</comp>
		<comp name="00.HNN" depth="0.0">
			<acc value="0.0453981325836178" flag="0"/>
			<vel value="0.0486419799709464" flag="0"/>
			<psa03 value="0.10116281612342" flag="0"/>
			<psa10 value="0.0775074419876449" flag="0"/>
			<psa30 value="0.0111171372891187" flag="0"/>
		</comp>
		<comp name="00.HNZ" depth="0.0">
			<acc value="0.0210053688913221" flag="0"/>
			<vel value="0.0308445053457604" flag="0"/>
			<psa03 value="0.0626114029064951" flag="0"/>
			<psa10 value="0.036789655884148" flag="0"/>
			<psa30 value="0.00970419118837386" flag="0"/>
		</comp>
	</station>
	<station code="ASTA" name="ASTA" netid="HL" source="National Observatory of Athens Seismic Network" insttype="" lat="36.54552" lon="26.35295" esm:processing="automatic (Paolucci et al 2011)" esm:quality="best">
		<comp name="00.HNE" depth="0.0">
			<acc value="0.0574200296519113" flag="0"/>
			<vel value="0.0537598941021056" flag="0"/>
			<psa03 value="0.119491030277658" flag="0"/>
			<psa10 value="0.0497974188346047" flag="0"/>
			<psa30 value="0.00843229276467878" flag="0"/>
		</comp>
		<comp name="00.HNN" depth="0.0">
			<acc value="0.0378722997476526" flag="0"/>
			<vel value="0.0445474719582693" flag="0"/>
			<psa03 value="0.07048559640817" flag="0"/>
			<psa10 value="0.0548130648465375" flag="0"/>
			<psa30 value="0.013123705214396" flag="0"/>
		</comp>
		<comp name="00.HNZ" depth="0.0">
			<acc value="0.0363547306860748" flag="0"/>
			<vel value="0.0397221291430718" flag="0"/>
			<psa03 value="0.0788966848514999" flag="0"/>
			<psa10 value="0.045436164922937" flag="0"/>
			<psa30 value="0.00899000804391223" flag="0"/>
		</comp>
	</station>
	<station code="HERG" name="HERG" netid="HL" source="National Observatory of Athens Seismic Network" insttype="" lat="35.32622" lon="25.06586" esm:processing="manual (Paolucci et al 2011)" esm:quality="good">
		<comp name="00.HNE" depth="0.0">
			<acc value="0.070599946942542" flag="0"/>
			<vel value="0.121125639273259" flag="0"/>
			<psa03 value="0.144380262400469" flag="0"/>
			<psa10 value="0.227587921582861" flag="0"/>
			<psa30 value="0.0245952809833244" flag="0"/>
		</comp>
		<comp name="00.HNN" depth="0.0">
			<acc value="0.0717608578932337" flag="0"/>
			<vel value="0.126736297201489" flag="0"/>
			<psa03 value="0.141461496129862" flag="0"/>
			<psa10 value="0.153288299597548" flag="0"/>
			<psa30 value="0.029055971482178" flag="0"/>
		</comp>
		<comp name="00.HNZ" depth="0.0">
			<acc value="0.0533866018741478" flag="0"/>
			<vel value="0.0515056105519946" flag="0"/>
			<psa03 value="0.118570490129724" flag="0"/>
			<psa10 value="0.0926134501865516" flag="0"/>
			<psa30 value="0.00621111103895711" flag="0"/>
		</comp>
	</station>
	<station code="KARP" name="KARP" netid="HL" source="National Observatory of Athens Seismic Network" insttype="" lat="35.5471" lon="27.16106" esm:processing="manual (Paolucci et al 2011)" esm:quality="good">
		<comp name="--.HNE" depth="0.0">
			<acc value="4.26430930774463" flag="0"/>
			<vel value="1.81933877320798" flag="0"/>
			<psa03 value="2.4637150423636" flag="0"/>
			<psa10 value="2.76541183496213" flag="0"/>
			<psa30 value="0.208050608998453" flag="0"/>
		</comp>
		<comp name="--.HNN" depth="0.0">
			<acc value="3.36401537622791" flag="0"/>
			<vel value="1.61613840519786" flag="0"/>
			<psa03 value="4.08877186106914" flag="0"/>
			<psa10 value="1.90496155435391" flag="0"/>
			<psa30 value="0.0894618864109185" flag="0"/>
		</comp>
		<comp name="--.HNZ" depth="0.0">
			<acc value="2.29871657638571" flag="0"/>
			<vel value="1.14851570720551" flag="0"/>
			<psa03 value="5.04942483294722" flag="0"/>
			<psa10 value="1.29707016453271" flag="0"/>
			<psa30 value="0.0722012696464353" flag="0"/>
		</comp>
	</station>
