<stationlist xmlns:esm="https://esm-db.eu/esmws/shakemap/1/" created="1782993223">
	<station code="KSS1" name="KSS1" netid="HI" source="ITSAK Strong Motion Network" insttype="" lat="35.4189" lon="26.9207" esm:processing="automatic (Paolucci et al 2011)" esm:quality="best">
		<comp name="--.HNE" depth="0.0">
			<acc value="0.774644535042592" flag="0"/>
			<vel value="0.324558064455288" flag="0"/>
			<psa03 value="2.38287152021035" flag="0"/>
			<psa10 value="0.19380466360782" flag="0"/>
			<psa30 value="0.0467922597575644" flag="0"/>
		</comp>
		<comp name="--.HNN" depth="0.0">
			<acc value="0.940825525679925" flag="0"/>
			<vel value="0.320870160883169" flag="0"/>
			<psa03 value="2.59833946057061" flag="0"/>
			<psa10 value="0.162203675197427" flag="0"/>
			<psa30 value="0.0364328968339452" flag="0"/>
		</comp>
		<comp name="--.HNZ" depth="0.0">
			<acc value="0.526697676388751" flag="0"/>
			<vel value="0.183746247911688" flag="0"/>
			<psa03 value="0.652241416126117" flag="0"/>
			<psa10 value="0.172434652949492" flag="0"/>
			<psa30 value="0.0461627513890578" flag="0"/>
		</comp>
	</station>
	<station code="RLN1" name="RLN1" netid="HI" source="ITSAK Strong Motion Network" insttype="" lat="36.089085" lon="28.086909" esm:processing="automatic (Paolucci et al 2011)" esm:quality="best">
		<comp name="--.HNE" depth="0.0">
			<acc value="0.137887393511315" flag="0"/>
			<vel value="0.160772397064557" flag="0"/>
			<psa03 value="0.397560461429444" flag="0"/>
			<psa10 value="0.325894968942283" flag="0"/>
			<psa30 value="0.0321931793067998" flag="0"/>
		</comp>
		<comp name="--.HNN" depth="0.0">
			<acc value="0.150724560264952" flag="0"/>
			<vel value="0.135352486408662" flag="0"/>
			<psa03 value="0.393692246845879" flag="0"/>
			<psa10 value="0.301332161776856" flag="0"/>
			<psa30 value="0.0334476257410529" flag="0"/>
		</comp>
		<comp name="--.HNZ" depth="0.0">
			<acc value="0.109261144045246" flag="0"/>
			<vel value="0.0830494136459655" flag="0"/>
			<psa03 value="0.30286606339031" flag="0"/>
			<psa10 value="0.144963093093475" flag="0"/>
			<psa30 value="0.0226382163373964" flag="0"/>
		</comp>
	</station>
	<station code="SFR2" name="SFR2" netid="HI" source="ITSAK Strong Motion Network" insttype="" lat="36.399841" lon="25.438209" esm:processing="automatic (Paolucci et al 2011)" esm:quality="best">
		<comp name="--.HNE" depth="0.0">
			<acc value="0.0869389006412546" flag="0"/>
			<vel value="0.147219672138084" flag="0"/>
			<psa03 value="0.246412656962526" flag="0"/>
			<psa10 value="0.192459719511874" flag="0"/>
			<psa30 value="0.0419668734327355" flag="0"/>
		</comp>
		<comp name="--.HNN" depth="0.0">
			<acc value="0.0792775367170874" flag="0"/>
			<vel value="0.0908907809684288" flag="0"/>
			<psa03 value="0.185694259666696" flag="0"/>
			<psa10 value="0.164681944370597" flag="0"/>
			<psa30 value="0.0209171956615563" flag="0"/>
		</comp>
		<comp name="--.HNZ" depth="0.0">
			<acc value="0.0929130206873309" flag="0"/>
			<vel value="0.0650909973719541" flag="0"/>
			<psa03 value="0.241455703588693" flag="0"/>
			<psa10 value="0.0763301489977621" flag="0"/>
			<psa30 value="0.00855377914588864" flag="0"/>
		</comp>
	</station>
	<station code="AGNA" name="AGNA" netid="HL" source="National Observatory of Athens Seismic Network" insttype="" lat="35.1895" lon="25.71853" esm:processing="automatic (Paolucci et al 2011)" esm:quality="best">
		<comp name="00.HNE" depth="0.0">
			<acc value="0.0585888467644093" flag="0"/>
			<vel value="0.0672121190556861" flag="0"/>
			<psa03 value="0.117527348110018" flag="0"/>
			<psa10 value="0.122189709468576" flag="0"/>
			<psa30 value="0.0158242116096913" flag="0"/>
		</comp>
		<comp name="00.HNN" depth="0.0">
			<acc value="0.046123256172458" flag="0"/>
			<vel value="0.0520500487539381" flag="0"/>
			<psa03 value="0.12164133939175" flag="0"/>
			<psa10 value="0.092733825660836" flag="0"/>
			<psa30 value="0.0148692550151702" flag="0"/>
		</comp>
		<comp name="00.HNZ" depth="0.0">
			<acc value="0.0372649605112661" flag="0"/>
			<vel value="0.0338767311399972" flag="0"/>
			<psa03 value="0.100456613090935" flag="0"/>
			<psa10 value="0.0242273099403821" flag="0"/>
			<psa30 value="0.0234459248441209" flag="0"/>
		</comp>
	</station>
	<station code="AMGA" name="AMGA" netid="HL" source="National Observatory of Athens Seismic Network" insttype="" lat="36.831561" lon="25.893836" esm:processing="automatic (Paolucci et al 2011)" esm:quality="best">
		<comp name="00.HNE" depth="0.0">
			<acc value="0.0463392910038267" flag="0"/>
			<vel value="0.0541207904562996" flag="0"/>
			<psa03 value="0.114101777432772" flag="0"/>
			<psa10 value="0.0688848182811419" flag="0"/>
			<psa30 value="0.0187640313583217" flag="0"/>
		</comp>
		<comp name="00.HNN" depth="0.0">
			<acc value="0.0453981325836178" flag="0"/>
			<vel value="0.0486419799709464" flag="0"/>
			<psa03 value="0.10116281612342" flag="0"/>
			<psa10 value="0.0775074419876449" flag="0"/>
			<psa30 value="0.0111171372891187" flag="0"/>
		</comp>
		<comp name="00.HNZ" depth="0.0">
			<acc value="0.0210053688913221" flag="0"/>
			<vel value="0.0308445053457604" flag="0"/>
			<psa03 value="0.0626114029064951" flag="0"/>
			<psa10 value="0.036789655884148" flag="0"/>
			<psa30 value="0.00970419118837386" flag="0"/>
		</comp>
	</station>
	<station code="ASTA" name="ASTA" netid="HL" source="National Observatory of Athens Seismic Network" insttype="" lat="36.54552" lon="26.35295" esm:processing="automatic (Paolucci et al 2011)" esm:quality="best">
		<comp name="00.HNE" depth="0.0">
			<acc value="0.0574200296519113" flag="0"/>
			<vel value="0.0537598941021056" flag="0"/>
			<psa03 value="0.119491030277658" flag="0"/>
			<psa10 value="0.0497974188346047" flag="0"/>
			<psa30 value="0.00843229276467878" flag="0"/>
		</comp>
		<comp name="00.HNN" depth="0.0">
			<acc value="0.0378722997476526" flag="0"/>
			<vel value="0.0445474719582693" flag="0"/>
			<psa03 value="0.07048559640817" flag="0"/>
			<psa10 value="0.0548130648465375" flag="0"/>
			<psa30 value="0.013123705214396" flag="0"/>
		</comp>
		<comp name="00.HNZ" depth="0.0">
			<acc value="0.0363547306860748" flag="0"/>
			<vel value="0.0397221291430718" flag="0"/>
			<psa03 value="0.0788966848514999" flag="0"/>
			<psa10 value="0.045436164922937" flag="0"/>
			<psa30 value="0.00899000804391223" flag="0"/>
		</comp>
	</station>
	<station code="KLNA" name="KLNA" netid="HL" source="National Observatory of Athens Seismic Network" insttype="" lat="36.95708" lon="26.97274" esm:processing="automatic (Paolucci et al 2011)" esm:quality="best">
		<comp name="00.HNE" depth="0.0">
			<acc value="0.0433087603012448" flag="0"/>
			<vel value="0.0305903519645462" flag="0"/>
			<psa03 value="0.151398571078975" flag="0"/>
			<psa10 value="0.0326846151953489" flag="0"/>
			<psa30 value="0.0120863739962937" flag="0"/>
		</comp>
		<comp name="00.HNN" depth="0.0">
			<acc value="0.0308330878097542" flag="0"/>
			<vel value="0.0211253201434032" flag="0"/>
			<psa03 value="0.106284624168067" flag="0"/>
			<psa10 value="0.0140985752114155" flag="0"/>
			<psa30 value="0.00556623331897306" flag="0"/>
		</comp>
		<comp name="00.HNZ" depth="0.0">
			<acc value="0.0305880587432069" flag="0"/>
			<vel value="0.0147341925168096" flag="0"/>
			<psa03 value="0.0470582996730698" flag="0"/>
			<psa10 value="0.0145370298818856" flag="0"/>
			<psa30 value="0.00458380657135586" flag="0"/>
		</comp>
	</station>
	<station code="SIVA" name="SIVA" netid="HL" source="National Observatory of Athens Seismic Network" insttype="" lat="35.01777" lon="24.81204" esm:processing="automatic (Paolucci et al 2011)" esm:quality="best">
		<comp name="00.HNE" depth="0.0">
			<acc value="0.0219805277221811" flag="0"/>
			<vel value="0.0319603733545877" flag="0"/>
			<psa03 value="0.0521649035855171" flag="0"/>
			<psa10 value="0.0383884280449573" flag="0"/>
			<psa30 value="0.0122256382218652" flag="0"/>
		</comp>
		<comp name="00.HNN" depth="0.0">
			<acc value="0.0268504155752284" flag="0"/>
			<vel value="0.0362827349874369" flag="0"/>
			<psa03 value="0.0453104651376098" flag="0"/>
			<psa10 value="0.0450642565358316" flag="0"/>
			<psa30 value="0.0086448335111268" flag="0"/>
		</comp>
		<comp name="00.HNZ" depth="0.0">
			<acc value="0.0160088661084745" flag="0"/>
			<vel value="0.0201578195448228" flag="0"/>
			<psa03 value="0.0325558545822569" flag="0"/>
			<psa10 value="0.0286129517176262" flag="0"/>
			<psa30 value="0.00649257760140217" flag="0"/>
		</comp>
	</station>
	<station code="YKAV" name="YKAV" netid="KO" source="Bogazici University Kandilli Observatory And Earthquake Research Institute (KOERI)" insttype="" lat="37.1246" lon="27.2801" esm:processing="automatic (Paolucci et al 2011)" esm:quality="best">
		<comp name="--.HNE" depth="0.0">
			<acc value="0.0288848532268964" flag="0"/>
			<vel value="0.0328471249567227" flag="0"/>
			<psa03 value="0.0805162921425343" flag="0"/>
			<psa10 value="0.0438233330807428" flag="0"/>
			<psa30 value="0.00611029394365266" flag="0"/>
		</comp>
		<comp name="--.HNN" depth="0.0">
			<acc value="0.0169361781342672" flag="0"/>
			<vel value="0.019221988666803" flag="0"/>
			<psa03 value="0.0626312531798116" flag="0"/>
			<psa10 value="0.0284522366960448" flag="0"/>
			<psa30 value="0.00727786712297897" flag="0"/>
		</comp>
		<comp name="--.HNZ" depth="0.0">
			<acc value="0.0186665693743943" flag="0"/>
			<vel value="0.0197622016193848" flag="0"/>
			<psa03 value="0.0593372380924782" flag="0"/>
			<psa10 value="0.0297183449445025" flag="0"/>
			<psa30 value="0.0066567805623758" flag="0"/>
		</comp>
	</station>
</stationlist>
