<stationlist created="1778550973">
	<station code="4802" name="4802" netid="TK" source="Turkish National Strong Motion Network (TNSMN)" insttype="" lat="37.03304" lon="27.43997">
		<comp name="00.HNE" depth="None">
			<acc value="0.1717645459078" flag="0"/>
			<vel value="0.0519299002765216" flag="0"/>
			<psa03 value="0.166485750826589" flag="0"/>
			<psa10 value="0.0128817287074666" flag="0"/>
			<psa30 value="0.000758380402179706" flag="0"/>
		</comp>
		<comp name="00.HNN" depth="None">
			<acc value="0.135408794645785" flag="0"/>
			<vel value="0.0424032847500329" flag="0"/>
			<psa03 value="0.191183448879875" flag="0"/>
			<psa10 value="0.0236614685480068" flag="0"/>
			<psa30 value="0.00179013568679705" flag="0"/>
		</comp>
		<comp name="00.HNZ" depth="None">
			<acc value="0.0699355669071914" flag="0"/>
			<vel value="0.0140666433363614" flag="0"/>
			<psa03 value="0.0810728783923084" flag="0"/>
			<psa10 value="0.0084965450368098" flag="0"/>
			<psa30 value="0.000546749764875281" flag="0"/>
		</comp>
	</station>
</stationlist>
