<?xml version="1.0" encoding="UTF-8" standalone="yes"?>
<!DOCTYPE earthquake SYSTEM "stationlist.dtd">
<stationlist created="" xmlns="ch.ethz.sed.shakemap.usgs.xml">
  <station code="GVD" name="GVD" netid="GE" insttype="STS-2/N" lat="34.8391" lon="24.0874">
    <comp name="--.HHZ">
      <acc value="0.0137263444" flag="0"/>
      <vel value="0.0051461293" flag="0"/>
      <psa03 value="0.0281992436" flag="0"/>
      <psa10 value="0.0053724905" flag="0"/>
      <psa30 value="0.0004590264" flag="0"/>
    </comp>
    <comp name="--.HHE">
      <acc value="0.0226635397" flag="0"/>
      <vel value="0.0139442113" flag="0"/>
      <psa03 value="0.0594532722" flag="0"/>
      <psa10 value="0.0143785912" flag="0"/>
      <psa30 value="0.0006743771" flag="0"/>
    </comp>
    <comp name="--.HHN">
      <acc value="0.0201937684" flag="0"/>
      <vel value="0.0136987380" flag="0"/>
      <psa03 value="0.0666868347" flag="0"/>
      <psa10 value="0.0127484406" flag="0"/>
      <psa30 value="0.0007389381" flag="0"/>
    </comp>
  </station>
  <station code="ZKR" name="ZKR" netid="GE" insttype="STS-2/N" lat="35.1147" lon="26.2169">
    <comp name="--.HHE">
      <acc value="0.0512976769" flag="0"/>
      <vel value="0.0352620359" flag="0"/>
      <psa03 value="0.1440198998" flag="0"/>
      <psa10 value="0.0392459852" flag="0"/>
      <psa30 value="0.0026109939" flag="0"/>
    </comp>
    <comp name="--.HHZ">
      <acc value="0.0232689661" flag="0"/>
      <vel value="0.0243220087" flag="0"/>
      <psa03 value="0.0448822361" flag="0"/>
      <psa10 value="0.0220422074" flag="0"/>
      <psa30 value="0.0020099960" flag="0"/>
    </comp>
    <comp name="--.HHN">
      <acc value="0.0187363208" flag="0"/>
      <vel value="0.0155239650" flag="0"/>
      <psa03 value="0.0565748976" flag="0"/>
      <psa10 value="0.0180415583" flag="0"/>
      <psa30 value="0.0017703266" flag="0"/>
    </comp>
  </station>
  <station code="SIT2" name="SIT2" netid="HI" insttype="CMG-5TD,ACCELEROMETER,GURALP" lat="35.2059" lon="26.107">
    <comp name="--.HNZ">
      <acc value="0.0544503269" flag="0"/>
      <vel value="0.0313309478" flag="0"/>
      <psa03 value="0.1953211132" flag="0"/>
      <psa10 value="0.0182553091" flag="0"/>
      <psa30 value="0.0013955679" flag="0"/>
    </comp>
    <comp name="--.HNN">
      <acc value="0.1534582025" flag="0"/>
      <vel value="0.0891454538" flag="0"/>
      <psa03 value="0.5344849877" flag="0"/>
      <psa10 value="0.0674476605" flag="0"/>
      <psa30 value="0.0038079102" flag="0"/>
    </comp>
    <comp name="--.HNE">
      <acc value="0.1449231505" flag="0"/>
      <vel value="0.0949057294" flag="0"/>
      <psa03 value="0.5173181099" flag="0"/>
      <psa10 value="0.0641028301" flag="0"/>
      <psa30 value="0.0038056873" flag="0"/>
    </comp>
  </station>
  <station code="GVD" name="GVD" netid="HL" insttype="120" lat="34.8391" lon="24.0874">
    <comp name="--.HHE">
      <acc value="0.0221219156" flag="0"/>
      <vel value="0.0136458312" flag="0"/>
      <psa03 value="0.0578220416" flag="0"/>
      <psa10 value="0.0142649901" flag="0"/>
      <psa30 value="0.0006713416" flag="0"/>
    </comp>
    <comp name="--.HHN">
      <acc value="0.0198023508" flag="0"/>
      <vel value="0.0134199458" flag="0"/>
      <psa03 value="0.0649226497" flag="0"/>
      <psa10 value="0.0126363017" flag="0"/>
      <psa30 value="0.0007300891" flag="0"/>
    </comp>
    <comp name="--.HHZ">
      <acc value="0.0133998878" flag="0"/>
      <vel value="0.0050141230" flag="0"/>
      <psa03 value="0.0273527005" flag="0"/>
      <psa10 value="0.0053255402" flag="0"/>
      <psa30 value="0.0004577543" flag="0"/>
    </comp>
  </station>
  <station code="IACM" name="IACM" netid="HL" insttype="120" lat="35.3058" lon="25.0709">
    <comp name="--.HHE">
      <acc value="1.5683280472" flag="0"/>
      <vel value="0.1785945064" flag="0"/>
      <psa03 value="0.3403945221" flag="0"/>
      <psa10 value="0.2592141874" flag="0"/>
      <psa30 value="0.0085739481" flag="0"/>
    </comp>
    <comp name="--.HHZ">
      <acc value="2.1098003855" flag="0"/>
      <vel value="0.2817020371" flag="0"/>
      <psa03 value="0.3711164913" flag="0"/>
      <psa10 value="0.1126495985" flag="0"/>
      <psa30 value="0.0056628610" flag="0"/>
    </comp>
    <comp name="--.HHN">
      <acc value="2.6128470057" flag="0"/>
      <vel value="0.3038095672" flag="0"/>
      <psa03 value="0.4532269921" flag="0"/>
      <psa10 value="0.1286840901" flag="0"/>
      <psa30 value="0.0057369909" flag="0"/>
    </comp>
  </station>
  <station code="IDI" name="IDI" netid="HL" insttype="120" lat="35.288" lon="24.89">
    <comp name="--.HHZ">
      <acc value="0.0186788597" flag="0"/>
      <vel value="0.0118441907" flag="0"/>
      <psa03 value="0.0758563577" flag="0"/>
      <psa10 value="0.0126572449" flag="0"/>
      <psa30 value="0.0011546026" flag="0"/>
    </comp>
    <comp name="--.HHN">
      <acc value="0.0262913919" flag="0"/>
      <vel value="0.0171539501" flag="0"/>
      <psa03 value="0.0675089937" flag="0"/>
      <psa10 value="0.0151800542" flag="0"/>
      <psa30 value="0.0008573154" flag="0"/>
    </comp>
    <comp name="--.HHE">
      <acc value="0.0145594848" flag="0"/>
      <vel value="0.0092599657" flag="0"/>
      <psa03 value="0.0572500898" flag="0"/>
      <psa10 value="0.0107969961" flag="0"/>
      <psa30 value="0.0012636823" flag="0"/>
    </comp>
  </station>
  <station code="NPS" name="NPS" netid="HL" insttype="CMG3ESPC-120s" lat="35.2613" lon="25.6104">
    <comp name="--.HHZ">
      <acc value="0.0165997168" flag="0"/>
      <vel value="0.0075317429" flag="0"/>
      <psa03 value="0.0503772579" flag="0"/>
      <psa10 value="0.0083299230" flag="0"/>
      <psa30 value="0.0008607999" flag="0"/>
    </comp>
    <comp name="--.HHE">
      <acc value="0.0102437310" flag="0"/>
      <vel value="0.0072215930" flag="0"/>
      <psa03 value="0.0334406672" flag="0"/>
      <psa10 value="0.0109981252" flag="0"/>
      <psa30 value="0.0006320613" flag="0"/>
    </comp>
    <comp name="--.HHN">
      <acc value="0.0225058688" flag="0"/>
      <vel value="0.0154597227" flag="0"/>
      <psa03 value="0.0713644449" flag="0"/>
      <psa10 value="0.0215345603" flag="0"/>
      <psa30 value="0.0010435332" flag="0"/>
    </comp>
  </station>
  <station code="SIVA" name="SIVA" netid="HL" insttype="60" lat="35.0178" lon="24.812">
    <comp name="--.HHZ">
      <acc value="0.0668490088" flag="0"/>
      <vel value="0.0354455986" flag="0"/>
      <psa03 value="0.1548277847" flag="0"/>
      <psa10 value="0.0547360459" flag="0"/>
      <psa30 value="0.0022657098" flag="0"/>
    </comp>
    <comp name="--.HHN">
      <acc value="0.1017288126" flag="0"/>
      <vel value="0.0733238069" flag="0"/>
      <psa03 value="0.1959855643" flag="0"/>
      <psa10 value="0.0818057652" flag="0"/>
      <psa30 value="0.0038321772" flag="0"/>
    </comp>
    <comp name="--.HHE">
      <acc value="0.1119712830" flag="0"/>
      <vel value="0.0631073498" flag="0"/>
      <psa03 value="0.3179140321" flag="0"/>
      <psa10 value="0.0765273209" flag="0"/>
      <psa30 value="0.0036153768" flag="0"/>
    </comp>
  </station>
  <station code="ZKR" name="ZKR" netid="HL" insttype="120" lat="35.1147" lon="26.2169">
    <comp name="--.HHN">
      <acc value="0.0181941905" flag="0"/>
      <vel value="0.0153928916" flag="0"/>
      <psa03 value="0.0549628531" flag="0"/>
      <psa10 value="0.0179102294" flag="0"/>
      <psa30 value="0.0017615825" flag="0"/>
    </comp>
    <comp name="--.HHE">
      <acc value="0.0501774949" flag="0"/>
      <vel value="0.0347293995" flag="0"/>
      <psa03 value="0.1407781024" flag="0"/>
      <psa10 value="0.0389429663" flag="0"/>
      <psa30 value="0.0026058611" flag="0"/>
    </comp>
    <comp name="--.HHZ">
      <acc value="0.0229120417" flag="0"/>
      <vel value="0.0240033914" flag="0"/>
      <psa03 value="0.0436058282" flag="0"/>
      <psa10 value="0.0219183056" flag="0"/>
      <psa30 value="0.0020056721" flag="0"/>
    </comp>
  </station>
  <station code="IDI" name="IDI" netid="MN" insttype="" lat="35.288" lon="24.89">
    <comp name="--.HHE">
      <acc value="0.0146557270" flag="0"/>
      <vel value="0.0092433351" flag="0"/>
      <psa03 value="0.0580888421" flag="0"/>
      <psa10 value="0.0107232356" flag="0"/>
      <psa30 value="0.0012520957" flag="0"/>
    </comp>
    <comp name="--.HHN">
      <acc value="0.0263795784" flag="0"/>
      <vel value="0.0172813018" flag="0"/>
      <psa03 value="0.0677288026" flag="0"/>
      <psa10 value="0.0150965491" flag="0"/>
      <psa30 value="0.0008540495" flag="0"/>
    </comp>
    <comp name="--.HHZ">
      <acc value="0.0188096999" flag="0"/>
      <vel value="0.0118633040" flag="0"/>
      <psa03 value="0.0768085593" flag="0"/>
      <psa10 value="0.0126071315" flag="0"/>
      <psa30 value="0.0011442710" flag="0"/>
    </comp>
  </station>
</stationlist>
