<stationlist created="1778069667">
	<station code="IMMV" name="IMMV" netid="GE" source="GEOFON" insttype="" lat="35.4606" lon="23.9811">
		<comp name="--.HNE" depth="0.0">
			<acc value="0.00963788666445205" flag="0"/>
			<vel value="0.00776778869332738" flag="0"/>
			<psa03 value="0.0322143887651557" flag="0"/>
			<psa10 value="0.0148951280052888" flag="0"/>
			<psa30 value="0.000862629743600279" flag="0"/>
		</comp>
		<comp name="--.HNN" depth="0.0">
			<acc value="0.0111477653416694" flag="0"/>
			<vel value="0.00702917824471187" flag="0"/>
			<psa03 value="0.0316327400791181" flag="0"/>
			<psa10 value="0.0130870954358445" flag="0"/>
			<psa30 value="0.00119640660497259" flag="0"/>
		</comp>
		<comp name="--.HNZ" depth="0.0">
			<acc value="0.0079655632296758" flag="0"/>
			<vel value="0.00572272582965837" flag="0"/>
			<psa03 value="0.0266216129378717" flag="0"/>
			<psa10 value="0.010703230667223" flag="0"/>
			<psa30 value="0.000466661215028574" flag="0"/>
		</comp>
	</station>
	<station code="KARP" name="KARP" netid="GE" source="GEOFON" insttype="" lat="35.5471" lon="27.16106">
		<comp name="--.HNE" depth="0.0">
			<acc value="0.0077898056155181" flag="0"/>
			<vel value="0.00587922003514433" flag="0"/>
			<psa03 value="0.013333177572245" flag="0"/>
			<psa10 value="0.0097730401916291" flag="0"/>
			<psa30 value="0.000897081242696348" flag="0"/>
		</comp>
		<comp name="--.HNN" depth="0.0">
			<acc value="0.00736833272898146" flag="0"/>
			<vel value="0.00541489410937828" flag="0"/>
			<psa03 value="0.011364520481041" flag="0"/>
			<psa10 value="0.0137555440027215" flag="0"/>
			<psa30 value="0.000753906181517879" flag="0"/>
		</comp>
		<comp name="--.HNZ" depth="0.0">
			<acc value="0.00357352597493663" flag="0"/>
			<vel value="0.00288855903000089" flag="0"/>
			<psa03 value="0.0076061751251062" flag="0"/>
			<psa10 value="0.00364022593046259" flag="0"/>
			<psa30 value="0.000468003481227122" flag="0"/>
		</comp>
	</station>
	<station code="SIT2" name="SIT2" netid="HI" source="ITSAK Strong Motion Network" insttype="" lat="35.2059" lon="26.107">
		<comp name="--.HNE" depth="0.0">
			<acc value="0.144841463625455" flag="0"/>
			<vel value="0.0951660674639149" flag="0"/>
			<psa03 value="0.522365262268323" flag="0"/>
			<psa10 value="0.0643039467738463" flag="0"/>
			<psa30 value="0.00394402551340065" flag="0"/>
		</comp>
		<comp name="--.HNN" depth="0.0">
			<acc value="0.153729789417284" flag="0"/>
			<vel value="0.0893849521385468" flag="0"/>
			<psa03 value="0.52710793616986" flag="0"/>
			<psa10 value="0.0676059216222748" flag="0"/>
			<psa30 value="0.00375745051180246" flag="0"/>
		</comp>
		<comp name="--.HNZ" depth="0.0">
			<acc value="0.0542476934560001" flag="0"/>
			<vel value="0.0313409753778671" flag="0"/>
			<psa03 value="0.195076020855665" flag="0"/>
			<psa10 value="0.0182856924228215" flag="0"/>
			<psa30 value="0.0015042329865063" flag="0"/>
		</comp>
	</station>
	<station code="IACM" name="IACM" netid="HL" source="National Observatory of Athens Seismic Network" insttype="" lat="35.3058" lon="25.0709">
		<comp name="--.HNE" depth="0.0">
			<acc value="0.181644841316442" flag="0"/>
			<vel value="0.197381103750968" flag="0"/>
			<psa03 value="0.431001676353812" flag="0"/>
			<psa10 value="0.346924806209153" flag="0"/>
			<psa30 value="0.0110383497947938" flag="0"/>
		</comp>
		<comp name="--.HNN" depth="0.0">
			<acc value="0.130663759692732" flag="0"/>
			<vel value="0.106972343724085" flag="0"/>
			<psa03 value="0.429659410155264" flag="0"/>
			<psa10 value="0.284654392726107" flag="0"/>
			<psa30 value="0.00824688352387985" flag="0"/>
		</comp>
		<comp name="--.HNZ" depth="0.0">
			<acc value="0.0645029032559485" flag="0"/>
			<vel value="0.0383827162956907" flag="0"/>
			<psa03 value="0.187067165870994" flag="0"/>
			<psa10 value="0.073436725988768" flag="0"/>
			<psa30 value="0.00274001273330296" flag="0"/>
		</comp>
	</station>
	<station code="IMMV" name="IMMV" netid="HL" source="National Observatory of Athens Seismic Network" insttype="" lat="35.4606" lon="23.9811">
		<comp name="--.HNE" depth="0.0">
			<acc value="0.00942617311478817" flag="0"/>
			<vel value="0.00761053997867998" flag="0"/>
			<psa03 value="0.0315432556658816" flag="0"/>
			<psa10 value="0.0145931181106155" flag="0"/>
			<psa30 value="0.000845180283019153" flag="0"/>
		</comp>
		<comp name="--.HNN" depth="0.0">
			<acc value="0.0109259317041075" flag="0"/>
			<vel value="0.00688684898799375" flag="0"/>
			<psa03 value="0.0309616069798441" flag="0"/>
			<psa10 value="0.012821326728532" flag="0"/>
			<psa30 value="0.00117179839133254" flag="0"/>
		</comp>
		<comp name="--.HNZ" depth="0.0">
			<acc value="0.00779310048460112" flag="0"/>
			<vel value="0.00560753403108612" flag="0"/>
			<psa03 value="0.0260399642518342" flag="0"/>
			<psa10 value="0.0104857835430582" flag="0"/>
			<psa30 value="0.000457265351638737" flag="0"/>
		</comp>
	</station>
	<station code="SIVA" name="SIVA" netid="HL" source="National Observatory of Athens Seismic Network" insttype="" lat="35.01777" lon="24.81204">
		<comp name="00.HNE" depth="0.0">
			<acc value="0.10369639483928" flag="0"/>
			<vel value="0.0598870395284304" flag="0"/>
			<psa03 value="0.300667628474786" flag="0"/>
			<psa10 value="0.0718501673420841" flag="0"/>
			<psa30 value="0.00339011699546645" flag="0"/>
		</comp>
		<comp name="00.HNN" depth="0.0">
			<acc value="0.106216382357455" flag="0"/>
			<vel value="0.080673429389072" flag="0"/>
			<psa03 value="0.210780535378678" flag="0"/>
			<psa10 value="0.0922418754304276" flag="0"/>
			<psa30 value="0.00434088888610473" flag="0"/>
		</comp>
		<comp name="00.HNZ" depth="0.0">
			<acc value="0.0661527305066362" flag="0"/>
			<vel value="0.0356842382573483" flag="0"/>
			<psa03 value="0.153644737527145" flag="0"/>
			<psa10 value="0.0551510335659465" flag="0"/>
			<psa30 value="0.00242950181937216" flag="0"/>
		</comp>
	</station>
</stationlist>
