<?xml version="1.0" encoding="UTF-8" standalone="yes"?>
<!DOCTYPE earthquake SYSTEM "stationlist.dtd">
<stationlist created="" xmlns="ch.ethz.sed.shakemap.usgs.xml">
  <station code="CARD" name="CARD" netid="GU" source="INGV" insttype="" lat="44.026" lon="10.4821">
    <comp name="--.HHE">
      <acc value="0.0469958450" flag="0"/>
      <vel value="0.0170659296" flag="0"/>
      <psa03 value="0.0619674801" flag="0"/>
      <psa10 value="0.0142823282" flag="0"/>
      <psa30 value="0.0007122453" flag="0"/>
    </comp>
    <comp name="--.HHN">
      <acc value="0.0446263366" flag="0"/>
      <vel value="0.0158749576" flag="0"/>
      <psa03 value="0.0745928254" flag="0"/>
      <psa10 value="0.0097555444" flag="0"/>
      <psa30 value="0.0008340427" flag="0"/>
    </comp>
    <comp name="--.HHZ">
      <acc value="0.0215516188" flag="0"/>
      <vel value="0.0067795781" flag="0"/>
      <psa03 value="0.0413507515" flag="0"/>
      <psa10 value="0.0060567912" flag="0"/>
      <psa30 value="0.0004960781" flag="0"/>
    </comp>
  </station>
  <station code="EQUI" name="EQUI" netid="GU" source="INGV" insttype="" lat="44.166" lon="10.153">
    <comp name="--.HHE">
      <acc value="0.0193995980" flag="0"/>
      <vel value="0.0110757354" flag="0"/>
      <psa03 value="0.0730853209" flag="0"/>
      <psa10 value="0.0127150790" flag="0"/>
      <psa30 value="0.0007108268" flag="0"/>
    </comp>
    <comp name="--.HHN">
      <acc value="0.0229855724" flag="0"/>
      <vel value="0.0118155736" flag="0"/>
      <psa03 value="0.0748694915" flag="0"/>
      <psa10 value="0.0122702957" flag="0"/>
      <psa30 value="0.0007488556" flag="0"/>
    </comp>
    <comp name="--.HHZ">
      <acc value="0.0153247131" flag="0"/>
      <vel value="0.0084373835" flag="0"/>
      <psa03 value="0.0385432665" flag="0"/>
      <psa10 value="0.0115571603" flag="0"/>
      <psa30 value="0.0007549431" flag="0"/>
    </comp>
  </station>
  <station code="FIVI" name="FIVI" netid="GU" source="INGV" insttype="" lat="44.2393" lon="10.1273">
    <comp name="--.HNE">
      <acc value="0.0606111594" flag="0"/>
      <vel value="0.0400297350" flag="0"/>
      <psa03 value="0.1942097697" flag="0"/>
      <psa10 value="0.0199901000" flag="0"/>
      <psa30 value="0.0015406918" flag="0"/>
    </comp>
    <comp name="--.HNN">
      <acc value="0.0481013896" flag="0"/>
      <vel value="0.0220394183" flag="0"/>
      <psa03 value="0.1437839791" flag="0"/>
      <psa10 value="0.0141541677" flag="0"/>
      <psa30 value="0.0010847733" flag="0"/>
    </comp>
    <comp name="--.HNZ">
      <acc value="0.0411597009" flag="0"/>
      <vel value="0.0246847142" flag="0"/>
      <psa03 value="0.1003157767" flag="0"/>
      <psa10 value="0.0187723572" flag="0"/>
      <psa30 value="0.0014451026" flag="0"/>
    </comp>
  </station>
  <station code="GORR" name="GORR" netid="GU" source="INGV" insttype="" lat="44.6071" lon="9.2926">
    <comp name="--.HHE">
      <acc value="0.2054825577" flag="0"/>
      <vel value="0.0453720404" flag="0"/>
      <psa03 value="0.1122457548" flag="0"/>
      <psa10 value="0.0347331833" flag="0"/>
      <psa30 value="0.0018408721" flag="0"/>
    </comp>
    <comp name="--.HHN">
      <acc value="0.2153801578" flag="0"/>
      <vel value="0.0388517114" flag="0"/>
      <psa03 value="0.1267186935" flag="0"/>
      <psa10 value="0.0274844603" flag="0"/>
      <psa30 value="0.0021934370" flag="0"/>
    </comp>
    <comp name="--.HHZ">
      <acc value="0.1678692911" flag="0"/>
      <vel value="0.0457698753" flag="0"/>
      <psa03 value="0.0931031543" flag="0"/>
      <psa10 value="0.0201293664" flag="0"/>
      <psa30 value="0.0018192821" flag="0"/>
    </comp>
  </station>
  <station code="GRAM" name="GRAM" netid="GU" source="INGV" insttype="" lat="44.4913" lon="10.0658">
    <comp name="--.HHE">
      <acc value="0.1949298982" flag="0"/>
      <vel value="0.1035887989" flag="0"/>
      <psa03 value="0.7552148326" flag="0"/>
      <psa10 value="0.0445471714" flag="0"/>
      <psa30 value="0.0031053620" flag="0"/>
    </comp>
    <comp name="--.HHN">
      <acc value="0.3532658703" flag="0"/>
      <vel value="0.1002153780" flag="0"/>
      <psa03 value="1.2424919321" flag="0"/>
      <psa10 value="0.0447196437" flag="0"/>
      <psa30 value="0.0040836971" flag="0"/>
    </comp>
    <comp name="--.HHZ">
      <acc value="0.1449437002" flag="0"/>
      <vel value="0.0432877243" flag="0"/>
      <psa03 value="0.2535206522" flag="0"/>
      <psa10 value="0.0401861724" flag="0"/>
      <psa30 value="0.0015177903" flag="0"/>
    </comp>
  </station>
  <station code="GSCL" name="GSCL" netid="GU" source="INGV" insttype="" lat="44.3505" lon="10.5881">
    <comp name="--.HHE">
      <acc value="0.0181316150" flag="0"/>
      <vel value="0.0142771614" flag="0"/>
      <psa03 value="0.0514072866" flag="0"/>
      <psa10 value="0.0146669586" flag="0"/>
      <psa30 value="0.0011298334" flag="0"/>
    </comp>
    <comp name="--.HHN">
      <acc value="0.0215808100" flag="0"/>
      <vel value="0.0127335740" flag="0"/>
      <psa03 value="0.0455185868" flag="0"/>
      <psa10 value="0.0160647641" flag="0"/>
      <psa30 value="0.0012680865" flag="0"/>
    </comp>
    <comp name="--.HHZ">
      <acc value="0.0086444608" flag="0"/>
      <vel value="0.0074810523" flag="0"/>
      <psa03 value="0.0236526283" flag="0"/>
      <psa10 value="0.0153224524" flag="0"/>
      <psa30 value="0.0007207783" flag="0"/>
    </comp>
  </station>
  <station code="MAIM" name="MAIM" netid="GU" source="INGV" insttype="" lat="43.9142" lon="10.4915">
    <comp name="--.HHE">
      <acc value="0.0209704899" flag="0"/>
      <vel value="0.0100539801" flag="0"/>
      <psa03 value="0.0485767197" flag="0"/>
      <psa10 value="0.0146488355" flag="0"/>
      <psa30 value="0.0009028917" flag="0"/>
    </comp>
    <comp name="--.HHN">
      <acc value="0.0214892201" flag="0"/>
      <vel value="0.0120901375" flag="0"/>
      <psa03 value="0.0420544726" flag="0"/>
      <psa10 value="0.0123266636" flag="0"/>
      <psa30 value="0.0010807867" flag="0"/>
    </comp>
    <comp name="--.HHZ">
      <acc value="0.0086109654" flag="0"/>
      <vel value="0.0048520700" flag="0"/>
      <psa03 value="0.0228946968" flag="0"/>
      <psa10 value="0.0051809490" flag="0"/>
      <psa30 value="0.0004588472" flag="0"/>
    </comp>
  </station>
  <station code="PCP" name="PCP" netid="GU" source="INGV" insttype="" lat="44.5413" lon="8.54517">
    <comp name="--.HHE">
      <acc value="0.0135061282" flag="0"/>
      <vel value="0.0108358497" flag="0"/>
      <psa03 value="0.0226474371" flag="0"/>
      <psa10 value="0.0123042929" flag="0"/>
      <psa30 value="0.0006542855" flag="0"/>
    </comp>
    <comp name="--.HHN">
      <acc value="0.0157951247" flag="0"/>
      <vel value="0.0125114117" flag="0"/>
      <psa03 value="0.0391284287" flag="0"/>
      <psa10 value="0.0154926626" flag="0"/>
      <psa30 value="0.0010889201" flag="0"/>
    </comp>
    <comp name="--.HHZ">
      <acc value="0.0091173816" flag="0"/>
      <vel value="0.0070443236" flag="0"/>
      <psa03 value="0.0166176805" flag="0"/>
      <psa10 value="0.0049603999" flag="0"/>
      <psa30 value="0.0004087850" flag="0"/>
    </comp>
  </station>
  <station code="POPM" name="POPM" netid="GU" source="INGV" insttype="" lat="44.045" lon="10.757">
    <comp name="--.HHE">
      <acc value="0.0471967034" flag="0"/>
      <vel value="0.0124863389" flag="0"/>
      <psa03 value="0.0705233911" flag="0"/>
      <psa10 value="0.0083288700" flag="0"/>
      <psa30 value="0.0010815566" flag="0"/>
    </comp>
    <comp name="--.HHN">
      <acc value="0.0519748325" flag="0"/>
      <vel value="0.0172840916" flag="0"/>
      <psa03 value="0.0966740984" flag="0"/>
      <psa10 value="0.0149362075" flag="0"/>
      <psa30 value="0.0015492586" flag="0"/>
    </comp>
    <comp name="--.HHZ">
      <acc value="0.0287281940" flag="0"/>
      <vel value="0.0075430655" flag="0"/>
      <psa03 value="0.0483161489" flag="0"/>
      <psa10 value="0.0070856367" flag="0"/>
      <psa30 value="0.0005534484" flag="0"/>
    </comp>
  </station>
  <station code="RNCA" name="RNCA" netid="GU" source="INGV" insttype="" lat="44.4712" lon="8.9512">
    <comp name="--.HHE">
      <acc value="0.0282040354" flag="0"/>
      <vel value="0.0074227135" flag="0"/>
      <psa03 value="0.0220978761" flag="0"/>
      <psa10 value="0.0033316978" flag="0"/>
      <psa30 value="0.0003913949" flag="0"/>
    </comp>
    <comp name="--.HHN">
      <acc value="0.0234317759" flag="0"/>
      <vel value="0.0066505339" flag="0"/>
      <psa03 value="0.0291828019" flag="0"/>
      <psa10 value="0.0032578261" flag="0"/>
      <psa30 value="0.0003828228" flag="0"/>
    </comp>
    <comp name="--.HHZ">
      <acc value="0.0150150292" flag="0"/>
      <vel value="0.0036472270" flag="0"/>
      <psa03 value="0.0111663835" flag="0"/>
      <psa10 value="0.0024183746" flag="0"/>
      <psa30 value="0.0001804914" flag="0"/>
    </comp>
  </station>
  <station code="ROTM" name="ROTM" netid="GU" source="INGV" insttype="" lat="44.8493" lon="8.3527">
    <comp name="--.HHE">
      <acc value="0.0304187430" flag="0"/>
      <vel value="0.0153022710" flag="0"/>
      <psa03 value="0.0793570811" flag="0"/>
      <psa10 value="0.0205482119" flag="0"/>
      <psa30 value="0.0016477827" flag="0"/>
    </comp>
    <comp name="--.HHN">
      <acc value="0.0387141615" flag="0"/>
      <vel value="0.0197626713" flag="0"/>
      <psa03 value="0.1059398428" flag="0"/>
      <psa10 value="0.0269469872" flag="0"/>
      <psa30 value="0.0017916591" flag="0"/>
    </comp>
    <comp name="--.HHZ">
      <acc value="0.0265432065" flag="0"/>
      <vel value="0.0076448324" flag="0"/>
      <psa03 value="0.0475818913" flag="0"/>
      <psa10 value="0.0128050143" flag="0"/>
      <psa30 value="0.0008901429" flag="0"/>
    </comp>
  </station>
  <station code="BAG8" name="BAG8" netid="IV" source="INGV" insttype="" lat="45.8228" lon="10.4664">
    <comp name="--.HNE">
      <acc value="0.0420156570" flag="0"/>
      <vel value="0.0166382732" flag="0"/>
      <psa03 value="0.0611105113" flag="0"/>
      <psa10 value="0.0039079911" flag="0"/>
      <psa30 value="0.0008329960" flag="0"/>
    </comp>
    <comp name="--.HNN">
      <acc value="0.0319979053" flag="0"/>
      <vel value="0.0090152703" flag="0"/>
      <psa03 value="0.0579837984" flag="0"/>
      <psa10 value="0.0047235807" flag="0"/>
      <psa30 value="0.0006976335" flag="0"/>
    </comp>
    <comp name="--.HNZ">
      <acc value="0.0266572389" flag="0"/>
      <vel value="0.0099476890" flag="0"/>
      <psa03 value="0.0424006885" flag="0"/>
      <psa10 value="0.0061551239" flag="0"/>
      <psa30 value="0.0006638944" flag="0"/>
    </comp>
  </station>
  <station code="BDI" name="BDI" netid="IV" source="INGV" insttype="" lat="44.0624" lon="10.597">
    <comp name="--.HHE">
      <acc value="0.0324273646" flag="0"/>
      <vel value="0.0153061388" flag="0"/>
      <psa03 value="0.1101906358" flag="0"/>
      <psa10 value="0.0137928382" flag="0"/>
      <psa30 value="0.0007374615" flag="0"/>
    </comp>
    <comp name="--.HHN">
      <acc value="0.0409749168" flag="0"/>
      <vel value="0.0132660316" flag="0"/>
      <psa03 value="0.0970640531" flag="0"/>
      <psa10 value="0.0118377695" flag="0"/>
      <psa30 value="0.0008956023" flag="0"/>
    </comp>
    <comp name="--.HHZ">
      <acc value="0.0150080918" flag="0"/>
      <vel value="0.0054524164" flag="0"/>
      <psa03 value="0.0350274637" flag="0"/>
      <psa10 value="0.0047979545" flag="0"/>
      <psa30 value="0.0004542462" flag="0"/>
    </comp>
  </station>
  <station code="CAVE" name="CAVE" netid="IV" source="INGV" insttype="" lat="44.8658" lon="11.0031">
    <comp name="--.HHE">
      <acc value="0.0665758747" flag="0"/>
      <vel value="0.0220171242" flag="0"/>
      <psa03 value="0.1079818639" flag="0"/>
      <psa10 value="0.0115390884" flag="0"/>
      <psa30 value="0.0013729866" flag="0"/>
    </comp>
    <comp name="--.HHN">
      <acc value="0.0905021878" flag="0"/>
      <vel value="0.0322024200" flag="0"/>
      <psa03 value="0.2060711687" flag="0"/>
      <psa10 value="0.0223580185" flag="0"/>
      <psa30 value="0.0014331934" flag="0"/>
    </comp>
    <comp name="--.HHZ">
      <acc value="0.0206564760" flag="0"/>
      <vel value="0.0043443129" flag="0"/>
      <psa03 value="0.0247700796" flag="0"/>
      <psa10 value="0.0053905308" flag="0"/>
      <psa30 value="0.0004098102" flag="0"/>
    </comp>
  </station>
  <station code="CNCS" name="CNCS" netid="IV" source="INGV" insttype="" lat="45.606" lon="10.217">
    <comp name="--.HNE">
      <acc value="0.0178011774" flag="0"/>
      <vel value="0.0056915554" flag="0"/>
      <psa03 value="0.0275880470" flag="0"/>
      <psa10 value="0.0018545023" flag="0"/>
      <psa30 value="0.0002389276" flag="0"/>
    </comp>
    <comp name="--.HNN">
      <acc value="0.0455618000" flag="0"/>
      <vel value="0.0159654085" flag="0"/>
      <psa03 value="0.1362011054" flag="0"/>
      <psa10 value="0.0072081948" flag="0"/>
      <psa30 value="0.0006225725" flag="0"/>
    </comp>
    <comp name="--.HNZ">
      <acc value="0.0277047045" flag="0"/>
      <vel value="0.0088798834" flag="0"/>
      <psa03 value="0.0673781112" flag="0"/>
      <psa10 value="0.0049988370" flag="0"/>
      <psa30 value="0.0003385909" flag="0"/>
    </comp>
  </station>
  <station code="MERA" name="MERA" netid="IV" source="INGV" insttype="" lat="45.7054" lon="9.4291">
    <comp name="--.HNE">
      <acc value="0.0586994849" flag="0"/>
      <vel value="0.0180462869" flag="0"/>
      <psa03 value="0.0821174000" flag="0"/>
      <psa10 value="0.0092469032" flag="0"/>
      <psa30 value="0.0011772592" flag="0"/>
    </comp>
    <comp name="--.HNN">
      <acc value="0.0645834423" flag="0"/>
      <vel value="0.0201877850" flag="0"/>
      <psa03 value="0.1276077209" flag="0"/>
      <psa10 value="0.0095447239" flag="0"/>
      <psa30 value="0.0008050534" flag="0"/>
    </comp>
    <comp name="--.HNZ">
      <acc value="0.0309202053" flag="0"/>
      <vel value="0.0100962437" flag="0"/>
      <psa03 value="0.0788644076" flag="0"/>
      <psa10 value="0.0040849776" flag="0"/>
      <psa30 value="0.0005029205" flag="0"/>
    </comp>
  </station>
  <station code="MSSA" name="MSSA" netid="IV" source="INGV" insttype="" lat="44.3162" lon="9.51739">
    <comp name="--.HHE">
      <acc value="0.0261736662" flag="0"/>
      <vel value="0.0148279050" flag="0"/>
      <psa03 value="0.0389206209" flag="0"/>
      <psa10 value="0.0164840109" flag="0"/>
      <psa30 value="0.0009764065" flag="0"/>
    </comp>
    <comp name="--.HHN">
      <acc value="0.0297219591" flag="0"/>
      <vel value="0.0130709435" flag="0"/>
      <psa03 value="0.0635402743" flag="0"/>
      <psa10 value="0.0089454770" flag="0"/>
      <psa30 value="0.0008954823" flag="0"/>
    </comp>
    <comp name="--.HHZ">
      <acc value="0.0459708459" flag="0"/>
      <vel value="0.0101478244" flag="0"/>
      <psa03 value="0.0372797442" flag="0"/>
      <psa10 value="0.0136350906" flag="0"/>
      <psa30 value="0.0008686003" flag="0"/>
    </comp>
  </station>
  <station code="NEVI" name="NEVI" netid="IV" source="INGV" insttype="" lat="44.5834" lon="10.3163">
    <comp name="--.HNE">
      <acc value="0.0620090548" flag="0"/>
      <vel value="0.0380747403" flag="0"/>
      <psa03 value="0.1446785548" flag="0"/>
      <psa10 value="0.0397264409" flag="0"/>
      <psa30 value="0.0027310187" flag="0"/>
    </comp>
    <comp name="--.HNN">
      <acc value="0.0845728384" flag="0"/>
      <vel value="0.0490489786" flag="0"/>
      <psa03 value="0.1878282587" flag="0"/>
      <psa10 value="0.0613953100" flag="0"/>
      <psa30 value="0.0055631048" flag="0"/>
    </comp>
    <comp name="--.HNZ">
      <acc value="0.0289889048" flag="0"/>
      <vel value="0.0110358033" flag="0"/>
      <psa03 value="0.0490728789" flag="0"/>
      <psa10 value="0.0231083277" flag="0"/>
      <psa30 value="0.0016076976" flag="0"/>
    </comp>
  </station>
  <station code="ORZI" name="ORZI" netid="IV" source="INGV" insttype="" lat="45.4056" lon="9.9307">
    <comp name="--.HHE">
      <acc value="0.0208533986" flag="0"/>
      <vel value="0.0113610563" flag="0"/>
      <psa03 value="0.0509441995" flag="0"/>
      <psa10 value="0.0149920200" flag="0"/>
      <psa30 value="0.0020984048" flag="0"/>
    </comp>
    <comp name="--.HHN">
      <acc value="0.0262775396" flag="0"/>
      <vel value="0.0147963887" flag="0"/>
      <psa03 value="0.0583863563" flag="0"/>
      <psa10 value="0.0150174820" flag="0"/>
      <psa30 value="0.0030994010" flag="0"/>
    </comp>
    <comp name="--.HHZ">
      <acc value="0.0200383059" flag="0"/>
      <vel value="0.0065978046" flag="0"/>
      <psa03 value="0.0198686658" flag="0"/>
      <psa10 value="0.0096091495" flag="0"/>
      <psa30 value="0.0006511885" flag="0"/>
    </comp>
  </station>
  <station code="PLMA" name="PLMA" netid="IV" source="INGV" insttype="" lat="44.0498" lon="9.85365">
    <comp name="--.HHE">
      <acc value="0.0253367042" flag="0"/>
      <vel value="0.0103941799" flag="0"/>
      <psa03 value="0.0591368116" flag="0"/>
      <psa10 value="0.0034952447" flag="0"/>
      <psa30 value="0.0005935699" flag="0"/>
    </comp>
    <comp name="--.HHN">
      <acc value="0.0253652448" flag="0"/>
      <vel value="0.0115149220" flag="0"/>
      <psa03 value="0.0796710721" flag="0"/>
      <psa10 value="0.0052672248" flag="0"/>
      <psa30 value="0.0007192485" flag="0"/>
    </comp>
    <comp name="--.HHZ">
      <acc value="0.0245775709" flag="0"/>
      <vel value="0.0091688488" flag="0"/>
      <psa03 value="0.0411382842" flag="0"/>
      <psa10 value="0.0064846476" flag="0"/>
      <psa30 value="0.0004366282" flag="0"/>
    </comp>
  </station>
  <station code="PRMA" name="PRMA" netid="IV" source="INGV" insttype="" lat="44.7637" lon="10.3131">
    <comp name="--.HHE">
      <acc value="0.0608403901" flag="0"/>
      <vel value="0.0360539686" flag="0"/>
      <psa03 value="0.1662922852" flag="0"/>
      <psa10 value="0.0392231033" flag="0"/>
      <psa30 value="0.0034807536" flag="0"/>
    </comp>
    <comp name="--.HHN">
      <acc value="0.0476443257" flag="0"/>
      <vel value="0.0347767712" flag="0"/>
      <psa03 value="0.1432943081" flag="0"/>
      <psa10 value="0.0210285612" flag="0"/>
      <psa30 value="0.0028640136" flag="0"/>
    </comp>
    <comp name="--.HHZ">
      <acc value="0.0306805831" flag="0"/>
      <vel value="0.0148291747" flag="0"/>
      <psa03 value="0.0608077518" flag="0"/>
      <psa10 value="0.0103383030" flag="0"/>
      <psa30 value="0.0019579210" flag="0"/>
    </comp>
  </station>
  <station code="QLNO" name="QLNO" netid="IV" source="INGV" insttype="" lat="44.3242" lon="8.34592">
    <comp name="--.HHE">
      <acc value="0.0085121316" flag="0"/>
      <vel value="0.0045818410" flag="0"/>
      <psa03 value="0.0104900286" flag="0"/>
      <psa10 value="0.0064116871" flag="0"/>
      <psa30 value="0.0003406930" flag="0"/>
    </comp>
    <comp name="--.HHN">
      <acc value="0.0068712705" flag="0"/>
      <vel value="0.0042097650" flag="0"/>
      <psa03 value="0.0168604754" flag="0"/>
      <psa10 value="0.0053410854" flag="0"/>
      <psa30 value="0.0008049937" flag="0"/>
    </comp>
    <comp name="--.HHZ">
      <acc value="0.0055485444" flag="0"/>
      <vel value="0.0035877917" flag="0"/>
      <psa03 value="0.0099917522" flag="0"/>
      <psa10 value="0.0039169267" flag="0"/>
      <psa30 value="0.0002704501" flag="0"/>
    </comp>
  </station>
  <station code="SARZ" name="SARZ" netid="IV" source="INGV" insttype="" lat="44.8673" lon="8.9136">
    <comp name="--.HHE">
      <acc value="0.0146167815" flag="0"/>
      <vel value="0.0152581291" flag="0"/>
      <psa03 value="0.0761164109" flag="0"/>
      <psa10 value="0.0247285351" flag="0"/>
