<stationlist created="1778637287">
	<station code="FIESA" name="FIESA" netid="CH" source="Switzerland Seismological Network" insttype="" lat="46.43521" lon="8.11051">
		<comp name="--.HGE" depth="0.0">
			<acc value="0.00151608434284244" flag="0"/>
			<vel value="0.000808281682431592" flag="0"/>
			<psa03 value="0.004116283008881" flag="0"/>
			<psa10 value="0.00136105792532783" flag="0"/>
			<psa30 value="0.000190601800193838" flag="0"/>
		</comp>
		<comp name="--.HGN" depth="0.0">
			<acc value="0.00149040313687139" flag="0"/>
			<vel value="0.00106532282368993" flag="0"/>
			<psa03 value="0.00532432258757434" flag="0"/>
			<psa10 value="0.00151810307055796" flag="0"/>
			<psa30 value="0.000190154378127655" flag="0"/>
		</comp>
		<comp name="--.HGZ" depth="0.0">
			<acc value="0.00117273355359928" flag="0"/>
			<vel value="0.000818517441145655" flag="0"/>
			<psa03 value="0.00353463432284347" flag="0"/>
			<psa10 value="0.00101072644750676" flag="0"/>
			<psa30 value="0.000131989509523902" flag="0"/>
		</comp>
	</station>
	<station code="FUSIO" name="FUSIO" netid="CH" source="Switzerland Seismological Network" insttype="" lat="46.45481" lon="8.6629">
		<comp name="--.HGE" depth="0.0">
			<acc value="0.00528667227352121" flag="0"/>
			<vel value="0.00182049316205234" flag="0"/>
			<psa03 value="0.00993276986925633" flag="0"/>
			<psa10 value="0.00133689713375396" flag="0"/>
			<psa30 value="0.000223263611025176" flag="0"/>
		</comp>
		<comp name="--.HGN" depth="0.0">
			<acc value="0.00437498638193959" flag="0"/>
			<vel value="0.00129263975729247" flag="0"/>
			<psa03 value="0.00639813554641286" flag="0"/>
			<psa10 value="0.00117985198852383" flag="0"/>
			<psa30 value="0.000223263611025176" flag="0"/>
		</comp>
		<comp name="--.HGZ" depth="0.0">
			<acc value="0.00424330131326616" flag="0"/>
			<vel value="0.00225937307757348" flag="0"/>
			<psa03 value="0.0126620444729709" flag="0"/>
			<psa10 value="0.00177179138208356" flag="0"/>
			<psa30 value="0.000213867747635339" flag="0"/>
		</comp>
	</station>
	<station code="GRIMS" name="GRIMS" netid="CH" source="Switzerland Seismological Network" insttype="" lat="46.578146" lon="8.318864">
		<comp name="--.HGE" depth="0.0">
			<acc value="0.00126390745222907" flag="0"/>
			<vel value="0.000705358238936314" flag="0"/>
			<psa03 value="0.00272927460371458" flag="0"/>
			<psa10 value="0.000757038135981158" flag="0"/>
			<psa30 value="0.0001087235620824" flag="0"/>
		</comp>
		<comp name="--.HGN" depth="0.0">
			<acc value="0.00123762804283933" flag="0"/>
			<vel value="0.000583945953773536" flag="0"/>
			<psa03 value="0.00263979019047803" flag="0"/>
			<psa10 value="0.000761064934576803" flag="0"/>
			<psa30 value="0.00015972967762723" flag="0"/>
		</comp>
		<comp name="--.HGZ" depth="0.0">
			<acc value="0.00104342062671722" flag="0"/>
			<vel value="0.000572570177130777" flag="0"/>
			<psa03 value="0.00187917267796741" flag="0"/>
			<psa10 value="0.000986565655932892" flag="0"/>
			<psa30 value="0.000141385372913739" flag="0"/>
		</comp>
	</station>
	<station code="SBGN" name="SBGN" netid="CH" source="Switzerland Seismological Network" insttype="" lat="46.628162" lon="9.748359">
		<comp name="--.HGE" depth="0.0">
			<acc value="0.00982165453652585" flag="0"/>
			<vel value="0.0049257781705083" flag="0"/>
			<psa03 value="0.0234449162679744" flag="0"/>
			<psa10 value="0.00196910451327014" flag="0"/>
			<psa30 value="0.000199550241517492" flag="0"/>
		</comp>
		<comp name="--.HGN" depth="0.0">
			<acc value="0.00801729300814178" flag="0"/>
			<vel value="0.00369254989472949" flag="0"/>
			<psa03 value="0.0239370805407754" flag="0"/>
			<psa10 value="0.00192078293012241" flag="0"/>
			<psa30 value="0.000165993586553788" flag="0"/>
		</comp>
		<comp name="--.HGZ" depth="0.0">
			<acc value="0.00547560576713092" flag="0"/>
			<vel value="0.00219756629604043" flag="0"/>
			<psa03 value="0.0116329737207507" flag="0"/>
			<psa10 value="0.00175568418770098" flag="0"/>
			<psa30 value="0.000251003779128504" flag="0"/>
		</comp>
	</station>
	<station code="SCAS2" name="SCAS2" netid="CH" source="Switzerland Seismological Network" insttype="" lat="46.155187" lon="8.614781">
		<comp name="--.HGE" depth="1.0">
			<acc value="0.0419029260007523" flag="0"/>
			<vel value="0.00653850906022259" flag="0"/>
			<psa03 value="0.0173152339612712" flag="0"/>
			<psa10 value="0.0021100424641177" flag="0"/>
			<psa30 value="0.000254135733591784" flag="0"/>
		</comp>
		<comp name="--.HGN" depth="1.0">
			<acc value="0.0288340612121648" flag="0"/>
			<vel value="0.00650777539238802" flag="0"/>
			<psa03 value="0.0165098742421423" flag="0"/>
			<psa10 value="0.00174763059050969" flag="0"/>
			<psa30 value="0.000217894546230983" flag="0"/>
		</comp>
		<comp name="--.HGZ" depth="1.0">
			<acc value="0.0136808365676018" flag="0"/>
			<vel value="0.00271070561106036" flag="0"/>
			<psa03 value="0.0106486451751487" flag="0"/>
			<psa10 value="0.00238386476862152" flag="0"/>
			<psa30 value="0.00020089250771604" flag="0"/>
		</comp>
	</station>
	<station code="SCEL" name="SCEL" netid="CH" source="Switzerland Seismological Network" insttype="" lat="46.5074" lon="9.85542">
		<comp name="--.HGE" depth="1.0">
			<acc value="0.00697193743678041" flag="0"/>
			<vel value="0.00207890189996602" flag="0"/>
			<psa03 value="0.0135568886053363" flag="0"/>
			<psa10 value="0.00238386476862152" flag="0"/>
			<psa30 value="0.000225053299289907" flag="0"/>
		</comp>
		<comp name="--.HGN" depth="1.0">
			<acc value="0.00916885472637672" flag="0"/>
			<vel value="0.00305710929355369" flag="0"/>
			<psa03 value="0.0137805996384277" flag="0"/>
			<psa10 value="0.00109528921801529" flag="0"/>
			<psa30 value="0.000240713071606302" flag="0"/>
		</comp>
		<comp name="--.HGZ" depth="1.0">
			<acc value="0.00325137293934611" flag="0"/>
			<vel value="0.00117605819381387" flag="0"/>
			<psa03 value="0.00724823747216002" flag="0"/>
			<psa10 value="0.00128857555060623" flag="0"/>
			<psa30 value="0.000237581117143023" flag="0"/>
		</comp>
	</station>
	<station code="SGRA" name="SGRA" netid="CH" source="Switzerland Seismological Network" insttype="" lat="46.193636" lon="7.835612">
		<comp name="--.HGE" depth="1.0">
			<acc value="0.00525712213789241" flag="0"/>
			<vel value="0.00349231135606157" flag="0"/>
			<psa03 value="0.0138700840516642" flag="0"/>
			<psa10 value="0.00335432323017183" flag="0"/>
			<psa30 value="0.000278743947231833" flag="0"/>
		</comp>
		<comp name="--.HGN" depth="1.0">
			<acc value="0.00644884829683063" flag="0"/>
			<vel value="0.00270096059139826" flag="0"/>
			<psa03 value="0.0145412171509383" flag="0"/>
			<psa10 value="0.00310063491864623" flag="0"/>
			<psa30 value="0.000295745985746776" flag="0"/>
		</comp>
		<comp name="--.HGZ" depth="1.0">
			<acc value="0.00331401806815995" flag="0"/>
			<vel value="0.00173311839011195" flag="0"/>
			<psa03 value="0.00832205043099855" flag="0"/>
			<psa10 value="0.00234359678266507" flag="0"/>
			<psa30 value="0.000175389449943625" flag="0"/>
		</comp>
	</station>
	<station code="SLOP" name="SLOP" netid="CH" source="Switzerland Seismological Network" insttype="" lat="46.16384" lon="8.79055">
		<comp name="--.HGE" depth="1.0">
			<acc value="0.0206489061288869" flag="0"/>
			<vel value="0.0100663581676509" flag="0"/>
			<psa03 value="0.0488137474205345" flag="0"/>
			<psa10 value="0.0111864464987003" flag="0"/>
			<psa30 value="0.00105591607619121" flag="0"/>
		</comp>
		<comp name="--.HGN" depth="1.0">
			<acc value="0.0156803776363593" flag="0"/>
			<vel value="0.00887794288675773" flag="0"/>
			<psa03 value="0.0363754139806549" flag="0"/>
			<psa10 value="0.00996632652422003" flag="0"/>
			<psa30 value="0.000712295929362886" flag="0"/>
		</comp>
		<comp name="--.HGZ" depth="1.0">
			<acc value="0.0130763210624349" flag="0"/>
			<vel value="0.00523659021372024" flag="0"/>
			<psa03 value="0.0216552280032435" flag="0"/>
			<psa10 value="0.00747776499211176" flag="0"/>
			<psa30 value="0.000359727341210905" flag="0"/>
		</comp>
	</station>
	<station code="SNTZ" name="SNTZ" netid="CH" source="Switzerland Seismological Network" insttype="" lat="46.32389" lon="7.98827">
		<comp name="--.HGE" depth="1.0">
			<acc value="0.0206738193023571" flag="0"/>
			<vel value="0.0109462451300688" flag="0"/>
			<psa03 value="0.0561962115125493" flag="0"/>
			<psa10 value="0.00311271531443317" flag="0"/>
			<psa30 value="0.000270690350040544" flag="0"/>
		</comp>
		<comp name="--.HGN" depth="1.0">
			<acc value="0.023412478364986" flag="0"/>
			<vel value="0.00964197814077952" flag="0"/>
			<psa03 value="0.0602677523148121" flag="0"/>
			<psa10 value="0.00372881549956677" flag="0"/>
			<psa30 value="0.000391494307909878" flag="0"/>
		</comp>
		<comp name="--.HGZ" depth="1.0">
			<acc value="0.0171874709818669" flag="0"/>
			<vel value="0.00819653055637339" flag="0"/>
			<psa03 value="0.066844856687698" flag="0"/>
			<psa10 value="0.00244426674755619" flag="0"/>
			<psa30 value="0.000239818227473937" flag="0"/>
		</comp>
	</station>
	<station code="SZEK" name="SZEK" netid="CH" source="Switzerland Seismological Network" insttype="" lat="46.019614" lon="7.747355">
		<comp name="--.HGE" depth="1.0">
			<acc value="0.0223997554297178" flag="0"/>
			<vel value="0.00652096309054266" flag="0"/>
			<psa03 value="0.0624601204391074" flag="0"/>
			<psa10 value="0.00165501422280987" flag="0"/>
			<psa30 value="0.000163309054156692" flag="0"/>
		</comp>
		<comp name="--.HGN" depth="1.0">
			<acc value="0.0223795287667085" flag="0"/>
			<vel value="0.00811913020583423" flag="0"/>
			<psa03 value="0.056643633578732" flag="0"/>
			<psa10 value="0.00235970397704765" flag="0"/>
			<psa30 value="0.000243845026069581" flag="0"/>
		</comp>
		<comp name="--.HGZ" depth="1.0">
			<acc value="0.0125498471112666" flag="0"/>
			<vel value="0.00362079614456459" flag="0"/>
			<psa03 value="0.0214315169701522" flag="0"/>
			<psa10 value="0.00159058544527956" flag="0"/>
			<psa30 value="0.000142727639112287" flag="0"/>
		</comp>
	</station>
	<station code="VDL" name="VDL" netid="CH" source="Switzerland Seismological Network" insttype="" lat="46.48318" lon="9.44956">
		<comp name="--.HGE" depth="0.0">
			<acc value="0.0031012048581706" flag="0"/>
			<vel value="0.00164041510861834" flag="0"/>
			<psa03 value="0.00706926864568694" flag="0"/>
			<psa10 value="0.00141743310566685" flag="0"/>
			<psa30 value="0.000483215831477335" flag="0"/>
		</comp>
		<comp name="--.HGN" depth="0.0">
			<acc value="0.00396827936713202" flag="0"/>
			<vel value="0.00175186425798827" flag="0"/>
			<psa03 value="0.00680081540597731" flag="0"/>
			<psa10 value="0.00127649515481929" flag="0"/>
			<psa30 value="0.000302457316739517" flag="0"/>
		</comp>
		<comp name="--.HGZ" depth="0.0">
			<acc value="0.00324673154964334" flag="0"/>
			<vel value="0.00139805093652542" flag="0"/>
			<psa03 value="0.00595071348023014" flag="0"/>
			<psa10 value="0.00131676314077574" flag="0"/>
			<psa30 value="0.000157492567296317" flag="0"/>
		</comp>
	</station>
	<station code="ESCA" name="ESCA" netid="FR" source="RESIF and other broad-band and accelerometric permanent networks in metropolitan France (RESIF)" insttype="" lat="43.831" lon="7.3744">
		<comp name="01.HNE" depth="0.0">
			<acc value="0.00335492215087758" flag="0"/>
			<vel value="0.00223466415754867" flag="0"/>
			<psa03 value="0.0116777159273689" flag="0"/>
			<psa10 value="0.00562946443671095" flag="0"/>
			<psa30 value="0.000287692388555487" flag="0"/>
		</comp>
		<comp name="01.HNN" depth="0.0">
			<acc value="0.00297356934124604" flag="0"/>
			<vel value="0.00253992467204654" flag="0"/>
			<psa03 value="0.00675607319935904" flag="0"/>
			<psa10 value="0.00444961244818713" flag="0"/>
			<psa30 value="0.000303799582938065" flag="0"/>
		</comp>
		<comp name="01.HNZ" depth="0.0">
			<acc value="0.00288379429092703" flag="0"/>
			<vel value="0.00213204926441831" flag="0"/>
			<psa03 value="0.00702452643906867" flag="0"/>
			<psa10 value="0.00311674211302881" flag="0"/>
			<psa30 value="0.000173599761678894" flag="0"/>
		</comp>
	</station>
	<station code="MON" name="MON" netid="FR" source="RESIF and other broad-band and accelerometric permanent networks in metropolitan France (RESIF)" insttype="" lat="43.730343" lon="7.424688">
		<comp name="00.HNE" depth="0.0">
			<acc value="0.585790326543871" flag="0"/>
			<vel value="0.509023502171584" flag="0"/>
			<psa03 value="1.8521931273766" flag="0"/>
			<psa10 value="1.00427551615654" flag="0"/>
			<psa30 value="0.0562892753023153" flag="0"/>
		</comp>
		<comp name="00.HNN" depth="0.0">
			<acc value="0.723542518790958" flag="0"/>
			<vel value="0.737929755162526" flag="0"/>
			<psa03 value="2.08896888480049" flag="0"/>
			<psa10 value="0.996777617171447" flag="0"/>
			<psa30 value="0.0491327593537228" flag="0"/>
		</comp>
		<comp name="00.HNZ" depth="0.0">
			<acc value="0.648754629267624" flag="0"/>
			<vel value="0.591041822283973" flag="0"/>
			<psa03 value="1.05121814449629" flag="0"/>
			<psa10 value="0.897774746898932" flag="0"/>
			<psa30 value="0.0467216018390641" flag="0"/>
		</comp>
	</station>
	<station code="SAOF" name="SAOF" netid="FR" source="RESIF and other broad-band and accelerometric permanent networks in metropolitan France (RESIF)" insttype="" lat="43.986" lon="7.5532">
		<comp name="00.HNE" depth="0.0">
			<acc value="0.00231925337712163" flag="0"/>
			<vel value="0.00272544491449094" flag="0"/>
			<psa03 value="0.00599545568684842" flag="0"/>
			<psa10 value="0.00514222180663797" flag="0"/>
			<psa30 value="0.000336908815835586" flag="0"/>
		</comp>
		<comp name="00.HNN" depth="0.0">
			<acc value="0.00285724998161317" flag="0"/>
			<vel value="0.0029707435476722" flag="0"/>
			<psa03 value="0.00970905883616497" flag="0"/>
			<psa10 value="0.00535966893080277" flag="0"/>
			<psa30 value="0.000275611992768554" flag="0"/>
		</comp>
		<comp name="00.HNZ" depth="0.0">
			<acc value="0.00177979527761973" flag="0"/>
			<vel value="0.00123754725234764" flag="0"/>
			<psa03 value="0.00545854920742915" flag="0"/>
			<psa10 value="0.00342680560489343" flag="0"/>
			<psa30 value="0.000264873863180169" flag="0"/>
		</comp>
	</station>
	<station code="FIVI" name="FIVI" netid="GU" source="Regional Seismic Network of North Western Italy (RSNI)" insttype="" lat="44.2394" lon="10.1271">
		<comp name="--.HNE" depth="0.0">
			<acc value="0.0604495933872" flag="0"/>
			<vel value="0.0401752943311612" flag="0"/>
			<psa03 value="0.193420559210789" flag="0"/>
			<psa10 value="0.0200212426175442" flag="0"/>
			<psa30 value="0.0015972967762723" flag="0"/>
		</comp>
		<comp name="--.HNN" depth="0.0">
			<acc value="0.0480231584683181" flag="0"/>
			<vel value="0.022208089762098" flag="0"/>
			<psa03 value="0.14317506117847" flag="0"/>
			<psa10 value="0.0141703042580728" flag="0"/>
			<psa30 value="0.00113510978190555" flag="0"/>
		</comp>
		<comp name="--.HNZ" depth="0.0">
			<acc value="0.0413136112531854" flag="0"/>
			<vel value="0.0248788343373044" flag="0"/>
			<psa03 value="0.100535738271257" flag="0"/>
			<psa10 value="0.0188333370318291" flag="0"/>
			<psa30 value="0.00150289072030775" flag="0"/>
		</comp>
	</station>
	<station code="APR" name="APR" netid="IT" source="Italian Strong Motion Network (RAN)" insttype="" lat="46.1562" lon="10.1577">
		<comp name="--.HGE" depth="0.0">
			<acc value="0.005932932" flag="0"/>
			<vel value="0.002165" flag="0"/>
			<psa03 value="0.0121251379935516" flag="0"/>
			<psa10 value="0.00146978148741023" flag="0"/>
			<psa30 value="0.000251003779128504" flag="0"/>
		</comp>
		<comp name="--.HGN" depth="0.0">
			<acc value="0.005109384" flag="0"/>
			<vel value="0.001487" flag="0"/>
			<psa03 value="0.00577174465375706" flag="0"/>
			<psa10 value="0.00127246835622365" flag="0"/>
			<psa30 value="0.000292166609217315" flag="0"/>
		</comp>
		<comp name="--.HGZ" depth="0.0">
			<acc value="0.005093574" flag="0"/>
			<vel value="0.001764" flag="0"/>
			<psa03 value="0.00693504202583212" flag="0"/>
			<psa10 value="0.00179192537506178" flag="0"/>
			<psa30 value="0.000275611992768554" flag="0"/>
		</comp>
	</station>
	<station code="AUL" name="AUL" netid="IT" source="Italian Strong Motion Network (RAN)" insttype="" lat="44.2087" lon="9.9731">
		<comp name="--.HGE" depth="0.0">
			<acc value="0.115313346" flag="0"/>
			<vel value="0.058903" flag="0"/>
			<psa03 value="0.380756178321493" flag="0"/>
			<psa10 value="0.0321942547721774" flag="0"/>
			<psa30 value="0.00201339929782223" flag="0"/>
		</comp>
		<comp name="--.HGN" depth="0.0">
			<acc value="0.078039996" flag="0"/>
			<vel value="0.039196" flag="0"/>
			<psa03 value="0.223755775297977" flag="0"/>
			<psa10 value="0.0280144378298985" flag="0"/>
			<psa30 value="0.0017914779529956" flag="0"/>
		</comp>
		<comp name="--.HGZ" depth="0.0">
			<acc value="0.032391222" flag="0"/>
			<vel value="0.014498" flag="0"/>
			<psa03 value="0.0668895988943163" flag="0"/>
			<psa10 value="0.0166387317972029" flag="0"/>
			<psa30 value="0.00120490762423006" flag="0"/>
		</comp>
	</station>
	<station code="BDG" name="BDG" netid="IT" source="Italian Strong Motion Network (RAN)" insttype="" lat="44.5067" lon="9.6229">
		<comp name="--.HGE" depth="0.0">
			<acc value="0.423690558" flag="0"/>
			<vel value="0.152683" flag="0"/>
			<psa03 value="0.89703650048973" flag="0"/>
			<psa10 value="0.0686931572430988" flag="0"/>
			<psa30 value="0.00648583027138467" flag="0"/>
		</comp>
		<comp name="--.HGN" depth="0.0">
			<acc value="0.520393188" flag="0"/>
			<vel value="0.259267" flag="0"/>
			<psa03 value="1.20374432685798" flag="0"/>
			<psa10 value="0.167156436503797" flag="0"/>
			<psa30 value="0.00913322663698781" flag="0"/>
		</comp>
		<comp name="--.HGZ" depth="0.0">
			<acc value="0.202423692" flag="0"/>
			<vel value="0.08628" flag="0"/>
			<psa03 value="0.72540539590204" flag="0"/>
			<psa10 value="0.0415283739168813" flag="0"/>
			<psa30 value="0.00412523145020466" flag="0"/>
		</comp>
	</station>
	<station code="BGN" name="BGN" netid="IT" source="Italian Strong Motion Network (RAN)" insttype="" lat="44.3224" lon="9.9917">
		<comp name="--.HGE" depth="0.0">
			<acc value="0.064946664" flag="0"/>
			<vel value="0.02475" flag="0"/>
			<psa03 value="0.139998364508572" flag="0"/>
			<psa10 value="0.0206091552125083" flag="0"/>
			<psa30 value="0.00138566613896788" flag="0"/>
		</comp>
		<comp name="--.HGN" depth="0.0">
			<acc value="0.074667162" flag="0"/>
			<vel value="0.030175" flag="0"/>
			<psa03 value="0.167291110545718" flag="0"/>
			<psa10 value="0.0221675262690227" flag="0"/>
			<psa30 value="0.00116821901480308" flag="0"/>
		</comp>
		<comp name="--.HGZ" depth="0.0">
			<acc value="0.049045884" flag="0"/>
			<vel value="0.02276" flag="0"/>
			<psa03 value="0.0735561876804388" flag="0"/>
			<psa10 value="0.0156763269328439" flag="0"/>
			<psa30 value="0.00118656331951657" flag="0"/>
		</comp>
	</station>
	<station code="BRR" name="BRR" netid="IT" source="Italian Strong Motion Network (RAN)" insttype="" lat="44.5063" lon="9.9872">
		<comp name="--.HGE" depth="0.0">
			<acc value="0.13056153" flag="0"/>
			<vel value="0.047169" flag="0"/>
			<psa03 value="0.379548138742799" flag="0"/>
			<psa10 value="0.0338291350020091" flag="0"/>
			<psa30 value="0.00276730547934011" flag="0"/>
		</comp>
		<comp name="--.HGN" depth="0.0">
			<acc value="0.158471484" flag="0"/>
			<vel value="0.066608" flag="0"/>
			<psa03 value="0.527958038095607" flag="0"/>
			<psa10 value="0.0386089449350391" flag="0"/>
			<psa30 value="0.00342725302695962" flag="0"/>
		</comp>
		<comp name="--.HGZ" depth="0.0">
			<acc value="0.058235778" flag="0"/>
			<vel value="0.030294" flag="0"/>
			<psa03 value="0.17292862857962" flag="0"/>
			<psa10 value="0.0213541129527026" flag="0"/>
			<psa30 value="0.00139819395682099" flag="0"/>
		</comp>
	</station>
	<station code="BVT" name="BVT" netid="IT" source="Italian Strong Motion Network (RAN)" insttype="" lat="44.5304" lon="9.7428">
