<?xml version="1.0" encoding="UTF-8" standalone="yes"?>
<!DOCTYPE earthquake SYSTEM "stationlist.dtd">
<stationlist created="" xmlns="ch.ethz.sed.shakemap.usgs.xml">
  <station code="BAC" name="BAC" netid="RO" insttype="2.5V" lat="46.5669" lon="26.9124">
    <comp name="--.HNE">
      <acc value="0.0629003825" flag="0"/>
      <vel value="0.0154627222" flag="0"/>
      <psa03 value="0.0433402532" flag="0"/>
      <psa10 value="0.0037810613" flag="0"/>
      <psa30 value="0.0003187430" flag="0"/>
    </comp>
    <comp name="--.HNN">
      <acc value="0.0745773786" flag="0"/>
      <vel value="0.0180236594" flag="0"/>
      <psa03 value="0.0701492267" flag="0"/>
      <psa10 value="0.0060103223" flag="0"/>
      <psa30 value="0.0004632677" flag="0"/>
    </comp>
    <comp name="--.HNZ">
      <acc value="0.0494039482" flag="0"/>
      <vel value="0.0084157179" flag="0"/>
      <psa03 value="0.0143219866" flag="0"/>
      <psa10 value="0.0011557508" flag="0"/>
      <psa30 value="0.0001021655" flag="0"/>
    </comp>
  </station>
  <station code="BIR" name="BIR" netid="RO" insttype="MBB2/Quanterra" lat="46.2334" lon="27.6436">
    <comp name="--.HHE">
      <acc value="0.2834266097" flag="0"/>
      <vel value="0.0528761678" flag="0"/>
      <psa03 value="0.0943765247" flag="0"/>
      <psa10 value="0.0091152383" flag="0"/>
      <psa30 value="0.0009847216" flag="0"/>
    </comp>
    <comp name="--.HHN">
      <acc value="0.2527403182" flag="0"/>
      <vel value="0.0519659914" flag="0"/>
      <psa03 value="0.1971362362" flag="0"/>
      <psa10 value="0.0070883689" flag="0"/>
      <psa30 value="0.0009039627" flag="0"/>
    </comp>
    <comp name="--.HHZ">
      <acc value="0.1458889795" flag="0"/>
      <vel value="0.0303447162" flag="0"/>
      <psa03 value="0.0961052348" flag="0"/>
      <psa10 value="0.0037126518" flag="0"/>
      <psa30 value="0.0003994118" flag="0"/>
    </comp>
  </station>
  <station code="BISRR" name="BISRR" netid="RO" insttype="CMG40T.1to100/Basalt" lat="45.5481" lon="26.7099">
    <comp name="--.HHE">
      <acc value="0.0607182874" flag="0"/>
      <vel value="0.0152727441" flag="0"/>
      <psa03 value="0.0710850051" flag="0"/>
      <psa10 value="0.0074222953" flag="0"/>
      <psa30 value="0.0004915172" flag="0"/>
    </comp>
    <comp name="--.HHZ">
      <acc value="0.0798405860" flag="0"/>
      <vel value="0.0119498004" flag="0"/>
      <psa03 value="0.0318758121" flag="0"/>
      <psa10 value="0.0033290456" flag="0"/>
      <psa30 value="0.0002304930" flag="0"/>
    </comp>
    <comp name="--.HHN">
      <acc value="0.0512400487" flag="0"/>
      <vel value="0.0133881873" flag="0"/>
      <psa03 value="0.0749183485" flag="0"/>
      <psa10 value="0.0087576866" flag="0"/>
      <psa30 value="0.0003554387" flag="0"/>
    </comp>
  </station>
  <station code="BOSR" name="BOSR" netid="RO" insttype="Seismometer/Basalt" lat="46.0749" lon="25.6611">
    <comp name="--.HHE">
      <acc value="0.0142996956" flag="0"/>
      <vel value="0.0054801115" flag="0"/>
      <psa03 value="0.0232659545" flag="0"/>
      <psa10 value="0.0023611014" flag="0"/>
      <psa30 value="0.0001664646" flag="0"/>
    </comp>
    <comp name="--.HHN">
      <acc value="0.0141195723" flag="0"/>
      <vel value="0.0047949800" flag="0"/>
      <psa03 value="0.0212174795" flag="0"/>
      <psa10 value="0.0015550720" flag="0"/>
      <psa30 value="0.0001395927" flag="0"/>
    </comp>
    <comp name="--.HHZ">
      <acc value="0.0081491891" flag="0"/>
      <vel value="0.0022316848" flag="0"/>
      <psa03 value="0.0105627307" flag="0"/>
      <psa10 value="0.0007635367" flag="0"/>
      <psa30 value="0.0000508487" flag="0"/>
    </comp>
  </station>
  <station code="COPR" name="COPR" netid="RO" insttype="200" lat="45.8442" lon="26.1687">
    <comp name="--.HNN">
      <acc value="0.0130990437" flag="0"/>
      <vel value="0.0054505898" flag="0"/>
      <psa03 value="0.0270011307" flag="0"/>
      <psa10 value="0.0041089438" flag="0"/>
      <psa30 value="0.0008667015" flag="0"/>
    </comp>
    <comp name="--.HNZ">
      <acc value="0.0107232421" flag="0"/>
      <vel value="0.0037252438" flag="0"/>
      <psa03 value="0.0208097814" flag="0"/>
      <psa10 value="0.0017793081" flag="0"/>
      <psa30 value="0.0001280639" flag="0"/>
    </comp>
  </station>
  <station code="DOPR" name="DOPR" netid="RO" insttype="330" lat="45.9675" lon="25.3886">
    <comp name="--.HHE">
      <acc value="0.0090659336" flag="0"/>
      <vel value="0.0017825745" flag="0"/>
      <psa03 value="0.0097770503" flag="0"/>
      <psa10 value="0.0010980091" flag="0"/>
      <psa30 value="0.0000907171" flag="0"/>
    </comp>
    <comp name="--.HHZ">
      <acc value="0.0067636798" flag="0"/>
      <vel value="0.0009416206" flag="0"/>
      <psa03 value="0.0046316319" flag="0"/>
      <psa10 value="0.0004253283" flag="0"/>
      <psa30 value="0.0000332724" flag="0"/>
    </comp>
    <comp name="--.HHN">
      <acc value="0.0091554265" flag="0"/>
      <vel value="0.0019304402" flag="0"/>
      <psa03 value="0.0083850996" flag="0"/>
      <psa10 value="0.0003523525" flag="0"/>
      <psa30 value="0.0000343961" flag="0"/>
    </comp>
  </station>
  <station code="GISR" name="GISR" netid="RO" insttype="2.5V" lat="45.4411" lon="28.0541">
    <comp name="--.HNE">
      <acc value="0.0910247727" flag="0"/>
      <vel value="0.0203951648" flag="0"/>
      <psa03 value="0.0677586983" flag="0"/>
      <psa10 value="0.0045509480" flag="0"/>
      <psa30 value="0.0004477090" flag="0"/>
    </comp>
    <comp name="--.HNN">
      <acc value="0.0790638216" flag="0"/>
      <vel value="0.0160861297" flag="0"/>
      <psa03 value="0.0745343779" flag="0"/>
      <psa10 value="0.0024981826" flag="0"/>
      <psa30 value="0.0006644951" flag="0"/>
    </comp>
    <comp name="--.HNZ">
      <acc value="0.1155375546" flag="0"/>
      <vel value="0.0187096459" flag="0"/>
      <psa03 value="0.0408580957" flag="0"/>
      <psa10 value="0.0021801012" flag="0"/>
      <psa30 value="0.0003788672" flag="0"/>
    </comp>
  </station>
  <station code="GIUM" name="GIUM" netid="RO" insttype="2.5V" lat="45.485" lon="28.2081">
    <comp name="--.HNE">
      <acc value="0.0689898819" flag="0"/>
      <vel value="0.0138514775" flag="0"/>
      <psa03 value="0.0445316389" flag="0"/>
      <psa10 value="0.0049813177" flag="0"/>
      <psa30 value="0.0007731385" flag="0"/>
    </comp>
    <comp name="--.HNZ">
      <acc value="0.0517885625" flag="0"/>
      <vel value="0.0116539916" flag="0"/>
      <psa03 value="0.0437809253" flag="0"/>
      <psa10 value="0.0019844834" flag="0"/>
      <psa30 value="0.0006458842" flag="0"/>
    </comp>
    <comp name="--.HNN">
      <acc value="0.0564273814" flag="0"/>
      <vel value="0.0136952315" flag="0"/>
      <psa03 value="0.0355501485" flag="0"/>
      <psa10 value="0.0025542235" flag="0"/>
      <psa30 value="0.0005855760" flag="0"/>
    </comp>
  </station>
  <station code="IZVR" name="IZVR" netid="RO" insttype="CMG40T.1to100/Quanterra" lat="45.5442" lon="27.7655">
    <comp name="--.HHE">
      <acc value="0.0600755956" flag="0"/>
      <vel value="0.0085780265" flag="0"/>
      <psa03 value="0.0118639736" flag="0"/>
      <psa10 value="0.0010125719" flag="0"/>
      <psa30 value="0.0000914294" flag="0"/>
    </comp>
    <comp name="--.HHZ">
      <acc value="0.0403052023" flag="0"/>
      <vel value="0.0039934758" flag="0"/>
      <psa03 value="0.0070207853" flag="0"/>
      <psa10 value="0.0004461739" flag="0"/>
      <psa30 value="0.0000369350" flag="0"/>
    </comp>
    <comp name="--.HHN">
      <acc value="0.0597340434" flag="0"/>
      <vel value="0.0109028596" flag="0"/>
      <psa03 value="0.0269590606" flag="0"/>
      <psa10 value="0.0012819668" flag="0"/>
      <psa30 value="0.0000968121" flag="0"/>
    </comp>
  </station>
  <station code="MLR" name="MLR" netid="RO" insttype="330HR" lat="45.4909" lon="25.945">
    <comp name="--.HHN">
      <acc value="0.0090045002" flag="0"/>
      <vel value="0.0039127551" flag="0"/>
      <psa03 value="0.0189740837" flag="0"/>
      <psa10 value="0.0019060553" flag="0"/>
      <psa30 value="0.0001441056" flag="0"/>
    </comp>
    <comp name="--.HHZ">
      <acc value="0.0072055520" flag="0"/>
      <vel value="0.0040461997" flag="0"/>
      <psa03 value="0.0135998446" flag="0"/>
      <psa10 value="0.0018120918" flag="0"/>
      <psa30 value="0.0001163121" flag="0"/>
    </comp>
    <comp name="--.HHE">
      <acc value="0.0076326511" flag="0"/>
      <vel value="0.0040834146" flag="0"/>
      <psa03 value="0.0149020619" flag="0"/>
      <psa10 value="0.0041442398" flag="0"/>
      <psa30 value="0.0002612618" flag="0"/>
    </comp>
  </station>
  <station code="NEGRR" name="NEGRR" netid="RO" insttype="CMG40T.1to100/Quanterra" lat="45.5373" lon="27.8771">
    <comp name="--.HHE">
      <acc value="0.0869538608" flag="0"/>
      <vel value="0.0126680613" flag="0"/>
      <psa03 value="0.0232533891" flag="0"/>
      <psa10 value="0.0014578258" flag="0"/>
      <psa30 value="0.0001262602" flag="0"/>
    </comp>
    <comp name="--.HHN">
      <acc value="0.0594508500" flag="0"/>
      <vel value="0.0094850124" flag="0"/>
      <psa03 value="0.0253993790" flag="0"/>
      <psa10 value="0.0012567808" flag="0"/>
      <psa30 value="0.0001074125" flag="0"/>
    </comp>
    <comp name="--.HHZ">
      <acc value="0.0508684829" flag="0"/>
      <vel value="0.0062262009" flag="0"/>
      <psa03 value="0.0155976416" flag="0"/>
      <psa10 value="0.0008760276" flag="0"/>
      <psa30 value="0.0000758275" flag="0"/>
    </comp>
  </station>
  <station code="NEHR" name="NEHR" netid="RO" insttype="Seismometer/Basalt" lat="45.4272" lon="26.2952">
    <comp name="--.HHN">
      <acc value="0.0306481792" flag="0"/>
      <vel value="0.0115873822" flag="0"/>
      <psa03 value="0.0518939273" flag="0"/>
      <psa10 value="0.0036232061" flag="0"/>
      <psa30 value="0.0002836703" flag="0"/>
    </comp>
    <comp name="--.HHE">
      <acc value="0.0270611382" flag="0"/>
      <vel value="0.0110921517" flag="0"/>
      <psa03 value="0.0636143673" flag="0"/>
      <psa10 value="0.0033765599" flag="0"/>
      <psa30 value="0.0003453632" flag="0"/>
    </comp>
    <comp name="--.HHZ">
      <acc value="0.0214649489" flag="0"/>
      <vel value="0.0058968561" flag="0"/>
      <psa03 value="0.0412787097" flag="0"/>
      <psa10 value="0.0021664398" flag="0"/>
      <psa30 value="0.0001465022" flag="0"/>
    </comp>
  </station>
  <station code="ODBI" name="ODBI" netid="RO" insttype="PBB.1to100/Quanterra" lat="45.7633" lon="27.0558">
    <comp name="--.HHZ">
      <acc value="0.0004639235" flag="0"/>
      <vel value="0.0000440030" flag="0"/>
      <psa03 value="0.0000911679" flag="0"/>
      <psa10 value="0.0000115503" flag="0"/>
      <psa30 value="0.0000021402" flag="0"/>
    </comp>
    <comp name="--.HHN">
      <acc value="0.4858245526" flag="0"/>
      <vel value="0.0681484900" flag="0"/>
      <psa03 value="0.3169730386" flag="0"/>
      <psa10 value="0.0122857596" flag="0"/>
      <psa30 value="0.0011712705" flag="0"/>
    </comp>
    <comp name="--.HHE">
      <acc value="0.4036526455" flag="0"/>
      <vel value="0.0596969697" flag="0"/>
      <psa03 value="0.2690112508" flag="0"/>
      <psa10 value="0.0172771487" flag="0"/>
      <psa30 value="0.0013228134" flag="0"/>
    </comp>
  </station>
  <station code="ODSR" name="ODSR" netid="RO" insttype="200" lat="46.2969" lon="25.2919">
    <comp name="--.HNE">
      <acc value="0.0043759120" flag="0"/>
      <vel value="0.0014236887" flag="0"/>
      <psa03 value="0.0067843473" flag="0"/>
      <psa10 value="0.0005780067" flag="0"/>
      <psa30 value="0.0001519664" flag="0"/>
    </comp>
    <comp name="--.HNZ">
      <acc value="0.0035077393" flag="0"/>
      <vel value="0.0008553692" flag="0"/>
      <psa03 value="0.0039515003" flag="0"/>
      <psa10 value="0.0003241407" flag="0"/>
      <psa30 value="0.0001459624" flag="0"/>
    </comp>
    <comp name="--.HNN">
      <acc value="0.0038888654" flag="0"/>
      <vel value="0.0020604150" flag="0"/>
      <psa03 value="0.0079976772" flag="0"/>
      <psa10 value="0.0006453826" flag="0"/>
      <psa30 value="0.0000767549" flag="0"/>
    </comp>
  </station>
  <station code="ONER" name="ONER" netid="RO" insttype="CMG40T.1to100/obsidian" lat="46.3349" lon="26.394">
    <comp name="--.HHE">
      <acc value="0.0044487177" flag="0"/>
      <vel value="0.0012878874" flag="0"/>
      <psa03 value="0.0067832574" flag="0"/>
      <psa10 value="0.0006146856" flag="0"/>
      <psa30 value="0.0000358984" flag="0"/>
    </comp>
    <comp name="--.HHZ">
      <acc value="0.0053090038" flag="0"/>
      <vel value="0.0009482812" flag="0"/>
      <psa03 value="0.0042001266" flag="0"/>
      <psa10 value="0.0006684007" flag="0"/>
      <psa30 value="0.0000355244" flag="0"/>
    </comp>
    <comp name="--.HHN">
      <acc value="0.0064882135" flag="0"/>
      <vel value="0.0014393059" flag="0"/>
      <psa03 value="0.0052775763" flag="0"/>
      <psa10 value="0.0007659079" flag="0"/>
      <psa30 value="0.0000492260" flag="0"/>
    </comp>
  </station>
  <station code="PANC" name="PANC" netid="RO" insttype="Seismometer/Basalt" lat="45.8723" lon="27.1477">
    <comp name="--.HHE">
      <acc value="0.1340852267" flag="0"/>
      <vel value="0.0279607613" flag="0"/>
      <psa03 value="0.0703920358" flag="0"/>
      <psa10 value="0.0062015694" flag="0"/>
      <psa30 value="0.0004847399" flag="0"/>
    </comp>
    <comp name="--.HHN">
      <acc value="0.2601642419" flag="0"/>
      <vel value="0.0397191984" flag="0"/>
      <psa03 value="0.0928275004" flag="0"/>
      <psa10 value="0.0262389284" flag="0"/>
      <psa30 value="0.0198418566" flag="0"/>
    </comp>
    <comp name="--.HHZ">
      <acc value="0.1215804452" flag="0"/>
      <vel value="0.0266084412" flag="0"/>
      <psa03 value="0.0506775214" flag="0"/>
      <psa10 value="0.0027299212" flag="0"/>
      <psa30 value="0.0002999700" flag="0"/>
    </comp>
  </station>
  <station code="PGOR" name="PGOR" netid="RO" insttype="CMG40T.1to100/Quanterra" lat="44.9199" lon="26.9768">
    <comp name="--.HHZ">
      <acc value="0.1073614174" flag="0"/>
      <vel value="0.0108625174" flag="0"/>
      <psa03 value="0.0254641386" flag="0"/>
      <psa10 value="0.0015509259" flag="0"/>
      <psa30 value="0.0001235004" flag="0"/>
    </comp>
    <comp name="--.HHE">
      <acc value="0.1320782738" flag="0"/>
      <vel value="0.0313436103" flag="0"/>
      <psa03 value="0.1066066968" flag="0"/>
      <psa10 value="0.0072181308" flag="0"/>
      <psa30 value="0.0006570671" flag="0"/>
    </comp>
    <comp name="--.HHN">
      <acc value="0.1215110524" flag="0"/>
      <vel value="0.0363958581" flag="0"/>
      <psa03 value="0.1188804540" flag="0"/>
      <psa10 value="0.0097970996" flag="0"/>
      <psa30 value="0.0010192298" flag="0"/>
    </comp>
  </station>
  <station code="PLAR" name="PLAR" netid="RO" insttype="200" lat="44.9142" lon="26.0274">
    <comp name="--.HNE">
      <acc value="0.0331724592" flag="0"/>
      <vel value="0.0088625471" flag="0"/>
      <psa03 value="0.0320983287" flag="0"/>
      <psa10 value="0.0024312188" flag="0"/>
      <psa30 value="0.0001838982" flag="0"/>
    </comp>
    <comp name="--.HNZ">
      <acc value="0.0221454684" flag="0"/>
      <vel value="0.0033349261" flag="0"/>
      <psa03 value="0.0086515350" flag="0"/>
      <psa10 value="0.0011046605" flag="0"/>
      <psa30 value="0.0000808068" flag="0"/>
    </comp>
    <comp name="--.HNN">
      <acc value="0.0239635109" flag="0"/>
      <vel value="0.0094595259" flag="0"/>
      <psa03 value="0.0379204053" flag="0"/>
      <psa10 value="0.0032549978" flag="0"/>
      <psa30 value="0.0003213180" flag="0"/>
    </comp>
  </station>
  <station code="PLOR" name="PLOR" netid="RO" insttype="330" lat="45.8512" lon="26.6498">
    <comp name="--.HHN">
      <acc value="0.0124610366" flag="0"/>
      <vel value="0.0042657886" flag="0"/>
      <psa03 value="0.0282395240" flag="0"/>
      <psa10 value="0.0014284180" flag="0"/>
      <psa30 value="0.0001191746" flag="0"/>
    </comp>
    <comp name="--.HHE">
      <acc value="0.0138418894" flag="0"/>
      <vel value="0.0054436129" flag="0"/>
      <psa03 value="0.0287206438" flag="0"/>
      <psa10 value="0.0018426876" flag="0"/>
      <psa30 value="0.0001149210" flag="0"/>
    </comp>
    <comp name="--.HHZ">
      <acc value="0.0118856407" flag="0"/>
      <vel value="0.0021634823" flag="0"/>
      <psa03 value="0.0131548335" flag="0"/>
      <psa10 value="0.0005640776" flag="0"/>
      <psa30 value="0.0000583315" flag="0"/>
    </comp>
  </station>
  <station code="PLOR4" name="PLOR4" netid="RO" insttype="330" lat="45.8512" lon="26.6498">
    <comp name="--.HHE">
      <acc value="0.0138418894" flag="0"/>
      <vel value="0.0054436129" flag="0"/>
      <psa03 value="0.0287206438" flag="0"/>
      <psa10 value="0.0018426876" flag="0"/>
      <psa30 value="0.0001149210" flag="0"/>
    </comp>
    <comp name="--.HHN">
      <acc value="0.0124610366" flag="0"/>
      <vel value="0.0042657886" flag="0"/>
      <psa03 value="0.0282395240" flag="0"/>
      <psa10 value="0.0014284180" flag="0"/>
      <psa30 value="0.0001191746" flag="0"/>
    </comp>
    <comp name="--.HHZ">
      <acc value="0.0118856407" flag="0"/>
      <vel value="0.0021634823" flag="0"/>
      <psa03 value="0.0131548335" flag="0"/>
      <psa10 value="0.0005640776" flag="0"/>
      <psa30 value="0.0000583315" flag="0"/>
    </comp>
  </station>
  <station code="SAHR" name="SAHR" netid="RO" insttype="Seismometer/Basalt" lat="45.7266" lon="26.6855">
    <comp name="--.HHE">
      <acc value="0.1052465660" flag="0"/>
      <vel value="0.0239026149" flag="0"/>
      <psa03 value="0.0399473834" flag="0"/>
      <psa10 value="0.0278815336" flag="0"/>
      <psa30 value="0.0049546209" flag="0"/>
    </comp>
    <comp name="--.HHZ">
      <acc value="0.1001946753" flag="0"/>
      <vel value="0.0159424972" flag="0"/>
      <psa03 value="0.0502349057" flag="0"/>
      <psa10 value="0.0029828581" flag="0"/>
      <psa30 value="0.0002677230" flag="0"/>
    </comp>
    <comp name="--.HHN">
      <acc value="0.0720479613" flag="0"/>
      <vel value="0.0121564233" flag="0"/>
      <psa03 value="0.0830715524" flag="0"/>
      <psa10 value="0.0045026860" flag="0"/>
      <psa30 value="0.0002419660" flag="0"/>
    </comp>
  </station>
  <station code="SCHL" name="SCHL" netid="RO" insttype="CMG40T.1to100/Quanterra" lat="45.5007" lon="27.8302">
    <comp name="--.HHN">
      <acc value="0.0422390829" flag="0"/>
      <vel value="0.0114703053" flag="0"/>
      <psa03 value="0.0348057965" flag="0"/>
      <psa10 value="0.0038505279" flag="0"/>
      <psa30 value="0.0002554657" flag="0"/>
    </comp>
    <comp name="--.HHE">
      <acc value="0.0478569226" flag="0"/>
      <vel value="0.0110692810" flag="0"/>
      <psa03 value="0.0464757602" flag="0"/>
      <psa10 value="0.0020528372" flag="0"/>
      <psa30 value="0.0001571952" flag="0"/>
    </comp>
    <comp name="--.HHZ">
      <acc value="0.0639727498" flag="0"/>
      <vel value="0.0085943416" flag="0"/>
      <psa03 value="0.0177475727" flag="0"/>
      <psa10 value="0.0008075282" flag="0"/>
      <psa30 value="0.0001062145" flag="0"/>
    </comp>
  </station>
  <station code="SCHLR" name="SCHLR" netid="RO" insttype="CMG40T.1to100/Quanterra" lat="45.4702" lon="27.8314">
    <comp name="--.HHZ">
      <acc value="0.0678969383" flag="0"/>
      <vel value="0.0080996637" flag="0"/>
      <psa03 value="0.0110005833" flag="0"/>
      <psa10 value="0.0004788034" flag="0"/>
      <psa30 value="0.0000594837" flag="0"/>
    </comp>
    <comp name="--.HHN">
      <acc value="0.0466146673" flag="0"/>
      <vel value="0.0095211029" flag="0"/>
      <psa03 value="0.0275841253" flag="0"/>
      <psa10 value="0.0017825921" flag="0"/>
