<?xml version="1.0" encoding="UTF-8" standalone="yes"?>
<!DOCTYPE earthquake SYSTEM "stationlist.dtd">
<stationlist created="" xmlns="ch.ethz.sed.shakemap.usgs.xml">
  <station code="BAC" name="BAC" netid="RO" insttype="2.5V" lat="46.5669" lon="26.9124">
    <comp name="--.HNE">
      <acc value="0.0629003828" flag="0"/>
      <vel value="0.0154627230" flag="0"/>
      <psa03 value="0.0433402532" flag="0"/>
      <psa10 value="0.0037810615" flag="0"/>
      <psa30 value="0.0003186453" flag="0"/>
    </comp>
    <comp name="--.HNZ">
      <acc value="0.0494039490" flag="0"/>
      <vel value="0.0084157177" flag="0"/>
      <psa03 value="0.0143219866" flag="0"/>
      <psa10 value="0.0011557508" flag="0"/>
      <psa30 value="0.0001022227" flag="0"/>
    </comp>
    <comp name="--.HNN">
      <acc value="0.0745773785" flag="0"/>
      <vel value="0.0180236613" flag="0"/>
      <psa03 value="0.0701492267" flag="0"/>
      <psa10 value="0.0060103223" flag="0"/>
      <psa30 value="0.0004632397" flag="0"/>
    </comp>
  </station>
  <station code="BIR" name="BIR" netid="RO" insttype="MBB2/Quanterra" lat="46.2334" lon="27.6436">
    <comp name="--.HHE">
      <acc value="0.2834266097" flag="0"/>
      <vel value="0.0528761684" flag="0"/>
      <psa03 value="0.0943765247" flag="0"/>
      <psa10 value="0.0091152383" flag="0"/>
      <psa30 value="0.0009848354" flag="0"/>
    </comp>
    <comp name="--.HHN">
      <acc value="0.2527403182" flag="0"/>
      <vel value="0.0519659911" flag="0"/>
      <psa03 value="0.1971362362" flag="0"/>
      <psa10 value="0.0070883690" flag="0"/>
      <psa30 value="0.0009038626" flag="0"/>
    </comp>
    <comp name="--.HHZ">
      <acc value="0.1458889794" flag="0"/>
      <vel value="0.0303447170" flag="0"/>
      <psa03 value="0.0961052348" flag="0"/>
      <psa10 value="0.0037126519" flag="0"/>
      <psa30 value="0.0003993804" flag="0"/>
    </comp>
  </station>
  <station code="BISRR" name="BISRR" netid="RO" insttype="CMG40T.1to100/Basalt" lat="45.5481" lon="26.7099">
    <comp name="--.HHN">
      <acc value="0.0512400501" flag="0"/>
      <vel value="0.0133881851" flag="0"/>
      <psa03 value="0.0749183485" flag="0"/>
      <psa10 value="0.0087576866" flag="0"/>
      <psa30 value="0.0003549349" flag="0"/>
    </comp>
    <comp name="--.HHE">
      <acc value="0.0607182868" flag="0"/>
      <vel value="0.0152727520" flag="0"/>
      <psa03 value="0.0710850051" flag="0"/>
      <psa10 value="0.0074222953" flag="0"/>
      <psa30 value="0.0004918944" flag="0"/>
    </comp>
    <comp name="--.HHZ">
      <acc value="0.0798405864" flag="0"/>
      <vel value="0.0119497998" flag="0"/>
      <psa03 value="0.0318758121" flag="0"/>
      <psa10 value="0.0033290456" flag="0"/>
      <psa30 value="0.0002303024" flag="0"/>
    </comp>
  </station>
  <station code="BOSR" name="BOSR" netid="RO" insttype="Seismometer/Basalt" lat="46.0749" lon="25.6611">
    <comp name="--.HHN">
      <acc value="0.0141195723" flag="0"/>
      <vel value="0.0047949801" flag="0"/>
      <psa03 value="0.0212174795" flag="0"/>
      <psa10 value="0.0015550720" flag="0"/>
      <psa30 value="0.0001395929" flag="0"/>
    </comp>
    <comp name="--.HHE">
      <acc value="0.0142996956" flag="0"/>
      <vel value="0.0054801107" flag="0"/>
      <psa03 value="0.0232659545" flag="0"/>
      <psa10 value="0.0023611014" flag="0"/>
      <psa30 value="0.0001664584" flag="0"/>
    </comp>
    <comp name="--.HHZ">
      <acc value="0.0081491891" flag="0"/>
      <vel value="0.0022316848" flag="0"/>
      <psa03 value="0.0105627307" flag="0"/>
      <psa10 value="0.0007635367" flag="0"/>
      <psa30 value="0.0000508472" flag="0"/>
    </comp>
  </station>
  <station code="COPR" name="COPR" netid="RO" insttype="200" lat="45.8442" lon="26.1687">
    <comp name="--.HNE">
      <acc value="0.0158487402" flag="0"/>
      <vel value="0.0070449068" flag="0"/>
      <psa03 value="0.0482949422" flag="0"/>
      <psa10 value="0.0059295831" flag="0"/>
      <psa30 value="0.0003615725" flag="0"/>
    </comp>
    <comp name="--.HNN">
      <acc value="0.0130990440" flag="0"/>
      <vel value="0.0054505802" flag="0"/>
      <psa03 value="0.0270011307" flag="0"/>
      <psa10 value="0.0041089432" flag="0"/>
      <psa30 value="0.0008667382" flag="0"/>
    </comp>
    <comp name="--.HNZ">
      <acc value="0.0107232418" flag="0"/>
      <vel value="0.0037252434" flag="0"/>
      <psa03 value="0.0208097814" flag="0"/>
      <psa10 value="0.0017793088" flag="0"/>
      <psa30 value="0.0001287915" flag="0"/>
    </comp>
  </station>
  <station code="DOPR" name="DOPR" netid="RO" insttype="330" lat="45.9675" lon="25.3886">
    <comp name="--.HHE">
      <acc value="0.0090659336" flag="0"/>
      <vel value="0.0017825744" flag="0"/>
      <psa03 value="0.0097770503" flag="0"/>
      <psa10 value="0.0010980091" flag="0"/>
      <psa30 value="0.0000907139" flag="0"/>
    </comp>
    <comp name="--.HHN">
      <acc value="0.0091554265" flag="0"/>
      <vel value="0.0019304406" flag="0"/>
      <psa03 value="0.0083850996" flag="0"/>
      <psa10 value="0.0003523525" flag="0"/>
      <psa30 value="0.0000343922" flag="0"/>
    </comp>
    <comp name="--.HHZ">
      <acc value="0.0067636797" flag="0"/>
      <vel value="0.0009416205" flag="0"/>
      <psa03 value="0.0046316319" flag="0"/>
      <psa10 value="0.0004253283" flag="0"/>
      <psa30 value="0.0000332653" flag="0"/>
    </comp>
  </station>
  <station code="GISR" name="GISR" netid="RO" insttype="2.5V" lat="45.4411" lon="28.0541">
    <comp name="--.HNE">
      <acc value="0.0910247728" flag="0"/>
      <vel value="0.0203951633" flag="0"/>
      <psa03 value="0.0677586983" flag="0"/>
      <psa10 value="0.0045509481" flag="0"/>
      <psa30 value="0.0004476928" flag="0"/>
    </comp>
    <comp name="--.HNN">
      <acc value="0.0790638217" flag="0"/>
      <vel value="0.0160861281" flag="0"/>
      <psa03 value="0.0745343779" flag="0"/>
      <psa10 value="0.0024981826" flag="0"/>
      <psa30 value="0.0006644911" flag="0"/>
    </comp>
    <comp name="--.HNZ">
      <acc value="0.1155375548" flag="0"/>
      <vel value="0.0187096450" flag="0"/>
      <psa03 value="0.0408580957" flag="0"/>
      <psa10 value="0.0021801011" flag="0"/>
      <psa30 value="0.0003793252" flag="0"/>
    </comp>
  </station>
  <station code="GIUM" name="GIUM" netid="RO" insttype="2.5V" lat="45.485" lon="28.2081">
    <comp name="--.HNN">
      <acc value="0.0564273824" flag="0"/>
      <vel value="0.0136952209" flag="0"/>
      <psa03 value="0.0355501485" flag="0"/>
      <psa10 value="0.0025542237" flag="0"/>
      <psa30 value="0.0005857950" flag="0"/>
    </comp>
    <comp name="--.HNZ">
      <acc value="0.0517885619" flag="0"/>
      <vel value="0.0116539920" flag="0"/>
      <psa03 value="0.0437809253" flag="0"/>
      <psa10 value="0.0019844833" flag="0"/>
      <psa30 value="0.0006452543" flag="0"/>
    </comp>
    <comp name="--.HNE">
      <acc value="0.0689898825" flag="0"/>
      <vel value="0.0138514917" flag="0"/>
      <psa03 value="0.0445316389" flag="0"/>
      <psa10 value="0.0049813177" flag="0"/>
      <psa30 value="0.0007731406" flag="0"/>
    </comp>
  </station>
  <station code="IZVR" name="IZVR" netid="RO" insttype="CMG40T.1to100/Quanterra" lat="45.5442" lon="27.7655">
    <comp name="--.HHN">
      <acc value="0.0597340434" flag="0"/>
      <vel value="0.0109028598" flag="0"/>
      <psa03 value="0.0269590606" flag="0"/>
      <psa10 value="0.0012819668" flag="0"/>
      <psa30 value="0.0000968105" flag="0"/>
    </comp>
    <comp name="--.HHZ">
      <acc value="0.0403052023" flag="0"/>
      <vel value="0.0039934758" flag="0"/>
      <psa03 value="0.0070207853" flag="0"/>
      <psa10 value="0.0004461740" flag="0"/>
      <psa30 value="0.0000369383" flag="0"/>
    </comp>
    <comp name="--.HHE">
      <acc value="0.0600755956" flag="0"/>
      <vel value="0.0085780269" flag="0"/>
      <psa03 value="0.0118639736" flag="0"/>
      <psa10 value="0.0010125719" flag="0"/>
      <psa30 value="0.0000914292" flag="0"/>
    </comp>
  </station>
  <station code="MLR" name="MLR" netid="RO" insttype="330HR" lat="45.4909" lon="25.945">
    <comp name="--.HHE">
      <acc value="0.0076326510" flag="0"/>
      <vel value="0.0040834136" flag="0"/>
      <psa03 value="0.0149020619" flag="0"/>
      <psa10 value="0.0041442398" flag="0"/>
      <psa30 value="0.0002612055" flag="0"/>
    </comp>
    <comp name="--.HHN">
      <acc value="0.0090044999" flag="0"/>
      <vel value="0.0039127553" flag="0"/>
      <psa03 value="0.0189740837" flag="0"/>
      <psa10 value="0.0019060554" flag="0"/>
      <psa30 value="0.0001442429" flag="0"/>
    </comp>
    <comp name="--.HHZ">
      <acc value="0.0072055522" flag="0"/>
      <vel value="0.0040462006" flag="0"/>
      <psa03 value="0.0135998446" flag="0"/>
      <psa10 value="0.0018120918" flag="0"/>
      <psa30 value="0.0001162666" flag="0"/>
    </comp>
  </station>
  <station code="NEGRR" name="NEGRR" netid="RO" insttype="CMG40T.1to100/Quanterra" lat="45.5373" lon="27.8771">
    <comp name="--.HHE">
      <acc value="0.0869538608" flag="0"/>
      <vel value="0.0126680611" flag="0"/>
      <psa03 value="0.0232533891" flag="0"/>
      <psa10 value="0.0014578259" flag="0"/>
      <psa30 value="0.0001262505" flag="0"/>
    </comp>
    <comp name="--.HHN">
      <acc value="0.0594508500" flag="0"/>
      <vel value="0.0094850125" flag="0"/>
      <psa03 value="0.0253993790" flag="0"/>
      <psa10 value="0.0012567808" flag="0"/>
      <psa30 value="0.0001073919" flag="0"/>
    </comp>
    <comp name="--.HHZ">
      <acc value="0.0508684828" flag="0"/>
      <vel value="0.0062262012" flag="0"/>
      <psa03 value="0.0155976416" flag="0"/>
      <psa10 value="0.0008760276" flag="0"/>
      <psa30 value="0.0000758345" flag="0"/>
    </comp>
  </station>
  <station code="NEHR" name="NEHR" netid="RO" insttype="Seismometer/Basalt" lat="45.4272" lon="26.2952">
    <comp name="--.HHE">
      <acc value="0.0270611384" flag="0"/>
      <vel value="0.0110921520" flag="0"/>
      <psa03 value="0.0636143673" flag="0"/>
      <psa10 value="0.0033765601" flag="0"/>
      <psa30 value="0.0003455238" flag="0"/>
    </comp>
    <comp name="--.HHN">
      <acc value="0.0306481794" flag="0"/>
      <vel value="0.0115873827" flag="0"/>
      <psa03 value="0.0518939273" flag="0"/>
      <psa10 value="0.0036232064" flag="0"/>
      <psa30 value="0.0002836012" flag="0"/>
    </comp>
    <comp name="--.HHZ">
      <acc value="0.0214649488" flag="0"/>
      <vel value="0.0058968548" flag="0"/>
      <psa03 value="0.0412787097" flag="0"/>
      <psa10 value="0.0021664398" flag="0"/>
      <psa30 value="0.0001465736" flag="0"/>
    </comp>
  </station>
  <station code="ODBI" name="ODBI" netid="RO" insttype="PBB.1to100/Quanterra" lat="45.7633" lon="27.0558">
    <comp name="--.HHN">
      <acc value="0.4858245523" flag="0"/>
      <vel value="0.0681485115" flag="0"/>
      <psa03 value="0.3169730386" flag="0"/>
      <psa10 value="0.0122857579" flag="0"/>
      <psa30 value="0.0011673751" flag="0"/>
    </comp>
    <comp name="--.HHE">
      <acc value="0.4036526454" flag="0"/>
      <vel value="0.0596969625" flag="0"/>
      <psa03 value="0.2690112508" flag="0"/>
      <psa10 value="0.0172771475" flag="0"/>
      <psa30 value="0.0013219709" flag="0"/>
    </comp>
    <comp name="--.HHZ">
      <acc value="0.0004639232" flag="0"/>
      <vel value="0.0000440044" flag="0"/>
      <psa03 value="0.0000911679" flag="0"/>
      <psa10 value="0.0000115346" flag="0"/>
      <psa30 value="0.0000021247" flag="0"/>
    </comp>
  </station>
  <station code="ODSR" name="ODSR" netid="RO" insttype="200" lat="46.2969" lon="25.2919">
    <comp name="--.HNE">
      <acc value="0.0043759121" flag="0"/>
      <vel value="0.0014236894" flag="0"/>
      <psa03 value="0.0067843473" flag="0"/>
      <psa10 value="0.0005780067" flag="0"/>
      <psa30 value="0.0001443750" flag="0"/>
    </comp>
    <comp name="--.HNN">
      <acc value="0.0038888661" flag="0"/>
      <vel value="0.0020604152" flag="0"/>
      <psa03 value="0.0079976772" flag="0"/>
      <psa10 value="0.0006453824" flag="0"/>
      <psa30 value="0.0000916798" flag="0"/>
    </comp>
    <comp name="--.HNZ">
      <acc value="0.0035077395" flag="0"/>
      <vel value="0.0008553693" flag="0"/>
      <psa03 value="0.0039515003" flag="0"/>
      <psa10 value="0.0003241408" flag="0"/>
      <psa30 value="0.0001315558" flag="0"/>
    </comp>
  </station>
  <station code="ONER" name="ONER" netid="RO" insttype="CMG40T.1to100/obsidian" lat="46.3349" lon="26.394">
    <comp name="--.HHZ">
      <acc value="0.0053090038" flag="0"/>
      <vel value="0.0009482812" flag="0"/>
      <psa03 value="0.0042001266" flag="0"/>
      <psa10 value="0.0006684007" flag="0"/>
      <psa30 value="0.0000355242" flag="0"/>
    </comp>
    <comp name="--.HHE">
      <acc value="0.0044487178" flag="0"/>
      <vel value="0.0012878888" flag="0"/>
      <psa03 value="0.0067832574" flag="0"/>
      <psa10 value="0.0006146856" flag="0"/>
      <psa30 value="0.0000358889" flag="0"/>
    </comp>
    <comp name="--.HHN">
      <acc value="0.0064882135" flag="0"/>
      <vel value="0.0014393019" flag="0"/>
      <psa03 value="0.0052775763" flag="0"/>
      <psa10 value="0.0007659079" flag="0"/>
      <psa30 value="0.0000492271" flag="0"/>
    </comp>
  </station>
  <station code="PANC" name="PANC" netid="RO" insttype="Seismometer/Basalt" lat="45.8723" lon="27.1477">
    <comp name="--.HHE">
      <acc value="0.1340852264" flag="0"/>
      <vel value="0.0279607587" flag="0"/>
      <psa03 value="0.0703920358" flag="0"/>
      <psa10 value="0.0062015695" flag="0"/>
      <psa30 value="0.0004844493" flag="0"/>
    </comp>
    <comp name="--.HHN">
      <acc value="0.2601642419" flag="0"/>
      <vel value="0.0397191944" flag="0"/>
      <psa03 value="0.0928275004" flag="0"/>
      <psa10 value="0.0262389287" flag="0"/>
      <psa30 value="0.0198419062" flag="0"/>
    </comp>
    <comp name="--.HHZ">
      <acc value="0.1215804451" flag="0"/>
      <vel value="0.0266084415" flag="0"/>
      <psa03 value="0.0506775214" flag="0"/>
      <psa10 value="0.0027299210" flag="0"/>
      <psa30 value="0.0002994651" flag="0"/>
    </comp>
  </station>
  <station code="PGOR" name="PGOR" netid="RO" insttype="CMG40T.1to100/Quanterra" lat="44.9199" lon="26.9768">
    <comp name="--.HHN">
      <acc value="0.1215110525" flag="0"/>
      <vel value="0.0363958577" flag="0"/>
      <psa03 value="0.1188804540" flag="0"/>
      <psa10 value="0.0097970996" flag="0"/>
      <psa30 value="0.0010193899" flag="0"/>
    </comp>
    <comp name="--.HHZ">
      <acc value="0.1073614176" flag="0"/>
      <vel value="0.0108625163" flag="0"/>
      <psa03 value="0.0254641386" flag="0"/>
      <psa10 value="0.0015509258" flag="0"/>
      <psa30 value="0.0001234583" flag="0"/>
    </comp>
    <comp name="--.HHE">
      <acc value="0.1320782737" flag="0"/>
      <vel value="0.0313436099" flag="0"/>
      <psa03 value="0.1066066968" flag="0"/>
      <psa10 value="0.0072181308" flag="0"/>
      <psa30 value="0.0006570524" flag="0"/>
    </comp>
  </station>
  <station code="PLAR" name="PLAR" netid="RO" insttype="200" lat="44.9142" lon="26.0274">
    <comp name="--.HNZ">
      <acc value="0.0221454682" flag="0"/>
      <vel value="0.0033349259" flag="0"/>
      <psa03 value="0.0086515350" flag="0"/>
      <psa10 value="0.0011046605" flag="0"/>
      <psa30 value="0.0000808725" flag="0"/>
    </comp>
    <comp name="--.HNN">
      <acc value="0.0239635107" flag="0"/>
      <vel value="0.0094595257" flag="0"/>
      <psa03 value="0.0379204053" flag="0"/>
      <psa10 value="0.0032549978" flag="0"/>
      <psa30 value="0.0003213357" flag="0"/>
    </comp>
    <comp name="--.HNE">
      <acc value="0.0331724589" flag="0"/>
      <vel value="0.0088625459" flag="0"/>
      <psa03 value="0.0320983287" flag="0"/>
      <psa10 value="0.0024312190" flag="0"/>
      <psa30 value="0.0001838818" flag="0"/>
    </comp>
  </station>
  <station code="PLOR" name="PLOR" netid="RO" insttype="330" lat="45.8512" lon="26.6498">
    <comp name="--.HHN">
      <acc value="0.0124610364" flag="0"/>
      <vel value="0.0042657886" flag="0"/>
      <psa03 value="0.0282395240" flag="0"/>
      <psa10 value="0.0014284180" flag="0"/>
      <psa30 value="0.0001191668" flag="0"/>
    </comp>
    <comp name="--.HHE">
      <acc value="0.0138418896" flag="0"/>
      <vel value="0.0054436129" flag="0"/>
      <psa03 value="0.0287206438" flag="0"/>
      <psa10 value="0.0018426876" flag="0"/>
      <psa30 value="0.0001149152" flag="0"/>
    </comp>
    <comp name="--.HHZ">
      <acc value="0.0118856408" flag="0"/>
      <vel value="0.0021634821" flag="0"/>
      <psa03 value="0.0131548335" flag="0"/>
      <psa10 value="0.0005640776" flag="0"/>
      <psa30 value="0.0000583273" flag="0"/>
    </comp>
  </station>
  <station code="PLOR4" name="PLOR4" netid="RO" insttype="330" lat="45.8512" lon="26.6498">
    <comp name="--.HHE">
      <acc value="0.0138418896" flag="0"/>
      <vel value="0.0054436129" flag="0"/>
      <psa03 value="0.0287206438" flag="0"/>
      <psa10 value="0.0018426876" flag="0"/>
      <psa30 value="0.0001149152" flag="0"/>
    </comp>
    <comp name="--.HHN">
      <acc value="0.0124610364" flag="0"/>
      <vel value="0.0042657886" flag="0"/>
      <psa03 value="0.0282395240" flag="0"/>
      <psa10 value="0.0014284180" flag="0"/>
      <psa30 value="0.0001191668" flag="0"/>
    </comp>
    <comp name="--.HHZ">
      <acc value="0.0118856408" flag="0"/>
      <vel value="0.0021634821" flag="0"/>
      <psa03 value="0.0131548335" flag="0"/>
      <psa10 value="0.0005640776" flag="0"/>
      <psa30 value="0.0000583273" flag="0"/>
    </comp>
  </station>
  <station code="SAHR" name="SAHR" netid="RO" insttype="Seismometer/Basalt" lat="45.7266" lon="26.6855">
    <comp name="--.HHN">
      <acc value="0.0720479620" flag="0"/>
      <vel value="0.0121564231" flag="0"/>
      <psa03 value="0.0830715524" flag="0"/>
      <psa10 value="0.0045026860" flag="0"/>
      <psa30 value="0.0002420142" flag="0"/>
    </comp>
    <comp name="--.HHZ">
      <acc value="0.1001946750" flag="0"/>
      <vel value="0.0159424969" flag="0"/>
      <psa03 value="0.0502349057" flag="0"/>
      <psa10 value="0.0029828538" flag="0"/>
      <psa30 value="0.0002674921" flag="0"/>
    </comp>
    <comp name="--.HHE">
      <acc value="0.1052465662" flag="0"/>
      <vel value="0.0239026158" flag="0"/>
      <psa03 value="0.0399473834" flag="0"/>
      <psa10 value="0.0278815342" flag="0"/>
      <psa30 value="0.0049546340" flag="0"/>
    </comp>
  </station>
  <station code="SCHL" name="SCHL" netid="RO" insttype="CMG40T.1to100/Quanterra" lat="45.5007" lon="27.8302">
    <comp name="--.HHZ">
      <acc value="0.0639727499" flag="0"/>
      <vel value="0.0085943410" flag="0"/>
      <psa03 value="0.0177475727" flag="0"/>
      <psa10 value="0.0008075282" flag="0"/>
      <psa30 value="0.0001062489" flag="0"/>
    </comp>
    <comp name="--.HHN">
      <acc value="0.0422390829" flag="0"/>
      <vel value="0.0114703213" flag="0"/>
      <psa03 value="0.0348057965" flag="0"/>
      <psa10 value="0.0038505280" flag="0"/>
      <psa30 value="0.0002554220" flag="0"/>
    </comp>
    <comp name="--.HHE">
      <acc value="0.0478569226" flag="0"/>
      <vel value="0.0110692815" flag="0"/>
      <psa03 value="0.0464757602" flag="0"/>
      <psa10 value="0.0020528372" flag="0"/>
      <psa30 value="0.0001571324" flag="0"/>
    </comp>
  </station>
  <station code="SCHLR" name="SCHLR" netid="RO" insttype="CMG40T.1to100/Quanterra" lat="45.4702" lon="27.8314">
    <comp name="--.HHN">
      <acc value="0.0466146673" flag="0"/>
      <vel value="0.0095211062" flag="0"/>
      <psa03 value="0.0275841253" flag="0"/>
      <psa10 value="0.0017825921" flag="0"/>
