<stationlist created="1778118962">
	<station code="ABEA" name="ABEA" netid="HC" source="Seismological Network of Crete (HC)" insttype="" lat="35.5163" lon="24.0113">
		<comp name="--.HNE" depth="0.0">
			<acc value="0.00280268826188796" flag="0"/>
			<vel value="0.0037222669881489" flag="0"/>
			<psa03 value="0.000948403566014732" flag="0"/>
			<psa10 value="0.000836964448694071" flag="0"/>
			<psa30 value="0.000643216151580444" flag="0"/>
		</comp>
		<comp name="--.HNN" depth="0.0">
			<acc value="0.00247391263818814" flag="0"/>
			<vel value="0.00261751261216882" flag="0"/>
			<psa03 value="0.00121536688904488" flag="0"/>
			<psa10 value="0.00085063433863165" flag="0"/>
			<psa30 value="0.000810505983711567" flag="0"/>
		</comp>
		<comp name="--.HNZ" depth="0.0">
			<acc value="0.00456274012851097" flag="0"/>
			<vel value="0.0020544514962063" flag="0"/>
			<psa03 value="0.000921008359290885" flag="0"/>
			<psa10 value="0.000845286249972276" flag="0"/>
			<psa30 value="0.000679304479756062" flag="0"/>
		</comp>
	</station>
	<station code="ATEI" name="ATEI" netid="HC" source="Seismological Network of Crete (HC)" insttype="" lat="35.5193" lon="24.0432">
		<comp name="--.HNE" depth="0.0">
			<acc value="0.00277088171079135" flag="0"/>
			<vel value="0.0036604727840602" flag="0"/>
			<psa03 value="0.00663480410656557" flag="0"/>
			<psa10 value="0.00505131556235609" flag="0"/>
			<psa30 value="0.000997723594290358" flag="0"/>
		</comp>
		<comp name="--.HNN" depth="0.0">
			<acc value="0.00352133373611493" flag="0"/>
			<vel value="0.00325089860888387" flag="0"/>
			<psa03 value="0.00644319115272563" flag="0"/>
			<psa10 value="0.00611754447603469" flag="0"/>
			<psa30 value="0.00103634365267946" flag="0"/>
		</comp>
		<comp name="--.HNZ" depth="0.0">
			<acc value="0.0031127051149782" flag="0"/>
			<vel value="0.0027277386165878" flag="0"/>
			<psa03 value="0.005045748318584" flag="0"/>
			<psa10 value="0.00356858194791718" flag="0"/>
			<psa30 value="0.0010027121539279" flag="0"/>
		</comp>
	</station>
	<station code="G0LD" name="G0LD" netid="HC" source="Seismological Network of Crete (HC)" insttype="" lat="35.4955" lon="24.0306">
		<comp name="--.HNE" depth="0.0">
			<acc value="0.00348826434755581" flag="0"/>
			<vel value="0.00244638112148318" flag="0"/>
			<psa03 value="0.00193519867267653" flag="0"/>
			<psa10 value="0.00172601035534106" flag="0"/>
			<psa30 value="0.00133460268171261" flag="0"/>
		</comp>
		<comp name="--.HNN" depth="0.0">
			<acc value="0.00288759982714061" flag="0"/>
			<vel value="0.00164306547366865" flag="0"/>
			<psa03 value="0.00137890970537452" flag="0"/>
			<psa10 value="0.00162214007600584" flag="0"/>
			<psa30 value="0.00130458819339986" flag="0"/>
		</comp>
		<comp name="--.HNZ" depth="0.0">
			<acc value="0.00445793352639137" flag="0"/>
			<vel value="0.00390589040038301" flag="0"/>
			<psa03 value="0.00212483883957194" flag="0"/>
			<psa10 value="0.00155993880703987" flag="0"/>
			<psa30 value="0.00195253267904042" flag="0"/>
		</comp>
	</station>
	<station code="LENT" name="LENT" netid="HC" source="Seismological Network of Crete (HC)" insttype="" lat="35.5074" lon="24.0402">
		<comp name="--.HNE" depth="0.0">
			<acc value="0.0027123215886839" flag="0"/>
			<vel value="0.0022506171054167" flag="0"/>
			<psa03 value="0.00135800459330177" flag="0"/>
			<psa10 value="0.000854788793531959" flag="0"/>
			<psa30 value="0.00100092068108447" flag="0"/>
		</comp>
		<comp name="--.HNN" depth="0.0">
			<acc value="0.00241710274926925" flag="0"/>
			<vel value="0.00273038713850709" flag="0"/>
			<psa03 value="0.00137253705014341" flag="0"/>
			<psa10 value="0.000995206005638738" flag="0"/>
			<psa30 value="0.000672334903471474" flag="0"/>
		</comp>
		<comp name="--.HNZ" depth="0.0">
			<acc value="0.00434577816840602" flag="0"/>
			<vel value="0.00198257148490787" flag="0"/>
			<psa03 value="0.00161525837012785" flag="0"/>
			<psa10 value="0.00106844249782306" flag="0"/>
			<psa30 value="0.000680825622191561" flag="0"/>
		</comp>
	</station>
	<station code="PASK" name="PASK" netid="HC" source="Seismological Network of Crete (HC)" insttype="" lat="35.4996" lon="24.0121">
		<comp name="--.HNE" depth="0.0">
			<acc value="0.00657546986936691" flag="0"/>
			<vel value="0.00739411956563277" flag="0"/>
			<psa03 value="0.0143681328078467" flag="0"/>
			<psa10 value="0.00845415223358198" flag="0"/>
			<psa30 value="0.00101233049942559" flag="0"/>
		</comp>
		<comp name="--.HNN" depth="0.0">
			<acc value="0.0060773846065852" flag="0"/>
			<vel value="0.00672777590585033" flag="0"/>
			<psa03 value="0.0137420001838069" flag="0"/>
			<psa10 value="0.0117619426084614" flag="0"/>
			<psa30 value="0.00110677436003575" flag="0"/>
		</comp>
		<comp name="--.HNZ" depth="0.0">
			<acc value="0.008553474440873" flag="0"/>
			<vel value="0.00362702311539676" flag="0"/>
			<psa03 value="0.00950828547618454" flag="0"/>
			<psa10 value="0.00737725667580203" flag="0"/>
			<psa30 value="0.00082339355619864" flag="0"/>
		</comp>
	</station>
	<station code="POLY" name="POLY" netid="HC" source="Seismological Network of Crete (HC)" insttype="" lat="35.5226" lon="24.0602">
		<comp name="--.HNE" depth="0.0">
			<acc value="0.0011799332328144" flag="0"/>
			<vel value="0.00148495275104297" flag="0"/>
			<psa03 value="0.00120844422993032" flag="0"/>
			<psa10 value="0.00114570640523877" flag="0"/>
			<psa30 value="0.00105661259956658" flag="0"/>
		</comp>
		<comp name="--.HNN" depth="0.0">
			<acc value="0.00159674915144014" flag="0"/>
			<vel value="0.00201422645059241" flag="0"/>
			<psa03 value="0.00158122746991243" flag="0"/>
			<psa10 value="0.00166861198266526" flag="0"/>
			<psa30 value="0.00104989475870805" flag="0"/>
		</comp>
		<comp name="--.HNZ" depth="0.0">
			<acc value="0.00354998239939281" flag="0"/>
			<vel value="0.00134420391536285" flag="0"/>
			<psa03 value="0.00133969511215909" flag="0"/>
			<psa10 value="0.000836035500437523" flag="0"/>
			<psa30 value="0.0010818160400025" flag="0"/>
		</comp>
	</station>
	<station code="ARK1" name="ARK1" netid="HI" source="ITSAK Strong Motion Network" insttype="" lat="35.148777" lon="25.264194">
		<comp name="--.HNE" depth="0.0">
			<acc value="0.0196208631682152" flag="0"/>
			<vel value="0.0090631683504213" flag="0"/>
			<psa03 value="0.0524018880346369" flag="0"/>
			<psa10 value="0.0127152351344406" flag="0"/>
			<psa30 value="0.0018817477815534" flag="0"/>
		</comp>
		<comp name="--.HNN" depth="0.0">
			<acc value="0.0216774057391903" flag="0"/>
			<vel value="0.0122540347279267" flag="0"/>
			<psa03 value="0.0609440789126987" flag="0"/>
			<psa10 value="0.0186206716531184" flag="0"/>
			<psa30 value="0.00127190227811634" flag="0"/>
		</comp>
		<comp name="--.HNZ" depth="0.0">
			<acc value="0.0162858108601311" flag="0"/>
			<vel value="0.00890503272070619" flag="0"/>
			<psa03 value="0.04951495720603" flag="0"/>
			<psa10 value="0.0156145231355205" flag="0"/>
			<psa30 value="0.00120301458964691" flag="0"/>
		</comp>
	</station>
	<station code="CH01" name="CH01" netid="HI" source="ITSAK Strong Motion Network" insttype="" lat="35.517" lon="24.0208">
		<comp name="--.HNE" depth="0.0">
			<acc value="0.00573234309183032" flag="0"/>
			<vel value="0.00401098555563784" flag="0"/>
			<psa03 value="0.00736789563902995" flag="0"/>
			<psa10 value="0.00902911313441434" flag="0"/>
			<psa30 value="0.000782075662843013" flag="0"/>
		</comp>
		<comp name="--.HNN" depth="0.0">
			<acc value="0.00480826892033287" flag="0"/>
			<vel value="0.00617506035729194" flag="0"/>
			<psa03 value="0.00783726787845039" flag="0"/>
			<psa10 value="0.00909670386199935" flag="0"/>
			<psa30 value="0.00108510823726045" flag="0"/>
		</comp>
		<comp name="--.HNZ" depth="0.0">
			<acc value="0.0089186830905363" flag="0"/>
			<vel value="0.00282876041804078" flag="0"/>
			<psa03 value="0.00492208127205899" flag="0"/>
			<psa10 value="0.00694869000412948" flag="0"/>
			<psa30 value="0.000488890355338435" flag="0"/>
		</comp>
	</station>
	<station code="CH02" name="CH02" netid="HI" source="ITSAK Strong Motion Network" insttype="" lat="35.5145" lon="24.0315">
		<comp name="--.HNE" depth="0.0">
			<acc value="0.00343362288988222" flag="0"/>
			<vel value="0.0034803677847441" flag="0"/>
			<psa03 value="0.00651371796018074" flag="0"/>
			<psa10 value="0.00647894607339127" flag="0"/>
			<psa30 value="0.00063675296300876" flag="0"/>
		</comp>
		<comp name="--.HNN" depth="0.0">
			<acc value="0.00397621667229403" flag="0"/>
			<vel value="0.00486741473313965" flag="0"/>
			<psa03 value="0.00787402096421587" flag="0"/>
			<psa10 value="0.00747015970517314" flag="0"/>
			<psa30 value="0.000971956262330084" flag="0"/>
		</comp>
		<comp name="--.HNZ" depth="0.0">
			<acc value="0.00408129935138144" flag="0"/>
			<vel value="0.00212680560185953" flag="0"/>
			<psa03 value="0.00368988473623468" flag="0"/>
			<psa10 value="0.00509917670166135" flag="0"/>
			<psa30 value="0.000440596010239838" flag="0"/>
		</comp>
	</station>
	<station code="CH03" name="CH03" netid="HI" source="ITSAK Strong Motion Network" insttype="" lat="35.53303" lon="24.0705">
		<comp name="--.HNE" depth="0.0">
			<acc value="0.00211706825318323" flag="0"/>
			<vel value="0.00308690825235501" flag="0"/>
			<psa03 value="0.00530866580068168" flag="0"/>
			<psa10 value="0.00669751055222101" flag="0"/>
			<psa30 value="0.000432263583257578" flag="0"/>
		</comp>
		<comp name="--.HNN" depth="0.0">
			<acc value="0.0023346380460415" flag="0"/>
			<vel value="0.00300634695650337" flag="0"/>
			<psa03 value="0.00620953960672348" flag="0"/>
			<psa10 value="0.00608363519847899" flag="0"/>
			<psa30 value="0.000569008631531384" flag="0"/>
		</comp>
		<comp name="--.HNZ" depth="0.0">
			<acc value="0.00170948190618865" flag="0"/>
			<vel value="0.00199477180625613" flag="0"/>
			<psa03 value="0.00444029317107038" flag="0"/>
			<psa10 value="0.00585312430326358" flag="0"/>
			<psa30 value="0.000350162623638849" flag="0"/>
		</comp>
	</station>
	<station code="GOR1" name="GOR1" netid="HI" source="ITSAK Strong Motion Network" insttype="" lat="35.0582" lon="24.9628">
		<comp name="--.HNE" depth="0.0">
			<acc value="0.0300311456606308" flag="0"/>
			<vel value="0.0205963463902292" flag="0"/>
			<psa03 value="0.072482494317966" flag="0"/>
			<psa10 value="0.0304302246030499" flag="0"/>
			<psa30 value="0.00260289055372661" flag="0"/>
		</comp>
		<comp name="--.HNN" depth="0.0">
			<acc value="0.0295939692971165" flag="0"/>
			<vel value="0.0212143615795659" flag="0"/>
			<psa03 value="0.0795597079401892" flag="0"/>
			<psa10 value="0.0315991132861729" flag="0"/>
			<psa30 value="0.00278879578569953" flag="0"/>
		</comp>
		<comp name="--.HNZ" depth="0.0">
			<acc value="0.0309409829317501" flag="0"/>
			<vel value="0.0170051492980951" flag="0"/>
			<psa03 value="0.0654885882974692" flag="0"/>
			<psa10 value="0.0269102864243931" flag="0"/>
			<psa30 value="0.00163413398252263" flag="0"/>
		</comp>
	</station>
	<station code="HER1" name="HER1" netid="HI" source="ITSAK Strong Motion Network" insttype="" lat="35.317672" lon="25.10217">
		<comp name="--.HNE" depth="0.0">
			<acc value="0.0208445725286314" flag="0"/>
			<vel value="0.0272688191989819" flag="0"/>
			<psa03 value="0.0473424278701685" flag="0"/>
			<psa10 value="0.054031899348157" flag="0"/>
			<psa30 value="0.00310370623030556" flag="0"/>
		</comp>
		<comp name="--.HNN" depth="0.0">
			<acc value="0.0203495408511105" flag="0"/>
			<vel value="0.0278630285290468" flag="0"/>
			<psa03 value="0.0463754002676691" flag="0"/>
			<psa10 value="0.048841866783971" flag="0"/>
			<psa30 value="0.00317952604466282" flag="0"/>
		</comp>
		<comp name="--.HNZ" depth="0.0">
			<acc value="0.0203256691951832" flag="0"/>
			<vel value="0.0185828873928004" flag="0"/>
			<psa03 value="0.0361399487817411" flag="0"/>
			<psa10 value="0.0321393740758006" flag="0"/>
			<psa30 value="0.00115066778859381" flag="0"/>
		</comp>
	</station>
	<station code="HER3" name="HER3" netid="HI" source="ITSAK Strong Motion Network" insttype="" lat="35.3296" lon="25.1065">
		<comp name="--.HNE" depth="0.0">
			<acc value="0.0256547294486324" flag="0"/>
			<vel value="0.016570641399832" flag="0"/>
			<psa03 value="0.0561689240407235" flag="0"/>
			<psa10 value="0.0545285897515648" flag="0"/>
			<psa30 value="0.00162097946526592" flag="0"/>
		</comp>
		<comp name="--.HNN" depth="0.0">
			<acc value="0.0337503977423963" flag="0"/>
			<vel value="0.0193559472297378" flag="0"/>
			<psa03 value="0.0595213752905271" flag="0"/>
			<psa10 value="0.0597833366025869" flag="0"/>
			<psa30 value="0.00201858976333373" flag="0"/>
		</comp>
		<comp name="--.HNZ" depth="0.0">
			<acc value="0.0157307972644139" flag="0"/>
			<vel value="0.0126884098331694" flag="0"/>
			<psa03 value="0.0315132881215171" flag="0"/>
			<psa10 value="0.0264396152447556" flag="0"/>
			<psa30 value="0.00105888108317304" flag="0"/>
		</comp>
	</station>
	<station code="KTL1" name="KTL1" netid="HI" source="ITSAK Strong Motion Network" insttype="" lat="35.20778" lon="25.34272">
		<comp name="--.HNE" depth="0.0">
			<acc value="0.00999534868902854" flag="0"/>
			<vel value="0.00597066364255598" flag="0"/>
			<psa03 value="0.0338986284302612" flag="0"/>
			<psa10 value="0.0116642580123456" flag="0"/>
			<psa30 value="0.000947070134580983" flag="0"/>
		</comp>
		<comp name="--.HNN" depth="0.0">
			<acc value="0.0113033208285203" flag="0"/>
			<vel value="0.00803360177951422" flag="0"/>
			<psa03 value="0.038196605858517" flag="0"/>
			<psa10 value="0.00830439168769452" flag="0"/>
			<psa30 value="0.000630076479058593" flag="0"/>
		</comp>
		<comp name="--.HNZ" depth="0.0">
			<acc value="0.00590523661206405" flag="0"/>
			<vel value="0.00301003716008753" flag="0"/>
			<psa03 value="0.017479346723041" flag="0"/>
			<psa10 value="0.00469266758495193" flag="0"/>
			<psa30 value="0.000571775012703849" flag="0"/>
		</comp>
	</station>
	<station code="RTH1" name="RTH1" netid="HI" source="ITSAK Strong Motion Network" insttype="" lat="35.365393" lon="24.471773">
		<comp name="--.HNE" depth="0.0">
			<acc value="0.00554795448211835" flag="0"/>
			<vel value="0.00332160018226054" flag="0"/>
			<psa03 value="0.0203379540604709" flag="0"/>
			<psa10 value="0.00476723846238928" flag="0"/>
			<psa30 value="0.000857511389255309" flag="0"/>
		</comp>
		<comp name="--.HNN" depth="0.0">
			<acc value="0.00861845897874794" flag="0"/>
			<vel value="0.00389435189568302" flag="0"/>
			<psa03 value="0.0248006116687896" flag="0"/>
			<psa10 value="0.00491229760309219" flag="0"/>
			<psa30 value="0.000390153528048328" flag="0"/>
		</comp>
		<comp name="--.HNZ" depth="0.0">
			<acc value="0.00533792696655529" flag="0"/>
			<vel value="0.00239771394884691" flag="0"/>
			<psa03 value="0.00896267836887771" flag="0"/>
			<psa10 value="0.00319342842395992" flag="0"/>
			<psa30 value="0.000375687153055282" flag="0"/>
		</comp>
	</station>
	<station code="AGNA" name="AGNA" netid="HL" source="National Observatory of Athens Seismic Network" insttype="" lat="35.1895" lon="25.71853">
		<comp name="00.HNE" depth="0.0">
			<acc value="0.00575940359312956" flag="0"/>
			<vel value="0.00405375997799404" flag="0"/>
			<psa03 value="0.015210407354431" flag="0"/>
			<psa10 value="0.00445945416695899" flag="0"/>
			<psa30 value="0.000586174768701998" flag="0"/>
		</comp>
		<comp name="00.HNN" depth="0.0">
			<acc value="0.00712225410406993" flag="0"/>
			<vel value="0.00542770549030072" flag="0"/>
			<psa03 value="0.0189923519000888" flag="0"/>
			<psa10 value="0.00928947319452261" flag="0"/>
			<psa30 value="0.000684967823671705" flag="0"/>
		</comp>
		<comp name="00.HNZ" depth="0.0">
			<acc value="0.00472991081004778" flag="0"/>
			<vel value="0.00296365753198164" flag="0"/>
			<psa03 value="0.0149449314346153" flag="0"/>
			<psa10 value="0.00511818014806163" flag="0"/>
			<psa30 value="0.000546951493270324" flag="0"/>
		</comp>
	</station>
	<station code="CHNB" name="CHNB" netid="HL" source="National Observatory of Athens Seismic Network" insttype="" lat="35.48765" lon="24.06605">
		<comp name="00.HNE" depth="0.0">
			<acc value="0.008847366288386" flag="0"/>
			<vel value="0.00919961731187776" flag="0"/>
			<psa03 value="0.0192049154605438" flag="0"/>
			<psa10 value="0.0100582656857506" flag="0"/>
			<psa30 value="0.000707734175580463" flag="0"/>
		</comp>
		<comp name="00.HNN" depth="0.0">
			<acc value="0.00783844123975421" flag="0"/>
			<vel value="0.0107862041670459" flag="0"/>
			<psa03 value="0.019790937354553" flag="0"/>
			<psa10 value="0.0171888736785134" flag="0"/>
			<psa30 value="0.000812994325635503" flag="0"/>
		</comp>
		<comp name="00.HNZ" depth="0.0">
			<acc value="0.00715893339913409" flag="0"/>
			<vel value="0.00373179917808238" flag="0"/>
			<psa03 value="0.0140655645871231" flag="0"/>
			<psa10 value="0.00473779291801613" flag="0"/>
			<psa30 value="0.00037759701915768" flag="0"/>
		</comp>
	</station>
	<station code="HERG" name="HERG" netid="HL" source="National Observatory of Athens Seismic Network" insttype="" lat="35.32622" lon="25.06586">
		<comp name="00.HNE" depth="0.0">
			<acc value="0.0116376347246823" flag="0"/>
			<vel value="0.0154173576994965" flag="0"/>
			<psa03 value="0.0234209838169097" flag="0"/>
			<psa10 value="0.0220773487659994" flag="0"/>
			<psa30 value="0.0017601757696723" flag="0"/>
		</comp>
		<comp name="00.HNN" depth="0.0">
			<acc value="0.0148909871726211" flag="0"/>
			<vel value="0.0204891176862471" flag="0"/>
			<psa03 value="0.0271426157734164" flag="0"/>
			<psa10 value="0.0268002916377923" flag="0"/>
			<psa30 value="0.00318033922353211" flag="0"/>
		</comp>
		<comp name="00.HNZ" depth="0.0">
			<acc value="0.0159473802933526" flag="0"/>
			<vel value="0.0105818008667007" flag="0"/>
			<psa03 value="0.022989825046418" flag="0"/>
			<psa10 value="0.0118054679918005" flag="0"/>
			<psa30 value="0.000947807891787846" flag="0"/>
		</comp>
	</station>
	<station code="IACM" name="IACM" netid="HL" source="National Observatory of Athens Seismic Network" insttype="" lat="35.3058" lon="25.0709">
		<comp name="--.HNE" depth="0.0">
			<acc value="0.0238537913406006" flag="0"/>
			<vel value="0.0231097565181574" flag="0"/>
			<psa03 value="0.0849469710698833" flag="0"/>
			<psa10 value="0.0485311587009027" flag="0"/>
			<psa30 value="0.00222881056442808" flag="0"/>
		</comp>
		<comp name="--.HNN" depth="0.0">
			<acc value="0.0221666791093484" flag="0"/>
			<vel value="0.0206491606803226" flag="0"/>
			<psa03 value="0.0709095099068883" flag="0"/>
			<psa10 value="0.0532765543100623" flag="0"/>
			<psa30 value="0.00223799513119461" flag="0"/>
		</comp>
		<comp name="--.HNZ" depth="0.0">
			<acc value="0.0195903109335348" flag="0"/>
			<vel value="0.00994888802935019" flag="0"/>
			<psa03 value="0.0373539380567506" flag="0"/>
			<psa10 value="0.0128721136518723" flag="0"/>
			<psa30 value="0.00112326566083939" flag="0"/>
		</comp>
	</station>
	<station code="IMMV" name="IMMV" netid="HL" source="National Observatory of Athens Seismic Network" insttype="" lat="35.4606" lon="23.9811">
		<comp name="--.HNE" depth="0.0">
			<acc value="0.00362817953943548" flag="0"/>
			<vel value="0.00312002167010222" flag="0"/>
			<psa03 value="0.00965182493292709" flag="0"/>
			<psa10 value="0.00593169294555522" flag="0"/>
			<psa30 value="0.000681472592132398" flag="0"/>
		</comp>
		<comp name="--.HNN" depth="0.0">
			<acc value="0.00333622874164734" flag="0"/>
			<vel value="0.00322053056322597" flag="0"/>
			<psa03 value="0.0111334198260889" flag="0"/>
			<psa10 value="0.00557850251715988" flag="0"/>
			<psa30 value="0.000479165700711309" flag="0"/>
		</comp>
		<comp name="--.HNZ" depth="0.0">
			<acc value="0.00265781777658589" flag="0"/>
			<vel value="0.00327930539128297" flag="0"/>
			<psa03 value="0.00767141639681368" flag="0"/>
			<psa10 value="0.00625131302506629" flag="0"/>
			<psa30 value="0.000477400687952497" flag="0"/>
		</comp>
	</station>
