<?xml version="1.0" encoding="UTF-8" standalone="yes"?>
<!DOCTYPE earthquake SYSTEM "stationlist.dtd">
<stationlist created="" xmlns="ch.ethz.sed.shakemap.usgs.xml">
  <station code="IDI" name="IDI" netid="MN" insttype="" lat="35.288" lon="24.89">
    <comp name="--.HHN">
      <acc value="0.0050883791" flag="0"/>
      <vel value="0.0024327722" flag="0"/>
      <psa03 value="0.0121245406" flag="0"/>
      <psa10 value="0.0033161884" flag="0"/>
      <psa30 value="0.0003591775" flag="0"/>
    </comp>
    <comp name="--.HHE">
      <acc value="0.0061324704" flag="0"/>
      <vel value="0.0036964055" flag="0"/>
      <psa03 value="0.0182952875" flag="0"/>
      <psa10 value="0.0030471341" flag="0"/>
      <psa30 value="0.0005450897" flag="0"/>
    </comp>
    <comp name="--.HHZ">
      <acc value="0.0038572736" flag="0"/>
      <vel value="0.0037669165" flag="0"/>
      <psa03 value="0.0131420579" flag="0"/>
      <psa10 value="0.0040299501" flag="0"/>
      <psa30 value="0.0002770458" flag="0"/>
    </comp>
  </station>
</stationlist>
