<?xml version="1.0" encoding="UTF-8" standalone="yes"?>
<!DOCTYPE earthquake SYSTEM "stationlist.dtd">
<stationlist created="" xmlns="ch.ethz.sed.shakemap.usgs.xml">
  <station code="KNSS" name="KNSS" netid="HC" insttype="60" lat="35.3042" lon="25.1802">
    <comp name="--.HHN">
      <acc value="0.0076916002" flag="0"/>
      <vel value="0.0041278014" flag="0"/>
      <psa03 value="0.0212952581" flag="0"/>
      <psa10 value="0.0058522227" flag="0"/>
      <psa30 value="0.0005952951" flag="0"/>
    </comp>
    <comp name="--.HHE">
      <acc value="0.0055377493" flag="0"/>
      <vel value="0.0039382730" flag="0"/>
      <psa03 value="0.0222615040" flag="0"/>
      <psa10 value="0.0055839318" flag="0"/>
      <psa30 value="0.0010200237" flag="0"/>
    </comp>
    <comp name="--.HHZ">
      <acc value="0.0053356713" flag="0"/>
      <vel value="0.0020990396" flag="0"/>
      <psa03 value="0.0140861296" flag="0"/>
      <psa10 value="0.0028659150" flag="0"/>
      <psa30 value="0.0004913069" flag="0"/>
    </comp>
  </station>
  <station code="PFKS" name="PFKS" netid="HC" insttype="120" lat="35.0429" lon="25.4733">
    <comp name="--.HHE">
      <acc value="0.0275654990" flag="0"/>
      <vel value="0.0122274893" flag="0"/>
      <psa03 value="0.0703015815" flag="0"/>
      <psa10 value="0.0113128265" flag="0"/>
      <psa30 value="0.0006876505" flag="0"/>
    </comp>
    <comp name="--.HHN">
      <acc value="0.0258845130" flag="0"/>
      <vel value="0.0133168126" flag="0"/>
      <psa03 value="0.0834945493" flag="0"/>
      <psa10 value="0.0114611868" flag="0"/>
      <psa30 value="0.0009503750" flag="0"/>
    </comp>
    <comp name="--.HHZ">
      <acc value="0.0152525162" flag="0"/>
      <vel value="0.0052857007" flag="0"/>
      <psa03 value="0.0469226547" flag="0"/>
      <psa10 value="0.0057876572" flag="0"/>
      <psa30 value="0.0007035537" flag="0"/>
    </comp>
  </station>
  <station code="IDI" name="IDI" netid="HL" insttype="120" lat="35.288" lon="24.89">
    <comp name="--.HHN">
      <acc value="0.0048082340" flag="0"/>
      <vel value="0.0024195676" flag="0"/>
      <psa03 value="0.0119954228" flag="0"/>
      <psa10 value="0.0033404476" flag="0"/>
      <psa30 value="0.0003633699" flag="0"/>
    </comp>
    <comp name="--.HHZ">
      <acc value="0.0038445463" flag="0"/>
      <vel value="0.0037468085" flag="0"/>
      <psa03 value="0.0129255085" flag="0"/>
      <psa10 value="0.0040619797" flag="0"/>
      <psa30 value="0.0002802067" flag="0"/>
    </comp>
    <comp name="--.HHE">
      <acc value="0.0058265900" flag="0"/>
      <vel value="0.0036806241" flag="0"/>
      <psa03 value="0.0180482576" flag="0"/>
      <psa10 value="0.0030610315" flag="0"/>
      <psa30 value="0.0005499869" flag="0"/>
    </comp>
  </station>
  <station code="SIVA" name="SIVA" netid="HL" insttype="60" lat="35.0178" lon="24.812">
    <comp name="--.HHE">
      <acc value="0.0348181910" flag="0"/>
      <vel value="0.0303503185" flag="0"/>
      <psa03 value="0.1032045423" flag="0"/>
      <psa10 value="0.0489050245" flag="0"/>
      <psa30 value="0.0017329418" flag="0"/>
    </comp>
    <comp name="--.HHN">
      <acc value="0.0237245707" flag="0"/>
      <vel value="0.0175784308" flag="0"/>
      <psa03 value="0.0726033228" flag="0"/>
      <psa10 value="0.0195512969" flag="0"/>
      <psa30 value="0.0009933968" flag="0"/>
    </comp>
    <comp name="--.HHZ">
      <acc value="0.0174801103" flag="0"/>
      <vel value="0.0089522065" flag="0"/>
      <psa03 value="0.0355106779" flag="0"/>
      <psa10 value="0.0145795281" flag="0"/>
      <psa30 value="0.0006981418" flag="0"/>
    </comp>
  </station>
  <station code="IDI" name="IDI" netid="MN" insttype="" lat="35.288" lon="24.89">
    <comp name="--.HHN">
      <acc value="0.0050883791" flag="0"/>
      <vel value="0.0024327722" flag="0"/>
      <psa03 value="0.0121245406" flag="0"/>
      <psa10 value="0.0033161884" flag="0"/>
      <psa30 value="0.0003591775" flag="0"/>
    </comp>
    <comp name="--.HHE">
      <acc value="0.0061324704" flag="0"/>
      <vel value="0.0036964055" flag="0"/>
      <psa03 value="0.0182952875" flag="0"/>
      <psa10 value="0.0030471341" flag="0"/>
      <psa30 value="0.0005450897" flag="0"/>
    </comp>
    <comp name="--.HHZ">
      <acc value="0.0038572736" flag="0"/>
      <vel value="0.0037669165" flag="0"/>
      <psa03 value="0.0131420579" flag="0"/>
      <psa10 value="0.0040299501" flag="0"/>
      <psa30 value="0.0002770458" flag="0"/>
    </comp>
  </station>
</stationlist>
