<?xml version="1.0" encoding="UTF-8" standalone="yes"?>
<!DOCTYPE earthquake SYSTEM "stationlist.dtd">
<stationlist created="" xmlns="ch.ethz.sed.shakemap.usgs.xml">
  <station code="KNSS" name="KNSS" netid="HC" insttype="60" lat="35.3042" lon="25.1802">
    <comp name="--.HHN">
      <acc value="0.0076916003" flag="0"/>
      <vel value="0.0041277943" flag="0"/>
      <psa03 value="0.0212952581" flag="0"/>
      <psa10 value="0.0058522227" flag="0"/>
      <psa30 value="0.0005952803" flag="0"/>
    </comp>
    <comp name="--.HHZ">
      <acc value="0.0053356713" flag="0"/>
      <vel value="0.0020990396" flag="0"/>
      <psa03 value="0.0140861296" flag="0"/>
      <psa10 value="0.0028659150" flag="0"/>
      <psa30 value="0.0004913064" flag="0"/>
    </comp>
    <comp name="--.HHE">
      <acc value="0.0055377494" flag="0"/>
      <vel value="0.0039382743" flag="0"/>
      <psa03 value="0.0222615040" flag="0"/>
      <psa10 value="0.0055839318" flag="0"/>
      <psa30 value="0.0010200257" flag="0"/>
    </comp>
  </station>
  <station code="PFKS" name="PFKS" netid="HC" insttype="120" lat="35.0429" lon="25.4733">
    <comp name="--.HHE">
      <acc value="0.0275654994" flag="0"/>
      <vel value="0.0122274899" flag="0"/>
      <psa03 value="0.0703015815" flag="0"/>
      <psa10 value="0.0113128265" flag="0"/>
      <psa30 value="0.0006875972" flag="0"/>
    </comp>
    <comp name="--.HHZ">
      <acc value="0.0152525161" flag="0"/>
      <vel value="0.0052857004" flag="0"/>
      <psa03 value="0.0469226547" flag="0"/>
      <psa10 value="0.0057876572" flag="0"/>
      <psa30 value="0.0007035475" flag="0"/>
    </comp>
    <comp name="--.HHN">
      <acc value="0.0258845129" flag="0"/>
      <vel value="0.0133168134" flag="0"/>
      <psa03 value="0.0834945493" flag="0"/>
      <psa10 value="0.0114611869" flag="0"/>
      <psa30 value="0.0009503601" flag="0"/>
    </comp>
  </station>
  <station code="IDI" name="IDI" netid="HL" insttype="120" lat="35.288" lon="24.89">
    <comp name="--.HHN">
      <acc value="0.0048082341" flag="0"/>
      <vel value="0.0024195674" flag="0"/>
      <psa03 value="0.0119954228" flag="0"/>
      <psa10 value="0.0033404476" flag="0"/>
      <psa30 value="0.0003633763" flag="0"/>
    </comp>
    <comp name="--.HHZ">
      <acc value="0.0038445464" flag="0"/>
      <vel value="0.0037468080" flag="0"/>
      <psa03 value="0.0129255085" flag="0"/>
      <psa10 value="0.0040619797" flag="0"/>
      <psa30 value="0.0002802010" flag="0"/>
    </comp>
    <comp name="--.HHE">
      <acc value="0.0058265901" flag="0"/>
      <vel value="0.0036806242" flag="0"/>
      <psa03 value="0.0180482576" flag="0"/>
      <psa10 value="0.0030610315" flag="0"/>
      <psa30 value="0.0005500061" flag="0"/>
    </comp>
  </station>
  <station code="SIVA" name="SIVA" netid="HL" insttype="60" lat="35.0178" lon="24.812">
    <comp name="--.HHE">
      <acc value="0.0348181906" flag="0"/>
      <vel value="0.0303503204" flag="0"/>
      <psa03 value="0.1032045423" flag="0"/>
      <psa10 value="0.0489050245" flag="0"/>
      <psa30 value="0.0017328907" flag="0"/>
    </comp>
    <comp name="--.HHN">
      <acc value="0.0237245711" flag="0"/>
      <vel value="0.0175784320" flag="0"/>
      <psa03 value="0.0726033228" flag="0"/>
      <psa10 value="0.0195512973" flag="0"/>
      <psa30 value="0.0009933721" flag="0"/>
    </comp>
    <comp name="--.HHZ">
      <acc value="0.0174801093" flag="0"/>
      <vel value="0.0089522064" flag="0"/>
      <psa03 value="0.0355106779" flag="0"/>
      <psa10 value="0.0145795281" flag="0"/>
      <psa30 value="0.0006981548" flag="0"/>
    </comp>
  </station>
  <station code="IDI" name="IDI" netid="MN" insttype="" lat="35.288" lon="24.89">
    <comp name="--.HHE">
      <acc value="0.0061324703" flag="0"/>
      <vel value="0.0036964055" flag="0"/>
      <psa03 value="0.0182952875" flag="0"/>
      <psa10 value="0.0030471341" flag="0"/>
      <psa30 value="0.0005451009" flag="0"/>
    </comp>
    <comp name="--.HHN">
      <acc value="0.0050883792" flag="0"/>
      <vel value="0.0024327721" flag="0"/>
      <psa03 value="0.0121245406" flag="0"/>
      <psa10 value="0.0033161884" flag="0"/>
      <psa30 value="0.0003591812" flag="0"/>
    </comp>
    <comp name="--.HHZ">
      <acc value="0.0038572738" flag="0"/>
      <vel value="0.0037669160" flag="0"/>
      <psa03 value="0.0131420579" flag="0"/>
      <psa10 value="0.0040299501" flag="0"/>
      <psa30 value="0.0002770426" flag="0"/>
    </comp>
  </station>
</stationlist>
