<stationlist created="1771466523">
	<station code="BLKB" name="BLKB" netid="BS" source="National Seismic Network of Bulgaria (BS)" insttype="" lat="43.6227" lon="22.675">
		<comp name="--.HNE" depth="0.0">
			<acc value="0.047896787335452" flag="0"/>
			<vel value="0.00701500484087" flag="0"/>
			<psa03 value="0.0138040186151329" flag="0"/>
			<psa10 value="0.00272869084050291" flag="0"/>
			<psa30 value="0.000203924251168351" flag="0"/>
		</comp>
		<comp name="--.HNN" depth="0.0">
			<acc value="0.037346209214448" flag="0"/>
			<vel value="0.00629239831376" flag="0"/>
			<psa03 value="0.0110172298374054" flag="0"/>
			<psa10 value="0.00127346494673965" flag="0"/>
			<psa30 value="0.000152461336794396" flag="0"/>
		</comp>
		<comp name="--.HNZ" depth="0.0">
			<acc value="0.022413201151074" flag="0"/>
			<vel value="0.00424449513515" flag="0"/>
			<psa03 value="0.00925820640969853" flag="0"/>
			<psa10 value="0.00229075323553317" flag="0"/>
			<psa30 value="0.0011507663367875" flag="0"/>
		</comp>
	</station>
	<station code="PLVAM" name="PLVAM" netid="BS" source="National Seismic Network of Bulgaria (BS)" insttype="" lat="43.9523" lon="22.8502">
		<comp name="--.HNE" depth="0.0">
			<acc value="0.05107643931561" flag="0"/>
			<vel value="0.0126860846927" flag="0"/>
			<psa03 value="0.0689844552982569" flag="0"/>
			<psa10 value="0.00747911107940661" flag="0"/>
			<psa30 value="0.00185285899281481" flag="0"/>
		</comp>
		<comp name="--.HNN" depth="0.0">
			<acc value="0.043659518579352" flag="0"/>
			<vel value="0.0151283270014" flag="0"/>
			<psa03 value="0.0558332351363637" flag="0"/>
			<psa10 value="0.0134077691363892" flag="0"/>
			<psa30 value="0.00122434954464893" flag="0"/>
		</comp>
		<comp name="--.HNZ" depth="0.0">
			<acc value="0.05435806829589" flag="0"/>
			<vel value="0.0100668673589" flag="0"/>
			<psa03 value="0.0320121935673783" flag="0"/>
			<psa10 value="0.00383411102228956" flag="0"/>
			<psa30 value="0.000372032718258596" flag="0"/>
		</comp>
	</station>
	<station code="RAZAM" name="RAZAM" netid="BS" source="National Seismic Network of Bulgaria (BS)" insttype="" lat="43.6451" lon="25.1243">
		<comp name="--.HNE" depth="0.0">
			<acc value="0.020780858994624" flag="0"/>
			<vel value="0.00520800951295" flag="0"/>
			<psa03 value="0.03276305059964" flag="0"/>
			<psa10 value="0.00223787660771927" flag="0"/>
			<psa30 value="0.000325297460818433" flag="0"/>
		</comp>
		<comp name="--.HNN" depth="0.0">
			<acc value="0.012400795027782" flag="0"/>
			<vel value="0.00345028201696" flag="0"/>
			<psa03 value="0.0282276329629754" flag="0"/>
			<psa10 value="0.00254914277444808" flag="0"/>
			<psa30 value="0.000268314649528671" flag="0"/>
		</comp>
		<comp name="--.HNZ" depth="0.0">
			<acc value="0.013663792667382" flag="0"/>
			<vel value="0.0029870421471" flag="0"/>
			<psa03 value="0.0103280761114263" flag="0"/>
			<psa10 value="0.00108679914354853" flag="0"/>
			<psa30 value="0.000122143377857731" flag="0"/>
		</comp>
	</station>
	<station code="BAIL" name="BAIL" netid="RO" source="Romanian Seismic Network (NIEP)" insttype="" lat="44.0201" lon="23.345">
		<comp name="--.HNE" depth="0.0">
			<acc value="0.32901090373386" flag="0"/>
			<vel value="0.132195623386" flag="0"/>
			<psa03 value="0.666174005757624" flag="0"/>
			<psa10 value="0.0499670613227509" flag="0"/>
			<psa30 value="0.00845048897010409" flag="0"/>
		</comp>
		<comp name="--.HNN" depth="0.0">
			<acc value="0.3299419398102" flag="0"/>
			<vel value="0.0861182297923" flag="0"/>
			<psa03 value="0.368493577557525" flag="0"/>
			<psa10 value="0.0508711074613525" flag="0"/>
			<psa30 value="0.00509837024200876" flag="0"/>
		</comp>
		<comp name="--.HNZ" depth="0.0">
			<acc value="0.3000544589487" flag="0"/>
			<vel value="0.0513350191231" flag="0"/>
			<psa03 value="0.269177519189379" flag="0"/>
			<psa10 value="0.0191434206576867" flag="0"/>
			<psa30 value="0.00412978191111677" flag="0"/>
		</comp>
	</station>
	<station code="CBBR" name="CBBR" netid="RO" source="Romanian Seismic Network (NIEP)" insttype="" lat="46.7683" lon="23.5501">
		<comp name="--.HNE" depth="0.0">
			<acc value="0.024805756995774" flag="0"/>
			<vel value="0.00705625870252" flag="0"/>
			<psa03 value="0.0257514949726677" flag="0"/>
			<psa10 value="0.00247161998269295" flag="0"/>
			<psa30 value="0.000322581161085515" flag="0"/>
		</comp>
		<comp name="--.HNN" depth="0.0">
			<acc value="0.024777188401458" flag="0"/>
			<vel value="0.0087516134467" flag="0"/>
			<psa03 value="0.060555157315226" flag="0"/>
			<psa10 value="0.00213132783063458" flag="0"/>
			<psa30 value="0.000190873621003155" flag="0"/>
		</comp>
		<comp name="--.HNZ" depth="0.0">
			<acc value="0.0100267627557084" flag="0"/>
			<vel value="0.00325968013874" flag="0"/>
			<psa03 value="0.0270370124235631" flag="0"/>
			<psa10 value="0.00151256402806895" flag="0"/>
			<psa30 value="0.000196958763697294" flag="0"/>
		</comp>
	</station>
	<station code="CJR" name="CJR" netid="RO" source="Romanian Seismic Network (NIEP)" insttype="" lat="46.7133" lon="23.5981">
		<comp name="--.HNE" depth="0.0">
			<acc value="0.043026877388316" flag="0"/>
			<vel value="0.0146139365507" flag="0"/>
			<psa03 value="0.101038985003404" flag="0"/>
			<psa10 value="0.00926670262355352" flag="0"/>
			<psa30 value="0.000912026250597677" flag="0"/>
		</comp>
		<comp name="--.HNN" depth="0.0">
			<acc value="0.031236195810558" flag="0"/>
			<vel value="0.0109936936879" flag="0"/>
			<psa03 value="0.0788191953431441" flag="0"/>
			<psa10 value="0.00714879716648766" flag="0"/>
			<psa30 value="0.000725677603831667" flag="0"/>
		</comp>
		<comp name="--.HNZ" depth="0.0">
			<acc value="0.029106436980294" flag="0"/>
			<vel value="0.00948044649725" flag="0"/>
			<psa03 value="0.0571426083339402" flag="0"/>
			<psa10 value="0.00470109673708476" flag="0"/>
			<psa30 value="0.000379006409398021" flag="0"/>
		</comp>
	</station>
	<station code="COPA" name="COPA" netid="RO" source="Romanian Seismic Network (NIEP)" insttype="" lat="44.1343" lon="25.2172">
		<comp name="--.HNE" depth="0.0">
			<acc value="0.01234875369693" flag="0"/>
			<vel value="0.00367378844803" flag="0"/>
			<psa03 value="0.0147354201596661" flag="0"/>
			<psa10 value="0.0050811848847987" flag="0"/>
			<psa30 value="0.000931554940110273" flag="0"/>
		</comp>
		<comp name="--.HNN" depth="0.0">
			<acc value="0.012714304138038" flag="0"/>
			<vel value="0.00387695474201" flag="0"/>
			<psa03 value="0.0172465240079827" flag="0"/>
			<psa10 value="0.00409645637011533" flag="0"/>
			<psa30 value="0.000587974210821462" flag="0"/>
		</comp>
		<comp name="--.HNZ" depth="0.0">
			<acc value="0.011637743098548" flag="0"/>
			<vel value="0.00168473783035" flag="0"/>
			<psa03 value="0.00654820461976091" flag="0"/>
			<psa10 value="0.00187033866638303" flag="0"/>
			<psa30 value="0.000289435423676192" flag="0"/>
		</comp>
	</station>
	<station code="CRAR" name="CRAR" netid="RO" source="Romanian Seismic Network (NIEP)" insttype="" lat="44.325" lon="23.7999">
		<comp name="--.HNE" depth="0.0">
			<acc value="0.059789105591658" flag="0"/>
			<vel value="0.014989883286" flag="0"/>
			<psa03 value="0.0907405319484205" flag="0"/>
			<psa10 value="0.00582257524827853" flag="0"/>
			<psa30 value="0.000753227137186641" flag="0"/>
		</comp>
		<comp name="--.HNN" depth="0.0">
			<acc value="0.04011016731135" flag="0"/>
			<vel value="0.011529596777" flag="0"/>
			<psa03 value="0.0474696394224736" flag="0"/>
			<psa10 value="0.00631430688557438" flag="0"/>
			<psa30 value="0.000789706272496988" flag="0"/>
		</comp>
		<comp name="--.HNZ" depth="0.0">
			<acc value="0.088413125877174" flag="0"/>
			<vel value="0.0193067908764" flag="0"/>
			<psa03 value="0.0482706664445669" flag="0"/>
			<psa10 value="0.00423412189605113" flag="0"/>
			<psa30 value="0.000530955121087504" flag="0"/>
		</comp>
	</station>
	<station code="CRBR" name="CRBR" netid="RO" source="Romanian Seismic Network (NIEP)" insttype="" lat="45.4108" lon="22.2383">
		<comp name="--.HNE" depth="0.0">
			<acc value="0.09838963766568" flag="0"/>
			<vel value="0.0177140268424" flag="0"/>
			<psa03 value="0.0612480469657044" flag="0"/>
			<psa10 value="0.00812350314222967" flag="0"/>
			<psa30 value="0.00114083213702891" flag="0"/>
		</comp>
		<comp name="--.HNN" depth="0.0">
			<acc value="0.064811140386036" flag="0"/>
			<vel value="0.0135442950498" flag="0"/>
			<psa03 value="0.0636957247373944" flag="0"/>
			<psa10 value="0.0070039100684192" flag="0"/>
			<psa30 value="0.000834847387873465" flag="0"/>
		</comp>
		<comp name="--.HNZ" depth="0.0">
			<acc value="0.048356759103732" flag="0"/>
			<vel value="0.00772287392481" flag="0"/>
			<psa03 value="0.028745768849462" flag="0"/>
			<psa10 value="0.00418570618874123" flag="0"/>
			<psa30 value="0.000319622918241221" flag="0"/>
		</comp>
	</station>
	<station code="DEV" name="DEV" netid="RO" source="Romanian Seismic Network (NIEP)" insttype="" lat="45.887" lon="22.898">
		<comp name="--.HNE" depth="0.0">
			<acc value="0.25533136308846" flag="0"/>
			<vel value="0.0638425243506" flag="0"/>
			<psa03 value="0.136651542077128" flag="0"/>
			<psa10 value="0.00863042984861743" flag="0"/>
			<psa30 value="0.000982964491572949" flag="0"/>
		</comp>
		<comp name="--.HNN" depth="0.0">
			<acc value="0.41375009407872" flag="0"/>
			<vel value="0.132092540699" flag="0"/>
			<psa03 value="0.519265565463997" flag="0"/>
			<psa10 value="0.0177293913601753" flag="0"/>
			<psa30 value="0.00229681340261707" flag="0"/>
		</comp>
		<comp name="--.HNZ" depth="0.0">
			<acc value="0.25931693631" flag="0"/>
			<vel value="0.069644231615" flag="0"/>
			<psa03 value="0.190265374980854" flag="0"/>
			<psa10 value="0.0117733761783819" flag="0"/>
			<psa30 value="0.00107906564947097" flag="0"/>
		</comp>
	</station>
	<station code="GZR" name="GZR" netid="RO" source="Romanian Seismic Network (NIEP)" insttype="" lat="45.3933" lon="22.7767">
		<comp name="--.HNE" depth="0.0">
			<acc value="0.72004089359196" flag="0"/>
			<vel value="0.153626269923" flag="0"/>
			<psa03 value="0.659024365464726" flag="0"/>
			<psa10 value="0.0222323821611876" flag="0"/>
			<psa30 value="0.0025989448756777" flag="0"/>
		</comp>
		<comp name="--.HNN" depth="0.0">
			<acc value="0.53717107116936" flag="0"/>
			<vel value="0.12731000139" flag="0"/>
			<psa03 value="0.399121689853013" flag="0"/>
			<psa10 value="0.0246768222183701" flag="0"/>
			<psa30 value="0.00212359338597394" flag="0"/>
		</comp>
		<comp name="--.HNZ" depth="0.0">
			<acc value="0.5212957732908" flag="0"/>
			<vel value="0.0870934887927" flag="0"/>
			<psa03 value="0.406514304577677" flag="0"/>
			<psa10 value="0.0157003522587654" flag="0"/>
			<psa30 value="0.00151557498273593" flag="0"/>
		</comp>
	</station>
	<station code="LOT" name="LOT" netid="RO" source="Romanian Seismic Network (NIEP)" insttype="" lat="45.446" lon="23.7698">
		<comp name="--.HNE" depth="0.0">
			<acc value="0.1455030541059" flag="0"/>
			<vel value="0.042098778204" flag="0"/>
			<psa03 value="0.302961715560219" flag="0"/>
			<psa10 value="0.00747155573515972" flag="0"/>
			<psa30 value="0.000886168183460254" flag="0"/>
		</comp>
		<comp name="--.HNN" depth="0.0">
			<acc value="0.14073890318394" flag="0"/>
			<vel value="0.0229513301609" flag="0"/>
			<psa03 value="0.098808358068786" flag="0"/>
			<psa10 value="0.00557074231557464" flag="0"/>
			<psa30 value="0.000669879845002114" flag="0"/>
		</comp>
		<comp name="--.HNZ" depth="0.0">
			<acc value="0.10643460984216" flag="0"/>
			<vel value="0.0203755016476" flag="0"/>
			<psa03 value="0.0948428453728462" flag="0"/>
			<psa10 value="0.00461009273977035" flag="0"/>
			<psa30 value="0.000360598887906711" flag="0"/>
		</comp>
	</station>
	<station code="MARR" name="MARR" netid="RO" source="Romanian Seismic Network (NIEP)" insttype="" lat="46.676" lon="23.1189">
		<comp name="--.HNE" depth="0.0">
			<acc value="0.07109211220593" flag="0"/>
			<vel value="0.0257215049448" flag="0"/>
			<psa03 value="0.140612731569881" flag="0"/>
			<psa10 value="0.0106930796140514" flag="0"/>
			<psa30 value="0.000664277286358467" flag="0"/>
		</comp>
		<comp name="--.HNN" depth="0.0">
			<acc value="0.079967809465326" flag="0"/>
			<vel value="0.0205035998177" flag="0"/>
			<psa03 value="0.0683197966844203" flag="0"/>
			<psa10 value="0.00271846461619071" flag="0"/>
			<psa30 value="0.000343028427074707" flag="0"/>
		</comp>
		<comp name="--.HNZ" depth="0.0">
			<acc value="0.02811833848071" flag="0"/>
			<vel value="0.00603977185145" flag="0"/>
			<psa03 value="0.0402946328633599" flag="0"/>
			<psa10 value="0.00257519926618871" flag="0"/>
			<psa30 value="0.00037624380451388" flag="0"/>
		</comp>
	</station>
	<station code="MDB" name="MDB" netid="RO" source="Romanian Seismic Network (NIEP)" insttype="" lat="46.1497" lon="24.3765">
		<comp name="--.HNE" depth="0.0">
			<acc value="0.024670165532838" flag="0"/>
			<vel value="0.00830662773339" flag="0"/>
			<psa03 value="0.0429253175499643" flag="0"/>
			<psa10 value="0.00719744117016411" flag="0"/>
			<psa30 value="0.000556534628105524" flag="0"/>
		</comp>
		<comp name="--.HNN" depth="0.0">
			<acc value="0.029405037933954" flag="0"/>
			<vel value="0.0110090785259" flag="0"/>
			<psa03 value="0.0623564901866513" flag="0"/>
			<psa10 value="0.00417196668480616" flag="0"/>
			<psa30 value="0.000620453341572144" flag="0"/>
		</comp>
		<comp name="--.HNZ" depth="0.0">
			<acc value="0.01654974350001" flag="0"/>
			<vel value="0.00563345042202" flag="0"/>
			<psa03 value="0.0386020051100713" flag="0"/>
			<psa10 value="0.00381542775336232" flag="0"/>
			<psa30 value="0.000290991334039305" flag="0"/>
		</comp>
	</station>
	<station code="MDVR" name="MDVR" netid="RO" source="Romanian Seismic Network (NIEP)" insttype="" lat="44.7815" lon="21.7128">
		<comp name="--.HNE" depth="0.0">
			<acc value="0.044435889633906" flag="0"/>
			<vel value="0.00888050835768" flag="0"/>
			<psa03 value="0.0236359850388651" flag="0"/>
			<psa10 value="0.00476087569715002" flag="0"/>
			<psa30 value="0.000199753401953523" flag="0"/>
		</comp>
		<comp name="--.HNN" depth="0.0">
			<acc value="0.054234912615222" flag="0"/>
			<vel value="0.00822168415702" flag="0"/>
			<psa03 value="0.022839140585136" flag="0"/>
			<psa10 value="0.0046230845379168" flag="0"/>
			<psa30 value="0.000270769265260026" flag="0"/>
		</comp>
		<comp name="--.HNZ" depth="0.0">
			<acc value="0.038979364626078" flag="0"/>
			<vel value="0.00617771916672" flag="0"/>
			<psa03 value="0.0193509733132798" flag="0"/>
			<psa10 value="0.00242251188577505" flag="0"/>
			<psa30 value="0.000244568284781836" flag="0"/>
		</comp>
	</station>
	<station code="MHISU" name="MHISU" netid="RO" source="Romanian Seismic Network (NIEP)" insttype="" lat="44.6227" lon="22.6535">
		<comp name="--.HNE" depth="0.0">
			<acc value="0.050052594981102" flag="0"/>
			<vel value="0.0272844171062" flag="0"/>
			<psa03 value="0.0908850206864223" flag="0"/>
			<psa10 value="0.0208890769238247" flag="0"/>
			<psa30 value="0.00250353188836672" flag="0"/>
		</comp>
		<comp name="--.HNN" depth="0.0">
			<acc value="0.064573780982178" flag="0"/>
			<vel value="0.0209408363981" flag="0"/>
			<psa03 value="0.0983640682201507" flag="0"/>
			<psa10 value="0.0135414973702408" flag="0"/>
			<psa30 value="0.00117370754403164" flag="0"/>
		</comp>
		<comp name="--.HNZ" depth="0.0">
			<acc value="0.04998735089163" flag="0"/>
			<vel value="0.00869824772328" flag="0"/>
			<psa03 value="0.0505777932389647" flag="0"/>
			<psa10 value="0.00671602224726536" flag="0"/>
			<psa30 value="0.000563058810300238" flag="0"/>
		</comp>
	</station>
	<station code="MLR" name="MLR" netid="RO" source="Romanian Seismic Network (NIEP)" insttype="" lat="45.4909" lon="25.945">
		<comp name="--.HNE" depth="0.0">
			<acc value="0.0013305855634488" flag="0"/>
			<vel value="0.00109066520152" flag="0"/>
			<psa03 value="0.00412461698563352" flag="0"/>
			<psa10 value="0.00187832482042797" flag="0"/>
			<psa30 value="0.000221101834411513" flag="0"/>
		</comp>
		<comp name="--.HNN" depth="0.0">
			<acc value="0.0013026904940232" flag="0"/>
			<vel value="0.0011683722057" flag="0"/>
			<psa03 value="0.0042288856116655" flag="0"/>
			<psa10 value="0.00185583047872185" flag="0"/>
			<psa30 value="0.000164257808356807" flag="0"/>
		</comp>
		<comp name="--.HNZ" depth="0.0">
			<acc value="0.0010341787596858" flag="0"/>
			<vel value="0.00103704009947" flag="0"/>
			<psa03 value="0.00209676748128395" flag="0"/>
			<psa10 value="0.00153917836926448" flag="0"/>
			<psa30 value="0.000135502947759239" flag="0"/>
		</comp>
	</station>
	<station code="PUNG" name="PUNG" netid="RO" source="Romanian Seismic Network (NIEP)" insttype="" lat="44.2782" lon="22.9325">
		<comp name="--.HNE" depth="0.0">
			<acc value="0.14855459745216" flag="0"/>
			<vel value="0.0327937586129" flag="0"/>
			<psa03 value="0.066474455689971" flag="0"/>
			<psa10 value="0.0100530565906581" flag="0"/>
			<psa30 value="0.00111469519725224" flag="0"/>
		</comp>
		<comp name="--.HNN" depth="0.0">
			<acc value="0.11029414332426" flag="0"/>
			<vel value="0.0268009749939" flag="0"/>
			<psa03 value="0.0978420232203603" flag="0"/>
			<psa10 value="0.0134231282788798" flag="0"/>
			<psa30 value="0.00106777479734185" flag="0"/>
		</comp>
		<comp name="--.HNZ" depth="0.0">
			<acc value="0.077939713101966" flag="0"/>
			<vel value="0.0142509191912" flag="0"/>
			<psa03 value="0.0329480915035447" flag="0"/>
			<psa10 value="0.00545947572596554" flag="0"/>
			<psa30 value="0.000716409698208745" flag="0"/>
		</comp>
	</station>
	<station code="SRE" name="SRE" netid="RO" source="Romanian Seismic Network (NIEP)" insttype="" lat="44.6609" lon="23.2038">
		<comp name="--.HNE" depth="0.0">
			<acc value="0.31093013001804" flag="0"/>
			<vel value="0.0883135995776" flag="0"/>
			<psa03 value="0.512334272964832" flag="0"/>
			<psa10 value="0.0247526841188463" flag="0"/>
			<psa30 value="0.00273894935862039" flag="0"/>
		</comp>
		<comp name="--.HNN" depth="0.0">
			<acc value="0.2827594141176" flag="0"/>
			<vel value="0.0743412842583" flag="0"/>
			<psa03 value="0.235285544845858" flag="0"/>
			<psa10 value="0.0339617623000643" flag="0"/>
			<psa30 value="0.00234185555310493" flag="0"/>
		</comp>
		<comp name="--.HNZ" depth="0.0">
			<acc value="0.10485944299878" flag="0"/>
			<vel value="0.0333607854528" flag="0"/>
			<psa03 value="0.177207259944709" flag="0"/>
			<psa10 value="0.0133948589061624" flag="0"/>
			<psa30 value="0.000826424277804275" flag="0"/>
		</comp>
	</station>
	<station code="SURR" name="SURR" netid="RO" source="Romanian Seismic Network (NIEP)" insttype="" lat="45.754" lon="22.1246">
		<comp name="--.HNE" depth="0.0">
			<acc value="0.20505081542706" flag="0"/>
			<vel value="0.038032201908" flag="0"/>
			<psa03 value="0.100955562810623" flag="0"/>
			<psa10 value="0.00444125046104147" flag="0"/>
			<psa30 value="0.000424295815848841" flag="0"/>
		</comp>
		<comp name="--.HNN" depth="0.0">
			<acc value="0.17387003088996" flag="0"/>
			<vel value="0.0354004776382" flag="0"/>
			<psa03 value="0.110564928550574" flag="0"/>
			<psa10 value="0.00591387364008665" flag="0"/>
			<psa30 value="0.000441019736226244" flag="0"/>
		</comp>
		<comp name="--.HNZ" depth="0.0">
			<acc value="0.080547378592458" flag="0"/>
			<vel value="0.0177432730358" flag="0"/>
			<psa03 value="0.0742227033481961" flag="0"/>
			<psa10 value="0.00281361029412378" flag="0"/>
			<psa30 value="0.000395654074723971" flag="0"/>
		</comp>
	</station>
	<station code="TNR" name="TNR" netid="RO" source="Romanian Seismic Network (NIEP)" insttype="" lat="45.652" lon="24.273">
		<comp name="--.HNE" depth="0.0">
			<acc value="0.032606205441804" flag="0"/>
			<vel value="0.00810157986615" flag="0"/>
			<psa03 value="0.0430920499493189" flag="0"/>
			<psa10 value="0.0124210262695467" flag="0"/>
			<psa30 value="0.000694609087358034" flag="0"/>
		</comp>
		<comp name="--.HNN" depth="0.0">
