<stationlist xmlns:esm="https://esm-db.eu/esmws/shakemap/1/" created="1782266044">
	<station code="RAZAM" name="RAZAM" netid="BS" source="National Seismic Network of Bulgaria (BS)" insttype="" lat="43.6451" lon="25.1243" esm:processing="automatic (Paolucci et al 2011)" esm:quality="best">
		<comp name="--.HNE" depth="0.0">
			<acc value="0.0207101389532098" flag="0"/>
			<vel value="0.00519452053935889" flag="0"/>
			<psa03 value="0.03276305059964" flag="0"/>
			<psa10 value="0.00223787660771927" flag="0"/>
			<psa30 value="0.000325297460818433" flag="0"/>
		</comp>
		<comp name="--.HNN" depth="0.0">
			<acc value="0.012525111291464" flag="0"/>
			<vel value="0.00347701946290186" flag="0"/>
			<psa03 value="0.0282276329629754" flag="0"/>
			<psa10 value="0.00254914277444808" flag="0"/>
			<psa30 value="0.000268314649528671" flag="0"/>
		</comp>
		<comp name="--.HNZ" depth="0.0">
			<acc value="0.0137914616756341" flag="0"/>
			<vel value="0.00301436088955673" flag="0"/>
			<psa03 value="0.0103280761114263" flag="0"/>
			<psa10 value="0.00108679914354853" flag="0"/>
			<psa30 value="0.000122143377857731" flag="0"/>
		</comp>
	</station>
	<station code="ARR" name="ARR" netid="RO" source="Romanian Seismic Network (NIEP)" insttype="" lat="45.3657" lon="24.6332" esm:processing="automatic (Paolucci et al 2011)" esm:quality="best">
		<comp name="--.HNE" depth="0.0">
			<acc value="0.00573507484836159" flag="0"/>
			<vel value="0.00225823416897685" flag="0"/>
			<psa03 value="0.013706012122706" flag="0"/>
			<psa10 value="0.00215768152956358" flag="0"/>
			<psa30 value="0.000148209245218593" flag="0"/>
		</comp>
		<comp name="--.HNN" depth="0.0">
			<acc value="0.00626122175953234" flag="0"/>
			<vel value="0.00394426344300546" flag="0"/>
			<psa03 value="0.0176159195723994" flag="0"/>
			<psa10 value="0.0028760784167052" flag="0"/>
			<psa30 value="0.000284094418819522" flag="0"/>
		</comp>
		<comp name="--.HNZ" depth="0.0">
			<acc value="0.00577660301372211" flag="0"/>
			<vel value="0.00175748827799979" flag="0"/>
			<psa03 value="0.0112619778216066" flag="0"/>
			<psa10 value="0.000857402423703659" flag="0"/>
			<psa30 value="0.000139004442737233" flag="0"/>
		</comp>
	</station>
	<station code="CBBR" name="CBBR" netid="RO" source="Romanian Seismic Network (NIEP)" insttype="" lat="46.7683" lon="23.5501" esm:processing="manual (Paolucci et al 2011)" esm:quality="good">
		<comp name="--.HNE" depth="0.0">
			<acc value="0.0249174938699877" flag="0"/>
			<vel value="0.00717079610951281" flag="0"/>
			<psa03 value="0.0258439255749006" flag="0"/>
			<psa10 value="0.00247843488727275" flag="0"/>
			<psa30 value="0.000320314318209893" flag="0"/>
		</comp>
		<comp name="--.HNN" depth="0.0">
			<acc value="0.0249308121563153" flag="0"/>
			<vel value="0.00877343750472143" flag="0"/>
			<psa03 value="0.0607394455651749" flag="0"/>
			<psa10 value="0.00212654954534581" flag="0"/>
			<psa30 value="0.000182904798836939" flag="0"/>
		</comp>
		<comp name="--.HNZ" depth="0.0">
			<acc value="0.0100212600416672" flag="0"/>
			<vel value="0.00318957650995825" flag="0"/>
			<psa03 value="0.0271149472738503" flag="0"/>
			<psa10 value="0.00152316023782797" flag="0"/>
			<psa30 value="0.000183818127569652" flag="0"/>
		</comp>
	</station>
	<station code="CJR" name="CJR" netid="RO" source="Romanian Seismic Network (NIEP)" insttype="" lat="46.7133" lon="23.5981" esm:processing="automatic (Paolucci et al 2011)" esm:quality="best">
		<comp name="--.HNE" depth="0.0">
			<acc value="0.0431090724784412" flag="0"/>
			<vel value="0.0146952210935457" flag="0"/>
			<psa03 value="0.101035953552912" flag="0"/>
			<psa10 value="0.00926163603795054" flag="0"/>
			<psa30 value="0.000902571770116331" flag="0"/>
		</comp>
		<comp name="--.HNN" depth="0.0">
			<acc value="0.0313151397179858" flag="0"/>
			<vel value="0.0110372866262327" flag="0"/>
			<psa03 value="0.0788191953431441" flag="0"/>
			<psa10 value="0.00714879716648766" flag="0"/>
			<psa30 value="0.000725675051579604" flag="0"/>
		</comp>
		<comp name="--.HNZ" depth="0.0">
			<acc value="0.0289758157018468" flag="0"/>
			<vel value="0.00952219528542225" flag="0"/>
			<psa03 value="0.0571429989848575" flag="0"/>
			<psa10 value="0.00469934771495346" flag="0"/>
			<psa30 value="0.000375205740955754" flag="0"/>
		</comp>
	</station>
	<station code="COPA" name="COPA" netid="RO" source="Romanian Seismic Network (NIEP)" insttype="" lat="44.1343" lon="25.2172" esm:processing="automatic (Paolucci et al 2011)" esm:quality="best">
		<comp name="--.HNE" depth="0.0">
			<acc value="0.0124480265036557" flag="0"/>
			<vel value="0.00369653709684058" flag="0"/>
			<psa03 value="0.0147354201596661" flag="0"/>
			<psa10 value="0.0050811848847987" flag="0"/>
			<psa30 value="0.000931552856640206" flag="0"/>
		</comp>
		<comp name="--.HNN" depth="0.0">
			<acc value="0.0128017325605506" flag="0"/>
			<vel value="0.0038965549709662" flag="0"/>
			<psa03 value="0.0172465240079827" flag="0"/>
			<psa10 value="0.00409645637011533" flag="0"/>
			<psa30 value="0.000587976710989123" flag="0"/>
		</comp>
		<comp name="--.HNZ" depth="0.0">
			<acc value="0.0113259609343472" flag="0"/>
			<vel value="0.00167806021713276" flag="0"/>
			<psa03 value="0.00654775797558273" flag="0"/>
			<psa10 value="0.0018705503210299" flag="0"/>
			<psa30 value="0.000289658120720682" flag="0"/>
		</comp>
	</station>
	<station code="CRAR" name="CRAR" netid="RO" source="Romanian Seismic Network (NIEP)" insttype="" lat="44.325" lon="23.7999" esm:processing="automatic (Paolucci et al 2011)" esm:quality="best">
		<comp name="--.HNE" depth="0.0">
			<acc value="0.0600853455585219" flag="0"/>
			<vel value="0.0150314519729821" flag="0"/>
			<psa03 value="0.0907405319484205" flag="0"/>
			<psa10 value="0.00582257806095709" flag="0"/>
			<psa30 value="0.000753206042037106" flag="0"/>
		</comp>
		<comp name="--.HNN" depth="0.0">
			<acc value="0.0402013789098932" flag="0"/>
			<vel value="0.0115943692509485" flag="0"/>
			<psa03 value="0.0474696394224736" flag="0"/>
			<psa10 value="0.00631430735437428" flag="0"/>
			<psa30 value="0.00106585321170969" flag="0"/>
		</comp>
		<comp name="--.HNZ" depth="0.0">
			<acc value="0.0878952748327333" flag="0"/>
			<vel value="0.0194224671613089" flag="0"/>
			<psa03 value="0.0482706664445669" flag="0"/>
			<psa10 value="0.0042340079822678" flag="0"/>
			<psa30 value="0.000531935967315845" flag="0"/>
		</comp>
	</station>
	<station code="CRBR" name="CRBR" netid="RO" source="Romanian Seismic Network (NIEP)" insttype="" lat="45.4108" lon="22.2383" esm:processing="manual (Paolucci et al 2011)" esm:quality="good">
		<comp name="--.HNE" depth="0.0">
			<acc value="0.0975616475769063" flag="0"/>
			<vel value="0.0175984423588737" flag="0"/>
			<psa03 value="0.061404614629361" flag="0"/>
			<psa10 value="0.0081080624318438" flag="0"/>
			<psa30 value="0.00102253565463544" flag="0"/>
		</comp>
		<comp name="--.HNN" depth="0.0">
			<acc value="0.0621620530246013" flag="0"/>
			<vel value="0.0135682751836942" flag="0"/>
			<psa03 value="0.0638903522139432" flag="0"/>
			<psa10 value="0.00699959915784195" flag="0"/>
			<psa30 value="0.000803162215971759" flag="0"/>
		</comp>
		<comp name="--.HNZ" depth="0.0">
			<acc value="0.0451715909524583" flag="0"/>
			<vel value="0.00772409989179768" flag="0"/>
			<psa03 value="0.0287901936673688" flag="0"/>
			<psa10 value="0.00418150216024637" flag="0"/>
			<psa30 value="0.000298342992925756" flag="0"/>
		</comp>
	</station>
	<station code="DEV" name="DEV" netid="RO" source="Romanian Seismic Network (NIEP)" insttype="" lat="45.887" lon="22.898" esm:processing="manual (Paolucci et al 2011)" esm:quality="good">
		<comp name="--.HNE" depth="0.0">
			<acc value="0.253500766537119" flag="0"/>
			<vel value="0.064678898476663" flag="0"/>
			<psa03 value="0.137270051800579" flag="0"/>
			<psa10 value="0.00866140690069919" flag="0"/>
			<psa30 value="0.000954016532246524" flag="0"/>
		</comp>
		<comp name="--.HNN" depth="0.0">
			<acc value="0.417218924903217" flag="0"/>
			<vel value="0.132200317618576" flag="0"/>
			<psa03 value="0.521689309356426" flag="0"/>
			<psa10 value="0.0178218424845995" flag="0"/>
			<psa30 value="0.00220086017118508" flag="0"/>
		</comp>
		<comp name="--.HNZ" depth="0.0">
			<acc value="0.261971613839626" flag="0"/>
			<vel value="0.0701991717264892" flag="0"/>
			<psa03 value="0.191275879421612" flag="0"/>
			<psa10 value="0.011816005252358" flag="0"/>
			<psa30 value="0.00103503064903416" flag="0"/>
		</comp>
	</station>
	<station code="GZR" name="GZR" netid="RO" source="Romanian Seismic Network (NIEP)" insttype="" lat="45.3933" lon="22.7767" esm:processing="automatic (Paolucci et al 2011)" esm:quality="best">
		<comp name="--.HNE" depth="0.0">
			<acc value="0.711742596885945" flag="0"/>
			<vel value="0.153384829203173" flag="0"/>
			<psa03 value="0.659024365464726" flag="0"/>
			<psa10 value="0.0222323334079719" flag="0"/>
			<psa30 value="0.00259958825162921" flag="0"/>
		</comp>
		<comp name="--.HNN" depth="0.0">
			<acc value="0.536878439958528" flag="0"/>
			<vel value="0.128595329539169" flag="0"/>
			<psa03 value="0.399129440366497" flag="0"/>
			<psa10 value="0.0246777935327277" flag="0"/>
			<psa30 value="0.00211712379072543" flag="0"/>
		</comp>
		<comp name="--.HNZ" depth="0.0">
			<acc value="0.520232019569057" flag="0"/>
			<vel value="0.0874706630067667" flag="0"/>
			<psa03 value="0.406514304577677" flag="0"/>
			<psa10 value="0.0157004085124975" flag="0"/>
			<psa30 value="0.00151581937392564" flag="0"/>
		</comp>
	</station>
	<station code="LOT" name="LOT" netid="RO" source="Romanian Seismic Network (NIEP)" insttype="" lat="45.446" lon="23.7698" esm:processing="automatic (Paolucci et al 2011)" esm:quality="best">
		<comp name="--.HNE" depth="0.0">
			<acc value="0.139600408308904" flag="0"/>
			<vel value="0.0418921133822836" flag="0"/>
			<psa03 value="0.302961611386492" flag="0"/>
			<psa10 value="0.00747247501478291" flag="0"/>
			<psa30 value="0.000885829411019658" flag="0"/>
		</comp>
		<comp name="--.HNN" depth="0.0">
			<acc value="0.136458233311812" flag="0"/>
			<vel value="0.022547340645952" flag="0"/>
			<psa03 value="0.0988149626730613" flag="0"/>
			<psa10 value="0.00556486098849635" flag="0"/>
			<psa30 value="0.00065428141584829" flag="0"/>
		</comp>
		<comp name="--.HNZ" depth="0.0">
			<acc value="0.101172252188391" flag="0"/>
			<vel value="0.0203981217364152" flag="0"/>
			<psa03 value="0.0948428453728462" flag="0"/>
			<psa10 value="0.00461009320852998" flag="0"/>
			<psa30 value="0.000361443370932999" flag="0"/>
		</comp>
	</station>
	<station code="MARR" name="MARR" netid="RO" source="Romanian Seismic Network (NIEP)" insttype="" lat="46.676" lon="23.1189" esm:processing="automatic (Paolucci et al 2011)" esm:quality="best">
		<comp name="--.HNE" depth="0.0">
			<acc value="0.071440675397705" flag="0"/>
			<vel value="0.0258568283649049" flag="0"/>
			<psa03 value="0.140612731569881" flag="0"/>
			<psa10 value="0.0106930796140514" flag="0"/>
			<psa30 value="0.000664219053334059" flag="0"/>
		</comp>
		<comp name="--.HNN" depth="0.0">
			<acc value="0.0804583472437391" flag="0"/>
			<vel value="0.0206635856709997" flag="0"/>
			<psa03 value="0.0683197966844203" flag="0"/>
			<psa10 value="0.00271846555375022" flag="0"/>
			<psa30 value="0.000342938264851939" flag="0"/>
		</comp>
		<comp name="--.HNZ" depth="0.0">
			<acc value="0.0280051987052686" flag="0"/>
			<vel value="0.00608619348480328" flag="0"/>
			<psa03 value="0.0402946328633599" flag="0"/>
			<psa10 value="0.00257519950057658" flag="0"/>
			<psa30 value="0.000376108977873742" flag="0"/>
		</comp>
	</station>
	<station code="MDB" name="MDB" netid="RO" source="Romanian Seismic Network (NIEP)" insttype="" lat="46.1497" lon="24.3765" esm:processing="automatic (Paolucci et al 2011)" esm:quality="best">
		<comp name="--.HNE" depth="0.0">
			<acc value="0.024866712487475" flag="0"/>
			<vel value="0.00835500682962664" flag="0"/>
			<psa03 value="0.0429296251269801" flag="0"/>
			<psa10 value="0.00719575215200297" flag="0"/>
			<psa30 value="0.000543041182146062" flag="0"/>
		</comp>
		<comp name="--.HNN" depth="0.0">
			<acc value="0.0294188150876984" flag="0"/>
			<vel value="0.0110976731445603" flag="0"/>
			<psa03 value="0.0623483906915622" flag="0"/>
			<psa10 value="0.0041631095355659" flag="0"/>
			<psa30 value="0.000610570499383604" flag="0"/>
		</comp>
		<comp name="--.HNZ" depth="0.0">
			<acc value="0.0163603762316995" flag="0"/>
			<vel value="0.00563459580374562" flag="0"/>
			<psa03 value="0.0386027890161709" flag="0"/>
			<psa10 value="0.00381126216491557" flag="0"/>
			<psa30 value="0.000279575786148561" flag="0"/>
		</comp>
	</station>
	<station code="MDVR" name="MDVR" netid="RO" source="Romanian Seismic Network (NIEP)" insttype="" lat="44.7815" lon="21.7128" esm:processing="automatic (Paolucci et al 2011)" esm:quality="best">
		<comp name="--.HNE" depth="0.0">
			<acc value="0.0434267545772686" flag="0"/>
			<vel value="0.00891615893903251" flag="0"/>
			<psa03 value="0.0236359850388651" flag="0"/>
			<psa10 value="0.00476087382203098" flag="0"/>
			<psa30 value="0.000199845947146663" flag="0"/>
		</comp>
		<comp name="--.HNN" depth="0.0">
			<acc value="0.0544747163491552" flag="0"/>
			<vel value="0.00821794715697923" flag="0"/>
			<psa03 value="0.022839140585136" flag="0"/>
			<psa10 value="0.00462308219399787" flag="0"/>
			<psa30 value="0.000270895132973057" flag="0"/>
		</comp>
		<comp name="--.HNZ" depth="0.0">
			<acc value="0.0384971998146897" flag="0"/>
			<vel value="0.0062272047406812" flag="0"/>
			<psa03 value="0.0193519942142393" flag="0"/>
			<psa10 value="0.00242126516255834" flag="0"/>
			<psa30 value="0.00024359967894965" flag="0"/>
		</comp>
	</station>
	<station code="MHISU" name="MHISU" netid="RO" source="Romanian Seismic Network (NIEP)" insttype="" lat="44.6227" lon="22.6535" esm:processing="automatic (Paolucci et al 2011)" esm:quality="best">
		<comp name="--.HNE" depth="0.0">
			<acc value="0.0499752486925181" flag="0"/>
			<vel value="0.0272733376778619" flag="0"/>
			<psa03 value="0.0908833018228336" flag="0"/>
			<psa10 value="0.0208852179181816" flag="0"/>
			<psa30 value="0.00245649106380946" flag="0"/>
		</comp>
		<comp name="--.HNN" depth="0.0">
			<acc value="0.064820404485672" flag="0"/>
			<vel value="0.0209280984643014" flag="0"/>
			<psa03 value="0.0983623701907705" flag="0"/>
			<psa10 value="0.0135368039343323" flag="0"/>
			<psa30 value="0.00116291057878606" flag="0"/>
		</comp>
		<comp name="--.HNZ" depth="0.0">
			<acc value="0.0475003255816763" flag="0"/>
			<vel value="0.00870124841573243" flag="0"/>
			<psa03 value="0.0505752149429104" flag="0"/>
			<psa10 value="0.00671572832153128" flag="0"/>
			<psa30 value="0.000553634748501566" flag="0"/>
		</comp>
	</station>
	<station code="MLR" name="MLR" netid="RO" source="Romanian Seismic Network (NIEP)" insttype="" lat="45.4909" lon="25.945" esm:processing="manual (Paolucci et al 2011)" esm:quality="good">
		<comp name="--.HNE" depth="0.0">
			<acc value="0.00133325117878759" flag="0"/>
			<vel value="0.00109149438223427" flag="0"/>
			<psa03 value="0.00413046112277813" flag="0"/>
			<psa10 value="0.00187911260698801" flag="0"/>
			<psa30 value="0.00022132901091908" flag="0"/>
		</comp>
		<comp name="--.HNN" depth="0.0">
			<acc value="0.00130884335480575" flag="0"/>
			<vel value="0.00116810477828025" flag="0"/>
			<psa03 value="0.00423693367085357" flag="0"/>
			<psa10 value="0.00185630593990824" flag="0"/>
			<psa30 value="0.000164441140814377" flag="0"/>
		</comp>
		<comp name="--.HNZ" depth="0.0">
			<acc value="0.00103314289207461" flag="0"/>
			<vel value="0.00103711149515989" flag="0"/>
			<psa03 value="0.00210089714938589" flag="0"/>
			<psa10 value="0.00153978532353331" flag="0"/>
			<psa30 value="0.000135628789429168" flag="0"/>
		</comp>
	</station>
	<station code="MTUR" name="MTUR" netid="RO" source="Romanian Seismic Network (NIEP)" insttype="" lat="45.2349" lon="25.0739" esm:processing="automatic (Paolucci et al 2011)" esm:quality="best">
		<comp name="--.HNE" depth="0.0">
			<acc value="0.0145540330322019" flag="0"/>
			<vel value="0.00540345520272764" flag="0"/>
			<psa03 value="0.0255479085693977" flag="0"/>
			<psa10 value="0.00503395706869884" flag="0"/>
			<psa30 value="0.000478253765297623" flag="0"/>
		</comp>
		<comp name="--.HNN" depth="0.0">
			<acc value="0.0210012325467911" flag="0"/>
			<vel value="0.00654148410988048" flag="0"/>
			<psa03 value="0.0272980609667335" flag="0"/>
			<psa10 value="0.00851659105736608" flag="0"/>
			<psa30 value="0.000803254253318243" flag="0"/>
		</comp>
		<comp name="--.HNZ" depth="0.0">
			<acc value="0.0071850355778731" flag="0"/>
			<vel value="0.00311638012940985" flag="0"/>
			<psa03 value="0.0132054008346699" flag="0"/>
			<psa10 value="0.00275801918961025" flag="0"/>
			<psa30 value="0.000250636056533492" flag="0"/>
		</comp>
	</station>
	<station code="PUNG" name="PUNG" netid="RO" source="Romanian Seismic Network (NIEP)" insttype="" lat="44.2782" lon="22.9325" esm:processing="automatic (Paolucci et al 2011)" esm:quality="best">
		<comp name="--.HNE" depth="0.0">
			<acc value="0.1501337023751" flag="0"/>
			<vel value="0.0323110664414202" flag="0"/>
			<psa03 value="0.066474455689971" flag="0"/>
			<psa10 value="0.0100530584657771" flag="0"/>
			<psa30 value="0.0011147010309738" flag="0"/>
		</comp>
		<comp name="--.HNN" depth="0.0">
			<acc value="0.110893976064364" flag="0"/>
			<vel value="0.0268769807780385" flag="0"/>
			<psa03 value="0.0978420232203603" flag="0"/>
			<psa10 value="0.0134231282788798" flag="0"/>
			<psa30 value="0.0010674817570963" flag="0"/>
		</comp>
		<comp name="--.HNZ" depth="0.0">
			<acc value="0.0753663723332479" flag="0"/>
			<vel value="0.0137165482919671" flag="0"/>
			<psa03 value="0.0329480915035447" flag="0"/>
			<psa10 value="0.00545947478840602" flag="0"/>
			<psa30 value="0.000739267306165523" flag="0"/>
		</comp>
	</station>
	<station code="SRE" name="SRE" netid="RO" source="Romanian Seismic Network (NIEP)" insttype="" lat="44.6609" lon="23.2038" esm:processing="automatic (Paolucci et al 2011)" esm:quality="best">
		<comp name="--.HNE" depth="0.0">
			<acc value="0.31209395752249" flag="0"/>
			<vel value="0.0887023597277734" flag="0"/>
			<psa03 value="0.512334272964832" flag="0"/>
			<psa10 value="0.0247526859939653" flag="0"/>
			<psa30 value="0.00274068447356293" flag="0"/>
		</comp>
		<comp name="--.HNN" depth="0.0">
			<acc value="0.284744081634358" flag="0"/>
			<vel value="0.0750379826138115" flag="0"/>
			<psa03 value="0.235285544845858" flag="0"/>
			<psa10 value="0.0339617472990718" flag="0"/>
			<psa30 value="0.0034146499538022" flag="0"/>
		</comp>
		<comp name="--.HNZ" depth="0.0">
			<acc value="0.102567056983393" flag="0"/>
			<vel value="0.0335128615922404" flag="0"/>
			<psa03 value="0.177207259944709" flag="0"/>
			<psa10 value="0.0133948664066788" flag="0"/>
			<psa30 value="0.00178822283598456" flag="0"/>
		</comp>
	</station>
	<station code="SURR" name="SURR" netid="RO" source="Romanian Seismic Network (NIEP)" insttype="" lat="45.754" lon="22.1246" esm:processing="automatic (Paolucci et al 2011)" esm:quality="best">
		<comp name="--.HNE" depth="0.0">
			<acc value="0.191269813547495" flag="0"/>
			<vel value="0.0380855786801257" flag="0"/>
			<psa03 value="0.100955562810623" flag="0"/>
			<psa10 value="0.00444125139860099" flag="0"/>
			<psa30 value="0.000423508914761949" flag="0"/>
		</comp>
		<comp name="--.HNN" depth="0.0">
			<acc value="0.169430927280874" flag="0"/>
			<vel value="0.03593323349289" flag="0"/>
			<psa03 value="0.110564928550574" flag="0"/>
			<psa10 value="0.00591385582641556" flag="0"/>
			<psa30 value="0.000441308036575035" flag="0"/>
		</comp>
		<comp name="--.HNZ" depth="0.0">
			<acc value="0.0826920108544792" flag="0"/>
			<vel value="0.0177298592462027" flag="0"/>
