<?xml version="1.0" encoding="UTF-8" standalone="yes"?>
<!DOCTYPE earthquake SYSTEM "stationlist.dtd">
<stationlist created="" xmlns="ch.ethz.sed.shakemap.usgs.xml">
  <station code="CEYT" name="CEYT" netid="KO" insttype="CMG-3ESP" lat="37.0105" lon="35.7478">
    <comp name="--.HHE">
      <acc value="0.0209912339" flag="0"/>
      <vel value="0.0101019883" flag="0"/>
      <psa03 value="0.0500989264" flag="0"/>
      <psa10 value="0.0067722390" flag="0"/>
      <psa30 value="0.0018674174" flag="0"/>
    </comp>
  </station>
  <station code="GAZ" name="GAZ" netid="KO" insttype="CMG-3T" lat="37.1721" lon="37.2096">
    <comp name="--.HHE">
      <acc value="0.0503392613" flag="0"/>
      <vel value="0.0195600835" flag="0"/>
      <psa03 value="0.0998274034" flag="0"/>
      <psa10 value="0.0116843551" flag="0"/>
      <psa30 value="0.0012652564" flag="0"/>
    </comp>
    <comp name="--.HHZ">
      <acc value="0.0606783928" flag="0"/>
      <vel value="0.0187018441" flag="0"/>
      <psa03 value="0.0745858445" flag="0"/>
      <psa10 value="0.0139113690" flag="0"/>
      <psa30 value="0.0010877188" flag="0"/>
    </comp>
    <comp name="--.HHN">
      <acc value="0.0742537451" flag="0"/>
      <vel value="0.0198362234" flag="0"/>
      <psa03 value="0.0864137708" flag="0"/>
      <psa10 value="0.0103079918" flag="0"/>
      <psa30 value="0.0012538621" flag="0"/>
    </comp>
  </station>
  <station code="ANDN" name="ANDN" netid="TU" insttype="T" lat="37.58" lon="36.3452">
    <comp name="--.HHN">
      <acc value="0.1517154582" flag="0"/>
      <vel value="0.0492716748" flag="0"/>
      <psa03 value="0.2446448052" flag="0"/>
      <psa10 value="0.0277309921" flag="0"/>
      <psa30 value="0.0015429496" flag="0"/>
    </comp>
    <comp name="--.HHZ">
      <acc value="0.0507698861" flag="0"/>
      <vel value="0.0179652075" flag="0"/>
      <psa03 value="0.0824034311" flag="0"/>
      <psa10 value="0.0133402739" flag="0"/>
      <psa30 value="0.0010821315" flag="0"/>
    </comp>
    <comp name="--.HHE">
      <acc value="0.1152836805" flag="0"/>
      <vel value="0.0331448695" flag="0"/>
      <psa03 value="0.1364243531" flag="0"/>
      <psa10 value="0.0229787123" flag="0"/>
      <psa30 value="0.0015424156" flag="0"/>
    </comp>
  </station>
</stationlist>
