<?xml version="1.0" encoding="UTF-8" standalone="yes"?>
<!DOCTYPE earthquake SYSTEM "stationlist.dtd">
<stationlist created="" xmlns="ch.ethz.sed.shakemap.usgs.xml">
  <station code="ZKR" name="ZKR" netid="GE" insttype="STS-2/N" lat="35.1147" lon="26.2169">
    <comp name="--.HHE">
      <acc value="0.0071407502" flag="0"/>
      <vel value="0.0032116335" flag="0"/>
      <psa03 value="0.0193353299" flag="0"/>
      <psa10 value="0.0039638393" flag="0"/>
      <psa30 value="0.0006782220" flag="0"/>
    </comp>
    <comp name="--.HHN">
      <acc value="0.0037922726" flag="0"/>
      <vel value="0.0016823135" flag="0"/>
      <psa03 value="0.0106349984" flag="0"/>
      <psa10 value="0.0018713472" flag="0"/>
      <psa30 value="0.0002131270" flag="0"/>
    </comp>
    <comp name="--.HHZ">
      <acc value="0.0031920373" flag="0"/>
      <vel value="0.0023829391" flag="0"/>
      <psa03 value="0.0115495020" flag="0"/>
      <psa10 value="0.0037733308" flag="0"/>
      <psa30 value="0.0003502236" flag="0"/>
    </comp>
  </station>
  <station code="ZKR" name="ZKR" netid="HL" insttype="120" lat="35.1147" lon="26.2169">
    <comp name="--.HHE">
      <acc value="0.0070103866" flag="0"/>
      <vel value="0.0031721208" flag="0"/>
      <psa03 value="0.0187925458" flag="0"/>
      <psa10 value="0.0039383133" flag="0"/>
      <psa30 value="0.0006785697" flag="0"/>
    </comp>
    <comp name="--.HHN">
      <acc value="0.0036768664" flag="0"/>
      <vel value="0.0016362898" flag="0"/>
      <psa03 value="0.0103410424" flag="0"/>
      <psa10 value="0.0018606195" flag="0"/>
      <psa30 value="0.0002127620" flag="0"/>
    </comp>
    <comp name="--.HHZ">
      <acc value="0.0031172258" flag="0"/>
      <vel value="0.0023537797" flag="0"/>
      <psa03 value="0.0112272817" flag="0"/>
      <psa10 value="0.0037447440" flag="0"/>
      <psa30 value="0.0003502613" flag="0"/>
    </comp>
  </station>
</stationlist>
