<stationlist created="1778069522">
	<station code="IMMV" name="IMMV" netid="GE" source="GEOFON" insttype="" lat="35.4606" lon="23.9811">
		<comp name="--.HNE" depth="0.0">
			<acc value="0.000638200138448542" flag="0"/>
			<vel value="0.00087915004876791" flag="0"/>
			<psa03 value="0.00187917267796741" flag="0"/>
			<psa10 value="0.00192078293012241" flag="0"/>
			<psa30 value="0.000172257495480346" flag="0"/>
		</comp>
		<comp name="--.HNN" depth="0.0">
			<acc value="0.00058224882985043" flag="0"/>
			<vel value="0.000649466939703054" flag="0"/>
			<psa03 value="0.00170020385149433" flag="0"/>
			<psa10 value="0.0011234768081848" flag="0"/>
			<psa30 value="0.000259504798385976" flag="0"/>
		</comp>
		<comp name="--.HNZ" depth="0.0">
			<acc value="0.000555762426275189" flag="0"/>
			<vel value="0.00044897385298684" flag="0"/>
			<psa03 value="0.00134226619854815" flag="0"/>
			<psa10 value="0.000797306121937603" flag="0"/>
			<psa30 value="0.000165098742421423" flag="0"/>
		</comp>
	</station>
	<station code="SIT2" name="SIT2" netid="HI" source="ITSAK Strong Motion Network" insttype="" lat="35.2059" lon="26.107">
		<comp name="--.HNE" depth="0.0">
			<acc value="0.0139611388139396" flag="0"/>
			<vel value="0.0100140326981776" flag="0"/>
			<psa03 value="0.0410286034689552" flag="0"/>
			<psa10 value="0.00832741949579274" flag="0"/>
			<psa30 value="0.000882763736578501" flag="0"/>
		</comp>
		<comp name="--.HNN" depth="0.0">
			<acc value="0.0180125454812874" flag="0"/>
			<vel value="0.0116095936023388" flag="0"/>
			<psa03 value="0.0478741610815508" flag="0"/>
			<psa10 value="0.00839184827332305" flag="0"/>
			<psa30 value="0.00102683364188934" flag="0"/>
		</comp>
		<comp name="--.HNZ" depth="0.0">
			<acc value="0.011715534379908" flag="0"/>
			<vel value="0.00287309353260607" flag="0"/>
			<psa03 value="0.0147649281840297" flag="0"/>
			<psa10 value="0.00190467573573983" flag="0"/>
			<psa30 value="0.00060088783488339" flag="0"/>
		</comp>
	</station>
</stationlist>
