<?xml version="1.0" encoding="UTF-8" standalone="yes"?>
<!DOCTYPE earthquake SYSTEM "stationlist.dtd">
<stationlist created="" xmlns="ch.ethz.sed.shakemap.usgs.xml">
  <station code="THERA" name="THERA" netid="GE" insttype="STS-2/N" lat="36.367" lon="25.4753">
    <comp name="--.HHE">
      <acc value="0.1338870432" flag="0"/>
      <vel value="0.0517083901" flag="0"/>
      <psa03 value="0.3513951152" flag="0"/>
      <psa10 value="0.0246363653" flag="0"/>
      <psa30 value="0.0015694186" flag="0"/>
    </comp>
    <comp name="--.HHZ">
      <acc value="0.1727100343" flag="0"/>
      <vel value="0.0500225424" flag="0"/>
      <psa03 value="0.3548887903" flag="0"/>
      <psa10 value="0.0188841266" flag="0"/>
      <psa30 value="0.0013799421" flag="0"/>
    </comp>
    <comp name="--.HHN">
      <acc value="0.1149382675" flag="0"/>
      <vel value="0.0277240702" flag="0"/>
      <psa03 value="0.2598309631" flag="0"/>
      <psa10 value="0.0085989719" flag="0"/>
      <psa30 value="0.0006091510" flag="0"/>
    </comp>
  </station>
  <station code="ZKR" name="ZKR" netid="GE" insttype="STS-2/N" lat="35.1147" lon="26.2169">
    <comp name="--.HHE">
      <acc value="0.0544931901" flag="0"/>
      <vel value="0.0301135713" flag="0"/>
      <psa03 value="0.1195265401" flag="0"/>
      <psa10 value="0.0181846146" flag="0"/>
      <psa30 value="0.0013893138" flag="0"/>
    </comp>
    <comp name="--.HHN">
      <acc value="0.0315017340" flag="0"/>
      <vel value="0.0142512397" flag="0"/>
      <psa03 value="0.0603478666" flag="0"/>
      <psa10 value="0.0095762319" flag="0"/>
      <psa30 value="0.0008815546" flag="0"/>
    </comp>
    <comp name="--.HHZ">
      <acc value="0.0509245554" flag="0"/>
      <vel value="0.0195081076" flag="0"/>
      <psa03 value="0.0756658136" flag="0"/>
      <psa10 value="0.0078042445" flag="0"/>
      <psa30 value="0.0007150288" flag="0"/>
    </comp>
  </station>
  <station code="SNT1" name="SNT1" netid="HA" insttype="30" lat="36.4159" lon="25.4282">
    <comp name="--.HHZ">
      <acc value="0.0753322925" flag="0"/>
      <vel value="0.0214467775" flag="0"/>
      <psa03 value="0.1385564699" flag="0"/>
      <psa10 value="0.0190499152" flag="0"/>
      <psa30 value="0.0009274694" flag="0"/>
    </comp>
    <comp name="--.HHN">
      <acc value="0.0978897617" flag="0"/>
      <vel value="0.0322893578" flag="0"/>
      <psa03 value="0.1476982016" flag="0"/>
      <psa10 value="0.0268400707" flag="0"/>
      <psa30 value="0.0012381509" flag="0"/>
    </comp>
    <comp name="--.HHE">
      <acc value="0.1076325572" flag="0"/>
      <vel value="0.0503602001" flag="0"/>
      <psa03 value="0.1239302852" flag="0"/>
      <psa10 value="0.0471470020" flag="0"/>
      <psa30 value="0.0029238209" flag="0"/>
    </comp>
  </station>
  <station code="SNT5" name="SNT5" netid="HA" insttype="1s-100Hz," lat="36.4037" lon="25.3953">
    <comp name="--.HHE">
      <acc value="0.3537322696" flag="0"/>
      <vel value="0.0732907062" flag="0"/>
      <psa03 value="0.4169390700" flag="0"/>
      <psa10 value="0.0333957884" flag="0"/>
      <psa30 value="0.0035894768" flag="0"/>
    </comp>
    <comp name="--.HHN">
      <acc value="0.2455184223" flag="0"/>
      <vel value="0.0737664389" flag="0"/>
      <psa03 value="0.4687893316" flag="0"/>
      <psa10 value="0.0162155357" flag="0"/>
      <psa30 value="0.0018548140" flag="0"/>
    </comp>
    <comp name="--.HHZ">
      <acc value="0.0938517794" flag="0"/>
      <vel value="0.0214766249" flag="0"/>
      <psa03 value="0.1491213559" flag="0"/>
      <psa10 value="0.0137813499" flag="0"/>
      <psa30 value="0.0006862480" flag="0"/>
    </comp>
  </station>
  <station code="IMOD" name="IMOD" netid="HC" insttype="120" lat="34.9731" lon="24.7995">
    <comp name="--.HHN">
      <acc value="0.0208056029" flag="0"/>
      <vel value="0.0106160609" flag="0"/>
      <psa03 value="0.0567748974" flag="0"/>
      <psa10 value="0.0157056301" flag="0"/>
      <psa30 value="0.0007667824" flag="0"/>
    </comp>
    <comp name="--.HHZ">
      <acc value="0.0160050304" flag="0"/>
      <vel value="0.0077979038" flag="0"/>
      <psa03 value="0.0280249517" flag="0"/>
      <psa10 value="0.0055059265" flag="0"/>
      <psa30 value="0.0003861654" flag="0"/>
    </comp>
    <comp name="--.HHE">
      <acc value="0.0157722377" flag="0"/>
      <vel value="0.0097163637" flag="0"/>
      <psa03 value="0.0712275702" flag="0"/>
      <psa10 value="0.0080543296" flag="0"/>
      <psa30 value="0.0005512236" flag="0"/>
    </comp>
  </station>
  <station code="IPPL" name="IPPL" netid="HC" insttype="60" lat="35.3486" lon="24.4632">
    <comp name="--.HHN">
      <acc value="0.0000000000" flag="0"/>
      <vel value="-100.0000000000" flag="0"/>
      <psa03 value="0.0000000000" flag="0"/>
      <psa10 value="0.0000000000" flag="0"/>
      <psa30 value="0.0000000000" flag="0"/>
    </comp>
    <comp name="--.HHE">
      <acc value="0.0000000000" flag="0"/>
      <vel value="-100.0000000000" flag="0"/>
      <psa03 value="0.0000000000" flag="0"/>
      <psa10 value="0.0000000000" flag="0"/>
      <psa30 value="0.0000000000" flag="0"/>
    </comp>
    <comp name="--.HHZ">
      <acc value="0.0139278501" flag="0"/>
      <vel value="0.0048478119" flag="0"/>
      <psa03 value="0.0297975579" flag="0"/>
      <psa10 value="0.0049069272" flag="0"/>
      <psa30 value="0.0004400157" flag="0"/>
    </comp>
  </station>
  <station code="KNSS" name="KNSS" netid="HC" insttype="60" lat="35.3042" lon="25.1802">
    <comp name="--.HHN">
      <acc value="0.0547442294" flag="0"/>
      <vel value="0.0117740061" flag="0"/>
      <psa03 value="0.0694404162" flag="0"/>
      <psa10 value="0.0058620680" flag="0"/>
      <psa30 value="0.0009354041" flag="0"/>
    </comp>
    <comp name="--.HHZ">
      <acc value="0.0558574743" flag="0"/>
      <vel value="0.0143695755" flag="0"/>
      <psa03 value="0.0769288711" flag="0"/>
      <psa10 value="0.0092375093" flag="0"/>
      <psa30 value="0.0006319499" flag="0"/>
    </comp>
    <comp name="--.HHE">
      <acc value="0.0814141469" flag="0"/>
      <vel value="0.0146600484" flag="0"/>
      <psa03 value="0.1305032645" flag="0"/>
      <psa10 value="0.0093526370" flag="0"/>
      <psa30 value="0.0016485967" flag="0"/>
    </comp>
  </station>
  <station code="PFKS" name="PFKS" netid="HC" insttype="120" lat="35.0429" lon="25.4733">
    <comp name="--.HHN">
      <acc value="0.0952643488" flag="0"/>
      <vel value="0.0262077670" flag="0"/>
      <psa03 value="0.0639297730" flag="0"/>
      <psa10 value="0.0191888113" flag="0"/>
      <psa30 value="0.0012021350" flag="0"/>
    </comp>
    <comp name="--.HHE">
      <acc value="0.0805617182" flag="0"/>
      <vel value="0.0290604824" flag="0"/>
      <psa03 value="0.0981407880" flag="0"/>
      <psa10 value="0.0274498807" flag="0"/>
      <psa30 value="0.0015480906" flag="0"/>
    </comp>
    <comp name="--.HHZ">
      <acc value="0.0479996798" flag="0"/>
      <vel value="0.0138072997" flag="0"/>
      <psa03 value="0.0374991092" flag="0"/>
      <psa10 value="0.0086848022" flag="0"/>
      <psa30 value="0.0007223509" flag="0"/>
    </comp>
  </station>
  <station code="STIA" name="STIA" netid="HC" insttype="120" lat="35.2021" lon="26.0909">
    <comp name="--.HHN">
      <acc value="0.0000000000" flag="0"/>
      <vel value="-100.0000000000" flag="0"/>
      <psa03 value="0.0000000000" flag="0"/>
      <psa10 value="0.0000000000" flag="0"/>
      <psa30 value="0.0000000000" flag="0"/>
    </comp>
    <comp name="--.HHE">
      <acc value="0.0795273114" flag="0"/>
      <vel value="0.0435195573" flag="0"/>
      <psa03 value="0.2174412970" flag="0"/>
      <psa10 value="0.0266147585" flag="0"/>
      <psa30 value="0.0018655937" flag="0"/>
    </comp>
    <comp name="--.HHZ">
      <acc value="0.0958818888" flag="0"/>
      <vel value="0.0295544803" flag="0"/>
      <psa03 value="0.1452242949" flag="0"/>
      <psa10 value="0.0155965610" flag="0"/>
      <psa30 value="0.0010382501" flag="0"/>
    </comp>
  </station>
  <station code="TEFL" name="TEFL" netid="HC" insttype="GEOtiny," lat="35.0933" lon="25.1634">
    <comp name="--.HHZ">
      <acc value="0.0809635806" flag="0"/>
      <vel value="0.0173819191" flag="0"/>
      <psa03 value="0.0790027225" flag="0"/>
      <psa10 value="0.0090428243" flag="0"/>
      <psa30 value="0.0005687538" flag="0"/>
    </comp>
    <comp name="--.HHE">
      <acc value="0.1821240180" flag="0"/>
      <vel value="0.0361526542" flag="0"/>
      <psa03 value="0.1324886296" flag="0"/>
      <psa10 value="0.0190981116" flag="0"/>
      <psa30 value="0.0015121615" flag="0"/>
    </comp>
    <comp name="--.HHN">
      <acc value="0.1916662646" flag="0"/>
      <vel value="0.0481567048" flag="0"/>
      <psa03 value="0.1584595598" flag="0"/>
      <psa10 value="0.0254377981" flag="0"/>
      <psa30 value="0.0014966913" flag="0"/>
    </comp>
  </station>
  <station code="IACM" name="IACM" netid="HL" insttype="120" lat="35.3058" lon="25.0709">
    <comp name="--.HHZ">
      <acc value="0.1792016969" flag="0"/>
      <vel value="0.0447716590" flag="0"/>
      <psa03 value="0.1584166499" flag="0"/>
      <psa10 value="0.0188918148" flag="0"/>
      <psa30 value="0.0012816385" flag="0"/>
    </comp>
    <comp name="--.HHN">
      <acc value="0.1624159542" flag="0"/>
      <vel value="0.0525742736" flag="0"/>
      <psa03 value="0.3282222655" flag="0"/>
      <psa10 value="0.0517272249" flag="0"/>
      <psa30 value="0.0034991854" flag="0"/>
    </comp>
    <comp name="--.HHE">
      <acc value="0.1699326468" flag="0"/>
      <vel value="0.0586008581" flag="0"/>
      <psa03 value="0.2924182605" flag="0"/>
      <psa10 value="0.0469526478" flag="0"/>
      <psa30 value="0.0041089248" flag="0"/>
    </comp>
  </station>
  <station code="IDI" name="IDI" netid="HL" insttype="120" lat="35.288" lon="24.89">
    <comp name="--.HHN">
      <acc value="0.0416479460" flag="0"/>
      <vel value="0.0106055653" flag="0"/>
      <psa03 value="0.0418360981" flag="0"/>
      <psa10 value="0.0050652488" flag="0"/>
      <psa30 value="0.0006133625" flag="0"/>
    </comp>
    <comp name="--.HHE">
      <acc value="0.0405963815" flag="0"/>
      <vel value="0.0089099218" flag="0"/>
      <psa03 value="0.0381588654" flag="0"/>
      <psa10 value="0.0061897188" flag="0"/>
      <psa30 value="0.0005409706" flag="0"/>
    </comp>
    <comp name="--.HHZ">
      <acc value="0.0317067111" flag="0"/>
      <vel value="0.0073398389" flag="0"/>
      <psa03 value="0.0315306658" flag="0"/>
      <psa10 value="0.0050356763" flag="0"/>
      <psa30 value="0.0004416518" flag="0"/>
    </comp>
  </station>
  <station code="SIVA" name="SIVA" netid="HL" insttype="60" lat="35.0178" lon="24.812">
    <comp name="--.HHE">
      <acc value="0.0255401527" flag="0"/>
      <vel value="0.0128238550" flag="0"/>
      <psa03 value="0.0439101610" flag="0"/>
      <psa10 value="0.0145277238" flag="0"/>
      <psa30 value="0.0008795080" flag="0"/>
    </comp>
    <comp name="--.HHZ">
      <acc value="0.0190240682" flag="0"/>
      <vel value="0.0069254127" flag="0"/>
      <psa03 value="0.0305193326" flag="0"/>
      <psa10 value="0.0055260344" flag="0"/>
      <psa30 value="0.0004405069" flag="0"/>
    </comp>
    <comp name="--.HHN">
      <acc value="0.0230283240" flag="0"/>
      <vel value="0.0122557736" flag="0"/>
      <psa03 value="0.0388764811" flag="0"/>
      <psa10 value="0.0095158838" flag="0"/>
      <psa30 value="0.0007114041" flag="0"/>
    </comp>
  </station>
  <station code="THERA" name="THERA" netid="HL" insttype="120" lat="36.367" lon="25.4753">
    <comp name="--.HHE">
      <acc value="0.1332872692" flag="0"/>
      <vel value="0.0501301642" flag="0"/>
      <psa03 value="0.3405328946" flag="0"/>
      <psa10 value="0.0243343326" flag="0"/>
      <psa30 value="0.0015432933" flag="0"/>
    </comp>
    <comp name="--.HHN">
      <acc value="0.1124121375" flag="0"/>
      <vel value="0.0269356588" flag="0"/>
      <psa03 value="0.2521347409" flag="0"/>
      <psa10 value="0.0084265282" flag="0"/>
      <psa30 value="0.0005932499" flag="0"/>
    </comp>
    <comp name="--.HHZ">
      <acc value="0.1686279844" flag="0"/>
      <vel value="0.0490699872" flag="0"/>
      <psa03 value="0.3447547674" flag="0"/>
      <psa10 value="0.0185601765" flag="0"/>
      <psa30 value="0.0013474773" flag="0"/>
    </comp>
  </station>
  <station code="THRA" name="THRA" netid="HL" insttype="CMG-5" lat="36.415" lon="25.4324">
    <comp name="00.HNE">
      <acc value="0.3251738963" flag="0"/>
      <vel value="0.1330216905" flag="0"/>
      <psa03 value="0.8095914287" flag="0"/>
      <psa10 value="0.2336401734" flag="0"/>
      <psa30 value="0.0074056535" flag="0"/>
    </comp>
    <comp name="00.HNN">
      <acc value="0.3767832423" flag="0"/>
      <vel value="0.0851448597" flag="0"/>
      <psa03 value="0.5634193666" flag="0"/>
      <psa10 value="0.0753046945" flag="0"/>
      <psa30 value="0.0043374398" flag="0"/>
    </comp>
    <comp name="00.HNZ">
      <acc value="0.2860794528" flag="0"/>
      <vel value="0.0848071411" flag="0"/>
      <psa03 value="0.4508834713" flag="0"/>
      <psa10 value="0.0410356094" flag="0"/>
      <psa30 value="0.0026433140" flag="0"/>
    </comp>
  </station>
  <station code="ZKR" name="ZKR" netid="HL" insttype="120" lat="35.1147" lon="26.2169">
    <comp name="--.HHN">
      <acc value="0.0309129928" flag="0"/>
      <vel value="0.0140335036" flag="0"/>
      <psa03 value="0.0585683520" flag="0"/>
      <psa10 value="0.0095086263" flag="0"/>
      <psa30 value="0.0008722161" flag="0"/>
    </comp>
    <comp name="--.HHE">
      <acc value="0.0525476012" flag="0"/>
      <vel value="0.0295632875" flag="0"/>
      <psa03 value="0.1166426046" flag="0"/>
      <psa10 value="0.0179611097" flag="0"/>
      <psa30 value="0.0013687194" flag="0"/>
    </comp>
    <comp name="--.HHZ">
      <acc value="0.0490899087" flag="0"/>
      <vel value="0.0192087164" flag="0"/>
      <psa03 value="0.0734543797" flag="0"/>
      <psa10 value="0.0076841266" flag="0"/>
      <psa30 value="0.0007070268" flag="0"/>
    </comp>
  </station>
  <station code="CMBO" name="CMBO" netid="HT" insttype="120P," lat="36.4709" lon="25.4056">
    <comp name="--.HHE">
      <acc value="0.4015446818" flag="0"/>
      <vel value="0.1277434966" flag="0"/>
      <psa03 value="0.3664683128" flag="0"/>
      <psa10 value="0.1163081903" flag="0"/>
      <psa30 value="0.0043244772" flag="0"/>
    </comp>
    <comp name="--.HHN">
      <acc value="0.2777987352" flag="0"/>
      <vel value="0.1419922762" flag="0"/>
      <psa03 value="0.5728017813" flag="0"/>
      <psa10 value="0.0978322292" flag="0"/>
      <psa30 value="0.0052004532" flag="0"/>
    </comp>
    <comp name="--.HHZ">
      <acc value="0.2936663146" flag="0"/>
      <vel value="0.1029059194" flag="0"/>
      <psa03 value="0.9389246569" flag="0"/>
      <psa10 value="0.0305658747" flag="0"/>
      <psa30 value="0.0033969742" flag="0"/>
    </comp>
  </station>
  <station code="IDI" name="IDI" netid="MN" insttype="" lat="35.288" lon="24.89">
    <comp name="--.HHE">
      <acc value="0.0446066983" flag="0"/>
      <vel value="0.0096311744" flag="0"/>
      <psa03 value="0.0388110042" flag="0"/>
      <psa10 value="0.0061570454" flag="0"/>
      <psa30 value="0.0005392340" flag="0"/>
    </comp>
    <comp name="--.HHN">
      <acc value="0.0464409716" flag="0"/>
      <vel value="0.0110701342" flag="0"/>
      <psa03 value="0.0423299642" flag="0"/>
      <psa10 value="0.0050570493" flag="0"/>
      <psa30 value="0.0006064497" flag="0"/>
    </comp>
    <comp name="--.HHZ">
      <acc value="0.0360433080" flag="0"/>
      <vel value="0.0074424711" flag="0"/>
      <psa03 value="0.0317626359" flag="0"/>
      <psa10 value="0.0050177505" flag="0"/>
      <psa30 value="0.0004361844" flag="0"/>
    </comp>
  </station>
</stationlist>
