<?xml version="1.0" encoding="UTF-8" standalone="yes"?>
<!DOCTYPE earthquake SYSTEM "stationlist.dtd">
<stationlist created="" xmlns="ch.ethz.sed.shakemap.usgs.xml">
  <station code="IDI" name="IDI" netid="MN" insttype="" lat="35.288" lon="24.89">
    <comp name="--.HHE">
      <acc value="0.0446066983" flag="0"/>
      <vel value="0.0096311748" flag="0"/>
      <psa03 value="0.0388110042" flag="0"/>
      <psa10 value="0.0061570454" flag="0"/>
      <psa30 value="0.0005395344" flag="0"/>
    </comp>
    <comp name="--.HHN">
      <acc value="0.0464409715" flag="0"/>
      <vel value="0.0110701358" flag="0"/>
      <psa03 value="0.0423299642" flag="0"/>
      <psa10 value="0.0050570493" flag="0"/>
      <psa30 value="0.0006064330" flag="0"/>
    </comp>
    <comp name="--.HHZ">
      <acc value="0.0360433080" flag="0"/>
      <vel value="0.0074424720" flag="0"/>
      <psa03 value="0.0317626359" flag="0"/>
      <psa10 value="0.0050177505" flag="0"/>
      <psa30 value="0.0004361721" flag="0"/>
    </comp>
  </station>
</stationlist>
