<?xml version="1.0" encoding="UTF-8" standalone="yes"?>
<!DOCTYPE earthquake SYSTEM "stationlist.dtd">
<stationlist created="" xmlns="ch.ethz.sed.shakemap.usgs.xml">
  <station code="VYHS" name="VYHS" netid="SK" insttype="STS-2/N" lat="48.494" lon="18.8361">
    <comp name="--.HHE">
      <acc value="0.0042433096" flag="0"/>
      <vel value="0.0052166166" flag="0"/>
      <psa03 value="0.0064149491" flag="0"/>
      <psa10 value="0.0118966070" flag="0"/>
      <psa30 value="0.0005152975" flag="0"/>
    </comp>
    <comp name="--.HHZ">
      <acc value="0.0025611361" flag="0"/>
      <vel value="0.0029834825" flag="0"/>
      <psa03 value="0.0051401699" flag="0"/>
      <psa10 value="0.0100522222" flag="0"/>
      <psa30 value="0.0005601800" flag="0"/>
    </comp>
    <comp name="--.HHN">
      <acc value="0.0021145769" flag="0"/>
      <vel value="0.0025249086" flag="0"/>
      <psa03 value="0.0049433172" flag="0"/>
      <psa10 value="0.0046679112" flag="0"/>
      <psa30 value="0.0003933758" flag="0"/>
    </comp>
  </station>
</stationlist>
