<?xml version="1.0" encoding="UTF-8" standalone="yes"?>
<!DOCTYPE earthquake SYSTEM "stationlist.dtd">
<stationlist created="" xmlns="ch.ethz.sed.shakemap.usgs.xml">
  <station code="MSDA" name="MSDA" netid="ML" insttype="" lat="35.9012" lon="14.484">
    <comp name="--.HHZ">
      <acc value="0.0101946486" flag="0"/>
      <vel value="0.0057835712" flag="0"/>
      <psa03 value="0.0254615098" flag="0"/>
      <psa10 value="0.0051256107" flag="0"/>
      <psa30 value="0.0020248214" flag="0"/>
    </comp>
    <comp name="--.HHN">
      <acc value="0.0107792673" flag="0"/>
      <vel value="0.0062289332" flag="0"/>
      <psa03 value="0.0304950767" flag="0"/>
      <psa10 value="0.0056800012" flag="0"/>
      <psa30 value="0.0014471887" flag="0"/>
    </comp>
    <comp name="--.HHE">
      <acc value="0.0178483876" flag="0"/>
      <vel value="0.0144847452" flag="0"/>
      <psa03 value="0.0484239174" flag="0"/>
      <psa10 value="0.0077654510" flag="0"/>
      <psa30 value="0.0011181827" flag="0"/>
    </comp>
  </station>
</stationlist>
