<?xml version="1.0" encoding="UTF-8" standalone="yes"?>
<!DOCTYPE earthquake SYSTEM "stationlist.dtd">
<stationlist created="" xmlns="ch.ethz.sed.shakemap.usgs.xml">
  <station code="DARE" name="DARE" netid="KO" insttype="CMG-3ESP" lat="38.5712" lon="37.4832">
    <comp name="--.HHN">
      <acc value="0.0360930758" flag="0"/>
      <vel value="0.0132974715" flag="0"/>
      <psa03 value="0.0557280318" flag="0"/>
      <psa10 value="0.0142795425" flag="0"/>
      <psa30 value="0.0010073090" flag="0"/>
    </comp>
    <comp name="--.HHZ">
      <acc value="0.0394192927" flag="0"/>
      <vel value="0.0162683528" flag="0"/>
      <psa03 value="0.0821451690" flag="0"/>
      <psa10 value="0.0137056904" flag="0"/>
      <psa30 value="0.0010557144" flag="0"/>
    </comp>
    <comp name="--.HHE">
      <acc value="0.0453935644" flag="0"/>
      <vel value="0.0186401399" flag="0"/>
      <psa03 value="0.0630150141" flag="0"/>
      <psa10 value="0.0191706073" flag="0"/>
      <psa30 value="0.0014434223" flag="0"/>
    </comp>
  </station>
  <station code="GAZ" name="GAZ" netid="KO" insttype="CMG-3T" lat="37.1721" lon="37.2096">
    <comp name="--.HHN">
      <acc value="0.0242454382" flag="0"/>
      <vel value="0.0114632449" flag="0"/>
      <psa03 value="0.0418310520" flag="0"/>
      <psa10 value="0.0159154677" flag="0"/>
      <psa30 value="0.0008104956" flag="0"/>
    </comp>
    <comp name="--.HHZ">
      <acc value="0.0213615976" flag="0"/>
      <vel value="0.0090210284" flag="0"/>
      <psa03 value="0.0323265875" flag="0"/>
      <psa10 value="0.0113853649" flag="0"/>
      <psa30 value="0.0006748799" flag="0"/>
    </comp>
    <comp name="--.HHE">
      <acc value="0.0400641888" flag="0"/>
      <vel value="0.0202331771" flag="0"/>
      <psa03 value="0.0811190643" flag="0"/>
      <psa10 value="0.0214184911" flag="0"/>
      <psa30 value="0.0013116942" flag="0"/>
    </comp>
  </station>
  <station code="SARI" name="SARI" netid="KO" insttype="CMG-3T" lat="38.4072" lon="36.4181">
    <comp name="--.HHN">
      <acc value="0.0319806735" flag="0"/>
      <vel value="0.0098367999" flag="0"/>
      <psa03 value="0.0539480464" flag="0"/>
      <psa10 value="0.0071520846" flag="0"/>
      <psa30 value="0.0004351575" flag="0"/>
    </comp>
    <comp name="--.HHE">
      <acc value="0.0456357151" flag="0"/>
      <vel value="0.0086880956" flag="0"/>
      <psa03 value="0.0471146360" flag="0"/>
      <psa10 value="0.0091668138" flag="0"/>
      <psa30 value="0.0006966013" flag="0"/>
    </comp>
    <comp name="--.HHZ">
      <acc value="0.0351196759" flag="0"/>
      <vel value="0.0083840883" flag="0"/>
      <psa03 value="0.0394880842" flag="0"/>
      <psa10 value="0.0101770318" flag="0"/>
      <psa30 value="0.0005659208" flag="0"/>
    </comp>
  </station>
  <station code="ANDN" name="ANDN" netid="TU" insttype="T" lat="37.58" lon="36.3452">
    <comp name="--.HHE">
      <acc value="0.0872784652" flag="0"/>
      <vel value="0.0487704009" flag="0"/>
      <psa03 value="0.2093778131" flag="0"/>
      <psa10 value="0.0559445435" flag="0"/>
      <psa30 value="0.0046146403" flag="0"/>
    </comp>
    <comp name="--.HHN">
      <acc value="0.1287506011" flag="0"/>
      <vel value="0.0548141526" flag="0"/>
      <psa03 value="0.3161335282" flag="0"/>
      <psa10 value="0.0583322923" flag="0"/>
      <psa30 value="0.0047263375" flag="0"/>
    </comp>
    <comp name="--.HHZ">
      <acc value="0.0404736366" flag="0"/>
      <vel value="0.0269223367" flag="0"/>
      <psa03 value="0.1109435157" flag="0"/>
      <psa10 value="0.0388175711" flag="0"/>
      <psa30 value="0.0023577683" flag="0"/>
    </comp>
  </station>
</stationlist>
