<?xml version="1.0" encoding="UTF-8" standalone="yes"?>
<!DOCTYPE earthquake SYSTEM "stationlist.dtd">
<stationlist created="" xmlns="ch.ethz.sed.shakemap.usgs.xml">
  <station code="DARE" name="DARE" netid="KO" insttype="CMG-3ESP" lat="38.5712" lon="37.4832">
    <comp name="--.HHN">
      <acc value="0.0360930756" flag="0"/>
      <vel value="0.0132974660" flag="0"/>
      <psa03 value="0.0557280318" flag="0"/>
      <psa10 value="0.0142795463" flag="0"/>
      <psa30 value="0.0010071770" flag="0"/>
    </comp>
    <comp name="--.HHZ">
      <acc value="0.0394192926" flag="0"/>
      <vel value="0.0162683545" flag="0"/>
      <psa03 value="0.0821451690" flag="0"/>
      <psa10 value="0.0137056919" flag="0"/>
      <psa30 value="0.0010556569" flag="0"/>
    </comp>
  </station>
  <station code="GAZ" name="GAZ" netid="KO" insttype="CMG-3T" lat="37.1721" lon="37.2096">
    <comp name="--.HHE">
      <acc value="0.0400641889" flag="0"/>
      <vel value="0.0202331775" flag="0"/>
      <psa03 value="0.0811190643" flag="0"/>
      <psa10 value="0.0214184879" flag="0"/>
      <psa30 value="0.0013116887" flag="0"/>
    </comp>
    <comp name="--.HHZ">
      <acc value="0.0213615978" flag="0"/>
      <vel value="0.0090210237" flag="0"/>
      <psa03 value="0.0323265875" flag="0"/>
      <psa10 value="0.0113853516" flag="0"/>
      <psa30 value="0.0006749232" flag="0"/>
    </comp>
    <comp name="--.HHN">
      <acc value="0.0242454383" flag="0"/>
      <vel value="0.0114632448" flag="0"/>
      <psa03 value="0.0418310520" flag="0"/>
      <psa10 value="0.0159154676" flag="0"/>
      <psa30 value="0.0008104625" flag="0"/>
    </comp>
  </station>
  <station code="SARI" name="SARI" netid="KO" insttype="CMG-3T" lat="38.4072" lon="36.4181">
    <comp name="--.HHN">
      <acc value="0.0319806736" flag="0"/>
      <vel value="0.0098367994" flag="0"/>
      <psa03 value="0.0539480464" flag="0"/>
      <psa10 value="0.0071520846" flag="0"/>
      <psa30 value="0.0004352811" flag="0"/>
    </comp>
  </station>
  <station code="ANDN" name="ANDN" netid="TU" insttype="T" lat="37.58" lon="36.3452">
    <comp name="--.HHE">
      <acc value="0.0872784652" flag="0"/>
      <vel value="0.0487703997" flag="0"/>
      <psa03 value="0.2093778131" flag="0"/>
      <psa10 value="0.0559445434" flag="0"/>
      <psa30 value="0.0046146825" flag="0"/>
    </comp>
    <comp name="--.HHZ">
      <acc value="0.0404736368" flag="0"/>
      <vel value="0.0269223354" flag="0"/>
      <psa03 value="0.1109435157" flag="0"/>
      <psa10 value="0.0388175716" flag="0"/>
      <psa30 value="0.0023578189" flag="0"/>
    </comp>
    <comp name="--.HHN">
      <acc value="0.1287506013" flag="0"/>
      <vel value="0.0548141597" flag="0"/>
      <psa03 value="0.3161335282" flag="0"/>
      <psa10 value="0.0583322916" flag="0"/>
      <psa30 value="0.0047261491" flag="0"/>
    </comp>
  </station>
</stationlist>
