<?xml version="1.0" encoding="UTF-8" standalone="yes"?>
<!DOCTYPE earthquake SYSTEM "stationlist.dtd">
<stationlist created="" xmlns="ch.ethz.sed.shakemap.usgs.xml">
  <station code="KRI1" name="KRI1" netid="HI" source="NOA" insttype="CMG-5TD,ACCELEROMETER,GURALP" lat="37.6621" lon="20.8172">
    <comp name="--.HNE">
      <acc value="0.1138063042" flag="0"/>
      <vel value="0.0522468887" flag="0"/>
      <psa03 value="0.2679233698" flag="0"/>
      <psa10 value="0.0253998302" flag="0"/>
      <psa30 value="0.0061584631" flag="0"/>
    </comp>
    <comp name="--.HNN">
      <acc value="0.0849348361" flag="0"/>
      <vel value="0.0486756296" flag="0"/>
      <psa03 value="0.2214538713" flag="0"/>
      <psa10 value="0.0453164468" flag="0"/>
      <psa30 value="0.0059427591" flag="0"/>
    </comp>
    <comp name="--.HNZ">
      <acc value="0.0610362952" flag="0"/>
      <vel value="0.0228370095" flag="0"/>
      <psa03 value="0.1410920381" flag="0"/>
      <psa10 value="0.0183130355" flag="0"/>
      <psa30 value="0.0036660466" flag="0"/>
    </comp>
  </station>
  <station code="ITM" name="ITM" netid="HL" source="NOA" insttype="DR24" lat="37.1787" lon="21.9252">
    <comp name="--.HHE">
      <acc value="0.0043405155" flag="0"/>
      <vel value="0.0058329388" flag="0"/>
      <psa03 value="0.0100714066" flag="0"/>
      <psa10 value="0.0048898936" flag="0"/>
      <psa30 value="0.0017686311" flag="0"/>
    </comp>
    <comp name="--.HHN">
      <acc value="0.0055445812" flag="0"/>
      <vel value="0.0043036397" flag="0"/>
      <psa03 value="0.0158411992" flag="0"/>
      <psa10 value="0.0047458320" flag="0"/>
      <psa30 value="0.0010135841" flag="0"/>
    </comp>
    <comp name="--.HHZ">
      <acc value="0.0035186268" flag="0"/>
      <vel value="0.0029172459" flag="0"/>
      <psa03 value="0.0081005657" flag="0"/>
      <psa10 value="0.0040697208" flag="0"/>
      <psa30 value="0.0006361125" flag="0"/>
    </comp>
  </station>
  <station code="VLS" name="VLS" netid="HL" source="NOA" insttype="120P," lat="38.1768" lon="20.5886">
    <comp name="--.HHE">
      <acc value="0.0201048256" flag="0"/>
      <vel value="0.0052426417" flag="0"/>
      <psa03 value="0.0248616926" flag="0"/>
      <psa10 value="0.0062711530" flag="0"/>
      <psa30 value="0.0005997422" flag="0"/>
    </comp>
    <comp name="--.HHN">
      <acc value="0.0187157510" flag="0"/>
      <vel value="0.0058128900" flag="0"/>
      <psa03 value="0.0427567265" flag="0"/>
      <psa10 value="0.0082481401" flag="0"/>
      <psa30 value="0.0010630573" flag="0"/>
    </comp>
    <comp name="--.HHZ">
      <acc value="0.0129938301" flag="0"/>
      <vel value="0.0040869657" flag="0"/>
      <psa03 value="0.0189976266" flag="0"/>
      <psa10 value="0.0032766644" flag="0"/>
      <psa30 value="0.0008326895" flag="0"/>
    </comp>
  </station>
  <station code="AMT" name="AMT" netid="HP" source="NOA" insttype="CMG-3T," lat="37.5324" lon="21.7089">
    <comp name="00.HHE">
      <acc value="0.0104450590" flag="0"/>
      <vel value="0.0121309453" flag="0"/>
      <psa03 value="0.0366948248" flag="0"/>
      <psa10 value="0.0128736330" flag="0"/>
      <psa30 value="0.0009804570" flag="0"/>
    </comp>
    <comp name="00.HHN">
      <acc value="0.0117779446" flag="0"/>
      <vel value="0.0111669670" flag="0"/>
      <psa03 value="0.0252055803" flag="0"/>
      <psa10 value="0.0127557034" flag="0"/>
      <psa30 value="0.0008329757" flag="0"/>
    </comp>
    <comp name="00.HHZ">
      <acc value="0.0081105904" flag="0"/>
      <vel value="0.0055306509" flag="0"/>
      <psa03 value="0.0231272658" flag="0"/>
      <psa10 value="0.0129905383" flag="0"/>
      <psa30 value="0.0005930501" flag="0"/>
    </comp>
  </station>
  <station code="AXS" name="AXS" netid="HP" source="NOA" insttype="40," lat="38.1962" lon="21.3763">
    <comp name="--.HHE">
      <acc value="0.0025445417" flag="0"/>
      <vel value="0.0020519017" flag="0"/>
      <psa03 value="0.0082543532" flag="0"/>
      <psa10 value="0.0022888654" flag="0"/>
      <psa30 value="0.0002465147" flag="0"/>
    </comp>
    <comp name="--.HHE">
      <acc value="0.0025445417" flag="0"/>
      <vel value="0.0020519017" flag="0"/>
      <psa03 value="0.0082543532" flag="0"/>
      <psa10 value="0.0022888654" flag="0"/>
      <psa30 value="0.0002465147" flag="0"/>
    </comp>
    <comp name="--.HHN">
      <acc value="0.0050950042" flag="0"/>
      <vel value="0.0034265378" flag="0"/>
      <psa03 value="0.0134209312" flag="0"/>
      <psa10 value="0.0059714413" flag="0"/>
      <psa30 value="0.0004396864" flag="0"/>
    </comp>
    <comp name="--.HHN">
      <acc value="0.0050950042" flag="0"/>
      <vel value="0.0034265378" flag="0"/>
      <psa03 value="0.0134209312" flag="0"/>
      <psa10 value="0.0059714413" flag="0"/>
      <psa30 value="0.0004396864" flag="0"/>
    </comp>
    <comp name="--.HHZ">
      <acc value="0.0025023889" flag="0"/>
      <vel value="0.0025548506" flag="0"/>
      <psa03 value="0.0068207088" flag="0"/>
      <psa10 value="0.0041468284" flag="0"/>
      <psa30 value="0.0003154238" flag="0"/>
    </comp>
    <comp name="--.HHZ">
      <acc value="0.0025023889" flag="0"/>
      <vel value="0.0025548506" flag="0"/>
      <psa03 value="0.0068207088" flag="0"/>
      <psa10 value="0.0041468284" flag="0"/>
      <psa30 value="0.0003154238" flag="0"/>
    </comp>
  </station>
  <station code="DRO" name="DRO" netid="HP" source="NOA" insttype="120P," lat="37.952" lon="21.71">
    <comp name="--.HHE">
      <acc value="0.0116548019" flag="0"/>
      <vel value="0.0087033724" flag="0"/>
      <psa03 value="0.0384803942" flag="0"/>
      <psa10 value="0.0091485242" flag="0"/>
      <psa30 value="0.0008169984" flag="0"/>
    </comp>
    <comp name="--.HHN">
      <acc value="0.0097253717" flag="0"/>
      <vel value="0.0066615633" flag="0"/>
      <psa03 value="0.0325608056" flag="0"/>
      <psa10 value="0.0072546497" flag="0"/>
      <psa30 value="0.0006290293" flag="0"/>
    </comp>
    <comp name="--.HHZ">
      <acc value="0.0049375419" flag="0"/>
      <vel value="0.0032096876" flag="0"/>
      <psa03 value="0.0169918015" flag="0"/>
      <psa10 value="0.0048371965" flag="0"/>
      <psa30 value="0.0004073788" flag="0"/>
    </comp>
  </station>
  <station code="FSK" name="FSK" netid="HP" source="NOA" insttype="40," lat="38.4593" lon="20.5623">
    <comp name="--.HHE">
      <acc value="0.0126411734" flag="0"/>
      <vel value="0.0062226865" flag="0"/>
      <psa03 value="0.0126080687" flag="0"/>
      <psa10 value="0.0096574492" flag="0"/>
      <psa30 value="0.0011827140" flag="0"/>
    </comp>
    <comp name="--.HHN">
      <acc value="0.0063118229" flag="0"/>
      <vel value="0.0074138537" flag="0"/>
      <psa03 value="0.0130931027" flag="0"/>
      <psa10 value="0.0161683242" flag="0"/>
      <psa30 value="0.0009799593" flag="0"/>
    </comp>
    <comp name="--.HHZ">
      <acc value="0.0052739497" flag="0"/>
      <vel value="0.0030187242" flag="0"/>
      <psa03 value="0.0109705462" flag="0"/>
      <psa10 value="0.0051515909" flag="0"/>
      <psa30 value="0.0006393031" flag="0"/>
    </comp>
  </station>
  <station code="LTHK" name="LTHK" netid="HP" source="NOA" insttype="40," lat="37.7095" lon="20.8367">
    <comp name="--.HHE">
      <acc value="0.1469556225" flag="0"/>
      <vel value="0.0312403323" flag="0"/>
      <psa03 value="0.1327286655" flag="0"/>
      <psa10 value="0.0173367253" flag="0"/>
      <psa30 value="0.0059746584" flag="0"/>
    </comp>
    <comp name="--.HHN">
      <acc value="0.0971060503" flag="0"/>
      <vel value="0.0334434487" flag="0"/>
      <psa03 value="0.1148094113" flag="0"/>
      <psa10 value="0.0293117303" flag="0"/>
      <psa30 value="0.0040111460" flag="0"/>
    </comp>
    <comp name="--.HHZ">
      <acc value="0.0580568595" flag="0"/>
      <vel value="0.0149141786" flag="0"/>
      <psa03 value="0.0692493837" flag="0"/>
      <psa10 value="0.0145170364" flag="0"/>
      <psa30 value="0.0060074986" flag="0"/>
    </comp>
  </station>
  <station code="PYL" name="PYL" netid="HP" source="NOA" insttype="120s" lat="36.8955" lon="21.742">
    <comp name="--.HHZ">
      <acc value="0.0001453969" flag="0"/>
      <vel value="0.0000831679" flag="0"/>
      <psa03 value="0.0003329384" flag="0"/>
      <psa10 value="0.0001293145" flag="0"/>
      <psa30 value="0.0000166742" flag="0"/>
    </comp>
  </station>
  <station code="DMLN" name="DMLN" netid="HT" source="NOA" insttype="1s-100Hz," lat="38.2385" lon="20.3734">
    <comp name="--.HHE">
      <acc value="0.0197349383" flag="0"/>
      <vel value="0.0150068494" flag="0"/>
      <psa03 value="0.0401572145" flag="0"/>
      <psa10 value="0.0260000700" flag="0"/>
      <psa30 value="0.0030611949" flag="0"/>
    </comp>
    <comp name="--.HHN">
      <acc value="0.0294872114" flag="0"/>
      <vel value="0.0305306297" flag="0"/>
      <psa03 value="0.0843268793" flag="0"/>
      <psa10 value="0.0499438475" flag="0"/>
      <psa30 value="0.0022513211" flag="0"/>
    </comp>
    <comp name="--.HHZ">
      <acc value="0.0196787813" flag="0"/>
      <vel value="0.0095233220" flag="0"/>
      <psa03 value="0.0347076544" flag="0"/>
      <psa10 value="0.0118999904" flag="0"/>
      <psa30 value="0.0012872550" flag="0"/>
    </comp>
  </station>
  <station code="DRAG" name="DRAG" netid="HT" source="NOA" insttype="1s-100Hz," lat="38.6839" lon="20.5746">
    <comp name="--.HHE">
      <acc value="0.0000950703" flag="0"/>
      <vel value="0.0000480796" flag="0"/>
      <psa03 value="0.0002959358" flag="0"/>
      <psa10 value="0.0000586981" flag="0"/>
      <psa30 value="0.0000054300" flag="0"/>
    </comp>
    <comp name="--.HHN">
      <acc value="0.0000090213" flag="0"/>
      <vel value="0.0000017993" flag="0"/>
      <psa03 value="0.0000077983" flag="0"/>
      <psa10 value="0.0000018639" flag="0"/>
      <psa30 value="0.0000002153" flag="0"/>
    </comp>
    <comp name="--.HHZ">
      <acc value="0.0000803070" flag="0"/>
      <vel value="0.0000480987" flag="0"/>
      <psa03 value="0.0001788924" flag="0"/>
      <psa10 value="0.0000606350" flag="0"/>
      <psa30 value="0.0000068116" flag="0"/>
    </comp>
  </station>
  <station code="EVGI" name="EVGI" netid="HT" source="NOA" insttype="30" lat="38.621" lon="20.656">
    <comp name="--.HHE">
      <acc value="0.0077864217" flag="0"/>
      <vel value="0.0028177958" flag="0"/>
      <psa03 value="0.0114318307" flag="0"/>
      <psa10 value="0.0041843538" flag="0"/>
      <psa30 value="0.0006775826" flag="0"/>
    </comp>
    <comp name="--.HHN">
      <acc value="nan" flag="0"/>
      <vel value="-100.0000000000" flag="0"/>
      <psa03 value="0.0000000000" flag="0"/>
      <psa10 value="0.0000000000" flag="0"/>
      <psa30 value="0.0000000000" flag="0"/>
    </comp>
    <comp name="--.HHZ">
      <acc value="0.0058708294" flag="0"/>
      <vel value="0.0028392442" flag="0"/>
      <psa03 value="0.0117155177" flag="0"/>
      <psa10 value="0.0024032567" flag="0"/>
      <psa30 value="0.0003891841" flag="0"/>
    </comp>
  </station>
  <station code="NYDR" name="NYDR" netid="HT" source="NOA" insttype="1s-100Hz," lat="38.7135" lon="20.6983">
    <comp name="--.HHE">
      <acc value="0.0047898638" flag="0"/>
      <vel value="0.0033591676" flag="0"/>
      <psa03 value="0.0111846232" flag="0"/>
      <psa10 value="0.0047766575" flag="0"/>
      <psa30 value="0.0004532531" flag="0"/>
    </comp>
    <comp name="--.HHN">
      <acc value="0.0045103136" flag="0"/>
      <vel value="0.0027610479" flag="0"/>
      <psa03 value="0.0084253075" flag="0"/>
      <psa10 value="0.0045139763" flag="0"/>
      <psa30 value="0.0003664969" flag="0"/>
    </comp>
    <comp name="--.HHZ">
      <acc value="0.0027751731" flag="0"/>
      <vel value="0.0022022176" flag="0"/>
      <psa03 value="0.0063398290" flag="0"/>
      <psa10 value="0.0050905678" flag="0"/>
      <psa30 value="0.0003187798" flag="0"/>
    </comp>
  </station>
</stationlist>
