<stationlist xmlns:esm="https://esm-db.eu/esmws/shakemap/1/" created="1783994201">
	<station code="ARG2" name="ARG2" netid="HI" source="ITSAK Strong Motion Network" insttype="" lat="38.1783" lon="20.4878" esm:processing="manual (Paolucci et al 2011)" esm:quality="good">
		<comp name="--.HNE" depth="0.0">
			<acc value="0.0237446871107158" flag="0"/>
			<vel value="0.0116069468965934" flag="0"/>
			<psa03 value="0.0512745687845394" flag="0"/>
			<psa10 value="0.00942673551240368" flag="0"/>
			<psa30 value="0.00174897285670824" flag="0"/>
		</comp>
		<comp name="--.HNN" depth="0.0">
			<acc value="0.0227256914974134" flag="0"/>
			<vel value="0.00975312026433104" flag="0"/>
			<psa03 value="0.0418339631880841" flag="0"/>
			<psa10 value="0.0167595357550722" flag="0"/>
			<psa30 value="0.00275388281735463" flag="0"/>
		</comp>
		<comp name="--.HNZ" depth="0.0">
			<acc value="0.0137250548914707" flag="0"/>
			<vel value="0.00546858933725301" flag="0"/>
			<psa03 value="0.0412075722954283" flag="0"/>
			<psa10 value="0.00568181281845433" flag="0"/>
			<psa30 value="0.0022885638685246" flag="0"/>
		</comp>
	</station>
	<station code="KRI1" name="KRI1" netid="HI" source="ITSAK Strong Motion Network" insttype="" lat="37.6621" lon="20.8172" esm:processing="manual (Paolucci et al 2011)" esm:quality="good">
		<comp name="--.HNE" depth="0.0">
			<acc value="0.114844378103138" flag="0"/>
			<vel value="0.0507878704835856" flag="0"/>
			<psa03 value="0.268363755296394" flag="0"/>
			<psa10 value="0.0254654743188555" flag="0"/>
			<psa30 value="0.00723660449843927" flag="0"/>
		</comp>
		<comp name="--.HNN" depth="0.0">
			<acc value="0.0853876862924337" flag="0"/>
			<vel value="0.0468754662885899" flag="0"/>
			<psa03 value="0.21771557740451" flag="0"/>
			<psa10 value="0.0454061809644869" flag="0"/>
			<psa30 value="0.00615831731893892" flag="0"/>
		</comp>
		<comp name="--.HNZ" depth="0.0">
			<acc value="0.0604114962043581" flag="0"/>
			<vel value="0.0238621719868571" flag="0"/>
			<psa03 value="0.141922279393158" flag="0"/>
			<psa10 value="0.0183299872073736" flag="0"/>
			<psa30 value="0.00383306484098734" flag="0"/>
		</comp>
	</station>
	<station code="MSL1" name="MSL1" netid="HI" source="ITSAK Strong Motion Network" insttype="" lat="38.3727" lon="21.4243" esm:processing="manual (Paolucci et al 2011)" esm:quality="bad">
		<comp name="--.HNE" depth="0.0">
			<acc value="0.011734818564407" flag="0"/>
			<vel value="0.0128853750915175" flag="0"/>
			<psa03 value="0.0361517029475636" flag="0"/>
			<psa10 value="0.031735199732274" flag="0"/>
			<psa30 value="0.00333821603578925" flag="0"/>
		</comp>
		<comp name="--.HNN" depth="0.0">
			<acc value="0.0170679426406875" flag="0"/>
			<vel value="0.0142081060777618" flag="0"/>
			<psa03 value="0.0409391190557187" flag="0"/>
			<psa10 value="0.0242332739485883" flag="0"/>
			<psa30 value="0.00276417352487683" flag="0"/>
		</comp>
		<comp name="--.HNZ" depth="0.0">
			<acc value="0.0110084701731365" flag="0"/>
			<vel value="0.00571728242983045" flag="0"/>
			<psa03 value="0.0221473922760445" flag="0"/>
			<psa10 value="0.0134696413024307" flag="0"/>
			<psa30 value="0.000714980461759983" flag="0"/>
		</comp>
	</station>
	<station code="ITM" name="ITM" netid="HL" source="National Observatory of Athens Seismic Network" insttype="" lat="37.17872" lon="21.92522" esm:processing="manual (Paolucci et al 2011)" esm:quality="good">
		<comp name="--.HNE" depth="0.0">
			<acc value="0.00429543164191104" flag="0"/>
			<vel value="0.00571286771321829" flag="0"/>
			<psa03 value="0.0100205244876525" flag="0"/>
			<psa10 value="0.00474216383258057" flag="0"/>
			<psa30 value="0.00182016016001105" flag="0"/>
		</comp>
		<comp name="--.HNN" depth="0.0">
			<acc value="0.00536248134320374" flag="0"/>
			<vel value="0.00438051699977231" flag="0"/>
			<psa03 value="0.0153211360438207" flag="0"/>
			<psa10 value="0.00465692349832677" flag="0"/>
			<psa30 value="0.00109210234642069" flag="0"/>
		</comp>
		<comp name="--.HNZ" depth="0.0">
			<acc value="0.00333547379599044" flag="0"/>
			<vel value="0.00279299271556896" flag="0"/>
			<psa03 value="0.0076056802712829" flag="0"/>
			<psa10 value="0.00378053755143387" flag="0"/>
			<psa30 value="0.000674285241004663" flag="0"/>
		</comp>
	</station>
	<station code="LXRA" name="LXRA" netid="HL" source="National Observatory of Athens Seismic Network" insttype="" lat="38.20006" lon="20.43718" esm:processing="manual (Paolucci et al 2011)" esm:quality="good">
		<comp name="00.HNE" depth="0.0">
			<acc value="0.0211333852810426" flag="0"/>
			<vel value="0.0135865074748897" flag="0"/>
			<psa03 value="0.0570463134382965" flag="0"/>
			<psa10 value="0.0217286052220975" flag="0"/>
			<psa30 value="0.00769208016181328" flag="0"/>
		</comp>
		<comp name="00.HNN" depth="0.0">
			<acc value="0.0232350967740509" flag="0"/>
			<vel value="0.0164676033739087" flag="0"/>
			<psa03 value="0.0664421768281336" flag="0"/>
			<psa10 value="0.0254614475202599" flag="0"/>
			<psa30 value="0.012130954480412" flag="0"/>
		</comp>
		<comp name="00.HNZ" depth="0.0">
			<acc value="0.0214813142771439" flag="0"/>
			<vel value="0.00834259445292898" flag="0"/>
			<psa03 value="0.0285455278224574" flag="0"/>
			<psa10 value="0.0136548740378304" flag="0"/>
			<psa30 value="0.00459189266523323" flag="0"/>
		</comp>
	</station>
	<station code="PATC" name="PATC" netid="HL" source="National Observatory of Athens Seismic Network" insttype="" lat="38.26933" lon="21.76001" esm:processing="manual (Paolucci et al 2011)" esm:quality="good">
		<comp name="00.HNE" depth="0.0">
			<acc value="0.00946431359795854" flag="0"/>
			<vel value="0.00911146671123025" flag="0"/>
			<psa03 value="0.0217503171538498" flag="0"/>
			<psa10 value="0.0140516061624466" flag="0"/>
			<psa30 value="0.00192482292673902" flag="0"/>
		</comp>
		<comp name="00.HNN" depth="0.0">
			<acc value="0.00891880757892247" flag="0"/>
			<vel value="0.00857931659029086" flag="0"/>
			<psa03 value="0.023887553787371" flag="0"/>
			<psa10 value="0.0139315232075401" flag="0"/>
			<psa30 value="0.00149972132834442" flag="0"/>
		</comp>
		<comp name="00.HNZ" depth="0.0">
			<acc value="0.00522654891147861" flag="0"/>
			<vel value="0.0055041921848471" flag="0"/>
			<psa03 value="0.0103529110899669" flag="0"/>
			<psa10 value="0.00839262659532306" flag="0"/>
			<psa30 value="0.000908697280068482" flag="0"/>
		</comp>
	</station>
	<station code="MALA" name="MALA" netid="CL" source="Corinth Riff Laboratory (CRLNET)" insttype="" lat="38.39341" lon="21.87263" esm:processing="discarded" esm:quality="bad">
		<comp name="01.HNE" depth="0.0">
			<acc value="0" flag="1"/>
			<vel value="0" flag="1"/>
			<psa03 value="0" flag="1"/>
			<psa10 value="0" flag="1"/>
			<psa30 value="0" flag="1"/>
		</comp>
		<comp name="01.HNN" depth="0.0">
			<acc value="0" flag="1"/>
			<vel value="0" flag="1"/>
			<psa03 value="0" flag="1"/>
			<psa10 value="0" flag="1"/>
			<psa30 value="0" flag="1"/>
		</comp>
		<comp name="01.HNZ" depth="0.0">
			<acc value="0" flag="1"/>
			<vel value="0" flag="1"/>
			<psa03 value="0" flag="1"/>
			<psa10 value="0" flag="1"/>
			<psa30 value="0" flag="1"/>
		</comp>
	</station>
	<station code="ARS1" name="ARS1" netid="HI" source="ITSAK Strong Motion Network" insttype="" lat="37.6349" lon="22.7293" esm:processing="discarded" esm:quality="bad">
		<comp name="--.HNE" depth="0.0">
			<acc value="0" flag="1"/>
			<vel value="0" flag="1"/>
			<psa03 value="0" flag="1"/>
			<psa10 value="0" flag="1"/>
			<psa30 value="0" flag="1"/>
		</comp>
		<comp name="--.HNN" depth="0.0">
			<acc value="0" flag="1"/>
			<vel value="0" flag="1"/>
			<psa03 value="0" flag="1"/>
			<psa10 value="0" flag="1"/>
			<psa30 value="0" flag="1"/>
		</comp>
		<comp name="--.HNZ" depth="0.0">
			<acc value="0" flag="1"/>
			<vel value="0" flag="1"/>
			<psa03 value="0" flag="1"/>
			<psa10 value="0" flag="1"/>
			<psa30 value="0" flag="1"/>
		</comp>
	</station>
	<station code="ART2" name="ART2" netid="HI" source="ITSAK Strong Motion Network" insttype="" lat="39.1474" lon="20.9937" esm:processing="discarded" esm:quality="bad">
		<comp name="--.HNE" depth="0.0">
			<acc value="0" flag="1"/>
			<vel value="0" flag="1"/>
			<psa03 value="0" flag="1"/>
			<psa10 value="0" flag="1"/>
			<psa30 value="0" flag="1"/>
		</comp>
		<comp name="--.HNN" depth="0.0">
			<acc value="0" flag="1"/>
			<vel value="0" flag="1"/>
			<psa03 value="0" flag="1"/>
			<psa10 value="0" flag="1"/>
			<psa30 value="0" flag="1"/>
		</comp>
		<comp name="--.HNZ" depth="0.0">
			<acc value="0" flag="1"/>
			<vel value="0" flag="1"/>
			<psa03 value="0" flag="1"/>
			<psa10 value="0" flag="1"/>
			<psa30 value="0" flag="1"/>
		</comp>
	</station>
	<station code="KLV1" name="KLV1" netid="HI" source="ITSAK Strong Motion Network" insttype="" lat="38.03256" lon="22.10797" esm:processing="discarded" esm:quality="bad">
		<comp name="--.HNE" depth="0.0">
			<acc value="0" flag="1"/>
			<vel value="0" flag="1"/>
			<psa03 value="0" flag="1"/>
			<psa10 value="0" flag="1"/>
			<psa30 value="0" flag="1"/>
		</comp>
		<comp name="--.HNN" depth="0.0">
			<acc value="0" flag="1"/>
			<vel value="0" flag="1"/>
			<psa03 value="0" flag="1"/>
			<psa10 value="0" flag="1"/>
			<psa30 value="0" flag="1"/>
		</comp>
		<comp name="--.HNZ" depth="0.0">
			<acc value="0" flag="1"/>
			<vel value="0" flag="1"/>
			<psa03 value="0" flag="1"/>
			<psa10 value="0" flag="1"/>
			<psa30 value="0" flag="1"/>
		</comp>
	</station>
	<station code="PYL1" name="PYL1" netid="HI" source="ITSAK Strong Motion Network" insttype="" lat="36.914188" lon="21.695161" esm:processing="discarded" esm:quality="best">
		<comp name="--.HNE" depth="0.0">
			<acc value="0" flag="1"/>
			<vel value="0" flag="1"/>
			<psa03 value="0" flag="1"/>
			<psa10 value="0" flag="1"/>
			<psa30 value="0" flag="1"/>
		</comp>
		<comp name="--.HNN" depth="0.0">
			<acc value="0" flag="1"/>
			<vel value="0" flag="1"/>
			<psa03 value="0" flag="1"/>
			<psa10 value="0" flag="1"/>
			<psa30 value="0" flag="1"/>
		</comp>
		<comp name="--.HNZ" depth="0.0">
			<acc value="0" flag="1"/>
			<vel value="0" flag="1"/>
			<psa03 value="0" flag="1"/>
			<psa10 value="0" flag="1"/>
			<psa30 value="0" flag="1"/>
		</comp>
	</station>
	<station code="DLFA" name="DLFA" netid="HL" source="National Observatory of Athens Seismic Network" insttype="" lat="38.47836" lon="22.49583" esm:processing="automatic (Paolucci et al 2011)" esm:quality="bad">
		<comp name="00.HNE" depth="0.0">
			<acc value="0" flag="1"/>
			<vel value="0" flag="1"/>
			<psa03 value="0" flag="1"/>
			<psa10 value="0" flag="1"/>
			<psa30 value="0" flag="1"/>
		</comp>
		<comp name="00.HNN" depth="0.0">
			<acc value="0" flag="1"/>
			<vel value="0" flag="1"/>
			<psa03 value="0" flag="1"/>
			<psa10 value="0" flag="1"/>
			<psa30 value="0" flag="1"/>
		</comp>
		<comp name="00.HNZ" depth="0.0">
			<acc value="0" flag="1"/>
			<vel value="0" flag="1"/>
			<psa03 value="0" flag="1"/>
			<psa10 value="0" flag="1"/>
			<psa30 value="0" flag="1"/>
		</comp>
	</station>
	<station code="PATG" name="PATG" netid="HL" source="National Observatory of Athens Seismic Network" insttype="" lat="38.23865" lon="21.72657" esm:processing="automatic (Paolucci et al 2011)" esm:quality="bad">
		<comp name="00.HNE" depth="0.0">
			<acc value="0" flag="1"/>
			<vel value="0" flag="1"/>
			<psa03 value="0" flag="1"/>
			<psa10 value="0" flag="1"/>
			<psa30 value="0" flag="1"/>
		</comp>
		<comp name="00.HNN" depth="0.0">
			<acc value="0" flag="1"/>
			<vel value="0" flag="1"/>
			<psa03 value="0" flag="1"/>
			<psa10 value="0" flag="1"/>
			<psa30 value="0" flag="1"/>
		</comp>
		<comp name="00.HNZ" depth="0.0">
			<acc value="0" flag="1"/>
			<vel value="0" flag="1"/>
			<psa03 value="0" flag="1"/>
			<psa10 value="0" flag="1"/>
			<psa30 value="0" flag="1"/>
		</comp>
	</station>
	<station code="RIOA" name="RIOA" netid="HL" source="National Observatory of Athens Seismic Network" insttype="" lat="38.29585" lon="21.79118" esm:processing="automatic (Paolucci et al 2011)" esm:quality="bad">
		<comp name="00.HNE" depth="0.0">
			<acc value="0" flag="1"/>
			<vel value="0" flag="1"/>
			<psa03 value="0" flag="1"/>
			<psa10 value="0" flag="1"/>
			<psa30 value="0" flag="1"/>
		</comp>
		<comp name="00.HNN" depth="0.0">
			<acc value="0" flag="1"/>
			<vel value="0" flag="1"/>
			<psa03 value="0" flag="1"/>
			<psa10 value="0" flag="1"/>
			<psa30 value="0" flag="1"/>
		</comp>
		<comp name="00.HNZ" depth="0.0">
			<acc value="0" flag="1"/>
			<vel value="0" flag="1"/>
			<psa03 value="0" flag="1"/>
			<psa10 value="0" flag="1"/>
			<psa30 value="0" flag="1"/>
		</comp>
	</station>
</stationlist>
