<?xml version="1.0" encoding="UTF-8" standalone="yes"?>
<!DOCTYPE earthquake SYSTEM "stationlist.dtd">
<stationlist created="" xmlns="ch.ethz.sed.shakemap.usgs.xml">
  <station code="PYL1" name="PYL1" netid="HI" source="NOA" insttype="CMG-5TD,ACCELEROMETER,GURALP" lat="36.9142" lon="21.6952">
    <comp name="--.HNE">
      <acc value="0.0270501641" flag="0"/>
      <vel value="0.0118123695" flag="0"/>
      <psa03 value="0.0965768135" flag="0"/>
      <psa10 value="0.0083994589" flag="0"/>
      <psa30 value="0.0004905626" flag="0"/>
    </comp>
    <comp name="--.HNN">
      <acc value="0.0309831006" flag="0"/>
      <vel value="0.0121680674" flag="0"/>
      <psa03 value="0.0845836828" flag="0"/>
      <psa10 value="0.0074174007" flag="0"/>
      <psa30 value="0.0007660260" flag="0"/>
    </comp>
    <comp name="--.HNZ">
      <acc value="0.0211795968" flag="0"/>
      <vel value="0.0059299701" flag="0"/>
      <psa03 value="0.0521541126" flag="0"/>
      <psa10 value="0.0039612866" flag="0"/>
      <psa30 value="0.0003142310" flag="0"/>
    </comp>
  </station>
  <station code="VLI" name="VLI" netid="HL" source="NOA" insttype="60" lat="36.718" lon="22.9469">
    <comp name="--.HHE">
      <acc value="0.0098760985" flag="0"/>
      <vel value="0.0057814569" flag="0"/>
      <psa03 value="0.0218633862" flag="0"/>
      <psa10 value="0.0060946327" flag="0"/>
      <psa30 value="0.0005186358" flag="0"/>
    </comp>
    <comp name="--.HHN">
      <acc value="0.0161785567" flag="0"/>
      <vel value="0.0064497677" flag="0"/>
      <psa03 value="0.0301848895" flag="0"/>
      <psa10 value="0.0080352908" flag="0"/>
      <psa30 value="0.0004388192" flag="0"/>
    </comp>
    <comp name="--.HHZ">
      <acc value="0.0089847913" flag="0"/>
      <vel value="0.0040179386" flag="0"/>
      <psa03 value="0.0230185043" flag="0"/>
      <psa10 value="0.0026621370" flag="0"/>
      <psa30 value="0.0002511463" flag="0"/>
    </comp>
  </station>
  <station code="AMT" name="AMT" netid="HP" source="NOA" insttype="CMG-3T," lat="37.5324" lon="21.7089">
    <comp name="00.HHE">
      <acc value="0.0128089510" flag="0"/>
      <vel value="0.0061974956" flag="0"/>
      <psa03 value="0.0411547061" flag="0"/>
      <psa10 value="0.0058111786" flag="0"/>
      <psa30 value="0.0003763185" flag="0"/>
    </comp>
    <comp name="00.HHN">
      <acc value="0.0152547895" flag="0"/>
      <vel value="0.0073156548" flag="0"/>
      <psa03 value="0.0350656983" flag="0"/>
      <psa10 value="0.0085675607" flag="0"/>
      <psa30 value="0.0003723889" flag="0"/>
    </comp>
    <comp name="00.HHZ">
      <acc value="0.0094210449" flag="0"/>
      <vel value="0.0046762652" flag="0"/>
      <psa03 value="0.0235195071" flag="0"/>
      <psa10 value="0.0046025325" flag="0"/>
      <psa30 value="0.0003520510" flag="0"/>
    </comp>
  </station>
  <station code="VLX" name="VLX" netid="HP" source="NOA" insttype="40," lat="37.3703" lon="22.3793">
    <comp name="--.HHE">
      <acc value="0.0032880216" flag="0"/>
      <vel value="0.0016507408" flag="0"/>
      <psa03 value="0.0075444334" flag="0"/>
      <psa10 value="0.0016813459" flag="0"/>
      <psa30 value="0.0002192022" flag="0"/>
    </comp>
    <comp name="--.HHN">
      <acc value="0.0023639603" flag="0"/>
      <vel value="0.0016028019" flag="0"/>
      <psa03 value="0.0070108119" flag="0"/>
      <psa10 value="0.0026836602" flag="0"/>
      <psa30 value="0.0002194819" flag="0"/>
    </comp>
    <comp name="--.HHZ">
      <acc value="0.0014441687" flag="0"/>
      <vel value="0.0010452073" flag="0"/>
      <psa03 value="0.0051447089" flag="0"/>
      <psa10 value="0.0008183315" flag="0"/>
      <psa30 value="0.0000906218" flag="0"/>
    </comp>
  </station>
</stationlist>
