<stationlist created="1774122945">
	<station code="SPAOL" name="SPAOL" netid="7C" source="Urban Seismic Network (RUSN-CAL-INGV)" insttype="" lat="37.54939" lon="15.071367">
		<comp name="--.HNE" depth="0.0">
			<acc value="0.0148558468438654" flag="0"/>
			<vel value="0.00186214488867969" flag="0"/>
			<psa03 value="0.000537333528651885" flag="0"/>
			<psa10 value="0.000669058970310712" flag="0"/>
			<psa30 value="0.000697330361380788" flag="0"/>
		</comp>
		<comp name="--.HNN" depth="0.0">
			<acc value="0.0164421264039235" flag="0"/>
			<vel value="0.0018689652014555" flag="0"/>
			<psa03 value="0.000585128076642064" flag="0"/>
			<psa10 value="0.000692392840283831" flag="0"/>
			<psa30 value="0.000551358764395546" flag="0"/>
		</comp>
		<comp name="--.HNZ" depth="0.0">
			<acc value="0.013062326890931" flag="0"/>
			<vel value="0.00582466451391147" flag="0"/>
			<psa03 value="0.00157834283871696" flag="0"/>
			<psa10 value="0.00211520434065668" flag="0"/>
			<psa30 value="0.00210845905006429" flag="0"/>
		</comp>
	</station>
	<station code="AGR" name="AGR" netid="IT" source="Italian Strong Motion Network (RAN)" insttype="" lat="37.3231" lon="13.586">
		<comp name="--.HNE" depth="0.0">
			<acc value="0.00393281137807506" flag="0"/>
			<vel value="0.00640826546007775" flag="0"/>
			<psa03 value="0.00712297316409771" flag="0"/>
			<psa10 value="0.00850626662341721" flag="0"/>
			<psa30 value="0.00256614895310747" flag="0"/>
		</comp>
		<comp name="--.HNN" depth="0.0">
			<acc value="0.00784702356090534" flag="0"/>
			<vel value="0.010563653572056" flag="0"/>
			<psa03 value="0.0175538750976586" flag="0"/>
			<psa10 value="0.0166293253611927" flag="0"/>
			<psa30 value="0.004274528583207" flag="0"/>
		</comp>
		<comp name="--.HNZ" depth="0.0">
			<acc value="0.00481571292246968" flag="0"/>
			<vel value="0.00678783809705078" flag="0"/>
			<psa03 value="0.00891971393414745" flag="0"/>
			<psa10 value="0.0123169606256929" flag="0"/>
			<psa30 value="0.0028980396892399" flag="0"/>
		</comp>
	</station>
	<station code="ALC" name="ALC" netid="IT" source="Italian Strong Motion Network (RAN)" insttype="" lat="37.9734" lon="12.9597">
		<comp name="--.HGE" depth="0.0">
			<acc value="0.00440142541071586" flag="0"/>
			<vel value="0.00247348492791143" flag="0"/>
			<psa03 value="0.00861005474887115" flag="0"/>
			<psa10 value="0.00471747500956722" flag="0"/>
			<psa30 value="0.000682974670803408" flag="0"/>
		</comp>
		<comp name="--.HGN" depth="0.0">
			<acc value="0.00613546266899299" flag="0"/>
			<vel value="0.00381280579096726" flag="0"/>
			<psa03 value="0.00807379396380931" flag="0"/>
			<psa10 value="0.00508993280806844" flag="0"/>
			<psa30 value="0.000507335743919826" flag="0"/>
		</comp>
		<comp name="--.HGZ" depth="0.0">
			<acc value="0.00336448133117585" flag="0"/>
			<vel value="0.00134674112400929" flag="0"/>
			<psa03 value="0.00589033812265901" flag="0"/>
			<psa10 value="0.00236990340071941" flag="0"/>
			<psa30 value="0.000250115839780214" flag="0"/>
		</comp>
	</station>
	<station code="ARMO" name="ARMO" netid="IT" source="Italian Strong Motion Network (RAN)" insttype="" lat="38.0761" lon="15.7125">
		<comp name="--.HNE" depth="0.0">
			<acc value="0.0368553458175969" flag="0"/>
			<vel value="0.0134248071494576" flag="0"/>
			<psa03 value="0.0551751915439873" flag="0"/>
			<psa10 value="0.0219360056527182" flag="0"/>
			<psa30 value="0.00227442983648101" flag="0"/>
		</comp>
		<comp name="--.HNN" depth="0.0">
			<acc value="0.0446494133528323" flag="0"/>
			<vel value="0.0127137113422168" flag="0"/>
			<psa03 value="0.0539922277617758" flag="0"/>
			<psa10 value="0.0166070282591191" flag="0"/>
			<psa30 value="0.0022926354175114" flag="0"/>
		</comp>
		<comp name="--.HNZ" depth="0.0">
			<acc value="0.0258951982705832" flag="0"/>
			<vel value="0.0126876147199258" flag="0"/>
			<psa03 value="0.0579975555950876" flag="0"/>
			<psa10 value="0.023241602142078" flag="0"/>
			<psa30 value="0.00131268758411011" flag="0"/>
		</comp>
	</station>
	<station code="BCL" name="BCL" netid="IT" source="Italian Strong Motion Network (RAN)" insttype="" lat="38.1827" lon="15.2316">
		<comp name="--.HGE" depth="0.0">
			<acc value="0.0316215151805168" flag="0"/>
			<vel value="0.0406898988223367" flag="0"/>
			<psa03 value="0.127159611200175" flag="0"/>
			<psa10 value="0.0639184617843977" flag="0"/>
			<psa30 value="0.00545092609710217" flag="0"/>
		</comp>
		<comp name="--.HGN" depth="0.0">
			<acc value="0.0387749552957573" flag="0"/>
			<vel value="0.0347633877208239" flag="0"/>
			<psa03 value="0.158234492675232" flag="0"/>
			<psa10 value="0.0631713297905698" flag="0"/>
			<psa30 value="0.00786133327474803" flag="0"/>
		</comp>
		<comp name="--.HGZ" depth="0.0">
			<acc value="0.0291969938875398" flag="0"/>
			<vel value="0.023581406633652" flag="0"/>
			<psa03 value="0.050134227396519" flag="0"/>
			<psa10 value="0.0680732045157132" flag="0"/>
			<psa30 value="0.00431783520205796" flag="0"/>
		</comp>
	</station>
	<station code="BNT" name="BNT" netid="IT" source="Italian Strong Motion Network (RAN)" insttype="" lat="37.7805" lon="14.8444">
		<comp name="--.HNE" depth="0.0">
			<acc value="0.0756481551805295" flag="0"/>
			<vel value="0.0397294805647768" flag="0"/>
			<psa03 value="0.205223636725414" flag="0"/>
			<psa10 value="0.0431528111619565" flag="0"/>
			<psa30 value="0.00247176103370437" flag="0"/>
		</comp>
		<comp name="--.HNN" depth="0.0">
			<acc value="0.0559045940071443" flag="0"/>
			<vel value="0.0344416558866563" flag="0"/>
			<psa03 value="0.207318525501515" flag="0"/>
			<psa10 value="0.0384478694826609" flag="0"/>
			<psa30 value="0.00266052687184807" flag="0"/>
		</comp>
		<comp name="--.HNZ" depth="0.0">
			<acc value="0.0259237465432357" flag="0"/>
			<vel value="0.0227548277469832" flag="0"/>
			<psa03 value="0.0961038872442098" flag="0"/>
			<psa10 value="0.0297423146573783" flag="0"/>
			<psa30 value="0.00255378896765243" flag="0"/>
		</comp>
	</station>
	<station code="BVM" name="BVM" netid="IT" source="Italian Strong Motion Network (RAN)" insttype="" lat="37.931" lon="15.936">
		<comp name="--.HNE" depth="0.0">
			<acc value="0.00470874742200144" flag="0"/>
			<vel value="0.0045382647728884" flag="0"/>
			<psa03 value="0.0138800145349267" flag="0"/>
			<psa10 value="0.00513349522511477" flag="0"/>
			<psa30 value="0.00080151788829312" flag="0"/>
		</comp>
		<comp name="--.HNN" depth="0.0">
			<acc value="0.00425790417914558" flag="0"/>
			<vel value="0.00383629893309759" flag="0"/>
			<psa03 value="0.0117981787068535" flag="0"/>
			<psa10 value="0.00870315185359744" flag="0"/>
			<psa30 value="0.00077822092831719" flag="0"/>
		</comp>
		<comp name="--.HNZ" depth="0.0">
			<acc value="0.0030579474208813" flag="0"/>
			<vel value="0.00257325969833195" flag="0"/>
			<psa03 value="0.00802080282319798" flag="0"/>
			<psa10 value="0.00386941750179438" flag="0"/>
			<psa30 value="0.000484775030633293" flag="0"/>
		</comp>
	</station>
	<station code="CDI1" name="CDI1" netid="IT" source="Italian Strong Motion Network (RAN)" insttype="" lat="37.5032" lon="14.6473">
		<comp name="--.HNE" depth="0.0">
			<acc value="0.0157126589369831" flag="0"/>
			<vel value="0.012900927001486" flag="0"/>
			<psa03 value="0.0503894005504881" flag="0"/>
			<psa10 value="0.0148492755666298" flag="0"/>
			<psa30 value="0.00171542217996723" flag="0"/>
		</comp>
		<comp name="--.HNN" depth="0.0">
			<acc value="0.0184239260853032" flag="0"/>
			<vel value="0.0126202425037939" flag="0"/>
			<psa03 value="0.0648965334518455" flag="0"/>
			<psa10 value="0.0141082199128297" flag="0"/>
			<psa30 value="0.00471861300162027" flag="0"/>
		</comp>
		<comp name="--.HNZ" depth="0.0">
			<acc value="0.00856569438621555" flag="0"/>
			<vel value="0.00888074965571663" flag="0"/>
			<psa03 value="0.0236733416802036" flag="0"/>
			<psa10 value="0.0128153827062096" flag="0"/>
			<psa30 value="0.00205822509731145" flag="0"/>
		</comp>
	</station>
	<station code="CFL" name="CFL" netid="IT" source="Italian Strong Motion Network (RAN)" insttype="" lat="38.037" lon="14.0232">
		<comp name="--.HNE" depth="0.0">
			<acc value="0.0516265645399203" flag="0"/>
			<vel value="0.0212860878156845" flag="0"/>
			<psa03 value="0.107166474252973" flag="0"/>
			<psa10 value="0.0125251003514283" flag="0"/>
			<psa30 value="0.000662899695101457" flag="0"/>
		</comp>
		<comp name="--.HNN" depth="0.0">
			<acc value="0.0599712444643726" flag="0"/>
			<vel value="0.0269424332115507" flag="0"/>
			<psa03 value="0.125489365137904" flag="0"/>
			<psa10 value="0.0231620762488779" flag="0"/>
			<psa30 value="0.00121875698666902" flag="0"/>
		</comp>
		<comp name="--.HNZ" depth="0.0">
			<acc value="0.0404860160506927" flag="0"/>
			<vel value="0.017117124925035" flag="0"/>
			<psa03 value="0.0890045315300689" flag="0"/>
			<psa10 value="0.00896971294946183" flag="0"/>
			<psa30 value="0.000696747354009411" flag="0"/>
		</comp>
	</station>
	<station code="CLG1" name="CLG1" netid="IT" source="Italian Strong Motion Network (RAN)" insttype="" lat="37.2214" lon="14.5182">
		<comp name="--.HNE" depth="0.0">
			<acc value="0.0596805523503764" flag="0"/>
			<vel value="0.0421564595651925" flag="0"/>
			<psa03 value="0.170200827052823" flag="0"/>
			<psa10 value="0.029054916620632" flag="0"/>
			<psa30 value="0.00568640211289923" flag="0"/>
		</comp>
		<comp name="--.HNN" depth="0.0">
			<acc value="0.0810122496301668" flag="0"/>
			<vel value="0.0455456305572796" flag="0"/>
			<psa03 value="0.308014696128627" flag="0"/>
			<psa10 value="0.028602893551322" flag="0"/>
			<psa30 value="0.00435990173875957" flag="0"/>
		</comp>
		<comp name="--.HNZ" depth="0.0">
			<acc value="0.0220652505732444" flag="0"/>
			<vel value="0.0130613758787731" flag="0"/>
			<psa03 value="0.0653098420815138" flag="0"/>
			<psa10 value="0.0172775951808867" flag="0"/>
			<psa30 value="0.0014758278705201" flag="0"/>
		</comp>
	</station>
	<station code="CLTS" name="CLTS" netid="IT" source="Italian Strong Motion Network (RAN)" insttype="" lat="37.4787" lon="14.0537">
		<comp name="--.HNE" depth="0.0">
			<acc value="0.0267410867821281" flag="0"/>
			<vel value="0.0319845985838505" flag="0"/>
			<psa03 value="0.0678637977268745" flag="0"/>
			<psa10 value="0.0511575626874597" flag="0"/>
			<psa30 value="0.00848810896222793" flag="0"/>
		</comp>
		<comp name="--.HNN" depth="0.0">
			<acc value="0.0261189946298329" flag="0"/>
			<vel value="0.0254662866133162" flag="0"/>
			<psa03 value="0.0701858890540287" flag="0"/>
			<psa10 value="0.0459883365015942" flag="0"/>
			<psa30 value="0.00702756137478493" flag="0"/>
		</comp>
		<comp name="--.HNZ" depth="0.0">
			<acc value="0.0206186746301695" flag="0"/>
			<vel value="0.0211403793307985" flag="0"/>
			<psa03 value="0.0506628926263292" flag="0"/>
			<psa10 value="0.0248697950018642" flag="0"/>
			<psa30 value="0.00564952508664389" flag="0"/>
		</comp>
	</station>
	<station code="CLV" name="CLV" netid="IT" source="Italian Strong Motion Network (RAN)" insttype="" lat="37.8192" lon="13.8902">
		<comp name="--.HGE" depth="0.0">
			<acc value="0.144891213471044" flag="0"/>
			<vel value="0.0569765257750936" flag="0"/>
			<psa03 value="0.377490590232308" flag="0"/>
			<psa10 value="0.0822050256795099" flag="0"/>
			<psa30 value="0.00316772651300176" flag="0"/>
		</comp>
		<comp name="--.HGN" depth="0.0">
			<acc value="0.134593019359628" flag="0"/>
			<vel value="0.0711090537718099" flag="0"/>
			<psa03 value="0.405288223355746" flag="0"/>
			<psa10 value="0.0418971792325034" flag="0"/>
			<psa30 value="0.00289456362563442" flag="0"/>
		</comp>
		<comp name="--.HGZ" depth="0.0">
			<acc value="0.0736691189026058" flag="0"/>
			<vel value="0.0316932329144304" flag="0"/>
			<psa03 value="0.153411725273894" flag="0"/>
			<psa10 value="0.0240441346809201" flag="0"/>
			<psa30 value="0.00301168221749967" flag="0"/>
		</comp>
	</station>
	<station code="CNCT" name="CNCT" netid="IT" source="Italian Strong Motion Network (RAN)" insttype="" lat="37.3597" lon="13.8517">
		<comp name="--.HNE" depth="0.0">
			<acc value="0.00841529102060096" flag="0"/>
			<vel value="0.00418560863642966" flag="0"/>
			<psa03 value="0.00717255262036837" flag="0"/>
			<psa10 value="0.00547948658284419" flag="0"/>
			<psa30 value="0.00273500409726541" flag="0"/>
		</comp>
		<comp name="--.HNN" depth="0.0">
			<acc value="0.00573712312062242" flag="0"/>
			<vel value="0.00733177129720512" flag="0"/>
			<psa03 value="0.00653880035093248" flag="0"/>
			<psa10 value="0.0112022349055848" flag="0"/>
			<psa30 value="0.00234130989195645" flag="0"/>
		</comp>
		<comp name="--.HNZ" depth="0.0">
			<acc value="0.00515954079073178" flag="0"/>
			<vel value="0.00479148504573495" flag="0"/>
			<psa03 value="0.00597234029969246" flag="0"/>
			<psa10 value="0.0107193688555787" flag="0"/>
			<psa30 value="0.00191842000257672" flag="0"/>
		</comp>
	</station>
	<station code="CON" name="CON" netid="IT" source="Italian Strong Motion Network (RAN)" insttype="" lat="37.8138" lon="13.308">
		<comp name="--.HNE" depth="0.0">
			<acc value="0.00815451777006227" flag="0"/>
			<vel value="0.00738211131873813" flag="0"/>
			<psa03 value="0.0190648540988519" flag="0"/>
			<psa10 value="0.0122348245595817" flag="0"/>
			<psa30 value="0.00110917170634868" flag="0"/>
		</comp>
		<comp name="--.HNN" depth="0.0">
			<acc value="0.00666673943787152" flag="0"/>
			<vel value="0.00624856776705236" flag="0"/>
			<psa03 value="0.0224568027571371" flag="0"/>
			<psa10 value="0.0114309991225914" flag="0"/>
			<psa30 value="0.00173488315666143" flag="0"/>
		</comp>
		<comp name="--.HNZ" depth="0.0">
			<acc value="0.00539668439689456" flag="0"/>
			<vel value="0.00548751149813735" flag="0"/>
			<psa03 value="0.0131940302897538" flag="0"/>
			<psa10 value="0.00857334075424919" flag="0"/>
			<psa30 value="0.000926017594120951" flag="0"/>
		</comp>
	</station>
	<station code="CRL" name="CRL" netid="IT" source="Italian Strong Motion Network (RAN)" insttype="" lat="37.813" lon="13.307">
		<comp name="--.HGE" depth="0.0">
			<acc value="0.0428216699523927" flag="0"/>
			<vel value="0.00961147242740968" flag="0"/>
			<psa03 value="0.0319478273242684" flag="0"/>
			<psa10 value="0.013997804160828" flag="0"/>
			<psa30 value="0.00125869431982134" flag="0"/>
		</comp>
		<comp name="--.HGN" depth="0.0">
			<acc value="0.0326873137366984" flag="0"/>
			<vel value="0.0104036175137359" flag="0"/>
			<psa03 value="0.0306326620760252" flag="0"/>
			<psa10 value="0.0125237568249262" flag="0"/>
			<psa30 value="0.00193218049747531" flag="0"/>
		</comp>
		<comp name="--.HGZ" depth="0.0">
			<acc value="0.0695958718183836" flag="0"/>
			<vel value="0.00674451978680572" flag="0"/>
			<psa03 value="0.0224494559162782" flag="0"/>
			<psa10 value="0.00843080599952122" flag="0"/>
			<psa30 value="0.000909755475168715" flag="0"/>
		</comp>
	</station>
	<station code="CSG" name="CSG" netid="IT" source="Italian Strong Motion Network (RAN)" insttype="" lat="38.0171" lon="12.8837">
		<comp name="--.HNE" depth="0.0">
			<acc value="0.00327674327524798" flag="0"/>
			<vel value="0.00184447498097402" flag="0"/>
			<psa03 value="0.00887111826700633" flag="0"/>
			<psa10 value="0.00324311734060742" flag="0"/>
			<psa30 value="0.000484611113524589" flag="0"/>
		</comp>
		<comp name="--.HNN" depth="0.0">
			<acc value="0.00369570780543416" flag="0"/>
			<vel value="0.00284289692380807" flag="0"/>
			<psa03 value="0.00968936713343631" flag="0"/>
			<psa10 value="0.00598402063074873" flag="0"/>
			<psa30 value="0.000310418610584496" flag="0"/>
		</comp>
		<comp name="--.HNZ" depth="0.0">
			<acc value="0.00229986984649514" flag="0"/>
			<vel value="0.00133304264800875" flag="0"/>
			<psa03 value="0.00575250933071964" flag="0"/>
			<psa10 value="0.00251135878706953" flag="0"/>
			<psa30 value="0.000231059942003841" flag="0"/>
		</comp>
	</station>
	<station code="CSLA" name="CSLA" netid="IT" source="Italian Strong Motion Network (RAN)" insttype="" lat="37.789" lon="14.0412">
		<comp name="--.HNE" depth="0.0">
			<acc value="0.178896309624931" flag="0"/>
			<vel value="0.0953958324851938" flag="0"/>
			<psa03 value="0.69842543392397" flag="0"/>
			<psa10 value="0.106880550311916" flag="0"/>
			<psa30 value="0.00757695693621124" flag="0"/>
		</comp>
		<comp name="--.HNN" depth="0.0">
			<acc value="0.21902399757806" flag="0"/>
			<vel value="0.11111325925507" flag="0"/>
			<psa03 value="0.492030136248434" flag="0"/>
			<psa10 value="0.102995172924732" flag="0"/>
			<psa30 value="0.0135686580236692" flag="0"/>
		</comp>
		<comp name="--.HNZ" depth="0.0">
			<acc value="0.0942686071054827" flag="0"/>
			<vel value="0.0788619989350103" flag="0"/>
			<psa03 value="0.206018418542476" flag="0"/>
			<psa10 value="0.0920667239686229" flag="0"/>
			<psa30 value="0.0083962062074548" flag="0"/>
		</comp>
	</station>
	<station code="CSM" name="CSM" netid="IT" source="Italian Strong Motion Network (RAN)" insttype="" lat="37.5404" lon="13.6273">
		<comp name="--.HGE" depth="0.0">
			<acc value="0.00783361226262056" flag="0"/>
			<vel value="0.0103571701433925" flag="0"/>
			<psa03 value="0.0226668218782064" flag="0"/>
			<psa10 value="0.0155806058886745" flag="0"/>
			<psa30 value="0.00441384739572793" flag="0"/>
		</comp>
		<comp name="--.HGN" depth="0.0">
			<acc value="0.0077350356147215" flag="0"/>
			<vel value="0.00972796515639881" flag="0"/>
			<psa03 value="0.0257455779140174" flag="0"/>
			<psa10 value="0.0145088026994733" flag="0"/>
			<psa30 value="0.00431649261311804" flag="0"/>
		</comp>
		<comp name="--.HGZ" depth="0.0">
			<acc value="0.00551911805586345" flag="0"/>
			<vel value="0.00749404590322184" flag="0"/>
			<psa03 value="0.0161579935648577" flag="0"/>
			<psa10 value="0.01071777781268" flag="0"/>
			<psa30 value="0.00230340300581128" flag="0"/>
		</comp>
	</station>
	<station code="CTU" name="CTU" netid="IT" source="Italian Strong Motion Network (RAN)" insttype="" lat="37.8232" lon="13.8904">
		<comp name="--.HNE" depth="0.0">
			<acc value="0.0603095233197987" flag="0"/>
			<vel value="0.0321951522224842" flag="0"/>
			<psa03 value="0.170472772151185" flag="0"/>
			<psa10 value="0.0466180819691408" flag="0"/>
			<psa30 value="0.00304367579525051" flag="0"/>
		</comp>
		<comp name="--.HNN" depth="0.0">
			<acc value="0.0946581516537823" flag="0"/>
			<vel value="0.0423737863633054" flag="0"/>
			<psa03 value="0.224297171086791" flag="0"/>
			<psa10 value="0.0278512143812661" flag="0"/>
			<psa30 value="0.00261171509664085" flag="0"/>
		</comp>
		<comp name="--.HNZ" depth="0.0">
			<acc value="0.0544516498616484" flag="0"/>
			<vel value="0.021382345496564" flag="0"/>
			<psa03 value="0.0879644105438249" flag="0"/>
			<psa10 value="0.0217079849224638" flag="0"/>
			<psa30 value="0.00329987172530687" flag="0"/>
		</comp>
	</station>
	<station code="CTV" name="CTV" netid="IT" source="Italian Strong Motion Network (RAN)" insttype="" lat="38.3498" lon="16.0804">
		<comp name="--.HNE" depth="0.0">
			<acc value="0.018919985759351" flag="0"/>
			<vel value="0.00506065992604602" flag="0"/>
			<psa03 value="0.00996556902420604" flag="0"/>
			<psa10 value="0.0090565312007449" flag="0"/>
			<psa30 value="0.00110303515399887" flag="0"/>
		</comp>
		<comp name="--.HNN" depth="0.0">
			<acc value="0.0187070925733888" flag="0"/>
			<vel value="0.00357832474232394" flag="0"/>
			<psa03 value="0.00898959161007554" flag="0"/>
			<psa10 value="0.00531701222596543" flag="0"/>
			<psa30 value="0.000593004439883827" flag="0"/>
		</comp>
		<comp name="--.HNZ" depth="0.0">
			<acc value="0.0170812306424678" flag="0"/>
			<vel value="0.00307154043983892" flag="0"/>
			<psa03 value="0.00953255075553755" flag="0"/>
			<psa10 value="0.00622590368556402" flag="0"/>
			<psa30 value="0.000711960236788234" flag="0"/>
		</comp>
	</station>
	<station code="DLNV" name="DLNV" netid="IT" source="Italian Strong Motion Network (RAN)" insttype="" lat="38.237" lon="15.919">
