<stationlist created="1775181343">
	<station code="ALC" name="ALC" netid="IT" source="Italian Strong Motion Network (RAN)" insttype="" lat="37.9734" lon="12.9597">
		<comp name="--.HGE" depth="0.0">
			<acc value="0.00440142541071586" flag="0"/>
			<vel value="0.00247348492791143" flag="0"/>
			<psa03 value="0.00861005474887115" flag="0"/>
			<psa10 value="0.00471747500956722" flag="0"/>
			<psa30 value="0.000682974670803408" flag="0"/>
		</comp>
		<comp name="--.HGN" depth="0.0">
			<acc value="0.00613546266899299" flag="0"/>
			<vel value="0.00381280579096726" flag="0"/>
			<psa03 value="0.00807379396380931" flag="0"/>
			<psa10 value="0.00508993280806844" flag="0"/>
			<psa30 value="0.000507335743919826" flag="0"/>
		</comp>
		<comp name="--.HGZ" depth="0.0">
			<acc value="0.00336448133117585" flag="0"/>
			<vel value="0.00134674112400929" flag="0"/>
			<psa03 value="0.00589033812265901" flag="0"/>
			<psa10 value="0.00236990340071941" flag="0"/>
			<psa30 value="0.000250115839780214" flag="0"/>
		</comp>
	</station>
	<station code="ARMO" name="ARMO" netid="IT" source="Italian Strong Motion Network (RAN)" insttype="" lat="38.0761" lon="15.7125">
		<comp name="--.HNE" depth="0.0">
			<acc value="0.0368553458175969" flag="0"/>
			<vel value="0.0134248071494576" flag="0"/>
			<psa03 value="0.0551751915439873" flag="0"/>
			<psa10 value="0.0219360056527182" flag="0"/>
			<psa30 value="0.00227442983648101" flag="0"/>
		</comp>
		<comp name="--.HNN" depth="0.0">
			<acc value="0.0446494133528323" flag="0"/>
			<vel value="0.0127137113422168" flag="0"/>
			<psa03 value="0.0539922277617758" flag="0"/>
			<psa10 value="0.0166070282591191" flag="0"/>
			<psa30 value="0.0022926354175114" flag="0"/>
		</comp>
		<comp name="--.HNZ" depth="0.0">
			<acc value="0.0258951982705832" flag="0"/>
			<vel value="0.0126876147199258" flag="0"/>
			<psa03 value="0.0579975555950876" flag="0"/>
			<psa10 value="0.023241602142078" flag="0"/>
			<psa30 value="0.00131268758411011" flag="0"/>
		</comp>
	</station>
	<station code="BNT" name="BNT" netid="IT" source="Italian Strong Motion Network (RAN)" insttype="" lat="37.7805" lon="14.8444">
		<comp name="--.HNE" depth="0.0">
			<acc value="0.0756481551805295" flag="0"/>
			<vel value="0.0397294805647768" flag="0"/>
			<psa03 value="0.205223636725414" flag="0"/>
			<psa10 value="0.0431528111619565" flag="0"/>
			<psa30 value="0.00247176103370437" flag="0"/>
		</comp>
		<comp name="--.HNN" depth="0.0">
			<acc value="0.0559045940071443" flag="0"/>
			<vel value="0.0344416558866563" flag="0"/>
			<psa03 value="0.207318525501515" flag="0"/>
			<psa10 value="0.0384478694826609" flag="0"/>
			<psa30 value="0.00266052687184807" flag="0"/>
		</comp>
		<comp name="--.HNZ" depth="0.0">
			<acc value="0.0259237465432357" flag="0"/>
			<vel value="0.0227548277469832" flag="0"/>
			<psa03 value="0.0961038872442098" flag="0"/>
			<psa10 value="0.0297423146573783" flag="0"/>
			<psa30 value="0.00255378896765243" flag="0"/>
		</comp>
	</station>
	<station code="BVM" name="BVM" netid="IT" source="Italian Strong Motion Network (RAN)" insttype="" lat="37.931" lon="15.936">
		<comp name="--.HNE" depth="0.0">
			<acc value="0.00470874742200144" flag="0"/>
			<vel value="0.0045382647728884" flag="0"/>
			<psa03 value="0.0138800145349267" flag="0"/>
			<psa10 value="0.00513349522511477" flag="0"/>
			<psa30 value="0.00080151788829312" flag="0"/>
		</comp>
		<comp name="--.HNN" depth="0.0">
			<acc value="0.00425790417914558" flag="0"/>
			<vel value="0.00383629893309759" flag="0"/>
			<psa03 value="0.0117981787068535" flag="0"/>
			<psa10 value="0.00870315185359744" flag="0"/>
			<psa30 value="0.00077822092831719" flag="0"/>
		</comp>
		<comp name="--.HNZ" depth="0.0">
			<acc value="0.0030579474208813" flag="0"/>
			<vel value="0.00257325969833195" flag="0"/>
			<psa03 value="0.00802080282319798" flag="0"/>
			<psa10 value="0.00386941750179438" flag="0"/>
			<psa30 value="0.000484775030633293" flag="0"/>
		</comp>
	</station>
	<station code="CDI1" name="CDI1" netid="IT" source="Italian Strong Motion Network (RAN)" insttype="" lat="37.5032" lon="14.6473">
		<comp name="--.HNE" depth="0.0">
			<acc value="0.0157126589369831" flag="0"/>
			<vel value="0.012900927001486" flag="0"/>
			<psa03 value="0.0503894005504881" flag="0"/>
			<psa10 value="0.0148492755666298" flag="0"/>
			<psa30 value="0.00171542217996723" flag="0"/>
		</comp>
		<comp name="--.HNN" depth="0.0">
			<acc value="0.0184239260853032" flag="0"/>
			<vel value="0.0126202425037939" flag="0"/>
			<psa03 value="0.0648965334518455" flag="0"/>
			<psa10 value="0.0141082199128297" flag="0"/>
			<psa30 value="0.00471861300162027" flag="0"/>
		</comp>
		<comp name="--.HNZ" depth="0.0">
			<acc value="0.00856569438621555" flag="0"/>
			<vel value="0.00888074965571663" flag="0"/>
			<psa03 value="0.0236733416802036" flag="0"/>
			<psa10 value="0.0128153827062096" flag="0"/>
			<psa30 value="0.00205822509731145" flag="0"/>
		</comp>
	</station>
	<station code="CLG1" name="CLG1" netid="IT" source="Italian Strong Motion Network (RAN)" insttype="" lat="37.2214" lon="14.5182">
		<comp name="--.HNE" depth="0.0">
			<acc value="0.0635620536388548" flag="0"/>
			<vel value="0.0422582959853398" flag="0"/>
			<psa03 value="0.170855599594957" flag="0"/>
			<psa10 value="0.0290584737312731" flag="0"/>
			<psa30 value="0.00565621344638156" flag="0"/>
		</comp>
		<comp name="--.HNN" depth="0.0">
			<acc value="0.0813477214174615" flag="0"/>
			<vel value="0.0455980229881076" flag="0"/>
			<psa03 value="0.309021096131022" flag="0"/>
			<psa10 value="0.0285927435039312" flag="0"/>
			<psa30 value="0.00434748383280091" flag="0"/>
		</comp>
		<comp name="--.HNZ" depth="0.0">
			<acc value="0.0238399610486265" flag="0"/>
			<vel value="0.0130650169535214" flag="0"/>
			<psa03 value="0.0653756016460956" flag="0"/>
			<psa10 value="0.0172757256820416" flag="0"/>
			<psa30 value="0.00147107672244652" flag="0"/>
		</comp>
	</station>
	<station code="CLV" name="CLV" netid="IT" source="Italian Strong Motion Network (RAN)" insttype="" lat="37.8192" lon="13.8902">
		<comp name="--.HGE" depth="0.0">
			<acc value="0.144891213471044" flag="0"/>
			<vel value="0.0569765257750936" flag="0"/>
			<psa03 value="0.377490590232308" flag="0"/>
			<psa10 value="0.0822050256795099" flag="0"/>
			<psa30 value="0.00316772651300176" flag="0"/>
		</comp>
		<comp name="--.HGN" depth="0.0">
			<acc value="0.134593019359628" flag="0"/>
			<vel value="0.0711090537718099" flag="0"/>
			<psa03 value="0.405288223355746" flag="0"/>
			<psa10 value="0.0418971792325034" flag="0"/>
			<psa30 value="0.00289456362563442" flag="0"/>
		</comp>
		<comp name="--.HGZ" depth="0.0">
			<acc value="0.0736691189026058" flag="0"/>
			<vel value="0.0316932329144304" flag="0"/>
			<psa03 value="0.153411725273894" flag="0"/>
			<psa10 value="0.0240441346809201" flag="0"/>
			<psa30 value="0.00301168221749967" flag="0"/>
		</comp>
	</station>
	<station code="CRL" name="CRL" netid="IT" source="Italian Strong Motion Network (RAN)" insttype="" lat="37.813" lon="13.307">
		<comp name="--.HGE" depth="0.0">
			<acc value="0.0428216699523927" flag="0"/>
			<vel value="0.00961147242740968" flag="0"/>
			<psa03 value="0.0319478273242684" flag="0"/>
			<psa10 value="0.013997804160828" flag="0"/>
			<psa30 value="0.00125869431982134" flag="0"/>
		</comp>
		<comp name="--.HGN" depth="0.0">
			<acc value="0.0326873137366984" flag="0"/>
			<vel value="0.0104036175137359" flag="0"/>
			<psa03 value="0.0306326620760252" flag="0"/>
			<psa10 value="0.0125237568249262" flag="0"/>
			<psa30 value="0.00193218049747531" flag="0"/>
		</comp>
		<comp name="--.HGZ" depth="0.0">
			<acc value="0.0695958718183836" flag="0"/>
			<vel value="0.00674451978680572" flag="0"/>
			<psa03 value="0.0224494559162782" flag="0"/>
			<psa10 value="0.00843080599952122" flag="0"/>
			<psa30 value="0.000909755475168715" flag="0"/>
		</comp>
	</station>
	<station code="CSG" name="CSG" netid="IT" source="Italian Strong Motion Network (RAN)" insttype="" lat="38.0171" lon="12.8837">
		<comp name="--.HNE" depth="0.0">
			<acc value="0.00327674327524798" flag="0"/>
			<vel value="0.00184447498097402" flag="0"/>
			<psa03 value="0.00887111826700633" flag="0"/>
			<psa10 value="0.00324311734060742" flag="0"/>
			<psa30 value="0.000484611113524589" flag="0"/>
		</comp>
		<comp name="--.HNN" depth="0.0">
			<acc value="0.00369570780543416" flag="0"/>
			<vel value="0.00284289692380807" flag="0"/>
			<psa03 value="0.00968936713343631" flag="0"/>
			<psa10 value="0.00598402063074873" flag="0"/>
			<psa30 value="0.000310418610584496" flag="0"/>
		</comp>
		<comp name="--.HNZ" depth="0.0">
			<acc value="0.00229986984649514" flag="0"/>
			<vel value="0.00133304264800875" flag="0"/>
			<psa03 value="0.00575250933071964" flag="0"/>
			<psa10 value="0.00251135878706953" flag="0"/>
			<psa30 value="0.000231059942003841" flag="0"/>
		</comp>
	</station>
	<station code="CSLA" name="CSLA" netid="IT" source="Italian Strong Motion Network (RAN)" insttype="" lat="37.789" lon="14.0412">
		<comp name="--.HNE" depth="0.0">
			<acc value="0.178896309624931" flag="0"/>
			<vel value="0.0953958324851938" flag="0"/>
			<psa03 value="0.69842543392397" flag="0"/>
			<psa10 value="0.106880550311916" flag="0"/>
			<psa30 value="0.00757695693621124" flag="0"/>
		</comp>
		<comp name="--.HNN" depth="0.0">
			<acc value="0.21902399757806" flag="0"/>
			<vel value="0.11111325925507" flag="0"/>
			<psa03 value="0.492030136248434" flag="0"/>
			<psa10 value="0.102995172924732" flag="0"/>
			<psa30 value="0.0135686580236692" flag="0"/>
		</comp>
		<comp name="--.HNZ" depth="0.0">
			<acc value="0.0942686071054827" flag="0"/>
			<vel value="0.0788619989350103" flag="0"/>
			<psa03 value="0.206018418542476" flag="0"/>
			<psa10 value="0.0920667239686229" flag="0"/>
			<psa30 value="0.0083962062074548" flag="0"/>
		</comp>
	</station>
	<station code="CTU" name="CTU" netid="IT" source="Italian Strong Motion Network (RAN)" insttype="" lat="37.8232" lon="13.8904">
		<comp name="--.HNE" depth="0.0">
			<acc value="0.0603095233197987" flag="0"/>
			<vel value="0.0321951522224842" flag="0"/>
			<psa03 value="0.170472772151185" flag="0"/>
			<psa10 value="0.0466180819691408" flag="0"/>
			<psa30 value="0.00304367579525051" flag="0"/>
		</comp>
		<comp name="--.HNN" depth="0.0">
			<acc value="0.0946581516537823" flag="0"/>
			<vel value="0.0423737863633054" flag="0"/>
			<psa03 value="0.224297171086791" flag="0"/>
			<psa10 value="0.0278512143812661" flag="0"/>
			<psa30 value="0.00261171509664085" flag="0"/>
		</comp>
		<comp name="--.HNZ" depth="0.0">
			<acc value="0.0544516498616484" flag="0"/>
			<vel value="0.021382345496564" flag="0"/>
			<psa03 value="0.0879644105438249" flag="0"/>
			<psa10 value="0.0217079849224638" flag="0"/>
			<psa30 value="0.00329987172530687" flag="0"/>
		</comp>
	</station>
	<station code="CTV" name="CTV" netid="IT" source="Italian Strong Motion Network (RAN)" insttype="" lat="38.3498" lon="16.0804">
		<comp name="--.HNE" depth="0.0">
			<acc value="0.018919985759351" flag="0"/>
			<vel value="0.00506065992604602" flag="0"/>
			<psa03 value="0.00996556902420604" flag="0"/>
			<psa10 value="0.0090565312007449" flag="0"/>
			<psa30 value="0.00110303515399887" flag="0"/>
		</comp>
		<comp name="--.HNN" depth="0.0">
			<acc value="0.0187070925733888" flag="0"/>
			<vel value="0.00357832474232394" flag="0"/>
			<psa03 value="0.00898959161007554" flag="0"/>
			<psa10 value="0.00531701222596543" flag="0"/>
			<psa30 value="0.000593004439883827" flag="0"/>
		</comp>
		<comp name="--.HNZ" depth="0.0">
			<acc value="0.0170812306424678" flag="0"/>
			<vel value="0.00307154043983892" flag="0"/>
			<psa03 value="0.00953255075553755" flag="0"/>
			<psa10 value="0.00622590368556402" flag="0"/>
			<psa30 value="0.000711960236788234" flag="0"/>
		</comp>
	</station>
	<station code="DLNV" name="DLNV" netid="IT" source="Italian Strong Motion Network (RAN)" insttype="" lat="38.237" lon="15.919">
		<comp name="--.HNE" depth="0.0">
			<acc value="0.0154880223579276" flag="0"/>
			<vel value="0.0100914097372027" flag="0"/>
			<psa03 value="0.0637658387572045" flag="0"/>
			<psa10 value="0.0125307538509449" flag="0"/>
			<psa30 value="0.000945687855512565" flag="0"/>
		</comp>
		<comp name="--.HNN" depth="0.0">
			<acc value="0.0165910778089965" flag="0"/>
			<vel value="0.0064664708730184" flag="0"/>
			<psa03 value="0.0601558912825677" flag="0"/>
			<psa10 value="0.00538828007211047" flag="0"/>
			<psa30 value="0.000740313156696696" flag="0"/>
		</comp>
		<comp name="--.HNZ" depth="0.0">
			<acc value="0.021927453652568" flag="0"/>
			<vel value="0.00406954875659937" flag="0"/>
			<psa03 value="0.0165425216421223" flag="0"/>
			<psa10 value="0.0065054706430029" flag="0"/>
			<psa30 value="0.000646407717172191" flag="0"/>
		</comp>
	</station>
	<station code="ERI" name="ERI" netid="IT" source="Italian Strong Motion Network (RAN)" insttype="" lat="38.0395" lon="12.5791">
		<comp name="--.HNE" depth="0.0">
			<acc value="0.00369058477250835" flag="0"/>
			<vel value="0.00223212864022171" flag="0"/>
			<psa03 value="0.00749183223461754" flag="0"/>
			<psa10 value="0.00260006856990728" flag="0"/>
			<psa30 value="0.000462649085731366" flag="0"/>
		</comp>
		<comp name="--.HNN" depth="0.0">
			<acc value="0.00318433267642755" flag="0"/>
			<vel value="0.00235014155386289" flag="0"/>
			<psa03 value="0.00557344603636352" flag="0"/>
			<psa10 value="0.00435245629761897" flag="0"/>
			<psa30 value="0.000474980944323142" flag="0"/>
		</comp>
		<comp name="--.HNZ" depth="0.0">
			<acc value="0.00195909233017984" flag="0"/>
			<vel value="0.00154967616357077" flag="0"/>
			<psa03 value="0.00461470088357743" flag="0"/>
			<psa10 value="0.00199108799355782" flag="0"/>
			<psa30 value="0.000203232135006533" flag="0"/>
		</comp>
	</station>
	<station code="FRR" name="FRR" netid="IT" source="Italian Strong Motion Network (RAN)" insttype="" lat="38.0515" lon="16.1325">
		<comp name="--.HGE" depth="0.0">
			<acc value="0.00853045197884389" flag="0"/>
			<vel value="0.00633640815016832" flag="0"/>
			<psa03 value="0.0273898196494628" flag="0"/>
			<psa10 value="0.0104483393387034" flag="0"/>
			<psa30 value="0.000786533666495298" flag="0"/>
		</comp>
		<comp name="--.HGN" depth="0.0">
			<acc value="0.00815825749072461" flag="0"/>
			<vel value="0.00612949097684322" flag="0"/>
			<psa03 value="0.0324094855110243" flag="0"/>
			<psa10 value="0.00628357688113018" flag="0"/>
			<psa30 value="0.000943677409830406" flag="0"/>
		</comp>
		<comp name="--.HGZ" depth="0.0">
			<acc value="0.00492776348730761" flag="0"/>
			<vel value="0.00335581969517751" flag="0"/>
			<psa03 value="0.00806561503657885" flag="0"/>
			<psa10 value="0.006081345203024" flag="0"/>
			<psa30 value="0.000630142420926141" flag="0"/>
		</comp>
	</station>
	<station code="GBL" name="GBL" netid="IT" source="Italian Strong Motion Network (RAN)" insttype="" lat="37.7961" lon="12.9142">
		<comp name="--.HNE" depth="0.0">
			<acc value="0.0184068401566805" flag="0"/>
			<vel value="0.00903383398474353" flag="0"/>
			<psa03 value="0.0620218690611044" flag="0"/>
			<psa10 value="0.0118969403014078" flag="0"/>
			<psa30 value="0.00130800602397973" flag="0"/>
		</comp>
		<comp name="--.HNN" depth="0.0">
			<acc value="0.0154724498780959" flag="0"/>
			<vel value="0.0127983133926201" flag="0"/>
			<psa03 value="0.0403716145254954" flag="0"/>
			<psa10 value="0.015761375363765" flag="0"/>
			<psa30 value="0.00122084879190751" flag="0"/>
		</comp>
		<comp name="--.HNZ" depth="0.0">
			<acc value="0.00931069547328712" flag="0"/>
			<vel value="0.00744910040697849" flag="0"/>
			<psa03 value="0.0261392993086275" flag="0"/>
			<psa10 value="0.00767387226262599" flag="0"/>
			<psa30 value="0.00135696530895874" flag="0"/>
		</comp>
	</station>
	<station code="GEA" name="GEA" netid="IT" source="Italian Strong Motion Network (RAN)" insttype="" lat="37.0562" lon="14.3146">
		<comp name="--.HNE" depth="0.0">
			<acc value="0.0864165860100887" flag="0"/>
			<vel value="0.0591100102582494" flag="0"/>
			<psa03 value="0.171038726309537" flag="0"/>
			<psa10 value="0.0680245637935041" flag="0"/>
			<psa30 value="0.00458450245078779" flag="0"/>
		</comp>
		<comp name="--.HNN" depth="0.0">
			<acc value="0.0603410592032932" flag="0"/>
			<vel value="0.040210352543985" flag="0"/>
			<psa03 value="0.106721132251251" flag="0"/>
			<psa10 value="0.038884878432359" flag="0"/>
			<psa30 value="0.00484774488930742" flag="0"/>
		</comp>
		<comp name="--.HNZ" depth="0.0">
			<acc value="0.0263727718371796" flag="0"/>
			<vel value="0.0162517605371014" flag="0"/>
			<psa03 value="0.047660688536709" flag="0"/>
			<psa10 value="0.0167579307556689" flag="0"/>
			<psa30 value="0.0016839815555135" flag="0"/>
		</comp>
	</station>
	<station code="GEL" name="GEL" netid="IT" source="Italian Strong Motion Network (RAN)" insttype="" lat="37.0846" lon="14.2691">
		<comp name="--.HNE" depth="0.0">
			<acc value="0.0387453674236899" flag="0"/>
			<vel value="0.0212620280903196" flag="0"/>
			<psa03 value="0.143166421572805" flag="0"/>
			<psa10 value="0.0309538999189558" flag="0"/>
			<psa30 value="0.00276791440241161" flag="0"/>
		</comp>
		<comp name="--.HNN" depth="0.0">
			<acc value="0.030856537765425" flag="0"/>
			<vel value="0.0260361467524835" flag="0"/>
			<psa03 value="0.0877542716231527" flag="0"/>
			<psa10 value="0.030767600702547" flag="0"/>
			<psa30 value="0.00441372238744674" flag="0"/>
		</comp>
		<comp name="--.HNZ" depth="0.0">
			<acc value="0.0140823076581756" flag="0"/>
			<vel value="0.0090060258773911" flag="0"/>
			<psa03 value="0.0473908685791277" flag="0"/>
			<psa10 value="0.0129450447331826" flag="0"/>
			<psa30 value="0.00170874548766914" flag="0"/>
		</comp>
	</station>
	<station code="GMB" name="GMB" netid="IT" source="Italian Strong Motion Network (RAN)" insttype="" lat="38.1666" lon="15.8363">
		<comp name="--.HGE" depth="0.0">
			<acc value="0.00735627442473051" flag="0"/>
			<vel value="0.00445406221995481" flag="0"/>
			<psa03 value="0.0152613339051391" flag="0"/>
			<psa10 value="0.00573375248921261" flag="0"/>
			<psa30 value="0.000881338384342578" flag="0"/>
		</comp>
		<comp name="--.HGN" depth="0.0">
			<acc value="0.00636569050202241" flag="0"/>
			<vel value="0.00598334297839763" flag="0"/>
			<psa03 value="0.0115317092316419" flag="0"/>
			<psa10 value="0.0101286072205197" flag="0"/>
			<psa30 value="0.00136107099760713" flag="0"/>
		</comp>
		<comp name="--.HGZ" depth="0.0">
			<acc value="0.00566868359061818" flag="0"/>
			<vel value="0.00247688757831568" flag="0"/>
			<psa03 value="0.00835318291466447" flag="0"/>
			<psa10 value="0.00583647788801613" flag="0"/>
			<psa30 value="0.000721866413857181" flag="0"/>
		</comp>
	</station>
	<station code="GNGI" name="GNGI" netid="IT" source="Italian Strong Motion Network (RAN)" insttype="" lat="37.7949" lon="14.2003">
		<comp name="--.HNE" depth="0.0">
			<acc value="0.500989893575818" flag="0"/>
			<vel value="0.281471200825397" flag="0"/>
			<psa03 value="0.97223557250186" flag="0"/>
			<psa10 value="0.217223239973572" flag="0"/>
			<psa30 value="0.0134937413941435" flag="0"/>
		</comp>
		<comp name="--.HNN" depth="0.0">
			<acc value="0.754247828624113" flag="0"/>
			<vel value="0.344462311173264" flag="0"/>
			<psa03 value="3.12871092841076" flag="0"/>
			<psa10 value="0.120260731683265" flag="0"/>
			<psa30 value="0.0214327031447304" flag="0"/>
		</comp>
		<comp name="--.HNZ" depth="0.0">
			<acc value="0.330359260065569" flag="0"/>
			<vel value="0.141610529678637" flag="0"/>
			<psa03 value="0.722126087309273" flag="0"/>
			<psa10 value="0.0757948310355743" flag="0"/>
			<psa30 value="0.00589859241946566" flag="0"/>
		</comp>
	</station>
	<station code="GTR" name="GTR" netid="IT" source="Italian Strong Motion Network (RAN)" insttype="" lat="38.4484" lon="15.918">
		<comp name="--.HGE" depth="0.0">
