<?xml version="1.0" encoding="UTF-8" standalone="yes"?>
<!DOCTYPE earthquake SYSTEM "stationlist.dtd">
<stationlist created="" xmlns="ch.ethz.sed.shakemap.usgs.xml">
  <station code="AIO" name="AIO" netid="IV" insttype="" commtype="DIG" lat="37.9712" lon="15.233">
    <comp name="--.HHE">
      <acc value="0.0109607764" flag="0"/>
      <vel value="0.0079568154" flag="0"/>
      <psa03 value="0.0289723833" flag="0"/>
      <psa10 value="0.0090785358" flag="0"/>
      <psa30 value="0.0012060050" flag="0"/>
    </comp>
    <comp name="--.HHN">
      <acc value="0.0129184625" flag="0"/>
      <vel value="0.0109042331" flag="0"/>
      <psa03 value="0.0586098742" flag="0"/>
      <psa10 value="0.0121323060" flag="0"/>
      <psa30 value="0.0010648982" flag="0"/>
    </comp>
    <comp name="--.HHZ">
      <acc value="0.0049541148" flag="0"/>
      <vel value="0.0031867344" flag="0"/>
      <psa03 value="0.0197803992" flag="0"/>
      <psa10 value="0.0030753262" flag="0"/>
      <psa30 value="0.0005590576" flag="0"/>
    </comp>
  </station>
  <station code="ALJA" name="ALJA" netid="IV" insttype="" commtype="DIG" lat="37.749" lon="13.7537">
    <comp name="--.HHE">
      <acc value="0.0745245917" flag="0"/>
      <vel value="0.0317291161" flag="0"/>
      <psa03 value="0.1168178752" flag="0"/>
      <psa10 value="0.0457564994" flag="0"/>
      <psa30 value="0.0033466681" flag="0"/>
    </comp>
    <comp name="--.HHN">
      <acc value="0.0658433169" flag="0"/>
      <vel value="0.0384927131" flag="0"/>
      <psa03 value="0.1460823020" flag="0"/>
      <psa10 value="0.0523968770" flag="0"/>
      <psa30 value="0.0049103325" flag="0"/>
    </comp>
    <comp name="--.HHZ">
      <acc value="0.0289715499" flag="0"/>
      <vel value="0.0178863939" flag="0"/>
      <psa03 value="0.0530020657" flag="0"/>
      <psa10 value="0.0259030457" flag="0"/>
      <psa30 value="0.0040479685" flag="0"/>
    </comp>
  </station>
  <station code="BASIC" name="BASIC" netid="IV" insttype="" commtype="DIG" lat="38.067" lon="15.0688">
    <comp name="--.HHE">
      <acc value="0.0473434899" flag="0"/>
      <vel value="0.0445114133" flag="0"/>
      <psa03 value="0.1538712295" flag="0"/>
      <psa10 value="0.0469519962" flag="0"/>
      <psa30 value="0.0028607385" flag="0"/>
    </comp>
    <comp name="--.HHN">
      <acc value="0.0408191407" flag="0"/>
      <vel value="0.0467404455" flag="0"/>
      <psa03 value="0.1404590151" flag="0"/>
      <psa10 value="0.0890621021" flag="0"/>
      <psa30 value="0.0038552015" flag="0"/>
    </comp>
    <comp name="--.HHZ">
      <acc value="0.0457169663" flag="0"/>
      <vel value="0.0187618958" flag="0"/>
      <psa03 value="0.0863956006" flag="0"/>
      <psa10 value="0.0186614783" flag="0"/>
      <psa30 value="0.0018536728" flag="0"/>
    </comp>
  </station>
  <station code="CIMI" name="CIMI" netid="IV" insttype="" commtype="DIG" lat="37.8815" lon="13.5726">
    <comp name="--.HHE">
      <acc value="0.0279975433" flag="0"/>
      <vel value="0.0252201987" flag="0"/>
      <psa03 value="0.0596230211" flag="0"/>
      <psa10 value="0.0390286055" flag="0"/>
      <psa30 value="0.0023891128" flag="0"/>
    </comp>
    <comp name="--.HHN">
      <acc value="0.0286633006" flag="0"/>
      <vel value="0.0240559598" flag="0"/>
      <psa03 value="0.0714573746" flag="0"/>
      <psa10 value="0.0309624556" flag="0"/>
      <psa30 value="0.0021583534" flag="0"/>
    </comp>
    <comp name="--.HHZ">
      <acc value="0.0250537239" flag="0"/>
      <vel value="0.0186174055" flag="0"/>
      <psa03 value="0.0817140623" flag="0"/>
      <psa10 value="0.0167429709" flag="0"/>
      <psa30 value="0.0029312575" flag="0"/>
    </comp>
  </station>
  <station code="CORL" name="CORL" netid="IV" insttype="" commtype="DIG" lat="37.8943" lon="13.3038">
    <comp name="--.HNE">
      <acc value="0.0155324313" flag="0"/>
      <vel value="0.0130989456" flag="0"/>
      <psa03 value="0.0433100713" flag="0"/>
      <psa10 value="0.0183008429" flag="0"/>
      <psa30 value="0.0017890713" flag="0"/>
    </comp>
    <comp name="--.HNN">
      <acc value="0.0171365584" flag="0"/>
      <vel value="0.0104255891" flag="0"/>
      <psa03 value="0.0359480908" flag="0"/>
      <psa10 value="0.0186967784" flag="0"/>
      <psa30 value="0.0020078772" flag="0"/>
    </comp>
    <comp name="--.HNZ">
      <acc value="0.0054844295" flag="0"/>
      <vel value="0.0045671306" flag="0"/>
      <psa03 value="0.0184475015" flag="0"/>
      <psa10 value="0.0065908717" flag="0"/>
      <psa30 value="0.0008649775" flag="0"/>
    </comp>
  </station>
  <station code="CSLB" name="CSLB" netid="IV" insttype="" commtype="DIG" lat="37.9374" lon="14.0579">
    <comp name="--.HHE">
      <acc value="0.0918194889" flag="0"/>
      <vel value="0.0332662481" flag="0"/>
      <psa03 value="0.1693050076" flag="0"/>
      <psa10 value="0.0318098966" flag="0"/>
      <psa30 value="0.0022532871" flag="0"/>
    </comp>
    <comp name="--.HHN">
      <acc value="0.1301004319" flag="0"/>
      <vel value="0.0399989023" flag="0"/>
      <psa03 value="0.2385938046" flag="0"/>
      <psa10 value="0.0255331265" flag="0"/>
      <psa30 value="0.0026610413" flag="0"/>
    </comp>
    <comp name="--.HHZ">
      <acc value="0.0651712936" flag="0"/>
      <vel value="0.0325286880" flag="0"/>
      <psa03 value="0.2040774230" flag="0"/>
      <psa10 value="0.0177487175" flag="0"/>
      <psa30 value="0.0027328253" flag="0"/>
    </comp>
  </station>
  <station code="ECBD" name="ECBD" netid="IV" insttype="" commtype="DIG" lat="37.7802" lon="15.0865">
    <comp name="--.HHE">
      <acc value="0.0429103459" flag="0"/>
      <vel value="0.0262528264" flag="0"/>
      <psa03 value="0.0909006948" flag="0"/>
      <psa10 value="0.0373577771" flag="0"/>
      <psa30 value="0.0027883586" flag="0"/>
    </comp>
    <comp name="--.HHN">
      <acc value="0.0359688176" flag="0"/>
      <vel value="0.0375892943" flag="0"/>
      <psa03 value="0.0876863214" flag="0"/>
      <psa10 value="0.0453043499" flag="0"/>
      <psa30 value="0.0032977885" flag="0"/>
    </comp>
    <comp name="--.HHZ">
      <acc value="0.0200523038" flag="0"/>
      <vel value="0.0160616507" flag="0"/>
      <psa03 value="0.0640961879" flag="0"/>
      <psa10 value="0.0216848071" flag="0"/>
      <psa30 value="0.0014022932" flag="0"/>
    </comp>
  </station>
  <station code="ECHR" name="ECHR" netid="IV" insttype="" commtype="DIG" lat="37.6863" lon="14.9129">
    <comp name="--.HHE">
      <acc value="0.0496792317" flag="0"/>
      <vel value="0.0320016369" flag="0"/>
      <psa03 value="0.1456242173" flag="0"/>
      <psa10 value="0.0624983313" flag="0"/>
      <psa30 value="0.0046400798" flag="0"/>
    </comp>
    <comp name="--.HHN">
      <acc value="0.0431091985" flag="0"/>
      <vel value="0.0317187898" flag="0"/>
      <psa03 value="0.1068038122" flag="0"/>
      <psa10 value="0.0485648260" flag="0"/>
      <psa30 value="0.0029905609" flag="0"/>
    </comp>
    <comp name="--.HHZ">
      <acc value="0.0257955725" flag="0"/>
      <vel value="0.0190147046" flag="0"/>
      <psa03 value="0.0815132658" flag="0"/>
      <psa10 value="0.0182824212" flag="0"/>
      <psa30 value="0.0021252116" flag="0"/>
    </comp>
  </station>
  <station code="ECPN" name="ECPN" netid="IV" insttype="" commtype="DIG" lat="37.7437" lon="14.9865">
    <comp name="--.HHE">
      <acc value="0.0472320000" flag="0"/>
      <vel value="0.0479080151" flag="0"/>
      <psa03 value="0.1689074834" flag="0"/>
      <psa10 value="0.0875245871" flag="0"/>
      <psa30 value="0.0041835645" flag="0"/>
    </comp>
    <comp name="--.HHN">
      <acc value="0.0697898803" flag="0"/>
      <vel value="0.0594727966" flag="0"/>
      <psa03 value="0.1708798128" flag="0"/>
      <psa10 value="0.0824711636" flag="0"/>
      <psa30 value="0.0046114209" flag="0"/>
    </comp>
    <comp name="--.HHZ">
      <acc value="0.0326399146" flag="0"/>
      <vel value="0.0218281720" flag="0"/>
      <psa03 value="0.1135416759" flag="0"/>
      <psa10 value="0.0310129621" flag="0"/>
      <psa30 value="0.0017765909" flag="0"/>
    </comp>
  </station>
  <station code="ECTS" name="ECTS" netid="IV" insttype="" commtype="DIG" lat="37.882" lon="15.121">
    <comp name="--.HHN">
      <acc value="0.0334231642" flag="0"/>
      <vel value="0.0253530048" flag="0"/>
      <psa03 value="0.1185325623" flag="0"/>
      <psa10 value="0.0488064675" flag="0"/>
      <psa30 value="0.0018293501" flag="0"/>
    </comp>
    <comp name="--.HHE">
      <acc value="0.0196911236" flag="0"/>
      <vel value="0.0224408317" flag="0"/>
      <psa03 value="0.0779298467" flag="0"/>
      <psa10 value="0.0369275913" flag="0"/>
      <psa30 value="0.0029078197" flag="0"/>
    </comp>
    <comp name="--.HHZ">
      <acc value="0.0199968081" flag="0"/>
      <vel value="0.0157881101" flag="0"/>
      <psa03 value="0.0380369263" flag="0"/>
      <psa10 value="0.0205607686" flag="0"/>
      <psa30 value="0.0011732018" flag="0"/>
    </comp>
  </station>
  <station code="EFIU" name="EFIU" netid="IV" insttype="" commtype="DIG" lat="37.7896" lon="15.2103">
    <comp name="--.HNE">
      <acc value="0.0393308801" flag="0"/>
      <vel value="0.0245540354" flag="0"/>
      <psa03 value="0.0369195441" flag="0"/>
      <psa10 value="0.0468936202" flag="0"/>
      <psa30 value="0.0048840831" flag="0"/>
    </comp>
    <comp name="--.HNN">
      <acc value="0.0482098989" flag="0"/>
      <vel value="0.0139760184" flag="0"/>
      <psa03 value="0.0295943795" flag="0"/>
      <psa10 value="0.0208593535" flag="0"/>
      <psa30 value="0.0034498065" flag="0"/>
    </comp>
    <comp name="--.HNZ">
      <acc value="0.0324177167" flag="0"/>
      <vel value="0.0190132991" flag="0"/>
      <psa03 value="0.0295091389" flag="0"/>
      <psa10 value="0.0327617415" flag="0"/>
      <psa30 value="0.0023455082" flag="0"/>
    </comp>
  </station>
  <station code="EMCO" name="EMCO" netid="IV" insttype="" commtype="DIG" lat="37.9264" lon="14.9029">
    <comp name="--.HHE">
      <acc value="0.0510684578" flag="0"/>
      <vel value="0.0303049369" flag="0"/>
      <psa03 value="0.1455810169" flag="0"/>
      <psa10 value="0.0315899897" flag="0"/>
      <psa30 value="0.0037269922" flag="0"/>
    </comp>
    <comp name="--.HHN">
      <acc value="0.0654626700" flag="0"/>
      <vel value="0.0310195786" flag="0"/>
      <psa03 value="0.1761261711" flag="0"/>
      <psa10 value="0.0283246635" flag="0"/>
      <psa30 value="0.0016098084" flag="0"/>
    </comp>
    <comp name="--.HHZ">
      <acc value="0.0276447446" flag="0"/>
      <vel value="0.0115120859" flag="0"/>
      <psa03 value="0.0827122855" flag="0"/>
      <psa10 value="0.0127191909" flag="0"/>
      <psa30 value="0.0020435400" flag="0"/>
    </comp>
  </station>
  <station code="EMFO" name="EMFO" netid="IV" insttype="" commtype="DIG" lat="37.7357" lon="15.0902">
    <comp name="--.HHE">
      <acc value="0.0328081884" flag="0"/>
      <vel value="0.0200480905" flag="0"/>
      <psa03 value="0.0955610623" flag="0"/>
      <psa10 value="0.0174152127" flag="0"/>
      <psa30 value="0.0017211137" flag="0"/>
    </comp>
    <comp name="--.HHN">
      <acc value="0.0296612679" flag="0"/>
      <vel value="0.0210146595" flag="0"/>
      <psa03 value="0.0839416295" flag="0"/>
      <psa10 value="0.0313731413" flag="0"/>
      <psa30 value="0.0025974318" flag="0"/>
    </comp>
    <comp name="--.HHZ">
      <acc value="0.0150595614" flag="0"/>
      <vel value="0.0114818918" flag="0"/>
      <psa03 value="0.0493881914" flag="0"/>
      <psa10 value="0.0137381206" flag="0"/>
      <psa30 value="0.0014855022" flag="0"/>
    </comp>
  </station>
  <station code="EMNR" name="EMNR" netid="IV" insttype="" commtype="DIG" lat="37.8168" lon="15.026">
    <comp name="--.HHE">
      <acc value="0.0579635997" flag="0"/>
      <vel value="0.0407669713" flag="0"/>
      <psa03 value="0.1283271372" flag="0"/>
      <psa10 value="0.0492064338" flag="0"/>
      <psa30 value="0.0038133343" flag="0"/>
    </comp>
    <comp name="--.HHZ">
      <acc value="0.0252230348" flag="0"/>
      <vel value="0.0212254457" flag="0"/>
      <psa03 value="0.0789029758" flag="0"/>
      <psa10 value="0.0303846327" flag="0"/>
      <psa30 value="0.0017879263" flag="0"/>
    </comp>
    <comp name="--.HHN">
      <acc value="0.0639696640" flag="0"/>
      <vel value="0.0401227541" flag="0"/>
      <psa03 value="0.1292067820" flag="0"/>
      <psa10 value="0.0496890263" flag="0"/>
      <psa30 value="0.0026093413" flag="0"/>
    </comp>
  </station>
  <station code="EMPL" name="EMPL" netid="IV" insttype="" commtype="DIG" lat="37.679" lon="14.9703">
    <comp name="--.HHE">
      <acc value="0.0655200449" flag="0"/>
      <vel value="0.0382472270" flag="0"/>
      <psa03 value="0.3304222288" flag="0"/>
      <psa10 value="0.0462032412" flag="0"/>
      <psa30 value="0.0023377186" flag="0"/>
    </comp>
    <comp name="--.HHN">
      <acc value="0.0762965016" flag="0"/>
      <vel value="0.0425295271" flag="0"/>
      <psa03 value="0.3031629385" flag="0"/>
      <psa10 value="0.0399652621" flag="0"/>
      <psa30 value="0.0036994810" flag="0"/>
    </comp>
    <comp name="--.HHZ">
      <acc value="0.0443112057" flag="0"/>
      <vel value="0.0229186383" flag="0"/>
      <psa03 value="0.1483027037" flag="0"/>
      <psa10 value="0.0253388307" flag="0"/>
      <psa30 value="0.0016934230" flag="0"/>
    </comp>
  </station>
  <station code="EMSG" name="EMSG" netid="IV" insttype="" commtype="DIG" lat="37.8208" lon="14.9498">
    <comp name="--.HHN">
      <acc value="0.0679698603" flag="0"/>
      <vel value="0.0540015546" flag="0"/>
      <psa03 value="0.2926644236" flag="0"/>
      <psa10 value="0.0590800177" flag="0"/>
      <psa30 value="0.0046753066" flag="0"/>
    </comp>
    <comp name="--.HHE">
      <acc value="0.0615299070" flag="0"/>
      <vel value="0.0369923393" flag="0"/>
      <psa03 value="0.2722467869" flag="0"/>
      <psa10 value="0.0482049847" flag="0"/>
      <psa30 value="0.0031361343" flag="0"/>
    </comp>
    <comp name="--.HHZ">
      <acc value="0.0397854383" flag="0"/>
      <vel value="0.0268505813" flag="0"/>
      <psa03 value="0.1565602248" flag="0"/>
      <psa10 value="0.0339410723" flag="0"/>
      <psa30 value="0.0027679717" flag="0"/>
    </comp>
  </station>
  <station code="ENIC" name="ENIC" netid="IV" insttype="" commtype="DIG" lat="37.6314" lon="15.0216">
    <comp name="--.HHE">
      <acc value="0.0565414257" flag="0"/>
      <vel value="0.0374231109" flag="0"/>
      <psa03 value="0.1723776528" flag="0"/>
      <psa10 value="0.0390042996" flag="0"/>
      <psa30 value="0.0022864656" flag="0"/>
    </comp>
    <comp name="--.HHN">
      <acc value="0.0514869771" flag="0"/>
      <vel value="0.0235769476" flag="0"/>
      <psa03 value="0.1379292450" flag="0"/>
      <psa10 value="0.0232107073" flag="0"/>
      <psa30 value="0.0013373004" flag="0"/>
    </comp>
    <comp name="--.HHZ">
      <acc value="0.0169137366" flag="0"/>
      <vel value="0.0126242709" flag="0"/>
      <psa03 value="0.0557941873" flag="0"/>
      <psa10 value="0.0168947276" flag="0"/>
      <psa30 value="0.0012299997" flag="0"/>
    </comp>
  </station>
  <station code="EPDN" name="EPDN" netid="IV" insttype="" commtype="DIG" lat="37.7659" lon="15.0168">
    <comp name="--.HHE">
      <acc value="0.0514347754" flag="0"/>
      <vel value="0.0499267967" flag="0"/>
      <psa03 value="0.1229584628" flag="0"/>
      <psa10 value="0.1005414997" flag="0"/>
      <psa30 value="0.0060367663" flag="0"/>
    </comp>
    <comp name="--.HHN">
      <acc value="0.0296046690" flag="0"/>
      <vel value="0.0330303116" flag="0"/>
      <psa03 value="0.0861927404" flag="0"/>
      <psa10 value="0.0580979899" flag="0"/>
      <psa30 value="0.0040505171" flag="0"/>
    </comp>
    <comp name="--.HHZ">
      <acc value="0.0281207475" flag="0"/>
      <vel value="0.0217357673" flag="0"/>
      <psa03 value="0.0905570533" flag="0"/>
      <psa10 value="0.0285488705" flag="0"/>
      <psa30 value="0.0015116949" flag="0"/>
    </comp>
  </station>
  <station code="EPIT" name="EPIT" netid="IV" insttype="" commtype="DIG" lat="37.8113" lon="15.0567">
    <comp name="--.HHN">
      <acc value="0.0506041452" flag="0"/>
      <vel value="0.0369463791" flag="0"/>
      <psa03 value="0.1580718714" flag="0"/>
      <psa10 value="0.0451066069" flag="0"/>
      <psa30 value="0.0049607886" flag="0"/>
    </comp>
  </station>
  <station code="EPMN" name="EPMN" netid="IV" insttype="" commtype="DIG" lat="37.8204" lon="15.1773">
    <comp name="--.HHN">
      <acc value="0.0000000000" flag="0"/>
      <vel value="-100.0000000000" flag="0"/>
      <psa03 value="0.0000000000" flag="0"/>
      <psa10 value="0.0000000000" flag="0"/>
      <psa30 value="0.0000000000" flag="0"/>
    </comp>
    <comp name="--.HHZ">
      <acc value="0.0118571642" flag="0"/>
      <vel value="0.0115045208" flag="0"/>
      <psa03 value="0.0417887145" flag="0"/>
      <psa10 value="0.0114047580" flag="0"/>
      <psa30 value="0.0008917357" flag="0"/>
    </comp>
    <comp name="--.HHE">
      <acc value="0.0000360895" flag="0"/>
      <vel value="0.0000035253" flag="0"/>
      <psa03 value="0.0000128494" flag="0"/>
      <psa10 value="0.0000029139" flag="0"/>
      <psa30 value="0.0000007130" flag="0"/>
    </comp>
  </station>
  <station code="EPOZ" name="EPOZ" netid="IV" insttype="" commtype="DIG" lat="37.6719" lon="15.1885">
    <comp name="--.HHN">
      <acc value="0.0181573085" flag="0"/>
      <vel value="0.0156863733" flag="0"/>
      <psa03 value="0.0380728255" flag="0"/>
      <psa10 value="0.0322673529" flag="0"/>
      <psa30 value="0.0018355141" flag="0"/>
    </comp>
    <comp name="--.HHE">
      <acc value="0.0237803706" flag="0"/>
      <vel value="0.0272907721" flag="0"/>
      <psa03 value="0.0523691909" flag="0"/>
      <psa10 value="0.0344601565" flag="0"/>
      <psa30 value="0.0027108895" flag="0"/>
    </comp>
    <comp name="--.HHZ">
      <acc value="0.0105001011" flag="0"/>
      <vel value="0.0099127627" flag="0"/>
      <psa03 value="0.0262852320" flag="0"/>
      <psa10 value="0.0161401534" flag="0"/>
      <psa30 value="0.0012087429" flag="0"/>
    </comp>
  </station>
  <station code="EPZF" name="EPZF" netid="IV" insttype="" commtype="DIG" lat="37.824" lon="14.857">
    <comp name="--.HHE">
      <acc value="0.0457175228" flag="0"/>
      <vel value="0.0344470219" flag="0"/>
      <psa03 value="0.2076640374" flag="0"/>
      <psa10 value="0.0408695379" flag="0"/>
      <psa30 value="0.0027659117" flag="0"/>
    </comp>
    <comp name="--.HHN">
      <acc value="0.0534803131" flag="0"/>
      <vel value="0.0313578349" flag="0"/>
      <psa03 value="0.1988165476" flag="0"/>
      <psa10 value="0.0393694496" flag="0"/>
      <psa30 value="0.0031272726" flag="0"/>
    </comp>
    <comp name="--.HHZ">
      <acc value="0.0200721041" flag="0"/>
      <vel value="0.0153019218" flag="0"/>
      <psa03 value="0.0913637815" flag="0"/>
      <psa10 value="0.0211413510" flag="0"/>
      <psa30 value="0.0021727374" flag="0"/>
    </comp>
  </station>
  <station code="ESAL" name="ESAL" netid="IV" insttype="" commtype="DIG" lat="37.7551" lon="15.1345">
    <comp name="--.HHE">
      <acc value="0.0330361221" flag="0"/>
      <vel value="0.0337685325" flag="0"/>
      <psa03 value="0.1240614168" flag="0"/>
      <psa10 value="0.0437142012" flag="0"/>
      <psa30 value="0.0035103156" flag="0"/>
    </comp>
    <comp name="--.HHN">
      <acc value="0.0295381677" flag="0"/>
      <vel value="0.0188529531" flag="0"/>
      <psa03 value="0.0857467885" flag="0"/>
      <psa10 value="0.0311932544" flag="0"/>
      <psa30 value="0.0024662099" flag="0"/>
    </comp>
    <comp name="--.HHZ">
      <acc value="0.0157368464" flag="0"/>
      <vel value="0.0120761310" flag="0"/>
      <psa03 value="0.0484574936" flag="0"/>
