<?xml version="1.0" encoding="UTF-8" standalone="yes"?>
<!DOCTYPE earthquake SYSTEM "stationlist.dtd">
<stationlist created="" xmlns="ch.ethz.sed.shakemap.usgs.xml">
  <station code="AIO" name="AIO" netid="IV" insttype="" commtype="DIG" lat="37.9712" lon="15.233">
    <comp name="--.HHE">
      <acc value="0.0109607763" flag="0"/>
      <vel value="0.0079568165" flag="0"/>
      <psa03 value="0.0289723833" flag="0"/>
      <psa10 value="0.0090785350" flag="0"/>
      <psa30 value="0.0012059840" flag="0"/>
    </comp>
    <comp name="--.HHN">
      <acc value="0.0129184625" flag="0"/>
      <vel value="0.0109042345" flag="0"/>
      <psa03 value="0.0586098742" flag="0"/>
      <psa10 value="0.0121323055" flag="0"/>
      <psa30 value="0.0010648064" flag="0"/>
    </comp>
    <comp name="--.HHZ">
      <acc value="0.0049541148" flag="0"/>
      <vel value="0.0031867335" flag="0"/>
      <psa03 value="0.0197803992" flag="0"/>
      <psa10 value="0.0030753262" flag="0"/>
      <psa30 value="0.0005590309" flag="0"/>
    </comp>
  </station>
  <station code="ALJA" name="ALJA" netid="IV" insttype="" commtype="DIG" lat="37.749" lon="13.7537">
    <comp name="--.HHE">
      <acc value="0.0745245917" flag="0"/>
      <vel value="0.0317291381" flag="0"/>
      <psa03 value="0.1168178752" flag="0"/>
      <psa10 value="0.0457565138" flag="0"/>
      <psa30 value="0.0033472511" flag="0"/>
    </comp>
    <comp name="--.HHN">
      <acc value="0.0658433169" flag="0"/>
      <vel value="0.0384927073" flag="0"/>
      <psa03 value="0.1460823020" flag="0"/>
      <psa10 value="0.0523968279" flag="0"/>
      <psa30 value="0.0049105547" flag="0"/>
    </comp>
    <comp name="--.HHZ">
      <acc value="0.0289715496" flag="0"/>
      <vel value="0.0178864072" flag="0"/>
      <psa03 value="0.0530020657" flag="0"/>
      <psa10 value="0.0259030452" flag="0"/>
      <psa30 value="0.0040471695" flag="0"/>
    </comp>
  </station>
  <station code="BASIC" name="BASIC" netid="IV" insttype="" commtype="DIG" lat="38.067" lon="15.0688">
    <comp name="--.HHN">
      <acc value="0.0408191405" flag="0"/>
      <vel value="0.0467404467" flag="0"/>
      <psa03 value="0.1404590151" flag="0"/>
      <psa10 value="0.0890621035" flag="0"/>
      <psa30 value="0.0038556910" flag="0"/>
    </comp>
    <comp name="--.HHE">
      <acc value="0.0473434897" flag="0"/>
      <vel value="0.0445114112" flag="0"/>
      <psa03 value="0.1538712295" flag="0"/>
      <psa10 value="0.0469519951" flag="0"/>
      <psa30 value="0.0028609703" flag="0"/>
    </comp>
    <comp name="--.HHZ">
      <acc value="0.0457169671" flag="0"/>
      <vel value="0.0187618944" flag="0"/>
      <psa03 value="0.0863956006" flag="0"/>
      <psa10 value="0.0186614783" flag="0"/>
      <psa30 value="0.0018539638" flag="0"/>
    </comp>
  </station>
  <station code="CIMI" name="CIMI" netid="IV" insttype="" commtype="DIG" lat="37.8815" lon="13.5726">
    <comp name="--.HHN">
      <acc value="0.0286633002" flag="0"/>
      <vel value="0.0240559634" flag="0"/>
      <psa03 value="0.0714573746" flag="0"/>
      <psa10 value="0.0309624614" flag="0"/>
      <psa30 value="0.0021573985" flag="0"/>
    </comp>
    <comp name="--.HHZ">
      <acc value="0.0250537241" flag="0"/>
      <vel value="0.0186173989" flag="0"/>
      <psa03 value="0.0817140623" flag="0"/>
      <psa10 value="0.0167429701" flag="0"/>
      <psa30 value="0.0029314814" flag="0"/>
    </comp>
    <comp name="--.HHE">
      <acc value="0.0279975421" flag="0"/>
      <vel value="0.0252201991" flag="0"/>
      <psa03 value="0.0596230211" flag="0"/>
      <psa10 value="0.0390286012" flag="0"/>
      <psa30 value="0.0023886266" flag="0"/>
    </comp>
  </station>
  <station code="CORL" name="CORL" netid="IV" insttype="" commtype="DIG" lat="37.8943" lon="13.3038">
    <comp name="--.HHE">
      <acc value="0.0153499400" flag="0"/>
      <vel value="0.0130114349" flag="0"/>
      <psa03 value="0.0436501117" flag="0"/>
      <psa10 value="0.0181846821" flag="0"/>
      <psa30 value="0.0017906283" flag="0"/>
    </comp>
    <comp name="--.HHN">
      <acc value="0.0171124403" flag="0"/>
      <vel value="0.0103068369" flag="0"/>
      <psa03 value="0.0355895616" flag="0"/>
      <psa10 value="0.0185391245" flag="0"/>
      <psa30 value="0.0019863567" flag="0"/>
    </comp>
    <comp name="--.HHZ">
      <acc value="0.0054848882" flag="0"/>
      <vel value="0.0045508497" flag="0"/>
      <psa03 value="0.0186152303" flag="0"/>
      <psa10 value="0.0066020695" flag="0"/>
      <psa30 value="0.0008549850" flag="0"/>
    </comp>
  </station>
  <station code="CRJA" name="CRJA" netid="IV" insttype="" commtype="DIG" lat="37.8016" lon="13.0043">
    <comp name="--.HNE">
      <acc value="0.0076193021" flag="0"/>
      <vel value="0.0085113469" flag="0"/>
      <psa03 value="0.0164879929" flag="0"/>
      <psa10 value="0.0178886248" flag="0"/>
      <psa30 value="0.0013448972" flag="0"/>
    </comp>
    <comp name="--.HNN">
      <acc value="0.0077874741" flag="0"/>
      <vel value="0.0069170831" flag="0"/>
      <psa03 value="0.0246865572" flag="0"/>
      <psa10 value="0.0136142920" flag="0"/>
      <psa30 value="0.0016017440" flag="0"/>
    </comp>
    <comp name="--.HNZ">
      <acc value="0.0055971611" flag="0"/>
      <vel value="0.0069718116" flag="0"/>
      <psa03 value="0.0133792540" flag="0"/>
      <psa10 value="0.0127728923" flag="0"/>
      <psa30 value="0.0020406361" flag="0"/>
    </comp>
  </station>
  <station code="CSLB" name="CSLB" netid="IV" insttype="" commtype="DIG" lat="37.9374" lon="14.0579">
    <comp name="--.HHN">
      <acc value="0.1301004316" flag="0"/>
      <vel value="0.0399989044" flag="0"/>
      <psa03 value="0.2385938046" flag="0"/>
      <psa10 value="0.0255330973" flag="0"/>
      <psa30 value="0.0026607989" flag="0"/>
    </comp>
    <comp name="--.HHE">
      <acc value="0.0918194891" flag="0"/>
      <vel value="0.0332662481" flag="0"/>
      <psa03 value="0.1693050076" flag="0"/>
      <psa10 value="0.0318098952" flag="0"/>
      <psa30 value="0.0022534947" flag="0"/>
    </comp>
    <comp name="--.HHZ">
      <acc value="0.0651712933" flag="0"/>
      <vel value="0.0325286889" flag="0"/>
      <psa03 value="0.2040774230" flag="0"/>
      <psa10 value="0.0177487227" flag="0"/>
      <psa30 value="0.0027334658" flag="0"/>
    </comp>
  </station>
  <station code="ECBD" name="ECBD" netid="IV" insttype="" commtype="DIG" lat="37.7802" lon="15.0865">
    <comp name="--.HHE">
      <acc value="0.0429103462" flag="0"/>
      <vel value="0.0262528124" flag="0"/>
      <psa03 value="0.0909006948" flag="0"/>
      <psa10 value="0.0373577781" flag="0"/>
      <psa30 value="0.0027887386" flag="0"/>
    </comp>
    <comp name="--.HHN">
      <acc value="0.0359688172" flag="0"/>
      <vel value="0.0375892832" flag="0"/>
      <psa03 value="0.0876863214" flag="0"/>
      <psa10 value="0.0453043720" flag="0"/>
      <psa30 value="0.0032975874" flag="0"/>
    </comp>
    <comp name="--.HHZ">
      <acc value="0.0200523039" flag="0"/>
      <vel value="0.0160616607" flag="0"/>
      <psa03 value="0.0640961879" flag="0"/>
      <psa10 value="0.0216848084" flag="0"/>
      <psa30 value="0.0014028110" flag="0"/>
    </comp>
  </station>
  <station code="ECHR" name="ECHR" netid="IV" insttype="" commtype="DIG" lat="37.6863" lon="14.9129">
    <comp name="--.HHE">
      <acc value="0.0496792316" flag="0"/>
      <vel value="0.0320016321" flag="0"/>
      <psa03 value="0.1456242173" flag="0"/>
      <psa10 value="0.0624983313" flag="0"/>
      <psa30 value="0.0046401873" flag="0"/>
    </comp>
    <comp name="--.HHN">
      <acc value="0.0431091980" flag="0"/>
      <vel value="0.0317188018" flag="0"/>
      <psa03 value="0.1068038122" flag="0"/>
      <psa10 value="0.0485648261" flag="0"/>
      <psa30 value="0.0029901573" flag="0"/>
    </comp>
    <comp name="--.HHZ">
      <acc value="0.0257955728" flag="0"/>
      <vel value="0.0190146913" flag="0"/>
      <psa03 value="0.0815132658" flag="0"/>
      <psa10 value="0.0182824212" flag="0"/>
      <psa30 value="0.0021252058" flag="0"/>
    </comp>
  </station>
  <station code="ECPN" name="ECPN" netid="IV" insttype="" commtype="DIG" lat="37.7437" lon="14.9865">
    <comp name="--.HHE">
      <acc value="0.0472320010" flag="0"/>
      <vel value="0.0479080281" flag="0"/>
      <psa03 value="0.1689074834" flag="0"/>
      <psa10 value="0.0875245868" flag="0"/>
      <psa30 value="0.0041824466" flag="0"/>
    </comp>
    <comp name="--.HHN">
      <acc value="0.0697898812" flag="0"/>
      <vel value="0.0594728041" flag="0"/>
      <psa03 value="0.1708798128" flag="0"/>
      <psa10 value="0.0824711636" flag="0"/>
      <psa30 value="0.0046115093" flag="0"/>
    </comp>
    <comp name="--.HHZ">
      <acc value="0.0326399144" flag="0"/>
      <vel value="0.0218281662" flag="0"/>
      <psa03 value="0.1135416759" flag="0"/>
      <psa10 value="0.0310129621" flag="0"/>
      <psa30 value="0.0017764364" flag="0"/>
    </comp>
  </station>
  <station code="ECTS" name="ECTS" netid="IV" insttype="" commtype="DIG" lat="37.882" lon="15.121">
    <comp name="--.HHE">
      <acc value="0.0196911234" flag="0"/>
      <vel value="0.0224408282" flag="0"/>
      <psa03 value="0.0779298467" flag="0"/>
      <psa10 value="0.0369275910" flag="0"/>
      <psa30 value="0.0029082555" flag="0"/>
    </comp>
    <comp name="--.HHN">
      <acc value="0.0334231644" flag="0"/>
      <vel value="0.0253530180" flag="0"/>
      <psa03 value="0.1185325623" flag="0"/>
      <psa10 value="0.0488064753" flag="0"/>
      <psa30 value="0.0018293743" flag="0"/>
    </comp>
    <comp name="--.HHZ">
      <acc value="0.0199968083" flag="0"/>
      <vel value="0.0157881112" flag="0"/>
      <psa03 value="0.0380369263" flag="0"/>
      <psa10 value="0.0205607682" flag="0"/>
      <psa30 value="0.0011734262" flag="0"/>
    </comp>
  </station>
  <station code="EFIU" name="EFIU" netid="IV" insttype="" commtype="DIG" lat="37.7896" lon="15.2103">
    <comp name="--.HNE">
      <acc value="0.0393311318" flag="0"/>
      <vel value="0.0245540344" flag="0"/>
      <psa03 value="0.0369195441" flag="0"/>
      <psa10 value="0.0468936212" flag="0"/>
      <psa30 value="0.0048831161" flag="0"/>
    </comp>
    <comp name="--.HNZ">
      <acc value="0.0324176650" flag="0"/>
      <vel value="0.0190133065" flag="0"/>
      <psa03 value="0.0295091389" flag="0"/>
      <psa10 value="0.0327617414" flag="0"/>
      <psa30 value="0.0023457805" flag="0"/>
    </comp>
    <comp name="--.HNN">
      <acc value="0.0482099326" flag="0"/>
      <vel value="0.0139760184" flag="0"/>
      <psa03 value="0.0295943795" flag="0"/>
      <psa10 value="0.0208593531" flag="0"/>
      <psa30 value="0.0034498870" flag="0"/>
    </comp>
  </station>
  <station code="EMCO" name="EMCO" netid="IV" insttype="" commtype="DIG" lat="37.9264" lon="14.9029">
    <comp name="--.HHE">
      <acc value="0.0510684665" flag="0"/>
      <vel value="0.0303049388" flag="0"/>
      <psa03 value="0.1455810169" flag="0"/>
      <psa10 value="0.0315899903" flag="0"/>
      <psa30 value="0.0037268326" flag="0"/>
    </comp>
    <comp name="--.HHZ">
      <acc value="0.0276447456" flag="0"/>
      <vel value="0.0115120837" flag="0"/>
      <psa03 value="0.0827122855" flag="0"/>
      <psa10 value="0.0127191908" flag="0"/>
      <psa30 value="0.0020430327" flag="0"/>
    </comp>
    <comp name="--.HHN">
      <acc value="0.0654626636" flag="0"/>
      <vel value="0.0310195781" flag="0"/>
      <psa03 value="0.1761261711" flag="0"/>
      <psa10 value="0.0283246633" flag="0"/>
      <psa30 value="0.0016093708" flag="0"/>
    </comp>
  </station>
  <station code="EMFO" name="EMFO" netid="IV" insttype="" commtype="DIG" lat="37.7357" lon="15.0902">
    <comp name="--.HHE">
      <acc value="0.0328081887" flag="0"/>
      <vel value="0.0200481084" flag="0"/>
      <psa03 value="0.0955610623" flag="0"/>
      <psa10 value="0.0174152141" flag="0"/>
      <psa30 value="0.0017207685" flag="0"/>
    </comp>
    <comp name="--.HHZ">
      <acc value="0.0150595619" flag="0"/>
      <vel value="0.0114818905" flag="0"/>
      <psa03 value="0.0493881914" flag="0"/>
      <psa10 value="0.0137381206" flag="0"/>
      <psa30 value="0.0014853024" flag="0"/>
    </comp>
    <comp name="--.HHN">
      <acc value="0.0296612677" flag="0"/>
      <vel value="0.0210146527" flag="0"/>
      <psa03 value="0.0839416295" flag="0"/>
      <psa10 value="0.0313731412" flag="0"/>
      <psa30 value="0.0025972561" flag="0"/>
    </comp>
  </station>
  <station code="EMNR" name="EMNR" netid="IV" insttype="" commtype="DIG" lat="37.8168" lon="15.026">
    <comp name="--.HHE">
      <acc value="0.0579635996" flag="0"/>
      <vel value="0.0407669518" flag="0"/>
      <psa03 value="0.1283271372" flag="0"/>
      <psa10 value="0.0492064330" flag="0"/>
      <psa30 value="0.0038100573" flag="0"/>
    </comp>
    <comp name="--.HHN">
      <acc value="0.0639696641" flag="0"/>
      <vel value="0.0401227423" flag="0"/>
      <psa03 value="0.1292067820" flag="0"/>
      <psa10 value="0.0496890156" flag="0"/>
      <psa30 value="0.0026086594" flag="0"/>
    </comp>
    <comp name="--.HHZ">
      <acc value="0.0252230351" flag="0"/>
      <vel value="0.0212254194" flag="0"/>
      <psa03 value="0.0789029758" flag="0"/>
      <psa10 value="0.0303846331" flag="0"/>
      <psa30 value="0.0017879236" flag="0"/>
    </comp>
  </station>
  <station code="EMPL" name="EMPL" netid="IV" insttype="" commtype="DIG" lat="37.679" lon="14.9703">
    <comp name="--.HHE">
      <acc value="0.0655200457" flag="0"/>
      <vel value="0.0382472299" flag="0"/>
      <psa03 value="0.3304222288" flag="0"/>
      <psa10 value="0.0462032348" flag="0"/>
      <psa30 value="0.0023395078" flag="0"/>
    </comp>
    <comp name="--.HHN">
      <acc value="0.0762965065" flag="0"/>
      <vel value="0.0425295226" flag="0"/>
      <psa03 value="0.3031629385" flag="0"/>
      <psa10 value="0.0399652621" flag="0"/>
      <psa30 value="0.0036991905" flag="0"/>
    </comp>
    <comp name="--.HHZ">
      <acc value="0.0443112004" flag="0"/>
      <vel value="0.0229186393" flag="0"/>
      <psa03 value="0.1483027037" flag="0"/>
      <psa10 value="0.0253388307" flag="0"/>
      <psa30 value="0.0016935982" flag="0"/>
    </comp>
  </station>
  <station code="EMSG" name="EMSG" netid="IV" insttype="" commtype="DIG" lat="37.8208" lon="14.9498">
    <comp name="--.HHE">
      <acc value="0.0615299069" flag="0"/>
      <vel value="0.0369923176" flag="0"/>
      <psa03 value="0.2722467869" flag="0"/>
      <psa10 value="0.0482049777" flag="0"/>
      <psa30 value="0.0031367521" flag="0"/>
    </comp>
    <comp name="--.HHN">
      <acc value="0.0679698601" flag="0"/>
      <vel value="0.0540015775" flag="0"/>
      <psa03 value="0.2926644237" flag="0"/>
      <psa10 value="0.0590800180" flag="0"/>
      <psa30 value="0.0046757988" flag="0"/>
    </comp>
    <comp name="--.HHZ">
      <acc value="0.0397854384" flag="0"/>
      <vel value="0.0268505799" flag="0"/>
      <psa03 value="0.1565602248" flag="0"/>
      <psa10 value="0.0339410708" flag="0"/>
      <psa30 value="0.0027684570" flag="0"/>
    </comp>
  </station>
  <station code="ENIC" name="ENIC" netid="IV" insttype="" commtype="DIG" lat="37.6314" lon="15.0216">
    <comp name="--.HHE">
      <acc value="0.0565414258" flag="0"/>
      <vel value="0.0374231102" flag="0"/>
      <psa03 value="0.1723776528" flag="0"/>
      <psa10 value="0.0390042995" flag="0"/>
      <psa30 value="0.0022864282" flag="0"/>
    </comp>
    <comp name="--.HHN">
      <acc value="0.0514869772" flag="0"/>
      <vel value="0.0235769466" flag="0"/>
      <psa03 value="0.1379292450" flag="0"/>
      <psa10 value="0.0232107101" flag="0"/>
      <psa30 value="0.0013394409" flag="0"/>
    </comp>
    <comp name="--.HHZ">
      <acc value="0.0169137371" flag="0"/>
      <vel value="0.0126242730" flag="0"/>
      <psa03 value="0.0557941873" flag="0"/>
      <psa10 value="0.0168947274" flag="0"/>
      <psa30 value="0.0012297824" flag="0"/>
    </comp>
  </station>
  <station code="EPDN" name="EPDN" netid="IV" insttype="" commtype="DIG" lat="37.7659" lon="15.0168">
    <comp name="--.HHE">
      <acc value="0.0514347749" flag="0"/>
      <vel value="0.0499268083" flag="0"/>
      <psa03 value="0.1229584628" flag="0"/>
      <psa10 value="0.1005414996" flag="0"/>
      <psa30 value="0.0060366420" flag="0"/>
    </comp>
    <comp name="--.HHN">
      <acc value="0.0296046691" flag="0"/>
      <vel value="0.0330303935" flag="0"/>
      <psa03 value="0.0861927405" flag="0"/>
      <psa10 value="0.0580979901" flag="0"/>
      <psa30 value="0.0040501830" flag="0"/>
    </comp>
    <comp name="--.HHZ">
      <acc value="0.0281207474" flag="0"/>
      <vel value="0.0217357538" flag="0"/>
      <psa03 value="0.0905570533" flag="0"/>
      <psa10 value="0.0285488704" flag="0"/>
      <psa30 value="0.0015118880" flag="0"/>
    </comp>
  </station>
  <station code="EPMN" name="EPMN" netid="IV" insttype="" commtype="DIG" lat="37.8204" lon="15.1773">
    <comp name="--.HHE">
      <acc value="0.0000360894" flag="0"/>
      <vel value="0.0000035253" flag="0"/>
      <psa03 value="0.0000128495" flag="0"/>
      <psa10 value="0.0000029139" flag="0"/>
      <psa30 value="0.0000007190" flag="0"/>
    </comp>
    <comp name="--.HHN">
      <acc value="0.0000000000" flag="0"/>
      <vel value="-100.0000000000" flag="0"/>
      <psa03 value="0.0000000000" flag="0"/>
      <psa10 value="0.0000000000" flag="0"/>
      <psa30 value="0.0000000000" flag="0"/>
    </comp>
    <comp name="--.HHZ">
      <acc value="0.0118571632" flag="0"/>
      <vel value="0.0115045235" flag="0"/>
      <psa03 value="0.0417887145" flag="0"/>
      <psa10 value="0.0114047567" flag="0"/>
      <psa30 value="0.0008911171" flag="0"/>
    </comp>
  </station>
  <station code="EPOZ" name="EPOZ" netid="IV" insttype="" commtype="DIG" lat="37.6719" lon="15.1885">
    <comp name="--.HHE">
      <acc value="0.0237803708" flag="0"/>
      <vel value="0.0272907791" flag="0"/>
      <psa03 value="0.0523691909" flag="0"/>
      <psa10 value="0.0344601572" flag="0"/>
      <psa30 value="0.0027108968" flag="0"/>
    </comp>
    <comp name="--.HHN">
      <acc value="0.0181573081" flag="0"/>
      <vel value="0.0156863752" flag="0"/>
      <psa03 value="0.0380728255" flag="0"/>
      <psa10 value="0.0322673530" flag="0"/>
      <psa30 value="0.0018352306" flag="0"/>
    </comp>
    <comp name="--.HHZ">
      <acc value="0.0105001008" flag="0"/>
      <vel value="0.0099127591" flag="0"/>
      <psa03 value="0.0262852320" flag="0"/>
      <psa10 value="0.0161401521" flag="0"/>
      <psa30 value="0.0012083295" flag="0"/>
    </comp>
  </station>
  <station code="EPZF" name="EPZF" netid="IV" insttype="" commtype="DIG" lat="37.824" lon="14.857">
    <comp name="--.HHE">
      <acc value="0.0457175237" flag="0"/>
      <vel value="0.0344470195" flag="0"/>
      <psa03 value="0.2076640374" flag="0"/>
      <psa10 value="0.0408695398" flag="0"/>
      <psa30 value="0.0027658059" flag="0"/>
    </comp>
    <comp name="--.HHN">
      <acc value="0.0534803129" flag="0"/>
      <vel value="0.0313578385" flag="0"/>
      <psa03 value="0.1988165476" flag="0"/>
      <psa10 value="0.0393694496" flag="0"/>
      <psa30 value="0.0031272560" flag="0"/>
    </comp>
    <comp name="--.HHZ">
      <acc value="0.0200721038" flag="0"/>
      <vel value="0.0153019186" flag="0"/>
      <psa03 value="0.0913637815" flag="0"/>
      <psa10 value="0.0211413403" flag="0"/>
      <psa30 value="0.0021728146" flag="0"/>
    </comp>
  </station>
  <station code="ESAL" name="ESAL" netid="IV" insttype="" commtype="DIG" lat="37.7551" lon="15.1345">
    <comp name="--.HHE">
      <acc value="0.0330361221" flag="0"/>
      <vel value="0.0337685352" flag="0"/>
      <psa03 value="0.1240614168" flag="0"/>
