<stationlist created="1765332007">
	<station code="KTHA" name="KTHA" netid="GE" source="GEOFON" insttype="" lat="36.2566" lon="23.0621">
		<comp name="--.HNE" depth="0.0">
			<acc value="0.036245048483772" flag="0"/>
			<vel value="0.0189798472376" flag="0"/>
			<psa03 value="0.0853763015943952" flag="0"/>
			<psa10 value="0.016310246723805" flag="0"/>
			<psa30 value="0.00221553468496499" flag="0"/>
		</comp>
		<comp name="--.HNN" depth="0.0">
			<acc value="0.020471826596844" flag="0"/>
			<vel value="0.0100181579282" flag="0"/>
			<psa03 value="0.0522235168432403" flag="0"/>
			<psa10 value="0.0109610854931214" flag="0"/>
			<psa30 value="0.00282725333332493" flag="0"/>
		</comp>
		<comp name="--.HNZ" depth="0.0">
			<acc value="0.014931422983374" flag="0"/>
			<vel value="0.0303593436906" flag="0"/>
			<psa03 value="0.0430992066734082" flag="0"/>
			<psa10 value="0.0253635677118742" flag="0"/>
			<psa30 value="0.0125635114376571" flag="0"/>
		</comp>
	</station>
	<station code="ABEA" name="ABEA" netid="HC" source="Seismological Network of Crete (HC)" insttype="" lat="35.5163" lon="24.0113">
		<comp name="--.HNE" depth="0.0">
			<acc value="0.0018264793782624" flag="0"/>
			<vel value="0.00132714527156" flag="0"/>
			<psa03 value="0.00120345667622286" flag="0"/>
			<psa10 value="0.00120148033436147" flag="0"/>
			<psa30 value="0.000653100712634811" flag="0"/>
		</comp>
		<comp name="--.HNN" depth="0.0">
			<acc value="0.0021607321507026" flag="0"/>
			<vel value="0.00266966014024" flag="0"/>
			<psa03 value="0.00129956411708998" flag="0"/>
			<psa10 value="0.00104517935519085" flag="0"/>
			<psa30 value="0.00132186756723867" flag="0"/>
		</comp>
		<comp name="--.HNZ" depth="0.0">
			<acc value="0.0024079142826624" flag="0"/>
			<vel value="0.00132194017564" flag="0"/>
			<psa03 value="0.00122928830280563" flag="0"/>
			<psa10 value="0.000888197295744537" flag="0"/>
			<psa30 value="0.000681754954587693" flag="0"/>
		</comp>
	</station>
	<station code="ATEI" name="ATEI" netid="HC" source="Seismological Network of Crete (HC)" insttype="" lat="35.5193" lon="24.0432">
		<comp name="--.HNE" depth="0.0">
			<acc value="0.01843025623728" flag="0"/>
			<vel value="0.0106475115772" flag="0"/>
			<psa03 value="0.0629609416868383" flag="0"/>
			<psa10 value="0.0158440027124081" flag="0"/>
			<psa30 value="0.00126301908548457" flag="0"/>
		</comp>
		<comp name="--.HNN" depth="0.0">
			<acc value="0.023117840740002" flag="0"/>
			<vel value="0.0124470488809" flag="0"/>
			<psa03 value="0.0869666934083798" flag="0"/>
			<psa10 value="0.0159438962048668" flag="0"/>
			<psa30 value="0.00212665650555457" flag="0"/>
		</comp>
		<comp name="--.HNZ" depth="0.0">
			<acc value="0.016744808343564" flag="0"/>
			<vel value="0.00842939083232" flag="0"/>
			<psa03 value="0.0459457468052327" flag="0"/>
			<psa10 value="0.00673225566640154" flag="0"/>
			<psa30 value="0.00106634063983201" flag="0"/>
		</comp>
	</station>
	<station code="G0LD" name="G0LD" netid="HC" source="Seismological Network of Crete (HC)" insttype="" lat="35.4955" lon="24.0306">
		<comp name="--.HNE" depth="0.0">
			<acc value="0.0022610496086622" flag="0"/>
			<vel value="0.00282904468764" flag="0"/>
			<psa03 value="0.00186386582222168" flag="0"/>
			<psa10 value="0.00178549316297342" flag="0"/>
			<psa30 value="0.00157552926691409" flag="0"/>
		</comp>
		<comp name="--.HNN" depth="0.0">
			<acc value="0.0026361401374326" flag="0"/>
			<vel value="0.00247634147113" flag="0"/>
			<psa03 value="0.00164721849514301" flag="0"/>
			<psa10 value="0.00126797950523251" flag="0"/>
			<psa30 value="0.00111992293939762" flag="0"/>
		</comp>
		<comp name="--.HNZ" depth="0.0">
			<acc value="0.003413372396775" flag="0"/>
			<vel value="0.00438590871937" flag="0"/>
			<psa03 value="0.00228346458212242" flag="0"/>
			<psa10 value="0.00237411867996202" flag="0"/>
			<psa30 value="0.00271217800181665" flag="0"/>
		</comp>
	</station>
	<station code="MULT" name="MULT" netid="HC" source="Seismological Network of Crete (HC)" insttype="" lat="35.5091" lon="24.0118">
		<comp name="--.HNE" depth="0.0">
			<acc value="0.01294088941062" flag="0"/>
			<vel value="0.00245274085379" flag="0"/>
			<psa03 value="0.00233072438603203" flag="0"/>
			<psa10 value="0.00108506629437729" flag="0"/>
			<psa30 value="0.000733065697419438" flag="0"/>
		</comp>
		<comp name="--.HNN" depth="0.0">
			<acc value="0.0063709947767814" flag="0"/>
			<vel value="0.00197051852433" flag="0"/>
			<psa03 value="0.00169006361857666" flag="0"/>
			<psa10 value="0.000934833041382565" flag="0"/>
			<psa30 value="0.000957402069022011" flag="0"/>
		</comp>
		<comp name="--.HNZ" depth="0.0">
			<acc value="0.020589339079572" flag="0"/>
			<vel value="0.00445390429651" flag="0"/>
			<psa03 value="0.00355010659641067" flag="0"/>
			<psa10 value="0.0023973868619877" flag="0"/>
			<psa30 value="0.0019763065456087" flag="0"/>
		</comp>
	</station>
	<station code="PASK" name="PASK" netid="HC" source="Seismological Network of Crete (HC)" insttype="" lat="35.4996" lon="24.0121">
		<comp name="--.HNE" depth="0.0">
			<acc value="0.040731392359752" flag="0"/>
			<vel value="0.024739546842" flag="0"/>
			<psa03 value="0.113392917974235" flag="0"/>
			<psa10 value="0.0264548150016451" flag="0"/>
			<psa30 value="0.0021942886941899" flag="0"/>
		</comp>
		<comp name="--.HNN" depth="0.0">
			<acc value="0.039770035723122" flag="0"/>
			<vel value="0.0325522088933" flag="0"/>
			<psa03 value="0.125639687596076" flag="0"/>
			<psa10 value="0.0267754856195145" flag="0"/>
			<psa30 value="0.00209434644850658" flag="0"/>
		</comp>
		<comp name="--.HNZ" depth="0.0">
			<acc value="0.030369956685168" flag="0"/>
			<vel value="0.0170800736929" flag="0"/>
			<psa03 value="0.0732918864776828" flag="0"/>
			<psa10 value="0.0128964265124751" flag="0"/>
			<psa30 value="0.00141023821302564" flag="0"/>
		</comp>
	</station>
	<station code="TEFL" name="TEFL" netid="HC" source="Seismological Network of Crete (HC)" insttype="" lat="35.093273" lon="25.163418">
		<comp name="--.HNE" depth="0.0">
			<acc value="0.19018504745658" flag="0"/>
			<vel value="0.134028154611" flag="0"/>
			<psa03 value="0.27306102645272" flag="0"/>
			<psa10 value="0.144648807273569" flag="0"/>
			<psa30 value="0.0544417731671174" flag="0"/>
		</comp>
		<comp name="--.HNN" depth="0.0">
			<acc value="0.20147701705926" flag="0"/>
			<vel value="0.144731921758" flag="0"/>
			<psa03 value="0.277207113610962" flag="0"/>
			<psa10 value="0.202249233019141" flag="0"/>
			<psa30 value="0.0764064548859039" flag="0"/>
		</comp>
		<comp name="--.HNZ" depth="0.0">
			<acc value="0.1762765369758" flag="0"/>
			<vel value="0.135558772249" flag="0"/>
			<psa03 value="0.270666055297962" flag="0"/>
			<psa10 value="0.134586755712059" flag="0"/>
			<psa30 value="0.0558372289425036" flag="0"/>
		</comp>
	</station>
	<station code="ARE2" name="ARE2" netid="HI" source="ITSAK Strong Motion Network" insttype="" lat="36.66629" lon="22.382635">
		<comp name="--.HNE" depth="0.0">
			<acc value="0.0069459041345058" flag="0"/>
			<vel value="0.00525511163573" flag="0"/>
			<psa03 value="0.0205519395901307" flag="0"/>
			<psa10 value="0.00509980064927159" flag="0"/>
			<psa30 value="0.000908047549525158" flag="0"/>
		</comp>
		<comp name="--.HNN" depth="0.0">
			<acc value="0.006624441793203" flag="0"/>
			<vel value="0.00349063171921" flag="0"/>
			<psa03 value="0.0219604599810364" flag="0"/>
			<psa10 value="0.00370501645478032" flag="0"/>
			<psa30 value="0.000302207077027525" flag="0"/>
		</comp>
		<comp name="--.HNZ" depth="0.0">
			<acc value="0.0037856213602692" flag="0"/>
			<vel value="0.00299158571753" flag="0"/>
			<psa03 value="0.0122674923486578" flag="0"/>
			<psa10 value="0.00377989086797103" flag="0"/>
			<psa30 value="0.000414664396564735" flag="0"/>
		</comp>
	</station>
	<station code="ARS1" name="ARS1" netid="HI" source="ITSAK Strong Motion Network" insttype="" lat="37.6349" lon="22.7293">
		<comp name="--.HNE" depth="0.0">
			<acc value="0.0055867121819058" flag="0"/>
			<vel value="0.00393696281722" flag="0"/>
			<psa03 value="0.00978538651509241" flag="0"/>
			<psa10 value="0.00506663673358559" flag="0"/>
			<psa30 value="0.00085727100874805" flag="0"/>
		</comp>
		<comp name="--.HNN" depth="0.0">
			<acc value="0.005089795635165" flag="0"/>
			<vel value="0.00371478026797" flag="0"/>
			<psa03 value="0.0111958849015932" flag="0"/>
			<psa10 value="0.00400440839740358" flag="0"/>
			<psa30 value="0.000630112314765232" flag="0"/>
		</comp>
		<comp name="--.HNZ" depth="0.0">
			<acc value="0.0058755710533458" flag="0"/>
			<vel value="0.00174909005674" flag="0"/>
			<psa03 value="0.0183344710791531" flag="0"/>
			<psa10 value="0.00118955126287116" flag="0"/>
			<psa30 value="0.00065455961136345" flag="0"/>
		</comp>
	</station>
	<station code="CH01" name="CH01" netid="HI" source="ITSAK Strong Motion Network" insttype="" lat="35.517" lon="24.0208">
		<comp name="--.HNE" depth="0.0">
			<acc value="0.023643800901444" flag="0"/>
			<vel value="0.0142148615751" flag="0"/>
			<psa03 value="0.0934477842071678" flag="0"/>
			<psa10 value="0.0164077231811443" flag="0"/>
			<psa30 value="0.00207534206456021" flag="0"/>
		</comp>
		<comp name="--.HNN" depth="0.0">
			<acc value="0.020591101756056" flag="0"/>
			<vel value="0.012224046875" flag="0"/>
			<psa03 value="0.0678890650254938" flag="0"/>
			<psa10 value="0.0167176230854837" flag="0"/>
			<psa30 value="0.00214151082291357" flag="0"/>
		</comp>
		<comp name="--.HNZ" depth="0.0">
			<acc value="0.011000488162218" flag="0"/>
			<vel value="0.00753183794763" flag="0"/>
			<psa03 value="0.0338436508299264" flag="0"/>
			<psa10 value="0.0132423738047883" flag="0"/>
			<psa30 value="0.000969621315987749" flag="0"/>
		</comp>
	</station>
	<station code="CH02" name="CH02" netid="HI" source="ITSAK Strong Motion Network" insttype="" lat="35.5145" lon="24.0315">
		<comp name="--.HNE" depth="0.0">
			<acc value="0.022628352926946" flag="0"/>
			<vel value="0.014344265105" flag="0"/>
			<psa03 value="0.104322390012841" flag="0"/>
			<psa10 value="0.0174999980389646" flag="0"/>
			<psa30 value="0.00195054483902342" flag="0"/>
		</comp>
		<comp name="--.HNN" depth="0.0">
			<acc value="0.028574205293772" flag="0"/>
			<vel value="0.0185913066972" flag="0"/>
			<psa03 value="0.0744260970302723" flag="0"/>
			<psa10 value="0.0200504819960306" flag="0"/>
			<psa30 value="0.00179250166110353" flag="0"/>
		</comp>
		<comp name="--.HNZ" depth="0.0">
			<acc value="0.012388444462536" flag="0"/>
			<vel value="0.00751964674729" flag="0"/>
			<psa03 value="0.0373074740412088" flag="0"/>
			<psa10 value="0.0150942033543855" flag="0"/>
			<psa30 value="0.000987668553196257" flag="0"/>
		</comp>
	</station>
	<station code="CH03" name="CH03" netid="HI" source="ITSAK Strong Motion Network" insttype="" lat="35.53303" lon="24.0705">
		<comp name="--.HNE" depth="0.0">
			<acc value="0.016831122300186" flag="0"/>
			<vel value="0.00916393286818" flag="0"/>
			<psa03 value="0.049342102005228" flag="0"/>
			<psa10 value="0.00949441770855771" flag="0"/>
			<psa30 value="0.000785005961125171" flag="0"/>
		</comp>
		<comp name="--.HNN" depth="0.0">
			<acc value="0.015682465910478" flag="0"/>
			<vel value="0.00852444591721" flag="0"/>
			<psa03 value="0.0503324853217075" flag="0"/>
			<psa10 value="0.0150465892626774" flag="0"/>
			<psa30 value="0.00136314342656186" flag="0"/>
		</comp>
		<comp name="--.HNZ" depth="0.0">
			<acc value="0.01274650197783" flag="0"/>
			<vel value="0.00709781548523" flag="0"/>
			<psa03 value="0.0450665271028672" flag="0"/>
			<psa10 value="0.0105499888849705" flag="0"/>
			<psa30 value="0.000513839143487514" flag="0"/>
		</comp>
	</station>
	<station code="GOR1" name="GOR1" netid="HI" source="ITSAK Strong Motion Network" insttype="" lat="35.0582" lon="24.9628">
		<comp name="--.HNE" depth="0.0">
			<acc value="0.0032259031907196" flag="0"/>
			<vel value="0.00321751593182" flag="0"/>
			<psa03 value="0.0107609530946867" flag="0"/>
			<psa10 value="0.00680775894937586" flag="0"/>
			<psa30 value="0.000896286562087363" flag="0"/>
		</comp>
		<comp name="--.HNN" depth="0.0">
			<acc value="0.002891983699332" flag="0"/>
			<vel value="0.00335665831422" flag="0"/>
			<psa03 value="0.00880458521369826" flag="0"/>
			<psa10 value="0.00609264423276369" flag="0"/>
			<psa30 value="0.000937065305146383" flag="0"/>
		</comp>
		<comp name="--.HNZ" depth="0.0">
			<acc value="0.0055973569909824" flag="0"/>
			<vel value="0.00261581913147" flag="0"/>
			<psa03 value="0.0172629157188625" flag="0"/>
			<psa10 value="0.00402981586177865" flag="0"/>
			<psa30 value="0.000402790641236713" flag="0"/>
		</comp>
	</station>
	<station code="GTH2" name="GTH2" netid="HI" source="ITSAK Strong Motion Network" insttype="" lat="36.7603" lon="22.5659">
		<comp name="--.HNE" depth="0.0">
			<acc value="0.014279525105544" flag="0"/>
			<vel value="0.0107885300583" flag="0"/>
			<psa03 value="0.0361377741585154" flag="0"/>
			<psa10 value="0.0113738443988866" flag="0"/>
			<psa30 value="0.000920531814048147" flag="0"/>
		</comp>
		<comp name="--.HNN" depth="0.0">
			<acc value="0.012675658939752" flag="0"/>
			<vel value="0.0092295941102" flag="0"/>
			<psa03 value="0.0378765924717036" flag="0"/>
			<psa10 value="0.00811781682801413" flag="0"/>
			<psa30 value="0.000640142979249252" flag="0"/>
		</comp>
		<comp name="--.HNZ" depth="0.0">
			<acc value="0.008158908086736" flag="0"/>
			<vel value="0.00350218570183" flag="0"/>
			<psa03 value="0.0216816863052928" flag="0"/>
			<psa10 value="0.00379004021218941" flag="0"/>
			<psa30 value="0.000662518628192085" flag="0"/>
		</comp>
	</station>
	<station code="HER1" name="HER1" netid="HI" source="ITSAK Strong Motion Network" insttype="" lat="35.317672" lon="25.10217">
		<comp name="--.HNE" depth="0.0">
			<acc value="0.0096822864115272" flag="0"/>
			<vel value="0.0152925973273" flag="0"/>
			<psa03 value="0.0264651151631598" flag="0"/>
			<psa10 value="0.0232272011880987" flag="0"/>
			<psa30 value="0.00226582384970866" flag="0"/>
		</comp>
		<comp name="--.HNN" depth="0.0">
			<acc value="0.0092344174107438" flag="0"/>
			<vel value="0.010847860682" flag="0"/>
			<psa03 value="0.0274498158113947" flag="0"/>
			<psa10 value="0.0190706433365181" flag="0"/>
			<psa30 value="0.00156283248831445" flag="0"/>
		</comp>
		<comp name="--.HNZ" depth="0.0">
			<acc value="0.012567831387318" flag="0"/>
			<vel value="0.0108762276317" flag="0"/>
			<psa03 value="0.0213901617849056" flag="0"/>
			<psa10 value="0.012969957633549" flag="0"/>
			<psa30 value="0.00064019277421116" flag="0"/>
		</comp>
	</station>
	<station code="HER3" name="HER3" netid="HI" source="ITSAK Strong Motion Network" insttype="" lat="35.3296" lon="25.1065">
		<comp name="--.HNE" depth="0.0">
			<acc value="0.013816629354876" flag="0"/>
			<vel value="0.0107834162405" flag="0"/>
			<psa03 value="0.0347820515360496" flag="0"/>
			<psa10 value="0.0226768728565503" flag="0"/>
			<psa30 value="0.00113152818735726" flag="0"/>
		</comp>
		<comp name="--.HNN" depth="0.0">
			<acc value="0.015953542569894" flag="0"/>
			<vel value="0.0119997779581" flag="0"/>
			<psa03 value="0.0416877590052902" flag="0"/>
			<psa10 value="0.0239763114379435" flag="0"/>
			<psa30 value="0.00154830683856107" flag="0"/>
		</comp>
		<comp name="--.HNZ" depth="0.0">
			<acc value="0.021018480016752" flag="0"/>
			<vel value="0.00538449334466" flag="0"/>
			<psa03 value="0.0262630470896244" flag="0"/>
			<psa10 value="0.0111903344297236" flag="0"/>
			<psa30 value="0.000567925538944934" flag="0"/>
		</comp>
	</station>
	<station code="KIS1" name="KIS1" netid="HI" source="ITSAK Strong Motion Network" insttype="" lat="35.493933" lon="23.658993">
		<comp name="--.HNE" depth="0.0">
			<acc value="0.048406582978452" flag="0"/>
			<vel value="0.0221494359621" flag="0"/>
			<psa03 value="0.114997743036162" flag="0"/>
			<psa10 value="0.01572403789036" flag="0"/>
			<psa30 value="0.00111723526135495" flag="0"/>
		</comp>
		<comp name="--.HNN" depth="0.0">
			<acc value="0.03866942613639" flag="0"/>
			<vel value="0.0195680753134" flag="0"/>
			<psa03 value="0.102505707166823" flag="0"/>
			<psa10 value="0.0224472320189425" flag="0"/>
			<psa30 value="0.00123937783186372" flag="0"/>
		</comp>
		<comp name="--.HNZ" depth="0.0">
			<acc value="0.020416358419116" flag="0"/>
			<vel value="0.0118326403631" flag="0"/>
			<psa03 value="0.0873491302010724" flag="0"/>
			<psa10 value="0.0108183172854406" flag="0"/>
			<psa30 value="0.000761522009595094" flag="0"/>
		</comp>
	</station>
	<station code="KYP2" name="KYP2" netid="HI" source="ITSAK Strong Motion Network" insttype="" lat="37.2497" lon="21.667">
		<comp name="--.HNE" depth="0.0">
			<acc value="0.008297034525531" flag="0"/>
			<vel value="0.00152711675357" flag="0"/>
			<psa03 value="0.00477573889530908" flag="0"/>
			<psa10 value="0.00182210097868474" flag="0"/>
			<psa30 value="0.000508182414590789" flag="0"/>
		</comp>
		<comp name="--.HNN" depth="0.0">
			<acc value="0.0050265298692" flag="0"/>
			<vel value="0.00147847086677" flag="0"/>
			<psa03 value="0.0050473665898356" flag="0"/>
			<psa10 value="0.00296898472754268" flag="0"/>
			<psa30 value="0.000301377464777849" flag="0"/>
		</comp>
		<comp name="--.HNZ" depth="0.0">
			<acc value="0.01194291942009" flag="0"/>
			<vel value="0.00118605898259" flag="0"/>
			<psa03 value="0.00366738031574026" flag="0"/>
			<psa10 value="0.000990347793180012" flag="0"/>
			<psa30 value="0.000344637257610199" flag="0"/>
		</comp>
	</station>
	<station code="LEO1" name="LEO1" netid="HI" source="ITSAK Strong Motion Network" insttype="" lat="37.1689" lon="22.8637">
		<comp name="--.HNE" depth="0.0">
			<acc value="0.0054015182019978" flag="0"/>
			<vel value="0.00313806284617" flag="0"/>
			<psa03 value="0.0215691892696196" flag="0"/>
			<psa10 value="0.00430136291292959" flag="0"/>
			<psa30 value="0.000395225817187371" flag="0"/>
		</comp>
		<comp name="--.HNN" depth="0.0">
			<acc value="0.0063576874800138" flag="0"/>
			<vel value="0.00292106726134" flag="0"/>
			<psa03 value="0.013503640643677" flag="0"/>
			<psa10 value="0.00355608776086357" flag="0"/>
			<psa30 value="0.00057732939107366" flag="0"/>
		</comp>
		<comp name="--.HNZ" depth="0.0">
			<acc value="0.0052945660381152" flag="0"/>
			<vel value="0.00220883069203" flag="0"/>
			<psa03 value="0.0105461699861564" flag="0"/>
			<psa10 value="0.00300613164146621" flag="0"/>
			<psa30 value="0.000361243071205382" flag="0"/>
		</comp>
	</station>
	<station code="NPS1" name="NPS1" netid="HI" source="ITSAK Strong Motion Network" insttype="" lat="36.51263" lon="23.06248">
		<comp name="--.HNE" depth="0.0">
			<acc value="0.029145893226684" flag="0"/>
			<vel value="0.01915530359" flag="0"/>
			<psa03 value="0.122943019371626" flag="0"/>
			<psa10 value="0.0141977683449629" flag="0"/>
			<psa30 value="0.00114079036342743" flag="0"/>
		</comp>
		<comp name="--.HNN" depth="0.0">
			<acc value="0.02858244366843" flag="0"/>
			<vel value="0.0219437147599" flag="0"/>
			<psa03 value="0.121325235117914" flag="0"/>
			<psa10 value="0.0262834586501251" flag="0"/>
			<psa30 value="0.00126746615091106" flag="0"/>
		</comp>
		<comp name="--.HNZ" depth="0.0">
			<acc value="0.02272838042769" flag="0"/>
			<vel value="0.00890967734808" flag="0"/>
			<psa03 value="0.0415490258565604" flag="0"/>
			<psa10 value="0.0108035600578511" flag="0"/>
			<psa30 value="0.000836347799772619" flag="0"/>
		</comp>
	</station>
	<station code="PET1" name="PET1" netid="HI" source="ITSAK Strong Motion Network" insttype="" lat="36.963862" lon="21.92538">
		<comp name="--.HNE" depth="0.0">
			<acc value="0.0067146497328942" flag="0"/>
			<vel value="0.00618205277137" flag="0"/>
			<psa03 value="0.0256266351388243" flag="0"/>
			<psa10 value="0.00781190390653412" flag="0"/>
			<psa30 value="0.000673225847908904" flag="0"/>
		</comp>
		<comp name="--.HNN" depth="0.0">
