<?xml version="1.0" encoding="UTF-8" standalone="yes"?>
<!DOCTYPE earthquake SYSTEM "stationlist.dtd">
<stationlist created="" xmlns="ch.ethz.sed.shakemap.usgs.xml">
  <station code="IMMV" name="IMMV" netid="GE" insttype="STS-2/N" commtype="DIG" lat="35.4606" lon="23.9811">
    <comp name="--.HHN">
      <acc value="0.0211962090" flag="0"/>
      <vel value="0.0126881885" flag="0"/>
      <psa03 value="0.0841756506" flag="0"/>
      <psa10 value="0.0155946583" flag="0"/>
      <psa30 value="0.0009063780" flag="0"/>
    </comp>
    <comp name="--.HHE">
      <acc value="0.0167376246" flag="0"/>
      <vel value="0.0102610268" flag="0"/>
      <psa03 value="0.0583134895" flag="0"/>
      <psa10 value="0.0099849199" flag="0"/>
      <psa30 value="0.0010443039" flag="0"/>
    </comp>
    <comp name="--.HHZ">
      <acc value="0.0143352681" flag="0"/>
      <vel value="0.0078627692" flag="0"/>
      <psa03 value="0.0345008911" flag="0"/>
      <psa10 value="0.0094585981" flag="0"/>
      <psa30 value="0.0006460588" flag="0"/>
    </comp>
  </station>
  <station code="KTHA" name="KTHA" netid="GE" insttype="STS-2/N" commtype="DIG" lat="36.2566" lon="23.0621">
    <comp name="--.HHN">
      <acc value="0.0203768898" flag="0"/>
      <vel value="0.0104094936" flag="0"/>
      <psa03 value="0.0527043852" flag="0"/>
      <psa10 value="0.0082338330" flag="0"/>
      <psa30 value="0.0010980635" flag="0"/>
    </comp>
    <comp name="--.HHZ">
      <acc value="0.0144803068" flag="0"/>
      <vel value="0.0085153559" flag="0"/>
      <psa03 value="0.0436821957" flag="0"/>
      <psa10 value="0.0237001052" flag="0"/>
      <psa30 value="0.0011809628" flag="0"/>
    </comp>
    <comp name="--.HHE">
      <acc value="0.0359010240" flag="0"/>
      <vel value="0.0197933559" flag="0"/>
      <psa03 value="0.0860317218" flag="0"/>
      <psa10 value="0.0165631769" flag="0"/>
      <psa30 value="0.0013933248" flag="0"/>
    </comp>
  </station>
  <station code="KNDR" name="KNDR" netid="HC" insttype="120" commtype="DIG" lat="35.2348" lon="23.6248">
    <comp name="--.HHE">
      <acc value="0.0317779582" flag="0"/>
      <vel value="0.0190242094" flag="0"/>
      <psa03 value="0.1359635822" flag="0"/>
      <psa10 value="0.0274285121" flag="0"/>
      <psa30 value="0.0019453139" flag="0"/>
    </comp>
    <comp name="--.HHN">
      <acc value="0.0308329801" flag="0"/>
      <vel value="0.0222735343" flag="0"/>
      <psa03 value="0.1220239629" flag="0"/>
      <psa10 value="0.0257531510" flag="0"/>
      <psa30 value="0.0012828858" flag="0"/>
    </comp>
    <comp name="--.HHZ">
      <acc value="0.0174844704" flag="0"/>
      <vel value="0.0093035350" flag="0"/>
      <psa03 value="0.0654298927" flag="0"/>
      <psa10 value="0.0077505782" flag="0"/>
      <psa30 value="0.0009510238" flag="0"/>
    </comp>
  </station>
  <station code="CH01" name="CH01" netid="HI" insttype="CMG-5TD,ACCELEROMETER,GURALP" commtype="DIG" lat="35.517" lon="24.0208">
    <comp name="--.HNE">
      <acc value="0.0237523471" flag="0"/>
      <vel value="0.0141001714" flag="0"/>
      <psa03 value="0.0935600147" flag="0"/>
      <psa10 value="0.0163953386" flag="0"/>
      <psa30 value="0.0018699015" flag="0"/>
    </comp>
    <comp name="--.HNN">
      <acc value="0.0218531835" flag="0"/>
      <vel value="0.0121314745" flag="0"/>
      <psa03 value="0.0673962775" flag="0"/>
      <psa10 value="0.0167668797" flag="0"/>
      <psa30 value="0.0018943110" flag="0"/>
    </comp>
    <comp name="--.HNZ">
      <acc value="0.0112729260" flag="0"/>
      <vel value="0.0074622664" flag="0"/>
      <psa03 value="0.0336289489" flag="0"/>
      <psa10 value="0.0132477130" flag="0"/>
      <psa30 value="0.0009104596" flag="0"/>
    </comp>
  </station>
  <station code="CH03" name="CH03" netid="HI" insttype="unknown" commtype="DIG" lat="35.533" lon="24.0705">
    <comp name="--.HNE">
      <acc value="0.0168476673" flag="0"/>
      <vel value="0.0089912235" flag="0"/>
      <psa03 value="0.0499441993" flag="0"/>
      <psa10 value="0.0094729602" flag="0"/>
      <psa30 value="0.0007279643" flag="0"/>
    </comp>
    <comp name="--.HNN">
      <acc value="0.0156718680" flag="0"/>
      <vel value="0.0084948545" flag="0"/>
      <psa03 value="0.0510211225" flag="0"/>
      <psa10 value="0.0150576544" flag="0"/>
      <psa30 value="0.0012035794" flag="0"/>
    </comp>
    <comp name="--.HNZ">
      <acc value="0.0128494642" flag="0"/>
      <vel value="0.0071348101" flag="0"/>
      <psa03 value="0.0442792001" flag="0"/>
      <psa10 value="0.0105470197" flag="0"/>
      <psa30 value="0.0004651641" flag="0"/>
    </comp>
  </station>
  <station code="KIS1" name="KIS1" netid="HI" insttype="unknown" commtype="DIG" lat="35.4939" lon="23.659">
    <comp name="--.HNN">
      <acc value="0.0386971271" flag="0"/>
      <vel value="0.0193575753" flag="0"/>
      <psa03 value="0.1003701953" flag="0"/>
      <psa10 value="0.0224607015" flag="0"/>
      <psa30 value="0.0011624584" flag="0"/>
    </comp>
    <comp name="--.HNE">
      <acc value="0.0484100092" flag="0"/>
      <vel value="0.0220613788" flag="0"/>
      <psa03 value="0.1136138542" flag="0"/>
      <psa10 value="0.0157233147" flag="0"/>
      <psa30 value="0.0010781197" flag="0"/>
    </comp>
    <comp name="--.HNZ">
      <acc value="0.0206604034" flag="0"/>
      <vel value="0.0118218650" flag="0"/>
      <psa03 value="0.0868359571" flag="0"/>
      <psa10 value="0.0107949218" flag="0"/>
      <psa30 value="0.0007388589" flag="0"/>
    </comp>
  </station>
  <station code="NPS1" name="NPS1" netid="HI" insttype="unknown" commtype="DIG" lat="36.5126" lon="23.0625">
    <comp name="--.HNE">
      <acc value="0.0292227757" flag="0"/>
      <vel value="0.0192342578" flag="0"/>
      <psa03 value="0.1247085290" flag="0"/>
      <psa10 value="0.0141715508" flag="0"/>
      <psa30 value="0.0011119305" flag="0"/>
    </comp>
    <comp name="--.HNN">
      <acc value="0.0286433778" flag="0"/>
      <vel value="0.0219323117" flag="0"/>
      <psa03 value="0.1191022779" flag="0"/>
      <psa10 value="0.0262702054" flag="0"/>
      <psa30 value="0.0012239577" flag="0"/>
    </comp>
    <comp name="--.HNZ">
      <acc value="0.0226346658" flag="0"/>
      <vel value="0.0089159406" flag="0"/>
      <psa03 value="0.0412002936" flag="0"/>
      <psa10 value="0.0108002166" flag="0"/>
      <psa30 value="0.0007978971" flag="0"/>
    </comp>
  </station>
  <station code="ANKY" name="ANKY" netid="HL" insttype="60" commtype="DIG" lat="35.867" lon="23.3012">
    <comp name="--.HHE">
      <acc value="0.0325520012" flag="0"/>
      <vel value="0.0240287872" flag="0"/>
      <psa03 value="0.0859464521" flag="0"/>
      <psa10 value="0.0272802657" flag="0"/>
      <psa30 value="0.0013344561" flag="0"/>
    </comp>
    <comp name="--.HHN">
      <acc value="0.0304863404" flag="0"/>
      <vel value="0.0181018275" flag="0"/>
      <psa03 value="0.1014062624" flag="0"/>
      <psa10 value="0.0148778068" flag="0"/>
      <psa30 value="0.0012569098" flag="0"/>
    </comp>
    <comp name="--.HHZ">
      <acc value="0.0476257685" flag="0"/>
      <vel value="0.0161098984" flag="0"/>
      <psa03 value="0.0708626955" flag="0"/>
      <psa10 value="0.0102504764" flag="0"/>
      <psa30 value="0.0006362956" flag="0"/>
    </comp>
  </station>
  <station code="CHNB" name="CHNB" netid="HL" insttype="CMG-5" commtype="DIG" lat="35.4877" lon="24.0661">
    <comp name="00.HNE">
      <acc value="0.0417862665" flag="0"/>
      <vel value="0.0322930405" flag="0"/>
      <psa03 value="0.1342076469" flag="0"/>
      <psa10 value="0.0388479852" flag="0"/>
      <psa30 value="0.0017635948" flag="0"/>
    </comp>
    <comp name="00.HNN">
      <acc value="0.0426011408" flag="0"/>
      <vel value="0.0247187917" flag="0"/>
      <psa03 value="0.1355658807" flag="0"/>
      <psa10 value="0.0375269428" flag="0"/>
      <psa30 value="0.0021839180" flag="0"/>
    </comp>
    <comp name="00.HNZ">
      <acc value="0.0375910747" flag="0"/>
      <vel value="0.0198928302" flag="0"/>
      <psa03 value="0.1444826330" flag="0"/>
      <psa10 value="0.0153713163" flag="0"/>
      <psa30 value="0.0007794471" flag="0"/>
    </comp>
  </station>
  <station code="IMMV" name="IMMV" netid="HL" insttype="120" commtype="DIG" lat="35.4606" lon="23.9811">
    <comp name="--.HHE">
      <acc value="0.0162656979" flag="0"/>
      <vel value="0.0100295255" flag="0"/>
      <psa03 value="0.0567195016" flag="0"/>
      <psa10 value="0.0099096166" flag="0"/>
      <psa30 value="0.0010422881" flag="0"/>
    </comp>
    <comp name="--.HHN">
      <acc value="0.0207183882" flag="0"/>
      <vel value="0.0124849144" flag="0"/>
      <psa03 value="0.0818752312" flag="0"/>
      <psa10 value="0.0154917640" flag="0"/>
      <psa30 value="0.0009014117" flag="0"/>
    </comp>
    <comp name="--.HHZ">
      <acc value="0.0139594192" flag="0"/>
      <vel value="0.0077051727" flag="0"/>
      <psa03 value="0.0336628784" flag="0"/>
      <psa10 value="0.0094020465" flag="0"/>
      <psa30 value="0.0006433591" flag="0"/>
    </comp>
  </station>
</stationlist>
