<?xml version="1.0" encoding="UTF-8" standalone="yes"?>
<!DOCTYPE earthquake SYSTEM "stationlist.dtd">
<stationlist created="" xmlns="ch.ethz.sed.shakemap.usgs.xml">
  <station code="IMMV" name="IMMV" netid="GE" insttype="STS-2/N" commtype="DIG" lat="35.4606" lon="23.9811">
    <comp name="--.HHN">
      <acc value="0.0211962092" flag="0"/>
      <vel value="0.0126881762" flag="0"/>
      <psa03 value="0.0841756506" flag="0"/>
      <psa10 value="0.0155946583" flag="0"/>
      <psa30 value="0.0009064522" flag="0"/>
    </comp>
    <comp name="--.HHZ">
      <acc value="0.0143352679" flag="0"/>
      <vel value="0.0078627730" flag="0"/>
      <psa03 value="0.0345008911" flag="0"/>
      <psa10 value="0.0094585981" flag="0"/>
      <psa30 value="0.0006460419" flag="0"/>
    </comp>
    <comp name="--.HHE">
      <acc value="0.0167376247" flag="0"/>
      <vel value="0.0102610253" flag="0"/>
      <psa03 value="0.0583134895" flag="0"/>
      <psa10 value="0.0099849199" flag="0"/>
      <psa30 value="0.0010443378" flag="0"/>
    </comp>
  </station>
  <station code="KTHA" name="KTHA" netid="GE" insttype="STS-2/N" commtype="DIG" lat="36.2566" lon="23.0621">
    <comp name="--.HHE">
      <acc value="0.0359010238" flag="0"/>
      <vel value="0.0197933611" flag="0"/>
      <psa03 value="0.0860317218" flag="0"/>
      <psa10 value="0.0165631762" flag="0"/>
      <psa30 value="0.0013901345" flag="0"/>
    </comp>
    <comp name="--.HHN">
      <acc value="0.0203768900" flag="0"/>
      <vel value="0.0104094910" flag="0"/>
      <psa03 value="0.0527043852" flag="0"/>
      <psa10 value="0.0082338323" flag="0"/>
      <psa30 value="0.0010963587" flag="0"/>
    </comp>
    <comp name="--.HHZ">
      <acc value="0.0144803066" flag="0"/>
      <vel value="0.0085153520" flag="0"/>
      <psa03 value="0.0436821957" flag="0"/>
      <psa10 value="0.0237001054" flag="0"/>
      <psa30 value="0.0011794698" flag="0"/>
    </comp>
  </station>
  <station code="KNDR" name="KNDR" netid="HC" insttype="120" commtype="DIG" lat="35.2348" lon="23.6248">
    <comp name="--.HHE">
      <acc value="0.0317779582" flag="0"/>
      <vel value="0.0190242088" flag="0"/>
      <psa03 value="0.1359635822" flag="0"/>
      <psa10 value="0.0274285121" flag="0"/>
      <psa30 value="0.0019453257" flag="0"/>
    </comp>
    <comp name="--.HHN">
      <acc value="0.0308329801" flag="0"/>
      <vel value="0.0222735341" flag="0"/>
      <psa03 value="0.1220239629" flag="0"/>
      <psa10 value="0.0257531510" flag="0"/>
      <psa30 value="0.0012828809" flag="0"/>
    </comp>
    <comp name="--.HHZ">
      <acc value="0.0174844704" flag="0"/>
      <vel value="0.0093035357" flag="0"/>
      <psa03 value="0.0654298927" flag="0"/>
      <psa10 value="0.0077505782" flag="0"/>
      <psa30 value="0.0009510209" flag="0"/>
    </comp>
  </station>
  <station code="CH01" name="CH01" netid="HI" insttype="CMG-5TD,ACCELEROMETER,GURALP" commtype="DIG" lat="35.517" lon="24.0208">
    <comp name="--.HNZ">
      <acc value="0.0112729240" flag="0"/>
      <vel value="0.0074622703" flag="0"/>
      <psa03 value="0.0336289489" flag="0"/>
      <psa10 value="0.0132477130" flag="0"/>
      <psa30 value="0.0009104267" flag="0"/>
    </comp>
    <comp name="--.HNE">
      <acc value="0.0237523479" flag="0"/>
      <vel value="0.0141001711" flag="0"/>
      <psa03 value="0.0935600147" flag="0"/>
      <psa10 value="0.0163953386" flag="0"/>
      <psa30 value="0.0018698292" flag="0"/>
    </comp>
    <comp name="--.HNN">
      <acc value="0.0218531833" flag="0"/>
      <vel value="0.0121314855" flag="0"/>
      <psa03 value="0.0673962775" flag="0"/>
      <psa10 value="0.0167668797" flag="0"/>
      <psa30 value="0.0018942109" flag="0"/>
    </comp>
  </station>
  <station code="KIS1" name="KIS1" netid="HI" insttype="unknown" commtype="DIG" lat="35.4939" lon="23.659">
    <comp name="--.HNE">
      <acc value="0.0484100067" flag="0"/>
      <vel value="0.0220613839" flag="0"/>
      <psa03 value="0.1136138542" flag="0"/>
      <psa10 value="0.0157233147" flag="0"/>
      <psa30 value="0.0010785900" flag="0"/>
    </comp>
    <comp name="--.HNN">
      <acc value="0.0386971241" flag="0"/>
      <vel value="0.0193575786" flag="0"/>
      <psa03 value="0.1003701953" flag="0"/>
      <psa10 value="0.0224607016" flag="0"/>
      <psa30 value="0.0011624495" flag="0"/>
    </comp>
    <comp name="--.HNZ">
      <acc value="0.0206604034" flag="0"/>
      <vel value="0.0118218509" flag="0"/>
      <psa03 value="0.0868359571" flag="0"/>
      <psa10 value="0.0107949218" flag="0"/>
      <psa30 value="0.0007385199" flag="0"/>
    </comp>
  </station>
  <station code="NPS1" name="NPS1" netid="HI" insttype="unknown" commtype="DIG" lat="36.5126" lon="23.0625">
    <comp name="--.HNE">
      <acc value="0.0292227755" flag="0"/>
      <vel value="0.0192342503" flag="0"/>
      <psa03 value="0.1247085290" flag="0"/>
      <psa10 value="0.0141715507" flag="0"/>
      <psa30 value="0.0011114300" flag="0"/>
    </comp>
    <comp name="--.HNN">
      <acc value="0.0286433786" flag="0"/>
      <vel value="0.0219323078" flag="0"/>
      <psa03 value="0.1191022779" flag="0"/>
      <psa10 value="0.0262702054" flag="0"/>
      <psa30 value="0.0012245642" flag="0"/>
    </comp>
    <comp name="--.HNZ">
      <acc value="0.0226346660" flag="0"/>
      <vel value="0.0089159400" flag="0"/>
      <psa03 value="0.0412002936" flag="0"/>
      <psa10 value="0.0108002167" flag="0"/>
      <psa30 value="0.0007984706" flag="0"/>
    </comp>
  </station>
  <station code="ANKY" name="ANKY" netid="HL" insttype="60" commtype="DIG" lat="35.867" lon="23.3012">
    <comp name="--.HHZ">
      <acc value="0.0476257690" flag="0"/>
      <vel value="0.0161098924" flag="0"/>
      <psa03 value="0.0708626955" flag="0"/>
      <psa10 value="0.0102504764" flag="0"/>
      <psa30 value="0.0006383033" flag="0"/>
    </comp>
    <comp name="--.HHE">
      <acc value="0.0325520008" flag="0"/>
      <vel value="0.0240287787" flag="0"/>
      <psa03 value="0.0859464521" flag="0"/>
      <psa10 value="0.0272802663" flag="0"/>
      <psa30 value="0.0013378835" flag="0"/>
    </comp>
    <comp name="--.HHN">
      <acc value="0.0304863406" flag="0"/>
      <vel value="0.0181018361" flag="0"/>
      <psa03 value="0.1014062624" flag="0"/>
      <psa10 value="0.0148778070" flag="0"/>
      <psa30 value="0.0012540579" flag="0"/>
    </comp>
  </station>
  <station code="IMMV" name="IMMV" netid="HL" insttype="120" commtype="DIG" lat="35.4606" lon="23.9811">
    <comp name="--.HHE">
      <acc value="0.0162656980" flag="0"/>
      <vel value="0.0100295240" flag="0"/>
      <psa03 value="0.0567195016" flag="0"/>
      <psa10 value="0.0099096165" flag="0"/>
      <psa30 value="0.0010423222" flag="0"/>
    </comp>
    <comp name="--.HHZ">
      <acc value="0.0139594189" flag="0"/>
      <vel value="0.0077051765" flag="0"/>
      <psa03 value="0.0336628784" flag="0"/>
      <psa10 value="0.0094020465" flag="0"/>
      <psa30 value="0.0006433418" flag="0"/>
    </comp>
    <comp name="--.HHN">
      <acc value="0.0207183884" flag="0"/>
      <vel value="0.0124849022" flag="0"/>
      <psa03 value="0.0818752312" flag="0"/>
      <psa10 value="0.0154917640" flag="0"/>
      <psa30 value="0.0009014854" flag="0"/>
    </comp>
  </station>
</stationlist>
