<?xml version="1.0" encoding="UTF-8" standalone="yes"?>
<!DOCTYPE earthquake SYSTEM "stationlist.dtd">
<stationlist created="" xmlns="ch.ethz.sed.shakemap.usgs.xml">
  <station code="APE" name="APE" netid="GE" insttype="STS-2/N" lat="37.0727" lon="25.523">
    <comp name="--.HHN">
      <acc value="0.1718677734" flag="0"/>
      <vel value="0.0448539748" flag="0"/>
      <psa03 value="0.1771403482" flag="0"/>
      <psa10 value="0.0149662362" flag="0"/>
      <psa30 value="0.0024631033" flag="0"/>
    </comp>
    <comp name="--.HHE">
      <acc value="0.1620770356" flag="0"/>
      <vel value="0.0510870230" flag="0"/>
      <psa03 value="0.1687905823" flag="0"/>
      <psa10 value="0.0138170063" flag="0"/>
      <psa30 value="0.0024606669" flag="0"/>
    </comp>
    <comp name="--.HHZ">
      <acc value="0.0803479438" flag="0"/>
      <vel value="0.0287626860" flag="0"/>
      <psa03 value="0.1320806508" flag="0"/>
      <psa10 value="0.0110485580" flag="0"/>
      <psa30 value="0.0026412577" flag="0"/>
    </comp>
  </station>
  <station code="THERA" name="THERA" netid="GE" insttype="STS-2/N" lat="36.367" lon="25.4753">
    <comp name="--.HHE">
      <acc value="0.1397835077" flag="0"/>
      <vel value="0.0565668708" flag="0"/>
      <psa03 value="0.2328071262" flag="0"/>
      <psa10 value="0.0264828056" flag="0"/>
      <psa30 value="0.0038686582" flag="0"/>
    </comp>
    <comp name="--.HHZ">
      <acc value="0.1484826856" flag="0"/>
      <vel value="0.0499414555" flag="0"/>
      <psa03 value="0.1807905903" flag="0"/>
      <psa10 value="0.0296736505" flag="0"/>
      <psa30 value="0.0022484346" flag="0"/>
    </comp>
    <comp name="--.HHN">
      <acc value="0.1407386336" flag="0"/>
      <vel value="0.0457957572" flag="0"/>
      <psa03 value="0.2429202713" flag="0"/>
      <psa10 value="0.0220882697" flag="0"/>
      <psa30 value="0.0018221515" flag="0"/>
    </comp>
  </station>
  <station code="SERI" name="SERI" netid="HA" insttype="30" lat="37.1609" lon="24.4853">
    <comp name="--.HHE">
      <acc value="0.0507377980" flag="0"/>
      <vel value="0.0287777860" flag="0"/>
      <psa03 value="0.1947125494" flag="0"/>
      <psa10 value="0.0093675256" flag="0"/>
      <psa30 value="0.0010350525" flag="0"/>
    </comp>
    <comp name="--.HHN">
      <acc value="0.0573148095" flag="0"/>
      <vel value="0.0289207375" flag="0"/>
      <psa03 value="0.1742986815" flag="0"/>
      <psa10 value="0.0161499556" flag="0"/>
      <psa30 value="0.0012793528" flag="0"/>
    </comp>
    <comp name="--.HHZ">
      <acc value="0.0424594974" flag="0"/>
      <vel value="0.0219336056" flag="0"/>
      <psa03 value="0.0879102924" flag="0"/>
      <psa10 value="0.0142371302" flag="0"/>
      <psa30 value="0.0016181552" flag="0"/>
    </comp>
  </station>
  <station code="SNT1" name="SNT1" netid="HA" insttype="30" lat="36.4159" lon="25.4282">
    <comp name="--.HHE">
      <acc value="0.1142151281" flag="0"/>
      <vel value="0.0610516918" flag="0"/>
      <psa03 value="0.2941336134" flag="0"/>
      <psa10 value="0.0705949386" flag="0"/>
      <psa30 value="0.0073435620" flag="0"/>
    </comp>
    <comp name="--.HHN">
      <acc value="0.1845167448" flag="0"/>
      <vel value="0.0896785594" flag="0"/>
      <psa03 value="0.2976463714" flag="0"/>
      <psa10 value="0.0898599902" flag="0"/>
      <psa30 value="0.0088734120" flag="0"/>
    </comp>
    <comp name="--.HHZ">
      <acc value="0.1005690081" flag="0"/>
      <vel value="0.0444370053" flag="0"/>
      <psa03 value="0.2924310921" flag="0"/>
      <psa10 value="0.0355319881" flag="0"/>
      <psa30 value="0.0037759447" flag="0"/>
    </comp>
  </station>
  <station code="SNT5" name="SNT5" netid="HA" insttype="1s-100Hz," lat="36.4037" lon="25.3953">
    <comp name="--.HHN">
      <acc value="0.5313958841" flag="0"/>
      <vel value="0.1339930764" flag="0"/>
      <psa03 value="0.5757773176" flag="0"/>
      <psa10 value="0.0365336202" flag="0"/>
      <psa30 value="0.0068300602" flag="0"/>
    </comp>
    <comp name="--.HHZ">
      <acc value="0.2459604836" flag="0"/>
      <vel value="0.0563231274" flag="0"/>
      <psa03 value="0.2443697656" flag="0"/>
      <psa10 value="0.0330611450" flag="0"/>
      <psa30 value="0.0021982727" flag="0"/>
    </comp>
    <comp name="--.HHE">
      <acc value="0.7528860723" flag="0"/>
      <vel value="0.1804444242" flag="0"/>
      <psa03 value="0.6761983398" flag="0"/>
      <psa10 value="0.0842551936" flag="0"/>
      <psa30 value="0.0084141698" flag="0"/>
    </comp>
  </station>
  <station code="NAX1" name="NAX1" netid="HI" insttype="CMG-5TD,ACCELEROMETER,GURALP" lat="37.1014" lon="25.3741">
    <comp name="--.HNE">
      <acc value="0.2082321441" flag="0"/>
      <vel value="0.0898725596" flag="0"/>
      <psa03 value="0.6832392732" flag="0"/>
      <psa10 value="0.0211254398" flag="0"/>
      <psa30 value="0.0027583696" flag="0"/>
    </comp>
    <comp name="--.HNN">
      <acc value="0.1269334896" flag="0"/>
      <vel value="0.0500719739" flag="0"/>
      <psa03 value="0.2463040427" flag="0"/>
      <psa10 value="0.0153306922" flag="0"/>
      <psa30 value="0.0020134625" flag="0"/>
    </comp>
    <comp name="--.HNZ">
      <acc value="0.1000235694" flag="0"/>
      <vel value="0.0321986478" flag="0"/>
      <psa03 value="0.2627471876" flag="0"/>
      <psa10 value="0.0162968283" flag="0"/>
      <psa30 value="0.0023377509" flag="0"/>
    </comp>
  </station>
  <station code="SFR2" name="SFR2" netid="HI" insttype="unknown" lat="36.3998" lon="25.4382">
    <comp name="--.HNE">
      <acc value="0.4906907414" flag="0"/>
      <vel value="0.2117756791" flag="0"/>
      <psa03 value="1.1613697450" flag="0"/>
      <psa10 value="0.0867104301" flag="0"/>
      <psa30 value="0.0092591923" flag="0"/>
    </comp>
    <comp name="--.HNZ">
      <acc value="0.3743952811" flag="0"/>
      <vel value="0.1183213353" flag="0"/>
      <psa03 value="0.5861045974" flag="0"/>
      <psa10 value="0.0843436775" flag="0"/>
      <psa30 value="0.0060143937" flag="0"/>
    </comp>
  </station>
  <station code="AMGA" name="AMGA" netid="HL" insttype="SMART24" lat="36.8316" lon="25.8938">
    <comp name="--.HHN">
      <acc value="0.4221426611" flag="0"/>
      <vel value="0.0867992902" flag="0"/>
      <psa03 value="0.2510143933" flag="0"/>
      <psa10 value="0.0332275143" flag="0"/>
      <psa30 value="0.0042903988" flag="0"/>
    </comp>
    <comp name="--.HHE">
      <acc value="0.3117391289" flag="0"/>
      <vel value="0.0631550545" flag="0"/>
      <psa03 value="0.2445597554" flag="0"/>
      <psa10 value="0.0336019005" flag="0"/>
      <psa30 value="0.0063692688" flag="0"/>
    </comp>
    <comp name="--.HHZ">
      <acc value="0.3697837840" flag="0"/>
      <vel value="0.0806017132" flag="0"/>
      <psa03 value="0.2125421156" flag="0"/>
      <psa10 value="0.0393322882" flag="0"/>
      <psa30 value="0.0041196702" flag="0"/>
    </comp>
  </station>
  <station code="APE" name="APE" netid="HL" insttype="120" lat="37.0727" lon="25.523">
    <comp name="--.HHE">
      <acc value="0.1513518404" flag="0"/>
      <vel value="0.0492137353" flag="0"/>
      <psa03 value="0.1634189720" flag="0"/>
      <psa10 value="0.0135937628" flag="0"/>
      <psa30 value="0.0024522361" flag="0"/>
    </comp>
    <comp name="--.HHZ">
      <acc value="0.0759896969" flag="0"/>
      <vel value="0.0282199109" flag="0"/>
      <psa03 value="0.1278952903" flag="0"/>
      <psa10 value="0.0109799619" flag="0"/>
      <psa30 value="0.0026334061" flag="0"/>
    </comp>
    <comp name="--.HHN">
      <acc value="0.1574493561" flag="0"/>
      <vel value="0.0430352374" flag="0"/>
      <psa03 value="0.1721666291" flag="0"/>
      <psa10 value="0.0147305710" flag="0"/>
      <psa30 value="0.0024529299" flag="0"/>
    </comp>
  </station>
  <station code="ASTA" name="ASTA" netid="HL" insttype="CMG-5" lat="36.5455" lon="26.3529">
    <comp name="00.HNZ">
      <acc value="0.0436894813" flag="0"/>
      <vel value="0.0274040729" flag="0"/>
      <psa03 value="0.0919355176" flag="0"/>
      <psa10 value="0.0179445015" flag="0"/>
      <psa30 value="0.0020670082" flag="0"/>
    </comp>
    <comp name="00.HNN">
      <acc value="0.0505712776" flag="0"/>
      <vel value="0.0172201643" flag="0"/>
      <psa03 value="0.0925267381" flag="0"/>
      <psa10 value="0.0116815663" flag="0"/>
      <psa30 value="0.0023357442" flag="0"/>
    </comp>
    <comp name="00.HNE">
      <acc value="0.0559848495" flag="0"/>
      <vel value="0.0279888682" flag="0"/>
      <psa03 value="0.0967175643" flag="0"/>
      <psa10 value="0.0228423217" flag="0"/>
      <psa30 value="0.0011908411" flag="0"/>
    </comp>
  </station>
  <station code="MHLO" name="MHLO" netid="HL" insttype="20" lat="36.6898" lon="24.4017">
    <comp name="--.HHN">
      <acc value="0.1585595536" flag="0"/>
      <vel value="0.0828132015" flag="0"/>
      <psa03 value="0.5259866065" flag="0"/>
      <psa10 value="0.1281629652" flag="0"/>
      <psa30 value="0.0045272474" flag="0"/>
    </comp>
    <comp name="--.HHZ">
      <acc value="0.0767048188" flag="0"/>
      <vel value="0.0517291552" flag="0"/>
      <psa03 value="0.1967097593" flag="0"/>
      <psa10 value="0.0421671481" flag="0"/>
      <psa30 value="0.0032151003" flag="0"/>
    </comp>
    <comp name="--.HHE">
      <acc value="0.1434751879" flag="0"/>
      <vel value="0.1002090164" flag="0"/>
      <psa03 value="0.4573115166" flag="0"/>
      <psa10 value="0.1021403880" flag="0"/>
      <psa30 value="0.0046947830" flag="0"/>
    </comp>
  </station>
  <station code="MILA" name="MILA" netid="HL" insttype="CMG-5" lat="36.7429" lon="24.4282">
    <comp name="00.HNE">
      <acc value="0.1825876035" flag="0"/>
      <vel value="0.1201029569" flag="0"/>
      <psa03 value="0.5959651216" flag="0"/>
      <psa10 value="0.0753080222" flag="0"/>
      <psa30 value="0.0048147925" flag="0"/>
    </comp>
    <comp name="00.HNN">
      <acc value="0.2388408778" flag="0"/>
      <vel value="0.1788419273" flag="0"/>
      <psa03 value="0.9219131155" flag="0"/>
      <psa10 value="0.0973941135" flag="0"/>
      <psa30 value="0.0072652555" flag="0"/>
    </comp>
    <comp name="00.HNZ">
      <acc value="0.1585556475" flag="0"/>
      <vel value="0.0762432380" flag="0"/>
      <psa03 value="0.3965415242" flag="0"/>
      <psa10 value="0.0662766963" flag="0"/>
      <psa30 value="0.0041873664" flag="0"/>
    </comp>
  </station>
  <station code="SAP3" name="SAP3" netid="HL" insttype="65535" lat="36.4356" lon="25.3454">
    <comp name="--.HHE">
      <acc value="0.6079343453" flag="0"/>
      <vel value="0.1907834199" flag="0"/>
      <psa03 value="0.5756005626" flag="0"/>
      <psa10 value="0.0786597538" flag="0"/>
      <psa30 value="0.0079821732" flag="0"/>
    </comp>
    <comp name="--.HHN">
      <acc value="0.5098924397" flag="0"/>
      <vel value="0.1538938981" flag="0"/>
      <psa03 value="0.9001236555" flag="0"/>
      <psa10 value="0.0670193523" flag="0"/>
      <psa30 value="0.0051458367" flag="0"/>
    </comp>
    <comp name="--.HHZ">
      <acc value="0.4714873450" flag="0"/>
      <vel value="0.1123355174" flag="0"/>
      <psa03 value="0.4835983651" flag="0"/>
      <psa10 value="0.0325064012" flag="0"/>
      <psa30 value="0.0038405086" flag="0"/>
    </comp>
  </station>
  <station code="THERA" name="THERA" netid="HL" insttype="120" lat="36.367" lon="25.4753">
    <comp name="--.HHN">
      <acc value="0.2719476589" flag="0"/>
      <vel value="0.0881023347" flag="0"/>
      <psa03 value="0.4729563328" flag="0"/>
      <psa10 value="0.0438249631" flag="0"/>
      <psa30 value="0.0036310184" flag="0"/>
    </comp>
    <comp name="--.HHE">
      <acc value="0.1393010614" flag="0"/>
      <vel value="0.0554622073" flag="0"/>
      <psa03 value="0.2267871372" flag="0"/>
      <psa10 value="0.0262203155" flag="0"/>
      <psa30 value="0.0038670714" flag="0"/>
    </comp>
    <comp name="--.HHZ">
      <acc value="0.1437716402" flag="0"/>
      <vel value="0.0490580050" flag="0"/>
      <psa03 value="0.1758840664" flag="0"/>
      <psa10 value="0.0293920913" flag="0"/>
      <psa30 value="0.0022392858" flag="0"/>
    </comp>
  </station>
  <station code="THRA" name="THRA" netid="HL" insttype="CMG-5" lat="36.415" lon="25.4324">
    <comp name="00.HNE">
      <acc value="0.4974065569" flag="0"/>
      <vel value="0.2164698054" flag="0"/>
      <psa03 value="1.0435947773" flag="0"/>
      <psa10 value="0.1913076583" flag="0"/>
      <psa30 value="0.0148288761" flag="0"/>
    </comp>
    <comp name="00.HNZ">
      <acc value="0.3328321483" flag="0"/>
      <vel value="0.1555554000" flag="0"/>
      <psa03 value="0.6425085085" flag="0"/>
      <psa10 value="0.0969682765" flag="0"/>
      <psa30 value="0.0084343741" flag="0"/>
    </comp>
    <comp name="00.HNN">
      <acc value="0.4604340970" flag="0"/>
      <vel value="0.2325501323" flag="0"/>
      <psa03 value="1.2332498013" flag="0"/>
      <psa10 value="0.2757199110" flag="0"/>
      <psa30 value="0.0139950189" flag="0"/>
    </comp>
  </station>
  <station code="TNSA" name="TNSA" netid="HL" insttype="CMG-5" lat="37.5394" lon="25.1631">
    <comp name="00.HNN">
      <acc value="0.1407212722" flag="0"/>
      <vel value="0.0575116640" flag="0"/>
      <psa03 value="0.4252324603" flag="0"/>
      <psa10 value="0.0176722653" flag="0"/>
      <psa30 value="0.0020847144" flag="0"/>
    </comp>
    <comp name="00.HNZ">
      <acc value="0.1253080988" flag="0"/>
      <vel value="0.0511155009" flag="0"/>
      <psa03 value="0.2808475018" flag="0"/>
      <psa10 value="0.0245778751" flag="0"/>
      <psa30 value="0.0029325040" flag="0"/>
    </comp>
    <comp name="00.HNE">
      <acc value="0.0916050627" flag="0"/>
      <vel value="0.0284705427" flag="0"/>
      <psa03 value="0.1877665039" flag="0"/>
      <psa10 value="0.0131001848" flag="0"/>
      <psa30 value="0.0008161960" flag="0"/>
    </comp>
  </station>
  <station code="AKRO" name="AKRO" netid="HT" insttype="Compact," lat="36.3584" lon="25.3967">
    <comp name="--.HHE">
      <acc value="0.6356370522" flag="0"/>
      <vel value="0.3007293691" flag="0"/>
      <psa03 value="1.0016096112" flag="0"/>
      <psa10 value="0.1339006410" flag="0"/>
      <psa30 value="0.0090638977" flag="0"/>
    </comp>
    <comp name="--.HHN">
      <acc value="0.3713078816" flag="0"/>
      <vel value="0.1316244173" flag="0"/>
      <psa03 value="0.4448119170" flag="0"/>
      <psa10 value="0.0991474249" flag="0"/>
      <psa30 value="0.0056375194" flag="0"/>
    </comp>
    <comp name="--.HHZ">
      <acc value="0.3163156246" flag="0"/>
      <vel value="0.1333732568" flag="0"/>
      <psa03 value="0.3945683625" flag="0"/>
      <psa10 value="0.0468049986" flag="0"/>
      <psa30 value="0.0051354693" flag="0"/>
    </comp>
  </station>
  <station code="CMBO" name="CMBO" netid="HT" insttype="120P," lat="36.4709" lon="25.4056">
    <comp name="--.HHE">
      <acc value="0.2982003680" flag="0"/>
      <vel value="0.1652446765" flag="0"/>
      <psa03 value="0.4698389874" flag="0"/>
      <psa10 value="0.0899156923" flag="0"/>
      <psa30 value="0.0074585409" flag="0"/>
    </comp>
    <comp name="--.HHN">
      <acc value="0.5916176503" flag="0"/>
      <vel value="0.2239714937" flag="0"/>
      <psa03 value="0.7259716080" flag="0"/>
      <psa10 value="0.1709064164" flag="0"/>
      <psa30 value="0.0102784128" flag="0"/>
    </comp>
    <comp name="--.HHZ">
      <acc value="0.3285462827" flag="0"/>
      <vel value="0.0934594896" flag="0"/>
      <psa03 value="0.6474239265" flag="0"/>
      <psa10 value="0.0492925696" flag="0"/>
      <psa30 value="0.0067404474" flag="0"/>
    </comp>
  </station>
</stationlist>
