<?xml version="1.0" encoding="UTF-8" standalone="yes"?>
<!DOCTYPE earthquake SYSTEM "stationlist.dtd">
<stationlist created="" xmlns="ch.ethz.sed.shakemap.usgs.xml">
  <station code="APE" name="APE" netid="GE" insttype="STS-2/N" lat="37.0727" lon="25.523">
    <comp name="--.HHN">
      <acc value="0.1718677729" flag="0"/>
      <vel value="0.0448539752" flag="0"/>
      <psa03 value="0.1771403482" flag="0"/>
      <psa10 value="0.0149662371" flag="0"/>
      <psa30 value="0.0024634265" flag="0"/>
    </comp>
    <comp name="--.HHZ">
      <acc value="0.0803479436" flag="0"/>
      <vel value="0.0287626887" flag="0"/>
      <psa03 value="0.1320806508" flag="0"/>
      <psa10 value="0.0110485577" flag="0"/>
      <psa30 value="0.0026416538" flag="0"/>
    </comp>
    <comp name="--.HHE">
      <acc value="0.1620770360" flag="0"/>
      <vel value="0.0510870222" flag="0"/>
      <psa03 value="0.1687905823" flag="0"/>
      <psa10 value="0.0138170070" flag="0"/>
      <psa30 value="0.0024608349" flag="0"/>
    </comp>
  </station>
  <station code="THERA" name="THERA" netid="GE" insttype="STS-2/N" lat="36.367" lon="25.4753">
    <comp name="--.HHN">
      <acc value="0.1407386336" flag="0"/>
      <vel value="0.0457957572" flag="0"/>
      <psa03 value="0.2429202713" flag="0"/>
      <psa10 value="0.0220882697" flag="0"/>
      <psa30 value="0.0018221728" flag="0"/>
    </comp>
    <comp name="--.HHE">
      <acc value="0.1397835077" flag="0"/>
      <vel value="0.0565668725" flag="0"/>
      <psa03 value="0.2328071262" flag="0"/>
      <psa10 value="0.0264828055" flag="0"/>
      <psa30 value="0.0038686006" flag="0"/>
    </comp>
    <comp name="--.HHZ">
      <acc value="0.1484826856" flag="0"/>
      <vel value="0.0499414553" flag="0"/>
      <psa03 value="0.1807905903" flag="0"/>
      <psa10 value="0.0296736506" flag="0"/>
      <psa30 value="0.0022484926" flag="0"/>
    </comp>
  </station>
  <station code="SERI" name="SERI" netid="HA" insttype="30" lat="37.1609" lon="24.4853">
    <comp name="--.HHE">
      <acc value="0.0507377986" flag="0"/>
      <vel value="0.0287777848" flag="0"/>
      <psa03 value="0.1947125493" flag="0"/>
      <psa10 value="0.0093675255" flag="0"/>
      <psa30 value="0.0010350309" flag="0"/>
    </comp>
    <comp name="--.HHN">
      <acc value="0.0573148100" flag="0"/>
      <vel value="0.0289207359" flag="0"/>
      <psa03 value="0.1742986815" flag="0"/>
      <psa10 value="0.0161499555" flag="0"/>
      <psa30 value="0.0012793286" flag="0"/>
    </comp>
    <comp name="--.HHZ">
      <acc value="0.0424594978" flag="0"/>
      <vel value="0.0219336055" flag="0"/>
      <psa03 value="0.0879102924" flag="0"/>
      <psa10 value="0.0142371301" flag="0"/>
      <psa30 value="0.0016181304" flag="0"/>
    </comp>
  </station>
  <station code="SNT1" name="SNT1" netid="HA" insttype="30" lat="36.4159" lon="25.4282">
    <comp name="--.HHE">
      <acc value="0.1142151279" flag="0"/>
      <vel value="0.0610517089" flag="0"/>
      <psa03 value="0.2941336133" flag="0"/>
      <psa10 value="0.0705949377" flag="0"/>
      <psa30 value="0.0073434700" flag="0"/>
    </comp>
    <comp name="--.HHZ">
      <acc value="0.1005690082" flag="0"/>
      <vel value="0.0444370163" flag="0"/>
      <psa03 value="0.2924310920" flag="0"/>
      <psa10 value="0.0355319895" flag="0"/>
      <psa30 value="0.0037759610" flag="0"/>
    </comp>
    <comp name="--.HHN">
      <acc value="0.1845167447" flag="0"/>
      <vel value="0.0896785610" flag="0"/>
      <psa03 value="0.2976463714" flag="0"/>
      <psa10 value="0.0898599932" flag="0"/>
      <psa30 value="0.0088733529" flag="0"/>
    </comp>
  </station>
  <station code="SNT5" name="SNT5" netid="HA" insttype="1s-100Hz," lat="36.4037" lon="25.3953">
    <comp name="--.HHN">
      <acc value="0.5313958844" flag="0"/>
      <vel value="0.1339930146" flag="0"/>
      <psa03 value="0.5757773172" flag="0"/>
      <psa10 value="0.0365336211" flag="0"/>
      <psa30 value="0.0068300594" flag="0"/>
    </comp>
    <comp name="--.HHE">
      <acc value="0.7528860812" flag="0"/>
      <vel value="0.1804426483" flag="0"/>
      <psa03 value="0.6761983483" flag="0"/>
      <psa10 value="0.0842552055" flag="0"/>
      <psa30 value="0.0084139507" flag="0"/>
    </comp>
    <comp name="--.HHZ">
      <acc value="0.2459604839" flag="0"/>
      <vel value="0.0563232424" flag="0"/>
      <psa03 value="0.2443697658" flag="0"/>
      <psa10 value="0.0330611458" flag="0"/>
      <psa30 value="0.0021990452" flag="0"/>
    </comp>
  </station>
  <station code="NAX1" name="NAX1" netid="HI" insttype="CMG-5TD,ACCELEROMETER,GURALP" lat="37.1014" lon="25.3741">
    <comp name="--.HNE">
      <acc value="0.2082321459" flag="0"/>
      <vel value="0.0898725564" flag="0"/>
      <psa03 value="0.6832392732" flag="0"/>
      <psa10 value="0.0211254405" flag="0"/>
      <psa30 value="0.0027588677" flag="0"/>
    </comp>
    <comp name="--.HNZ">
      <acc value="0.1000235705" flag="0"/>
      <vel value="0.0321986538" flag="0"/>
      <psa03 value="0.2627471876" flag="0"/>
      <psa10 value="0.0162968287" flag="0"/>
      <psa30 value="0.0023380637" flag="0"/>
    </comp>
    <comp name="--.HNN">
      <acc value="0.1269334867" flag="0"/>
      <vel value="0.0500719752" flag="0"/>
      <psa03 value="0.2463040427" flag="0"/>
      <psa10 value="0.0153306906" flag="0"/>
      <psa30 value="0.0020135652" flag="0"/>
    </comp>
  </station>
  <station code="SFR2" name="SFR2" netid="HI" insttype="unknown" lat="36.3998" lon="25.4382">
    <comp name="--.HNE">
      <acc value="0.4906907409" flag="0"/>
      <vel value="0.2117756792" flag="0"/>
      <psa03 value="1.1613697450" flag="0"/>
      <psa10 value="0.0867104226" flag="0"/>
      <psa30 value="0.0092593230" flag="0"/>
    </comp>
    <comp name="--.HNZ">
      <acc value="0.3743952804" flag="0"/>
      <vel value="0.1183213344" flag="0"/>
      <psa03 value="0.5861045974" flag="0"/>
      <psa10 value="0.0843436768" flag="0"/>
      <psa30 value="0.0060143928" flag="0"/>
    </comp>
  </station>
  <station code="AMGA" name="AMGA" netid="HL" insttype="SMART24" lat="36.8316" lon="25.8938">
    <comp name="--.HHE">
      <acc value="0.3117391292" flag="0"/>
      <vel value="0.0631550473" flag="0"/>
      <psa03 value="0.2445597554" flag="0"/>
      <psa10 value="0.0336019041" flag="0"/>
      <psa30 value="0.0063706276" flag="0"/>
    </comp>
    <comp name="--.HHN">
      <acc value="0.4221426608" flag="0"/>
      <vel value="0.0867992953" flag="0"/>
      <psa03 value="0.2510143933" flag="0"/>
      <psa10 value="0.0332275155" flag="0"/>
      <psa30 value="0.0042920930" flag="0"/>
    </comp>
    <comp name="--.HHZ">
      <acc value="0.3697837832" flag="0"/>
      <vel value="0.0806017087" flag="0"/>
      <psa03 value="0.2125421157" flag="0"/>
      <psa10 value="0.0393322906" flag="0"/>
      <psa30 value="0.0041178921" flag="0"/>
    </comp>
  </station>
  <station code="APE" name="APE" netid="HL" insttype="120" lat="37.0727" lon="25.523">
    <comp name="--.HHE">
      <acc value="0.1513518406" flag="0"/>
      <vel value="0.0492137346" flag="0"/>
      <psa03 value="0.1634189720" flag="0"/>
      <psa10 value="0.0135937635" flag="0"/>
      <psa30 value="0.0024524037" flag="0"/>
    </comp>
    <comp name="--.HHN">
      <acc value="0.1574493558" flag="0"/>
      <vel value="0.0430352378" flag="0"/>
      <psa03 value="0.1721666291" flag="0"/>
      <psa10 value="0.0147305719" flag="0"/>
      <psa30 value="0.0024532536" flag="0"/>
    </comp>
    <comp name="--.HHZ">
      <acc value="0.0759896969" flag="0"/>
      <vel value="0.0282199137" flag="0"/>
      <psa03 value="0.1278952903" flag="0"/>
      <psa10 value="0.0109799616" flag="0"/>
      <psa30 value="0.0026337993" flag="0"/>
    </comp>
  </station>
  <station code="ASTA" name="ASTA" netid="HL" insttype="CMG-5" lat="36.5455" lon="26.3529">
    <comp name="00.HNE">
      <acc value="0.0559848500" flag="0"/>
      <vel value="0.0279888692" flag="0"/>
      <psa03 value="0.0967175643" flag="0"/>
      <psa10 value="0.0228423220" flag="0"/>
      <psa30 value="0.0011910953" flag="0"/>
    </comp>
    <comp name="00.HNN">
      <acc value="0.0505712776" flag="0"/>
      <vel value="0.0172201646" flag="0"/>
      <psa03 value="0.0925267381" flag="0"/>
      <psa10 value="0.0116815663" flag="0"/>
      <psa30 value="0.0023357728" flag="0"/>
    </comp>
    <comp name="00.HNZ">
      <acc value="0.0436894818" flag="0"/>
      <vel value="0.0274040736" flag="0"/>
      <psa03 value="0.0919355176" flag="0"/>
      <psa10 value="0.0179445013" flag="0"/>
      <psa30 value="0.0020669848" flag="0"/>
    </comp>
  </station>
  <station code="MHLO" name="MHLO" netid="HL" insttype="20" lat="36.6898" lon="24.4017">
    <comp name="--.HHE">
      <acc value="0.1434751880" flag="0"/>
      <vel value="0.1002089852" flag="0"/>
      <psa03 value="0.4573115167" flag="0"/>
      <psa10 value="0.1021403868" flag="0"/>
      <psa30 value="0.0046948221" flag="0"/>
    </comp>
    <comp name="--.HHN">
      <acc value="0.1585595538" flag="0"/>
      <vel value="0.0828132004" flag="0"/>
      <psa03 value="0.5259866065" flag="0"/>
      <psa10 value="0.1281629649" flag="0"/>
      <psa30 value="0.0045269493" flag="0"/>
    </comp>
    <comp name="--.HHZ">
      <acc value="0.0767048183" flag="0"/>
      <vel value="0.0517291617" flag="0"/>
      <psa03 value="0.1967097593" flag="0"/>
      <psa10 value="0.0421671478" flag="0"/>
      <psa30 value="0.0032148902" flag="0"/>
    </comp>
  </station>
  <station code="MILA" name="MILA" netid="HL" insttype="CMG-5" lat="36.7429" lon="24.4282">
    <comp name="00.HNZ">
      <acc value="0.1585556478" flag="0"/>
      <vel value="0.0762432296" flag="0"/>
      <psa03 value="0.3965415242" flag="0"/>
      <psa10 value="0.0662766959" flag="0"/>
      <psa30 value="0.0041880936" flag="0"/>
    </comp>
    <comp name="00.HNN">
      <acc value="0.2388408751" flag="0"/>
      <vel value="0.1788419245" flag="0"/>
      <psa03 value="0.9219131155" flag="0"/>
      <psa10 value="0.0973941134" flag="0"/>
      <psa30 value="0.0072647590" flag="0"/>
    </comp>
    <comp name="00.HNE">
      <acc value="0.1825876032" flag="0"/>
      <vel value="0.1201029726" flag="0"/>
      <psa03 value="0.5959651216" flag="0"/>
      <psa10 value="0.0753080215" flag="0"/>
      <psa30 value="0.0048151546" flag="0"/>
    </comp>
  </station>
  <station code="SAP3" name="SAP3" netid="HL" insttype="65535" lat="36.4356" lon="25.3454">
    <comp name="--.HHN">
      <acc value="0.5098924397" flag="0"/>
      <vel value="0.1538939009" flag="0"/>
      <psa03 value="0.9001236555" flag="0"/>
      <psa10 value="0.0670193463" flag="0"/>
      <psa30 value="0.0051454975" flag="0"/>
    </comp>
    <comp name="--.HHZ">
      <acc value="0.4714873449" flag="0"/>
      <vel value="0.1123355247" flag="0"/>
      <psa03 value="0.4835983651" flag="0"/>
      <psa10 value="0.0325064012" flag="0"/>
      <psa30 value="0.0038409703" flag="0"/>
    </comp>
    <comp name="--.HHE">
      <acc value="0.6079343454" flag="0"/>
      <vel value="0.1907834131" flag="0"/>
      <psa03 value="0.5756005626" flag="0"/>
      <psa10 value="0.0786597518" flag="0"/>
      <psa30 value="0.0079815765" flag="0"/>
    </comp>
  </station>
  <station code="THERA" name="THERA" netid="HL" insttype="120" lat="36.367" lon="25.4753">
    <comp name="--.HHZ">
      <acc value="0.1437716402" flag="0"/>
      <vel value="0.0490580047" flag="0"/>
      <psa03 value="0.1758840664" flag="0"/>
      <psa10 value="0.0293920913" flag="0"/>
      <psa30 value="0.0022393439" flag="0"/>
    </comp>
    <comp name="--.HHN">
      <acc value="0.2719476588" flag="0"/>
      <vel value="0.0881023348" flag="0"/>
      <psa03 value="0.4729563328" flag="0"/>
      <psa10 value="0.0438249629" flag="0"/>
      <psa30 value="0.0036310608" flag="0"/>
    </comp>
    <comp name="--.HHE">
      <acc value="0.1393010614" flag="0"/>
      <vel value="0.0554622090" flag="0"/>
      <psa03 value="0.2267871372" flag="0"/>
      <psa10 value="0.0262203155" flag="0"/>
      <psa30 value="0.0038670135" flag="0"/>
    </comp>
  </station>
  <station code="THRA" name="THRA" netid="HL" insttype="CMG-5" lat="36.415" lon="25.4324">
    <comp name="00.HNE">
      <acc value="0.4974065574" flag="0"/>
      <vel value="0.2164698031" flag="0"/>
      <psa03 value="1.0435947773" flag="0"/>
      <psa10 value="0.1913076603" flag="0"/>
      <psa30 value="0.0148285002" flag="0"/>
    </comp>
    <comp name="00.HNN">
      <acc value="0.4604340972" flag="0"/>
      <vel value="0.2325501327" flag="0"/>
      <psa03 value="1.2332498013" flag="0"/>
      <psa10 value="0.2757199038" flag="0"/>
      <psa30 value="0.0139950090" flag="0"/>
    </comp>
    <comp name="00.HNZ">
      <acc value="0.3328321477" flag="0"/>
      <vel value="0.1555553985" flag="0"/>
      <psa03 value="0.6425085085" flag="0"/>
      <psa10 value="0.0969682765" flag="0"/>
      <psa30 value="0.0084342357" flag="0"/>
    </comp>
  </station>
  <station code="TNSA" name="TNSA" netid="HL" insttype="CMG-5" lat="37.5394" lon="25.1631">
    <comp name="00.HNN">
      <acc value="0.1407212747" flag="0"/>
      <vel value="0.0575116630" flag="0"/>
      <psa03 value="0.4252324603" flag="0"/>
      <psa10 value="0.0176722661" flag="0"/>
      <psa30 value="0.0020846957" flag="0"/>
    </comp>
    <comp name="00.HNE">
      <acc value="0.0916050604" flag="0"/>
      <vel value="0.0284705406" flag="0"/>
      <psa03 value="0.1877665039" flag="0"/>
      <psa10 value="0.0131001848" flag="0"/>
      <psa30 value="0.0008156589" flag="0"/>
    </comp>
    <comp name="00.HNZ">
      <acc value="0.1253080988" flag="0"/>
      <vel value="0.0511155007" flag="0"/>
      <psa03 value="0.2808475018" flag="0"/>
      <psa10 value="0.0245778741" flag="0"/>
      <psa30 value="0.0029321918" flag="0"/>
    </comp>
  </station>
  <station code="AKRO" name="AKRO" netid="HT" insttype="Compact," lat="36.3584" lon="25.3967">
    <comp name="--.HHE">
      <acc value="0.6356370522" flag="0"/>
      <vel value="0.3007293689" flag="0"/>
      <psa03 value="1.0016096112" flag="0"/>
      <psa10 value="0.1339006400" flag="0"/>
      <psa30 value="0.0090640805" flag="0"/>
    </comp>
    <comp name="--.HHN">
      <acc value="0.3713078817" flag="0"/>
      <vel value="0.1316244169" flag="0"/>
      <psa03 value="0.4448119170" flag="0"/>
      <psa10 value="0.0991474250" flag="0"/>
      <psa30 value="0.0056375305" flag="0"/>
    </comp>
    <comp name="--.HHZ">
      <acc value="0.3163156245" flag="0"/>
      <vel value="0.1333732588" flag="0"/>
      <psa03 value="0.3945683625" flag="0"/>
      <psa10 value="0.0468049963" flag="0"/>
      <psa30 value="0.0051354112" flag="0"/>
    </comp>
  </station>
  <station code="CMBO" name="CMBO" netid="HT" insttype="120P," lat="36.4709" lon="25.4056">
    <comp name="--.HHE">
      <acc value="0.2982003680" flag="0"/>
      <vel value="0.1652446750" flag="0"/>
      <psa03 value="0.4698389874" flag="0"/>
      <psa10 value="0.0899156939" flag="0"/>
      <psa30 value="0.0074590181" flag="0"/>
    </comp>
    <comp name="--.HHZ">
      <acc value="0.3285462828" flag="0"/>
      <vel value="0.0934594857" flag="0"/>
      <psa03 value="0.6474239265" flag="0"/>
      <psa10 value="0.0492925656" flag="0"/>
      <psa30 value="0.0067408869" flag="0"/>
    </comp>
    <comp name="--.HHN">
      <acc value="0.5916176504" flag="0"/>
      <vel value="0.2239714921" flag="0"/>
      <psa03 value="0.7259716080" flag="0"/>
      <psa10 value="0.1709064312" flag="0"/>
      <psa30 value="0.0102772571" flag="0"/>
    </comp>
  </station>
</stationlist>
