<?xml version="1.0" encoding="UTF-8" standalone="yes"?>
<!DOCTYPE earthquake SYSTEM "stationlist.dtd">
<stationlist created="" xmlns="ch.ethz.sed.shakemap.usgs.xml">
  <station code="APE" name="APE" netid="GE" insttype="STS-2/N" lat="37.0727" lon="25.523">
    <comp name="--.HHN">
      <acc value="0.1718677729" flag="0"/>
      <vel value="0.0448539752" flag="0"/>
      <psa03 value="0.1771403482" flag="0"/>
      <psa10 value="0.0149662371" flag="0"/>
      <psa30 value="0.0024634265" flag="0"/>
    </comp>
    <comp name="--.HHZ">
      <acc value="0.0803479436" flag="0"/>
      <vel value="0.0287626887" flag="0"/>
      <psa03 value="0.1320806508" flag="0"/>
      <psa10 value="0.0110485577" flag="0"/>
      <psa30 value="0.0026416538" flag="0"/>
    </comp>
    <comp name="--.HHE">
      <acc value="0.1620770360" flag="0"/>
      <vel value="0.0510870222" flag="0"/>
      <psa03 value="0.1687905823" flag="0"/>
      <psa10 value="0.0138170070" flag="0"/>
      <psa30 value="0.0024608349" flag="0"/>
    </comp>
  </station>
  <station code="THERA" name="THERA" netid="GE" insttype="STS-2/N" lat="36.367" lon="25.4753">
    <comp name="--.HHN">
      <acc value="0.1407386336" flag="0"/>
      <vel value="0.0457957572" flag="0"/>
      <psa03 value="0.2429202713" flag="0"/>
      <psa10 value="0.0220882697" flag="0"/>
      <psa30 value="0.0018221728" flag="0"/>
    </comp>
    <comp name="--.HHE">
      <acc value="0.1397835077" flag="0"/>
      <vel value="0.0565668725" flag="0"/>
      <psa03 value="0.2328071262" flag="0"/>
      <psa10 value="0.0264828055" flag="0"/>
      <psa30 value="0.0038686006" flag="0"/>
    </comp>
    <comp name="--.HHZ">
      <acc value="0.1484826856" flag="0"/>
      <vel value="0.0499414553" flag="0"/>
      <psa03 value="0.1807905903" flag="0"/>
      <psa10 value="0.0296736506" flag="0"/>
      <psa30 value="0.0022484926" flag="0"/>
    </comp>
  </station>
</stationlist>
