<?xml version="1.0" encoding="UTF-8" standalone="yes"?>
<!DOCTYPE earthquake SYSTEM "stationlist.dtd">
<stationlist created="" xmlns="ch.ethz.sed.shakemap.usgs.xml">
  <station code="SVRC" name="SVRC" netid="KO" insttype="CMG-3T" lat="38.3775" lon="39.306">
    <comp name="--.HHN">
      <acc value="0.0494174912" flag="0"/>
      <vel value="0.0205780812" flag="0"/>
      <psa03 value="0.1514803370" flag="0"/>
      <psa10 value="0.0116347858" flag="0"/>
      <psa30 value="0.0006759889" flag="0"/>
    </comp>
    <comp name="--.HHZ">
      <acc value="0.0298427122" flag="0"/>
      <vel value="0.0123866263" flag="0"/>
      <psa03 value="0.0760324241" flag="0"/>
      <psa10 value="0.0063439843" flag="0"/>
      <psa30 value="0.0006486573" flag="0"/>
    </comp>
    <comp name="--.HHE">
      <acc value="0.0518840665" flag="0"/>
      <vel value="0.0220865461" flag="0"/>
      <psa03 value="0.2277779402" flag="0"/>
      <psa10 value="0.0118261303" flag="0"/>
      <psa30 value="0.0010658253" flag="0"/>
    </comp>
  </station>
</stationlist>
