<?xml version="1.0" encoding="UTF-8" standalone="yes"?>
<!DOCTYPE earthquake SYSTEM "stationlist.dtd">
<stationlist created="" xmlns="ch.ethz.sed.shakemap.usgs.xml">
  <station code="ARPRA" name="ARPRA" netid="KO" insttype="CMG-5T" lat="39.0929" lon="38.3356">
    <comp name="--.HNE">
      <acc value="0.0763830996" flag="0"/>
      <vel value="0.0365292265" flag="0"/>
      <psa03 value="0.2168315600" flag="0"/>
      <psa10 value="0.0227630377" flag="0"/>
      <psa30 value="0.0010705371" flag="0"/>
    </comp>
    <comp name="--.HNN">
      <acc value="0.0624404782" flag="0"/>
      <vel value="0.0279487730" flag="0"/>
      <psa03 value="0.2175444149" flag="0"/>
      <psa10 value="0.0214309004" flag="0"/>
      <psa30 value="0.0011470798" flag="0"/>
    </comp>
    <comp name="--.HNZ">
      <acc value="0.0363894617" flag="0"/>
      <vel value="0.0134449837" flag="0"/>
      <psa03 value="0.0831559582" flag="0"/>
      <psa10 value="0.0130018008" flag="0"/>
      <psa30 value="0.0008457900" flag="0"/>
    </comp>
  </station>
  <station code="DARE" name="DARE" netid="KO" insttype="CMG-3ESP" lat="38.5712" lon="37.4832">
    <comp name="--.HHN">
      <acc value="0.0236355538" flag="0"/>
      <vel value="0.0127712938" flag="0"/>
      <psa03 value="0.0576146780" flag="0"/>
      <psa10 value="0.0161041047" flag="0"/>
      <psa30 value="0.0009520297" flag="0"/>
    </comp>
    <comp name="--.HHZ">
      <acc value="0.0232868167" flag="0"/>
      <vel value="0.0101626855" flag="0"/>
      <psa03 value="0.0851326316" flag="0"/>
      <psa10 value="0.0075311389" flag="0"/>
      <psa30 value="0.0008127013" flag="0"/>
    </comp>
    <comp name="--.HHE">
      <acc value="0.0213574415" flag="0"/>
      <vel value="0.0100586426" flag="0"/>
      <psa03 value="0.0568379165" flag="0"/>
      <psa10 value="0.0123595991" flag="0"/>
      <psa30 value="0.0011592502" flag="0"/>
    </comp>
  </station>
  <station code="SVRC" name="SVRC" netid="KO" insttype="CMG-3T" lat="38.3775" lon="39.306">
    <comp name="--.HHE">
      <acc value="0.0518840668" flag="0"/>
      <vel value="0.0220865461" flag="0"/>
      <psa03 value="0.2277779402" flag="0"/>
      <psa10 value="0.0118261303" flag="0"/>
      <psa30 value="0.0010658708" flag="0"/>
    </comp>
    <comp name="--.HHN">
      <acc value="0.0494174912" flag="0"/>
      <vel value="0.0205780809" flag="0"/>
      <psa03 value="0.1514803370" flag="0"/>
      <psa10 value="0.0116347858" flag="0"/>
      <psa30 value="0.0006759602" flag="0"/>
    </comp>
    <comp name="--.HHZ">
      <acc value="0.0298427122" flag="0"/>
      <vel value="0.0123866266" flag="0"/>
      <psa03 value="0.0760324241" flag="0"/>
      <psa10 value="0.0063439843" flag="0"/>
      <psa30 value="0.0006486461" flag="0"/>
    </comp>
  </station>
</stationlist>
