<?xml version="1.0" encoding="UTF-8" standalone="yes"?>
<!DOCTYPE earthquake SYSTEM "stationlist.dtd">
<stationlist created="" xmlns="ch.ethz.sed.shakemap.usgs.xml">
  <station code="AKS" name="AKS" netid="KO" insttype="CMG-5T" commtype="DIG" lat="38.8785" lon="27.8129">
    <comp name="--.HNZ">
      <acc value="0.0548189317" flag="0"/>
      <vel value="0.0105454665" flag="0"/>
      <psa03 value="0.0417013358" flag="0"/>
      <psa10 value="0.0063633867" flag="0"/>
      <psa30 value="0.0005120302" flag="0"/>
    </comp>
    <comp name="--.HNN">
      <acc value="0.1151732639" flag="0"/>
      <vel value="0.0327091942" flag="0"/>
      <psa03 value="0.0996760487" flag="0"/>
      <psa10 value="0.0085377578" flag="0"/>
      <psa30 value="0.0008328286" flag="0"/>
    </comp>
  </station>
  <station code="BALB" name="BALB" netid="KO" insttype="CMG-5T" commtype="DIG" lat="39.6507" lon="27.8642">
    <comp name="--.HNE">
      <acc value="0.0322977370" flag="0"/>
      <vel value="0.0175172025" flag="0"/>
      <psa03 value="0.0493499266" flag="0"/>
      <psa10 value="0.0148376420" flag="0"/>
      <psa30 value="0.0007362786" flag="0"/>
    </comp>
    <comp name="--.HNN">
      <acc value="0.0518027163" flag="0"/>
      <vel value="0.0136732162" flag="0"/>
      <psa03 value="0.0551263952" flag="0"/>
      <psa10 value="0.0090474541" flag="0"/>
      <psa30 value="0.0008366405" flag="0"/>
    </comp>
    <comp name="--.HNZ">
      <acc value="0.0213986690" flag="0"/>
      <vel value="0.0052702889" flag="0"/>
      <psa03 value="0.0179213933" flag="0"/>
      <psa10 value="0.0061114059" flag="0"/>
      <psa30 value="0.0003271413" flag="0"/>
    </comp>
  </station>
  <station code="DKL" name="DKL" netid="KO" insttype="CMG-3ESPC" commtype="DIG" lat="39.0713" lon="26.9053">
    <comp name="--.HHN">
      <acc value="0.0021639786" flag="0"/>
      <vel value="0.0006654742" flag="0"/>
      <psa03 value="0.0023023974" flag="0"/>
      <psa10 value="0.0002785215" flag="0"/>
      <psa30 value="0.0000258611" flag="0"/>
    </comp>
    <comp name="--.HHZ">
      <acc value="0.0054304184" flag="0"/>
      <vel value="0.0013804136" flag="0"/>
      <psa03 value="0.0072034885" flag="0"/>
      <psa10 value="0.0005642364" flag="0"/>
      <psa30 value="0.0000540747" flag="0"/>
    </comp>
  </station>
  <station code="GOMA" name="GOMA" netid="KO" insttype="CMG-5T" commtype="DIG" lat="38.7077" lon="27.9175">
    <comp name="--.HNZ">
      <acc value="0.0815807641" flag="0"/>
      <vel value="0.0242479463" flag="0"/>
      <psa03 value="0.1214898123" flag="0"/>
      <psa10 value="0.0054525106" flag="0"/>
      <psa30 value="0.0006363978" flag="0"/>
    </comp>
    <comp name="--.HNN">
      <acc value="0.1453758155" flag="0"/>
      <vel value="0.0783174541" flag="0"/>
      <psa03 value="0.5961421125" flag="0"/>
      <psa10 value="0.0220609351" flag="0"/>
      <psa30 value="0.0021187681" flag="0"/>
    </comp>
    <comp name="--.HNE">
      <acc value="0.1155169762" flag="0"/>
      <vel value="0.0600207252" flag="0"/>
      <psa03 value="0.3483950296" flag="0"/>
      <psa10 value="0.0176254834" flag="0"/>
      <psa30 value="0.0015295949" flag="0"/>
    </comp>
  </station>
  <station code="GONE" name="GONE" netid="KO" insttype="CMG-5T" commtype="DIG" lat="40.0466" lon="27.686">
    <comp name="--.HNZ">
      <acc value="0.0143977627" flag="0"/>
      <vel value="0.0043397163" flag="0"/>
      <psa03 value="0.0119880917" flag="0"/>
      <psa10 value="0.0039895021" flag="0"/>
      <psa30 value="0.0003274578" flag="0"/>
    </comp>
    <comp name="--.HNN">
      <acc value="0.0371320047" flag="0"/>
      <vel value="0.0218068611" flag="0"/>
      <psa03 value="0.0665689571" flag="0"/>
      <psa10 value="0.0137371881" flag="0"/>
      <psa30 value="0.0009118826" flag="0"/>
    </comp>
    <comp name="--.HNE">
      <acc value="0.0237207790" flag="0"/>
      <vel value="0.0092341420" flag="0"/>
      <psa03 value="0.0407915747" flag="0"/>
      <psa10 value="0.0102785095" flag="0"/>
      <psa30 value="0.0007002228" flag="0"/>
    </comp>
  </station>
  <station code="GORD" name="GORD" netid="KO" insttype="CMG-5T" commtype="DIG" lat="38.9088" lon="28.1769">
    <comp name="--.HNZ">
      <acc value="0.3005188536" flag="0"/>
      <vel value="0.0453030594" flag="0"/>
      <psa03 value="0.1278262414" flag="0"/>
      <psa10 value="0.0170346305" flag="0"/>
      <psa30 value="0.0017725253" flag="0"/>
    </comp>
    <comp name="--.HNE">
      <acc value="0.1883418179" flag="0"/>
      <vel value="0.0252953585" flag="0"/>
      <psa03 value="0.0765861623" flag="0"/>
      <psa10 value="0.0231137896" flag="0"/>
      <psa30 value="0.0015773340" flag="0"/>
    </comp>
    <comp name="--.HNN">
      <acc value="0.1074372156" flag="0"/>
      <vel value="0.0259363052" flag="0"/>
      <psa03 value="0.0849110507" flag="0"/>
      <psa10 value="0.0386651078" flag="0"/>
      <psa30 value="0.0029784448" flag="0"/>
    </comp>
  </station>
  <station code="KCTX" name="KCTX" netid="KO" insttype="CMG-3ESP" commtype="DIG" lat="40.2626" lon="28.3353">
    <comp name="--.HHN">
      <acc value="0.0176167647" flag="0"/>
      <vel value="0.0047592639" flag="0"/>
      <psa03 value="0.0350581911" flag="0"/>
      <psa10 value="0.0034732756" flag="0"/>
      <psa30 value="0.0003186419" flag="0"/>
    </comp>
    <comp name="--.HHE">
      <acc value="0.0115765691" flag="0"/>
      <vel value="0.0042938523" flag="0"/>
      <psa03 value="0.0156924662" flag="0"/>
      <psa10 value="0.0034472546" flag="0"/>
      <psa30 value="0.0002977514" flag="0"/>
    </comp>
    <comp name="--.HHZ">
      <acc value="0.0184735776" flag="0"/>
      <vel value="0.0040120304" flag="0"/>
      <psa03 value="0.0190429999" flag="0"/>
      <psa10 value="0.0022843250" flag="0"/>
      <psa30 value="0.0002827584" flag="0"/>
    </comp>
  </station>
  <station code="KULA" name="KULA" netid="KO" insttype="CMG-3T" commtype="DIG" lat="38.5145" lon="28.6607">
    <comp name="--.HHZ">
      <acc value="0.0362841462" flag="0"/>
      <vel value="0.0095531956" flag="0"/>
      <psa03 value="0.0442100812" flag="0"/>
      <psa10 value="0.0063733315" flag="0"/>
      <psa30 value="0.0006376027" flag="0"/>
    </comp>
    <comp name="--.HHE">
      <acc value="0.0627133276" flag="0"/>
      <vel value="0.0115371147" flag="0"/>
      <psa03 value="0.0339694211" flag="0"/>
      <psa10 value="0.0082674940" flag="0"/>
      <psa30 value="0.0005811524" flag="0"/>
    </comp>
    <comp name="--.HHN">
      <acc value="0.0413809946" flag="0"/>
      <vel value="0.0112363811" flag="0"/>
      <psa03 value="0.0606618903" flag="0"/>
      <psa10 value="0.0041721815" flag="0"/>
      <psa30 value="0.0003668431" flag="0"/>
    </comp>
  </station>
  <station code="ORLT" name="ORLT" netid="KO" insttype="CMG-5T" commtype="DIG" lat="40.0452" lon="28.8914">
    <comp name="--.HNE">
      <acc value="0.0334384274" flag="0"/>
      <vel value="0.0134869350" flag="0"/>
      <psa03 value="0.0898370208" flag="0"/>
      <psa10 value="0.0102321753" flag="0"/>
      <psa30 value="0.0007486994" flag="0"/>
    </comp>
    <comp name="--.HNN">
      <acc value="0.0300329752" flag="0"/>
      <vel value="0.0159164993" flag="0"/>
      <psa03 value="0.1012419271" flag="0"/>
      <psa10 value="0.0183672318" flag="0"/>
      <psa30 value="0.0011760704" flag="0"/>
    </comp>
    <comp name="--.HNZ">
      <acc value="0.0140310613" flag="0"/>
      <vel value="0.0081397303" flag="0"/>
      <psa03 value="0.0301596827" flag="0"/>
      <psa10 value="0.0130314640" flag="0"/>
      <psa30 value="0.0006605531" flag="0"/>
    </comp>
  </station>
  <station code="SHAP" name="SHAP" netid="KO" insttype="CMG-5T" commtype="DIG" lat="39.0231" lon="29.222">
    <comp name="--.HNN">
      <acc value="0.0756360129" flag="0"/>
      <vel value="0.0233983874" flag="0"/>
      <psa03 value="0.1282180998" flag="0"/>
      <psa10 value="0.0089077977" flag="0"/>
      <psa30 value="0.0003915751" flag="0"/>
    </comp>
    <comp name="--.HNZ">
      <acc value="0.0466985956" flag="0"/>
      <vel value="0.0129634070" flag="0"/>
      <psa03 value="0.0802414368" flag="0"/>
      <psa10 value="0.0041714666" flag="0"/>
      <psa30 value="0.0002857484" flag="0"/>
    </comp>
    <comp name="--.HNE">
      <acc value="0.0605406441" flag="0"/>
      <vel value="0.0216124508" flag="0"/>
      <psa03 value="0.1771363728" flag="0"/>
      <psa10 value="0.0080391498" flag="0"/>
      <psa30 value="0.0005853793" flag="0"/>
    </comp>
  </station>
  <station code="SIMA" name="SIMA" netid="KO" insttype="CMG-6T" commtype="DIG" lat="39.0833" lon="28.9825">
    <comp name="--.HHE">
      <acc value="0.0877887476" flag="0"/>
      <vel value="0.0225051971" flag="0"/>
      <psa03 value="0.1033482580" flag="0"/>
      <psa10 value="0.0052884734" flag="0"/>
      <psa30 value="0.0004690694" flag="0"/>
    </comp>
    <comp name="--.HHN">
      <acc value="0.0980982326" flag="0"/>
      <vel value="0.0320713418" flag="0"/>
      <psa03 value="0.1483920086" flag="0"/>
      <psa10 value="0.0088552330" flag="0"/>
      <psa30 value="0.0008346276" flag="0"/>
    </comp>
    <comp name="--.HHZ">
      <acc value="0.0794398741" flag="0"/>
      <vel value="0.0156544038" flag="0"/>
      <psa03 value="0.0542071241" flag="0"/>
      <psa10 value="0.0037190415" flag="0"/>
      <psa30 value="0.0003216990" flag="0"/>
    </comp>
  </station>
  <station code="SMAA" name="SMAA" netid="KO" insttype="CMG-5T" commtype="DIG" lat="39.1005" lon="28.9805">
    <comp name="--.HNN">
      <acc value="0.0616085135" flag="0"/>
      <vel value="0.0268045997" flag="0"/>
      <psa03 value="0.1588482756" flag="0"/>
      <psa10 value="0.0186633070" flag="0"/>
      <psa30 value="0.0014048611" flag="0"/>
    </comp>
    <comp name="--.HNE">
      <acc value="0.0765612065" flag="0"/>
      <vel value="0.0351212555" flag="0"/>
      <psa03 value="0.1999084153" flag="0"/>
      <psa10 value="0.0266629314" flag="0"/>
      <psa30 value="0.0017551403" flag="0"/>
    </comp>
    <comp name="--.HNZ">
      <acc value="0.0513616273" flag="0"/>
      <vel value="0.0103671376" flag="0"/>
      <psa03 value="0.0507253500" flag="0"/>
      <psa10 value="0.0201491285" flag="0"/>
      <psa30 value="0.0007277436" flag="0"/>
    </comp>
  </station>
  <station code="SOMA" name="SOMA" netid="KO" insttype="CMG-5T" commtype="DIG" lat="39.1564" lon="27.5341">
    <comp name="--.HNE">
      <acc value="0.0390414003" flag="0"/>
      <vel value="0.0099708877" flag="0"/>
      <psa03 value="0.0457436825" flag="0"/>
      <psa10 value="0.0047469141" flag="0"/>
      <psa30 value="0.0002661083" flag="0"/>
    </comp>
    <comp name="--.HNN">
      <acc value="0.0472324824" flag="0"/>
      <vel value="0.0147826786" flag="0"/>
      <psa03 value="0.0474923077" flag="0"/>
      <psa10 value="0.0114069770" flag="0"/>
      <psa30 value="0.0007497415" flag="0"/>
    </comp>
    <comp name="--.HNZ">
      <acc value="0.0319545563" flag="0"/>
      <vel value="0.0094170100" flag="0"/>
      <psa03 value="0.0242693429" flag="0"/>
      <psa10 value="0.0044030103" flag="0"/>
      <psa30 value="0.0002618034" flag="0"/>
    </comp>
  </station>
  <station code="SUSR" name="SUSR" netid="KO" insttype="CMG-5T" commtype="DIG" lat="39.9627" lon="28.0835">
    <comp name="--.HNN">
      <acc value="0.0303961241" flag="0"/>
      <vel value="0.0081931301" flag="0"/>
      <psa03 value="0.0533399778" flag="0"/>
      <psa10 value="0.0036538404" flag="0"/>
      <psa30 value="0.0002123038" flag="0"/>
    </comp>
    <comp name="--.HNE">
      <acc value="0.0305027408" flag="0"/>
      <vel value="0.0061712498" flag="0"/>
      <psa03 value="0.0269575388" flag="0"/>
      <psa10 value="0.0029343581" flag="0"/>
      <psa30 value="0.0002393879" flag="0"/>
    </comp>
    <comp name="--.HNZ">
      <acc value="0.0264273669" flag="0"/>
      <vel value="0.0065067254" flag="0"/>
      <psa03 value="0.0276731556" flag="0"/>
      <psa10 value="0.0027583355" flag="0"/>
      <psa30 value="0.0002040244" flag="0"/>
    </comp>
  </station>
  <station code="TVSB" name="TVSB" netid="KO" insttype="CMG-3T" commtype="DIG" lat="39.4497" lon="29.4615">
    <comp name="--.HHZ">
      <acc value="0.0196425072" flag="0"/>
      <vel value="0.0110383547" flag="0"/>
      <psa03 value="0.0721906264" flag="0"/>
      <psa10 value="0.0052608252" flag="0"/>
      <psa30 value="0.0003166346" flag="0"/>
    </comp>
    <comp name="--.HHE">
      <acc value="0.0313832630" flag="0"/>
      <vel value="0.0198825466" flag="0"/>
      <psa03 value="0.0934678089" flag="0"/>
      <psa10 value="0.0095518498" flag="0"/>
      <psa30 value="0.0005969973" flag="0"/>
    </comp>
    <comp name="--.HHN">
      <acc value="0.0403880673" flag="0"/>
      <vel value="0.0226007540" flag="0"/>
      <psa03 value="0.1521901401" flag="0"/>
      <psa10 value="0.0098777388" flag="0"/>
      <psa30 value="0.0007457328" flag="0"/>
    </comp>
  </station>
  <station code="YAYO" name="YAYO" netid="KO" insttype="CMG-6T" commtype="DIG" lat="39.6113" lon="27.0726">
    <comp name="--.HHE">
      <acc value="0.0072879588" flag="0"/>
      <vel value="0.0040082889" flag="0"/>
      <psa03 value="0.0145940059" flag="0"/>
      <psa10 value="0.0049088586" flag="0"/>
      <psa30 value="0.0002683831" flag="0"/>
    </comp>
    <comp name="--.HHN">
      <acc value="0.0117857540" flag="0"/>
      <vel value="0.0074799720" flag="0"/>
      <psa03 value="0.0224067424" flag="0"/>
      <psa10 value="0.0071694326" flag="0"/>
      <psa30 value="0.0003094954" flag="0"/>
    </comp>
    <comp name="--.HHZ">
      <acc value="0.0078893210" flag="0"/>
      <vel value="0.0044743455" flag="0"/>
      <psa03 value="0.0185665697" flag="0"/>
      <psa10 value="0.0049968110" flag="0"/>
      <psa30 value="0.0003118062" flag="0"/>
    </comp>
  </station>
  <station code="YENI" name="YENI" netid="KO" insttype="CMG-5T" commtype="DIG" lat="39.9364" lon="27.2422">
    <comp name="--.HNE">
      <acc value="0.0262166714" flag="0"/>
      <vel value="0.0096517513" flag="0"/>
      <psa03 value="0.0513901640" flag="0"/>
      <psa10 value="0.0078498739" flag="0"/>
      <psa30 value="0.0007108288" flag="0"/>
    </comp>
    <comp name="--.HNZ">
      <acc value="0.0143145634" flag="0"/>
      <vel value="0.0046471886" flag="0"/>
      <psa03 value="0.0166072448" flag="0"/>
      <psa10 value="0.0037611059" flag="0"/>
      <psa30 value="0.0003472176" flag="0"/>
    </comp>
    <comp name="--.HNN">
      <acc value="0.0357979919" flag="0"/>
      <vel value="0.0157440602" flag="0"/>
      <psa03 value="0.0757337093" flag="0"/>
      <psa10 value="0.0127968219" flag="0"/>
      <psa30 value="0.0008062649" flag="0"/>
    </comp>
  </station>
</stationlist>
