<?xml version="1.0" encoding="UTF-8" standalone="yes"?>
<!DOCTYPE earthquake SYSTEM "stationlist.dtd">
<stationlist created="" xmlns="ch.ethz.sed.shakemap.usgs.xml">
  <station code="IACL" name="IACL" netid="IV" insttype="" lat="38.533" lon="14.355">
    <comp name="--.HHE">
      <acc value="0.0015864200" flag="0"/>
      <vel value="0.0007492503" flag="0"/>
      <psa03 value="0.0042294572" flag="0"/>
      <psa10 value="0.0009833236" flag="0"/>
      <psa30 value="0.0002669106" flag="0"/>
    </comp>
    <comp name="--.HHN">
      <acc value="0.0018883903" flag="0"/>
      <vel value="0.0006916491" flag="0"/>
      <psa03 value="0.0050167236" flag="0"/>
      <psa10 value="0.0007502038" flag="0"/>
      <psa30 value="0.0000693113" flag="0"/>
    </comp>
    <comp name="--.HHZ">
      <acc value="0.0021814788" flag="0"/>
      <vel value="0.0009743067" flag="0"/>
      <psa03 value="0.0042305675" flag="0"/>
      <psa10 value="0.0007865380" flag="0"/>
      <psa30 value="0.0000719356" flag="0"/>
    </comp>
  </station>
</stationlist>
