<?xml version="1.0" encoding="UTF-8" standalone="yes"?>
<!DOCTYPE earthquake SYSTEM "stationlist.dtd">
<stationlist created="" xmlns="ch.ethz.sed.shakemap.usgs.xml">
  <station code="GMLD" name="GMLD" netid="KO" insttype="100" lat="38.0764" lon="26.8747">
    <comp name="--.HNE">
      <acc value="0.3185784273" flag="0"/>
      <vel value="0.1093168598" flag="0"/>
      <psa03 value="0.4221131335" flag="0"/>
      <psa10 value="0.0356152008" flag="0"/>
      <psa30 value="0.0041598059" flag="0"/>
    </comp>
    <comp name="--.HNN">
      <acc value="0.2186753537" flag="0"/>
      <vel value="0.0734966576" flag="0"/>
      <psa03 value="0.3399455085" flag="0"/>
      <psa10 value="0.0467837541" flag="0"/>
      <psa30 value="0.0036297081" flag="0"/>
    </comp>
    <comp name="--.HNZ">
      <acc value="0.1830210352" flag="0"/>
      <vel value="0.0424439512" flag="0"/>
      <psa03 value="0.2466207271" flag="0"/>
      <psa10 value="0.0107093977" flag="0"/>
      <psa30 value="0.0018162687" flag="0"/>
    </comp>
  </station>
  <station code="YKAV" name="YKAV" netid="KO" insttype="100" lat="37.1246" lon="27.2801">
    <comp name="--.HNZ">
      <acc value="0.0028605718" flag="0"/>
      <vel value="0.0013297584" flag="0"/>
      <psa03 value="0.0041861050" flag="0"/>
      <psa10 value="0.0017196859" flag="0"/>
      <psa30 value="0.0001970914" flag="0"/>
    </comp>
    <comp name="--.HNE">
      <acc value="0.0046822351" flag="0"/>
      <vel value="0.0027156471" flag="0"/>
      <psa03 value="0.0094566512" flag="0"/>
      <psa10 value="0.0036281233" flag="0"/>
      <psa30 value="0.0003912130" flag="0"/>
    </comp>
    <comp name="--.HNN">
      <acc value="0.0034034324" flag="0"/>
      <vel value="0.0025559302" flag="0"/>
      <psa03 value="0.0058560761" flag="0"/>
      <psa10 value="0.0033952149" flag="0"/>
      <psa30 value="0.0001825057" flag="0"/>
    </comp>
  </station>
  <station code="AYDN" name="AYDN" netid="TU" source="ODC" insttype="T" lat="37.6608" lon="27.8792">
    <comp name="--.HHN">
      <acc value="0.0613022792" flag="0"/>
      <vel value="0.0352847615" flag="0"/>
      <psa03 value="0.1896405914" flag="0"/>
      <psa10 value="0.0276696304" flag="0"/>
      <psa30 value="0.0018399822" flag="0"/>
    </comp>
    <comp name="--.HHZ">
      <acc value="0.0370122053" flag="0"/>
      <vel value="0.0177393157" flag="0"/>
      <psa03 value="0.0572361990" flag="0"/>
      <psa10 value="0.0185761936" flag="0"/>
      <psa30 value="0.0011449073" flag="0"/>
    </comp>
    <comp name="--.HHE">
      <acc value="0.0502754717" flag="0"/>
      <vel value="0.0284749592" flag="0"/>
      <psa03 value="0.1364683031" flag="0"/>
      <psa10 value="0.0199263480" flag="0"/>
      <psa30 value="0.0011029185" flag="0"/>
    </comp>
  </station>
</stationlist>
