<stationlist created="1631873497">
	<station code="KRL1" name="KRL1" netid="HI" source="ITSAK Strong Motion Network" insttype="" lat="37.7951" lon="26.7065">
		<comp name="--.HNE" depth="0.0">
			<acc value="0.387609486" flag="0"/>
			<vel value="0.107803" flag="0"/>
			<psa03 value="0.521828355789" flag="0"/>
			<psa10 value="0.0388867940381" flag="0"/>
			<psa30 value="0.00345678288333" flag="0"/>
		</comp>
		<comp name="--.HNN" depth="0.0">
			<acc value="-0.275891844" flag="0"/>
			<vel value="0.133316" flag="0"/>
			<psa03 value="0.433059817858" flag="0"/>
			<psa10 value="0.0868741529024" flag="0"/>
			<psa30 value="0.00691803998732" flag="0"/>
		</comp>
		<comp name="--.HNZ" depth="0.0">
			<acc value="-0.128998482" flag="0"/>
			<vel value="0.037692" flag="0"/>
			<psa03 value="0.139550942442" flag="0"/>
			<psa10 value="0.0386169985322" flag="0"/>
			<psa30 value="0.00424693025221" flag="0"/>
		</comp>
	</station>
</stationlist>
