<?xml version="1.0" encoding="UTF-8" standalone="yes"?>
<!DOCTYPE earthquake SYSTEM "stationlist.dtd">
<stationlist created="" xmlns="ch.ethz.sed.shakemap.usgs.xml">
  <station code="APRC" name="APRC" netid="IV" insttype="" lat="41.7574" lon="15.5431">
    <comp name="--.HHE">
      <acc value="0.5237886546" flag="0"/>
      <vel value="0.2271971793" flag="0"/>
      <psa03 value="1.2353265767" flag="0"/>
      <psa10 value="0.0823552585" flag="0"/>
      <psa30 value="0.0061593712" flag="0"/>
    </comp>
    <comp name="--.HHN">
      <acc value="0.9196262827" flag="0"/>
      <vel value="0.2525280353" flag="0"/>
      <psa03 value="1.9323974853" flag="0"/>
      <psa10 value="0.1087128965" flag="0"/>
      <psa30 value="0.0066955272" flag="0"/>
    </comp>
    <comp name="--.HHZ">
      <acc value="0.3693372622" flag="0"/>
      <vel value="0.1289246193" flag="0"/>
      <psa03 value="0.6094709127" flag="0"/>
      <psa10 value="0.0387821484" flag="0"/>
      <psa30 value="0.0034710646" flag="0"/>
    </comp>
  </station>
  <station code="BSSO" name="BSSO" netid="IV" insttype="" lat="41.5461" lon="14.5938">
    <comp name="--.HHE">
      <acc value="0.0132078625" flag="0"/>
      <vel value="0.0052748182" flag="0"/>
      <psa03 value="0.0342224961" flag="0"/>
      <psa10 value="0.0039647435" flag="0"/>
      <psa30 value="0.0005291045" flag="0"/>
    </comp>
    <comp name="--.HHZ">
      <acc value="0.0089478457" flag="0"/>
      <vel value="0.0033455068" flag="0"/>
      <psa03 value="0.0168972573" flag="0"/>
      <psa10 value="0.0021784281" flag="0"/>
      <psa30 value="0.0002751722" flag="0"/>
    </comp>
    <comp name="--.HHN">
      <acc value="0.0107706770" flag="0"/>
      <vel value="0.0047201283" flag="0"/>
      <psa03 value="0.0240099625" flag="0"/>
      <psa10 value="0.0040675984" flag="0"/>
      <psa30 value="0.0005961281" flag="0"/>
    </comp>
  </station>
  <station code="CAFE" name="CAFE" netid="IV" insttype="" lat="41.028" lon="15.2366">
    <comp name="--.HHE">
      <acc value="0.0260417520" flag="0"/>
      <vel value="0.0093470580" flag="0"/>
      <psa03 value="0.0632325364" flag="0"/>
      <psa10 value="0.0077354159" flag="0"/>
      <psa30 value="0.0006669384" flag="0"/>
    </comp>
    <comp name="--.HHZ">
      <acc value="0.0108959545" flag="0"/>
      <vel value="0.0033970870" flag="0"/>
      <psa03 value="0.0246026492" flag="0"/>
      <psa10 value="0.0030070358" flag="0"/>
      <psa30 value="0.0004438270" flag="0"/>
    </comp>
    <comp name="--.HHN">
      <acc value="0.0176010328" flag="0"/>
      <vel value="0.0058269423" flag="0"/>
      <psa03 value="0.0439301317" flag="0"/>
      <psa10 value="0.0043586527" flag="0"/>
      <psa30 value="0.0007784458" flag="0"/>
    </comp>
  </station>
  <station code="CERA" name="CERA" netid="IV" insttype="" lat="41.5978" lon="14.0183">
    <comp name="--.HHE">
      <acc value="0.0085443090" flag="0"/>
      <vel value="0.0056861985" flag="0"/>
      <psa03 value="0.0259594980" flag="0"/>
      <psa10 value="0.0102886936" flag="0"/>
      <psa30 value="0.0005092046" flag="0"/>
    </comp>
    <comp name="--.HHZ">
      <acc value="0.0049292336" flag="0"/>
      <vel value="0.0031159220" flag="0"/>
      <psa03 value="0.0089350866" flag="0"/>
      <psa10 value="0.0036496404" flag="0"/>
      <psa30 value="0.0001792325" flag="0"/>
    </comp>
    <comp name="--.HHN">
      <acc value="0.0075398543" flag="0"/>
      <vel value="0.0064360773" flag="0"/>
      <psa03 value="0.0261243728" flag="0"/>
      <psa10 value="0.0083286997" flag="0"/>
      <psa30 value="0.0006300912" flag="0"/>
    </comp>
  </station>
  <station code="GATE" name="GATE" netid="IV" insttype="" lat="41.5131" lon="14.9102">
    <comp name="--.HHE">
      <acc value="0.0248149042" flag="0"/>
      <vel value="0.0112352566" flag="0"/>
      <psa03 value="0.0662522664" flag="0"/>
      <psa10 value="0.0078010197" flag="0"/>
      <psa30 value="0.0005645614" flag="0"/>
    </comp>
    <comp name="--.HHN">
      <acc value="0.0217434038" flag="0"/>
      <vel value="0.0126032778" flag="0"/>
      <psa03 value="0.0588835323" flag="0"/>
      <psa10 value="0.0092569772" flag="0"/>
      <psa30 value="0.0009400891" flag="0"/>
    </comp>
    <comp name="--.HHZ">
      <acc value="0.0190825278" flag="0"/>
      <vel value="0.0059220191" flag="0"/>
      <psa03 value="0.0329856676" flag="0"/>
      <psa10 value="0.0049016520" flag="0"/>
      <psa30 value="0.0004148937" flag="0"/>
    </comp>
  </station>
  <station code="INTR" name="INTR" netid="IV" insttype="" lat="42.0115" lon="13.9046">
    <comp name="--.HHE">
      <acc value="0.0286016687" flag="0"/>
      <vel value="0.0114898202" flag="0"/>
      <psa03 value="0.0560690747" flag="0"/>
      <psa10 value="0.0161271591" flag="0"/>
      <psa30 value="0.0006773644" flag="0"/>
    </comp>
    <comp name="--.HHN">
      <acc value="0.0381901442" flag="0"/>
      <vel value="0.0232530947" flag="0"/>
      <psa03 value="0.0693062892" flag="0"/>
      <psa10 value="0.0241999184" flag="0"/>
      <psa30 value="0.0011002080" flag="0"/>
    </comp>
    <comp name="--.HHZ">
      <acc value="0.0357663544" flag="0"/>
      <vel value="0.0096466334" flag="0"/>
      <psa03 value="0.0532756330" flag="0"/>
      <psa10 value="0.0051234610" flag="0"/>
      <psa30 value="0.0003268622" flag="0"/>
    </comp>
  </station>
  <station code="LPEL" name="LPEL" netid="IV" insttype="" lat="42.0468" lon="14.1832">
    <comp name="--.HHE">
      <acc value="0.1003074412" flag="0"/>
      <vel value="0.0244628096" flag="0"/>
      <psa03 value="0.1427366372" flag="0"/>
      <psa10 value="0.0106775504" flag="0"/>
      <psa30 value="0.0005423221" flag="0"/>
    </comp>
    <comp name="--.HHN">
      <acc value="0.1171435730" flag="0"/>
      <vel value="0.0228127621" flag="0"/>
      <psa03 value="0.0875183863" flag="0"/>
      <psa10 value="0.0115777926" flag="0"/>
      <psa30 value="0.0004352342" flag="0"/>
    </comp>
    <comp name="--.HHZ">
      <acc value="0.0842850337" flag="0"/>
      <vel value="0.0157764012" flag="0"/>
      <psa03 value="0.0405324261" flag="0"/>
      <psa10 value="0.0085877616" flag="0"/>
      <psa30 value="0.0004723598" flag="0"/>
    </comp>
  </station>
  <station code="MELA" name="MELA" netid="IV" insttype="" lat="41.7059" lon="15.127">
    <comp name="--.HHE">
      <acc value="0.2021760844" flag="0"/>
      <vel value="0.0540811932" flag="0"/>
      <psa03 value="0.2222335660" flag="0"/>
      <psa10 value="0.0438023963" flag="0"/>
      <psa30 value="0.0026671582" flag="0"/>
    </comp>
    <comp name="--.HHN">
      <acc value="0.2048003712" flag="0"/>
      <vel value="0.0615829758" flag="0"/>
      <psa03 value="0.2059480812" flag="0"/>
      <psa10 value="0.0325869161" flag="0"/>
      <psa30 value="0.0023227727" flag="0"/>
    </comp>
    <comp name="--.HHZ">
      <acc value="0.1139215508" flag="0"/>
      <vel value="0.0257954404" flag="0"/>
      <psa03 value="0.1166352145" flag="0"/>
      <psa10 value="0.0118084344" flag="0"/>
      <psa30 value="0.0008292261" flag="0"/>
    </comp>
  </station>
  <station code="MOCO" name="MOCO" netid="IV" insttype="" lat="41.37" lon="15.158">
    <comp name="--.HHE">
      <acc value="0.0170755863" flag="0"/>
      <vel value="0.0106680217" flag="0"/>
      <psa03 value="0.0541505285" flag="0"/>
      <psa10 value="0.0096939881" flag="0"/>
      <psa30 value="0.0007894610" flag="0"/>
    </comp>
    <comp name="--.HHN">
      <acc value="0.0133932855" flag="0"/>
      <vel value="0.0061696623" flag="0"/>
      <psa03 value="0.0329538756" flag="0"/>
      <psa10 value="0.0039131464" flag="0"/>
      <psa30 value="0.0011965270" flag="0"/>
    </comp>
    <comp name="--.HHZ">
      <acc value="0.0146538372" flag="0"/>
      <vel value="0.0043983280" flag="0"/>
      <psa03 value="0.0268856511" flag="0"/>
      <psa10 value="0.0034157606" flag="0"/>
      <psa30 value="0.0006350774" flag="0"/>
    </comp>
  </station>
  <station code="MRVN" name="MRVN" netid="IV" insttype="" lat="41.0609" lon="16.1958">
    <comp name="--.HHE">
      <acc value="0.0422787493" flag="0"/>
      <vel value="0.0090163060" flag="0"/>
      <psa03 value="0.0317510069" flag="0"/>
      <psa10 value="0.0045264685" flag="0"/>
      <psa30 value="0.0002926933" flag="0"/>
    </comp>
    <comp name="--.HHN">
      <acc value="0.0316086296" flag="0"/>
      <vel value="0.0064247031" flag="0"/>
      <psa03 value="0.0260864439" flag="0"/>
      <psa10 value="0.0038769548" flag="0"/>
      <psa30 value="0.0003321281" flag="0"/>
    </comp>
    <comp name="--.HHZ">
      <acc value="0.0221851754" flag="0"/>
      <vel value="0.0054435289" flag="0"/>
      <psa03 value="0.0195305317" flag="0"/>
      <psa10 value="0.0066755279" flag="0"/>
      <psa30 value="0.0003209482" flag="0"/>
    </comp>
  </station>
  <station code="PABO" name="PABO" netid="IV" insttype="" lat="41.7489" lon="14.387">
    <comp name="--.HHE">
      <acc value="0.0073289829" flag="0"/>
      <vel value="0.0038826248" flag="0"/>
      <psa03 value="0.0216113044" flag="0"/>
      <psa10 value="0.0034286648" flag="0"/>
      <psa30 value="0.0004841608" flag="0"/>
    </comp>
    <comp name="--.HHN">
      <acc value="0.0148469754" flag="0"/>
      <vel value="0.0063088001" flag="0"/>
      <psa03 value="0.0453107556" flag="0"/>
      <psa10 value="0.0063682212" flag="0"/>
      <psa30 value="0.0006624915" flag="0"/>
    </comp>
    <comp name="--.HHZ">
      <acc value="0.0081591313" flag="0"/>
      <vel value="0.0037133569" flag="0"/>
      <psa03 value="0.0238552696" flag="0"/>
      <psa10 value="0.0045750665" flag="0"/>
      <psa30 value="0.0003839611" flag="0"/>
    </comp>
  </station>
  <station code="PALZ" name="PALZ" netid="IV" insttype="" lat="40.9441" lon="15.9602">
    <comp name="--.HHN">
      <acc value="0.0195009657" flag="0"/>
      <vel value="0.0099395515" flag="0"/>
      <psa03 value="0.0471303008" flag="0"/>
      <psa10 value="0.0159307893" flag="0"/>
      <psa30 value="0.0013254685" flag="0"/>
    </comp>
    <comp name="--.HHE">
      <acc value="0.0280219072" flag="0"/>
      <vel value="0.0126785352" flag="0"/>
      <psa03 value="0.0387535250" flag="0"/>
      <psa10 value="0.0158782424" flag="0"/>
      <psa30 value="0.0011091617" flag="0"/>
    </comp>
    <comp name="--.HHZ">
      <acc value="0.0241174793" flag="0"/>
      <vel value="0.0066959426" flag="0"/>
      <psa03 value="0.0377616278" flag="0"/>
      <psa10 value="0.0087318263" flag="0"/>
      <psa30 value="0.0006995045" flag="0"/>
    </comp>
  </station>
  <station code="PSB1" name="PSB1" netid="IV" insttype="" lat="41.2234" lon="14.8108">
    <comp name="--.HHE">
      <acc value="0.0089482659" flag="0"/>
      <vel value="0.0039367731" flag="0"/>
      <psa03 value="0.0157206819" flag="0"/>
      <psa10 value="0.0034164531" flag="0"/>
      <psa30 value="0.0003176418" flag="0"/>
    </comp>
    <comp name="--.HHN">
      <acc value="0.0094733206" flag="0"/>
      <vel value="0.0028978900" flag="0"/>
      <psa03 value="0.0243453059" flag="0"/>
      <psa10 value="0.0031824554" flag="0"/>
      <psa30 value="0.0004420724" flag="0"/>
    </comp>
    <comp name="--.HHZ">
      <acc value="0.0074559050" flag="0"/>
      <vel value="0.0030087460" flag="0"/>
      <psa03 value="0.0158387028" flag="0"/>
      <psa10 value="0.0018516162" flag="0"/>
      <psa30 value="0.0001849150" flag="0"/>
    </comp>
  </station>
  <station code="PTRJ" name="PTRJ" netid="IV" insttype="" lat="41.3641" lon="14.529">
    <comp name="--.HHE">
      <acc value="0.0119215940" flag="0"/>
      <vel value="0.0049381025" flag="0"/>
      <psa03 value="0.0465078799" flag="0"/>
      <psa10 value="0.0025545531" flag="0"/>
      <psa30 value="0.0001256605" flag="0"/>
    </comp>
    <comp name="--.HHN">
      <acc value="0.0104550120" flag="0"/>
      <vel value="0.0053342312" flag="0"/>
      <psa03 value="0.0324586553" flag="0"/>
      <psa10 value="0.0040062284" flag="0"/>
      <psa30 value="0.0001910462" flag="0"/>
    </comp>
    <comp name="--.HHZ">
      <acc value="0.0059003827" flag="0"/>
      <vel value="0.0024273876" flag="0"/>
      <psa03 value="0.0169901761" flag="0"/>
      <psa10 value="0.0013636267" flag="0"/>
      <psa30 value="0.0000666899" flag="0"/>
    </comp>
  </station>
  <station code="RNI2" name="RNI2" netid="IV" insttype="" lat="41.7033" lon="14.1524">
    <comp name="--.HHE">
      <acc value="0.0256096598" flag="0"/>
      <vel value="0.0082592583" flag="0"/>
      <psa03 value="0.0431532573" flag="0"/>
      <psa10 value="0.0095607217" flag="0"/>
      <psa30 value="0.0004155591" flag="0"/>
    </comp>
    <comp name="--.HHN">
      <acc value="0.0389189480" flag="0"/>
      <vel value="0.0079627764" flag="0"/>
      <psa03 value="0.0235001244" flag="0"/>
      <psa10 value="0.0089440121" flag="0"/>
      <psa30 value="0.0005136897" flag="0"/>
    </comp>
    <comp name="--.HHZ">
      <acc value="0.0086220292" flag="0"/>
      <vel value="0.0035686493" flag="0"/>
      <psa03 value="0.0144806533" flag="0"/>
      <psa10 value="0.0056073506" flag="0"/>
      <psa30 value="0.0004455686" flag="0"/>
    </comp>
  </station>
  <station code="ROSPO" name="ROSPO" netid="IV" insttype="" lat="42.2364" lon="14.9315">
    <comp name="--.HHE">
      <acc value="0.4260983210" flag="0"/>
      <vel value="0.0869955822" flag="0"/>
      <psa03 value="0.3839148818" flag="0"/>
      <psa10 value="0.0463866447" flag="0"/>
      <psa30 value="0.0029201042" flag="0"/>
    </comp>
    <comp name="--.HHN">
      <acc value="0.4439884811" flag="0"/>
      <vel value="0.1081319787" flag="0"/>
      <psa03 value="0.6221977860" flag="0"/>
      <psa10 value="0.0755116194" flag="0"/>
      <psa30 value="0.0057309422" flag="0"/>
    </comp>
    <comp name="--.HHZ">
      <acc value="0.3314661218" flag="0"/>
      <vel value="0.0503969234" flag="0"/>
      <psa03 value="0.2107300351" flag="0"/>
      <psa10 value="0.0223713658" flag="0"/>
      <psa30 value="0.0017402340" flag="0"/>
    </comp>
  </station>
  <station code="SACR" name="SACR" netid="IV" insttype="" lat="41.3974" lon="14.7057">
    <comp name="--.HHE">
      <acc value="0.0130647089" flag="0"/>
      <vel value="0.0040374171" flag="0"/>
      <psa03 value="0.0289718230" flag="0"/>
      <psa10 value="0.0020886987" flag="0"/>
      <psa30 value="0.0003577983" flag="0"/>
    </comp>
    <comp name="--.HHN">
      <acc value="0.0097824934" flag="0"/>
      <vel value="0.0032545961" flag="0"/>
      <psa03 value="0.0241208595" flag="0"/>
      <psa10 value="0.0044237165" flag="0"/>
      <psa30 value="0.0003327691" flag="0"/>
    </comp>
    <comp name="--.HHZ">
      <acc value="0.0073976967" flag="0"/>
      <vel value="0.0038789709" flag="0"/>
      <psa03 value="0.0146108832" flag="0"/>
      <psa10 value="0.0021322014" flag="0"/>
      <psa30 value="0.0001910114" flag="0"/>
    </comp>
  </station>
  <station code="SGG" name="SGG" netid="IV" insttype="" lat="41.3867" lon="14.3792">
    <comp name="--.HHE">
      <acc value="0.0080729254" flag="0"/>
      <vel value="0.0038148662" flag="0"/>
      <psa03 value="0.0161811702" flag="0"/>
      <psa10 value="0.0031789516" flag="0"/>
      <psa30 value="0.0001925307" flag="0"/>
    </comp>
    <comp name="--.HHN">
      <acc value="0.0115270564" flag="0"/>
      <vel value="0.0043620497" flag="0"/>
      <psa03 value="0.0451747719" flag="0"/>
      <psa10 value="0.0031179244" flag="0"/>
      <psa30 value="0.0001953755" flag="0"/>
    </comp>
    <comp name="--.HHZ">
      <acc value="0.0060162161" flag="0"/>
      <vel value="0.0029165289" flag="0"/>
      <psa03 value="0.0138052169" flag="0"/>
      <psa10 value="0.0018510814" flag="0"/>
      <psa30 value="0.0001595906" flag="0"/>
    </comp>
  </station>
  <station code="SGRT" name="SGRT" netid="IV" insttype="" lat="41.7546" lon="15.7437">
    <comp name="--.HHE">
      <acc value="0.4212810204" flag="0"/>
      <vel value="0.1640566171" flag="0"/>
      <psa03 value="0.5612435231" flag="0"/>
      <psa10 value="0.0729467107" flag="0"/>
      <psa30 value="0.0044819671" flag="0"/>
    </comp>
    <comp name="--.HHN">
      <acc value="0.5553185660" flag="0"/>
      <vel value="0.1209458409" flag="0"/>
      <psa03 value="0.4141062468" flag="0"/>
      <psa10 value="0.1038738186" flag="0"/>
      <psa30 value="0.0059306420" flag="0"/>
    </comp>
    <comp name="--.HHZ">
      <acc value="0.2127571692" flag="0"/>
      <vel value="0.0755782340" flag="0"/>
      <psa03 value="0.2696176491" flag="0"/>
      <psa10 value="0.0365710182" flag="0"/>
      <psa30 value="0.0036448603" flag="0"/>
    </comp>
  </station>
  <station code="SGTA" name="SGTA" netid="IV" insttype="" lat="41.135" lon="15.365">
    <comp name="--.HHE">
      <acc value="0.0244848716" flag="0"/>
      <vel value="0.0093990781" flag="0"/>
      <psa03 value="0.0579492273" flag="0"/>
      <psa10 value="0.0092398554" flag="0"/>
      <psa30 value="0.0005509221" flag="0"/>
    </comp>
    <comp name="--.HHN">
      <acc value="0.0211256704" flag="0"/>
      <vel value="0.0075651881" flag="0"/>
      <psa03 value="0.0509173975" flag="0"/>
      <psa10 value="0.0046730627" flag="0"/>
      <psa30 value="0.0006281866" flag="0"/>
    </comp>
    <comp name="--.HHZ">
      <acc value="0.0185566491" flag="0"/>
      <vel value="0.0067496635" flag="0"/>
      <psa03 value="0.0349765579" flag="0"/>
      <psa10 value="0.0037062421" flag="0"/>
      <psa30 value="0.0003717356" flag="0"/>
    </comp>
  </station>
  <station code="SNAL" name="SNAL" netid="IV" insttype="" lat="40.9254" lon="15.2091">
    <comp name="--.HHN">
      <acc value="0.0159845804" flag="0"/>
      <vel value="0.0051780368" flag="0"/>
      <psa03 value="0.0316150255" flag="0"/>
      <psa10 value="0.0061373016" flag="0"/>
      <psa30 value="0.0006129051" flag="0"/>
    </comp>
    <comp name="--.HHE">
      <acc value="0.0208109009" flag="0"/>
      <vel value="0.0082607664" flag="0"/>
      <psa03 value="0.0506330366" flag="0"/>
      <psa10 value="0.0068063930" flag="0"/>
      <psa30 value="0.0006494971" flag="0"/>
    </comp>
    <comp name="--.HHZ">
      <acc value="0.0126600302" flag="0"/>
      <vel value="0.0030410160" flag="0"/>
      <psa03 value="0.0192417316" flag="0"/>
      <psa10 value="0.0038646881" flag="0"/>
      <psa30 value="0.0004430608" flag="0"/>
    </comp>
  </station>
  <station code="VAGA" name="VAGA" netid="IV" insttype="" lat="41.4154" lon="14.2342">
    <comp name="--.HHN">
      <acc value="0.0195411005" flag="0"/>
      <vel value="0.0086257399" flag="0"/>
      <psa03 value="0.0514605694" flag="0"/>
      <psa10 value="0.0056786453" flag="0"/>
      <psa30 value="0.0003176739" flag="0"/>
    </comp>
    <comp name="--.HHE">
      <acc value="0.0133201856" flag="0"/>
      <vel value="0.0045134549" flag="0"/>
      <psa03 value="0.0231314139" flag="0"/>
      <psa10 value="0.0044562962" flag="0"/>
      <psa30 value="0.0002043054" flag="0"/>
    </comp>
    <comp name="--.HHZ">
      <acc value="0.0076332782" flag="0"/>
      <vel value="0.0032158432" flag="0"/>
      <psa03 value="0.0155298280" flag="0"/>
      <psa10 value="0.0030695392" flag="0"/>
      <psa30 value="0.0001791673" flag="0"/>
    </comp>
  </station>
  <station code="VITU" name="VITU" netid="IV" insttype="" lat="41.1833" lon="14.6302">
    <comp name="--.HHE">
      <acc value="0.0189053129" flag="0"/>
      <vel value="0.0084467322" flag="0"/>
      <psa03 value="0.0416010285" flag="0"/>
      <psa10 value="0.0049004379" flag="0"/>
      <psa30 value="0.0003993451" flag="0"/>
    </comp>
    <comp name="--.HHN">
      <acc value="0.0194235611" flag="0"/>
      <vel value="0.0083256479" flag="0"/>
      <psa03 value="0.0599122661" flag="0"/>
      <psa10 value="0.0046375607" flag="0"/>
      <psa30 value="0.0003322677" flag="0"/>
    </comp>
