<stationlist created="1687442451">
	<station code="MARCO" name="MARCO" netid="GE" source="GEOFON" insttype="" lat="40.29724" lon="15.80632">
		<comp name=".HLE" depth="1.0">
			<acc value="0.00582188458973" flag="0"/>
			<vel value="0.00266776637901" flag="0"/>
			<psa03 value="0.0144334327066" flag="0"/>
			<psa10 value="0.00254369577299" flag="0"/>
			<psa30 value="0.000349546176552" flag="0"/>
		</comp>
		<comp name=".HLN" depth="1.0">
			<acc value="0.00658412817287" flag="0"/>
			<vel value="0.00298381877839" flag="0"/>
			<psa03 value="0.0224670404145" flag="0"/>
			<psa10 value="0.00322034817601" flag="0"/>
			<psa30 value="0.000370221478481" flag="0"/>
		</comp>
		<comp name=".HLZ" depth="1.0">
			<acc value="0.00162198548173" flag="0"/>
			<vel value="0.000799876783596" flag="0"/>
			<psa03 value="0.00520881771487" flag="0"/>
			<psa10 value="0.000748764348059" flag="0"/>
			<psa30 value="0.000160610040669" flag="0"/>
		</comp>
	</station>
	<station code="CER" name="CER" netid="IT" source="Italian Strong Motion Network (RAN)" insttype="" lat="41.2595" lon="15.9102">
		<comp name="00.HNE" depth="0.0">
			<acc value="0.159041467565" flag="0"/>
			<vel value="0.0219231831712" flag="0"/>
			<psa03 value="0.109299573894" flag="0"/>
			<psa10 value="0.0188198435973" flag="0"/>
			<psa30 value="0.00128075078095" flag="0"/>
		</comp>
		<comp name="00.HNN" depth="0.0">
			<acc value="0.158173386836" flag="0"/>
			<vel value="0.0230573923862" flag="0"/>
			<psa03 value="0.102461391731" flag="0"/>
			<psa10 value="0.0200699345346" flag="0"/>
			<psa30 value="0.00129143971821" flag="0"/>
		</comp>
		<comp name="00.HNZ" depth="0.0">
			<acc value="0.0855022806228" flag="0"/>
			<vel value="0.0118696756656" flag="0"/>
			<psa03 value="0.0612635011145" flag="0"/>
			<psa10 value="0.00911901127724" flag="0"/>
			<psa30 value="0.000908611753569" flag="0"/>
		</comp>
	</station>
	<station code="CNM" name="CNM" netid="IT" source="Italian Strong Motion Network (RAN)" insttype="" lat="41.618225" lon="15.104517">
		<comp name="00.HNE" depth="0.0">
			<acc value="0.0415859610164" flag="0"/>
			<vel value="0.0144227986097" flag="0"/>
			<psa03 value="0.0767350416531" flag="0"/>
			<psa10 value="0.0191418324274" flag="0"/>
			<psa30 value="0.00252882689737" flag="0"/>
		</comp>
		<comp name="00.HNN" depth="0.0">
			<acc value="0.0424977444051" flag="0"/>
			<vel value="0.0178989471557" flag="0"/>
			<psa03 value="0.124752212138" flag="0"/>
			<psa10 value="0.0187149772754" flag="0"/>
			<psa30 value="0.00217914644109" flag="0"/>
		</comp>
		<comp name="00.HNZ" depth="0.0">
			<acc value="0.0382696070904" flag="0"/>
			<vel value="0.0113921000066" flag="0"/>
			<psa03 value="0.0450829761094" flag="0"/>
			<psa10 value="0.010643890418" flag="0"/>
			<psa30 value="0.00084868455452" flag="0"/>
		</comp>
	</station>
	<station code="FOGG" name="FOGG" netid="IT" source="Italian Strong Motion Network (RAN)" insttype="" lat="41.4589" lon="15.5562">
		<comp name="00.HNE" depth="0.0">
			<acc value="0.103810388478" flag="0"/>
			<vel value="0.020687803531" flag="0"/>
			<psa03 value="0.106218067676" flag="0"/>
			<psa10 value="0.00958582157615" flag="0"/>
			<psa30 value="0.00150379920265" flag="0"/>
		</comp>
		<comp name="00.HNN" depth="0.0">
			<acc value="0.119113323229" flag="0"/>
			<vel value="0.0229884687527" flag="0"/>
			<psa03 value="0.0763468336446" flag="0"/>
			<psa10 value="0.0241654945954" flag="0"/>
			<psa30 value="0.00165009483152" flag="0"/>
		</comp>
		<comp name="00.HNZ" depth="0.0">
			<acc value="0.0866731481485" flag="0"/>
			<vel value="0.018484715139" flag="0"/>
			<psa03 value="0.0461767464829" flag="0"/>
			<psa10 value="0.0096247913452" flag="0"/>
			<psa30 value="0.00140870977844" flag="0"/>
		</comp>
	</station>
	<station code="GLNS" name="GLNS" netid="IT" source="Italian Strong Motion Network (RAN)" insttype="" lat="41.911999" lon="14.9182">
		<comp name="00.HNE" depth="0.0">
			<acc value="0.12920757967" flag="0"/>
			<vel value="0.0326834397751" flag="0"/>
			<psa03 value="0.199978455924" flag="0"/>
			<psa10 value="0.0374857169948" flag="0"/>
			<psa30 value="0.00385478494392" flag="0"/>
		</comp>
		<comp name="00.HNN" depth="0.0">
			<acc value="0.10804009383" flag="0"/>
			<vel value="0.0657104185532" flag="0"/>
			<psa03 value="0.188982894189" flag="0"/>
			<psa10 value="0.0650925970651" flag="0"/>
			<psa30 value="0.00533289911172" flag="0"/>
		</comp>
		<comp name="00.HNZ" depth="0.0">
			<acc value="0.191893255281" flag="0"/>
			<vel value="0.0337975689766" flag="0"/>
			<psa03 value="0.175863525095" flag="0"/>
			<psa10 value="0.0343086227779" flag="0"/>
			<psa30 value="0.00211550910043" flag="0"/>
		</comp>
	</station>
	<station code="LRNO" name="LRNO" netid="IT" source="Italian Strong Motion Network (RAN)" insttype="" lat="41.806599" lon="14.9201">
		<comp name="00.HNE" depth="0.0">
			<acc value="0.0573087334436" flag="0"/>
			<vel value="0.0185865891656" flag="0"/>
			<psa03 value="0.117697703145" flag="0"/>
			<psa10 value="0.0130848080543" flag="0"/>
			<psa30 value="0.00194399607187" flag="0"/>
		</comp>
		<comp name="00.HNN" depth="0.0">
			<acc value="0.080322430593" flag="0"/>
			<vel value="0.0206237934065" flag="0"/>
			<psa03 value="0.0608861636179" flag="0"/>
			<psa10 value="0.0126116195204" flag="0"/>
			<psa30 value="0.00151116094033" flag="0"/>
		</comp>
		<comp name="00.HNZ" depth="0.0">
			<acc value="0.0838006702819" flag="0"/>
			<vel value="0.0142330231443" flag="0"/>
			<psa03 value="0.0402747799857" flag="0"/>
			<psa10 value="0.00682816498868" flag="0"/>
			<psa30 value="0.00138636288141" flag="0"/>
		</comp>
	</station>
	<station code="LSN" name="LSN" netid="IT" source="Italian Strong Motion Network (RAN)" insttype="" lat="41.852642" lon="15.360158">
		<comp name="00.HGE" depth="0.0">
			<acc value="1.69184748228" flag="0"/>
			<vel value="0.405753259354" flag="0"/>
			<psa03 value="1.7750079189" flag="0"/>
			<psa10 value="0.0912416468114" flag="0"/>
			<psa30 value="0.00849122666874" flag="0"/>
		</comp>
		<comp name="00.HGN" depth="0.0">
			<acc value="1.40743431905" flag="0"/>
			<vel value="0.334288732909" flag="0"/>
			<psa03 value="0.91675789738" flag="0"/>
			<psa10 value="0.0553746007954" flag="0"/>
			<psa30 value="0.00684449008055" flag="0"/>
		</comp>
		<comp name="00.HGZ" depth="0.0">
			<acc value="0.479601208774" flag="0"/>
			<vel value="0.0809498644024" flag="0"/>
			<psa03 value="0.444433566542" flag="0"/>
			<psa10 value="0.0194197820902" flag="0"/>
			<psa30 value="0.00212606917498" flag="0"/>
		</comp>
	</station>
	<station code="MNG" name="MNG" netid="IT" source="Italian Strong Motion Network (RAN)" insttype="" lat="41.70354" lon="15.95803">
		<comp name="00.HNE" depth="0.0">
			<acc value="0.238479674273" flag="0"/>
			<vel value="0.0648727819125" flag="0"/>
			<psa03 value="0.350247577183" flag="0"/>
			<psa10 value="0.0827157345116" flag="0"/>
			<psa30 value="0.00325430016475" flag="0"/>
		</comp>
		<comp name="00.HNN" depth="0.0">
			<acc value="0.190969335636" flag="0"/>
			<vel value="0.0573964701903" flag="0"/>
			<psa03 value="0.273488846461" flag="0"/>
			<psa10 value="0.0418438469496" flag="0"/>
			<psa30 value="0.00317436091083" flag="0"/>
		</comp>
		<comp name="00.HNZ" depth="0.0">
			<acc value="0.169836438621" flag="0"/>
			<vel value="0.0455167034307" flag="0"/>
			<psa03 value="0.139173844584" flag="0"/>
			<psa10 value="0.0527252640402" flag="0"/>
			<psa30 value="0.00267040273441" flag="0"/>
		</comp>
	</station>
	<station code="MNN" name="MNN" netid="IT" source="Italian Strong Motion Network (RAN)" insttype="" lat="41.634186" lon="15.91132">
		<comp name="00.HNE" depth="0.0">
			<acc value="0.458774736501" flag="0"/>
			<vel value="0.12112861502" flag="0"/>
			<psa03 value="0.586940131904" flag="0"/>
			<psa10 value="0.0435645209358" flag="0"/>
			<psa30 value="0.00299959329167" flag="0"/>
		</comp>
		<comp name="00.HNN" depth="0.0">
			<acc value="0.367039428033" flag="0"/>
			<vel value="0.0840699535263" flag="0"/>
			<psa03 value="0.418724113417" flag="0"/>
			<psa10 value="0.0424010626121" flag="0"/>
			<psa30 value="0.00395498991534" flag="0"/>
		</comp>
		<comp name="00.HNZ" depth="0.0">
			<acc value="0.208457375429" flag="0"/>
			<vel value="0.0572762502903" flag="0"/>
			<psa03 value="0.232955182138" flag="0"/>
			<psa10 value="0.025775283111" flag="0"/>
			<psa30 value="0.00236984011527" flag="0"/>
		</comp>
	</station>
	<station code="MRH" name="MRH" netid="IT" source="Italian Strong Motion Network (RAN)" insttype="" lat="41.342414" lon="16.193841">
		<comp name="00.HGE" depth="0.0">
			<acc value="0.0787467647707" flag="0"/>
			<vel value="0.0216241913775" flag="0"/>
			<psa03 value="0.0468980234304" flag="0"/>
			<psa10 value="0.0210486331186" flag="0"/>
			<psa30 value="0.00138157079312" flag="0"/>
		</comp>
		<comp name="00.HGN" depth="0.0">
			<acc value="0.0592784059404" flag="0"/>
			<vel value="0.0214673592166" flag="0"/>
			<psa03 value="0.0822517404407" flag="0"/>
			<psa10 value="0.023904124781" flag="0"/>
			<psa30 value="0.00130958102415" flag="0"/>
		</comp>
		<comp name="00.HGZ" depth="0.0">
			<acc value="0.024790484969" flag="0"/>
			<vel value="0.00848366962452" flag="0"/>
			<psa03 value="0.0363737272893" flag="0"/>
			<psa10 value="0.0109474561527" flag="0"/>
			<psa30 value="0.000708446201916" flag="0"/>
		</comp>
	</station>
	<station code="PLTA" name="PLTA" netid="IT" source="Italian Strong Motion Network (RAN)" insttype="" lat="41.886398" lon="14.7893">
		<comp name="00.HNE" depth="0.0">
			<acc value="0.0984566434958" flag="0"/>
			<vel value="0.03213964849" flag="0"/>
			<psa03 value="0.22041462222" flag="0"/>
			<psa10 value="0.0235218900848" flag="0"/>
			<psa30 value="0.00152263524211" flag="0"/>
		</comp>
		<comp name="00.HNN" depth="0.0">
			<acc value="0.0908113137811" flag="0"/>
			<vel value="0.0330000400863" flag="0"/>
			<psa03 value="0.178539931561" flag="0"/>
			<psa10 value="0.0136724185431" flag="0"/>
			<psa30 value="0.00135832591992" flag="0"/>
		</comp>
		<comp name="00.HNZ" depth="0.0">
			<acc value="0.110027051485" flag="0"/>
			<vel value="0.0261933852107" flag="0"/>
			<psa03 value="0.0772250845328" flag="0"/>
			<psa10 value="0.0138357306118" flag="0"/>
			<psa30 value="0.00101236425166" flag="0"/>
		</comp>
	</station>
	<station code="RDG" name="RDG" netid="IT" source="Italian Strong Motion Network (RAN)" insttype="" lat="41.9264" lon="15.8792">
		<comp name="00.HGE" depth="0.0">
			<acc value="5.43719844714" flag="0"/>
			<vel value="0.910180380435" flag="0"/>
			<psa03 value="1.52992051639" flag="0"/>
			<psa10 value="0.121856132371" flag="0"/>
			<psa30 value="0.00903253419437" flag="0"/>
		</comp>
		<comp name="00.HGN" depth="0.0">
			<acc value="4.44603131848" flag="0"/>
			<vel value="0.557770587917" flag="0"/>
			<psa03 value="1.18706863747" flag="0"/>
			<psa10 value="0.0805817456451" flag="0"/>
			<psa30 value="0.00680107053754" flag="0"/>
		</comp>
		<comp name="00.HGZ" depth="0.0">
			<acc value="1.94929245052" flag="0"/>
			<vel value="0.293682699272" flag="0"/>
			<psa03 value="0.510806921783" flag="0"/>
			<psa10 value="0.0383379909538" flag="0"/>
			<psa30 value="0.00338099751616" flag="0"/>
		</comp>
	</station>
	<station code="SAB" name="SAB" netid="IT" source="Italian Strong Motion Network (RAN)" insttype="" lat="41.405804" lon="15.018056">
		<comp name="00.HNE" depth="0.0">
			<acc value="0.0185212837546" flag="0"/>
			<vel value="0.00774824482497" flag="0"/>
			<psa03 value="0.0294271447164" flag="0"/>
			<psa10 value="0.00659219888833" flag="0"/>
			<psa30 value="0.000699702393517" flag="0"/>
		</comp>
		<comp name="00.HNN" depth="0.0">
			<acc value="0.0239640871774" flag="0"/>
			<vel value="0.0082701765567" flag="0"/>
			<psa03 value="0.0446933617575" flag="0"/>
			<psa10 value="0.00652134028805" flag="0"/>
			<psa30 value="0.000730008046952" flag="0"/>
		</comp>
		<comp name="00.HNZ" depth="0.0">
			<acc value="0.0150575540378" flag="0"/>
			<vel value="0.00497093101964" flag="0"/>
			<psa03 value="0.022665530126" flag="0"/>
			<psa10 value="0.00315896551596" flag="0"/>
			<psa30 value="0.000440572935795" flag="0"/>
		</comp>
	</station>
	<station code="SCM" name="SCM" netid="IT" source="Italian Strong Motion Network (RAN)" insttype="" lat="41.710827" lon="14.983749">
		<comp name="00.HNE" depth="0.0">
			<acc value="0.0579757151692" flag="0"/>
			<vel value="0.0209103135116" flag="0"/>
			<psa03 value="0.126048152155" flag="0"/>
			<psa10 value="0.0163098773243" flag="0"/>
			<psa30 value="0.00202410367027" flag="0"/>
		</comp>
		<comp name="00.HNN" depth="0.0">
			<acc value="0.0429317824838" flag="0"/>
			<vel value="0.017938817462" flag="0"/>
			<psa03 value="0.0830896709494" flag="0"/>
			<psa10 value="0.0128155561552" flag="0"/>
			<psa30 value="0.00180505436766" flag="0"/>
		</comp>
		<comp name="00.HNZ" depth="0.0">
			<acc value="0.0695744188132" flag="0"/>
			<vel value="0.0160336678309" flag="0"/>
			<psa03 value="0.0785609855296" flag="0"/>
			<psa10 value="0.0161023610774" flag="0"/>
			<psa30 value="0.002165664923" flag="0"/>
		</comp>
	</station>
	<station code="SCP" name="SCP" netid="IT" source="Italian Strong Motion Network (RAN)" insttype="" lat="41.807213" lon="15.164646">
		<comp name="00.HNE" depth="0.0">
			<acc value="0.270799724468" flag="0"/>
			<vel value="0.0599543418215" flag="0"/>
			<psa03 value="0.265084623055" flag="0"/>
			<psa10 value="0.0377124720162" flag="0"/>
			<psa30 value="0.00269340821674" flag="0"/>
		</comp>
		<comp name="00.HNN" depth="0.0">
			<acc value="0.182752867969" flag="0"/>
			<vel value="0.0581982479601" flag="0"/>
			<psa03 value="0.321769961514" flag="0"/>
			<psa10 value="0.0523532768977" flag="0"/>
			<psa30 value="0.00340240539266" flag="0"/>
		</comp>
		<comp name="00.HNZ" depth="0.0">
			<acc value="0.212776650194" flag="0"/>
			<vel value="0.0335945365078" flag="0"/>
			<psa03 value="0.130768048158" flag="0"/>
			<psa10 value="0.0255941536121" flag="0"/>
			<psa30 value="0.00206932833285" flag="0"/>
		</comp>
	</station>
	<station code="SEP" name="SEP" netid="IT" source="Italian Strong Motion Network (RAN)" insttype="" lat="41.625019" lon="14.880167">
		<comp name="00.HNE" depth="0.0">
			<acc value="0.0286210596196" flag="0"/>
			<vel value="0.0135042483171" flag="0"/>
			<psa03 value="0.0818500784158" flag="0"/>
			<psa10 value="0.0171221942614" flag="0"/>
			<psa30 value="0.00176155523605" flag="0"/>
		</comp>
		<comp name="00.HNN" depth="0.0">
			<acc value="0.0319052891275" flag="0"/>
			<vel value="0.0163490118867" flag="0"/>
			<psa03 value="0.0674591875901" flag="0"/>
			<psa10 value="0.0300517551563" flag="0"/>
			<psa30 value="0.00214891693853" flag="0"/>
		</comp>
		<comp name="00.HNZ" depth="0.0">
			<acc value="0.0294406232778" flag="0"/>
			<vel value="0.00832121471097" flag="0"/>
			<psa03 value="0.0315410269382" flag="0"/>
			<psa10 value="0.00795871066301" flag="0"/>
			<psa30 value="0.000930550081876" flag="0"/>
		</comp>
	</station>
	<station code="SGPA" name="SGPA" netid="IT" source="Italian Strong Motion Network (RAN)" insttype="" lat="41.687599" lon="14.9629">
		<comp name="00.HNE" depth="0.0">
			<acc value="0.025713616724" flag="0"/>
			<vel value="0.0121536596479" flag="0"/>
			<psa03 value="0.0406673111973" flag="0"/>
			<psa10 value="0.0109211397219" flag="0"/>
			<psa30 value="0.00107777462645" flag="0"/>
		</comp>
		<comp name="00.HNN" depth="0.0">
			<acc value="0.0289774374257" flag="0"/>
			<vel value="0.0127495973761" flag="0"/>
			<psa03 value="0.025577965248" flag="0"/>
			<psa10 value="0.0134186607954" flag="0"/>
			<psa30 value="0.00147933779054" flag="0"/>
		</comp>
		<comp name="00.HNZ" depth="0.0">
			<acc value="0.0238939823791" flag="0"/>
			<vel value="0.00995096244228" flag="0"/>
			<psa03 value="0.0515112665353" flag="0"/>
			<psa10 value="0.00933053185193" flag="0"/>
			<psa30 value="0.000679158011718" flag="0"/>
		</comp>
		<comp name="01.HGE" depth="0.0">
			<acc value="0.128689759209" flag="0"/>
			<vel value="0.0325865878051" flag="0"/>
			<psa03 value="0.141235293645" flag="0"/>
			<psa10 value="0.015036525471" flag="0"/>
			<psa30 value="0.00123340868644" flag="0"/>
		</comp>
		<comp name="01.HGN" depth="0.0">
			<acc value="0.163701591734" flag="0"/>
			<vel value="0.0325707306788" flag="0"/>
			<psa03 value="0.187462126779" flag="0"/>
			<psa10 value="0.0183070815043" flag="0"/>
			<psa30 value="0.00126329170771" flag="0"/>
		</comp>
		<comp name="01.HGZ" depth="0.0">
			<acc value="0.0719774661029" flag="0"/>
			<vel value="0.0201373180215" flag="0"/>
			<psa03 value="0.070332716489" flag="0"/>
			<psa10 value="0.00942068782434" flag="0"/>
			<psa30 value="0.000692945643833" flag="0"/>
		</comp>
	</station>
	<station code="SGSC" name="SGSC" netid="IT" source="Italian Strong Motion Network (RAN)" insttype="" lat="41.689201" lon="14.9581">
		<comp name="00.HNE" depth="0.0">
			<acc value="0.0219949553459" flag="0"/>
			<vel value="0.00779779068224" flag="0"/>
			<psa03 value="0.0346197178656" flag="0"/>
			<psa10 value="0.00829510419743" flag="0"/>
			<psa30 value="0.000979248412068" flag="0"/>
		</comp>
		<comp name="00.HNN" depth="0.0">
			<acc value="0.0213045647858" flag="0"/>
			<vel value="0.00930160310184" flag="0"/>
			<psa03 value="0.0302593482833" flag="0"/>
			<psa10 value="0.0078387814683" flag="0"/>
			<psa30 value="0.00159958971497" flag="0"/>
		</comp>
		<comp name="00.HNZ" depth="0.0">
			<acc value="0.0266174646516" flag="0"/>
			<vel value="0.00806675706221" flag="0"/>
			<psa03 value="0.0547328497412" flag="0"/>
			<psa10 value="0.00802614669283" flag="0"/>
			<psa30 value="0.000592547795052" flag="0"/>
		</comp>
		<comp name="01.HGE" depth="0.0">
			<acc value="0.0428529192558" flag="0"/>
			<vel value="0.0127208042658" flag="0"/>
			<psa03 value="0.0539118057677" flag="0"/>
			<psa10 value="0.00899491743164" flag="0"/>
			<psa30 value="0.00105397732083" flag="0"/>
		</comp>
		<comp name="01.HGN" depth="0.0">
			<acc value="0.0482173332018" flag="0"/>
			<vel value="0.0112816906467" flag="0"/>
			<psa03 value="0.0413648339673" flag="0"/>
			<psa10 value="0.00872225655668" flag="0"/>
			<psa30 value="0.00111372211196" flag="0"/>
		</comp>
		<comp name="01.HGZ" depth="0.0">
			<acc value="0.051259717508" flag="0"/>
			<vel value="0.0107802954213" flag="0"/>
			<psa03 value="0.0530195122825" flag="0"/>
			<psa10 value="0.00775167116641" flag="0"/>
			<psa30 value="0.000587466052158" flag="0"/>
		</comp>
	</station>
	<station code="SSR" name="SSR" netid="IT" source="Italian Strong Motion Network (RAN)" insttype="" lat="41.691341" lon="15.37362">
		<comp name="00.HNE" depth="0.0">
			<acc value="0.801372504428" flag="0"/>
			<vel value="0.19258147995" flag="0"/>
			<psa03 value="0.83970612641" flag="0"/>
			<psa10 value="0.162472613013" flag="0"/>
			<psa30 value="0.00861548740041" flag="0"/>
		</comp>
		<comp name="00.HNN" depth="0.0">
			<acc value="0.732131366178" flag="0"/>
			<vel value="0.206733461089" flag="0"/>
			<psa03 value="0.512462781477" flag="0"/>
			<psa10 value="0.0760594935681" flag="0"/>
			<psa30 value="0.00459855379829" flag="0"/>
		</comp>
		<comp name="00.HNZ" depth="0.0">
			<acc value="0.34966283852" flag="0"/>
			<vel value="0.0830087975442" flag="0"/>
			<psa03 value="0.231896987037" flag="0"/>
			<psa10 value="0.03224148209" flag="0"/>
			<psa30 value="0.00185067384806" flag="0"/>
		</comp>
	</station>
	<station code="TMO" name="TMO" netid="IT" source="Italian Strong Motion Network (RAN)" insttype="" lat="41.989445" lon="14.975007">
		<comp name="00.HNE" depth="0.0">
			<acc value="0.381125907097" flag="0"/>
			<vel value="0.0927084557013" flag="0"/>
			<psa03 value="0.434611165857" flag="0"/>
			<psa10 value="0.0373582648017" flag="0"/>
			<psa30 value="0.00368397862884" flag="0"/>
		</comp>
		<comp name="00.HNN" depth="0.0">
			<acc value="0.364869632267" flag="0"/>
