<stationlist xmlns:esm="https://esm-db.eu/esmws/shakemap/1/" created="1780898051">
	<station code="ATHU" name="ATHU" netid="HA" source="Hellenic Seismological Network, University of Athens, Seismological Laboratory (HA)" insttype="" lat="37.9665" lon="23.7845" esm:processing="automatic (Paolucci et al 2011)" esm:quality="best">
		<comp name="--.HNE" depth="0.0">
			<acc value="0.0016898592879464" flag="0"/>
			<vel value="0.000937623346269874" flag="0"/>
			<psa03 value="0.00307374235732519" flag="0"/>
			<psa10 value="0.000871447983058282" flag="0"/>
			<psa30 value="9.05782269254989e-05" flag="0"/>
		</comp>
		<comp name="--.HNN" depth="0.0">
			<acc value="0.00104106058768209" flag="0"/>
			<vel value="0.000422576497245728" flag="0"/>
			<psa03 value="0.00104730473036098" flag="0"/>
			<psa10 value="0.00050224668934702" flag="0"/>
			<psa30 value="3.8966813130964e-05" flag="0"/>
		</comp>
		<comp name="--.HNZ" depth="0.0">
			<acc value="0.00115014340636333" flag="0"/>
			<vel value="0.000652509604512867" flag="0"/>
			<psa03 value="0.00220516724036144" flag="0"/>
			<psa10 value="0.000542573872543741" flag="0"/>
			<psa30 value="5.02987194130995e-05" flag="0"/>
		</comp>
	</station>
	<station code="AKR1" name="AKR1" netid="HI" source="ITSAK Strong Motion Network" insttype="" lat="38.153583" lon="22.31326" esm:processing="automatic (Paolucci et al 2011)" esm:quality="best">
		<comp name="--.HNE" depth="0.0">
			<acc value="0.0200789636153343" flag="0"/>
			<vel value="0.0177584060639883" flag="0"/>
			<psa03 value="0.0628124891441381" flag="0"/>
			<psa10 value="0.0300612095325988" flag="0"/>
			<psa30 value="0.00185286732670033" flag="0"/>
		</comp>
		<comp name="--.HNN" depth="0.0">
			<acc value="0.0250766980063436" flag="0"/>
			<vel value="0.0174801780925505" flag="0"/>
			<psa03 value="0.0705467098316344" flag="0"/>
			<psa10 value="0.0179395196551346" flag="0"/>
			<psa30 value="0.00240755969734759" flag="0"/>
		</comp>
		<comp name="--.HNZ" depth="0.0">
			<acc value="0.01417332185282" flag="0"/>
			<vel value="0.00885470425247704" flag="0"/>
			<psa03 value="0.0324714140926555" flag="0"/>
			<psa10 value="0.014449363136894" flag="0"/>
			<psa30 value="0.00107739814317272" flag="0"/>
		</comp>
	</station>
	<station code="FRS1" name="FRS1" netid="HI" source="ITSAK Strong Motion Network" insttype="" lat="39.2934" lon="22.3844" esm:processing="automatic (Paolucci et al 2011)" esm:quality="best">
		<comp name="--.HNE" depth="0.0">
			<acc value="0.0119449611169923" flag="0"/>
			<vel value="0.00790018183912808" flag="0"/>
			<psa03 value="0.0372369277012108" flag="0"/>
			<psa10 value="0.00612167209323257" flag="0"/>
			<psa30 value="0.000574973818360308" flag="0"/>
		</comp>
		<comp name="--.HNN" depth="0.0">
			<acc value="0.016437377458989" flag="0"/>
			<vel value="0.0111336528496144" flag="0"/>
			<psa03 value="0.0349960995698445" flag="0"/>
			<psa10 value="0.00913385663567547" flag="0"/>
			<psa30 value="0.00167239182941769" flag="0"/>
		</comp>
		<comp name="--.HNZ" depth="0.0">
			<acc value="0.00658231967837554" flag="0"/>
			<vel value="0.00534103611712293" flag="0"/>
			<psa03 value="0.0244741785858849" flag="0"/>
			<psa10 value="0.00465698725255017" flag="0"/>
			<psa30 value="0.00084884852371543" flag="0"/>
		</comp>
	</station>
	<station code="KIF1" name="KIF1" netid="HI" source="ITSAK Strong Motion Network" insttype="" lat="38.077273" lon="23.814551" esm:processing="automatic (Paolucci et al 2011)" esm:quality="best">
		<comp name="--.HNE" depth="0.0">
			<acc value="0.0302324627282494" flag="0"/>
			<vel value="0.0154349673829994" flag="0"/>
			<psa03 value="0.0582393841150402" flag="0"/>
			<psa10 value="0.0174314866254396" flag="0"/>
			<psa30 value="0.00155867033759364" flag="0"/>
		</comp>
		<comp name="--.HNN" depth="0.0">
			<acc value="0.0397383095709819" flag="0"/>
			<vel value="0.0196004276692405" flag="0"/>
			<psa03 value="0.0782114207061134" flag="0"/>
			<psa10 value="0.0140620909195103" flag="0"/>
			<psa30 value="0.00214852774608542" flag="0"/>
		</comp>
		<comp name="--.HNZ" depth="0.0">
			<acc value="0.0476165038900801" flag="0"/>
			<vel value="0.00952187557067295" flag="0"/>
			<psa03 value="0.0389446215567145" flag="0"/>
			<psa10 value="0.00645990512451093" flag="0"/>
			<psa30 value="0.00116367698372247" flag="0"/>
		</comp>
	</station>
	<station code="KMV1" name="KMV1" netid="HI" source="ITSAK Strong Motion Network" insttype="" lat="38.7794" lon="22.7846" esm:processing="automatic (Paolucci et al 2011)" esm:quality="best">
		<comp name="--.HNE" depth="0.0">
			<acc value="0.204991863816069" flag="0"/>
			<vel value="0.0786287322008253" flag="0"/>
			<psa03 value="0.518661733794404" flag="0"/>
			<psa10 value="0.0601853894866789" flag="0"/>
			<psa30 value="0.00312019648937096" flag="0"/>
		</comp>
		<comp name="--.HNN" depth="0.0">
			<acc value="0.290150082656296" flag="0"/>
			<vel value="0.110486208286768" flag="0"/>
			<psa03 value="0.630695613822455" flag="0"/>
			<psa10 value="0.0538312910588424" flag="0"/>
			<psa30 value="0.00337508066586341" flag="0"/>
		</comp>
		<comp name="--.HNZ" depth="0.0">
			<acc value="0.136237970834811" flag="0"/>
			<vel value="0.0605577393656182" flag="0"/>
			<psa03 value="0.182026037498313" flag="0"/>
			<psa10 value="0.0334948263678628" flag="0"/>
			<psa30 value="0.00247787623047282" flag="0"/>
		</comp>
	</station>
	<station code="KOR2" name="KOR2" netid="HI" source="ITSAK Strong Motion Network" insttype="" lat="37.9401" lon="22.9495" esm:processing="automatic (Paolucci et al 2011)" esm:quality="best">
		<comp name="--.HNE" depth="0.0">
			<acc value="0.0605174785979409" flag="0"/>
			<vel value="0.0487203912774039" flag="0"/>
			<psa03 value="0.204620096743853" flag="0"/>
			<psa10 value="0.0772426219446167" flag="0"/>
			<psa30 value="0.00703073658512703" flag="0"/>
		</comp>
		<comp name="--.HNN" depth="0.0">
			<acc value="0.0594139260689317" flag="0"/>
			<vel value="0.0598244258899869" flag="0"/>
			<psa03 value="0.150348105657463" flag="0"/>
			<psa10 value="0.0659871813269146" flag="0"/>
			<psa30 value="0.00608035779386299" flag="0"/>
		</comp>
		<comp name="--.HNZ" depth="0.0">
			<acc value="0.0383475047818602" flag="0"/>
			<vel value="0.0288422561462803" flag="0"/>
			<psa03 value="0.0907349899144442" flag="0"/>
			<psa10 value="0.0445343501821363" flag="0"/>
			<psa30 value="0.00253513335680977" flag="0"/>
		</comp>
	</station>
	<station code="LAM2" name="LAM2" netid="HI" source="ITSAK Strong Motion Network" insttype="" lat="38.90203" lon="22.431301" esm:processing="automatic (Paolucci et al 2011)" esm:quality="best">
		<comp name="--.HNE" depth="0.0">
			<acc value="0.0387785015142898" flag="0"/>
			<vel value="0.0207844602489934" flag="0"/>
			<psa03 value="0.103550161773353" flag="0"/>
			<psa10 value="0.018265819395891" flag="0"/>
			<psa30 value="0.00105076242035347" flag="0"/>
		</comp>
		<comp name="--.HNN" depth="0.0">
			<acc value="0.0349698259510947" flag="0"/>
			<vel value="0.0174619745707427" flag="0"/>
			<psa03 value="0.116622486084016" flag="0"/>
			<psa10 value="0.0179890304349807" flag="0"/>
			<psa30 value="0.00221818777738728" flag="0"/>
		</comp>
		<comp name="--.HNZ" depth="0.0">
			<acc value="0.0213924403580033" flag="0"/>
			<vel value="0.0116551357161177" flag="0"/>
			<psa03 value="0.0673612279757616" flag="0"/>
			<psa10 value="0.00941586125459746" flag="0"/>
			<psa30 value="0.00151327503871121" flag="0"/>
		</comp>
	</station>
	<station code="NMA1" name="NMA1" netid="HI" source="ITSAK Strong Motion Network" insttype="" lat="37.81873" lon="22.662702" esm:processing="automatic (Paolucci et al 2011)" esm:quality="best">
		<comp name="--.HNE" depth="0.0">
			<acc value="0.0247430879368709" flag="0"/>
			<vel value="0.0200871520791225" flag="0"/>
			<psa03 value="0.0644502486793362" flag="0"/>
			<psa10 value="0.0254922106088435" flag="0"/>
			<psa30 value="0.00293198839650848" flag="0"/>
		</comp>
		<comp name="--.HNN" depth="0.0">
			<acc value="0.0226548878278298" flag="0"/>
			<vel value="0.0149231788630963" flag="0"/>
			<psa03 value="0.0499437095673145" flag="0"/>
			<psa10 value="0.0192841993585656" flag="0"/>
			<psa30 value="0.00245388859974334" flag="0"/>
		</comp>
		<comp name="--.HNZ" depth="0.0">
			<acc value="0.0149821074825393" flag="0"/>
			<vel value="0.0108995359776246" flag="0"/>
			<psa03 value="0.0384390203547829" flag="0"/>
			<psa10 value="0.0161445457469224" flag="0"/>
			<psa30 value="0.00161964343926239" flag="0"/>
		</comp>
	</station>
	<station code="PER1" name="PER1" netid="HI" source="ITSAK Strong Motion Network" insttype="" lat="38.0119" lon="23.7027" esm:processing="automatic (Paolucci et al 2011)" esm:quality="best">
		<comp name="--.HNE" depth="0.0">
			<acc value="0.0512615894859571" flag="0"/>
			<vel value="0.0176043473843055" flag="0"/>
			<psa03 value="0.0758931733836056" flag="0"/>
			<psa10 value="0.0137481773117743" flag="0"/>
			<psa30 value="0.00135687926159186" flag="0"/>
		</comp>
		<comp name="--.HNN" depth="0.0">
			<acc value="0.0587628459016632" flag="0"/>
			<vel value="0.0162147833485993" flag="0"/>
			<psa03 value="0.073922891820455" flag="0"/>
			<psa10 value="0.010152313478443" flag="0"/>
			<psa30 value="0.00112161846838558" flag="0"/>
		</comp>
		<comp name="--.HNZ" depth="0.0">
			<acc value="0.0276037301903267" flag="0"/>
			<vel value="0.00795546276076167" flag="0"/>
			<psa03 value="0.0306537051366914" flag="0"/>
			<psa10 value="0.00638063049795598" flag="0"/>
			<psa30 value="0.00104042975669855" flag="0"/>
		</comp>
	</station>
	<station code="PIR1" name="PIR1" netid="HI" source="ITSAK Strong Motion Network" insttype="" lat="37.93723" lon="23.642595" esm:processing="automatic (Paolucci et al 2011)" esm:quality="best">
		<comp name="--.HNE" depth="0.0">
			<acc value="0.0836423911370006" flag="0"/>
			<vel value="0.0310157695448008" flag="0"/>
			<psa03 value="0.129783285005688" flag="0"/>
			<psa10 value="0.0158615351238576" flag="0"/>
			<psa30 value="0.00220203712415244" flag="0"/>
		</comp>
		<comp name="--.HNN" depth="0.0">
			<acc value="0.0686126244970784" flag="0"/>
			<vel value="0.0341045185762434" flag="0"/>
			<psa03 value="0.117255632193505" flag="0"/>
			<psa10 value="0.0328259245564006" flag="0"/>
			<psa30 value="0.00225573338959983" flag="0"/>
		</comp>
		<comp name="--.HNZ" depth="0.0">
			<acc value="0.0589993526505673" flag="0"/>
			<vel value="0.0133500686733671" flag="0"/>
			<psa03 value="0.0717791456411249" flag="0"/>
			<psa10 value="0.00772999285533983" flag="0"/>
			<psa30 value="0.00155326633377158" flag="0"/>
		</comp>
	</station>
	<station code="PIR3" name="PIR3" netid="HI" source="ITSAK Strong Motion Network" insttype="" lat="37.9573" lon="23.6519" esm:processing="automatic (Paolucci et al 2011)" esm:quality="best">
		<comp name="--.HNE" depth="0.0">
			<acc value="0.0615488789582894" flag="0"/>
			<vel value="0.0191554899108591" flag="0"/>
			<psa03 value="0.0631781331579262" flag="0"/>
			<psa10 value="0.00999162845884903" flag="0"/>
			<psa30 value="0.0017381319135423" flag="0"/>
		</comp>
		<comp name="--.HNN" depth="0.0">
			<acc value="0.0576411304568836" flag="0"/>
			<vel value="0.0167338752042047" flag="0"/>
			<psa03 value="0.0979733860893333" flag="0"/>
			<psa10 value="0.020703223986983" flag="0"/>
			<psa30 value="0.00165856091318737" flag="0"/>
		</comp>
		<comp name="--.HNZ" depth="0.0">
			<acc value="0.0239395530313927" flag="0"/>
			<vel value="0.013521913392252" flag="0"/>
			<psa03 value="0.0759199407818144" flag="0"/>
			<psa10 value="0.0124402509805739" flag="0"/>
			<psa30 value="0.00122398858323661" flag="0"/>
		</comp>
	</station>
	<station code="SKY1" name="SKY1" netid="HI" source="ITSAK Strong Motion Network" insttype="" lat="38.904483" lon="24.564572" esm:processing="automatic (Paolucci et al 2011)" esm:quality="best">
		<comp name="--.HNE" depth="0.0">
			<acc value="0.0197962896241402" flag="0"/>
			<vel value="0.0128752326347379" flag="0"/>
			<psa03 value="0.0637347221125461" flag="0"/>
			<psa10 value="0.0102974124655388" flag="0"/>
			<psa30 value="0.000605722053196628" flag="0"/>
		</comp>
		<comp name="--.HNN" depth="0.0">
			<acc value="0.0281645767342367" flag="0"/>
			<vel value="0.0162292668926774" flag="0"/>
			<psa03 value="0.0773564838624099" flag="0"/>
			<psa10 value="0.00936527884126083" flag="0"/>
			<psa30 value="0.000910688349467058" flag="0"/>
		</comp>
		<comp name="--.HNZ" depth="0.0">
			<acc value="0.0151838646474626" flag="0"/>
			<vel value="0.00909972462744715" flag="0"/>
			<psa03 value="0.0343577161342416" flag="0"/>
			<psa10 value="0.0065497671711805" flag="0"/>
			<psa30 value="0.000896593249069166" flag="0"/>
		</comp>
	</station>
	<station code="THV2" name="THV2" netid="HI" source="ITSAK Strong Motion Network" insttype="" lat="38.316117" lon="23.319807" esm:processing="automatic (Paolucci et al 2011)" esm:quality="best">
		<comp name="--.HNE" depth="0.0">
			<acc value="0.143983030126808" flag="0"/>
			<vel value="0.0573538017310521" flag="0"/>
			<psa03 value="0.270809960664161" flag="0"/>
			<psa10 value="0.0475740727988415" flag="0"/>
			<psa30 value="0.00499477712947173" flag="0"/>
		</comp>
		<comp name="--.HNN" depth="0.0">
			<acc value="0.144375831646224" flag="0"/>
			<vel value="0.0559125201811144" flag="0"/>
			<psa03 value="0.308539855917886" flag="0"/>
			<psa10 value="0.0432031732481975" flag="0"/>
			<psa30 value="0.0077559721284225" flag="0"/>
		</comp>
		<comp name="--.HNZ" depth="0.0">
			<acc value="0.112326518206955" flag="0"/>
			<vel value="0.048407461098819" flag="0"/>
			<psa03 value="0.256385505114772" flag="0"/>
			<psa10 value="0.0384495608447053" flag="0"/>
			<psa30 value="0.00280279921335913" flag="0"/>
		</comp>
	</station>
	<station code="TRP1" name="TRP1" netid="HI" source="ITSAK Strong Motion Network" insttype="" lat="37.511219" lon="22.363399" esm:processing="automatic (Paolucci et al 2011)" esm:quality="best">
		<comp name="--.HNE" depth="0.0">
			<acc value="0.00668607876343929" flag="0"/>
			<vel value="0.00561571141304904" flag="0"/>
			<psa03 value="0.0116517380162931" flag="0"/>
			<psa10 value="0.00643527349278621" flag="0"/>
			<psa30 value="0.00058727077880692" flag="0"/>
		</comp>
		<comp name="--.HNN" depth="0.0">
			<acc value="0.00839064582374987" flag="0"/>
			<vel value="0.0074789129165029" flag="0"/>
			<psa03 value="0.0169709028848606" flag="0"/>
			<psa10 value="0.00776507408554916" flag="0"/>
			<psa30 value="0.000813209339877742" flag="0"/>
		</comp>
		<comp name="--.HNZ" depth="0.0">
			<acc value="0.00365576219399023" flag="0"/>
			<vel value="0.00420701324869247" flag="0"/>
			<psa03 value="0.00639833922315545" flag="0"/>
			<psa10 value="0.00560691533687375" flag="0"/>
			<psa30 value="0.000753371469662509" flag="0"/>
		</comp>
	</station>
	<station code="VOL2" name="VOL2" netid="HI" source="ITSAK Strong Motion Network" insttype="" lat="39.366" lon="22.9506" esm:processing="automatic (Paolucci et al 2011)" esm:quality="best">
		<comp name="--.HNE" depth="0.0">
			<acc value="0.0766687237960757" flag="0"/>
			<vel value="0.0353950192966026" flag="0"/>
			<psa03 value="0.233696918773944" flag="0"/>
			<psa10 value="0.0263418893958932" flag="0"/>
			<psa30 value="0.00191808914732585" flag="0"/>
		</comp>
		<comp name="--.HNN" depth="0.0">
			<acc value="0.0516119964909173" flag="0"/>
			<vel value="0.031427314753264" flag="0"/>
			<psa03 value="0.149091480745563" flag="0"/>
			<psa10 value="0.0396323291973039" flag="0"/>
			<psa30 value="0.00368174514754696" flag="0"/>
		</comp>
		<comp name="--.HNZ" depth="0.0">
			<acc value="0.0403857695534605" flag="0"/>
			<vel value="0.0152552940275286" flag="0"/>
			<psa03 value="0.0405502070855426" flag="0"/>
			<psa10 value="0.0117778708511411" flag="0"/>
			<psa30 value="0.00172878816956511" flag="0"/>
		</comp>
	</station>
	<station code="VOL3" name="VOL3" netid="HI" source="ITSAK Strong Motion Network" insttype="" lat="39.373969" lon="22.935352" esm:processing="automatic (Paolucci et al 2011)" esm:quality="best">
		<comp name="--.HNE" depth="0.0">
			<acc value="0.0395487785244616" flag="0"/>
			<vel value="0.0222192406641804" flag="0"/>
			<psa03 value="0.108836355707758" flag="0"/>
			<psa10 value="0.0252737867643358" flag="0"/>
			<psa30 value="0.00146333370950992" flag="0"/>
		</comp>
		<comp name="--.HNN" depth="0.0">
			<acc value="0.0467488915665744" flag="0"/>
			<vel value="0.0356370290152988" flag="0"/>
			<psa03 value="0.136733735022224" flag="0"/>
			<psa10 value="0.0300431820883691" flag="0"/>
			<psa30 value="0.00361957477906516" flag="0"/>
		</comp>
		<comp name="--.HNZ" depth="0.0">
			<acc value="0.025651043819911" flag="0"/>
			<vel value="0.0144142465935949" flag="0"/>
			<psa03 value="0.0512681566804357" flag="0"/>
			<psa10 value="0.00942960591511377" flag="0"/>
			<psa30 value="0.00141435723589224" flag="0"/>
		</comp>
	</station>
	<station code="ACHA" name="ACHA" netid="HL" source="National Observatory of Athens Seismic Network" insttype="" lat="38.07458" lon="23.74127" esm:processing="automatic (Paolucci et al 2011)" esm:quality="best">
		<comp name="00.HNE" depth="0.0">
			<acc value="0.0779300817038324" flag="0"/>
			<vel value="0.0348978701662623" flag="0"/>
			<psa03 value="0.127589473009744" flag="0"/>
			<psa10 value="0.0304675151983551" flag="0"/>
			<psa30 value="0.00155736670956802" flag="0"/>
		</comp>
		<comp name="00.HNN" depth="0.0">
			<acc value="0.0595806481187855" flag="0"/>
			<vel value="0.0278280508646185" flag="0"/>
			<psa03 value="0.146937858912019" flag="0"/>
			<psa10 value="0.0219346668140267" flag="0"/>
			<psa30 value="0.00140616481818477" flag="0"/>
		</comp>
		<comp name="00.HNZ" depth="0.0">
			<acc value="0.0526982188385453" flag="0"/>
			<vel value="0.0190082818205969" flag="0"/>
			<psa03 value="0.0857733331040311" flag="0"/>
			<psa10 value="0.0125399035195655" flag="0"/>
			<psa30 value="0.00112158315354614" flag="0"/>
		</comp>
	</station>
	<station code="ALNA" name="ALNA" netid="HL" source="National Observatory of Athens Seismic Network" insttype="" lat="39.14804" lon="23.86669" esm:processing="automatic (Paolucci et al 2011)" esm:quality="best">
		<comp name="00.HNE" depth="0.0">
			<acc value="0.0222884750076895" flag="0"/>
			<vel value="0.0154263272210912" flag="0"/>
			<psa03 value="0.0545507126753271" flag="0"/>
			<psa10 value="0.0178871099332477" flag="0"/>
			<psa30 value="0.00126347797004802" flag="0"/>
		</comp>
		<comp name="00.HNN" depth="0.0">
			<acc value="0.0212375861469931" flag="0"/>
			<vel value="0.0136605634634838" flag="0"/>
			<psa03 value="0.0385569656680811" flag="0"/>
			<psa10 value="0.0116027905029273" flag="0"/>
			<psa30 value="0.00126625752918017" flag="0"/>
		</comp>
		<comp name="00.HNZ" depth="0.0">
			<acc value="0.0260186493977341" flag="0"/>
			<vel value="0.00920210977708399" flag="0"/>
			<psa03 value="0.0482032817725147" flag="0"/>
			<psa10 value="0.00778519791865434" flag="0"/>
			<psa30 value="0.00121883553353903" flag="0"/>
		</comp>
	</station>
	<station code="ATHP" name="ATHP" netid="HL" source="National Observatory of Athens Seismic Network" insttype="" lat="38.000799" lon="23.773487" esm:processing="automatic (Paolucci et al 2011)" esm:quality="best">
		<comp name="00.HNE" depth="0.0">
			<acc value="0.036029343554583" flag="0"/>
			<vel value="0.0202623076022371" flag="0"/>
			<psa03 value="0.0585366954771255" flag="0"/>
			<psa10 value="0.0207764400871903" flag="0"/>
			<psa30 value="0.00145733841651785" flag="0"/>
		</comp>
		<comp name="00.HNN" depth="0.0">
			<acc value="0.0392603115641028" flag="0"/>
			<vel value="0.0185815312081801" flag="0"/>
			<psa03 value="0.109635658657655" flag="0"/>
			<psa10 value="0.00831594807824763" flag="0"/>
			<psa30 value="0.00128422132336004" flag="0"/>
		</comp>
		<comp name="00.HNZ" depth="0.0">
			<acc value="0.024328322830621" flag="0"/>
