<?xml version="1.0" encoding="UTF-8" standalone="yes"?>
<!DOCTYPE earthquake SYSTEM "stationlist.dtd">
<stationlist created="" xmlns="ch.ethz.sed.shakemap.usgs.xml">
  <station code="ACOR" name="ACOR" netid="HA" insttype="Horizon,120s,1200" commtype="DIG" lat="37.8905" lon="22.8694">
    <comp name="--.HHZ">
      <acc value="0.0076982293" flag="0"/>
      <vel value="0.0077626100" flag="0"/>
      <psa03 value="0.0210108266" flag="0"/>
      <psa10 value="0.0111524300" flag="0"/>
      <psa30 value="0.0010792842" flag="0"/>
    </comp>
    <comp name="--.HHE">
      <acc value="0.0158721011" flag="0"/>
      <vel value="0.0162354567" flag="0"/>
      <psa03 value="0.0346098643" flag="0"/>
      <psa10 value="0.0332975996" flag="0"/>
      <psa30 value="0.0017083533" flag="0"/>
    </comp>
    <comp name="--.HHN">
      <acc value="0.0083533968" flag="0"/>
      <vel value="0.0108332850" flag="0"/>
      <psa03 value="0.0228569428" flag="0"/>
      <psa10 value="0.0222671303" flag="0"/>
      <psa30 value="0.0011779726" flag="0"/>
    </comp>
  </station>
  <station code="ALIO" name="ALIO" netid="HA" insttype="25" commtype="DIG" lat="38.0657" lon="23.6727">
    <comp name="--.HHE">
      <acc value="0.0240140325" flag="0"/>
      <vel value="0.0063193542" flag="0"/>
      <psa03 value="0.0277803787" flag="0"/>
      <psa10 value="0.0054619135" flag="0"/>
      <psa30 value="0.0003033464" flag="0"/>
    </comp>
    <comp name="--.HHZ">
      <acc value="0.0208846102" flag="0"/>
      <vel value="0.0070202292" flag="0"/>
      <psa03 value="0.0384692120" flag="0"/>
      <psa10 value="0.0044099169" flag="0"/>
      <psa30 value="0.0005188845" flag="0"/>
    </comp>
    <comp name="--.HHN">
      <acc value="0.0262995468" flag="0"/>
      <vel value="0.0092249669" flag="0"/>
      <psa03 value="0.0350155623" flag="0"/>
      <psa10 value="0.0069053820" flag="0"/>
      <psa30 value="0.0004724853" flag="0"/>
    </comp>
  </station>
  <station code="AMPE" name="AMPE" netid="HA" insttype="1s-100Hz," commtype="DIG" lat="38.3015" lon="23.2688">
    <comp name="--.HHN">
      <acc value="0.1571496566" flag="0"/>
      <vel value="0.0847059648" flag="0"/>
      <psa03 value="0.2882811581" flag="0"/>
      <psa10 value="0.1039125542" flag="0"/>
      <psa30 value="0.0102725587" flag="0"/>
    </comp>
    <comp name="--.HHZ">
      <acc value="0.1132767020" flag="0"/>
      <vel value="0.0280149526" flag="0"/>
      <psa03 value="0.1850105981" flag="0"/>
      <psa10 value="0.0346532695" flag="0"/>
      <psa30 value="0.0054244727" flag="0"/>
    </comp>
    <comp name="--.HHE">
      <acc value="0.2456398023" flag="0"/>
      <vel value="0.0888198311" flag="0"/>
      <psa03 value="0.3950774043" flag="0"/>
      <psa10 value="0.0854135687" flag="0"/>
      <psa30 value="0.0121063347" flag="0"/>
    </comp>
  </station>
  <station code="ANTK" name="ANTK" netid="HA" insttype="25" commtype="DIG" lat="38.3605" lon="22.6385">
    <comp name="--.HHN">
      <acc value="0.0160423561" flag="0"/>
      <vel value="0.0118561154" flag="0"/>
      <psa03 value="0.0404281887" flag="0"/>
      <psa10 value="0.0137593213" flag="0"/>
      <psa30 value="0.0010422797" flag="0"/>
    </comp>
    <comp name="--.HHZ">
      <acc value="0.0185625179" flag="0"/>
      <vel value="0.0156495911" flag="0"/>
      <psa03 value="0.0370971160" flag="0"/>
      <psa10 value="0.0174083486" flag="0"/>
      <psa30 value="0.0011879486" flag="0"/>
    </comp>
    <comp name="--.HHE">
      <acc value="0.0177547878" flag="0"/>
      <vel value="0.0159290939" flag="0"/>
      <psa03 value="0.0558730735" flag="0"/>
      <psa10 value="0.0177586086" flag="0"/>
      <psa30 value="0.0007859394" flag="0"/>
    </comp>
  </station>
  <station code="ATAL" name="ATAL" netid="HA" insttype="120s," commtype="DIG" lat="38.6926" lon="23.0213">
    <comp name="--.HHE">
      <acc value="0.4843229991" flag="0"/>
      <vel value="0.0999824104" flag="0"/>
      <psa03 value="0.4236211403" flag="0"/>
      <psa10 value="0.0296415815" flag="0"/>
      <psa30 value="0.0026590614" flag="0"/>
    </comp>
    <comp name="--.HHN">
      <acc value="0.4812938155" flag="0"/>
      <vel value="0.1297183760" flag="0"/>
      <psa03 value="0.3406130627" flag="0"/>
      <psa10 value="0.0642165570" flag="0"/>
      <psa30 value="0.0044639889" flag="0"/>
    </comp>
    <comp name="--.HHZ">
      <acc value="0.3199092825" flag="0"/>
      <vel value="0.0839337686" flag="0"/>
      <psa03 value="0.5606942232" flag="0"/>
      <psa10 value="0.0408039572" flag="0"/>
      <psa30 value="0.0031707129" flag="0"/>
    </comp>
  </station>
  <station code="ATHU" name="ATHU" netid="HA" insttype="60s," commtype="DIG" lat="37.9665" lon="23.7845">
    <comp name="--.HHE">
      <acc value="0.0199686367" flag="0"/>
      <vel value="0.0115973687" flag="0"/>
      <psa03 value="0.0377289728" flag="0"/>
      <psa10 value="0.0095074523" flag="0"/>
      <psa30 value="0.0008590397" flag="0"/>
    </comp>
    <comp name="--.HHN">
      <acc value="0.0307594743" flag="0"/>
      <vel value="0.0171638651" flag="0"/>
      <psa03 value="0.0560380537" flag="0"/>
      <psa10 value="0.0159716395" flag="0"/>
      <psa30 value="0.0014608235" flag="0"/>
    </comp>
    <comp name="--.HHZ">
      <acc value="0.0184904473" flag="0"/>
      <vel value="0.0072263595" flag="0"/>
      <psa03 value="0.0188743014" flag="0"/>
      <psa10 value="0.0086911061" flag="0"/>
      <psa30 value="0.0006753231" flag="0"/>
    </comp>
  </station>
  <station code="AXAR" name="AXAR" netid="HA" insttype="Horizon,120s,1200" commtype="DIG" lat="38.7664" lon="22.659">
    <comp name="--.HHE">
      <acc value="0.0805028348" flag="0"/>
      <vel value="0.0391042184" flag="0"/>
      <psa03 value="0.3261063063" flag="0"/>
      <psa10 value="0.0282483028" flag="0"/>
      <psa30 value="0.0020670564" flag="0"/>
    </comp>
    <comp name="--.HHN">
      <acc value="0.1065383719" flag="0"/>
      <vel value="0.0480611247" flag="0"/>
      <psa03 value="0.4846137873" flag="0"/>
      <psa10 value="0.0242405793" flag="0"/>
      <psa30 value="0.0018985259" flag="0"/>
    </comp>
    <comp name="--.HHZ">
      <acc value="0.0461432317" flag="0"/>
      <vel value="0.0185234841" flag="0"/>
      <psa03 value="0.1288659919" flag="0"/>
      <psa10 value="0.0195749557" flag="0"/>
      <psa30 value="0.0010967449" flag="0"/>
    </comp>
  </station>
  <station code="DOMV" name="DOMV" netid="HA" insttype="60" commtype="DIG" lat="38.2569" lon="22.9795">
    <comp name="--.HHE">
      <acc value="0.3374239626" flag="0"/>
      <vel value="0.1116169108" flag="0"/>
      <psa03 value="0.4142415908" flag="0"/>
      <psa10 value="0.0674106418" flag="0"/>
      <psa30 value="0.0036682583" flag="0"/>
    </comp>
    <comp name="--.HHN">
      <acc value="0.3582474982" flag="0"/>
      <vel value="0.0784605543" flag="0"/>
      <psa03 value="0.4798103259" flag="0"/>
      <psa10 value="0.0477564423" flag="0"/>
      <psa30 value="0.0023022192" flag="0"/>
    </comp>
    <comp name="--.HHZ">
      <acc value="0.1846288771" flag="0"/>
      <vel value="0.0564401035" flag="0"/>
      <psa03 value="0.2622792835" flag="0"/>
      <psa10 value="0.0253483494" flag="0"/>
      <psa30 value="0.0017594768" flag="0"/>
    </comp>
  </station>
  <station code="ERTR" name="ERTR" netid="HA" insttype="Horizon,120s,1200" commtype="DIG" lat="38.4066" lon="23.7865">
    <comp name="--.HHE">
      <acc value="0.0374483591" flag="0"/>
      <vel value="0.0082587909" flag="0"/>
      <psa03 value="0.0400925669" flag="0"/>
      <psa10 value="0.0043139824" flag="0"/>
      <psa30 value="0.0011756617" flag="0"/>
    </comp>
    <comp name="--.HHN">
      <acc value="0.0252199806" flag="0"/>
      <vel value="0.0064597266" flag="0"/>
      <psa03 value="0.0255072969" flag="0"/>
      <psa10 value="0.0048853408" flag="0"/>
      <psa30 value="0.0005547364" flag="0"/>
    </comp>
    <comp name="--.HHZ">
      <acc value="0.0322365674" flag="0"/>
      <vel value="0.0073917778" flag="0"/>
      <psa03 value="0.0309964521" flag="0"/>
      <psa10 value="0.0062683013" flag="0"/>
      <psa30 value="0.0014360329" flag="0"/>
    </comp>
  </station>
  <station code="LOUT" name="LOUT" netid="HA" insttype="30" commtype="DIG" lat="37.9879" lon="22.9743">
    <comp name="--.HHE">
      <acc value="0.0564567207" flag="0"/>
      <vel value="0.0341159018" flag="0"/>
      <psa03 value="0.1046275486" flag="0"/>
      <psa10 value="0.0578361765" flag="0"/>
      <psa30 value="0.0031159708" flag="0"/>
    </comp>
    <comp name="--.HHN">
      <acc value="0.0612934754" flag="0"/>
      <vel value="0.0276407249" flag="0"/>
      <psa03 value="0.1450184197" flag="0"/>
      <psa10 value="0.0296973499" flag="0"/>
      <psa30 value="0.0026535416" flag="0"/>
    </comp>
    <comp name="--.HHZ">
      <acc value="0.0343923132" flag="0"/>
      <vel value="0.0221843899" flag="0"/>
      <psa03 value="0.0638719872" flag="0"/>
      <psa10 value="0.0305468741" flag="0"/>
      <psa30 value="0.0017718073" flag="0"/>
    </comp>
  </station>
  <station code="MDRA" name="MDRA" netid="HA" insttype="60" commtype="DIG" lat="38.0606" lon="23.4662">
    <comp name="--.HHE">
      <acc value="0.0341812832" flag="0"/>
      <vel value="0.0150818662" flag="0"/>
      <psa03 value="0.0469121875" flag="0"/>
      <psa10 value="0.0119036277" flag="0"/>
      <psa30 value="0.0005819125" flag="0"/>
    </comp>
    <comp name="--.HHZ">
      <acc value="0.0381964799" flag="0"/>
      <vel value="0.0103260172" flag="0"/>
      <psa03 value="0.0644095590" flag="0"/>
      <psa10 value="0.0132820897" flag="0"/>
      <psa30 value="0.0012423887" flag="0"/>
    </comp>
    <comp name="--.HHN">
      <acc value="0.0489990719" flag="0"/>
      <vel value="0.0225395508" flag="0"/>
      <psa03 value="0.1674077033" flag="0"/>
      <psa10 value="0.0162278382" flag="0"/>
      <psa30 value="0.0014846467" flag="0"/>
    </comp>
  </station>
  <station code="MRKA" name="MRKA" netid="HA" insttype="Horizon,120s,1200" commtype="DIG" lat="38.7047" lon="23.5863">
    <comp name="--.HHE">
      <acc value="7.1140173037" flag="0"/>
      <vel value="1.4091341227" flag="0"/>
      <psa03 value="4.4750906439" flag="0"/>
      <psa10 value="0.2745721931" flag="0"/>
      <psa30 value="0.0183704712" flag="0"/>
    </comp>
    <comp name="--.HHZ">
      <acc value="3.1478114867" flag="0"/>
      <vel value="0.5613002669" flag="0"/>
      <psa03 value="3.6878659876" flag="0"/>
      <psa10 value="0.2728701838" flag="0"/>
      <psa30 value="0.0362845168" flag="0"/>
    </comp>
    <comp name="--.HHN">
      <acc value="7.7348542263" flag="0"/>
      <vel value="1.4489085065" flag="0"/>
      <psa03 value="9.5980399571" flag="0"/>
      <psa10 value="0.5430167494" flag="0"/>
      <psa30 value="0.0518508475" flag="0"/>
    </comp>
  </station>
  <station code="MRTH" name="MRTH" netid="HA" insttype="S100," commtype="DIG" lat="38.1225" lon="23.9409">
    <comp name="--.HHZ">
      <acc value="0.0433772595" flag="0"/>
      <vel value="0.0127024312" flag="0"/>
      <psa03 value="0.0521225796" flag="0"/>
      <psa10 value="0.0053400316" flag="0"/>
      <psa30 value="0.0007672455" flag="0"/>
    </comp>
    <comp name="--.HHE">
      <acc value="0.0622465601" flag="0"/>
      <vel value="0.0206003093" flag="0"/>
      <psa03 value="0.0833485746" flag="0"/>
      <psa10 value="0.0114026972" flag="0"/>
      <psa30 value="0.0009034879" flag="0"/>
    </comp>
    <comp name="--.HHN">
      <acc value="0.0612576398" flag="0"/>
      <vel value="0.0207991555" flag="0"/>
      <psa03 value="0.0749368559" flag="0"/>
      <psa10 value="0.0282079318" flag="0"/>
      <psa30 value="0.0008424633" flag="0"/>
    </comp>
  </station>
  <station code="PRDM" name="PRDM" netid="HA" insttype="25" commtype="DIG" lat="38.2804" lon="22.847">
    <comp name="--.HHN">
      <acc value="0.0451046557" flag="0"/>
      <vel value="0.0147025152" flag="0"/>
      <psa03 value="0.0835525655" flag="0"/>
      <psa10 value="0.0124417273" flag="0"/>
      <psa30 value="0.0006832808" flag="0"/>
    </comp>
    <comp name="--.HHZ">
      <acc value="0.0206679000" flag="0"/>
      <vel value="0.0063429517" flag="0"/>
      <psa03 value="0.0441365096" flag="0"/>
      <psa10 value="0.0033469718" flag="0"/>
      <psa30 value="0.0005030054" flag="0"/>
    </comp>
    <comp name="--.HHE">
      <acc value="0.0459304958" flag="0"/>
      <vel value="0.0171715868" flag="0"/>
      <psa03 value="0.0757756493" flag="0"/>
      <psa10 value="0.0097867013" flag="0"/>
      <psa30 value="0.0007014405" flag="0"/>
    </comp>
  </station>
  <station code="PSAH" name="PSAH" netid="HA" insttype="25" commtype="DIG" lat="38.5694" lon="23.6473">
    <comp name="--.HHN">
      <acc value="0.0802986189" flag="0"/>
      <vel value="0.0191645437" flag="0"/>
      <psa03 value="0.0862291323" flag="0"/>
      <psa10 value="0.0155160948" flag="0"/>
      <psa30 value="0.0028437063" flag="0"/>
    </comp>
    <comp name="--.HHZ">
      <acc value="0.0907150386" flag="0"/>
      <vel value="0.0199335726" flag="0"/>
      <psa03 value="0.0442833753" flag="0"/>
      <psa10 value="0.0212426233" flag="0"/>
      <psa30 value="0.0025393926" flag="0"/>
    </comp>
    <comp name="--.HHE">
      <acc value="0.0874792486" flag="0"/>
      <vel value="0.0222829327" flag="0"/>
      <psa03 value="0.0996626920" flag="0"/>
      <psa10 value="0.0158987608" flag="0"/>
      <psa30 value="0.0020535121" flag="0"/>
    </comp>
  </station>
  <station code="THAL" name="THAL" netid="HA" insttype="30" commtype="DIG" lat="38.0357" lon="22.6634">
    <comp name="--.HHE">
      <acc value="0.0821644750" flag="0"/>
      <vel value="0.0462368557" flag="0"/>
      <psa03 value="0.2595515255" flag="0"/>
      <psa10 value="0.0450102727" flag="0"/>
      <psa30 value="0.0032847863" flag="0"/>
    </comp>
    <comp name="--.HHN">
      <acc value="0.0555037458" flag="0"/>
      <vel value="0.0293033541" flag="0"/>
      <psa03 value="0.2320615068" flag="0"/>
      <psa10 value="0.0364199582" flag="0"/>
      <psa30 value="0.0029828866" flag="0"/>
    </comp>
    <comp name="--.HHZ">
      <acc value="0.0342254711" flag="0"/>
      <vel value="0.0185188653" flag="0"/>
      <psa03 value="0.0821317157" flag="0"/>
      <psa10 value="0.0183109713" flag="0"/>
      <psa30 value="0.0012666562" flag="0"/>
    </comp>
  </station>
  <station code="THIV" name="THIV" netid="HA" insttype="25" commtype="DIG" lat="38.299" lon="23.332">
    <comp name="--.HHE">
      <acc value="0.0859450666" flag="0"/>
      <vel value="0.0302798716" flag="0"/>
      <psa03 value="0.1004662818" flag="0"/>
      <psa10 value="0.0323631528" flag="0"/>
      <psa30 value="0.0029926392" flag="0"/>
    </comp>
    <comp name="--.HHZ">
      <acc value="0.0885815063" flag="0"/>
      <vel value="0.0201273386" flag="0"/>
      <psa03 value="0.0990832182" flag="0"/>
      <psa10 value="0.0187080203" flag="0"/>
      <psa30 value="0.0016679336" flag="0"/>
    </comp>
    <comp name="--.HHN">
      <acc value="0.0827643745" flag="0"/>
      <vel value="0.0258302376" flag="0"/>
      <psa03 value="0.1238791501" flag="0"/>
      <psa10 value="0.0250468074" flag="0"/>
      <psa30 value="0.0026940461" flag="0"/>
    </comp>
  </station>
  <station code="VILL" name="VILL" netid="HA" insttype="Horizon,120s,1200" commtype="DIG" lat="38.1642" lon="23.3122">
    <comp name="--.HHE">
      <acc value="0.0839064079" flag="0"/>
      <vel value="0.0535586745" flag="0"/>
      <psa03 value="0.1598353706" flag="0"/>
      <psa10 value="0.0604575904" flag="0"/>
      <psa30 value="0.0026968561" flag="0"/>
    </comp>
    <comp name="--.HHZ">
      <acc value="0.0321678189" flag="0"/>
      <vel value="0.0187313996" flag="0"/>
      <psa03 value="0.0655076946" flag="0"/>
      <psa10 value="0.0134930161" flag="0"/>
      <psa30 value="0.0011677115" flag="0"/>
    </comp>
    <comp name="--.HHN">
      <acc value="0.0612159479" flag="0"/>
      <vel value="0.0273172322" flag="0"/>
      <psa03 value="0.1388094773" flag="0"/>
      <psa10 value="0.0203934614" flag="0"/>
      <psa30 value="0.0014419936" flag="0"/>
    </comp>
  </station>
  <station code="AKR1" name="AKR1" netid="HI" insttype="unknown" commtype="DIG" lat="38.1536" lon="22.3133">
    <comp name="--.HNE">
      <acc value="0.0201151725" flag="0"/>
      <vel value="0.0177633447" flag="0"/>
      <psa03 value="0.0612771148" flag="0"/>
      <psa10 value="0.0299646305" flag="0"/>
      <psa30 value="0.0016828028" flag="0"/>
    </comp>
    <comp name="--.HNZ">
      <acc value="0.0141633224" flag="0"/>
      <vel value="0.0089804617" flag="0"/>
      <psa03 value="0.0323722009" flag="0"/>
      <psa10 value="0.0143805559" flag="0"/>
      <psa30 value="0.0009865610" flag="0"/>
    </comp>
    <comp name="--.HNN">
      <acc value="0.0252687579" flag="0"/>
      <vel value="0.0167194889" flag="0"/>
      <psa03 value="0.0694181048" flag="0"/>
      <psa10 value="0.0180561264" flag="0"/>
      <psa30 value="0.0021540377" flag="0"/>
    </comp>
  </station>
  <station code="ATH5" name="ATH5" netid="HI" insttype="CMG-5TD,ACCELEROMETER,GURALP" commtype="DIG" lat="37.9754" lon="23.7371">
    <comp name="--.HNE">
      <acc value="0.0586877831" flag="0"/>
      <vel value="0.0223010132" flag="0"/>
      <psa03 value="0.0986226738" flag="0"/>
      <psa10 value="0.0287952923" flag="0"/>
      <psa30 value="0.0019815921" flag="0"/>
    </comp>
    <comp name="--.HNN">
      <acc value="0.0446345446" flag="0"/>
      <vel value="0.0181669624" flag="0"/>
      <psa03 value="0.0786178717" flag="0"/>
      <psa10 value="0.0146317721" flag="0"/>
      <psa30 value="0.0013498816" flag="0"/>
    </comp>
    <comp name="--.HNZ">
      <acc value="0.0176941377" flag="0"/>
      <vel value="0.0052629154" flag="0"/>
      <psa03 value="0.0207605139" flag="0"/>
      <psa10 value="0.0052589703" flag="0"/>
      <psa30 value="0.0009290473" flag="0"/>
    </comp>
  </station>
  <station code="FRS1" name="FRS1" netid="HI" insttype="unknown" commtype="DIG" lat="39.2934" lon="22.3844">
    <comp name="--.HNE">
      <acc value="0.0119253073" flag="0"/>
      <vel value="0.0076617690" flag="0"/>
      <psa03 value="0.0371907418" flag="0"/>
      <psa10 value="0.0061379369" flag="0"/>
      <psa30 value="0.0004767939" flag="0"/>
    </comp>
    <comp name="--.HNN">
      <acc value="0.0164860002" flag="0"/>
      <vel value="0.0103507989" flag="0"/>
      <psa03 value="0.0350435376" flag="0"/>
      <psa10 value="0.0091005699" flag="0"/>
      <psa30 value="0.0014572363" flag="0"/>
    </comp>
    <comp name="--.HNZ">
      <acc value="0.0065718213" flag="0"/>
      <vel value="0.0049270607" flag="0"/>
      <psa03 value="0.0241776916" flag="0"/>
      <psa10 value="0.0046446784" flag="0"/>
      <psa30 value="0.0008003050" flag="0"/>
    </comp>
  </station>
  <station code="KIF1" name="KIF1" netid="HI" insttype="unknown" commtype="DIG" lat="38.0773" lon="23.8146">
    <comp name="--.HNE">
      <acc value="0.0305811721" flag="0"/>
      <vel value="0.0151629932" flag="0"/>
      <psa03 value="0.0578912579" flag="0"/>
      <psa10 value="0.0174226077" flag="0"/>
      <psa30 value="0.0013335868" flag="0"/>
    </comp>
    <comp name="--.HNN">
      <acc value="0.0398043875" flag="0"/>
      <vel value="0.0190271247" flag="0"/>
      <psa03 value="0.0779564735" flag="0"/>
      <psa10 value="0.0140589325" flag="0"/>
      <psa30 value="0.0019178403" flag="0"/>
    </comp>
    <comp name="--.HNZ">
      <acc value="0.0479404057" flag="0"/>
      <vel value="0.0093742385" flag="0"/>
      <psa03 value="0.0388412989" flag="0"/>
      <psa10 value="0.0064942586" flag="0"/>
      <psa30 value="0.0008885602" flag="0"/>
    </comp>
  </station>
