<?xml version="1.0" encoding="UTF-8" standalone="yes"?>
<!DOCTYPE earthquake SYSTEM "stationlist.dtd">
<stationlist created="" xmlns="ch.ethz.sed.shakemap.usgs.xml">
  <station code="ACOR" name="ACOR" netid="HA" insttype="Horizon,120s,1200" commtype="DIG" lat="37.8905" lon="22.8694">
    <comp name="--.HHE">
      <acc value="0.0158721010" flag="0"/>
      <vel value="0.0162354566" flag="0"/>
      <psa03 value="0.0346098643" flag="0"/>
      <psa10 value="0.0332975995" flag="0"/>
      <psa30 value="0.0017083525" flag="0"/>
    </comp>
    <comp name="--.HHN">
      <acc value="0.0083533968" flag="0"/>
      <vel value="0.0108332849" flag="0"/>
      <psa03 value="0.0228569428" flag="0"/>
      <psa10 value="0.0222671303" flag="0"/>
      <psa30 value="0.0011779655" flag="0"/>
    </comp>
    <comp name="--.HHZ">
      <acc value="0.0076982293" flag="0"/>
      <vel value="0.0077626098" flag="0"/>
      <psa03 value="0.0210108266" flag="0"/>
      <psa10 value="0.0111524300" flag="0"/>
      <psa30 value="0.0010792862" flag="0"/>
    </comp>
  </station>
  <station code="ALIO" name="ALIO" netid="HA" insttype="25" commtype="DIG" lat="38.0657" lon="23.6727">
    <comp name="--.HHE">
      <acc value="0.0240140326" flag="0"/>
      <vel value="0.0063193633" flag="0"/>
      <psa03 value="0.0277803787" flag="0"/>
      <psa10 value="0.0054619135" flag="0"/>
      <psa30 value="0.0003033367" flag="0"/>
    </comp>
    <comp name="--.HHZ">
      <acc value="0.0208846102" flag="0"/>
      <vel value="0.0070202299" flag="0"/>
      <psa03 value="0.0384692120" flag="0"/>
      <psa10 value="0.0044099168" flag="0"/>
      <psa30 value="0.0005188850" flag="0"/>
    </comp>
    <comp name="--.HHN">
      <acc value="0.0262995467" flag="0"/>
      <vel value="0.0092249666" flag="0"/>
      <psa03 value="0.0350155623" flag="0"/>
      <psa10 value="0.0069053820" flag="0"/>
      <psa30 value="0.0004724841" flag="0"/>
    </comp>
  </station>
  <station code="AMPE" name="AMPE" netid="HA" insttype="1s-100Hz," commtype="DIG" lat="38.3015" lon="23.2688">
    <comp name="--.HHE">
      <acc value="0.2456398004" flag="0"/>
      <vel value="0.0888203652" flag="0"/>
      <psa03 value="0.3950774062" flag="0"/>
      <psa10 value="0.0854135668" flag="0"/>
      <psa30 value="0.0121063319" flag="0"/>
    </comp>
    <comp name="--.HHN">
      <acc value="0.1571496566" flag="0"/>
      <vel value="0.0847060071" flag="0"/>
      <psa03 value="0.2882811580" flag="0"/>
      <psa10 value="0.1039125544" flag="0"/>
      <psa30 value="0.0102725859" flag="0"/>
    </comp>
    <comp name="--.HHZ">
      <acc value="0.1132767022" flag="0"/>
      <vel value="0.0280150350" flag="0"/>
      <psa03 value="0.1850105979" flag="0"/>
      <psa10 value="0.0346532692" flag="0"/>
      <psa30 value="0.0054244618" flag="0"/>
    </comp>
  </station>
  <station code="ANTK" name="ANTK" netid="HA" insttype="25" commtype="DIG" lat="38.3605" lon="22.6385">
    <comp name="--.HHN">
      <acc value="0.0160423561" flag="0"/>
      <vel value="0.0118561195" flag="0"/>
      <psa03 value="0.0404281887" flag="0"/>
      <psa10 value="0.0137593213" flag="0"/>
      <psa30 value="0.0010422651" flag="0"/>
    </comp>
    <comp name="--.HHZ">
      <acc value="0.0185625179" flag="0"/>
      <vel value="0.0156495915" flag="0"/>
      <psa03 value="0.0370971160" flag="0"/>
      <psa10 value="0.0174083486" flag="0"/>
      <psa30 value="0.0011879603" flag="0"/>
    </comp>
    <comp name="--.HHE">
      <acc value="0.0177547877" flag="0"/>
      <vel value="0.0159290951" flag="0"/>
      <psa03 value="0.0558730735" flag="0"/>
      <psa10 value="0.0177586086" flag="0"/>
      <psa30 value="0.0007859423" flag="0"/>
    </comp>
  </station>
  <station code="ATAL" name="ATAL" netid="HA" insttype="120s," commtype="DIG" lat="38.6926" lon="23.0213">
    <comp name="--.HHE">
      <acc value="0.4843229989" flag="0"/>
      <vel value="0.0999824105" flag="0"/>
      <psa03 value="0.4236211403" flag="0"/>
      <psa10 value="0.0296415813" flag="0"/>
      <psa30 value="0.0026590339" flag="0"/>
    </comp>
    <comp name="--.HHZ">
      <acc value="0.3199092824" flag="0"/>
      <vel value="0.0839337680" flag="0"/>
      <psa03 value="0.5606942232" flag="0"/>
      <psa10 value="0.0408039566" flag="0"/>
      <psa30 value="0.0031709516" flag="0"/>
    </comp>
    <comp name="--.HHN">
      <acc value="0.4812938153" flag="0"/>
      <vel value="0.1297183758" flag="0"/>
      <psa03 value="0.3406130627" flag="0"/>
      <psa10 value="0.0642165579" flag="0"/>
      <psa30 value="0.0044636051" flag="0"/>
    </comp>
  </station>
  <station code="ATHU" name="ATHU" netid="HA" insttype="60s," commtype="DIG" lat="37.9665" lon="23.7845">
    <comp name="--.HHE">
      <acc value="0.0199686369" flag="0"/>
      <vel value="0.0115973686" flag="0"/>
      <psa03 value="0.0377289728" flag="0"/>
      <psa10 value="0.0095074523" flag="0"/>
      <psa30 value="0.0008591029" flag="0"/>
    </comp>
    <comp name="--.HHN">
      <acc value="0.0307594742" flag="0"/>
      <vel value="0.0171638641" flag="0"/>
      <psa03 value="0.0560380537" flag="0"/>
      <psa10 value="0.0159716395" flag="0"/>
      <psa30 value="0.0014608033" flag="0"/>
    </comp>
    <comp name="--.HHZ">
      <acc value="0.0184904473" flag="0"/>
      <vel value="0.0072263539" flag="0"/>
      <psa03 value="0.0188743014" flag="0"/>
      <psa10 value="0.0086911060" flag="0"/>
      <psa30 value="0.0006753900" flag="0"/>
    </comp>
  </station>
  <station code="AXAR" name="AXAR" netid="HA" insttype="Horizon,120s,1200" commtype="DIG" lat="38.7664" lon="22.659">
    <comp name="--.HHE">
      <acc value="0.0805028348" flag="0"/>
      <vel value="0.0391042181" flag="0"/>
      <psa03 value="0.3261063063" flag="0"/>
      <psa10 value="0.0282483028" flag="0"/>
      <psa30 value="0.0020670619" flag="0"/>
    </comp>
    <comp name="--.HHN">
      <acc value="0.1065383717" flag="0"/>
      <vel value="0.0480611251" flag="0"/>
      <psa03 value="0.4846137873" flag="0"/>
      <psa10 value="0.0242405793" flag="0"/>
      <psa30 value="0.0018985295" flag="0"/>
    </comp>
    <comp name="--.HHZ">
      <acc value="0.0461432318" flag="0"/>
      <vel value="0.0185234849" flag="0"/>
      <psa03 value="0.1288659919" flag="0"/>
      <psa10 value="0.0195749557" flag="0"/>
      <psa30 value="0.0010967792" flag="0"/>
    </comp>
  </station>
  <station code="DOMV" name="DOMV" netid="HA" insttype="60" commtype="DIG" lat="38.2569" lon="22.9795">
    <comp name="--.HHE">
      <acc value="0.3374239627" flag="0"/>
      <vel value="0.1116169108" flag="0"/>
      <psa03 value="0.4142415908" flag="0"/>
      <psa10 value="0.0674106417" flag="0"/>
      <psa30 value="0.0036684235" flag="0"/>
    </comp>
    <comp name="--.HHN">
      <acc value="0.3582474981" flag="0"/>
      <vel value="0.0784605600" flag="0"/>
      <psa03 value="0.4798103259" flag="0"/>
      <psa10 value="0.0477564424" flag="0"/>
      <psa30 value="0.0023022501" flag="0"/>
    </comp>
    <comp name="--.HHZ">
      <acc value="0.1846288771" flag="0"/>
      <vel value="0.0564401038" flag="0"/>
      <psa03 value="0.2622792835" flag="0"/>
      <psa10 value="0.0253483494" flag="0"/>
      <psa30 value="0.0017594870" flag="0"/>
    </comp>
  </station>
  <station code="ERTR" name="ERTR" netid="HA" insttype="Horizon,120s,1200" commtype="DIG" lat="38.4066" lon="23.7865">
    <comp name="--.HHE">
      <acc value="0.0374483590" flag="0"/>
      <vel value="0.0082587909" flag="0"/>
      <psa03 value="0.0400925669" flag="0"/>
      <psa10 value="0.0043139824" flag="0"/>
      <psa30 value="0.0011756658" flag="0"/>
    </comp>
    <comp name="--.HHN">
      <acc value="0.0252199807" flag="0"/>
      <vel value="0.0064597275" flag="0"/>
      <psa03 value="0.0255072969" flag="0"/>
      <psa10 value="0.0048853408" flag="0"/>
      <psa30 value="0.0005547504" flag="0"/>
    </comp>
    <comp name="--.HHZ">
      <acc value="0.0322365674" flag="0"/>
      <vel value="0.0073917776" flag="0"/>
      <psa03 value="0.0309964521" flag="0"/>
      <psa10 value="0.0062683013" flag="0"/>
      <psa30 value="0.0014360431" flag="0"/>
    </comp>
  </station>
  <station code="LOUT" name="LOUT" netid="HA" insttype="30" commtype="DIG" lat="37.9879" lon="22.9743">
    <comp name="--.HHZ">
      <acc value="0.0343923131" flag="0"/>
      <vel value="0.0221844045" flag="0"/>
      <psa03 value="0.0638719872" flag="0"/>
      <psa10 value="0.0305468741" flag="0"/>
      <psa30 value="0.0017718295" flag="0"/>
    </comp>
    <comp name="--.HHE">
      <acc value="0.0564567206" flag="0"/>
      <vel value="0.0341159153" flag="0"/>
      <psa03 value="0.1046275485" flag="0"/>
      <psa10 value="0.0578361765" flag="0"/>
      <psa30 value="0.0031159892" flag="0"/>
    </comp>
    <comp name="--.HHN">
      <acc value="0.0612934755" flag="0"/>
      <vel value="0.0276407246" flag="0"/>
      <psa03 value="0.1450184197" flag="0"/>
      <psa10 value="0.0296973499" flag="0"/>
      <psa30 value="0.0026535389" flag="0"/>
    </comp>
  </station>
  <station code="MDRA" name="MDRA" netid="HA" insttype="60" commtype="DIG" lat="38.0606" lon="23.4662">
    <comp name="--.HHZ">
      <acc value="0.0381964799" flag="0"/>
      <vel value="0.0103260172" flag="0"/>
      <psa03 value="0.0644095590" flag="0"/>
      <psa10 value="0.0132820897" flag="0"/>
      <psa30 value="0.0012423876" flag="0"/>
    </comp>
    <comp name="--.HHE">
      <acc value="0.0341812832" flag="0"/>
      <vel value="0.0150818665" flag="0"/>
      <psa03 value="0.0469121875" flag="0"/>
      <psa10 value="0.0119036277" flag="0"/>
      <psa30 value="0.0005818906" flag="0"/>
    </comp>
    <comp name="--.HHN">
      <acc value="0.0489990718" flag="0"/>
      <vel value="0.0225395508" flag="0"/>
      <psa03 value="0.1674077033" flag="0"/>
      <psa10 value="0.0162278382" flag="0"/>
      <psa30 value="0.0014846365" flag="0"/>
    </comp>
  </station>
  <station code="MRKA" name="MRKA" netid="HA" insttype="Horizon,120s,1200" commtype="DIG" lat="38.7047" lon="23.5863">
    <comp name="--.HHE">
      <acc value="7.1140173038" flag="0"/>
      <vel value="1.4091341209" flag="0"/>
      <psa03 value="4.4750906439" flag="0"/>
      <psa10 value="0.2745722127" flag="0"/>
      <psa30 value="0.0183706906" flag="0"/>
    </comp>
    <comp name="--.HHN">
      <acc value="7.7348542263" flag="0"/>
      <vel value="1.4489085178" flag="0"/>
      <psa03 value="9.5980399571" flag="0"/>
      <psa10 value="0.5430167501" flag="0"/>
      <psa30 value="0.0518497755" flag="0"/>
    </comp>
    <comp name="--.HHZ">
      <acc value="3.1478114867" flag="0"/>
      <vel value="0.5613002741" flag="0"/>
      <psa03 value="3.6878659876" flag="0"/>
      <psa10 value="0.2728701751" flag="0"/>
      <psa30 value="0.0362842232" flag="0"/>
    </comp>
  </station>
  <station code="MRTH" name="MRTH" netid="HA" insttype="S100," commtype="DIG" lat="38.1225" lon="23.9409">
    <comp name="--.HHE">
      <acc value="0.0622465596" flag="0"/>
      <vel value="0.0206002246" flag="0"/>
      <psa03 value="0.0833485747" flag="0"/>
      <psa10 value="0.0114026971" flag="0"/>
      <psa30 value="0.0009034883" flag="0"/>
    </comp>
    <comp name="--.HHN">
      <acc value="0.0612576399" flag="0"/>
      <vel value="0.0207992420" flag="0"/>
      <psa03 value="0.0749368558" flag="0"/>
      <psa10 value="0.0282079316" flag="0"/>
      <psa30 value="0.0008424658" flag="0"/>
    </comp>
    <comp name="--.HHZ">
      <acc value="0.0433772592" flag="0"/>
      <vel value="0.0127026615" flag="0"/>
      <psa03 value="0.0521225799" flag="0"/>
      <psa10 value="0.0053400319" flag="0"/>
      <psa30 value="0.0007672482" flag="0"/>
    </comp>
  </station>
  <station code="PRDM" name="PRDM" netid="HA" insttype="25" commtype="DIG" lat="38.2804" lon="22.847">
    <comp name="--.HHE">
      <acc value="0.0459304957" flag="0"/>
      <vel value="0.0171715854" flag="0"/>
      <psa03 value="0.0757756493" flag="0"/>
      <psa10 value="0.0097867013" flag="0"/>
      <psa30 value="0.0007014331" flag="0"/>
    </comp>
    <comp name="--.HHN">
      <acc value="0.0451046558" flag="0"/>
      <vel value="0.0147025138" flag="0"/>
      <psa03 value="0.0835525655" flag="0"/>
      <psa10 value="0.0124417273" flag="0"/>
      <psa30 value="0.0006833007" flag="0"/>
    </comp>
    <comp name="--.HHZ">
      <acc value="0.0206679000" flag="0"/>
      <vel value="0.0063429577" flag="0"/>
      <psa03 value="0.0441365095" flag="0"/>
      <psa10 value="0.0033469719" flag="0"/>
      <psa30 value="0.0005029869" flag="0"/>
    </comp>
  </station>
  <station code="PSAH" name="PSAH" netid="HA" insttype="25" commtype="DIG" lat="38.5694" lon="23.6473">
    <comp name="--.HHN">
      <acc value="0.0802986189" flag="0"/>
      <vel value="0.0191645371" flag="0"/>
      <psa03 value="0.0862291323" flag="0"/>
      <psa10 value="0.0155160947" flag="0"/>
      <psa30 value="0.0028436861" flag="0"/>
    </comp>
    <comp name="--.HHE">
      <acc value="0.0874792487" flag="0"/>
      <vel value="0.0222829333" flag="0"/>
      <psa03 value="0.0996626920" flag="0"/>
      <psa10 value="0.0158987612" flag="0"/>
      <psa30 value="0.0020535230" flag="0"/>
    </comp>
    <comp name="--.HHZ">
      <acc value="0.0907150386" flag="0"/>
      <vel value="0.0199335713" flag="0"/>
      <psa03 value="0.0442833753" flag="0"/>
      <psa10 value="0.0212426232" flag="0"/>
      <psa30 value="0.0025394108" flag="0"/>
    </comp>
  </station>
  <station code="THAL" name="THAL" netid="HA" insttype="30" commtype="DIG" lat="38.0357" lon="22.6634">
    <comp name="--.HHN">
      <acc value="0.0555037458" flag="0"/>
      <vel value="0.0293033077" flag="0"/>
      <psa03 value="0.2320615069" flag="0"/>
      <psa10 value="0.0364199581" flag="0"/>
      <psa30 value="0.0029829142" flag="0"/>
    </comp>
    <comp name="--.HHE">
      <acc value="0.0821644750" flag="0"/>
      <vel value="0.0462368557" flag="0"/>
      <psa03 value="0.2595515255" flag="0"/>
      <psa10 value="0.0450102727" flag="0"/>
      <psa30 value="0.0032848008" flag="0"/>
    </comp>
    <comp name="--.HHZ">
      <acc value="0.0342254715" flag="0"/>
      <vel value="0.0185188652" flag="0"/>
      <psa03 value="0.0821317157" flag="0"/>
      <psa10 value="0.0183109713" flag="0"/>
      <psa30 value="0.0012666594" flag="0"/>
    </comp>
  </station>
  <station code="THIV" name="THIV" netid="HA" insttype="25" commtype="DIG" lat="38.299" lon="23.332">
    <comp name="--.HHE">
      <acc value="0.0859450666" flag="0"/>
      <vel value="0.0302798763" flag="0"/>
      <psa03 value="0.1004662818" flag="0"/>
      <psa10 value="0.0323631528" flag="0"/>
      <psa30 value="0.0029926359" flag="0"/>
    </comp>
    <comp name="--.HHN">
      <acc value="0.0827643745" flag="0"/>
      <vel value="0.0258302403" flag="0"/>
      <psa03 value="0.1238791501" flag="0"/>
      <psa10 value="0.0250468074" flag="0"/>
      <psa30 value="0.0026940451" flag="0"/>
    </comp>
    <comp name="--.HHZ">
      <acc value="0.0885815062" flag="0"/>
      <vel value="0.0201273345" flag="0"/>
      <psa03 value="0.0990832182" flag="0"/>
      <psa10 value="0.0187080203" flag="0"/>
      <psa30 value="0.0016679323" flag="0"/>
    </comp>
  </station>
  <station code="VILL" name="VILL" netid="HA" insttype="Horizon,120s,1200" commtype="DIG" lat="38.1642" lon="23.3122">
    <comp name="--.HHE">
      <acc value="0.0839064080" flag="0"/>
      <vel value="0.0535586747" flag="0"/>
      <psa03 value="0.1598353706" flag="0"/>
      <psa10 value="0.0604575904" flag="0"/>
      <psa30 value="0.0026968359" flag="0"/>
    </comp>
    <comp name="--.HHN">
      <acc value="0.0612159480" flag="0"/>
      <vel value="0.0273172326" flag="0"/>
      <psa03 value="0.1388094773" flag="0"/>
      <psa10 value="0.0203934614" flag="0"/>
      <psa30 value="0.0014419833" flag="0"/>
    </comp>
    <comp name="--.HHZ">
      <acc value="0.0321678189" flag="0"/>
      <vel value="0.0187313998" flag="0"/>
      <psa03 value="0.0655076946" flag="0"/>
      <psa10 value="0.0134930161" flag="0"/>
      <psa30 value="0.0011677114" flag="0"/>
    </comp>
  </station>
  <station code="AKR1" name="AKR1" netid="HI" insttype="unknown" commtype="DIG" lat="38.1536" lon="22.3133">
    <comp name="--.HNE">
      <acc value="0.0201151732" flag="0"/>
      <vel value="0.0177633446" flag="0"/>
      <psa03 value="0.0612771148" flag="0"/>
      <psa10 value="0.0299646305" flag="0"/>
      <psa30 value="0.0016828027" flag="0"/>
    </comp>
    <comp name="--.HNN">
      <acc value="0.0252687590" flag="0"/>
      <vel value="0.0167194882" flag="0"/>
      <psa03 value="0.0694181048" flag="0"/>
      <psa10 value="0.0180561264" flag="0"/>
      <psa30 value="0.0021540194" flag="0"/>
    </comp>
    <comp name="--.HNZ">
      <acc value="0.0141633223" flag="0"/>
      <vel value="0.0089804624" flag="0"/>
      <psa03 value="0.0323722009" flag="0"/>
      <psa10 value="0.0143805559" flag="0"/>
      <psa30 value="0.0009865764" flag="0"/>
    </comp>
  </station>
  <station code="ATH5" name="ATH5" netid="HI" insttype="CMG-5TD,ACCELEROMETER,GURALP" commtype="DIG" lat="37.9754" lon="23.7371">
    <comp name="--.HNE">
      <acc value="0.0586877834" flag="0"/>
      <vel value="0.0223010136" flag="0"/>
      <psa03 value="0.0986226738" flag="0"/>
      <psa10 value="0.0287952921" flag="0"/>
      <psa30 value="0.0019815340" flag="0"/>
    </comp>
    <comp name="--.HNZ">
      <acc value="0.0176941386" flag="0"/>
      <vel value="0.0052629151" flag="0"/>
      <psa03 value="0.0207605139" flag="0"/>
      <psa10 value="0.0052589703" flag="0"/>
      <psa30 value="0.0009290127" flag="0"/>
    </comp>
    <comp name="--.HNN">
      <acc value="0.0446345447" flag="0"/>
      <vel value="0.0181669627" flag="0"/>
      <psa03 value="0.0786178717" flag="0"/>
      <psa10 value="0.0146317721" flag="0"/>
      <psa30 value="0.0013498994" flag="0"/>
    </comp>
  </station>
  <station code="FRS1" name="FRS1" netid="HI" insttype="unknown" commtype="DIG" lat="39.2934" lon="22.3844">
    <comp name="--.HNE">
      <acc value="0.0119253068" flag="0"/>
      <vel value="0.0076617699" flag="0"/>
      <psa03 value="0.0371907418" flag="0"/>
      <psa10 value="0.0061379369" flag="0"/>
      <psa30 value="0.0004765848" flag="0"/>
    </comp>
    <comp name="--.HNN">
      <acc value="0.0164859994" flag="0"/>
      <vel value="0.0103508003" flag="0"/>
      <psa03 value="0.0350435376" flag="0"/>
      <psa10 value="0.0091005699" flag="0"/>
      <psa30 value="0.0014571848" flag="0"/>
    </comp>
    <comp name="--.HNZ">
      <acc value="0.0065718211" flag="0"/>
      <vel value="0.0049270618" flag="0"/>
      <psa03 value="0.0241776916" flag="0"/>
      <psa10 value="0.0046446784" flag="0"/>
      <psa30 value="0.0008004086" flag="0"/>
    </comp>
  </station>
  <station code="KIF1" name="KIF1" netid="HI" insttype="unknown" commtype="DIG" lat="38.0773" lon="23.8146">
    <comp name="--.HNE">
      <acc value="0.0305811714" flag="0"/>
      <vel value="0.0151629929" flag="0"/>
      <psa03 value="0.0578912579" flag="0"/>
      <psa10 value="0.0174226078" flag="0"/>
      <psa30 value="0.0013335959" flag="0"/>
    </comp>
    <comp name="--.HNN">
      <acc value="0.0398043880" flag="0"/>
      <vel value="0.0190271250" flag="0"/>
      <psa03 value="0.0779564735" flag="0"/>
      <psa10 value="0.0140589324" flag="0"/>
      <psa30 value="0.0019178873" flag="0"/>
    </comp>
    <comp name="--.HNZ">
      <acc value="0.0479404055" flag="0"/>
      <vel value="0.0093742385" flag="0"/>
      <psa03 value="0.0388412989" flag="0"/>
      <psa10 value="0.0064942586" flag="0"/>
      <psa30 value="0.0008885830" flag="0"/>
    </comp>
  </station>
