<stationlist xmlns:esm="https://esm-db.eu/esmws/shakemap/1/" created="1781488486">
	<station code="SRN" name="SRN" netid="AC" source="Albanian Seismological Network (AC)" insttype="" lat="39.880001" lon="20.0005" esm:processing="automatic (Paolucci et al 2011)" esm:quality="best">
		<comp name="01.HNE" depth="0.0">
			<acc value="0.175690440395155" flag="0"/>
			<vel value="0.13131602859059" flag="0"/>
			<psa03 value="0.45782128674671" flag="0"/>
			<psa10 value="0.137490363061785" flag="0"/>
			<psa30 value="0.0145813792781488" flag="0"/>
		</comp>
		<comp name="01.HNN" depth="0.0">
			<acc value="0.236689255446269" flag="0"/>
			<vel value="0.143381018670675" flag="0"/>
			<psa03 value="0.570286487014277" flag="0"/>
			<psa10 value="0.0974767573567837" flag="0"/>
			<psa30 value="0.0108044799104351" flag="0"/>
		</comp>
		<comp name="01.HNZ" depth="0.0">
			<acc value="0.188785135535733" flag="0"/>
			<vel value="0.116806551398166" flag="0"/>
			<psa03 value="0.450560180734072" flag="0"/>
			<psa10 value="0.168328190916536" flag="0"/>
			<psa30 value="0.00800008496636664" flag="0"/>
		</comp>
	</station>
	<station code="AIA1" name="AIA1" netid="HI" source="ITSAK Strong Motion Network" insttype="" lat="40.1641" lon="21.8202" esm:processing="automatic (Paolucci et al 2011)" esm:quality="best">
		<comp name="--.HNE" depth="0.0">
			<acc value="0.0312760808172807" flag="0"/>
			<vel value="0.0140683843826661" flag="0"/>
			<psa03 value="0.0792774340325978" flag="0"/>
			<psa10 value="0.0103150030058257" flag="0"/>
			<psa30 value="0.0010789988742133" flag="0"/>
		</comp>
		<comp name="--.HNN" depth="0.0">
			<acc value="0.0298781848290247" flag="0"/>
			<vel value="0.020887040956797" flag="0"/>
			<psa03 value="0.0973841178865402" flag="0"/>
			<psa10 value="0.0369341154538856" flag="0"/>
			<psa30 value="0.00178032397939292" flag="0"/>
		</comp>
		<comp name="--.HNZ" depth="0.0">
			<acc value="0.0139589759334623" flag="0"/>
			<vel value="0.00952166751509262" flag="0"/>
			<psa03 value="0.0299872391115881" flag="0"/>
			<psa10 value="0.0207038709048381" flag="0"/>
			<psa30 value="0.00102650143818247" flag="0"/>
		</comp>
	</station>
	<station code="ART2" name="ART2" netid="HI" source="ITSAK Strong Motion Network" insttype="" lat="39.1474" lon="20.9937" esm:processing="automatic (Paolucci et al 2011)" esm:quality="best">
		<comp name="--.HNE" depth="0.0">
			<acc value="0.0572129978481571" flag="0"/>
			<vel value="0.0390342513343971" flag="0"/>
			<psa03 value="0.215186192529176" flag="0"/>
			<psa10 value="0.0584172036030419" flag="0"/>
			<psa30 value="0.00281281341841773" flag="0"/>
		</comp>
		<comp name="--.HNN" depth="0.0">
			<acc value="0.050384421317957" flag="0"/>
			<vel value="0.0292435252917172" flag="0"/>
			<psa03 value="0.112689788062073" flag="0"/>
			<psa10 value="0.0466233735696833" flag="0"/>
			<psa30 value="0.00254727728628549" flag="0"/>
		</comp>
		<comp name="--.HNZ" depth="0.0">
			<acc value="0.0454008629190469" flag="0"/>
			<vel value="0.0309895871982396" flag="0"/>
			<psa03 value="0.109017826062612" flag="0"/>
			<psa10 value="0.0406765371209542" flag="0"/>
			<psa30 value="0.00199749336579896" flag="0"/>
		</comp>
	</station>
	<station code="AST1" name="AST1" netid="HI" source="ITSAK Strong Motion Network" insttype="" lat="38.5416" lon="21.0895" esm:processing="automatic (Paolucci et al 2011)" esm:quality="best">
		<comp name="--.HNE" depth="0.0">
			<acc value="0.0271104853347773" flag="0"/>
			<vel value="0.0292599505770543" flag="0"/>
			<psa03 value="0.0787303821680966" flag="0"/>
			<psa10 value="0.0382916866363138" flag="0"/>
			<psa30 value="0.00572914202754215" flag="0"/>
		</comp>
		<comp name="--.HNN" depth="0.0">
			<acc value="0.0307553801746417" flag="0"/>
			<vel value="0.0289092736852913" flag="0"/>
			<psa03 value="0.087194828312779" flag="0"/>
			<psa10 value="0.0704451841477227" flag="0"/>
			<psa30 value="0.00243949618798336" flag="0"/>
		</comp>
		<comp name="--.HNZ" depth="0.0">
			<acc value="0.0211000451164972" flag="0"/>
			<vel value="0.019834367273817" flag="0"/>
			<psa03 value="0.0654523515220648" flag="0"/>
			<psa10 value="0.0285693775810535" flag="0"/>
			<psa30 value="0.00156674326821901" flag="0"/>
		</comp>
	</station>
	<station code="GRE3" name="GRE3" netid="HI" source="ITSAK Strong Motion Network" insttype="" lat="40.08481" lon="21.43829" esm:processing="automatic (Paolucci et al 2011)" esm:quality="best">
		<comp name="--.HNE" depth="0.0">
			<acc value="0.0457994058255314" flag="0"/>
			<vel value="0.0243621277661874" flag="0"/>
			<psa03 value="0.176236153946943" flag="0"/>
			<psa10 value="0.0527984726396909" flag="0"/>
			<psa30 value="0.00315314992237417" flag="0"/>
		</comp>
		<comp name="--.HNN" depth="0.0">
			<acc value="0.0321165723181076" flag="0"/>
			<vel value="0.0262175360630334" flag="0"/>
			<psa03 value="0.0908698217630592" flag="0"/>
			<psa10 value="0.0382121101147598" flag="0"/>
			<psa30 value="0.00357416010389915" flag="0"/>
		</comp>
		<comp name="--.HNZ" depth="0.0">
			<acc value="0.0271027300837211" flag="0"/>
			<vel value="0.0181593163234451" flag="0"/>
			<psa03 value="0.0674236279427865" flag="0"/>
			<psa10 value="0.0277308464074786" flag="0"/>
			<psa30 value="0.00279582895994738" flag="0"/>
		</comp>
	</station>
	<station code="JAN2" name="JAN2" netid="HI" source="ITSAK Strong Motion Network" insttype="" lat="39.664" lon="20.85222" esm:processing="automatic (Paolucci et al 2011)" esm:quality="best">
		<comp name="--.HNE" depth="0.0">
			<acc value="3.51811898494394" flag="0"/>
			<vel value="0.903397610454445" flag="0"/>
			<psa03 value="7.80221485844309" flag="0"/>
			<psa10 value="0.345787726739858" flag="0"/>
			<psa30 value="0.0243821651987829" flag="0"/>
		</comp>
		<comp name="--.HNN" depth="0.0">
			<acc value="2.30370458397307" flag="0"/>
			<vel value="1.31286250008619" flag="0"/>
			<psa03 value="7.58937475883105" flag="0"/>
			<psa10 value="0.783106296948886" flag="0"/>
			<psa30 value="0.0717243447191661" flag="0"/>
		</comp>
		<comp name="--.HNZ" depth="0.0">
			<acc value="3.13826389340948" flag="0"/>
			<vel value="0.647223765680739" flag="0"/>
			<psa03 value="2.39426244146965" flag="0"/>
			<psa10 value="0.154909652004188" flag="0"/>
			<psa30 value="0.012004866930184" flag="0"/>
		</comp>
	</station>
	<station code="KNS1" name="KNS1" netid="HI" source="ITSAK Strong Motion Network" insttype="" lat="40.048" lon="20.7524" esm:processing="automatic (Paolucci et al 2011)" esm:quality="best">
		<comp name="--.HNE" depth="0.0">
			<acc value="0.186854376587373" flag="0"/>
			<vel value="0.102746893666952" flag="0"/>
			<psa03 value="0.376719747501094" flag="0"/>
			<psa10 value="0.110601321794766" flag="0"/>
			<psa30 value="0.00821813107751805" flag="0"/>
		</comp>
		<comp name="--.HNN" depth="0.0">
			<acc value="0.24580315173561" flag="0"/>
			<vel value="0.101581503239038" flag="0"/>
			<psa03 value="0.44500006240352" flag="0"/>
			<psa10 value="0.109044346152771" flag="0"/>
			<psa30 value="0.00578308726781624" flag="0"/>
		</comp>
		<comp name="--.HNZ" depth="0.0">
			<acc value="0.147393797239323" flag="0"/>
			<vel value="0.0676744825592157" flag="0"/>
			<psa03 value="0.210251636472388" flag="0"/>
			<psa10 value="0.0499646386620976" flag="0"/>
			<psa30 value="0.00471556946666768" flag="0"/>
		</comp>
	</station>
	<station code="KOZ2" name="KOZ2" netid="HI" source="ITSAK Strong Motion Network" insttype="" lat="40.295728" lon="21.788123" esm:processing="automatic (Paolucci et al 2011)" esm:quality="best">
		<comp name="--.HNE" depth="0.0">
			<acc value="0.0354913001903244" flag="0"/>
			<vel value="0.0173138805839736" flag="0"/>
			<psa03 value="0.0621565081886192" flag="0"/>
			<psa10 value="0.0171848946649325" flag="0"/>
			<psa30 value="0.000989185320339469" flag="0"/>
		</comp>
		<comp name="--.HNN" depth="0.0">
			<acc value="0.022541286937123" flag="0"/>
			<vel value="0.012709654161028" flag="0"/>
			<psa03 value="0.0712203221634788" flag="0"/>
			<psa10 value="0.0203088066087674" flag="0"/>
			<psa30 value="0.000874259894594038" flag="0"/>
		</comp>
		<comp name="--.HNZ" depth="0.0">
			<acc value="0.0171235617937148" flag="0"/>
			<vel value="0.00833400430144773" flag="0"/>
			<psa03 value="0.0440245830792342" flag="0"/>
			<psa10 value="0.00833325078696716" flag="0"/>
			<psa30 value="0.000821602812570782" flag="0"/>
		</comp>
	</station>
	<station code="KRK1" name="KRK1" netid="HI" source="ITSAK Strong Motion Network" insttype="" lat="39.618861" lon="19.9202" esm:processing="automatic (Paolucci et al 2011)" esm:quality="best">
		<comp name="--.HNE" depth="0.0">
			<acc value="0.411631477781971" flag="0"/>
			<vel value="0.140598372065553" flag="0"/>
			<psa03 value="0.880481077550211" flag="0"/>
			<psa10 value="0.068437263632843" flag="0"/>
			<psa30 value="0.00701664315150622" flag="0"/>
		</comp>
		<comp name="--.HNN" depth="0.0">
			<acc value="0.34903771749138" flag="0"/>
			<vel value="0.146247706476177" flag="0"/>
			<psa03 value="0.617288183979362" flag="0"/>
			<psa10 value="0.128951707417754" flag="0"/>
			<psa30 value="0.00885989275774643" flag="0"/>
		</comp>
		<comp name="--.HNZ" depth="0.0">
			<acc value="0.165067795696527" flag="0"/>
			<vel value="0.0638975617289323" flag="0"/>
			<psa03 value="0.47223849181579" flag="0"/>
			<psa10 value="0.0396561095226338" flag="0"/>
			<psa30 value="0.00422935642410649" flag="0"/>
		</comp>
	</station>
	<station code="SIA1" name="SIA1" netid="HI" source="ITSAK Strong Motion Network" insttype="" lat="40.257308" lon="21.553432" esm:processing="automatic (Paolucci et al 2011)" esm:quality="best">
		<comp name="--.HNE" depth="0.0">
			<acc value="0.0227198437280113" flag="0"/>
			<vel value="0.012324501306309" flag="0"/>
			<psa03 value="0.0763594230203558" flag="0"/>
			<psa10 value="0.0174597691240164" flag="0"/>
			<psa30 value="0.00119319821019218" flag="0"/>
		</comp>
		<comp name="--.HNN" depth="0.0">
			<acc value="0.0398009980302348" flag="0"/>
			<vel value="0.0203050336425927" flag="0"/>
			<psa03 value="0.13338571114874" flag="0"/>
			<psa10 value="0.0157707153574938" flag="0"/>
			<psa30 value="0.000825758244097727" flag="0"/>
		</comp>
		<comp name="--.HNZ" depth="0.0">
			<acc value="0.0148225156517329" flag="0"/>
			<vel value="0.00612426662743177" flag="0"/>
			<psa03 value="0.0426112680998863" flag="0"/>
			<psa10 value="0.00641405318079469" flag="0"/>
			<psa30 value="0.000709491062800909" flag="0"/>
		</comp>
	</station>
	<station code="VSK1" name="VSK1" netid="HI" source="ITSAK Strong Motion Network" insttype="" lat="38.4091" lon="20.564" esm:processing="automatic (Paolucci et al 2011)" esm:quality="best">
		<comp name="--.HNE" depth="0.0">
			<acc value="0.0402019971052242" flag="0"/>
			<vel value="0.0238524810414088" flag="0"/>
			<psa03 value="0.145821118266766" flag="0"/>
			<psa10 value="0.0219275469673718" flag="0"/>
			<psa30 value="0.0018777973115228" flag="0"/>
		</comp>
		<comp name="--.HNN" depth="0.0">
			<acc value="0.0317739439199103" flag="0"/>
			<vel value="0.0211089889108917" flag="0"/>
			<psa03 value="0.0849126510880716" flag="0"/>
			<psa10 value="0.0300874687721445" flag="0"/>
			<psa30 value="0.00180605193374363" flag="0"/>
		</comp>
		<comp name="--.HNZ" depth="0.0">
			<acc value="0.0213759164091578" flag="0"/>
			<vel value="0.0138882545530362" flag="0"/>
			<psa03 value="0.056026565651677" flag="0"/>
			<psa10 value="0.0202118589364599" flag="0"/>
			<psa30 value="0.00139857327361553" flag="0"/>
		</comp>
	</station>
	<station code="ARTB" name="ARTB" netid="HL" source="National Observatory of Athens Seismic Network" insttype="" lat="39.15702" lon="20.9785" esm:processing="automatic (Paolucci et al 2011)" esm:quality="best">
		<comp name="00.HNE" depth="0.0">
			<acc value="0.206024819497692" flag="0"/>
			<vel value="0.0959849044812963" flag="0"/>
			<psa03 value="0.707889060842808" flag="0"/>
			<psa10 value="0.0922783279863505" flag="0"/>
			<psa30 value="0.00463696759301264" flag="0"/>
		</comp>
		<comp name="00.HNN" depth="0.0">
			<acc value="0.155720304459671" flag="0"/>
			<vel value="0.0633082322486457" flag="0"/>
			<psa03 value="0.576133416011295" flag="0"/>
			<psa10 value="0.0491761414280256" flag="0"/>
			<psa30 value="0.00301250373025419" flag="0"/>
		</comp>
		<comp name="00.HNZ" depth="0.0">
			<acc value="0.131983658344137" flag="0"/>
			<vel value="0.0616051794193187" flag="0"/>
			<psa03 value="0.203973866434266" flag="0"/>
			<psa10 value="0.0681442642230701" flag="0"/>
			<psa30 value="0.00239032647239768" flag="0"/>
		</comp>
	</station>
	<station code="SMHA" name="SMHA" netid="HL" source="National Observatory of Athens Seismic Network" insttype="" lat="38.25123" lon="20.6477" esm:processing="automatic (Paolucci et al 2011)" esm:quality="best">
		<comp name="00.HNE" depth="0.0">
			<acc value="0.103303798943855" flag="0"/>
			<vel value="0.0574059388238756" flag="0"/>
			<psa03 value="0.228820054038923" flag="0"/>
			<psa10 value="0.0413404023487674" flag="0"/>
			<psa30 value="0.0027879444793059" flag="0"/>
		</comp>
		<comp name="00.HNN" depth="0.0">
			<acc value="0.084826448492752" flag="0"/>
			<vel value="0.0615762487164615" flag="0"/>
			<psa03 value="0.217284914892566" flag="0"/>
			<psa10 value="0.0696401408175531" flag="0"/>
			<psa30 value="0.00357332088163812" flag="0"/>
		</comp>
		<comp name="00.HNZ" depth="0.0">
			<acc value="0.0381864171110413" flag="0"/>
			<vel value="0.0242413614349684" flag="0"/>
			<psa03 value="0.0936718511337533" flag="0"/>
			<psa10 value="0.0270937016997686" flag="0"/>
			<psa30 value="0.00169356739886191" flag="0"/>
		</comp>
	</station>
	<station code="PDO" name="PDO" netid="HP" source="University of Patras, Seismological Laboratory (PSLNET)" insttype="" lat="38.5986" lon="21.1833" esm:processing="manual (Paolucci et al 2011)" esm:quality="good">
		<comp name="--.HNE" depth="0.0">
			<acc value="0.039068209315225" flag="0"/>
			<vel value="0.0310898654746085" flag="0"/>
			<psa03 value="0.128120685283283" flag="0"/>
			<psa10 value="0.0391149674246256" flag="0"/>
			<psa30 value="0.00173646013612858" flag="0"/>
		</comp>
		<comp name="--.HNN" depth="0.0">
			<acc value="0.0335786383000392" flag="0"/>
			<vel value="0.0239540028347911" flag="0"/>
			<psa03 value="0.107792484473078" flag="0"/>
			<psa10 value="0.0368935677678004" flag="0"/>
			<psa30 value="0.00134272957424452" flag="0"/>
		</comp>
		<comp name="--.HNZ" depth="0.0">
			<acc value="0.0145521527013821" flag="0"/>
			<vel value="0.0120584216487225" flag="0"/>
			<psa03 value="0.039162495364785" flag="0"/>
			<psa10 value="0.0139391212108706" flag="0"/>
			<psa30 value="0.000620109725059278" flag="0"/>
		</comp>
	</station>
	<station code="PVO" name="PVO" netid="HP" source="University of Patras, Seismological Laboratory (PSLNET)" insttype="" lat="38.616" lon="21.525" esm:processing="automatic (Paolucci et al 2011)" esm:quality="best">
		<comp name="--.HNE" depth="0.0">
			<acc value="0.0188002625328685" flag="0"/>
			<vel value="0.0203863401248875" flag="0"/>
			<psa03 value="0.0519040113026838" flag="0"/>
			<psa10 value="0.0326568071031993" flag="0"/>
			<psa30 value="0.00289933644181006" flag="0"/>
		</comp>
		<comp name="--.HNN" depth="0.0">
			<acc value="0.0202320425196043" flag="0"/>
			<vel value="0.0173355411252222" flag="0"/>
			<psa03 value="0.0409829362725609" flag="0"/>
			<psa10 value="0.0382903740493614" flag="0"/>
			<psa30 value="0.00191297693366678" flag="0"/>
		</comp>
		<comp name="--.HNZ" depth="0.0">
			<acc value="0.0113953936784211" flag="0"/>
			<vel value="0.010699157741849" flag="0"/>
			<psa03 value="0.0294774188801665" flag="0"/>
			<psa10 value="0.029093396044705" flag="0"/>
			<psa30 value="0.00231064702735883" flag="0"/>
		</comp>
	</station>
</stationlist>
