<stationlist created="1775808319">
	<station code="SRN" name="SRN" netid="AC" source="Albanian Seismological Network (AC)" insttype="" lat="39.880001" lon="20.0005">
		<comp name="01.HNE" depth="0.0">
			<acc value="0.175690440395155" flag="0"/>
			<vel value="0.13131602859059" flag="0"/>
			<psa03 value="0.45782128674671" flag="0"/>
			<psa10 value="0.137490363061785" flag="0"/>
			<psa30 value="0.0145813792781488" flag="0"/>
		</comp>
		<comp name="01.HNN" depth="0.0">
			<acc value="0.236689255446269" flag="0"/>
			<vel value="0.143381018670675" flag="0"/>
			<psa03 value="0.570286487014277" flag="0"/>
			<psa10 value="0.0974767573567837" flag="0"/>
			<psa30 value="0.0108044799104351" flag="0"/>
		</comp>
		<comp name="01.HNZ" depth="0.0">
			<acc value="0.188785135535733" flag="0"/>
			<vel value="0.116806551398166" flag="0"/>
			<psa03 value="0.450560180734072" flag="0"/>
			<psa10 value="0.168328190916536" flag="0"/>
			<psa30 value="0.00800008496636664" flag="0"/>
		</comp>
	</station>
	<station code="AGR3" name="AGR3" netid="HI" source="ITSAK Strong Motion Network" insttype="" lat="38.5893" lon="21.4162">
		<comp name="--.HNE" depth="0.0">
			<acc value="0.0528898540508393" flag="0"/>
			<vel value="0.0549451466990284" flag="0"/>
			<psa03 value="0.143123324967866" flag="0"/>
			<psa10 value="0.092135788543812" flag="0"/>
			<psa30 value="0.00806095566541838" flag="0"/>
		</comp>
		<comp name="--.HNN" depth="0.0">
			<acc value="0.043769931806352" flag="0"/>
			<vel value="0.0516879704377694" flag="0"/>
			<psa03 value="0.0968510825755668" flag="0"/>
			<psa10 value="0.0722854085535583" flag="0"/>
			<psa30 value="0.00713340755324145" flag="0"/>
		</comp>
		<comp name="--.HNZ" depth="0.0">
			<acc value="0.0319115612099123" flag="0"/>
			<vel value="0.0306997571060132" flag="0"/>
			<psa03 value="0.0797376155590322" flag="0"/>
			<psa10 value="0.0661470994207035" flag="0"/>
			<psa30 value="0.00335648172544155" flag="0"/>
		</comp>
	</station>
	<station code="AIA1" name="AIA1" netid="HI" source="ITSAK Strong Motion Network" insttype="" lat="40.1641" lon="21.8202">
		<comp name="--.HNE" depth="0.0">
			<acc value="0.0312760808172807" flag="0"/>
			<vel value="0.0140683843826661" flag="0"/>
			<psa03 value="0.0792774340325978" flag="0"/>
			<psa10 value="0.0103150030058257" flag="0"/>
			<psa30 value="0.0010789988742133" flag="0"/>
		</comp>
		<comp name="--.HNN" depth="0.0">
			<acc value="0.0298781848290247" flag="0"/>
			<vel value="0.020887040956797" flag="0"/>
			<psa03 value="0.0973841178865402" flag="0"/>
			<psa10 value="0.0369341154538856" flag="0"/>
			<psa30 value="0.00178032397939292" flag="0"/>
		</comp>
		<comp name="--.HNZ" depth="0.0">
			<acc value="0.0139589759334623" flag="0"/>
			<vel value="0.00952166751509262" flag="0"/>
			<psa03 value="0.0299872391115881" flag="0"/>
			<psa10 value="0.0207038709048381" flag="0"/>
			<psa30 value="0.00102650143818247" flag="0"/>
		</comp>
	</station>
	<station code="AIG2" name="AIG2" netid="HI" source="ITSAK Strong Motion Network" insttype="" lat="38.2417" lon="22.0726">
		<comp name="--.HNE" depth="0.0">
			<acc value="0.00656399446055203" flag="0"/>
			<vel value="0.00917230144857688" flag="0"/>
			<psa03 value="0.0146265783140298" flag="0"/>
			<psa10 value="0.0127046069303582" flag="0"/>
			<psa30 value="0.00453692179880311" flag="0"/>
		</comp>
		<comp name="--.HNN" depth="0.0">
			<acc value="0.00635266806528612" flag="0"/>
			<vel value="0.00899289933990024" flag="0"/>
			<psa03 value="0.0181848999728763" flag="0"/>
			<psa10 value="0.00768547740640981" flag="0"/>
			<psa30 value="0.0047905056808241" flag="0"/>
		</comp>
		<comp name="--.HNZ" depth="0.0">
			<acc value="0.00477046056885157" flag="0"/>
			<vel value="0.00556003587962703" flag="0"/>
			<psa03 value="0.00883922227384499" flag="0"/>
			<psa10 value="0.0098754588881851" flag="0"/>
			<psa30 value="0.00166080845790951" flag="0"/>
		</comp>
	</station>
	<station code="AKR1" name="AKR1" netid="HI" source="ITSAK Strong Motion Network" insttype="" lat="38.153583" lon="22.31326">
		<comp name="--.HNE" depth="0.0">
			<acc value="0.00743661480178635" flag="0"/>
			<vel value="0.005623896353221" flag="0"/>
			<psa03 value="0.0198061375802445" flag="0"/>
			<psa10 value="0.00941239321235669" flag="0"/>
			<psa30 value="0.000636047499608623" flag="0"/>
		</comp>
		<comp name="--.HNN" depth="0.0">
			<acc value="0.00562644984776906" flag="0"/>
			<vel value="0.00652326477230852" flag="0"/>
			<psa03 value="0.020055251739085" flag="0"/>
			<psa10 value="0.00891042620950627" flag="0"/>
			<psa30 value="0.00068853514332409" flag="0"/>
		</comp>
		<comp name="--.HNZ" depth="0.0">
			<acc value="0.00434400378551845" flag="0"/>
			<vel value="0.00320614890348687" flag="0"/>
			<psa03 value="0.00958841252902256" flag="0"/>
			<psa10 value="0.00584575787776991" flag="0"/>
			<psa30 value="0.000378827491295443" flag="0"/>
		</comp>
	</station>
	<station code="ARG2" name="ARG2" netid="HI" source="ITSAK Strong Motion Network" insttype="" lat="38.1783" lon="20.4878">
		<comp name="--.HNE" depth="0.0">
			<acc value="0.0604008913147957" flag="0"/>
			<vel value="0.0291653266633339" flag="0"/>
			<psa03 value="0.196227686621203" flag="0"/>
			<psa10 value="0.0170546635377594" flag="0"/>
			<psa30 value="0.00167732330193688" flag="0"/>
		</comp>
		<comp name="--.HNN" depth="0.0">
			<acc value="0.0677031868259368" flag="0"/>
			<vel value="0.0327929051454802" flag="0"/>
			<psa03 value="0.153145332626688" flag="0"/>
			<psa10 value="0.0303277490645346" flag="0"/>
			<psa30 value="0.00163028904031454" flag="0"/>
		</comp>
		<comp name="--.HNZ" depth="0.0">
			<acc value="0.0289867758173219" flag="0"/>
			<vel value="0.021326530109399" flag="0"/>
			<psa03 value="0.122664032140125" flag="0"/>
			<psa10 value="0.0165638085210236" flag="0"/>
			<psa30 value="0.00155439901297268" flag="0"/>
		</comp>
	</station>
	<station code="ART2" name="ART2" netid="HI" source="ITSAK Strong Motion Network" insttype="" lat="39.1474" lon="20.9937">
		<comp name="--.HNE" depth="0.0">
			<acc value="0.0572129978481571" flag="0"/>
			<vel value="0.0390342513343971" flag="0"/>
			<psa03 value="0.215186192529176" flag="0"/>
			<psa10 value="0.0584172036030419" flag="0"/>
			<psa30 value="0.00281281341841773" flag="0"/>
		</comp>
		<comp name="--.HNN" depth="0.0">
			<acc value="0.050384421317957" flag="0"/>
			<vel value="0.0292435252917172" flag="0"/>
			<psa03 value="0.112689788062073" flag="0"/>
			<psa10 value="0.0466233735696833" flag="0"/>
			<psa30 value="0.00254727728628549" flag="0"/>
		</comp>
		<comp name="--.HNZ" depth="0.0">
			<acc value="0.0454008629190469" flag="0"/>
			<vel value="0.0309895871982396" flag="0"/>
			<psa03 value="0.109017826062612" flag="0"/>
			<psa10 value="0.0406765371209542" flag="0"/>
			<psa30 value="0.00199749336579896" flag="0"/>
		</comp>
	</station>
	<station code="AST1" name="AST1" netid="HI" source="ITSAK Strong Motion Network" insttype="" lat="38.5416" lon="21.0895">
		<comp name="--.HNE" depth="0.0">
			<acc value="0.0271104853347773" flag="0"/>
			<vel value="0.0292599505770543" flag="0"/>
			<psa03 value="0.0787303821680966" flag="0"/>
			<psa10 value="0.0382916866363138" flag="0"/>
			<psa30 value="0.00572914202754215" flag="0"/>
		</comp>
		<comp name="--.HNN" depth="0.0">
			<acc value="0.0307553801746417" flag="0"/>
			<vel value="0.0289092736852913" flag="0"/>
			<psa03 value="0.087194828312779" flag="0"/>
			<psa10 value="0.0704451841477227" flag="0"/>
			<psa30 value="0.00243949618798336" flag="0"/>
		</comp>
		<comp name="--.HNZ" depth="0.0">
			<acc value="0.0211000451164972" flag="0"/>
			<vel value="0.019834367273817" flag="0"/>
			<psa03 value="0.0654523515220648" flag="0"/>
			<psa10 value="0.0285693775810535" flag="0"/>
			<psa30 value="0.00156674326821901" flag="0"/>
		</comp>
	</station>
	<station code="GRE3" name="GRE3" netid="HI" source="ITSAK Strong Motion Network" insttype="" lat="40.08481" lon="21.43829">
		<comp name="--.HNE" depth="0.0">
			<acc value="0.0457994058255314" flag="0"/>
			<vel value="0.0243621277661874" flag="0"/>
			<psa03 value="0.176236153946943" flag="0"/>
			<psa10 value="0.0527984726396909" flag="0"/>
			<psa30 value="0.00315314992237417" flag="0"/>
		</comp>
		<comp name="--.HNN" depth="0.0">
			<acc value="0.0321165723181076" flag="0"/>
			<vel value="0.0262175360630334" flag="0"/>
			<psa03 value="0.0908698217630592" flag="0"/>
			<psa10 value="0.0382121101147598" flag="0"/>
			<psa30 value="0.00357416010389915" flag="0"/>
		</comp>
		<comp name="--.HNZ" depth="0.0">
			<acc value="0.0271027300837211" flag="0"/>
			<vel value="0.0181593163234451" flag="0"/>
			<psa03 value="0.0674236279427865" flag="0"/>
			<psa10 value="0.0277308464074786" flag="0"/>
			<psa30 value="0.00279582895994738" flag="0"/>
		</comp>
	</station>
	<station code="JAN2" name="JAN2" netid="HI" source="ITSAK Strong Motion Network" insttype="" lat="39.664" lon="20.85222">
		<comp name="--.HNE" depth="0.0">
			<acc value="3.51811898494394" flag="0"/>
			<vel value="0.903397610454445" flag="0"/>
			<psa03 value="7.80221485844309" flag="0"/>
			<psa10 value="0.345787726739858" flag="0"/>
			<psa30 value="0.0243821651987829" flag="0"/>
		</comp>
		<comp name="--.HNN" depth="0.0">
			<acc value="2.30370458397307" flag="0"/>
			<vel value="1.31286250008619" flag="0"/>
			<psa03 value="7.58937475883105" flag="0"/>
			<psa10 value="0.783106296948886" flag="0"/>
			<psa30 value="0.0717243447191661" flag="0"/>
		</comp>
		<comp name="--.HNZ" depth="0.0">
			<acc value="3.13826389340948" flag="0"/>
			<vel value="0.647223765680739" flag="0"/>
			<psa03 value="2.39426244146965" flag="0"/>
			<psa10 value="0.154909652004188" flag="0"/>
			<psa30 value="0.012004866930184" flag="0"/>
		</comp>
	</station>
	<station code="JAN3" name="JAN3" netid="HI" source="ITSAK Strong Motion Network" insttype="" lat="39.684" lon="20.8379">
		<comp name="--.HNE" depth="0.0">
			<acc value="5.74927183409656" flag="0"/>
			<vel value="1.53459076757382" flag="0"/>
			<psa03 value="5.41917566045824" flag="0"/>
			<psa10 value="0.396329704897864" flag="0"/>
			<psa30 value="0.0361152357904601" flag="0"/>
		</comp>
		<comp name="--.HNN" depth="0.0">
			<acc value="3.04664970562483" flag="0"/>
			<vel value="0.712074767869829" flag="0"/>
			<psa03 value="2.9235486707514" flag="0"/>
			<psa10 value="0.529226118633052" flag="0"/>
			<psa30 value="0.0373448672475094" flag="0"/>
		</comp>
		<comp name="--.HNZ" depth="0.0">
			<acc value="5.79169316714293" flag="0"/>
			<vel value="1.01115027319014" flag="0"/>
			<psa03 value="1.37667961493476" flag="0"/>
			<psa10 value="0.127773274352347" flag="0"/>
			<psa30 value="0.016883795135233" flag="0"/>
		</comp>
	</station>
	<station code="KAR2" name="KAR2" netid="HI" source="ITSAK Strong Motion Network" insttype="" lat="39.365759" lon="21.91933">
		<comp name="--.HNE" depth="0.0">
			<acc value="0.0430501111643083" flag="0"/>
			<vel value="0.0337078397886676" flag="0"/>
			<psa03 value="0.176687433842022" flag="0"/>
			<psa10 value="0.0738940476180015" flag="0"/>
			<psa30 value="0.00683583159029433" flag="0"/>
		</comp>
		<comp name="--.HNN" depth="0.0">
			<acc value="0.0693756574297338" flag="0"/>
			<vel value="0.0573416300654916" flag="0"/>
			<psa03 value="0.180729472440575" flag="0"/>
			<psa10 value="0.110504107854819" flag="0"/>
			<psa30 value="0.00983809589223665" flag="0"/>
		</comp>
		<comp name="--.HNZ" depth="0.0">
			<acc value="0.035945451501197" flag="0"/>
			<vel value="0.0225650560337104" flag="0"/>
			<psa03 value="0.0504463001531409" flag="0"/>
			<psa10 value="0.0416876153499247" flag="0"/>
			<psa30 value="0.00265069684565708" flag="0"/>
		</comp>
	</station>
	<station code="KAS2" name="KAS2" netid="HI" source="ITSAK Strong Motion Network" insttype="" lat="40.504878" lon="21.280507">
		<comp name="--.HNE" depth="0.0">
			<acc value="0.010191507009356" flag="0"/>
			<vel value="0.00976508036224857" flag="0"/>
			<psa03 value="0.0299095021910653" flag="0"/>
			<psa10 value="0.0202738392923543" flag="0"/>
			<psa30 value="0.000951147175499055" flag="0"/>
		</comp>
		<comp name="--.HNN" depth="0.0">
			<acc value="0.00930036326037752" flag="0"/>
			<vel value="0.00900929935482857" flag="0"/>
			<psa03 value="0.0243828131583738" flag="0"/>
			<psa10 value="0.0160517889772416" flag="0"/>
			<psa30 value="0.000860239278297018" flag="0"/>
		</comp>
		<comp name="--.HNZ" depth="0.0">
			<acc value="0.00645888176204107" flag="0"/>
			<vel value="0.0050172021744078" flag="0"/>
			<psa03 value="0.0196173294997192" flag="0"/>
			<psa10 value="0.00988992922177368" flag="0"/>
			<psa30 value="0.000729080381330455" flag="0"/>
		</comp>
	</station>
	<station code="KLV1" name="KLV1" netid="HI" source="ITSAK Strong Motion Network" insttype="" lat="38.03256" lon="22.10797">
		<comp name="--.HNE" depth="0.0">
			<acc value="0.00739007422551983" flag="0"/>
			<vel value="0.0087362388165892" flag="0"/>
			<psa03 value="0.0191332492546953" flag="0"/>
			<psa10 value="0.0132461456171384" flag="0"/>
			<psa30 value="0.000695953186816399" flag="0"/>
		</comp>
		<comp name="--.HNN" depth="0.0">
			<acc value="0.00820144274162072" flag="0"/>
			<vel value="0.00667490786143949" flag="0"/>
			<psa03 value="0.02892639018972" flag="0"/>
			<psa10 value="0.0113052101646903" flag="0"/>
			<psa30 value="0.000711080386835826" flag="0"/>
		</comp>
		<comp name="--.HNZ" depth="0.0">
			<acc value="0.00376958820684358" flag="0"/>
			<vel value="0.00395647753205005" flag="0"/>
			<psa03 value="0.0118719518231271" flag="0"/>
			<psa10 value="0.0078372804313652" flag="0"/>
			<psa30 value="0.000371159900021818" flag="0"/>
		</comp>
	</station>
	<station code="KMV1" name="KMV1" netid="HI" source="ITSAK Strong Motion Network" insttype="" lat="38.7794" lon="22.7846">
		<comp name="--.HNE" depth="0.0">
			<acc value="0.0096875314087959" flag="0"/>
			<vel value="0.0131704724056955" flag="0"/>
			<psa03 value="0.0242135180892396" flag="0"/>
			<psa10 value="0.0313819213982781" flag="0"/>
			<psa30 value="0.00300895245333286" flag="0"/>
		</comp>
		<comp name="--.HNN" depth="0.0">
			<acc value="0.0135263415040809" flag="0"/>
			<vel value="0.0159566965744208" flag="0"/>
			<psa03 value="0.0333149491393792" flag="0"/>
			<psa10 value="0.0227866576292368" flag="0"/>
			<psa30 value="0.0050964759498528" flag="0"/>
		</comp>
		<comp name="--.HNZ" depth="0.0">
			<acc value="0.00664933264035155" flag="0"/>
			<vel value="0.00721978075579992" flag="0"/>
			<psa03 value="0.0148951677213432" flag="0"/>
			<psa10 value="0.0149123313062631" flag="0"/>
			<psa30 value="0.00180665322357613" flag="0"/>
		</comp>
	</station>
	<station code="KNS1" name="KNS1" netid="HI" source="ITSAK Strong Motion Network" insttype="" lat="40.048" lon="20.7524">
		<comp name="--.HNE" depth="0.0">
			<acc value="0.186854376587373" flag="0"/>
			<vel value="0.102746893666952" flag="0"/>
			<psa03 value="0.376719747501094" flag="0"/>
			<psa10 value="0.110601321794766" flag="0"/>
			<psa30 value="0.00821813107751805" flag="0"/>
		</comp>
		<comp name="--.HNN" depth="0.0">
			<acc value="0.24580315173561" flag="0"/>
			<vel value="0.101581503239038" flag="0"/>
			<psa03 value="0.44500006240352" flag="0"/>
			<psa10 value="0.109044346152771" flag="0"/>
			<psa30 value="0.00578308726781624" flag="0"/>
		</comp>
		<comp name="--.HNZ" depth="0.0">
			<acc value="0.147393797239323" flag="0"/>
			<vel value="0.0676744825592157" flag="0"/>
			<psa03 value="0.210251636472388" flag="0"/>
			<psa10 value="0.0499646386620976" flag="0"/>
			<psa30 value="0.00471556946666768" flag="0"/>
		</comp>
	</station>
	<station code="KOZ2" name="KOZ2" netid="HI" source="ITSAK Strong Motion Network" insttype="" lat="40.295728" lon="21.788123">
		<comp name="--.HNE" depth="0.0">
			<acc value="0.0354913001903244" flag="0"/>
			<vel value="0.0173138805839736" flag="0"/>
			<psa03 value="0.0621565081886192" flag="0"/>
			<psa10 value="0.0171848946649325" flag="0"/>
			<psa30 value="0.000989185320339469" flag="0"/>
		</comp>
		<comp name="--.HNN" depth="0.0">
			<acc value="0.022541286937123" flag="0"/>
			<vel value="0.012709654161028" flag="0"/>
			<psa03 value="0.0712203221634788" flag="0"/>
			<psa10 value="0.0203088066087674" flag="0"/>
			<psa30 value="0.000874259894594038" flag="0"/>
		</comp>
		<comp name="--.HNZ" depth="0.0">
			<acc value="0.0171235617937148" flag="0"/>
			<vel value="0.00833400430144773" flag="0"/>
			<psa03 value="0.0440245830792342" flag="0"/>
			<psa10 value="0.00833325078696716" flag="0"/>
			<psa30 value="0.000821602812570782" flag="0"/>
		</comp>
	</station>
	<station code="KRI1" name="KRI1" netid="HI" source="ITSAK Strong Motion Network" insttype="" lat="37.6621" lon="20.8172">
		<comp name="--.HNE" depth="0.0">
			<acc value="0.0135846716525676" flag="0"/>
			<vel value="0.00996223855811072" flag="0"/>
			<psa03 value="0.033294395694481" flag="0"/>
			<psa10 value="0.0144488212259951" flag="0"/>
			<psa30 value="0.000750533781679607" flag="0"/>
		</comp>
		<comp name="--.HNN" depth="0.0">
			<acc value="0.0153720707147293" flag="0"/>
			<vel value="0.0133867942528859" flag="0"/>
			<psa03 value="0.0469850916984008" flag="0"/>
			<psa10 value="0.0144482671267887" flag="0"/>
			<psa30 value="0.00100129893530701" flag="0"/>
		</comp>
		<comp name="--.HNZ" depth="0.0">
			<acc value="0.00635498015636445" flag="0"/>
			<vel value="0.0045213264645169" flag="0"/>
			<psa03 value="0.0163540169671127" flag="0"/>
			<psa10 value="0.00485136028505964" flag="0"/>
			<psa30 value="0.00029376141337693" flag="0"/>
		</comp>
	</station>
	<station code="KRK1" name="KRK1" netid="HI" source="ITSAK Strong Motion Network" insttype="" lat="39.618861" lon="19.9202">
		<comp name="--.HNE" depth="0.0">
			<acc value="0.411631477781971" flag="0"/>
			<vel value="0.140598372065553" flag="0"/>
			<psa03 value="0.880481077550211" flag="0"/>
			<psa10 value="0.068437263632843" flag="0"/>
			<psa30 value="0.00701664315150622" flag="0"/>
		</comp>
		<comp name="--.HNN" depth="0.0">
			<acc value="0.34903771749138" flag="0"/>
			<vel value="0.146247706476177" flag="0"/>
			<psa03 value="0.617288183979362" flag="0"/>
			<psa10 value="0.128951707417754" flag="0"/>
			<psa30 value="0.00885989275774643" flag="0"/>
		</comp>
		<comp name="--.HNZ" depth="0.0">
			<acc value="0.165067795696527" flag="0"/>
			<vel value="0.0638975617289323" flag="0"/>
			<psa03 value="0.47223849181579" flag="0"/>
			<psa10 value="0.0396561095226338" flag="0"/>
			<psa30 value="0.00422935642410649" flag="0"/>
		</comp>
	</station>
	<station code="LAM2" name="LAM2" netid="HI" source="ITSAK Strong Motion Network" insttype="" lat="38.90203" lon="22.431301">
		<comp name="--.HNE" depth="0.0">
			<acc value="0.0125617345926202" flag="0"/>
			<vel value="0.0135773872099771" flag="0"/>
			<psa03 value="0.0367958906721722" flag="0"/>
			<psa10 value="0.0186704505757208" flag="0"/>
			<psa30 value="0.00145395548408184" flag="0"/>
		</comp>
		<comp name="--.HNN" depth="0.0">
			<acc value="0.0176838397283333" flag="0"/>
			<vel value="0.0130127128126328" flag="0"/>
			<psa03 value="0.056140521117334" flag="0"/>
			<psa10 value="0.0213148763809522" flag="0"/>
			<psa30 value="0.00178859348554045" flag="0"/>
		</comp>
		<comp name="--.HNZ" depth="0.0">
			<acc value="0.00707450488773721" flag="0"/>
			<vel value="0.00614498870971559" flag="0"/>
			<psa03 value="0.018657566701394" flag="0"/>
			<psa10 value="0.010817588799668" flag="0"/>
			<psa30 value="0.000824753385864133" flag="0"/>
		</comp>
	</station>
	<station code="LAR4" name="LAR4" netid="HI" source="ITSAK Strong Motion Network" insttype="" lat="39.6422" lon="22.4219">
		<comp name="--.HNE" depth="0.0">
			<acc value="0.0671489138639716" flag="0"/>
			<vel value="0.0716058933017722" flag="0"/>
			<psa03 value="0.161376065372338" flag="0"/>
			<psa10 value="0.0982148812538694" flag="0"/>
