<?xml version="1.0" encoding="UTF-8" standalone="yes"?>
<!DOCTYPE earthquake SYSTEM "stationlist.dtd">
<stationlist created="" xmlns="ch.ethz.sed.shakemap.usgs.xml">
  <station code="AIA1" name="AIA1" netid="HI" insttype="unknown" commtype="DIG" lat="40.1641" lon="21.8202">
    <comp name="--.HNE">
      <acc value="0.0312777570" flag="0"/>
      <vel value="0.0144615382" flag="0"/>
      <psa03 value="0.0775698850" flag="0"/>
      <psa10 value="0.0104464746" flag="0"/>
      <psa30 value="0.0019957663" flag="0"/>
    </comp>
    <comp name="--.HNN">
      <acc value="0.0300993735" flag="0"/>
      <vel value="0.0213059037" flag="0"/>
      <psa03 value="0.0967023077" flag="0"/>
      <psa10 value="0.0378296039" flag="0"/>
      <psa30 value="0.0022491071" flag="0"/>
    </comp>
    <comp name="--.HNZ">
      <acc value="0.0138599787" flag="0"/>
      <vel value="0.0090299801" flag="0"/>
      <psa03 value="0.0301212280" flag="0"/>
      <psa10 value="0.0209385601" flag="0"/>
      <psa30 value="0.0018358165" flag="0"/>
    </comp>
  </station>
  <station code="ART2" name="ART2" netid="HI" insttype="CMG-5TD,ACCELEROMETER,GURALP" commtype="DIG" lat="39.1474" lon="20.9937">
    <comp name="--.HNZ">
      <acc value="0.0465592979" flag="0"/>
      <vel value="0.0315610454" flag="0"/>
      <psa03 value="0.1090753075" flag="0"/>
      <psa10 value="0.0409306246" flag="0"/>
      <psa30 value="0.0026467811" flag="0"/>
    </comp>
    <comp name="--.HNN">
      <acc value="0.0511574209" flag="0"/>
      <vel value="0.0293000057" flag="0"/>
      <psa03 value="0.1127527803" flag="0"/>
      <psa10 value="0.0468648226" flag="0"/>
      <psa30 value="0.0030654777" flag="0"/>
    </comp>
    <comp name="--.HNE">
      <acc value="0.0597926136" flag="0"/>
      <vel value="0.0387232124" flag="0"/>
      <psa03 value="0.2142723816" flag="0"/>
      <psa10 value="0.0586534964" flag="0"/>
      <psa30 value="0.0032302562" flag="0"/>
    </comp>
  </station>
  <station code="GRE3" name="GRE3" netid="HI" insttype="unknown" commtype="DIG" lat="40.0848" lon="21.4383">
    <comp name="--.HNN">
      <acc value="0.0323186209" flag="0"/>
      <vel value="0.0264493496" flag="0"/>
      <psa03 value="0.0912132199" flag="0"/>
      <psa10 value="0.0386097036" flag="0"/>
      <psa30 value="0.0052318265" flag="0"/>
    </comp>
    <comp name="--.HNE">
      <acc value="0.0457385012" flag="0"/>
      <vel value="0.0252787281" flag="0"/>
      <psa03 value="0.1761751507" flag="0"/>
      <psa10 value="0.0532778603" flag="0"/>
      <psa30 value="0.0041141819" flag="0"/>
    </comp>
    <comp name="--.HNZ">
      <acc value="0.0275636776" flag="0"/>
      <vel value="0.0187433904" flag="0"/>
      <psa03 value="0.0677871948" flag="0"/>
      <psa10 value="0.0280124982" flag="0"/>
      <psa30 value="0.0036646149" flag="0"/>
    </comp>
  </station>
  <station code="JAN2" name="JAN2" netid="HI" insttype="unknown" commtype="DIG" lat="39.664" lon="20.8522">
    <comp name="--.HNN">
      <acc value="2.3290632884" flag="0"/>
      <vel value="1.3099404237" flag="0"/>
      <psa03 value="7.5227647245" flag="0"/>
      <psa10 value="0.7831734037" flag="0"/>
      <psa30 value="0.0727892997" flag="0"/>
    </comp>
    <comp name="--.HNZ">
      <acc value="3.0883362151" flag="0"/>
      <vel value="0.6316182697" flag="0"/>
      <psa03 value="2.3839250357" flag="0"/>
      <psa10 value="0.1551634214" flag="0"/>
      <psa30 value="0.0121340425" flag="0"/>
    </comp>
    <comp name="--.HNE">
      <acc value="3.4974450136" flag="0"/>
      <vel value="0.8796859030" flag="0"/>
      <psa03 value="7.7910491173" flag="0"/>
      <psa10 value="0.3440984541" flag="0"/>
      <psa30 value="0.0243389637" flag="0"/>
    </comp>
  </station>
  <station code="JAN3" name="JAN3" netid="HI" insttype="unknown" commtype="DIG" lat="39.684" lon="20.8379">
    <comp name="--.HNN">
      <acc value="2.9830885903" flag="0"/>
      <vel value="0.7029164709" flag="0"/>
      <psa03 value="2.8681657890" flag="0"/>
      <psa10 value="0.5287859725" flag="0"/>
      <psa30 value="0.0381722192" flag="0"/>
    </comp>
    <comp name="--.HNZ">
      <acc value="5.5691057814" flag="0"/>
      <vel value="0.9665404938" flag="0"/>
      <psa03 value="1.3359890763" flag="0"/>
      <psa10 value="0.1242657253" flag="0"/>
      <psa30 value="0.0167889276" flag="0"/>
    </comp>
    <comp name="--.HNE">
      <acc value="5.8687705719" flag="0"/>
      <vel value="1.5074122872" flag="0"/>
      <psa03 value="5.2733718908" flag="0"/>
      <psa10 value="0.3931669010" flag="0"/>
      <psa30 value="0.0359555764" flag="0"/>
    </comp>
  </station>
  <station code="KAR2" name="KAR2" netid="HI" insttype="unknown" commtype="DIG" lat="39.3658" lon="21.9193">
    <comp name="--.HNZ">
      <acc value="0.0429046092" flag="0"/>
      <vel value="0.0258666332" flag="0"/>
      <psa03 value="0.0490987544" flag="0"/>
      <psa10 value="0.0431094920" flag="0"/>
      <psa30 value="0.0046575300" flag="0"/>
    </comp>
    <comp name="--.HNN">
      <acc value="0.0706092118" flag="0"/>
      <vel value="0.0600212308" flag="0"/>
      <psa03 value="0.1795832726" flag="0"/>
      <psa10 value="0.1131749283" flag="0"/>
      <psa30 value="0.0228705358" flag="0"/>
    </comp>
    <comp name="--.HNE">
      <acc value="0.0434643350" flag="0"/>
      <vel value="0.0398938315" flag="0"/>
      <psa03 value="0.1771481415" flag="0"/>
      <psa10 value="0.0776041211" flag="0"/>
      <psa30 value="0.0127025629" flag="0"/>
    </comp>
  </station>
  <station code="KNS1" name="KNS1" netid="HI" insttype="unknown" commtype="DIG" lat="40.048" lon="20.7524">
    <comp name="--.HNE">
      <acc value="0.1860871773" flag="0"/>
      <vel value="0.1017483537" flag="0"/>
      <psa03 value="0.3789607476" flag="0"/>
      <psa10 value="0.1114250849" flag="0"/>
      <psa30 value="0.0104753008" flag="0"/>
    </comp>
    <comp name="--.HNN">
      <acc value="0.2463284195" flag="0"/>
      <vel value="0.1019041162" flag="0"/>
      <psa03 value="0.4370166603" flag="0"/>
      <psa10 value="0.1097374005" flag="0"/>
      <psa30 value="0.0063952793" flag="0"/>
    </comp>
    <comp name="--.HNZ">
      <acc value="0.1467405055" flag="0"/>
      <vel value="0.0671554846" flag="0"/>
      <psa03 value="0.2098694390" flag="0"/>
      <psa10 value="0.0502833856" flag="0"/>
      <psa30 value="0.0052976053" flag="0"/>
    </comp>
  </station>
  <station code="KRK1" name="KRK1" netid="HI" insttype="CMG-5TD,ACCELEROMETER,GURALP" commtype="DIG" lat="39.6189" lon="19.9202">
    <comp name="--.HNE">
      <acc value="0.4120456183" flag="0"/>
      <vel value="0.1400299403" flag="0"/>
      <psa03 value="0.8820661454" flag="0"/>
      <psa10 value="0.0687852363" flag="0"/>
      <psa30 value="0.0084836147" flag="0"/>
    </comp>
    <comp name="--.HNN">
      <acc value="0.3456186670" flag="0"/>
      <vel value="0.1455028283" flag="0"/>
      <psa03 value="0.6152709253" flag="0"/>
      <psa10 value="0.1290778331" flag="0"/>
      <psa30 value="0.0103068192" flag="0"/>
    </comp>
    <comp name="--.HNZ">
      <acc value="0.1660304917" flag="0"/>
      <vel value="0.0637036835" flag="0"/>
      <psa03 value="0.4715406305" flag="0"/>
      <psa10 value="0.0401157151" flag="0"/>
      <psa30 value="0.0053823095" flag="0"/>
    </comp>
  </station>
  <station code="LEF2" name="LEF2" netid="HI" insttype="unknown" commtype="DIG" lat="38.8301" lon="20.7083">
    <comp name="--.HNN">
      <acc value="0.1557309433" flag="0"/>
      <vel value="0.1312534140" flag="0"/>
      <psa03 value="0.6035750617" flag="0"/>
      <psa10 value="0.1777860852" flag="0"/>
      <psa30 value="0.0153813756" flag="0"/>
    </comp>
    <comp name="--.HNZ">
      <acc value="0.0834705389" flag="0"/>
      <vel value="0.0843889502" flag="0"/>
      <psa03 value="0.2756244178" flag="0"/>
      <psa10 value="0.1274874524" flag="0"/>
      <psa30 value="0.0108843824" flag="0"/>
    </comp>
    <comp name="--.HNE">
      <acc value="0.2016746276" flag="0"/>
      <vel value="0.1535759717" flag="0"/>
      <psa03 value="0.5550559916" flag="0"/>
      <psa10 value="0.2555605620" flag="0"/>
      <psa30 value="0.0191478821" flag="0"/>
    </comp>
  </station>
  <station code="LMS2" name="LMS2" netid="HI" insttype="CMG-5TD,ACCELEROMETER,GURALP" commtype="DIG" lat="40.835" lon="21.1418">
    <comp name="--.HNE">
      <acc value="0.0267995852" flag="0"/>
      <vel value="0.0108763223" flag="0"/>
      <psa03 value="0.0555380040" flag="0"/>
      <psa10 value="0.0119696992" flag="0"/>
      <psa30 value="0.0013530154" flag="0"/>
    </comp>
    <comp name="--.HNN">
      <acc value="0.0327099232" flag="0"/>
      <vel value="0.0215160138" flag="0"/>
      <psa03 value="0.0801128614" flag="0"/>
      <psa10 value="0.0258823786" flag="0"/>
      <psa30 value="0.0017141086" flag="0"/>
    </comp>
    <comp name="--.HNZ">
      <acc value="0.0103524502" flag="0"/>
      <vel value="0.0061635489" flag="0"/>
      <psa03 value="0.0250390521" flag="0"/>
      <psa10 value="0.0106186646" flag="0"/>
      <psa30 value="0.0012212768" flag="0"/>
    </comp>
  </station>
  <station code="PRE2" name="PRE2" netid="HI" insttype="unknown" commtype="DIG" lat="38.9577" lon="20.7548">
    <comp name="--.HNE">
      <acc value="0.2371001334" flag="0"/>
      <vel value="0.2047159170" flag="0"/>
      <psa03 value="0.5250462330" flag="0"/>
      <psa10 value="0.2879633084" flag="0"/>
      <psa30 value="0.0245937232" flag="0"/>
    </comp>
    <comp name="--.HNN">
      <acc value="0.1762933035" flag="0"/>
      <vel value="0.1688865971" flag="0"/>
      <psa03 value="0.4662401317" flag="0"/>
      <psa10 value="0.3036831194" flag="0"/>
      <psa30 value="0.0216435346" flag="0"/>
    </comp>
    <comp name="--.HNZ">
      <acc value="0.0946315150" flag="0"/>
      <vel value="0.0568425463" flag="0"/>
      <psa03 value="0.2347307635" flag="0"/>
      <psa10 value="0.0799950987" flag="0"/>
      <psa30 value="0.0058578630" flag="0"/>
    </comp>
  </station>
  <station code="SIA1" name="SIA1" netid="HI" insttype="unknown" commtype="DIG" lat="40.2573" lon="21.5534">
    <comp name="--.HNN">
      <acc value="0.0398613502" flag="0"/>
      <vel value="0.0199119347" flag="0"/>
      <psa03 value="0.1328352624" flag="0"/>
      <psa10 value="0.0159495731" flag="0"/>
      <psa30 value="0.0011634768" flag="0"/>
    </comp>
    <comp name="--.HNE">
      <acc value="0.0228271644" flag="0"/>
      <vel value="0.0128311724" flag="0"/>
      <psa03 value="0.0758619220" flag="0"/>
      <psa10 value="0.0176502827" flag="0"/>
      <psa30 value="0.0021413368" flag="0"/>
    </comp>
    <comp name="--.HNZ">
      <acc value="0.0149258702" flag="0"/>
      <vel value="0.0065152307" flag="0"/>
      <psa03 value="0.0417932838" flag="0"/>
      <psa10 value="0.0065902545" flag="0"/>
      <psa30 value="0.0012696927" flag="0"/>
    </comp>
  </station>
  <station code="ARTB" name="ARTB" netid="HL" insttype="CMG-5" commtype="DIG" lat="39.157" lon="20.9785">
    <comp name="00.HNE">
      <acc value="0.2060733285" flag="0"/>
      <vel value="0.0954552662" flag="0"/>
      <psa03 value="0.7074663186" flag="0"/>
      <psa10 value="0.0927287913" flag="0"/>
      <psa30 value="0.0052110533" flag="0"/>
    </comp>
    <comp name="00.HNN">
      <acc value="0.1552179046" flag="0"/>
      <vel value="0.0638449108" flag="0"/>
      <psa03 value="0.5756031321" flag="0"/>
      <psa10 value="0.0496339013" flag="0"/>
      <psa30 value="0.0035160799" flag="0"/>
    </comp>
    <comp name="00.HNZ">
      <acc value="0.1325152321" flag="0"/>
      <vel value="0.0621808832" flag="0"/>
      <psa03 value="0.2028040593" flag="0"/>
      <psa10 value="0.0684779869" flag="0"/>
      <psa30 value="0.0029534695" flag="0"/>
    </comp>
  </station>
  <station code="GINA" name="GINA" netid="HL" insttype="CMG-5" commtype="DIG" lat="39.6689" lon="22.389">
    <comp name="00.HNN">
      <acc value="0.0444759515" flag="0"/>
      <vel value="0.0539334189" flag="0"/>
      <psa03 value="0.0802397863" flag="0"/>
      <psa10 value="0.0644995351" flag="0"/>
      <psa30 value="0.0080118201" flag="0"/>
    </comp>
    <comp name="00.HNE">
      <acc value="0.0499438903" flag="0"/>
      <vel value="0.0380589354" flag="0"/>
      <psa03 value="0.0700525317" flag="0"/>
      <psa10 value="0.0473650086" flag="0"/>
      <psa30 value="0.0075314046" flag="0"/>
    </comp>
    <comp name="00.HNZ">
      <acc value="0.0220146359" flag="0"/>
      <vel value="0.0210856536" flag="0"/>
      <psa03 value="0.0313879562" flag="0"/>
      <psa10 value="0.0380160898" flag="0"/>
      <psa30 value="0.0025702984" flag="0"/>
    </comp>
  </station>
  <station code="JAN" name="JAN" netid="HL" insttype="CMG3EPSC60_DR24" commtype="DIG" lat="39.6562" lon="20.8487">
    <comp name="--.HHN">
      <acc value="2.4788439633" flag="0"/>
      <vel value="0.8381516823" flag="0"/>
      <psa03 value="5.4396660472" flag="0"/>
      <psa10 value="0.4868473278" flag="0"/>
      <psa30 value="0.0612561471" flag="0"/>
    </comp>
    <comp name="--.HHZ">
      <acc value="1.6314253539" flag="0"/>
      <vel value="0.2734614596" flag="0"/>
      <psa03 value="1.6669015980" flag="0"/>
      <psa10 value="0.0909529627" flag="0"/>
      <psa30 value="0.0084220451" flag="0"/>
    </comp>
    <comp name="--.HHE">
      <acc value="1.8871354235" flag="0"/>
      <vel value="0.6413453225" flag="0"/>
      <psa03 value="4.7262438623" flag="0"/>
      <psa10 value="0.2831820120" flag="0"/>
      <psa30 value="0.0230529779" flag="0"/>
    </comp>
  </station>
  <station code="PRGA" name="PRGA" netid="HL" insttype="CMG-5" commtype="DIG" lat="39.2856" lon="20.4016">
    <comp name="00.HNE">
      <acc value="0.7149517845" flag="0"/>
      <vel value="0.3884846273" flag="0"/>
      <psa03 value="1.7329221834" flag="0"/>
      <psa10 value="0.1601929868" flag="0"/>
      <psa30 value="0.0208152151" flag="0"/>
    </comp>
    <comp name="00.HNN">
      <acc value="0.7317412544" flag="0"/>
      <vel value="0.3314822753" flag="0"/>
      <psa03 value="2.2455924461" flag="0"/>
      <psa10 value="0.1655497716" flag="0"/>
      <psa30 value="0.0115053770" flag="0"/>
    </comp>
    <comp name="00.HNZ">
      <acc value="0.1855916722" flag="0"/>
      <vel value="0.0740089300" flag="0"/>
      <psa03 value="0.4098904016" flag="0"/>
      <psa10 value="0.0775751631" flag="0"/>
      <psa30 value="0.0061208637" flag="0"/>
    </comp>
  </station>
  <station code="FSK" name="FSK" netid="HP" insttype="DC" commtype="DIG" lat="38.4593" lon="20.5623">
    <comp name="--.HNN">
      <acc value="0.0406605788" flag="0"/>
      <vel value="0.0317233971" flag="0"/>
      <psa03 value="0.0932578690" flag="0"/>
      <psa10 value="0.0307941123" flag="0"/>
      <psa30 value="0.0038444568" flag="0"/>
    </comp>
    <comp name="--.HNE">
      <acc value="0.0826559063" flag="0"/>
      <vel value="0.0540531850" flag="0"/>
      <psa03 value="0.2740444067" flag="0"/>
      <psa10 value="0.0376318179" flag="0"/>
      <psa30 value="0.0051392111" flag="0"/>
    </comp>
    <comp name="--.HNZ">
      <acc value="0.0371032014" flag="0"/>
      <vel value="0.0235215599" flag="0"/>
      <psa03 value="0.0878027569" flag="0"/>
      <psa10 value="0.0161656575" flag="0"/>
      <psa30 value="0.0019631545" flag="0"/>
    </comp>
  </station>
  <station code="KSTR" name="KSTR" netid="HP" insttype="Compact," commtype="DIG" lat="39.2492" lon="20.576">
    <comp name="--.HHN">
      <acc value="0.2483612422" flag="0"/>
      <vel value="0.1137366284" flag="0"/>
      <psa03 value="0.3989422071" flag="0"/>
      <psa10 value="0.1204646523" flag="0"/>
      <psa30 value="0.0075802004" flag="0"/>
    </comp>
    <comp name="--.HHE">
      <acc value="0.2532932436" flag="0"/>
      <vel value="0.1865508812" flag="0"/>
      <psa03 value="0.5313597697" flag="0"/>
      <psa10 value="0.1665600669" flag="0"/>
      <psa30 value="0.0123895009" flag="0"/>
    </comp>
    <comp name="--.HHZ">
      <acc value="0.1756856747" flag="0"/>
      <vel value="0.0814791634" flag="0"/>
      <psa03 value="0.4514433472" flag="0"/>
      <psa10 value="0.0632382993" flag="0"/>
      <psa30 value="0.0079194972" flag="0"/>
    </comp>
  </station>
  <station code="IGT" name="IGT" netid="HT" insttype="Compact," commtype="DIG" lat="39.5315" lon="20.3299">
    <comp name="--.HHN">
      <acc value="2.9622040745" flag="0"/>
      <vel value="0.9744151194" flag="0"/>
      <psa03 value="4.2876655932" flag="0"/>
      <psa10 value="0.6747853187" flag="0"/>
      <psa30 value="0.0344030166" flag="0"/>
    </comp>
    <comp name="--.HHZ">
      <acc value="2.5183961840" flag="0"/>
      <vel value="0.9202430684" flag="0"/>
      <psa03 value="5.2450738590" flag="0"/>
      <psa10 value="0.3683405036" flag="0"/>
      <psa30 value="0.0239765495" flag="0"/>
    </comp>
    <comp name="--.HHE">
      <acc value="3.0772275854" flag="0"/>
      <vel value="1.0282604070" flag="0"/>
      <psa03 value="6.0865952469" flag="0"/>
      <psa10 value="0.8381005796" flag="0"/>
      <psa30 value="0.0496419991" flag="0"/>
    </comp>
  </station>
</stationlist>
