<?xml version="1.0" encoding="UTF-8" standalone="yes"?>
<!DOCTYPE earthquake SYSTEM "stationlist.dtd">
<stationlist created="" xmlns="ch.ethz.sed.shakemap.usgs.xml">
  <station code="ART2" name="ART2" netid="HI" insttype="CMG-5TD,ACCELEROMETER,GURALP" commtype="DIG" lat="39.1474" lon="20.9937">
    <comp name="--.HNZ">
      <acc value="0.0465592994" flag="0"/>
      <vel value="0.0315610298" flag="0"/>
      <psa03 value="0.1090753075" flag="0"/>
      <psa10 value="0.0409306398" flag="0"/>
      <psa30 value="0.0026440120" flag="0"/>
    </comp>
    <comp name="--.HNE">
      <acc value="0.0597926121" flag="0"/>
      <vel value="0.0387232883" flag="0"/>
      <psa03 value="0.2142723816" flag="0"/>
      <psa10 value="0.0586534468" flag="0"/>
      <psa30 value="0.0032301623" flag="0"/>
    </comp>
    <comp name="--.HNN">
      <acc value="0.0511574206" flag="0"/>
      <vel value="0.0293000215" flag="0"/>
      <psa03 value="0.1127527803" flag="0"/>
      <psa10 value="0.0468647768" flag="0"/>
      <psa30 value="0.0030697121" flag="0"/>
    </comp>
  </station>
  <station code="GRE3" name="GRE3" netid="HI" insttype="unknown" commtype="DIG" lat="40.0848" lon="21.4383">
    <comp name="--.HNN">
      <acc value="0.0323186198" flag="0"/>
      <vel value="0.0264493714" flag="0"/>
      <psa03 value="0.0912132199" flag="0"/>
      <psa10 value="0.0386097036" flag="0"/>
      <psa30 value="0.0052317485" flag="0"/>
    </comp>
    <comp name="--.HNE">
      <acc value="0.0457385013" flag="0"/>
      <vel value="0.0252786997" flag="0"/>
      <psa03 value="0.1761751507" flag="0"/>
      <psa10 value="0.0532778582" flag="0"/>
      <psa30 value="0.0041141379" flag="0"/>
    </comp>
    <comp name="--.HNZ">
      <acc value="0.0275636770" flag="0"/>
      <vel value="0.0187434343" flag="0"/>
      <psa03 value="0.0677871948" flag="0"/>
      <psa10 value="0.0280124987" flag="0"/>
      <psa30 value="0.0036635450" flag="0"/>
    </comp>
  </station>
  <station code="JAN2" name="JAN2" netid="HI" insttype="unknown" commtype="DIG" lat="39.664" lon="20.8522">
    <comp name="--.HNZ">
      <acc value="3.0883362150" flag="0"/>
      <vel value="0.6316182701" flag="0"/>
      <psa03 value="2.3839250357" flag="0"/>
      <psa10 value="0.1551634235" flag="0"/>
      <psa30 value="0.0121360219" flag="0"/>
    </comp>
    <comp name="--.HNE">
      <acc value="3.4974450136" flag="0"/>
      <vel value="0.8796859080" flag="0"/>
      <psa03 value="7.7910491173" flag="0"/>
      <psa10 value="0.3440984914" flag="0"/>
      <psa30 value="0.0243375869" flag="0"/>
    </comp>
    <comp name="--.HNN">
      <acc value="2.3290632886" flag="0"/>
      <vel value="1.3099404205" flag="0"/>
      <psa03 value="7.5227647245" flag="0"/>
      <psa10 value="0.7831733997" flag="0"/>
      <psa30 value="0.0727875188" flag="0"/>
    </comp>
  </station>
  <station code="JAN3" name="JAN3" netid="HI" insttype="unknown" commtype="DIG" lat="39.684" lon="20.8379">
    <comp name="--.HNN">
      <acc value="2.9830885903" flag="0"/>
      <vel value="0.7029164725" flag="0"/>
      <psa03 value="2.8681657890" flag="0"/>
      <psa10 value="0.5287860045" flag="0"/>
      <psa30 value="0.0381720481" flag="0"/>
    </comp>
    <comp name="--.HNE">
      <acc value="5.8687705720" flag="0"/>
      <vel value="1.5074122909" flag="0"/>
      <psa03 value="5.2733718908" flag="0"/>
      <psa10 value="0.3931669243" flag="0"/>
      <psa30 value="0.0359543468" flag="0"/>
    </comp>
    <comp name="--.HNZ">
      <acc value="5.5691057815" flag="0"/>
      <vel value="0.9665404917" flag="0"/>
      <psa03 value="1.3359890763" flag="0"/>
      <psa10 value="0.1242657149" flag="0"/>
      <psa30 value="0.0167890519" flag="0"/>
    </comp>
  </station>
  <station code="KAR2" name="KAR2" netid="HI" insttype="unknown" commtype="DIG" lat="39.3658" lon="21.9193">
    <comp name="--.HNE">
      <acc value="0.0434643347" flag="0"/>
      <vel value="0.0398930363" flag="0"/>
      <psa03 value="0.1771481415" flag="0"/>
      <psa10 value="0.0776041211" flag="0"/>
      <psa30 value="0.0127001376" flag="0"/>
    </comp>
    <comp name="--.HNN">
      <acc value="0.0706092120" flag="0"/>
      <vel value="0.0600215874" flag="0"/>
      <psa03 value="0.1795832726" flag="0"/>
      <psa10 value="0.1131749284" flag="0"/>
      <psa30 value="0.0225977874" flag="0"/>
    </comp>
    <comp name="--.HNZ">
      <acc value="0.0429046098" flag="0"/>
      <vel value="0.0258666617" flag="0"/>
      <psa03 value="0.0490987544" flag="0"/>
      <psa10 value="0.0431094920" flag="0"/>
      <psa30 value="0.0046593194" flag="0"/>
    </comp>
  </station>
  <station code="KNS1" name="KNS1" netid="HI" insttype="unknown" commtype="DIG" lat="40.048" lon="20.7524">
    <comp name="--.HNN">
      <acc value="0.2463284195" flag="0"/>
      <vel value="0.1019040988" flag="0"/>
      <psa03 value="0.4370166603" flag="0"/>
      <psa10 value="0.1097373989" flag="0"/>
      <psa30 value="0.0063963782" flag="0"/>
    </comp>
    <comp name="--.HNE">
      <acc value="0.1860871768" flag="0"/>
      <vel value="0.1017483494" flag="0"/>
      <psa03 value="0.3789607476" flag="0"/>
      <psa10 value="0.1114250843" flag="0"/>
      <psa30 value="0.0104755871" flag="0"/>
    </comp>
    <comp name="--.HNZ">
      <acc value="0.1467405055" flag="0"/>
      <vel value="0.0671554782" flag="0"/>
      <psa03 value="0.2098694390" flag="0"/>
      <psa10 value="0.0502833726" flag="0"/>
      <psa30 value="0.0052988676" flag="0"/>
    </comp>
  </station>
  <station code="KRK1" name="KRK1" netid="HI" insttype="CMG-5TD,ACCELEROMETER,GURALP" commtype="DIG" lat="39.6189" lon="19.9202">
    <comp name="--.HNN">
      <acc value="0.3456186665" flag="0"/>
      <vel value="0.1455028124" flag="0"/>
      <psa03 value="0.6152709253" flag="0"/>
      <psa10 value="0.1290778350" flag="0"/>
      <psa30 value="0.0103060335" flag="0"/>
    </comp>
    <comp name="--.HNE">
      <acc value="0.4120456190" flag="0"/>
      <vel value="0.1400299573" flag="0"/>
      <psa03 value="0.8820661454" flag="0"/>
      <psa10 value="0.0687852439" flag="0"/>
      <psa30 value="0.0084819003" flag="0"/>
    </comp>
    <comp name="--.HNZ">
      <acc value="0.1660304913" flag="0"/>
      <vel value="0.0637036771" flag="0"/>
      <psa03 value="0.4715406305" flag="0"/>
      <psa10 value="0.0401157254" flag="0"/>
      <psa30 value="0.0053824394" flag="0"/>
    </comp>
  </station>
  <station code="LMS2" name="LMS2" netid="HI" insttype="CMG-5TD,ACCELEROMETER,GURALP" commtype="DIG" lat="40.835" lon="21.1418">
    <comp name="--.HNE">
      <acc value="0.0267995875" flag="0"/>
      <vel value="0.0108762874" flag="0"/>
      <psa03 value="0.0555380040" flag="0"/>
      <psa10 value="0.0119696992" flag="0"/>
      <psa30 value="0.0013528185" flag="0"/>
    </comp>
    <comp name="--.HNN">
      <acc value="0.0327099229" flag="0"/>
      <vel value="0.0215160509" flag="0"/>
      <psa03 value="0.0801128614" flag="0"/>
      <psa10 value="0.0258823785" flag="0"/>
      <psa30 value="0.0017116108" flag="0"/>
    </comp>
    <comp name="--.HNZ">
      <acc value="0.0103524512" flag="0"/>
      <vel value="0.0061635508" flag="0"/>
      <psa03 value="0.0250390521" flag="0"/>
      <psa10 value="0.0106185968" flag="0"/>
      <psa30 value="0.0012208840" flag="0"/>
    </comp>
  </station>
  <station code="PRE2" name="PRE2" netid="HI" insttype="unknown" commtype="DIG" lat="38.9577" lon="20.7548">
    <comp name="--.HNE">
      <acc value="0.2371001324" flag="0"/>
      <vel value="0.2047161260" flag="0"/>
      <psa03 value="0.5250462330" flag="0"/>
      <psa10 value="0.2879633062" flag="0"/>
      <psa30 value="0.0245890256" flag="0"/>
    </comp>
    <comp name="--.HNN">
      <acc value="0.1762933038" flag="0"/>
      <vel value="0.1688864422" flag="0"/>
      <psa03 value="0.4662401317" flag="0"/>
      <psa10 value="0.3036831156" flag="0"/>
      <psa30 value="0.0216518904" flag="0"/>
    </comp>
    <comp name="--.HNZ">
      <acc value="0.0946315144" flag="0"/>
      <vel value="0.0568425313" flag="0"/>
      <psa03 value="0.2347307635" flag="0"/>
      <psa10 value="0.0799950988" flag="0"/>
      <psa30 value="0.0058572830" flag="0"/>
    </comp>
  </station>
  <station code="SIA1" name="SIA1" netid="HI" insttype="unknown" commtype="DIG" lat="40.2573" lon="21.5534">
    <comp name="--.HNE">
      <acc value="0.0228271654" flag="0"/>
      <vel value="0.0128311823" flag="0"/>
      <psa03 value="0.0758619220" flag="0"/>
      <psa10 value="0.0176502816" flag="0"/>
      <psa30 value="0.0021412403" flag="0"/>
    </comp>
    <comp name="--.HNN">
      <acc value="0.0398613501" flag="0"/>
      <vel value="0.0199119355" flag="0"/>
      <psa03 value="0.1328352624" flag="0"/>
      <psa10 value="0.0159495731" flag="0"/>
      <psa30 value="0.0011633971" flag="0"/>
    </comp>
    <comp name="--.HNZ">
      <acc value="0.0149258709" flag="0"/>
      <vel value="0.0065152307" flag="0"/>
      <psa03 value="0.0417932838" flag="0"/>
      <psa10 value="0.0065902545" flag="0"/>
      <psa30 value="0.0012696988" flag="0"/>
    </comp>
  </station>
  <station code="ARTB" name="ARTB" netid="HL" insttype="CMG-5" commtype="DIG" lat="39.157" lon="20.9785">
    <comp name="00.HNE">
      <acc value="0.2060733283" flag="0"/>
      <vel value="0.0954553223" flag="0"/>
      <psa03 value="0.7074663186" flag="0"/>
      <psa10 value="0.0927288056" flag="0"/>
      <psa30 value="0.0052015713" flag="0"/>
    </comp>
    <comp name="00.HNN">
      <acc value="0.1552179052" flag="0"/>
      <vel value="0.0638449268" flag="0"/>
      <psa03 value="0.5756031321" flag="0"/>
      <psa10 value="0.0496338838" flag="0"/>
      <psa30 value="0.0035138848" flag="0"/>
    </comp>
    <comp name="00.HNZ">
      <acc value="0.1325152309" flag="0"/>
      <vel value="0.0621808625" flag="0"/>
      <psa03 value="0.2028040593" flag="0"/>
      <psa10 value="0.0684779799" flag="0"/>
      <psa30 value="0.0029528863" flag="0"/>
    </comp>
  </station>
  <station code="GINA" name="GINA" netid="HL" insttype="CMG-5" commtype="DIG" lat="39.6689" lon="22.389">
    <comp name="00.HNE">
      <acc value="0.0499438906" flag="0"/>
      <vel value="0.0380588552" flag="0"/>
      <psa03 value="0.0700525317" flag="0"/>
      <psa10 value="0.0473650086" flag="0"/>
      <psa30 value="0.0075332912" flag="0"/>
    </comp>
    <comp name="00.HNZ">
      <acc value="0.0220146357" flag="0"/>
      <vel value="0.0210856765" flag="0"/>
      <psa03 value="0.0313879562" flag="0"/>
      <psa10 value="0.0380160898" flag="0"/>
      <psa30 value="0.0025695672" flag="0"/>
    </comp>
    <comp name="00.HNN">
      <acc value="0.0444759521" flag="0"/>
      <vel value="0.0539333942" flag="0"/>
      <psa03 value="0.0802397863" flag="0"/>
      <psa10 value="0.0644995349" flag="0"/>
      <psa30 value="0.0080118398" flag="0"/>
    </comp>
  </station>
  <station code="JAN" name="JAN" netid="HL" insttype="CMG3EPSC60_DR24" commtype="DIG" lat="39.6562" lon="20.8487">
    <comp name="--.HHE">
      <acc value="1.8871354235" flag="0"/>
      <vel value="0.6413453162" flag="0"/>
      <psa03 value="4.7262438623" flag="0"/>
      <psa10 value="0.2831819994" flag="0"/>
      <psa30 value="0.0230495864" flag="0"/>
    </comp>
    <comp name="--.HHZ">
      <acc value="1.6314253539" flag="0"/>
      <vel value="0.2734614711" flag="0"/>
      <psa03 value="1.6669015980" flag="0"/>
      <psa10 value="0.0909529340" flag="0"/>
      <psa30 value="0.0084248201" flag="0"/>
    </comp>
    <comp name="--.HHN">
      <acc value="2.4788439633" flag="0"/>
      <vel value="0.8381516818" flag="0"/>
      <psa03 value="5.4396660472" flag="0"/>
      <psa10 value="0.4868473262" flag="0"/>
      <psa30 value="0.0612537244" flag="0"/>
    </comp>
  </station>
  <station code="PRGA" name="PRGA" netid="HL" insttype="CMG-5" commtype="DIG" lat="39.2856" lon="20.4016">
    <comp name="00.HNE">
      <acc value="0.7149517844" flag="0"/>
      <vel value="0.3884846183" flag="0"/>
      <psa03 value="1.7329221834" flag="0"/>
      <psa10 value="0.1601929773" flag="0"/>
      <psa30 value="0.0208184518" flag="0"/>
    </comp>
    <comp name="00.HNZ">
      <acc value="0.1855916720" flag="0"/>
      <vel value="0.0740089307" flag="0"/>
      <psa03 value="0.4098904016" flag="0"/>
      <psa10 value="0.0775751825" flag="0"/>
      <psa30 value="0.0061223978" flag="0"/>
    </comp>
    <comp name="00.HNN">
      <acc value="0.7317412543" flag="0"/>
      <vel value="0.3314822478" flag="0"/>
      <psa03 value="2.2455924461" flag="0"/>
      <psa10 value="0.1655497762" flag="0"/>
      <psa30 value="0.0115030779" flag="0"/>
    </comp>
  </station>
  <station code="FSK" name="FSK" netid="HP" insttype="DC" commtype="DIG" lat="38.4593" lon="20.5623">
    <comp name="--.HNN">
      <acc value="0.0406605796" flag="0"/>
      <vel value="0.0317233478" flag="0"/>
      <psa03 value="0.0932578690" flag="0"/>
      <psa10 value="0.0307941127" flag="0"/>
      <psa30 value="0.0038450872" flag="0"/>
    </comp>
    <comp name="--.HNE">
      <acc value="0.0826559047" flag="0"/>
      <vel value="0.0540532655" flag="0"/>
      <psa03 value="0.2740444068" flag="0"/>
      <psa10 value="0.0376318210" flag="0"/>
      <psa30 value="0.0051740071" flag="0"/>
    </comp>
    <comp name="--.HNZ">
      <acc value="0.0371032017" flag="0"/>
      <vel value="0.0235215226" flag="0"/>
      <psa03 value="0.0878027569" flag="0"/>
      <psa10 value="0.0161656575" flag="0"/>
      <psa30 value="0.0019628366" flag="0"/>
    </comp>
  </station>
  <station code="KSTR" name="KSTR" netid="HP" insttype="Compact," commtype="DIG" lat="39.2492" lon="20.576">
    <comp name="--.HHE">
      <acc value="0.2532932437" flag="0"/>
      <vel value="0.1865508872" flag="0"/>
      <psa03 value="0.5313597697" flag="0"/>
      <psa10 value="0.1665600709" flag="0"/>
      <psa30 value="0.0123905364" flag="0"/>
    </comp>
    <comp name="--.HHZ">
      <acc value="0.1756856746" flag="0"/>
      <vel value="0.0814791625" flag="0"/>
      <psa03 value="0.4514433472" flag="0"/>
      <psa10 value="0.0632383074" flag="0"/>
      <psa30 value="0.0079198825" flag="0"/>
    </comp>
    <comp name="--.HHN">
      <acc value="0.2483612422" flag="0"/>
      <vel value="0.1137366136" flag="0"/>
      <psa03 value="0.3989422071" flag="0"/>
      <psa10 value="0.1204646491" flag="0"/>
      <psa30 value="0.0075832349" flag="0"/>
    </comp>
  </station>
  <station code="IGT" name="IGT" netid="HT" insttype="Compact," commtype="DIG" lat="39.5315" lon="20.3299">
    <comp name="--.HHZ">
      <acc value="2.5183961840" flag="0"/>
      <vel value="0.9202431001" flag="0"/>
      <psa03 value="5.2450738590" flag="0"/>
      <psa10 value="0.3683406458" flag="0"/>
      <psa30 value="0.0239655945" flag="0"/>
    </comp>
    <comp name="--.HHN">
      <acc value="2.9622040754" flag="0"/>
      <vel value="0.9744152114" flag="0"/>
      <psa03 value="4.2876655933" flag="0"/>
      <psa10 value="0.6747844198" flag="0"/>
      <psa30 value="0.0344060063" flag="0"/>
    </comp>
    <comp name="--.HHE">
      <acc value="3.0772275857" flag="0"/>
      <vel value="1.0282602907" flag="0"/>
      <psa03 value="6.0865952469" flag="0"/>
      <psa10 value="0.8381000571" flag="0"/>
      <psa30 value="0.0496252272" flag="0"/>
    </comp>
  </station>
</stationlist>
