<?xml version="1.0" encoding="UTF-8" standalone="yes"?>
<!DOCTYPE earthquake SYSTEM "stationlist.dtd">
<stationlist created="" xmlns="ch.ethz.sed.shakemap.usgs.xml">
  <station code="ARPRA" name="ARPRA" netid="KO" insttype="CMG-5T" lat="39.0929" lon="38.3356">
    <comp name="--.HNZ">
      <acc value="0.0123288083" flag="0"/>
      <vel value="0.0049946554" flag="0"/>
      <psa03 value="0.0216318062" flag="0"/>
      <psa10 value="0.0049717324" flag="0"/>
      <psa30 value="0.0009270825" flag="0"/>
    </comp>
    <comp name="--.HNN">
      <acc value="0.0220113148" flag="0"/>
      <vel value="0.0097551495" flag="0"/>
      <psa03 value="0.0775022630" flag="0"/>
      <psa10 value="0.0122769380" flag="0"/>
      <psa30 value="0.0005828750" flag="0"/>
    </comp>
    <comp name="--.HNE">
      <acc value="0.0239009213" flag="0"/>
      <vel value="0.0099267380" flag="0"/>
      <psa03 value="0.0551538111" flag="0"/>
      <psa10 value="0.0121528370" flag="0"/>
      <psa30 value="0.0005947072" flag="0"/>
    </comp>
  </station>
  <station code="SVRC" name="SVRC" netid="KO" insttype="CMG-3T" lat="38.3775" lon="39.306">
    <comp name="--.HHE">
      <acc value="0.0152764924" flag="0"/>
      <vel value="0.0055308922" flag="0"/>
      <psa03 value="0.0323818575" flag="0"/>
      <psa10 value="0.0039267021" flag="0"/>
      <psa30 value="0.0003067062" flag="0"/>
    </comp>
    <comp name="--.HHN">
      <acc value="0.0090302589" flag="0"/>
      <vel value="0.0040549512" flag="0"/>
      <psa03 value="0.0207844837" flag="0"/>
      <psa10 value="0.0027455555" flag="0"/>
      <psa30 value="0.0001979699" flag="0"/>
    </comp>
    <comp name="--.HHZ">
      <acc value="0.0078099927" flag="0"/>
      <vel value="0.0026812983" flag="0"/>
      <psa03 value="0.0112018473" flag="0"/>
      <psa10 value="0.0035086005" flag="0"/>
      <psa30 value="0.0002631859" flag="0"/>
    </comp>
  </station>
  <station code="URFA" name="URFA" netid="KO" insttype="CMG-3ESP" lat="37.4409" lon="38.8213">
    <comp name="--.HHE">
      <acc value="0.0231207013" flag="0"/>
      <vel value="0.0072408831" flag="0"/>
      <psa03 value="0.0315654970" flag="0"/>
      <psa10 value="0.0028068181" flag="0"/>
      <psa30 value="0.0012528297" flag="0"/>
    </comp>
    <comp name="--.HHN">
      <acc value="0.0228596416" flag="0"/>
      <vel value="0.0067169214" flag="0"/>
      <psa03 value="0.0210561690" flag="0"/>
      <psa10 value="0.0048343962" flag="0"/>
      <psa30 value="0.0005406432" flag="0"/>
    </comp>
    <comp name="--.HHZ">
      <acc value="0.0134451357" flag="0"/>
      <vel value="0.0030481997" flag="0"/>
      <psa03 value="0.0121239750" flag="0"/>
      <psa10 value="0.0021868689" flag="0"/>
      <psa30 value="0.0003326603" flag="0"/>
    </comp>
  </station>
</stationlist>
