<?xml version="1.0" encoding="UTF-8" standalone="yes"?>
<!DOCTYPE earthquake SYSTEM "stationlist.dtd">
<stationlist created="" xmlns="ch.ethz.sed.shakemap.usgs.xml">
  <station code="IMMV" name="IMMV" netid="GE" insttype="STS-2/N" commtype="DIG" lat="35.4606" lon="23.9811">
    <comp name="--.HHE">
      <acc value="0.1344424288" flag="0"/>
      <vel value="0.0553186237" flag="0"/>
      <psa03 value="0.3360009302" flag="0"/>
      <psa10 value="0.0775657104" flag="0"/>
      <psa30 value="0.0054148312" flag="0"/>
    </comp>
    <comp name="--.HHZ">
      <acc value="0.1059661436" flag="0"/>
      <vel value="0.0412227290" flag="0"/>
      <psa03 value="0.2466071032" flag="0"/>
      <psa10 value="0.0688221163" flag="0"/>
      <psa30 value="0.0025079465" flag="0"/>
    </comp>
    <comp name="--.HHN">
      <acc value="0.1601689415" flag="0"/>
      <vel value="0.0693902903" flag="0"/>
      <psa03 value="0.5149306055" flag="0"/>
      <psa10 value="0.0594060120" flag="0"/>
      <psa30 value="0.0057372858" flag="0"/>
    </comp>
  </station>
  <station code="IMOD" name="IMOD" netid="HC" insttype="120" commtype="DIG" lat="34.9731" lon="24.7995">
    <comp name="--.HHZ">
      <acc value="0.1761887573" flag="0"/>
      <vel value="0.0762725524" flag="0"/>
      <psa03 value="0.3473393836" flag="0"/>
      <psa10 value="0.0652119628" flag="0"/>
      <psa30 value="0.0059000711" flag="0"/>
    </comp>
  </station>
  <station code="KNDR" name="KNDR" netid="HC" insttype="120" commtype="DIG" lat="35.2348" lon="23.6248">
    <comp name="--.HHE">
      <acc value="0.1274164365" flag="0"/>
      <vel value="0.0688101791" flag="0"/>
      <psa03 value="0.4968332718" flag="0"/>
      <psa10 value="0.1200925823" flag="0"/>
      <psa30 value="0.0058963233" flag="0"/>
    </comp>
    <comp name="--.HHZ">
      <acc value="0.1043576367" flag="0"/>
      <vel value="0.0417720620" flag="0"/>
      <psa03 value="0.2799466829" flag="0"/>
      <psa10 value="0.0286356586" flag="0"/>
      <psa30 value="0.0023189334" flag="0"/>
    </comp>
    <comp name="--.HHN">
      <acc value="0.1014154958" flag="0"/>
      <vel value="0.0634664155" flag="0"/>
      <psa03 value="0.4466267338" flag="0"/>
      <psa10 value="0.0724411143" flag="0"/>
      <psa30 value="0.0048428008" flag="0"/>
    </comp>
  </station>
  <station code="KNSS" name="KNSS" netid="HC" insttype="60" commtype="DIG" lat="35.3042" lon="25.1802">
    <comp name="--.HHN">
      <acc value="0.0369631278" flag="0"/>
      <vel value="0.0258660402" flag="0"/>
      <psa03 value="0.1291738246" flag="0"/>
      <psa10 value="0.0419339997" flag="0"/>
      <psa30 value="0.0033950674" flag="0"/>
    </comp>
    <comp name="--.HHZ">
      <acc value="0.0304577407" flag="0"/>
      <vel value="0.0191650772" flag="0"/>
      <psa03 value="0.0881568165" flag="0"/>
      <psa10 value="0.0261037886" flag="0"/>
      <psa30 value="0.0023709285" flag="0"/>
    </comp>
    <comp name="--.HHE">
      <acc value="0.0000000000" flag="0"/>
      <vel value="-100.0000000000" flag="0"/>
      <psa03 value="0.0000000000" flag="0"/>
      <psa10 value="0.0000000000" flag="0"/>
      <psa30 value="0.0000000000" flag="0"/>
    </comp>
  </station>
  <station code="RODP" name="RODP" netid="HC" insttype="120" commtype="DIG" lat="35.5604" lon="23.7577">
    <comp name="--.HHZ">
      <acc value="0.0391738558" flag="0"/>
      <vel value="0.0222596725" flag="0"/>
      <psa03 value="0.1059603309" flag="0"/>
      <psa10 value="0.0209489777" flag="0"/>
      <psa30 value="0.0026781230" flag="0"/>
    </comp>
    <comp name="--.HHE">
      <acc value="0.0548800435" flag="0"/>
      <vel value="0.0376794013" flag="0"/>
      <psa03 value="0.1801242094" flag="0"/>
      <psa10 value="0.0492520962" flag="0"/>
      <psa30 value="0.0023768984" flag="0"/>
    </comp>
    <comp name="--.HHN">
      <acc value="0.0526234380" flag="0"/>
      <vel value="0.0352004355" flag="0"/>
      <psa03 value="0.1740152587" flag="0"/>
      <psa10 value="0.0359942665" flag="0"/>
      <psa30 value="0.0035528488" flag="0"/>
    </comp>
  </station>
  <station code="ARK1" name="ARK1" netid="HI" insttype="unknown" commtype="DIG" lat="35.1488" lon="25.2642">
    <comp name="--.HNE">
      <acc value="0.0894787985" flag="0"/>
      <vel value="0.0554213146" flag="0"/>
      <psa03 value="0.2844886679" flag="0"/>
      <psa10 value="0.0953437867" flag="0"/>
      <psa30 value="0.0083695899" flag="0"/>
    </comp>
    <comp name="--.HNZ">
      <acc value="0.0499174977" flag="0"/>
      <vel value="0.0385211608" flag="0"/>
      <psa03 value="0.1119566701" flag="0"/>
      <psa10 value="0.0489676537" flag="0"/>
      <psa30 value="0.0044289733" flag="0"/>
    </comp>
    <comp name="--.HNN">
      <acc value="0.0961671264" flag="0"/>
      <vel value="0.0648136155" flag="0"/>
      <psa03 value="0.2539788015" flag="0"/>
      <psa10 value="0.0931324466" flag="0"/>
      <psa30 value="0.0061865183" flag="0"/>
    </comp>
  </station>
  <station code="CH01" name="CH01" netid="HI" insttype="CMG-5TD,ACCELEROMETER,GURALP" commtype="DIG" lat="35.517" lon="24.0208">
    <comp name="--.HNN">
      <acc value="0.0580737196" flag="0"/>
      <vel value="0.0451701849" flag="0"/>
      <psa03 value="0.2244156480" flag="0"/>
      <psa10 value="0.0745185100" flag="0"/>
      <psa30 value="0.0083532808" flag="0"/>
    </comp>
    <comp name="--.HNE">
      <acc value="0.0485554461" flag="0"/>
      <vel value="0.0455531515" flag="0"/>
      <psa03 value="0.1443912926" flag="0"/>
      <psa10 value="0.0567409653" flag="0"/>
      <psa30 value="0.0058100121" flag="0"/>
    </comp>
  </station>
  <station code="CH02" name="CH02" netid="HI" insttype="unknown" commtype="DIG" lat="35.5145" lon="24.0315">
    <comp name="--.HNZ">
      <acc value="0.0418862350" flag="0"/>
      <vel value="0.0351438940" flag="0"/>
      <psa03 value="0.1088395932" flag="0"/>
      <psa10 value="0.0430359464" flag="0"/>
      <psa30 value="0.0038178819" flag="0"/>
    </comp>
  </station>
  <station code="GOR1" name="GOR1" netid="HI" insttype="unknown" commtype="DIG" lat="35.0582" lon="24.9628">
    <comp name="--.HNN">
      <acc value="0.1187683169" flag="0"/>
      <vel value="0.1049707110" flag="0"/>
      <psa03 value="0.3941689456" flag="0"/>
      <psa10 value="0.1957872178" flag="0"/>
      <psa30 value="0.0099034118" flag="0"/>
    </comp>
    <comp name="--.HNE">
      <acc value="0.1279923584" flag="0"/>
      <vel value="0.1102276394" flag="0"/>
      <psa03 value="0.4733123346" flag="0"/>
      <psa10 value="0.2224215512" flag="0"/>
      <psa30 value="0.0105777784" flag="0"/>
    </comp>
    <comp name="--.HNZ">
      <acc value="0.1090494937" flag="0"/>
      <vel value="0.0628783685" flag="0"/>
      <psa03 value="0.3230789982" flag="0"/>
      <psa10 value="0.1027407371" flag="0"/>
      <psa30 value="0.0063245673" flag="0"/>
    </comp>
  </station>
  <station code="HER1" name="HER1" netid="HI" insttype="unknown" commtype="DIG" lat="35.3177" lon="25.1022">
    <comp name="--.HNN">
      <acc value="0.0895416560" flag="0"/>
      <vel value="0.1350073209" flag="0"/>
      <psa03 value="0.4083451289" flag="0"/>
      <psa10 value="0.2820193412" flag="0"/>
      <psa30 value="0.0146349991" flag="0"/>
    </comp>
    <comp name="--.HNE">
      <acc value="0.1089981979" flag="0"/>
      <vel value="0.1484421084" flag="0"/>
      <psa03 value="0.3165874648" flag="0"/>
      <psa10 value="0.2934380318" flag="0"/>
      <psa30 value="0.0141843249" flag="0"/>
    </comp>
    <comp name="--.HNZ">
      <acc value="0.1001790219" flag="0"/>
      <vel value="0.1087366162" flag="0"/>
      <psa03 value="0.2282738150" flag="0"/>
      <psa10 value="0.1708087745" flag="0"/>
      <psa30 value="0.0075114270" flag="0"/>
    </comp>
  </station>
  <station code="RTH1" name="RTH1" netid="HI" insttype="unknown" commtype="DIG" lat="35.3654" lon="24.4718">
    <comp name="--.HNN">
      <acc value="0.1208491117" flag="0"/>
      <vel value="0.0683074857" flag="0"/>
      <psa03 value="0.5199078986" flag="0"/>
      <psa10 value="0.0559405307" flag="0"/>
      <psa30 value="0.0035369705" flag="0"/>
    </comp>
    <comp name="--.HNE">
      <acc value="0.1338853301" flag="0"/>
      <vel value="0.0795835627" flag="0"/>
      <psa03 value="0.4679807618" flag="0"/>
      <psa10 value="0.0422082436" flag="0"/>
      <psa30 value="0.0044147968" flag="0"/>
    </comp>
    <comp name="--.HNZ">
      <acc value="0.0873293250" flag="0"/>
      <vel value="0.0291299700" flag="0"/>
      <psa03 value="0.1350369368" flag="0"/>
      <psa10 value="0.0325569076" flag="0"/>
      <psa30 value="0.0030219858" flag="0"/>
    </comp>
  </station>
  <station code="CHNB" name="CHNB" netid="HL" insttype="CMG-5" commtype="DIG" lat="35.4877" lon="24.0661">
    <comp name="00.HNE">
      <acc value="0.1502356431" flag="0"/>
      <vel value="0.1276518862" flag="0"/>
      <psa03 value="0.4787487103" flag="0"/>
      <psa10 value="0.1439694639" flag="0"/>
      <psa30 value="0.0113535186" flag="0"/>
    </comp>
    <comp name="00.HNZ">
      <acc value="0.1286618569" flag="0"/>
      <vel value="0.0740349453" flag="0"/>
      <psa03 value="0.6575562921" flag="0"/>
      <psa10 value="0.0458270969" flag="0"/>
      <psa30 value="0.0044160655" flag="0"/>
    </comp>
    <comp name="00.HNN">
      <acc value="0.1364221581" flag="0"/>
      <vel value="0.1193447795" flag="0"/>
      <psa03 value="0.3294616157" flag="0"/>
      <psa10 value="0.1782453724" flag="0"/>
      <psa30 value="0.0065730897" flag="0"/>
    </comp>
  </station>
  <station code="IACM" name="IACM" netid="HL" insttype="120" commtype="DIG" lat="35.3058" lon="25.0709">
    <comp name="--.HHN">
      <acc value="0.1766774904" flag="0"/>
      <vel value="0.1414215947" flag="0"/>
      <psa03 value="0.6327636832" flag="0"/>
      <psa10 value="0.3301645345" flag="0"/>
      <psa30 value="0.0132717373" flag="0"/>
    </comp>
    <comp name="--.HHZ">
      <acc value="0.1141808875" flag="0"/>
      <vel value="0.0858841285" flag="0"/>
      <psa03 value="0.2451900433" flag="0"/>
      <psa10 value="0.2241233281" flag="0"/>
      <psa30 value="0.0081501415" flag="0"/>
    </comp>
    <comp name="--.HHE">
      <acc value="0.0000545771" flag="0"/>
      <vel value="-100.0000000000" flag="0"/>
      <psa03 value="0.0000042568" flag="0"/>
      <psa10 value="0.0000044068" flag="0"/>
      <psa30 value="0.0000034936" flag="0"/>
    </comp>
  </station>
  <station code="IDI" name="IDI" netid="HL" insttype="120" commtype="DIG" lat="35.288" lon="24.89">
    <comp name="--.HHE">
      <acc value="0.0329900131" flag="0"/>
      <vel value="0.0238423400" flag="0"/>
      <psa03 value="0.1288096697" flag="0"/>
      <psa10 value="0.0414500216" flag="0"/>
      <psa30 value="0.0027418539" flag="0"/>
    </comp>
    <comp name="--.HHN">
      <acc value="0.0410367286" flag="0"/>
      <vel value="0.0225047686" flag="0"/>
      <psa03 value="0.1292279572" flag="0"/>
      <psa10 value="0.0262558801" flag="0"/>
      <psa30 value="0.0022265435" flag="0"/>
    </comp>
    <comp name="--.HHZ">
      <acc value="0.0350527051" flag="0"/>
      <vel value="0.0196445179" flag="0"/>
      <psa03 value="0.0999247250" flag="0"/>
      <psa10 value="0.0246122026" flag="0"/>
      <psa30 value="0.0039538202" flag="0"/>
    </comp>
  </station>
  <station code="IMMV" name="IMMV" netid="HL" insttype="120" commtype="DIG" lat="35.4606" lon="23.9811">
    <comp name="--.HHE">
      <acc value="0.1299781286" flag="0"/>
      <vel value="0.0543481223" flag="0"/>
      <psa03 value="0.3267125755" flag="0"/>
      <psa10 value="0.0769270768" flag="0"/>
      <psa30 value="0.0053902974" flag="0"/>
    </comp>
    <comp name="--.HHN">
      <acc value="0.1556673110" flag="0"/>
      <vel value="0.0675799787" flag="0"/>
      <psa03 value="0.5006300238" flag="0"/>
      <psa10 value="0.0590395571" flag="0"/>
      <psa30 value="0.0057380231" flag="0"/>
    </comp>
    <comp name="--.HHZ">
      <acc value="0.1038139037" flag="0"/>
      <vel value="0.0404309627" flag="0"/>
      <psa03 value="0.2398714279" flag="0"/>
      <psa10 value="0.0683873097" flag="0"/>
      <psa30 value="0.0024925445" flag="0"/>
    </comp>
  </station>
  <station code="SIVA" name="SIVA" netid="HL" insttype="60" commtype="DIG" lat="35.0178" lon="24.812">
    <comp name="--.HHN">
      <acc value="0.3378101226" flag="0"/>
      <vel value="0.1134779501" flag="0"/>
      <psa03 value="0.9304295446" flag="0"/>
      <psa10 value="0.0988066120" flag="0"/>
      <psa30 value="0.0074032731" flag="0"/>
    </comp>
    <comp name="--.HHZ">
      <acc value="0.1880612285" flag="0"/>
      <vel value="0.0906464516" flag="0"/>
      <psa03 value="0.4472894946" flag="0"/>
      <psa10 value="0.0524905530" flag="0"/>
      <psa30 value="0.0054702067" flag="0"/>
    </comp>
    <comp name="--.HHE">
      <acc value="0.4482056633" flag="0"/>
      <vel value="0.2139125206" flag="0"/>
      <psa03 value="1.1944401821" flag="0"/>
      <psa10 value="0.2358420499" flag="0"/>
      <psa30 value="0.0127081579" flag="0"/>
    </comp>
  </station>
  <station code="IDI" name="IDI" netid="MN" insttype="" commtype="DIG" lat="35.288" lon="24.89">
    <comp name="--.HHE">
      <acc value="0.0307960560" flag="0"/>
      <vel value="0.0214788900" flag="0"/>
      <psa03 value="0.1176642572" flag="0"/>
      <psa10 value="0.0369511765" flag="0"/>
      <psa30 value="0.0024365909" flag="0"/>
    </comp>
    <comp name="--.HHN">
      <acc value="0.0380539573" flag="0"/>
      <vel value="0.0202781348" flag="0"/>
      <psa03 value="0.1167803065" flag="0"/>
      <psa10 value="0.0234297793" flag="0"/>
      <psa30 value="0.0019830893" flag="0"/>
    </comp>
    <comp name="--.HHZ">
      <acc value="0.0324645294" flag="0"/>
      <vel value="0.0176709178" flag="0"/>
      <psa03 value="0.0904811843" flag="0"/>
      <psa10 value="0.0219355523" flag="0"/>
      <psa30 value="0.0035080304" flag="0"/>
    </comp>
  </station>
</stationlist>
