<?xml version="1.0" encoding="UTF-8" standalone="yes"?>
<!DOCTYPE earthquake SYSTEM "stationlist.dtd">
<stationlist created="" xmlns="ch.ethz.sed.shakemap.usgs.xml">
  <station code="IMMV" name="IMMV" netid="GE" insttype="STS-2/N" commtype="DIG" lat="35.4606" lon="23.9811">
    <comp name="--.HHE">
      <acc value="0.1344424280" flag="0"/>
      <vel value="0.0553186237" flag="0"/>
      <psa03 value="0.3360009302" flag="0"/>
      <psa10 value="0.0775657104" flag="0"/>
      <psa30 value="0.0054148303" flag="0"/>
    </comp>
    <comp name="--.HHZ">
      <acc value="0.1059661440" flag="0"/>
      <vel value="0.0412227290" flag="0"/>
      <psa03 value="0.2466071032" flag="0"/>
      <psa10 value="0.0688221163" flag="0"/>
      <psa30 value="0.0025079476" flag="0"/>
    </comp>
    <comp name="--.HHN">
      <acc value="0.1601689416" flag="0"/>
      <vel value="0.0693902921" flag="0"/>
      <psa03 value="0.5149306055" flag="0"/>
      <psa10 value="0.0594060120" flag="0"/>
      <psa30 value="0.0057372873" flag="0"/>
    </comp>
  </station>
  <station code="IDI" name="IDI" netid="MN" insttype="" commtype="DIG" lat="35.288" lon="24.89">
    <comp name="--.HHN">
      <acc value="0.0380539574" flag="0"/>
      <vel value="0.0202781348" flag="0"/>
      <psa03 value="0.1167803065" flag="0"/>
      <psa10 value="0.0234297793" flag="0"/>
      <psa30 value="0.0019833112" flag="0"/>
    </comp>
    <comp name="--.HHE">
      <acc value="0.0307960560" flag="0"/>
      <vel value="0.0214788917" flag="0"/>
      <psa03 value="0.1176642572" flag="0"/>
      <psa10 value="0.0369511765" flag="0"/>
      <psa30 value="0.0024364730" flag="0"/>
    </comp>
    <comp name="--.HHZ">
      <acc value="0.0324645295" flag="0"/>
      <vel value="0.0176709195" flag="0"/>
      <psa03 value="0.0904811843" flag="0"/>
      <psa10 value="0.0219355522" flag="0"/>
      <psa30 value="0.0035081346" flag="0"/>
    </comp>
  </station>
</stationlist>
