<stationlist xmlns:esm="https://esm-db.eu/esmws/shakemap/1/" created="1782266097">
	<station code="ARK1" name="ARK1" netid="HI" source="ITSAK Strong Motion Network" insttype="" lat="35.148777" lon="25.264194" esm:processing="automatic (Paolucci et al 2011)" esm:quality="best">
		<comp name="--.HNE" depth="0.0">
			<acc value="0.0892768142446027" flag="0"/>
			<vel value="0.0571310573645637" flag="0"/>
			<psa03 value="0.288403667827582" flag="0"/>
			<psa10 value="0.0955813142929831" flag="0"/>
			<psa30 value="0.00932401016991388" flag="0"/>
		</comp>
		<comp name="--.HNN" depth="0.0">
			<acc value="0.0967630635100784" flag="0"/>
			<vel value="0.0657401612732965" flag="0"/>
			<psa03 value="0.259552735761592" flag="0"/>
			<psa10 value="0.0930646575768268" flag="0"/>
			<psa30 value="0.00728388085469252" flag="0"/>
		</comp>
		<comp name="--.HNZ" depth="0.0">
			<acc value="0.049528933789246" flag="0"/>
			<vel value="0.0386950595523559" flag="0"/>
			<psa03 value="0.111152998757324" flag="0"/>
			<psa10 value="0.0489602471260877" flag="0"/>
			<psa30 value="0.00456687586644642" flag="0"/>
		</comp>
	</station>
	<station code="CH01" name="CH01" netid="HI" source="ITSAK Strong Motion Network" insttype="" lat="35.517" lon="24.0208" esm:processing="automatic (Paolucci et al 2011)" esm:quality="best">
		<comp name="--.HNE" depth="0.0">
			<acc value="0.0480081072822248" flag="0"/>
			<vel value="0.0458023762474957" flag="0"/>
			<psa03 value="0.142491481027973" flag="0"/>
			<psa10 value="0.0568663146142578" flag="0"/>
			<psa30 value="0.00612313687776735" flag="0"/>
		</comp>
		<comp name="--.HNN" depth="0.0">
			<acc value="0.0577318289265689" flag="0"/>
			<vel value="0.0441600796672377" flag="0"/>
			<psa03 value="0.226831547310111" flag="0"/>
			<psa10 value="0.0743303740224844" flag="0"/>
			<psa30 value="0.00940610144139107" flag="0"/>
		</comp>
		<comp name="--.HNZ" depth="0.0">
			<acc value="0.0420902915651749" flag="0"/>
			<vel value="0.0299676107329605" flag="0"/>
			<psa03 value="0.119260442085655" flag="0"/>
			<psa10 value="0.0611106582811956" flag="0"/>
			<psa30 value="0.00437557194350039" flag="0"/>
		</comp>
	</station>
	<station code="CH02" name="CH02" netid="HI" source="ITSAK Strong Motion Network" insttype="" lat="35.5145" lon="24.0315" esm:processing="automatic (Paolucci et al 2011)" esm:quality="best">
		<comp name="--.HNE" depth="0.0">
			<acc value="0.0739441942224904" flag="0"/>
			<vel value="0.0483626467984912" flag="0"/>
			<psa03 value="0.191256253121466" flag="0"/>
			<psa10 value="0.0912149300414556" flag="0"/>
			<psa30 value="0.00622933349610546" flag="0"/>
		</comp>
		<comp name="--.HNN" depth="0.0">
			<acc value="0.0741188176347369" flag="0"/>
			<vel value="0.0565669105556198" flag="0"/>
			<psa03 value="0.200587308758107" flag="0"/>
			<psa10 value="0.0685136561934752" flag="0"/>
			<psa30 value="0.00898434850232871" flag="0"/>
		</comp>
		<comp name="--.HNZ" depth="0.0">
			<acc value="0.0415063150022024" flag="0"/>
			<vel value="0.0359013614736218" flag="0"/>
			<psa03 value="0.108188166935099" flag="0"/>
			<psa10 value="0.043105235510303" flag="0"/>
			<psa30 value="0.00424830392928572" flag="0"/>
		</comp>
	</station>
	<station code="GOR1" name="GOR1" netid="HI" source="ITSAK Strong Motion Network" insttype="" lat="35.0582" lon="24.9628" esm:processing="automatic (Paolucci et al 2011)" esm:quality="best">
		<comp name="--.HNE" depth="0.0">
			<acc value="0.127584238128929" flag="0"/>
			<vel value="0.110447092712164" flag="0"/>
			<psa03 value="0.472293328781803" flag="0"/>
			<psa10 value="0.222637158619112" flag="0"/>
			<psa30 value="0.0114009569241099" flag="0"/>
		</comp>
		<comp name="--.HNN" depth="0.0">
			<acc value="0.119527274839076" flag="0"/>
			<vel value="0.10401354411935" flag="0"/>
			<psa03 value="0.39769326189349" flag="0"/>
			<psa10 value="0.196323090441238" flag="0"/>
			<psa30 value="0.0107758146781708" flag="0"/>
		</comp>
		<comp name="--.HNZ" depth="0.0">
			<acc value="0.108929281046683" flag="0"/>
			<vel value="0.0625446900887719" flag="0"/>
			<psa03 value="0.321099792118685" flag="0"/>
			<psa10 value="0.103103787619923" flag="0"/>
			<psa30 value="0.00688589490674335" flag="0"/>
		</comp>
	</station>
	<station code="HER1" name="HER1" netid="HI" source="ITSAK Strong Motion Network" insttype="" lat="35.317672" lon="25.10217" esm:processing="manual (Paolucci et al 2011)" esm:quality="good">
		<comp name="--.HNE" depth="0.0">
			<acc value="0.108975051396819" flag="0"/>
			<vel value="0.148105104392225" flag="0"/>
			<psa03 value="0.31813138714309" flag="0"/>
			<psa10 value="0.294045579076513" flag="0"/>
			<psa30 value="0.0142362030785863" flag="0"/>
		</comp>
		<comp name="--.HNN" depth="0.0">
			<acc value="0.0895253077292857" flag="0"/>
			<vel value="0.134992838946896" flag="0"/>
			<psa03 value="0.404137230441447" flag="0"/>
			<psa10 value="0.282087626920869" flag="0"/>
			<psa30 value="0.0147510538515899" flag="0"/>
		</comp>
		<comp name="--.HNZ" depth="0.0">
			<acc value="0.0999829258842377" flag="0"/>
			<vel value="0.108621790258844" flag="0"/>
			<psa03 value="0.229530080241341" flag="0"/>
			<psa10 value="0.171151062917952" flag="0"/>
			<psa30 value="0.00768335231771644" flag="0"/>
		</comp>
	</station>
	<station code="HER3" name="HER3" netid="HI" source="ITSAK Strong Motion Network" insttype="" lat="35.3296" lon="25.1065" esm:processing="manual (Paolucci et al 2011)" esm:quality="good">
		<comp name="--.HNE" depth="0.0">
			<acc value="0.137379820924826" flag="0"/>
			<vel value="0.103150956867919" flag="0"/>
			<psa03 value="0.414323405225536" flag="0"/>
			<psa10 value="0.22464882188193" flag="0"/>
			<psa30 value="0.0124079261308779" flag="0"/>
		</comp>
		<comp name="--.HNN" depth="0.0">
			<acc value="0.152254251833896" flag="0"/>
			<vel value="0.134613157003313" flag="0"/>
			<psa03 value="0.472396668960916" flag="0"/>
			<psa10 value="0.191273260914815" flag="0"/>
			<psa30 value="0.0114719899630334" flag="0"/>
		</comp>
		<comp name="--.HNZ" depth="0.0">
			<acc value="0.0760260926420775" flag="0"/>
			<vel value="0.0496317724725732" flag="0"/>
			<psa03 value="0.159042337857677" flag="0"/>
			<psa10 value="0.0809665961396308" flag="0"/>
			<psa30 value="0.00486147204866435" flag="0"/>
		</comp>
	</station>
	<station code="RTH1" name="RTH1" netid="HI" source="ITSAK Strong Motion Network" insttype="" lat="35.365393" lon="24.471773" esm:processing="automatic (Paolucci et al 2011)" esm:quality="best">
		<comp name="--.HNE" depth="0.0">
			<acc value="0.13470483946709" flag="0"/>
			<vel value="0.079210435407759" flag="0"/>
			<psa03 value="0.480444910450749" flag="0"/>
			<psa10 value="0.042111727195253" flag="0"/>
			<psa30 value="0.00484780989361363" flag="0"/>
		</comp>
		<comp name="--.HNN" depth="0.0">
			<acc value="0.12102116900657" flag="0"/>
			<vel value="0.0683852786074514" flag="0"/>
			<psa03 value="0.526656180053901" flag="0"/>
			<psa10 value="0.0560812713589949" flag="0"/>
			<psa30 value="0.0038944854905506" flag="0"/>
		</comp>
		<comp name="--.HNZ" depth="0.0">
			<acc value="0.0885052781720001" flag="0"/>
			<vel value="0.0296054257135464" flag="0"/>
			<psa03 value="0.141009018238755" flag="0"/>
			<psa10 value="0.0324823192942383" flag="0"/>
			<psa30 value="0.003260154510903" flag="0"/>
		</comp>
	</station>
	<station code="SIT2" name="SIT2" netid="HI" source="ITSAK Strong Motion Network" insttype="" lat="35.2059" lon="26.107" esm:processing="manual (Paolucci et al 2011)" esm:quality="good">
		<comp name="--.HNE" depth="0.0">
			<acc value="0.0310653430500746" flag="0"/>
			<vel value="0.0263044944988214" flag="0"/>
			<psa03 value="0.0885358546491924" flag="0"/>
			<psa10 value="0.0299656044492312" flag="0"/>
			<psa30 value="0.00263625401389036" flag="0"/>
		</comp>
		<comp name="--.HNN" depth="0.0">
			<acc value="0.0271732348659465" flag="0"/>
			<vel value="0.0237246025613974" flag="0"/>
			<psa03 value="0.0818930135519044" flag="0"/>
			<psa10 value="0.0302445104253833" flag="0"/>
			<psa30 value="0.00220720121624819" flag="0"/>
		</comp>
		<comp name="--.HNZ" depth="0.0">
			<acc value="0.0153101691618044" flag="0"/>
			<vel value="0.00914840344654605" flag="0"/>
			<psa03 value="0.0342366143618435" flag="0"/>
			<psa10 value="0.0107798650506548" flag="0"/>
			<psa30 value="0.00127969394010979" flag="0"/>
		</comp>
	</station>
	<station code="CHNB" name="CHNB" netid="HL" source="National Observatory of Athens Seismic Network" insttype="" lat="35.48765" lon="24.06605" esm:processing="automatic (Paolucci et al 2011)" esm:quality="best">
		<comp name="00.HNE" depth="0.0">
			<acc value="0.150431628963734" flag="0"/>
			<vel value="0.127896894035733" flag="0"/>
			<psa03 value="0.479230079974192" flag="0"/>
			<psa10 value="0.144074899254993" flag="0"/>
			<psa30 value="0.012154733524777" flag="0"/>
		</comp>
		<comp name="00.HNN" depth="0.0">
			<acc value="0.136287194485195" flag="0"/>
			<vel value="0.119987455182272" flag="0"/>
			<psa03 value="0.328695857820758" flag="0"/>
			<psa10 value="0.178376546570784" flag="0"/>
			<psa30 value="0.00702769971728277" flag="0"/>
		</comp>
		<comp name="00.HNZ" depth="0.0">
			<acc value="0.125978347720205" flag="0"/>
			<vel value="0.0737425702306195" flag="0"/>
			<psa03 value="0.657352004677527" flag="0"/>
			<psa10 value="0.0457249678047105" flag="0"/>
			<psa30 value="0.00459914258729165" flag="0"/>
		</comp>
	</station>
	<station code="HERG" name="HERG" netid="HL" source="National Observatory of Athens Seismic Network" insttype="" lat="35.32622" lon="25.06586" esm:processing="automatic (Paolucci et al 2011)" esm:quality="best">
		<comp name="00.HNE" depth="0.0">
			<acc value="0.0789417434561632" flag="0"/>
			<vel value="0.0879564908713059" flag="0"/>
			<psa03 value="0.309095267711192" flag="0"/>
			<psa10 value="0.149272323558845" flag="0"/>
			<psa30 value="0.0104688551769437" flag="0"/>
		</comp>
		<comp name="00.HNN" depth="0.0">
			<acc value="0.0838300484531868" flag="0"/>
			<vel value="0.107180330531105" flag="0"/>
			<psa03 value="0.275304237554615" flag="0"/>
			<psa10 value="0.167694308924965" flag="0"/>
			<psa30 value="0.0125354679132284" flag="0"/>
		</comp>
		<comp name="00.HNZ" depth="0.0">
			<acc value="0.0672820799174909" flag="0"/>
			<vel value="0.0607373877898903" flag="0"/>
			<psa03 value="0.171191882288702" flag="0"/>
			<psa10 value="0.0839898664164492" flag="0"/>
			<psa30 value="0.00640813159060173" flag="0"/>
		</comp>
	</station>
	<station code="IMMV" name="IMMV" netid="HL" source="National Observatory of Athens Seismic Network" insttype="" lat="35.4606" lon="23.9811" esm:processing="automatic (Paolucci et al 2011)" esm:quality="best">
		<comp name="--.HNE" depth="0.0">
			<acc value="0.126724746336475" flag="0"/>
			<vel value="0.0528832296127883" flag="0"/>
			<psa03 value="0.318718801056379" flag="0"/>
			<psa10 value="0.0748424179428812" flag="0"/>
			<psa30 value="0.00548081391035645" flag="0"/>
		</comp>
		<comp name="--.HNN" depth="0.0">
			<acc value="0.139675423164488" flag="0"/>
			<vel value="0.0607339320119024" flag="0"/>
			<psa03 value="0.451009210480089" flag="0"/>
			<psa10 value="0.0535739415106978" flag="0"/>
			<psa30 value="0.00583263888370094" flag="0"/>
		</comp>
		<comp name="--.HNZ" depth="0.0">
			<acc value="0.101262285902226" flag="0"/>
			<vel value="0.0404541998872935" flag="0"/>
			<psa03 value="0.238581388179403" flag="0"/>
			<psa10 value="0.0680976936379974" flag="0"/>
			<psa30 value="0.00274566042819503" flag="0"/>
		</comp>
	</station>
	<station code="SAP3" name="SAP3" netid="HL" source="National Observatory of Athens Seismic Network" insttype="" lat="36.4356" lon="25.345419" esm:processing="automatic (Paolucci et al 2011)" esm:quality="best">
		<comp name="--.HNE" depth="0.0">
			<acc value="0.0112933702254053" flag="0"/>
			<vel value="0.0109651101953134" flag="0"/>
			<psa03 value="0.0452829737331058" flag="0"/>
			<psa10 value="0.0175995746354454" flag="0"/>
			<psa30 value="0.00326699204718956" flag="0"/>
		</comp>
		<comp name="--.HNN" depth="0.0">
			<acc value="0.0159437952490438" flag="0"/>
			<vel value="0.0108472522213037" flag="0"/>
			<psa03 value="0.0513985038569631" flag="0"/>
			<psa10 value="0.0153409875151332" flag="0"/>
			<psa30 value="0.00411544429465363" flag="0"/>
		</comp>
		<comp name="--.HNZ" depth="0.0">
			<acc value="0.0119903843673803" flag="0"/>
			<vel value="0.00535234950830308" flag="0"/>
			<psa03 value="0.0300789092467846" flag="0"/>
			<psa10 value="0.00859948748634187" flag="0"/>
			<psa30 value="0.000995217386600922" flag="0"/>
		</comp>
	</station>
	<station code="SIVA" name="SIVA" netid="HL" source="National Observatory of Athens Seismic Network" insttype="" lat="35.01777" lon="24.81204" esm:processing="automatic (Paolucci et al 2011)" esm:quality="best">
		<comp name="00.HNE" depth="0.0">
			<acc value="0.412481553862713" flag="0"/>
			<vel value="0.198509578427917" flag="0"/>
			<psa03 value="1.12278112873945" flag="0"/>
			<psa10 value="0.219338320087249" flag="0"/>
			<psa30 value="0.0121698211909275" flag="0"/>
		</comp>
		<comp name="00.HNN" depth="0.0">
			<acc value="0.30324070876323" flag="0"/>
			<vel value="0.125886863674415" flag="0"/>
			<psa03 value="0.995098503725515" flag="0"/>
			<psa10 value="0.11701010634529" flag="0"/>
			<psa30 value="0.00884821115056395" flag="0"/>
		</comp>
		<comp name="00.HNZ" depth="0.0">
			<acc value="0.185135101004547" flag="0"/>
			<vel value="0.0894639154536218" flag="0"/>
			<psa03 value="0.453460622874129" flag="0"/>
			<psa10 value="0.0500458990451992" flag="0"/>
			<psa30 value="0.00537349930129027" flag="0"/>
		</comp>
	</station>
</stationlist>
