<?xml version="1.0" encoding="UTF-8" standalone="yes"?>
<!DOCTYPE earthquake SYSTEM "stationlist.dtd">
<stationlist created="" xmlns="ch.ethz.sed.shakemap.usgs.xml">
  <station code="AKS" name="AKS" netid="KO" insttype="CMG-5T" commtype="DIG" lat="38.8785" lon="27.8129">
    <comp name="--.HNE">
      <acc value="0.0857454774" flag="0"/>
      <vel value="0.0317577238" flag="0"/>
      <psa03 value="0.1847476724" flag="0"/>
      <psa10 value="0.0127480548" flag="0"/>
      <psa30 value="0.0015218480" flag="0"/>
    </comp>
    <comp name="--.HNN">
      <acc value="0.1189767937" flag="0"/>
      <vel value="0.0338497026" flag="0"/>
      <psa03 value="0.1665622953" flag="0"/>
      <psa10 value="0.0200999428" flag="0"/>
      <psa30 value="0.0015175972" flag="0"/>
    </comp>
    <comp name="--.HNZ">
      <acc value="0.0746824335" flag="0"/>
      <vel value="0.0191456349" flag="0"/>
      <psa03 value="0.0900776726" flag="0"/>
      <psa10 value="0.0109497537" flag="0"/>
      <psa30 value="0.0013850807" flag="0"/>
    </comp>
  </station>
  <station code="BALB" name="BALB" netid="KO" insttype="CMG-5T" commtype="DIG" lat="39.6507" lon="27.8642">
    <comp name="--.HNZ">
      <acc value="0.0590916626" flag="0"/>
      <vel value="0.0171869099" flag="0"/>
      <psa03 value="0.0779470456" flag="0"/>
      <psa10 value="0.0248405604" flag="0"/>
      <psa30 value="0.0020156864" flag="0"/>
    </comp>
    <comp name="--.HNN">
      <acc value="0.0900107099" flag="0"/>
      <vel value="0.0387378294" flag="0"/>
      <psa03 value="0.1356780451" flag="0"/>
      <psa10 value="0.0468784015" flag="0"/>
      <psa30 value="0.0041042617" flag="0"/>
    </comp>
    <comp name="--.HNE">
      <acc value="0.0874449508" flag="0"/>
      <vel value="0.0252957142" flag="0"/>
      <psa03 value="0.1502674414" flag="0"/>
      <psa10 value="0.0540855873" flag="0"/>
      <psa30 value="0.0030147796" flag="0"/>
    </comp>
  </station>
  <station code="DKL" name="DKL" netid="KO" insttype="CMG-3ESPC" commtype="DIG" lat="39.0713" lon="26.9053">
    <comp name="--.HHZ">
      <acc value="0.0155286495" flag="0"/>
      <vel value="0.0094371332" flag="0"/>
      <psa03 value="0.0625676301" flag="0"/>
      <psa10 value="0.0090178330" flag="0"/>
      <psa30 value="0.0009065885" flag="0"/>
    </comp>
    <comp name="--.HHN">
      <acc value="0.0105000427" flag="0"/>
      <vel value="0.0016410463" flag="0"/>
      <psa03 value="0.0075731811" flag="0"/>
      <psa10 value="0.0015338713" flag="0"/>
      <psa30 value="0.0000943511" flag="0"/>
    </comp>
    <comp name="--.HHE">
      <acc value="0.0079290476" flag="0"/>
      <vel value="0.0023634811" flag="0"/>
      <psa03 value="0.0074041385" flag="0"/>
      <psa10 value="0.0011849710" flag="0"/>
      <psa30 value="0.0001263315" flag="0"/>
    </comp>
  </station>
  <station code="DST" name="DST" netid="KO" insttype="CMG-5T" commtype="DIG" lat="39.6041" lon="28.6267">
    <comp name="--.HNZ">
      <acc value="0.0597883574" flag="0"/>
      <vel value="0.0121976424" flag="0"/>
      <psa03 value="0.0614627363" flag="0"/>
      <psa10 value="0.0107685007" flag="0"/>
      <psa30 value="0.0013790736" flag="0"/>
    </comp>
    <comp name="--.HNE">
      <acc value="0.0609219081" flag="0"/>
      <vel value="0.0152332015" flag="0"/>
      <psa03 value="0.0609782284" flag="0"/>
      <psa10 value="0.0143428604" flag="0"/>
      <psa30 value="0.0011037262" flag="0"/>
    </comp>
    <comp name="--.HNN">
      <acc value="0.0520984983" flag="0"/>
      <vel value="0.0139590039" flag="0"/>
      <psa03 value="0.0567034028" flag="0"/>
      <psa10 value="0.0134580199" flag="0"/>
      <psa30 value="0.0010483852" flag="0"/>
    </comp>
  </station>
  <station code="GEDZ" name="GEDZ" netid="KO" insttype="CMG-6T" commtype="DIG" lat="39.0445" lon="29.4105">
    <comp name="--.HHN">
      <acc value="0.1273179384" flag="0"/>
      <vel value="0.0398411411" flag="0"/>
      <psa03 value="0.1289224060" flag="0"/>
      <psa10 value="0.0679454880" flag="0"/>
      <psa30 value="0.0034264774" flag="0"/>
    </comp>
    <comp name="--.HHZ">
      <acc value="0.0476035491" flag="0"/>
      <vel value="0.0151457420" flag="0"/>
      <psa03 value="0.0571793164" flag="0"/>
      <psa10 value="0.0233519301" flag="0"/>
      <psa30 value="0.0009549901" flag="0"/>
    </comp>
    <comp name="--.HHE">
      <acc value="0.0757745166" flag="0"/>
      <vel value="0.0378950553" flag="0"/>
      <psa03 value="0.1409857276" flag="0"/>
      <psa10 value="0.0738364754" flag="0"/>
      <psa30 value="0.0020618914" flag="0"/>
    </comp>
  </station>
  <station code="GOMA" name="GOMA" netid="KO" insttype="CMG-5T" commtype="DIG" lat="38.7077" lon="27.9175">
    <comp name="--.HNZ">
      <acc value="0.1076580883" flag="0"/>
      <vel value="0.0307986962" flag="0"/>
      <psa03 value="0.1239412669" flag="0"/>
      <psa10 value="0.0095826371" flag="0"/>
      <psa30 value="0.0017046445" flag="0"/>
    </comp>
    <comp name="--.HNN">
      <acc value="0.1304727725" flag="0"/>
      <vel value="0.0660185369" flag="0"/>
      <psa03 value="0.3616267074" flag="0"/>
      <psa10 value="0.0155772207" flag="0"/>
      <psa30 value="0.0019399020" flag="0"/>
    </comp>
    <comp name="--.HNE">
      <acc value="0.1047223982" flag="0"/>
      <vel value="0.0479588131" flag="0"/>
      <psa03 value="0.2127445753" flag="0"/>
      <psa10 value="0.0237049902" flag="0"/>
      <psa30 value="0.0015223309" flag="0"/>
    </comp>
  </station>
  <station code="GONE" name="GONE" netid="KO" insttype="CMG-5T" commtype="DIG" lat="40.0466" lon="27.686">
    <comp name="--.HNE">
      <acc value="0.0355831780" flag="0"/>
      <vel value="0.0227848373" flag="0"/>
      <psa03 value="0.0853626520" flag="0"/>
      <psa10 value="0.0138260060" flag="0"/>
      <psa30 value="0.0016735925" flag="0"/>
    </comp>
    <comp name="--.HNN">
      <acc value="0.0606395056" flag="0"/>
      <vel value="0.0496794114" flag="0"/>
      <psa03 value="0.1177528644" flag="0"/>
      <psa10 value="0.0428711200" flag="0"/>
      <psa30 value="0.0023298813" flag="0"/>
    </comp>
    <comp name="--.HNZ">
      <acc value="0.0292838825" flag="0"/>
      <vel value="0.0113813882" flag="0"/>
      <psa03 value="0.0676788534" flag="0"/>
      <psa10 value="0.0106085532" flag="0"/>
      <psa30 value="0.0006146375" flag="0"/>
    </comp>
  </station>
  <station code="GORD" name="GORD" netid="KO" insttype="CMG-5T" commtype="DIG" lat="38.9088" lon="28.1769">
    <comp name="--.HNE">
      <acc value="0.1444546113" flag="0"/>
      <vel value="0.1355334201" flag="0"/>
      <psa03 value="0.2202526881" flag="0"/>
      <psa10 value="0.1483908506" flag="0"/>
      <psa30 value="0.0090090561" flag="0"/>
    </comp>
    <comp name="--.HNZ">
      <acc value="0.1758064286" flag="0"/>
      <vel value="0.0525159843" flag="0"/>
      <psa03 value="0.1943388335" flag="0"/>
      <psa10 value="0.0742256737" flag="0"/>
      <psa30 value="0.0068256390" flag="0"/>
    </comp>
    <comp name="--.HNN">
      <acc value="0.1122923462" flag="0"/>
      <vel value="0.0702264776" flag="0"/>
      <psa03 value="0.2358319901" flag="0"/>
      <psa10 value="0.1273274371" flag="0"/>
      <psa30 value="0.0062436973" flag="0"/>
    </comp>
  </station>
  <station code="KCTX" name="KCTX" netid="KO" insttype="CMG-3ESP" commtype="DIG" lat="40.2626" lon="28.3353">
    <comp name="--.HHN">
      <acc value="0.0794895826" flag="0"/>
      <vel value="0.0231549186" flag="0"/>
      <psa03 value="0.1169600638" flag="0"/>
      <psa10 value="0.0145669457" flag="0"/>
      <psa30 value="0.0010997097" flag="0"/>
    </comp>
    <comp name="--.HHE">
      <acc value="0.0379989465" flag="0"/>
      <vel value="0.0210408114" flag="0"/>
      <psa03 value="0.0495411496" flag="0"/>
      <psa10 value="0.0294933976" flag="0"/>
      <psa30 value="0.0023114487" flag="0"/>
    </comp>
  </station>
  <station code="KULA" name="KULA" netid="KO" insttype="CMG-3T" commtype="DIG" lat="38.5145" lon="28.6607">
    <comp name="--.HHN">
      <acc value="0.0465842419" flag="0"/>
      <vel value="0.0096555582" flag="0"/>
      <psa03 value="0.0628000091" flag="0"/>
      <psa10 value="0.0085767666" flag="0"/>
      <psa30 value="0.0006411921" flag="0"/>
    </comp>
    <comp name="--.HHE">
      <acc value="0.0521290530" flag="0"/>
      <vel value="0.0187464355" flag="0"/>
      <psa03 value="0.0519355085" flag="0"/>
      <psa10 value="0.0266708948" flag="0"/>
      <psa30 value="0.0015844123" flag="0"/>
    </comp>
    <comp name="--.HHZ">
      <acc value="0.0411492443" flag="0"/>
      <vel value="0.0086901974" flag="0"/>
      <psa03 value="0.0722277504" flag="0"/>
      <psa10 value="0.0071658587" flag="0"/>
      <psa30 value="0.0009173160" flag="0"/>
    </comp>
  </station>
  <station code="ORLT" name="ORLT" netid="KO" insttype="CMG-5T" commtype="DIG" lat="40.0452" lon="28.8914">
    <comp name="--.HNE">
      <acc value="0.0602533462" flag="0"/>
      <vel value="0.0319813387" flag="0"/>
      <psa03 value="0.1705233705" flag="0"/>
      <psa10 value="0.0440207362" flag="0"/>
      <psa30 value="0.0016654690" flag="0"/>
    </comp>
    <comp name="--.HNN">
      <acc value="0.0635700259" flag="0"/>
      <vel value="0.0353026562" flag="0"/>
      <psa03 value="0.1699595508" flag="0"/>
      <psa10 value="0.0593632924" flag="0"/>
      <psa30 value="0.0030143889" flag="0"/>
    </comp>
    <comp name="--.HNZ">
      <acc value="0.0354881010" flag="0"/>
      <vel value="0.0158732213" flag="0"/>
      <psa03 value="0.0636729204" flag="0"/>
      <psa10 value="0.0311502046" flag="0"/>
      <psa30 value="0.0016085000" flag="0"/>
    </comp>
  </station>
  <station code="SHAP" name="SHAP" netid="KO" insttype="CMG-5T" commtype="DIG" lat="39.0231" lon="29.222">
    <comp name="--.HNE">
      <acc value="0.2666172969" flag="0"/>
      <vel value="0.0562139483" flag="0"/>
      <psa03 value="0.2981804337" flag="0"/>
      <psa10 value="0.0095315419" flag="0"/>
      <psa30 value="0.0010201392" flag="0"/>
    </comp>
    <comp name="--.HNN">
      <acc value="0.2256090953" flag="0"/>
      <vel value="0.0518553450" flag="0"/>
      <psa03 value="0.1963067080" flag="0"/>
      <psa10 value="0.0200300262" flag="0"/>
      <psa30 value="0.0015077736" flag="0"/>
    </comp>
    <comp name="--.HNZ">
      <acc value="0.0916750320" flag="0"/>
      <vel value="0.0249668761" flag="0"/>
      <psa03 value="0.0632326741" flag="0"/>
      <psa10 value="0.0076774024" flag="0"/>
      <psa30 value="0.0008509203" flag="0"/>
    </comp>
  </station>
  <station code="SIMA" name="SIMA" netid="KO" insttype="CMG-6T" commtype="DIG" lat="39.0833" lon="28.9825">
    <comp name="--.HHE">
      <acc value="0.1448257159" flag="0"/>
      <vel value="0.0518092890" flag="0"/>
      <psa03 value="0.2319817029" flag="0"/>
      <psa10 value="0.0106569755" flag="0"/>
      <psa30 value="0.0012727953" flag="0"/>
    </comp>
    <comp name="--.HHN">
      <acc value="0.1516487388" flag="0"/>
      <vel value="0.0485003996" flag="0"/>
      <psa03 value="0.2270663547" flag="0"/>
      <psa10 value="0.0124208979" flag="0"/>
      <psa30 value="0.0029762391" flag="0"/>
    </comp>
    <comp name="--.HHZ">
      <acc value="0.0930283913" flag="0"/>
      <vel value="0.0217122091" flag="0"/>
      <psa03 value="0.0876234791" flag="0"/>
      <psa10 value="0.0098898319" flag="0"/>
      <psa30 value="0.0008611761" flag="0"/>
    </comp>
  </station>
  <station code="SMAA" name="SMAA" netid="KO" insttype="CMG-5T" commtype="DIG" lat="39.1005" lon="28.9805">
    <comp name="--.HNZ">
      <acc value="0.0629535408" flag="0"/>
      <vel value="0.0207145720" flag="0"/>
      <psa03 value="0.0488241084" flag="0"/>
      <psa10 value="0.0489932356" flag="0"/>
      <psa30 value="0.0016443513" flag="0"/>
    </comp>
    <comp name="--.HNE">
      <acc value="0.1349510746" flag="0"/>
      <vel value="0.0606422918" flag="0"/>
      <psa03 value="0.1605622355" flag="0"/>
      <psa10 value="0.0703274144" flag="0"/>
      <psa30 value="0.0086566765" flag="0"/>
    </comp>
  </station>
  <station code="SOMA" name="SOMA" netid="KO" insttype="CMG-5T" commtype="DIG" lat="39.1564" lon="27.5341">
    <comp name="--.HNE">
      <acc value="0.1518151267" flag="0"/>
      <vel value="0.0414182677" flag="0"/>
      <psa03 value="0.3158330748" flag="0"/>
      <psa10 value="0.0249956780" flag="0"/>
      <psa30 value="0.0012436263" flag="0"/>
    </comp>
    <comp name="--.HNN">
      <acc value="0.1539799603" flag="0"/>
      <vel value="0.0664785580" flag="0"/>
      <psa03 value="0.2257792114" flag="0"/>
      <psa10 value="0.0579521410" flag="0"/>
      <psa30 value="0.0032132742" flag="0"/>
    </comp>
    <comp name="--.HNZ">
      <acc value="0.1108576023" flag="0"/>
      <vel value="0.0324862908" flag="0"/>
      <psa03 value="0.0833308078" flag="0"/>
      <psa10 value="0.0285060191" flag="0"/>
      <psa30 value="0.0015153574" flag="0"/>
    </comp>
  </station>
  <station code="SUSR" name="SUSR" netid="KO" insttype="CMG-5T" commtype="DIG" lat="39.9627" lon="28.0835">
    <comp name="--.HNE">
      <acc value="0.0531811667" flag="0"/>
      <vel value="0.0126706097" flag="0"/>
      <psa03 value="0.0931759079" flag="0"/>
      <psa10 value="0.0168479837" flag="0"/>
      <psa30 value="0.0010527526" flag="0"/>
    </comp>
    <comp name="--.HNN">
      <acc value="0.0588100247" flag="0"/>
      <vel value="0.0200926505" flag="0"/>
      <psa03 value="0.0951181370" flag="0"/>
      <psa10 value="0.0127338979" flag="0"/>
      <psa30 value="0.0006386702" flag="0"/>
    </comp>
    <comp name="--.HNZ">
      <acc value="0.0550554587" flag="0"/>
      <vel value="0.0159143043" flag="0"/>
      <psa03 value="0.0446652627" flag="0"/>
      <psa10 value="0.0078326242" flag="0"/>
      <psa30 value="0.0005815049" flag="0"/>
    </comp>
  </station>
  <station code="TVSB" name="TVSB" netid="KO" insttype="CMG-3T" commtype="DIG" lat="39.4497" lon="29.4615">
    <comp name="--.HHE">
      <acc value="0.0250444257" flag="0"/>
      <vel value="0.0129383268" flag="0"/>
      <psa03 value="0.0716291067" flag="0"/>
      <psa10 value="0.0100136773" flag="0"/>
      <psa30 value="0.0008141212" flag="0"/>
    </comp>
    <comp name="--.HHZ">
      <acc value="0.0189696697" flag="0"/>
      <vel value="0.0071543539" flag="0"/>
      <psa03 value="0.0235302821" flag="0"/>
      <psa10 value="0.0061638992" flag="0"/>
      <psa30 value="0.0005639486" flag="0"/>
    </comp>
    <comp name="--.HHN">
      <acc value="0.0388159037" flag="0"/>
      <vel value="0.0140369905" flag="0"/>
      <psa03 value="0.0709242395" flag="0"/>
      <psa10 value="0.0165616345" flag="0"/>
      <psa30 value="0.0009366497" flag="0"/>
    </comp>
  </station>
  <station code="YAYO" name="YAYO" netid="KO" insttype="CMG-6T" commtype="DIG" lat="39.6113" lon="27.0726">
    <comp name="--.HHE">
      <acc value="0.0338648038" flag="0"/>
      <vel value="0.0152882785" flag="0"/>
      <psa03 value="0.0502152180" flag="0"/>
      <psa10 value="0.0087338266" flag="0"/>
      <psa30 value="0.0006894894" flag="0"/>
    </comp>
    <comp name="--.HHN">
      <acc value="0.0280371041" flag="0"/>
      <vel value="0.0129955826" flag="0"/>
      <psa03 value="0.1057416946" flag="0"/>
      <psa10 value="0.0162549455" flag="0"/>
      <psa30 value="0.0011061816" flag="0"/>
    </comp>
    <comp name="--.HHZ">
      <acc value="0.0210159429" flag="0"/>
      <vel value="0.0128357233" flag="0"/>
      <psa03 value="0.0607718746" flag="0"/>
      <psa10 value="0.0080345078" flag="0"/>
      <psa30 value="0.0005058975" flag="0"/>
    </comp>
  </station>
  <station code="YENI" name="YENI" netid="KO" insttype="CMG-5T" commtype="DIG" lat="39.9364" lon="27.2422">
    <comp name="--.HNE">
      <acc value="0.0596787892" flag="0"/>
      <vel value="0.0286789581" flag="0"/>
      <psa03 value="0.1523431407" flag="0"/>
      <psa10 value="0.0276213198" flag="0"/>
      <psa30 value="0.0014939896" flag="0"/>
    </comp>
    <comp name="--.HNN">
      <acc value="0.1181862631" flag="0"/>
      <vel value="0.0526197102" flag="0"/>
      <psa03 value="0.2165608786" flag="0"/>
      <psa10 value="0.0279249622" flag="0"/>
      <psa30 value="0.0013210798" flag="0"/>
    </comp>
    <comp name="--.HNZ">
      <acc value="0.0342193177" flag="0"/>
      <vel value="0.0103770533" flag="0"/>
      <psa03 value="0.0437232780" flag="0"/>
      <psa10 value="0.0065929720" flag="0"/>
      <psa30 value="0.0004992927" flag="0"/>
    </comp>
  </station>
</stationlist>
