<stationlist created="1778138875">
	<station code="ROD3" name="ROD3" netid="CL" source="Corinth Riff Laboratory (CRLNET)" insttype="" lat="38.30811" lon="21.89204">
		<comp name="00.HNE" depth="0.0">
			<acc value="0.00388252305705013" flag="0"/>
			<vel value="0.00211186101368886" flag="0"/>
			<psa03 value="0.0136629845327462" flag="0"/>
			<psa10 value="0.00238832344908189" flag="0"/>
			<psa30 value="0.000319007538934019" flag="0"/>
		</comp>
		<comp name="00.HNN" depth="0.0">
			<acc value="0.00514540835641091" flag="0"/>
			<vel value="0.00208429062238381" flag="0"/>
			<psa03 value="0.012239261311837" flag="0"/>
			<psa10 value="0.00217675529310482" flag="0"/>
			<psa30 value="0.000271064441064067" flag="0"/>
		</comp>
		<comp name="00.HNZ" depth="0.0">
			<acc value="0.00255390438171206" flag="0"/>
			<vel value="0.00119276289348884" flag="0"/>
			<psa03 value="0.00349155747042117" flag="0"/>
			<psa10 value="0.00196134992980584" flag="0"/>
			<psa30 value="0.00020234279223793" flag="0"/>
		</comp>
	</station>
	<station code="AIGS" name="AIGS" netid="HA" source="Hellenic Seismological Network, University of Athens, Seismological Laboratory (HA)" insttype="" lat="38.25001" lon="22.0878">
		<comp name="--.HNE" depth="0.0">
			<acc value="0.00554883688638989" flag="0"/>
			<vel value="0.00288463628834601" flag="0"/>
			<psa03 value="0.0113758681787656" flag="0"/>
			<psa10 value="0.00403071357749268" flag="0"/>
			<psa30 value="0.000782026284569749" flag="0"/>
		</comp>
		<comp name="--.HNN" depth="0.0">
			<acc value="0.00636821703803889" flag="0"/>
			<vel value="0.00227346840037416" flag="0"/>
			<psa03 value="0.0111334172217346" flag="0"/>
			<psa10 value="0.00356975671323761" flag="0"/>
			<psa30 value="0.000821040483651953" flag="0"/>
		</comp>
		<comp name="--.HNZ" depth="0.0">
			<acc value="0.00446939854897836" flag="0"/>
			<vel value="0.00249186309607253" flag="0"/>
			<psa03 value="0.00969781560979267" flag="0"/>
			<psa10 value="0.00360136474461657" flag="0"/>
			<psa30 value="0.000731967916364761" flag="0"/>
		</comp>
	</station>
	<station code="DRES" name="DRES" netid="HA" source="Hellenic Seismological Network, University of Athens, Seismological Laboratory (HA)" insttype="" lat="38.319719" lon="21.853176">
		<comp name="--.HNE" depth="0.0">
			<acc value="0.00275725839825979" flag="0"/>
			<vel value="0.00242256821538705" flag="0"/>
			<psa03 value="0.00592859977190064" flag="0"/>
			<psa10 value="0.00267411113111498" flag="0"/>
			<psa30 value="0.000606310217157624" flag="0"/>
		</comp>
		<comp name="--.HNN" depth="0.0">
			<acc value="0.00225914377996636" flag="0"/>
			<vel value="0.00181334056079343" flag="0"/>
			<psa03 value="0.00561463105635121" flag="0"/>
			<psa10 value="0.00326204765714983" flag="0"/>
			<psa30 value="0.000465535058162213" flag="0"/>
		</comp>
		<comp name="--.HNZ" depth="0.0">
			<acc value="0.00273956425866573" flag="0"/>
			<vel value="0.00155581914990434" flag="0"/>
			<psa03 value="0.00628992839565781" flag="0"/>
			<psa10 value="0.00425370381824386" flag="0"/>
			<psa30 value="0.000663996330249158" flag="0"/>
		</comp>
	</station>
	<station code="KIAS" name="KIAS" netid="HA" source="Hellenic Seismological Network, University of Athens, Seismological Laboratory (HA)" insttype="" lat="37.9875" lon="22.7543">
		<comp name="--.HNE" depth="0.0">
			<acc value="0.0282606035089959" flag="0"/>
			<vel value="0.00922596953732572" flag="0"/>
			<psa03 value="0.0355543735319153" flag="0"/>
			<psa10 value="0.0216407092157769" flag="0"/>
			<psa30 value="0.00249537780653276" flag="0"/>
		</comp>
		<comp name="--.HNN" depth="0.0">
			<acc value="0.0260929807814817" flag="0"/>
			<vel value="0.0102100587899153" flag="0"/>
			<psa03 value="0.0394611401485468" flag="0"/>
			<psa10 value="0.0103963487070903" flag="0"/>
			<psa30 value="0.00159369713711602" flag="0"/>
		</comp>
		<comp name="--.HNZ" depth="0.0">
			<acc value="0.00898206667155875" flag="0"/>
			<vel value="0.00437231861467247" flag="0"/>
			<psa03 value="0.0139920779481604" flag="0"/>
			<psa10 value="0.00545548639918718" flag="0"/>
			<psa30 value="0.00139219920553307" flag="0"/>
		</comp>
	</station>
	<station code="LTRS" name="LTRS" netid="HA" source="Hellenic Seismological Network, University of Athens, Seismological Laboratory (HA)" insttype="" lat="37.97528" lon="22.9765">
		<comp name="--.HNE" depth="0.0">
			<acc value="0.0281652225115323" flag="0"/>
			<vel value="0.0243242559294333" flag="0"/>
			<psa03 value="0.0785828463529941" flag="0"/>
			<psa10 value="0.0410226738006877" flag="0"/>
			<psa30 value="0.00205867221026305" flag="0"/>
		</comp>
		<comp name="--.HNN" depth="0.0">
			<acc value="0.0231598979323609" flag="0"/>
			<vel value="0.0154285428880017" flag="0"/>
			<psa03 value="0.0725459203944584" flag="0"/>
			<psa10 value="0.0253097253951001" flag="0"/>
			<psa30 value="0.00206313042226626" flag="0"/>
		</comp>
		<comp name="--.HNZ" depth="0.0">
			<acc value="0.0302514244317302" flag="0"/>
			<vel value="0.0118537937873238" flag="0"/>
			<psa03 value="0.0671206026605569" flag="0"/>
			<psa10 value="0.0179816030679711" flag="0"/>
			<psa30 value="0.00119574962921128" flag="0"/>
		</comp>
	</station>
	<station code="ATH5" name="ATH5" netid="HI" source="ITSAK Strong Motion Network" insttype="" lat="37.975421" lon="23.737098">
		<comp name="--.HNE" depth="0.0">
			<acc value="0.015646919561177" flag="0"/>
			<vel value="0.00593523904549906" flag="0"/>
			<psa03 value="0.0209409940089153" flag="0"/>
			<psa10 value="0.00662790406611742" flag="0"/>
			<psa30 value="0.000659815272023841" flag="0"/>
		</comp>
		<comp name="--.HNN" depth="0.0">
			<acc value="0.0128540281346785" flag="0"/>
			<vel value="0.00469095339535343" flag="0"/>
			<psa03 value="0.0265603428256783" flag="0"/>
			<psa10 value="0.00595666678742951" flag="0"/>
			<psa30 value="0.00175379826386251" flag="0"/>
		</comp>
		<comp name="--.HNZ" depth="0.0">
			<acc value="0.00739786063490468" flag="0"/>
			<vel value="0.00289973794673119" flag="0"/>
			<psa03 value="0.00713486978553935" flag="0"/>
			<psa10 value="0.00699277464327076" flag="0"/>
			<psa30 value="0.000682327023734634" flag="0"/>
		</comp>
	</station>
	<station code="ATHP" name="ATHP" netid="HL" source="National Observatory of Athens Seismic Network" insttype="" lat="38.000799" lon="23.773487">
		<comp name="00.HNE" depth="0.0">
			<acc value="0.0160086411450197" flag="0"/>
			<vel value="0.00690398074296399" flag="0"/>
			<psa03 value="0.013551232338036" flag="0"/>
			<psa10 value="0.00749007164924203" flag="0"/>
			<psa30 value="0.00101148419336154" flag="0"/>
		</comp>
		<comp name="00.HNN" depth="0.0">
			<acc value="0.0119792649784811" flag="0"/>
			<vel value="0.00544566821364429" flag="0"/>
			<psa03 value="0.0136037293052919" flag="0"/>
			<psa10 value="0.00646309611714452" flag="0"/>
			<psa30 value="0.00150740214966241" flag="0"/>
		</comp>
		<comp name="00.HNZ" depth="0.0">
			<acc value="0.0142288190558142" flag="0"/>
			<vel value="0.00431519348344862" flag="0"/>
			<psa03 value="0.00832041902544848" flag="0"/>
			<psa10 value="0.00428936914964738" flag="0"/>
			<psa30 value="0.000961646933557857" flag="0"/>
		</comp>
	</station>
	<station code="DION" name="DION" netid="HL" source="National Observatory of Athens Seismic Network" insttype="" lat="38.07794" lon="23.93306">
		<comp name="--.HNE" depth="0.0">
			<acc value="0.0" flag="1"/>
			<vel value="0.0" flag="1"/>
			<psa03 value="0.0" flag="1"/>
			<psa10 value="0.0" flag="1"/>
			<psa30 value="0.0" flag="1"/>
		</comp>
		<comp name="--.HNN" depth="0.0">
			<acc value="0.0" flag="1"/>
			<vel value="0.0" flag="1"/>
			<psa03 value="0.0" flag="1"/>
			<psa10 value="0.0" flag="1"/>
			<psa30 value="0.0" flag="1"/>
		</comp>
		<comp name="--.HNZ" depth="0.0">
			<acc value="0.0" flag="1"/>
			<vel value="0.0" flag="1"/>
			<psa03 value="0.0" flag="1"/>
			<psa10 value="0.0" flag="1"/>
			<psa30 value="0.0" flag="1"/>
		</comp>
	</station>
	<station code="DLFA" name="DLFA" netid="HL" source="National Observatory of Athens Seismic Network" insttype="" lat="38.47836" lon="22.49583">
		<comp name="00.HNE" depth="0.0">
			<acc value="0.00657237873297004" flag="0"/>
			<vel value="0.00327732546900355" flag="0"/>
			<psa03 value="0.015579468261236" flag="0"/>
			<psa10 value="0.00299814056522373" flag="0"/>
			<psa30 value="0.000435123434167191" flag="0"/>
		</comp>
		<comp name="00.HNN" depth="0.0">
			<acc value="0.00498014349980547" flag="0"/>
			<vel value="0.00228836861533247" flag="0"/>
			<psa03 value="0.0130489113013382" flag="0"/>
			<psa10 value="0.00309726103771836" flag="0"/>
			<psa30 value="0.00068684508345032" flag="0"/>
		</comp>
		<comp name="00.HNZ" depth="0.0">
			<acc value="0.00510888619355035" flag="0"/>
			<vel value="0.00219821253363595" flag="0"/>
			<psa03 value="0.0111944433998649" flag="0"/>
			<psa10 value="0.0022487227949755" flag="0"/>
			<psa30 value="0.000770969145840089" flag="0"/>
		</comp>
	</station>
	<station code="EFSA" name="EFSA" netid="HL" source="National Observatory of Athens Seismic Network" insttype="" lat="39.54015" lon="24.98864">
		<comp name="00.HNE" depth="0.0">
			<acc value="0.00101187102689226" flag="0"/>
			<vel value="0.000868255266287795" flag="0"/>
			<psa03 value="0.00157554708059413" flag="0"/>
			<psa10 value="0.00116068946810403" flag="0"/>
			<psa30 value="0.000335058367847554" flag="0"/>
		</comp>
		<comp name="00.HNN" depth="0.0">
			<acc value="0.000802227130927152" flag="0"/>
			<vel value="0.000544981574220973" flag="0"/>
			<psa03 value="0.000955101275327678" flag="0"/>
			<psa10 value="0.00070532744713979" flag="0"/>
			<psa30 value="0.000280804435248906" flag="0"/>
		</comp>
		<comp name="00.HNZ" depth="0.0">
			<acc value="0.000827091331203899" flag="0"/>
			<vel value="0.000353131412836739" flag="0"/>
			<psa03 value="0.000815848398163851" flag="0"/>
			<psa10 value="0.000672384327320045" flag="0"/>
			<psa30 value="0.000132142008967873" flag="0"/>
		</comp>
	</station>
	<station code="GINA" name="GINA" netid="HL" source="National Observatory of Athens Seismic Network" insttype="" lat="39.66886" lon="22.389">
		<comp name="00.HNE" depth="0.0">
			<acc value="0.0024211074502444" flag="0"/>
			<vel value="0.000641191973307281" flag="0"/>
			<psa03 value="0.0011858171613385" flag="0"/>
			<psa10 value="0.00116625518837132" flag="0"/>
			<psa30 value="0.00027051044603126" flag="0"/>
		</comp>
		<comp name="00.HNN" depth="0.0">
			<acc value="0.00183870019420609" flag="0"/>
			<vel value="0.000764845255977841" flag="0"/>
			<psa03 value="0.00147756060900263" flag="0"/>
			<psa10 value="0.00129992634811514" flag="0"/>
			<psa30 value="0.000254255410881383" flag="0"/>
		</comp>
		<comp name="00.HNZ" depth="0.0">
			<acc value="0.00763646020008662" flag="0"/>
			<vel value="0.000854260554578377" flag="0"/>
			<psa03 value="0.0018265733127176" flag="0"/>
			<psa10 value="0.000657560942997436" flag="0"/>
			<psa30 value="0.000114821252177609" flag="0"/>
		</comp>
	</station>
	<station code="ITM" name="ITM" netid="HL" source="National Observatory of Athens Seismic Network" insttype="" lat="37.17872" lon="21.92522">
		<comp name="--.HNE" depth="0.0">
			<acc value="0.000985132309758561" flag="0"/>
			<vel value="0.000716391788341777" flag="0"/>
			<psa03 value="0.00316970314133771" flag="0"/>
			<psa10 value="0.00110492643813991" flag="0"/>
			<psa30 value="0.000174329321899637" flag="0"/>
		</comp>
		<comp name="--.HNN" depth="0.0">
			<acc value="0.000596684797417946" flag="0"/>
			<vel value="0.000611277847272699" flag="0"/>
			<psa03 value="0.00148723377584646" flag="0"/>
			<psa10 value="0.00107687961923997" flag="0"/>
			<psa30 value="0.000155604526786375" flag="0"/>
		</comp>
		<comp name="--.HNZ" depth="0.0">
			<acc value="0.00052622753117608" flag="0"/>
			<vel value="0.000689618611004478" flag="0"/>
			<psa03 value="0.00126249126731509" flag="0"/>
			<psa10 value="0.0012511967918972" flag="0"/>
			<psa30 value="0.000256357581390035" flag="0"/>
		</comp>
	</station>
	<station code="LKR" name="LKR" netid="HL" source="National Observatory of Athens Seismic Network" insttype="" lat="38.64957" lon="22.998812">
		<comp name="--.HNE" depth="0.0">
			<acc value="0.0671814250321494" flag="0"/>
			<vel value="0.0138749231269858" flag="0"/>
			<psa03 value="0.0636518780827302" flag="0"/>
			<psa10 value="0.00504217058153874" flag="0"/>
			<psa30 value="0.000975610462737114" flag="0"/>
		</comp>
		<comp name="--.HNN" depth="0.0">
			<acc value="0.0450820538102883" flag="0"/>
			<vel value="0.0111708738583393" flag="0"/>
			<psa03 value="0.0367129685123028" flag="0"/>
			<psa10 value="0.00352091699347038" flag="0"/>
			<psa30 value="0.000971373723743928" flag="0"/>
		</comp>
		<comp name="--.HNZ" depth="0.0">
			<acc value="0.0386555835124441" flag="0"/>
			<vel value="0.0081098438987683" flag="0"/>
			<psa03 value="0.0229754595114205" flag="0"/>
			<psa10 value="0.00321316598147542" flag="0"/>
			<psa30 value="0.00138136484197272" flag="0"/>
		</comp>
	</station>
	<station code="MNVA" name="MNVA" netid="HL" source="National Observatory of Athens Seismic Network" insttype="" lat="36.68709" lon="23.03734">
		<comp name="00.HNE" depth="0.0">
			<acc value="0.00109690643927952" flag="0"/>
			<vel value="0.00111762172583668" flag="0"/>
			<psa03 value="0.00171183052276521" flag="0"/>
			<psa10 value="0.00242632284135397" flag="0"/>
			<psa30 value="0.000212901160948692" flag="0"/>
		</comp>
		<comp name="00.HNN" depth="0.0">
			<acc value="0.0007617559258837" flag="0"/>
			<vel value="0.000607214409583461" flag="0"/>
			<psa03 value="0.00122126929827957" flag="0"/>
			<psa10 value="0.000871634206332119" flag="0"/>
			<psa30 value="0.000168770060396715" flag="0"/>
		</comp>
		<comp name="00.HNZ" depth="0.0">
			<acc value="0.000702614834568708" flag="0"/>
			<vel value="0.000578084627098007" flag="0"/>
			<psa03 value="0.00170681049620221" flag="0"/>
			<psa10 value="0.000572525641856088" flag="0"/>
			<psa30 value="0.000160246839524782" flag="0"/>
		</comp>
	</station>
	<station code="NOAC" name="NOAC" netid="HL" source="National Observatory of Athens Seismic Network" insttype="" lat="37.97384" lon="23.71767">
		<comp name="00.HNE" depth="0.0">
			<acc value="0.014681937009335" flag="0"/>
			<vel value="0.00711304576228996" flag="0"/>
			<psa03 value="0.0349759940712654" flag="0"/>
			<psa10 value="0.00854570892378199" flag="0"/>
			<psa30 value="0.0011143733009277" flag="0"/>
		</comp>
		<comp name="00.HNN" depth="0.0">
			<acc value="0.0157639039395399" flag="0"/>
			<vel value="0.00554905536475464" flag="0"/>
			<psa03 value="0.030287383994698" flag="0"/>
			<psa10 value="0.0058174360015915" flag="0"/>
			<psa30 value="0.00205839344179709" flag="0"/>
		</comp>
		<comp name="00.HNZ" depth="0.0">
			<acc value="0.0109341500366779" flag="0"/>
			<vel value="0.00434315350227654" flag="0"/>
			<psa03 value="0.0131813810142903" flag="0"/>
			<psa10 value="0.0078407948829429" flag="0"/>
			<psa30 value="0.000874621481049337" flag="0"/>
		</comp>
	</station>
	<station code="OINA" name="OINA" netid="HL" source="National Observatory of Athens Seismic Network" insttype="" lat="38.3061" lon="23.6388">
		<comp name="--.HNE" depth="0.0">
			<acc value="0.0581829598726799" flag="0"/>
			<vel value="0.0244580611483703" flag="0"/>
			<psa03 value="0.0380241178695325" flag="0"/>
			<psa10 value="0.0298962548551754" flag="0"/>
			<psa30 value="0.00917403606820734" flag="0"/>
		</comp>
		<comp name="--.HNN" depth="0.0">
			<acc value="0.0423694379709292" flag="0"/>
			<vel value="0.0176210687005941" flag="0"/>
			<psa03 value="0.0373766739379012" flag="0"/>
			<psa10 value="0.0196185958856868" flag="0"/>
			<psa30 value="0.00874628939874953" flag="0"/>
		</comp>
		<comp name="--.HNZ" depth="0.0">
			<acc value="0.0362864217928901" flag="0"/>
			<vel value="0.0239852029571205" flag="0"/>
			<psa03 value="0.0458228740822694" flag="0"/>
			<psa10 value="0.0236445850877263" flag="0"/>
			<psa30 value="0.0116592623688982" flag="0"/>
		</comp>
	</station>
	<station code="PATC" name="PATC" netid="HL" source="National Observatory of Athens Seismic Network" insttype="" lat="38.26933" lon="21.76001">
		<comp name="00.HNE" depth="0.0">
			<acc value="0.00274178599640318" flag="0"/>
			<vel value="0.00303720027820529" flag="0"/>
			<psa03 value="0.00801144347921876" flag="0"/>
			<psa10 value="0.00512348018666891" flag="0"/>
			<psa30 value="0.000923431381132266" flag="0"/>
		</comp>
		<comp name="00.HNN" depth="0.0">
			<acc value="0.00324513991636298" flag="0"/>
			<vel value="0.00411207002249028" flag="0"/>
			<psa03 value="0.00753761326216822" flag="0"/>
			<psa10 value="0.00775884304777178" flag="0"/>
			<psa30 value="0.00103515492810107" flag="0"/>
		</comp>
		<comp name="00.HNZ" depth="0.0">
			<acc value="0.00603799810305713" flag="0"/>
			<vel value="0.00269235882973752" flag="0"/>
			<psa03 value="0.00435221800058328" flag="0"/>
			<psa10 value="0.00499073639304844" flag="0"/>
			<psa30 value="0.000393540679513785" flag="0"/>
		</comp>
	</station>
	<station code="PATG" name="PATG" netid="HL" source="National Observatory of Athens Seismic Network" insttype="" lat="38.23865" lon="21.72657">
		<comp name="00.HNE" depth="0.0">
			<acc value="0.0039990658325189" flag="0"/>
			<vel value="0.00506687934022041" flag="0"/>
			<psa03 value="0.00787516687346893" flag="0"/>
			<psa10 value="0.00972481797146824" flag="0"/>
			<psa30 value="0.00118196975802967" flag="0"/>
		</comp>
		<comp name="00.HNN" depth="0.0">
			<acc value="0.00364124665516659" flag="0"/>
			<vel value="0.00455058533069986" flag="0"/>
			<psa03 value="0.00536845263883835" flag="0"/>
			<psa10 value="0.00943386150951864" flag="0"/>
			<psa30 value="0.00133624883242823" flag="0"/>
		</comp>
		<comp name="00.HNZ" depth="0.0">
			<acc value="0.0113058124579789" flag="0"/>
			<vel value="0.00342735698760855" flag="0"/>
			<psa03 value="0.00450842724190525" flag="0"/>
			<psa10 value="0.00447878247859768" flag="0"/>
			<psa30 value="0.000557203057800139" flag="0"/>
		</comp>
	</station>
	<station code="RIOA" name="RIOA" netid="HL" source="National Observatory of Athens Seismic Network" insttype="" lat="38.29585" lon="21.79118">
		<comp name="00.HNE" depth="0.0">
			<acc value="0.00391976542694115" flag="0"/>
			<vel value="0.00273556053994118" flag="0"/>
			<psa03 value="0.00672537716386286" flag="0"/>
			<psa10 value="0.00363041088752809" flag="0"/>
			<psa30 value="0.00053500570191986" flag="0"/>
		</comp>
		<comp name="00.HNN" depth="0.0">
			<acc value="0.00564267070328173" flag="0"/>
			<vel value="0.00197748066975443" flag="0"/>
			<psa03 value="0.00764373747989637" flag="0"/>
			<psa10 value="0.00331959123475348" flag="0"/>
			<psa30 value="0.000517519178939491" flag="0"/>
		</comp>
		<comp name="00.HNZ" depth="0.0">
			<acc value="0.00917575889877141" flag="0"/>
			<vel value="0.0018060014996237" flag="0"/>
			<psa03 value="0.00427809850719715" flag="0"/>
			<psa10 value="0.0017179060684708" flag="0"/>
			<psa30 value="0.000396787326879703" flag="0"/>
		</comp>
	</station>
	<station code="SOFA" name="SOFA" netid="HL" source="National Observatory of Athens Seismic Network" insttype="" lat="39.33773" lon="22.09691">
		<comp name="00.HNE" depth="0.0">
			<acc value="0.00329977989592364" flag="0"/>
			<vel value="0.00152460843191471" flag="0"/>
			<psa03 value="0.00311996189049744" flag="0"/>
			<psa10 value="0.00193029998227367" flag="0"/>
			<psa30 value="0.000502078520653962" flag="0"/>
		</comp>
		<comp name="00.HNN" depth="0.0">
			<acc value="0.00226460296828939" flag="0"/>
			<vel value="0.00136487568503721" flag="0"/>
			<psa03 value="0.00207081800835082" flag="0"/>
			<psa10 value="0.00153217688982641" flag="0"/>
			<psa30 value="0.000388325255892508" flag="0"/>
		</comp>
		<comp name="00.HNZ" depth="0.0">
			<acc value="0.00941334282260285" flag="0"/>
			<vel value="0.00130363476359862" flag="0"/>
