<?xml version="1.0" encoding="UTF-8" standalone="yes"?>
<!DOCTYPE earthquake SYSTEM "stationlist.dtd">
<stationlist created="" xmlns="ch.ethz.sed.shakemap.usgs.xml">
  <station code="KLV" name="KLV" netid="MN" insttype="" lat="38.0437" lon="22.1504">
    <comp name="--.HHE">
      <acc value="0.0015852735" flag="0"/>
      <vel value="0.0013648269" flag="0"/>
      <psa03 value="0.0045531172" flag="0"/>
      <psa10 value="0.0021062273" flag="0"/>
      <psa30 value="0.0002326164" flag="0"/>
    </comp>
    <comp name="--.HHZ">
      <acc value="0.0016268260" flag="0"/>
      <vel value="0.0010590376" flag="0"/>
      <psa03 value="0.0035460038" flag="0"/>
      <psa10 value="0.0018451418" flag="0"/>
      <psa30 value="0.0002938891" flag="0"/>
    </comp>
    <comp name="--.HHN">
      <acc value="0.0022383671" flag="0"/>
      <vel value="0.0015162769" flag="0"/>
      <psa03 value="0.0039832536" flag="0"/>
      <psa10 value="0.0027503367" flag="0"/>
      <psa30 value="0.0002225102" flag="0"/>
    </comp>
  </station>
</stationlist>
