<stationlist created="1778069479">
	<station code="KARP" name="KARP" netid="GE" source="GEOFON" insttype="" lat="35.5471" lon="27.16106">
		<comp name="--.HNE" depth="0.0">
			<acc value="0.0137666974468622" flag="0"/>
			<vel value="0.0503491805394263" flag="0"/>
			<psa03 value="0.0284560434092208" flag="0"/>
			<psa10 value="0.0321338527932428" flag="0"/>
			<psa30 value="0.0161501469009314" flag="0"/>
		</comp>
		<comp name="--.HNN" depth="0.0">
			<acc value="0.0124872779077577" flag="0"/>
			<vel value="0.0408322312855362" flag="0"/>
			<psa03 value="0.0182995625068731" flag="0"/>
			<psa10 value="0.0355848191897101" flag="0"/>
			<psa30 value="0.0146866293224477" flag="0"/>
		</comp>
		<comp name="--.HNZ" depth="0.0">
			<acc value="0.0100985524857561" flag="0"/>
			<vel value="0.0372027825631092" flag="0"/>
			<psa03 value="0.0153465768700672" flag="0"/>
			<psa10 value="0.0311875551232663" flag="0"/>
			<psa30 value="0.0232681845518322" flag="0"/>
		</comp>
	</station>
	<station code="KTHA" name="KTHA" netid="GE" source="GEOFON" insttype="" lat="36.2566" lon="23.0621">
		<comp name="--.HNE" depth="0.0">
			<acc value="0.00505681389933309" flag="0"/>
			<vel value="0.0104850919731503" flag="0"/>
			<psa03 value="0.0125278178531161" flag="0"/>
			<psa10 value="0.0109851065689181" flag="0"/>
			<psa30 value="0.00719499424628428" flag="0"/>
		</comp>
		<comp name="--.HNN" depth="0.0">
			<acc value="0.00295151447261967" flag="0"/>
			<vel value="0.00996528661160046" flag="0"/>
			<psa03 value="0.00774040174496101" flag="0"/>
			<psa10 value="0.00733280024266856" flag="0"/>
			<psa30 value="0.00439681664437756" flag="0"/>
		</comp>
		<comp name="--.HNZ" depth="0.0">
			<acc value="0.00398873301609004" flag="0"/>
			<vel value="0.00671989546540356" flag="0"/>
			<psa03 value="0.0076061751251062" flag="0"/>
			<psa10 value="0.00786836445588927" flag="0"/>
			<psa30 value="0.00398071412282764" flag="0"/>
		</comp>
	</station>
	<station code="KSS1" name="KSS1" netid="HI" source="ITSAK Strong Motion Network" insttype="" lat="35.4189" lon="26.9207">
		<comp name="--.HNE" depth="0.0">
			<acc value="0.0112369582183117" flag="0"/>
			<vel value="0.0506213746744495" flag="0"/>
			<psa03 value="0.0302457316739517" flag="0"/>
			<psa10 value="0.0215312920909109" flag="0"/>
			<psa30 value="0.0211581420877145" flag="0"/>
		</comp>
		<comp name="--.HNN" depth="0.0">
			<acc value="0.0133109721001157" flag="0"/>
			<vel value="0.0366319333934814" flag="0"/>
			<psa03 value="0.0441605579322342" flag="0"/>
			<psa10 value="0.0306157497226848" flag="0"/>
			<psa30 value="0.0202807474159302" flag="0"/>
		</comp>
		<comp name="--.HNZ" depth="0.0">
			<acc value="0.00827253801800265" flag="0"/>
			<vel value="0.0276642964974809" flag="0"/>
			<psa03 value="0.0124383334398795" flag="0"/>
			<psa10 value="0.0233675122505248" flag="0"/>
			<psa30 value="0.0162960064945069" flag="0"/>
		</comp>
	</station>
	<station code="SIT2" name="SIT2" netid="HI" source="ITSAK Strong Motion Network" insttype="" lat="35.2059" lon="26.107">
		<comp name="--.HNE" depth="0.0">
			<acc value="0.213189906818348" flag="0"/>
			<vel value="0.148842768811528" flag="0"/>
			<psa03 value="0.652967763387058" flag="0"/>
			<psa10 value="0.178890527611505" flag="0"/>
			<psa30 value="0.0264972296034729" flag="0"/>
		</comp>
		<comp name="--.HNN" depth="0.0">
			<acc value="0.33053356357573" flag="0"/>
			<vel value="0.27718527024065" flag="0"/>
			<psa03 value="0.851891614011894" flag="0"/>
			<psa10 value="0.20144462654571" flag="0"/>
			<psa30 value="0.0327396622708542" flag="0"/>
		</comp>
		<comp name="--.HNZ" depth="0.0">
			<acc value="0.106171505606239" flag="0"/>
			<vel value="0.062810128360714" flag="0"/>
			<psa03 value="0.292479804663642" flag="0"/>
			<psa10 value="0.0690434887209199" flag="0"/>
			<psa30 value="0.0202324258327825" flag="0"/>
		</comp>
	</station>
	<station code="IACM" name="IACM" netid="HL" source="National Observatory of Athens Seismic Network" insttype="" lat="35.3058" lon="25.0709">
		<comp name="--.HNE" depth="0.0">
			<acc value="0.14445527600864" flag="0"/>
			<vel value="0.228402537854837" flag="0"/>
			<psa03 value="0.341562005323887" flag="0"/>
			<psa10 value="0.433589565584613" flag="0"/>
			<psa30 value="0.059021234438427" flag="0"/>
		</comp>
		<comp name="--.HNN" depth="0.0">
			<acc value="0.112882089352585" flag="0"/>
			<vel value="0.203335581210971" flag="0"/>
			<psa03 value="0.276283125867828" flag="0"/>
			<psa10 value="0.308243378899392" flag="0"/>
			<psa30 value="0.0590266035032212" flag="0"/>
		</comp>
		<comp name="--.HNZ" depth="0.0">
			<acc value="0.0571250182809729" flag="0"/>
			<vel value="0.0772086340583174" flag="0"/>
			<psa03 value="0.141385372913739" flag="0"/>
			<psa10 value="0.116306023837999" flag="0"/>
			<psa30 value="0.0228936922824373" flag="0"/>
		</comp>
	</station>
	<station code="KTHA" name="KTHA" netid="HL" source="National Observatory of Athens Seismic Network" insttype="" lat="36.2566" lon="23.0621">
		<comp name="--.HNE" depth="0.0">
			<acc value="0.0421902068743896" flag="0"/>
			<vel value="0.0447994682481707" flag="0"/>
			<psa03 value="0.116797310165352" flag="0"/>
			<psa10 value="0.0568297234400917" flag="0"/>
			<psa30 value="0.0145015373223615" flag="0"/>
		</comp>
		<comp name="--.HNN" depth="0.0">
			<acc value="0.0306869108959615" flag="0"/>
			<vel value="0.0284004626225118" flag="0"/>
			<psa03 value="0.0652954505031878" flag="0"/>
			<psa10 value="0.0457452641494177" flag="0"/>
			<psa30 value="0.0108641346956054" flag="0"/>
		</comp>
		<comp name="--.HNZ" depth="0.0">
			<acc value="0.0256566034851019" flag="0"/>
			<vel value="0.0263881085489328" flag="0"/>
			<psa03 value="0.0627589387218488" flag="0"/>
			<psa10 value="0.0461896385869976" flag="0"/>
			<psa30 value="0.0079760975439945" flag="0"/>
		</comp>
	</station>
</stationlist>
