<?xml version="1.0" encoding="UTF-8" standalone="yes"?>
<!DOCTYPE earthquake SYSTEM "stationlist.dtd">
<stationlist created="" xmlns="ch.ethz.sed.shakemap.usgs.xml">
  <station code="GVD" name="GVD" netid="GE" insttype="STS-2/N" lat="34.8391" lon="24.0874">
    <comp name="--.HHE">
      <acc value="0.0446467741" flag="0"/>
      <vel value="0.0374483515" flag="0"/>
      <psa03 value="0.1436682175" flag="0"/>
      <psa10 value="0.0440423552" flag="0"/>
      <psa30 value="0.0151191184" flag="0"/>
    </comp>
    <comp name="--.HHN">
      <acc value="0.0455045570" flag="0"/>
      <vel value="0.0351941865" flag="0"/>
      <psa03 value="0.1352904151" flag="0"/>
      <psa10 value="0.0448759113" flag="0"/>
      <psa30 value="0.0201693101" flag="0"/>
    </comp>
    <comp name="--.HHZ">
      <acc value="0.0238173715" flag="0"/>
      <vel value="0.0248561451" flag="0"/>
      <psa03 value="0.0507419246" flag="0"/>
      <psa10 value="0.0332965776" flag="0"/>
      <psa30 value="0.0120252975" flag="0"/>
    </comp>
  </station>
  <station code="ZKR" name="ZKR" netid="GE" insttype="STS-2/N" lat="35.1147" lon="26.2169">
    <comp name="--.HHE">
      <acc value="0.0872200338" flag="0"/>
      <vel value="0.1083313078" flag="0"/>
      <psa03 value="0.3739040805" flag="0"/>
      <psa10 value="0.1225159688" flag="0"/>
      <psa30 value="0.0554975222" flag="0"/>
    </comp>
    <comp name="--.HHN">
      <acc value="0.0544318720" flag="0"/>
      <vel value="0.0368123849" flag="0"/>
      <psa03 value="0.1662311696" flag="0"/>
      <psa10 value="0.0744504432" flag="0"/>
      <psa30 value="0.0151919630" flag="0"/>
    </comp>
    <comp name="--.HHZ">
      <acc value="0.0427017581" flag="0"/>
      <vel value="0.0474016141" flag="0"/>
      <psa03 value="0.1503931001" flag="0"/>
      <psa10 value="0.0864851457" flag="0"/>
      <psa30 value="0.0237039055" flag="0"/>
    </comp>
  </station>
  <station code="STIA" name="STIA" netid="HC" insttype="120" lat="35.2021" lon="26.0909">
    <comp name="--.HHE">
      <acc value="0.0586001944" flag="0"/>
      <vel value="0.0685742668" flag="0"/>
      <psa03 value="0.1773705204" flag="0"/>
      <psa10 value="0.1051497797" flag="0"/>
      <psa30 value="0.0291844543" flag="0"/>
    </comp>
    <comp name="--.HHN">
      <acc value="0.0744536435" flag="0"/>
      <vel value="0.0543596041" flag="0"/>
      <psa03 value="0.2225759322" flag="0"/>
      <psa10 value="0.0861928194" flag="0"/>
      <psa30 value="0.0358871183" flag="0"/>
    </comp>
    <comp name="--.HHZ">
      <acc value="0.0526443178" flag="0"/>
      <vel value="0.0589632821" flag="0"/>
      <psa03 value="0.1727553605" flag="0"/>
      <psa10 value="0.0475279454" flag="0"/>
      <psa30 value="0.0196899694" flag="0"/>
    </comp>
  </station>
  <station code="SIT2" name="SIT2" netid="HI" insttype="CMG-5TD,ACCELEROMETER,GURALP" lat="35.2059" lon="26.107">
    <comp name="--.HNE">
      <acc value="0.2138454404" flag="0"/>
      <vel value="0.1516277378" flag="0"/>
      <psa03 value="0.6546470497" flag="0"/>
      <psa10 value="0.1788384490" flag="0"/>
      <psa30 value="0.0267884270" flag="0"/>
    </comp>
    <comp name="--.HNN">
      <acc value="0.3303500906" flag="0"/>
      <vel value="0.2670187711" flag="0"/>
      <psa03 value="0.8591795254" flag="0"/>
      <psa10 value="0.2005037439" flag="0"/>
      <psa30 value="0.0324948954" flag="0"/>
    </comp>
    <comp name="--.HNZ">
      <acc value="0.1053695820" flag="0"/>
      <vel value="0.0497125547" flag="0"/>
      <psa03 value="0.2939667107" flag="0"/>
      <psa10 value="0.0683599183" flag="0"/>
      <psa30 value="0.0192569559" flag="0"/>
    </comp>
  </station>
  <station code="GVD" name="GVD" netid="HL" insttype="120" lat="34.8391" lon="24.0874">
    <comp name="--.HHE">
      <acc value="0.0436951587" flag="0"/>
      <vel value="0.0370807473" flag="0"/>
      <psa03 value="0.1397453522" flag="0"/>
      <psa10 value="0.0437347688" flag="0"/>
      <psa30 value="0.0151323956" flag="0"/>
    </comp>
    <comp name="--.HHN">
      <acc value="0.0440694170" flag="0"/>
      <vel value="0.0346809438" flag="0"/>
      <psa03 value="0.1319275727" flag="0"/>
      <psa10 value="0.0446055840" flag="0"/>
      <psa30 value="0.0201788141" flag="0"/>
    </comp>
    <comp name="--.HHZ">
      <acc value="0.0232520288" flag="0"/>
      <vel value="0.0247105504" flag="0"/>
      <psa03 value="0.0492916437" flag="0"/>
      <psa10 value="0.0331664953" flag="0"/>
      <psa30 value="0.0120339919" flag="0"/>
    </comp>
  </station>
  <station code="IACM" name="IACM" netid="HL" insttype="120" lat="35.3058" lon="25.0709">
    <comp name="--.HHE">
      <acc value="0.1424320254" flag="0"/>
      <vel value="0.2315224620" flag="0"/>
      <psa03 value="0.3435099708" flag="0"/>
      <psa10 value="0.4266541660" flag="0"/>
      <psa30 value="0.0602774581" flag="0"/>
    </comp>
    <comp name="--.HHN">
      <acc value="0.1115723747" flag="0"/>
      <vel value="0.2075514346" flag="0"/>
      <psa03 value="0.2743628142" flag="0"/>
      <psa10 value="0.3071271807" flag="0"/>
      <psa30 value="0.0590066863" flag="0"/>
    </comp>
    <comp name="--.HHZ">
      <acc value="0.0574379251" flag="0"/>
      <vel value="0.0732078357" flag="0"/>
      <psa03 value="0.1429747526" flag="0"/>
      <psa10 value="0.1141128417" flag="0"/>
      <psa30 value="0.0225268978" flag="0"/>
    </comp>
  </station>
  <station code="IDI" name="IDI" netid="HL" insttype="120" lat="35.288" lon="24.89">
    <comp name="--.HHE">
      <acc value="0.0182913993" flag="0"/>
      <vel value="0.0301348158" flag="0"/>
      <psa03 value="0.0407419920" flag="0"/>
      <psa10 value="0.0301868605" flag="0"/>
      <psa30 value="0.0160915312" flag="0"/>
    </comp>
    <comp name="--.HHN">
      <acc value="0.0152445269" flag="0"/>
      <vel value="0.0251833134" flag="0"/>
      <psa03 value="0.0393104366" flag="0"/>
      <psa10 value="0.0245334887" flag="0"/>
      <psa30 value="0.0167366778" flag="0"/>
    </comp>
    <comp name="--.HHZ">
      <acc value="0.0133490201" flag="0"/>
      <vel value="0.0186164524" flag="0"/>
      <psa03 value="0.0300686666" flag="0"/>
      <psa10 value="0.0221270050" flag="0"/>
      <psa30 value="0.0141150122" flag="0"/>
    </comp>
  </station>
  <station code="NPS" name="NPS" netid="HL" insttype="CMG3ESPC-120s" lat="35.2613" lon="25.6104">
    <comp name="--.HHE">
      <acc value="0.0194463391" flag="0"/>
      <vel value="0.0189774385" flag="0"/>
      <psa03 value="0.0474620707" flag="0"/>
      <psa10 value="0.0231969545" flag="0"/>
      <psa30 value="0.0104748147" flag="0"/>
    </comp>
    <comp name="--.HHN">
      <acc value="0.0371174738" flag="0"/>
      <vel value="0.0439108802" flag="0"/>
      <psa03 value="0.0939354393" flag="0"/>
      <psa10 value="0.0579421963" flag="0"/>
      <psa30 value="0.0280460072" flag="0"/>
    </comp>
    <comp name="--.HHZ">
      <acc value="0.0335670996" flag="0"/>
      <vel value="0.0483363392" flag="0"/>
      <psa03 value="0.0975539082" flag="0"/>
      <psa10 value="0.0480236922" flag="0"/>
      <psa30 value="0.0260361987" flag="0"/>
    </comp>
  </station>
  <station code="VAM" name="VAM" netid="HL" insttype="CMG3ESPC-120s" lat="35.407" lon="24.1997">
    <comp name="--.HHE">
      <acc value="0.0171053815" flag="0"/>
      <vel value="0.0307794171" flag="0"/>
      <psa03 value="0.0440006275" flag="0"/>
      <psa10 value="0.0435345591" flag="0"/>
      <psa30 value="0.0113848989" flag="0"/>
    </comp>
    <comp name="--.HHN">
      <acc value="0.0249440779" flag="0"/>
      <vel value="0.0408406224" flag="0"/>
      <psa03 value="0.0502711359" flag="0"/>
      <psa10 value="0.0446028689" flag="0"/>
      <psa30 value="0.0154311170" flag="0"/>
    </comp>
    <comp name="--.HHZ">
      <acc value="0.0134331545" flag="0"/>
      <vel value="0.0239614064" flag="0"/>
      <psa03 value="0.0395156072" flag="0"/>
      <psa10 value="0.0204734297" flag="0"/>
      <psa30 value="0.0115186566" flag="0"/>
    </comp>
  </station>
  <station code="ZKR" name="ZKR" netid="HL" insttype="120" lat="35.1147" lon="26.2169">
    <comp name="--.HHZ">
      <acc value="0.0413426769" flag="0"/>
      <vel value="0.0471906550" flag="0"/>
      <psa03 value="0.1464652511" flag="0"/>
      <psa10 value="0.0860118885" flag="0"/>
      <psa30 value="0.0237146550" flag="0"/>
    </comp>
    <comp name="--.HHE">
      <acc value="0.0849564527" flag="0"/>
      <vel value="0.1082814643" flag="0"/>
      <psa03 value="0.3630857368" flag="0"/>
      <psa10 value="0.1218269043" flag="0"/>
      <psa30 value="0.0555326363" flag="0"/>
    </comp>
    <comp name="--.HHN">
      <acc value="0.0532200304" flag="0"/>
      <vel value="0.0365733212" flag="0"/>
      <psa03 value="0.1613499642" flag="0"/>
      <psa10 value="0.0740035367" flag="0"/>
      <psa30 value="0.0152021791" flag="0"/>
    </comp>
  </station>
  <station code="IDI" name="IDI" netid="MN" insttype="" lat="35.288" lon="24.89">
    <comp name="--.HHE">
      <acc value="0.0183027602" flag="0"/>
      <vel value="0.0297644609" flag="0"/>
      <psa03 value="0.0410977446" flag="0"/>
      <psa10 value="0.0299427067" flag="0"/>
      <psa30 value="0.0158928577" flag="0"/>
    </comp>
    <comp name="--.HHN">
      <acc value="0.0154456165" flag="0"/>
      <vel value="0.0249311394" flag="0"/>
      <psa03 value="0.0398612018" flag="0"/>
      <psa10 value="0.0243587690" flag="0"/>
      <psa30 value="0.0165326142" flag="0"/>
    </comp>
    <comp name="--.HHZ">
      <acc value="0.0135275961" flag="0"/>
      <vel value="0.0184428175" flag="0"/>
      <psa03 value="0.0304584957" flag="0"/>
      <psa10 value="0.0219514579" flag="0"/>
      <psa30 value="0.0139401821" flag="0"/>
    </comp>
  </station>
</stationlist>
