<?xml version="1.0" encoding="UTF-8" standalone="yes"?>
<!DOCTYPE earthquake SYSTEM "stationlist.dtd">
<stationlist created="" xmlns="ch.ethz.sed.shakemap.usgs.xml">
  <station code="AKDN" name="AKDN" netid="KO" insttype="CMG-5T" lat="35.2977" lon="32.9677">
    <comp name="--.HNE">
      <acc value="0.1850415236" flag="0"/>
      <vel value="0.1332968268" flag="0"/>
      <psa03 value="0.2388943007" flag="0"/>
      <psa10 value="0.0870831620" flag="0"/>
      <psa30 value="0.0059881447" flag="0"/>
    </comp>
    <comp name="--.HNZ">
      <acc value="0.0711495104" flag="0"/>
      <vel value="0.0357359222" flag="0"/>
      <psa03 value="0.2018259600" flag="0"/>
      <psa10 value="0.0385227744" flag="0"/>
      <psa30 value="0.0042481311" flag="0"/>
    </comp>
    <comp name="--.HNN">
      <acc value="0.1073561591" flag="0"/>
      <vel value="0.0774459660" flag="0"/>
      <psa03 value="0.2843051690" flag="0"/>
      <psa10 value="0.0755825441" flag="0"/>
      <psa30 value="0.0056245744" flag="0"/>
    </comp>
  </station>
  <station code="ANTB" name="ANTB" netid="KO" insttype="CMG-3T" lat="36.8998" lon="30.6538">
    <comp name="--.HHE">
      <acc value="0.0349131801" flag="0"/>
      <vel value="0.0256686930" flag="0"/>
      <psa03 value="0.1116737218" flag="0"/>
      <psa10 value="0.0332132774" flag="0"/>
      <psa30 value="0.0034451000" flag="0"/>
    </comp>
    <comp name="--.HHZ">
      <acc value="0.0376503577" flag="0"/>
      <vel value="0.0260826419" flag="0"/>
      <psa03 value="0.1195161374" flag="0"/>
      <psa10 value="0.0269600712" flag="0"/>
      <psa30 value="0.0019835259" flag="0"/>
    </comp>
    <comp name="--.HHN">
      <acc value="0.0887580741" flag="0"/>
      <vel value="0.0484651089" flag="0"/>
      <psa03 value="0.2312156329" flag="0"/>
      <psa10 value="0.0266984741" flag="0"/>
      <psa30 value="0.0036364737" flag="0"/>
    </comp>
  </station>
  <station code="BOZY" name="BOZY" netid="KO" insttype="CMG-5T" lat="36.1069" lon="32.9763">
    <comp name="--.HNE">
      <acc value="0.3749628710" flag="0"/>
      <vel value="0.1172847963" flag="0"/>
      <psa03 value="0.4394104507" flag="0"/>
      <psa10 value="0.0379797699" flag="0"/>
      <psa30 value="0.0018632086" flag="0"/>
    </comp>
    <comp name="--.HNN">
      <acc value="0.4375183458" flag="0"/>
      <vel value="0.1016789823" flag="0"/>
      <psa03 value="0.6955051228" flag="0"/>
      <psa10 value="0.0236445414" flag="0"/>
      <psa30 value="0.0031225901" flag="0"/>
    </comp>
    <comp name="--.HNZ">
      <acc value="0.1173788278" flag="0"/>
      <vel value="0.0415620890" flag="0"/>
      <psa03 value="0.2428173986" flag="0"/>
      <psa10 value="0.0249123003" flag="0"/>
      <psa30 value="0.0014996237" flag="0"/>
    </comp>
  </station>
  <station code="HDMB" name="HDMB" netid="KO" insttype="CMG-3T" lat="36.9638" lon="32.4857">
    <comp name="--.HHE">
      <acc value="0.0616174001" flag="0"/>
      <vel value="0.0495401849" flag="0"/>
      <psa03 value="0.2195592620" flag="0"/>
      <psa10 value="0.0707553246" flag="0"/>
      <psa30 value="0.0023389500" flag="0"/>
    </comp>
    <comp name="--.HHN">
      <acc value="0.0653551742" flag="0"/>
      <vel value="0.0408968289" flag="0"/>
      <psa03 value="0.1742405154" flag="0"/>
      <psa10 value="0.0396530999" flag="0"/>
      <psa30 value="0.0030821836" flag="0"/>
    </comp>
    <comp name="--.HHZ">
      <acc value="0.0349763089" flag="0"/>
      <vel value="0.0258504321" flag="0"/>
      <psa03 value="0.0895584739" flag="0"/>
      <psa10 value="0.0294140980" flag="0"/>
      <psa30 value="0.0018278881" flag="0"/>
    </comp>
  </station>
  <station code="HSY" name="HSY" netid="KO" insttype="CMG-6T" lat="35.2916" lon="33.0974">
    <comp name="--.HHE">
      <acc value="0.5691148209" flag="0"/>
      <vel value="0.2058714082" flag="0"/>
      <psa03 value="0.9753308324" flag="0"/>
      <psa10 value="0.0850493931" flag="0"/>
      <psa30 value="0.0063837230" flag="0"/>
    </comp>
    <comp name="--.HHN">
      <acc value="0.6383659471" flag="0"/>
      <vel value="0.2085894961" flag="0"/>
      <psa03 value="1.0906936720" flag="0"/>
      <psa10 value="0.0944026264" flag="0"/>
      <psa30 value="0.0056383871" flag="0"/>
    </comp>
    <comp name="--.HHZ">
      <acc value="0.1600183173" flag="0"/>
      <vel value="0.0514454758" flag="0"/>
      <psa03 value="0.3086651564" flag="0"/>
      <psa10 value="0.0412427685" flag="0"/>
      <psa30 value="0.0027587153" flag="0"/>
    </comp>
  </station>
  <station code="KEMT" name="KEMT" netid="KO" insttype="CMG-5T" lat="36.6037" lon="30.5558">
    <comp name="--.HNZ">
      <acc value="0.0824689488" flag="0"/>
      <vel value="0.0219575124" flag="0"/>
      <psa03 value="0.1558481271" flag="0"/>
      <psa10 value="0.0176253884" flag="0"/>
      <psa30 value="0.0011541773" flag="0"/>
    </comp>
    <comp name="--.HNE">
      <acc value="0.2076711257" flag="0"/>
      <vel value="0.1030640651" flag="0"/>
      <psa03 value="0.8580184613" flag="0"/>
      <psa10 value="0.0445812934" flag="0"/>
      <psa30 value="0.0032708759" flag="0"/>
    </comp>
    <comp name="--.HNN">
      <acc value="0.1735769663" flag="0"/>
      <vel value="0.1032197196" flag="0"/>
      <psa03 value="0.7047355491" flag="0"/>
      <psa10 value="0.0552427906" flag="0"/>
      <psa30 value="0.0042390510" flag="0"/>
    </comp>
  </station>
  <station code="LEF" name="LEF" netid="KO" insttype="CMG-6T" lat="35.1118" lon="32.8433">
    <comp name="--.HHE">
      <acc value="0.1916341186" flag="0"/>
      <vel value="0.0994317610" flag="0"/>
      <psa03 value="0.2983755127" flag="0"/>
      <psa10 value="0.0644486268" flag="0"/>
      <psa30 value="0.0045801982" flag="0"/>
    </comp>
    <comp name="--.HHN">
      <acc value="0.1679901841" flag="0"/>
      <vel value="0.0650074597" flag="0"/>
      <psa03 value="0.3331899531" flag="0"/>
      <psa10 value="0.0403926532" flag="0"/>
      <psa30 value="0.0033385649" flag="0"/>
    </comp>
    <comp name="--.HHZ">
      <acc value="0.1142321736" flag="0"/>
      <vel value="0.0372322452" flag="0"/>
      <psa03 value="0.2291069931" flag="0"/>
      <psa10 value="0.0372065068" flag="0"/>
      <psa30 value="0.0019534363" flag="0"/>
    </comp>
  </station>
  <station code="LMOS" name="LMOS" netid="KO" insttype="CMG-6T" lat="36.6021" lon="32.6962">
    <comp name="--.HHE">
      <acc value="0.0358959539" flag="0"/>
      <vel value="0.0154277304" flag="0"/>
      <psa03 value="0.1028955996" flag="0"/>
      <psa10 value="0.0152802435" flag="0"/>
      <psa30 value="0.0011124707" flag="0"/>
    </comp>
    <comp name="--.HHN">
      <acc value="0.0306798752" flag="0"/>
      <vel value="0.0158102868" flag="0"/>
      <psa03 value="0.0760679976" flag="0"/>
      <psa10 value="0.0169795235" flag="0"/>
      <psa30 value="0.0015116226" flag="0"/>
    </comp>
    <comp name="--.HHZ">
      <acc value="0.0245748549" flag="0"/>
      <vel value="0.0115447915" flag="0"/>
      <psa03 value="0.0587656553" flag="0"/>
      <psa10 value="0.0170830162" flag="0"/>
      <psa30 value="0.0020918599" flag="0"/>
    </comp>
  </station>
</stationlist>
