<?xml version="1.0" encoding="UTF-8" standalone="yes"?>
<!DOCTYPE earthquake SYSTEM "stationlist.dtd">
<stationlist created="" xmlns="ch.ethz.sed.shakemap.usgs.xml">
  <station code="AKDN" name="AKDN" netid="KO" insttype="CMG-5T" lat="35.2977" lon="32.9677">
    <comp name="--.HNE">
      <acc value="0.1850415237" flag="0"/>
      <vel value="0.1332968269" flag="0"/>
      <psa03 value="0.2388943007" flag="0"/>
      <psa10 value="0.0870831620" flag="0"/>
      <psa30 value="0.0059881408" flag="0"/>
    </comp>
    <comp name="--.HNN">
      <acc value="0.1073561592" flag="0"/>
      <vel value="0.0774459670" flag="0"/>
      <psa03 value="0.2843051690" flag="0"/>
      <psa10 value="0.0755825441" flag="0"/>
      <psa30 value="0.0056244330" flag="0"/>
    </comp>
    <comp name="--.HNZ">
      <acc value="0.0711495105" flag="0"/>
      <vel value="0.0357359210" flag="0"/>
      <psa03 value="0.2018259600" flag="0"/>
      <psa10 value="0.0385227744" flag="0"/>
      <psa30 value="0.0042481334" flag="0"/>
    </comp>
  </station>
  <station code="ANTB" name="ANTB" netid="KO" insttype="CMG-3T" lat="36.8998" lon="30.6538">
    <comp name="--.HHE">
      <acc value="0.0349131800" flag="0"/>
      <vel value="0.0256686912" flag="0"/>
      <psa03 value="0.1116737218" flag="0"/>
      <psa10 value="0.0332132774" flag="0"/>
      <psa30 value="0.0034450668" flag="0"/>
    </comp>
    <comp name="--.HHZ">
      <acc value="0.0376503576" flag="0"/>
      <vel value="0.0260826420" flag="0"/>
      <psa03 value="0.1195161374" flag="0"/>
      <psa10 value="0.0269600712" flag="0"/>
      <psa30 value="0.0019835265" flag="0"/>
    </comp>
    <comp name="--.HHN">
      <acc value="0.0887580742" flag="0"/>
      <vel value="0.0484651068" flag="0"/>
      <psa03 value="0.2312156329" flag="0"/>
      <psa10 value="0.0266984741" flag="0"/>
      <psa30 value="0.0036364686" flag="0"/>
    </comp>
  </station>
  <station code="BOZY" name="BOZY" netid="KO" insttype="CMG-5T" lat="36.1069" lon="32.9763">
    <comp name="--.HNE">
      <acc value="0.3749629240" flag="0"/>
      <vel value="0.1172847951" flag="0"/>
      <psa03 value="0.4394104507" flag="0"/>
      <psa10 value="0.0379797700" flag="0"/>
      <psa30 value="0.0018632457" flag="0"/>
    </comp>
    <comp name="--.HNN">
      <acc value="0.4375184071" flag="0"/>
      <vel value="0.1016789842" flag="0"/>
      <psa03 value="0.6955051228" flag="0"/>
      <psa10 value="0.0236445416" flag="0"/>
      <psa30 value="0.0031225931" flag="0"/>
    </comp>
    <comp name="--.HNZ">
      <acc value="0.1173788542" flag="0"/>
      <vel value="0.0415620899" flag="0"/>
      <psa03 value="0.2428173986" flag="0"/>
      <psa10 value="0.0249123006" flag="0"/>
      <psa30 value="0.0014995835" flag="0"/>
    </comp>
  </station>
  <station code="HDMB" name="HDMB" netid="KO" insttype="CMG-3T" lat="36.9638" lon="32.4857">
    <comp name="--.HHN">
      <acc value="0.0653551741" flag="0"/>
      <vel value="0.0408968293" flag="0"/>
      <psa03 value="0.1742405154" flag="0"/>
      <psa10 value="0.0396530999" flag="0"/>
      <psa30 value="0.0030821948" flag="0"/>
    </comp>
    <comp name="--.HHE">
      <acc value="0.0616174001" flag="0"/>
      <vel value="0.0495401851" flag="0"/>
      <psa03 value="0.2195592620" flag="0"/>
      <psa10 value="0.0707553246" flag="0"/>
      <psa30 value="0.0023389506" flag="0"/>
    </comp>
    <comp name="--.HHZ">
      <acc value="0.0349763090" flag="0"/>
      <vel value="0.0258504314" flag="0"/>
      <psa03 value="0.0895584739" flag="0"/>
      <psa10 value="0.0294140980" flag="0"/>
      <psa30 value="0.0018278831" flag="0"/>
    </comp>
  </station>
  <station code="HSY" name="HSY" netid="KO" insttype="CMG-6T" lat="35.2916" lon="33.0974">
    <comp name="--.HHE">
      <acc value="0.5691148220" flag="0"/>
      <vel value="0.2058714231" flag="0"/>
      <psa03 value="0.9753308324" flag="0"/>
      <psa10 value="0.0850493930" flag="0"/>
      <psa30 value="0.0063837917" flag="0"/>
    </comp>
    <comp name="--.HHZ">
      <acc value="0.1600183171" flag="0"/>
      <vel value="0.0514454786" flag="0"/>
      <psa03 value="0.3086651564" flag="0"/>
      <psa10 value="0.0412427685" flag="0"/>
      <psa30 value="0.0027587147" flag="0"/>
    </comp>
    <comp name="--.HHN">
      <acc value="0.6383659453" flag="0"/>
      <vel value="0.2085895341" flag="0"/>
      <psa03 value="1.0906936720" flag="0"/>
      <psa10 value="0.0944026264" flag="0"/>
      <psa30 value="0.0056383497" flag="0"/>
    </comp>
  </station>
  <station code="KEMT" name="KEMT" netid="KO" insttype="CMG-5T" lat="36.6037" lon="30.5558">
    <comp name="--.HNZ">
      <acc value="0.0824689425" flag="0"/>
      <vel value="0.0219575137" flag="0"/>
      <psa03 value="0.1558481271" flag="0"/>
      <psa10 value="0.0176253884" flag="0"/>
      <psa30 value="0.0011541927" flag="0"/>
    </comp>
    <comp name="--.HNN">
      <acc value="0.1735769681" flag="0"/>
      <vel value="0.1032197221" flag="0"/>
      <psa03 value="0.7047355491" flag="0"/>
      <psa10 value="0.0552427905" flag="0"/>
      <psa30 value="0.0042394983" flag="0"/>
    </comp>
    <comp name="--.HNE">
      <acc value="0.2076711211" flag="0"/>
      <vel value="0.1030640651" flag="0"/>
      <psa03 value="0.8580184613" flag="0"/>
      <psa10 value="0.0445812934" flag="0"/>
      <psa30 value="0.0032719378" flag="0"/>
    </comp>
  </station>
  <station code="LEF" name="LEF" netid="KO" insttype="CMG-6T" lat="35.1118" lon="32.8433">
    <comp name="--.HHE">
      <acc value="0.1916341184" flag="0"/>
      <vel value="0.0994317595" flag="0"/>
      <psa03 value="0.2983755127" flag="0"/>
      <psa10 value="0.0644486268" flag="0"/>
      <psa30 value="0.0045801764" flag="0"/>
    </comp>
    <comp name="--.HHZ">
      <acc value="0.1142321736" flag="0"/>
      <vel value="0.0372322344" flag="0"/>
      <psa03 value="0.2291069931" flag="0"/>
      <psa10 value="0.0372065068" flag="0"/>
      <psa30 value="0.0019534359" flag="0"/>
    </comp>
    <comp name="--.HHN">
      <acc value="0.1679901839" flag="0"/>
      <vel value="0.0650074603" flag="0"/>
      <psa03 value="0.3331899531" flag="0"/>
      <psa10 value="0.0403926532" flag="0"/>
      <psa30 value="0.0033385526" flag="0"/>
    </comp>
  </station>
  <station code="LMOS" name="LMOS" netid="KO" insttype="CMG-6T" lat="36.6021" lon="32.6962">
    <comp name="--.HHZ">
      <acc value="0.0245748547" flag="0"/>
      <vel value="0.0115447966" flag="0"/>
      <psa03 value="0.0587656553" flag="0"/>
      <psa10 value="0.0170830162" flag="0"/>
      <psa30 value="0.0020918868" flag="0"/>
    </comp>
    <comp name="--.HHE">
      <acc value="0.0358959538" flag="0"/>
      <vel value="0.0154277308" flag="0"/>
      <psa03 value="0.1028955996" flag="0"/>
      <psa10 value="0.0152802435" flag="0"/>
      <psa30 value="0.0011124735" flag="0"/>
    </comp>
    <comp name="--.HHN">
      <acc value="0.0306798752" flag="0"/>
      <vel value="0.0158102887" flag="0"/>
      <psa03 value="0.0760679976" flag="0"/>
      <psa10 value="0.0169795235" flag="0"/>
      <psa30 value="0.0015116719" flag="0"/>
    </comp>
  </station>
</stationlist>
