<?xml version="1.0" encoding="UTF-8" standalone="yes"?>
<!DOCTYPE earthquake SYSTEM "stationlist.dtd">
<stationlist created="" xmlns="ch.ethz.sed.shakemap.usgs.xml">
  <station code="AKDN" name="AKDN" netid="KO" insttype="CMG-5T" lat="35.2977" lon="32.9677">
    <comp name="--.HNZ">
      <acc value="0.0711495105" flag="0"/>
      <vel value="0.0357359144" flag="0"/>
      <psa03 value="0.2018259600" flag="0"/>
      <psa10 value="0.0385227744" flag="0"/>
      <psa30 value="0.0042481549" flag="0"/>
    </comp>
    <comp name="--.HNE">
      <acc value="0.1850415239" flag="0"/>
      <vel value="0.1332968284" flag="0"/>
      <psa03 value="0.2388943007" flag="0"/>
      <psa10 value="0.0870831620" flag="0"/>
      <psa30 value="0.0059881530" flag="0"/>
    </comp>
    <comp name="--.HNN">
      <acc value="0.1073561595" flag="0"/>
      <vel value="0.0774459702" flag="0"/>
      <psa03 value="0.2843051690" flag="0"/>
      <psa10 value="0.0755825439" flag="0"/>
      <psa30 value="0.0056238169" flag="0"/>
    </comp>
  </station>
  <station code="ALAN" name="ALAN" netid="KO" insttype="CMG-5T" lat="36.557" lon="32.0327">
    <comp name="--.HNN">
      <acc value="0.3823915128" flag="0"/>
      <vel value="0.1862477430" flag="0"/>
      <psa03 value="1.1045264984" flag="0"/>
      <psa10 value="0.0926843010" flag="0"/>
      <psa30 value="0.0071744865" flag="0"/>
    </comp>
  </station>
  <station code="ANTB" name="ANTB" netid="KO" insttype="CMG-3T" lat="36.8998" lon="30.6538">
    <comp name="--.HHE">
      <acc value="0.0349131800" flag="0"/>
      <vel value="0.0256686929" flag="0"/>
      <psa03 value="0.1116737218" flag="0"/>
      <psa10 value="0.0332132774" flag="0"/>
      <psa30 value="0.0034450983" flag="0"/>
    </comp>
    <comp name="--.HHZ">
      <acc value="0.0376503577" flag="0"/>
      <vel value="0.0260826412" flag="0"/>
      <psa03 value="0.1195161374" flag="0"/>
      <psa10 value="0.0269600712" flag="0"/>
      <psa30 value="0.0019835257" flag="0"/>
    </comp>
    <comp name="--.HHN">
      <acc value="0.0887580741" flag="0"/>
      <vel value="0.0484651088" flag="0"/>
      <psa03 value="0.2312156329" flag="0"/>
      <psa10 value="0.0266984741" flag="0"/>
      <psa30 value="0.0036364733" flag="0"/>
    </comp>
  </station>
  <station code="BOZY" name="BOZY" netid="KO" insttype="CMG-5T" lat="36.1069" lon="32.9763">
    <comp name="--.HNE">
      <acc value="0.3749629864" flag="0"/>
      <vel value="0.1172847960" flag="0"/>
      <psa03 value="0.4394104507" flag="0"/>
      <psa10 value="0.0379797699" flag="0"/>
      <psa30 value="0.0018633150" flag="0"/>
    </comp>
    <comp name="--.HNN">
      <acc value="0.4375184779" flag="0"/>
      <vel value="0.1016789864" flag="0"/>
      <psa03 value="0.6955051228" flag="0"/>
      <psa10 value="0.0236445419" flag="0"/>
      <psa30 value="0.0031225677" flag="0"/>
    </comp>
    <comp name="--.HNZ">
      <acc value="0.1173788933" flag="0"/>
      <vel value="0.0415620905" flag="0"/>
      <psa03 value="0.2428173986" flag="0"/>
      <psa10 value="0.0249123009" flag="0"/>
      <psa30 value="0.0014993575" flag="0"/>
    </comp>
  </station>
  <station code="HDMB" name="HDMB" netid="KO" insttype="CMG-3T" lat="36.9638" lon="32.4857">
    <comp name="--.HHE">
      <acc value="0.0616174002" flag="0"/>
      <vel value="0.0495401844" flag="0"/>
      <psa03 value="0.2195592620" flag="0"/>
      <psa10 value="0.0707553246" flag="0"/>
      <psa30 value="0.0023389599" flag="0"/>
    </comp>
    <comp name="--.HHN">
      <acc value="0.0653551741" flag="0"/>
      <vel value="0.0408968290" flag="0"/>
      <psa03 value="0.1742405154" flag="0"/>
      <psa10 value="0.0396530999" flag="0"/>
      <psa30 value="0.0030822054" flag="0"/>
    </comp>
    <comp name="--.HHZ">
      <acc value="0.0349763091" flag="0"/>
      <vel value="0.0258504303" flag="0"/>
      <psa03 value="0.0895584739" flag="0"/>
      <psa10 value="0.0294140980" flag="0"/>
      <psa30 value="0.0018278752" flag="0"/>
    </comp>
  </station>
  <station code="HSY" name="HSY" netid="KO" insttype="CMG-6T" lat="35.2916" lon="33.0974">
    <comp name="--.HHE">
      <acc value="0.5691148254" flag="0"/>
      <vel value="0.2058714343" flag="0"/>
      <psa03 value="0.9753308324" flag="0"/>
      <psa10 value="0.0850493930" flag="0"/>
      <psa30 value="0.0063839643" flag="0"/>
    </comp>
    <comp name="--.HHN">
      <acc value="0.6383659423" flag="0"/>
      <vel value="0.2085895404" flag="0"/>
      <psa03 value="1.0906936720" flag="0"/>
      <psa10 value="0.0944026265" flag="0"/>
      <psa30 value="0.0056381865" flag="0"/>
    </comp>
    <comp name="--.HHZ">
      <acc value="0.1600183190" flag="0"/>
      <vel value="0.0514454703" flag="0"/>
      <psa03 value="0.3086651564" flag="0"/>
      <psa10 value="0.0412427685" flag="0"/>
      <psa30 value="0.0027587118" flag="0"/>
    </comp>
  </station>
  <station code="KEMT" name="KEMT" netid="KO" insttype="CMG-5T" lat="36.6037" lon="30.5558">
    <comp name="--.HNZ">
      <acc value="0.0824689445" flag="0"/>
      <vel value="0.0219575124" flag="0"/>
      <psa03 value="0.1558481271" flag="0"/>
      <psa10 value="0.0176253884" flag="0"/>
      <psa30 value="0.0011540821" flag="0"/>
    </comp>
    <comp name="--.HNE">
      <acc value="0.2076711239" flag="0"/>
      <vel value="0.1030640661" flag="0"/>
      <psa03 value="0.8580184613" flag="0"/>
      <psa10 value="0.0445812934" flag="0"/>
      <psa30 value="0.0032710908" flag="0"/>
    </comp>
    <comp name="--.HNN">
      <acc value="0.1735769670" flag="0"/>
      <vel value="0.1032197237" flag="0"/>
      <psa03 value="0.7047355491" flag="0"/>
      <psa10 value="0.0552427906" flag="0"/>
      <psa30 value="0.0042392900" flag="0"/>
    </comp>
  </station>
  <station code="LEF" name="LEF" netid="KO" insttype="CMG-6T" lat="35.1118" lon="32.8433">
    <comp name="--.HHE">
      <acc value="0.1916341192" flag="0"/>
      <vel value="0.0994317586" flag="0"/>
      <psa03 value="0.2983755127" flag="0"/>
      <psa10 value="0.0644486269" flag="0"/>
      <psa30 value="0.0045803091" flag="0"/>
    </comp>
    <comp name="--.HHN">
      <acc value="0.1679901841" flag="0"/>
      <vel value="0.0650074584" flag="0"/>
      <psa03 value="0.3331899531" flag="0"/>
      <psa10 value="0.0403926532" flag="0"/>
      <psa30 value="0.0033386118" flag="0"/>
    </comp>
    <comp name="--.HHZ">
      <acc value="0.1142321733" flag="0"/>
      <vel value="0.0372322395" flag="0"/>
      <psa03 value="0.2291069931" flag="0"/>
      <psa10 value="0.0372065068" flag="0"/>
      <psa30 value="0.0019534382" flag="0"/>
    </comp>
  </station>
  <station code="LMOS" name="LMOS" netid="KO" insttype="CMG-6T" lat="36.6021" lon="32.6962">
    <comp name="--.HHZ">
      <acc value="0.0245748544" flag="0"/>
      <vel value="0.0115447943" flag="0"/>
      <psa03 value="0.0587656553" flag="0"/>
      <psa10 value="0.0170830162" flag="0"/>
      <psa30 value="0.0020919196" flag="0"/>
    </comp>
    <comp name="--.HHE">
      <acc value="0.0358959538" flag="0"/>
      <vel value="0.0154277303" flag="0"/>
      <psa03 value="0.1028955996" flag="0"/>
      <psa10 value="0.0152802435" flag="0"/>
      <psa30 value="0.0011124765" flag="0"/>
    </comp>
    <comp name="--.HHN">
      <acc value="0.0306798749" flag="0"/>
      <vel value="0.0158102858" flag="0"/>
      <psa03 value="0.0760679976" flag="0"/>
      <psa10 value="0.0169795235" flag="0"/>
      <psa30 value="0.0015117369" flag="0"/>
    </comp>
  </station>
</stationlist>
