<stationlist created="1694264474">
	<station code="AVE" name="AVE" netid="WM" source="Western Mediterranean Seismic Network" insttype="" lat="33.2981" lon="-7.4133">
		<comp name=".HLE" depth="0.0">
			<acc value="2.817338924241" flag="0"/>
			<vel value="3.792881113" flag="0"/>
			<psa03 value="5.21340869609103" flag="0"/>
			<psa10 value="4.83834707672992" flag="0"/>
			<psa30 value="1.44628204908568" flag="0"/>
		</comp>
		<comp name=".HLN" depth="0.0">
			<acc value="2.2579487712078" flag="0"/>
			<vel value="4.13367103069" flag="0"/>
			<psa03 value="6.20212086005757" flag="0"/>
			<psa10 value="3.48483597328008" flag="0"/>
			<psa30 value="1.41632070429527" flag="0"/>
		</comp>
		<comp name=".HLZ" depth="0.0">
			<acc value="1.9163703386124" flag="0"/>
			<vel value="2.30426160135" flag="0"/>
			<psa03 value="3.93926462361349" flag="0"/>
			<psa10 value="2.81347069862705" flag="0"/>
			<psa30 value="0.863009756829786" flag="0"/>
		</comp>
	</station>
</stationlist>
