<?xml version="1.0" encoding="UTF-8" standalone="yes"?>
<!DOCTYPE earthquake SYSTEM "stationlist.dtd">
<stationlist created="" xmlns="ch.ethz.sed.shakemap.usgs.xml">
  <station code="ARPRA" name="ARPRA" netid="KO" insttype="CMG-5T" lat="39.0929" lon="38.3356">
    <comp name="--.HNN">
      <acc value="0.1200112887" flag="0"/>
      <vel value="0.0702062732" flag="0"/>
      <psa03 value="0.2815741902" flag="0"/>
      <psa10 value="0.0496431381" flag="0"/>
      <psa30 value="0.0033059998" flag="0"/>
    </comp>
    <comp name="--.HNZ">
      <acc value="0.0518825923" flag="0"/>
      <vel value="0.0309671806" flag="0"/>
      <psa03 value="0.1849523695" flag="0"/>
      <psa10 value="0.0221328930" flag="0"/>
      <psa30 value="0.0016837544" flag="0"/>
    </comp>
    <comp name="--.HNE">
      <acc value="0.1563728633" flag="0"/>
      <vel value="0.0833080479" flag="0"/>
      <psa03 value="0.4696614733" flag="0"/>
      <psa10 value="0.0733556288" flag="0"/>
      <psa30 value="0.0056082997" flag="0"/>
    </comp>
  </station>
  <station code="DYBB" name="DYBB" netid="KO" insttype="CMG-3T" lat="37.9532" lon="40.1393">
    <comp name="--.HHE">
      <acc value="0.0244849602" flag="0"/>
      <vel value="0.0098433283" flag="0"/>
      <psa03 value="0.0384239555" flag="0"/>
      <psa10 value="0.0183843428" flag="0"/>
      <psa30 value="0.0016626302" flag="0"/>
    </comp>
    <comp name="--.HHN">
      <acc value="0.0280465083" flag="0"/>
      <vel value="0.0109419258" flag="0"/>
      <psa03 value="0.0512787006" flag="0"/>
      <psa10 value="0.0100165631" flag="0"/>
      <psa30 value="0.0033290239" flag="0"/>
    </comp>
    <comp name="--.HHZ">
      <acc value="0.0250163441" flag="0"/>
      <vel value="0.0070313166" flag="0"/>
      <psa03 value="0.0243725928" flag="0"/>
      <psa10 value="0.0089875081" flag="0"/>
      <psa30 value="0.0010320517" flag="0"/>
    </comp>
  </station>
  <station code="SVRC" name="SVRC" netid="KO" insttype="CMG-3T" lat="38.3775" lon="39.306">
    <comp name="--.HHE">
      <acc value="0.1417364988" flag="0"/>
      <vel value="0.0599638870" flag="0"/>
      <psa03 value="0.1648686720" flag="0"/>
      <psa10 value="0.0277537185" flag="0"/>
      <psa30 value="0.0024793339" flag="0"/>
    </comp>
    <comp name="--.HHN">
      <acc value="0.1571143836" flag="0"/>
      <vel value="0.0465532328" flag="0"/>
      <psa03 value="0.1205094296" flag="0"/>
      <psa10 value="0.0164705093" flag="0"/>
      <psa30 value="0.0023188863" flag="0"/>
    </comp>
    <comp name="--.HHZ">
      <acc value="0.1237675625" flag="0"/>
      <vel value="0.0325536358" flag="0"/>
      <psa03 value="0.1066213898" flag="0"/>
      <psa10 value="0.0275883581" flag="0"/>
      <psa30 value="0.0027294849" flag="0"/>
    </comp>
  </station>
  <station code="URFA" name="URFA" netid="KO" insttype="CMG-3ESP" lat="37.4409" lon="38.8213">
    <comp name="--.HHN">
      <acc value="0.0825025037" flag="0"/>
      <vel value="0.0217655244" flag="0"/>
      <psa03 value="0.0777319015" flag="0"/>
      <psa10 value="0.0113961506" flag="0"/>
      <psa30 value="0.0016549161" flag="0"/>
    </comp>
  </station>
</stationlist>
