<?xml version="1.0" encoding="UTF-8" standalone="yes"?>
<!DOCTYPE earthquake SYSTEM "stationlist.dtd">
<stationlist created="" xmlns="ch.ethz.sed.shakemap.usgs.xml">
  <station code="BNN" name="BNN" netid="KO" insttype="CMG-3T" lat="38.8521" lon="35.8472">
    <comp name="--.HHE">
      <acc value="0.1140442732" flag="0"/>
      <vel value="0.0845266702" flag="0"/>
      <psa03 value="0.3100807427" flag="0"/>
      <psa10 value="0.1175457635" flag="0"/>
      <psa30 value="0.0207404806" flag="0"/>
    </comp>
    <comp name="--.HHZ">
      <acc value="0.0694789012" flag="0"/>
      <vel value="0.0474477131" flag="0"/>
      <psa03 value="0.1729977542" flag="0"/>
      <psa10 value="0.0573063866" flag="0"/>
      <psa30 value="0.0216872107" flag="0"/>
    </comp>
    <comp name="--.HHN">
      <acc value="0.1383861338" flag="0"/>
      <vel value="0.1041159285" flag="0"/>
      <psa03 value="0.4466649021" flag="0"/>
      <psa10 value="0.1327504367" flag="0"/>
      <psa30 value="0.0153056239" flag="0"/>
    </comp>
  </station>
  <station code="CMRD" name="CMRD" netid="KO" insttype="CMG-5T" lat="37.6623" lon="34.9902">
    <comp name="--.HNE">
      <acc value="0.0125834946" flag="0"/>
      <vel value="0.0099616659" flag="0"/>
      <psa03 value="0.0210849774" flag="0"/>
      <psa10 value="0.0110986555" flag="0"/>
      <psa30 value="0.0043099353" flag="0"/>
    </comp>
    <comp name="--.HNN">
      <acc value="0.0081945670" flag="0"/>
      <vel value="0.0055817014" flag="0"/>
      <psa03 value="0.0177577123" flag="0"/>
      <psa10 value="0.0092403566" flag="0"/>
      <psa30 value="0.0021462005" flag="0"/>
    </comp>
    <comp name="--.HNZ">
      <acc value="0.0087019222" flag="0"/>
      <vel value="0.0058592621" flag="0"/>
      <psa03 value="0.0130411207" flag="0"/>
      <psa10 value="0.0077755706" flag="0"/>
      <psa30 value="0.0023545667" flag="0"/>
    </comp>
  </station>
  <station code="GULA" name="GULA" netid="KO" insttype="CMG-6T" lat="38.3444" lon="34.236">
    <comp name="--.HHE">
      <acc value="0.0358245297" flag="0"/>
      <vel value="0.0112696930" flag="0"/>
      <psa03 value="0.0553752187" flag="0"/>
      <psa10 value="0.0089346647" flag="0"/>
      <psa30 value="0.0013669924" flag="0"/>
    </comp>
    <comp name="--.HHN">
      <acc value="0.0299020675" flag="0"/>
      <vel value="0.0116967762" flag="0"/>
      <psa03 value="0.0575244539" flag="0"/>
      <psa10 value="0.0100996028" flag="0"/>
      <psa30 value="0.0022115291" flag="0"/>
    </comp>
    <comp name="--.HHZ">
      <acc value="0.0181685282" flag="0"/>
      <vel value="0.0057084307" flag="0"/>
      <psa03 value="0.0362934990" flag="0"/>
      <psa10 value="0.0050537703" flag="0"/>
      <psa30 value="0.0021266134" flag="0"/>
    </comp>
  </station>
  <station code="KOZK" name="KOZK" netid="KO" insttype="CMG-5T" lat="39.2101" lon="34.868">
    <comp name="--.HNE">
      <acc value="0.2051787932" flag="0"/>
      <vel value="0.1171196964" flag="0"/>
      <psa03 value="0.4723021431" flag="0"/>
      <psa10 value="0.1809580995" flag="0"/>
      <psa30 value="0.0379247621" flag="0"/>
    </comp>
    <comp name="--.HNN">
      <acc value="0.2526546416" flag="0"/>
      <vel value="0.1293699452" flag="0"/>
      <psa03 value="0.5411508492" flag="0"/>
      <psa10 value="0.1332740483" flag="0"/>
      <psa30 value="0.0552617773" flag="0"/>
    </comp>
    <comp name="--.HNZ">
      <acc value="0.1346019758" flag="0"/>
      <vel value="0.0670446361" flag="0"/>
      <psa03 value="0.2868983917" flag="0"/>
      <psa10 value="0.0454727150" flag="0"/>
      <psa30 value="0.0142370390" flag="0"/>
    </comp>
  </station>
  <station code="SARI" name="SARI" netid="KO" insttype="CMG-3T" lat="38.4072" lon="36.4181">
    <comp name="--.HHE">
      <acc value="0.0352398183" flag="0"/>
      <vel value="0.0217642929" flag="0"/>
      <psa03 value="0.1009848434" flag="0"/>
      <psa10 value="0.0261397955" flag="0"/>
      <psa30 value="0.0045092938" flag="0"/>
    </comp>
    <comp name="--.HHN">
      <acc value="0.0357565704" flag="0"/>
      <vel value="0.0193837331" flag="0"/>
      <psa03 value="0.0820562829" flag="0"/>
      <psa10 value="0.0237289081" flag="0"/>
      <psa30 value="0.0032089178" flag="0"/>
    </comp>
    <comp name="--.HHZ">
      <acc value="0.0172545530" flag="0"/>
      <vel value="0.0127483908" flag="0"/>
      <psa03 value="0.0615585510" flag="0"/>
      <psa10 value="0.0205377724" flag="0"/>
      <psa30 value="0.0035110996" flag="0"/>
    </comp>
  </station>
  <station code="YOZ" name="YOZ" netid="KO" insttype="CMG-3T" lat="39.6376" lon="35.3152">
    <comp name="--.HHE">
      <acc value="0.1979194853" flag="0"/>
      <vel value="0.0751564562" flag="0"/>
      <psa03 value="0.4784123023" flag="0"/>
      <psa10 value="0.0432544514" flag="0"/>
      <psa30 value="0.0040576150" flag="0"/>
    </comp>
    <comp name="--.HHN">
      <acc value="0.2269787033" flag="0"/>
      <vel value="0.0776085811" flag="0"/>
      <psa03 value="0.5369757527" flag="0"/>
      <psa10 value="0.0275423838" flag="0"/>
      <psa30 value="0.0136534456" flag="0"/>
    </comp>
    <comp name="--.HHZ">
      <acc value="0.1445111494" flag="0"/>
      <vel value="0.0400031598" flag="0"/>
      <psa03 value="0.2139912480" flag="0"/>
      <psa10 value="0.0155842813" flag="0"/>
      <psa30 value="0.0140605581" flag="0"/>
    </comp>
  </station>
</stationlist>
