<?xml version="1.0" encoding="UTF-8" standalone="yes"?>
<!DOCTYPE earthquake SYSTEM "stationlist.dtd">
<stationlist created="" xmlns="ch.ethz.sed.shakemap.usgs.xml">
  <station code="APE" name="APE" netid="GE" insttype="STS-2/N" lat="37.0727" lon="25.523">
    <comp name="--.HHE">
      <acc value="0.2561438728" flag="0"/>
      <vel value="0.0508039970" flag="0"/>
      <psa03 value="0.1891022073" flag="0"/>
      <psa10 value="0.0176903764" flag="0"/>
      <psa30 value="0.0049475215" flag="0"/>
    </comp>
    <comp name="--.HHN">
      <acc value="0.2726199261" flag="0"/>
      <vel value="0.0419108118" flag="0"/>
      <psa03 value="0.1196607813" flag="0"/>
      <psa10 value="0.0170115341" flag="0"/>
      <psa30 value="0.0034320710" flag="0"/>
    </comp>
    <comp name="--.HHZ">
      <acc value="0.1498920404" flag="0"/>
      <vel value="0.0233140087" flag="0"/>
      <psa03 value="0.0982265258" flag="0"/>
      <psa10 value="0.0264436609" flag="0"/>
      <psa30 value="0.0038424785" flag="0"/>
    </comp>
  </station>
  <station code="THERA" name="THERA" netid="GE" insttype="STS-2/N" lat="36.367" lon="25.4753">
    <comp name="--.HHE">
      <acc value="0.5573132591" flag="0"/>
      <vel value="0.1611942810" flag="0"/>
      <psa03 value="0.7497551678" flag="0"/>
      <psa10 value="0.1520377840" flag="0"/>
      <psa30 value="0.0112095517" flag="0"/>
    </comp>
    <comp name="--.HHN">
      <acc value="0.5038820947" flag="0"/>
      <vel value="0.1475895136" flag="0"/>
      <psa03 value="0.3845979602" flag="0"/>
      <psa10 value="0.0461002983" flag="0"/>
      <psa30 value="0.0033420614" flag="0"/>
    </comp>
    <comp name="--.HHZ">
      <acc value="0.5486860836" flag="0"/>
      <vel value="0.1186938909" flag="0"/>
      <psa03 value="0.5035677161" flag="0"/>
      <psa10 value="0.0972195895" flag="0"/>
      <psa30 value="0.0067368766" flag="0"/>
    </comp>
  </station>
</stationlist>
