<?xml version="1.0" encoding="UTF-8" standalone="yes"?>
<!DOCTYPE earthquake SYSTEM "stationlist.dtd">
<stationlist created="" xmlns="ch.ethz.sed.shakemap.usgs.xml">
  <station code="APE" name="APE" netid="GE" insttype="STS-2/N" lat="37.0727" lon="25.523">
    <comp name="--.HHN">
      <acc value="0.2726199262" flag="0"/>
      <vel value="0.0419108056" flag="0"/>
      <psa03 value="0.1196607813" flag="0"/>
      <psa10 value="0.0170115347" flag="0"/>
      <psa30 value="0.0034327933" flag="0"/>
    </comp>
    <comp name="--.HHE">
      <acc value="0.2561438726" flag="0"/>
      <vel value="0.0508040008" flag="0"/>
      <psa03 value="0.1891022073" flag="0"/>
      <psa10 value="0.0176903767" flag="0"/>
      <psa30 value="0.0049475200" flag="0"/>
    </comp>
    <comp name="--.HHZ">
      <acc value="0.1498920402" flag="0"/>
      <vel value="0.0233140141" flag="0"/>
      <psa03 value="0.0982265258" flag="0"/>
      <psa10 value="0.0264436569" flag="0"/>
      <psa30 value="0.0038411517" flag="0"/>
    </comp>
  </station>
  <station code="THERA" name="THERA" netid="GE" insttype="STS-2/N" lat="36.367" lon="25.4753">
    <comp name="--.HHE">
      <acc value="0.5573132592" flag="0"/>
      <vel value="0.1611942797" flag="0"/>
      <psa03 value="0.7497551678" flag="0"/>
      <psa10 value="0.1520377704" flag="0"/>
      <psa30 value="0.0112093094" flag="0"/>
    </comp>
    <comp name="--.HHZ">
      <acc value="0.5486860832" flag="0"/>
      <vel value="0.1186938912" flag="0"/>
      <psa03 value="0.5035677161" flag="0"/>
      <psa10 value="0.0972195965" flag="0"/>
      <psa30 value="0.0067360791" flag="0"/>
    </comp>
    <comp name="--.HHN">
      <acc value="0.5038820942" flag="0"/>
      <vel value="0.1475895137" flag="0"/>
      <psa03 value="0.3845979602" flag="0"/>
      <psa10 value="0.0461002987" flag="0"/>
      <psa30 value="0.0033424142" flag="0"/>
    </comp>
  </station>
  <station code="SNT1" name="SNT1" netid="HA" insttype="30" lat="36.4159" lon="25.4282">
    <comp name="--.HHE">
      <acc value="0.8183280323" flag="0"/>
      <vel value="0.1911204306" flag="0"/>
      <psa03 value="0.5922072334" flag="0"/>
      <psa10 value="0.2862646603" flag="0"/>
      <psa30 value="0.0201309155" flag="0"/>
    </comp>
    <comp name="--.HHN">
      <acc value="0.4363666987" flag="0"/>
      <vel value="0.2209741953" flag="0"/>
      <psa03 value="0.5737897933" flag="0"/>
      <psa10 value="0.3245378229" flag="0"/>
      <psa30 value="0.0154601064" flag="0"/>
    </comp>
    <comp name="--.HHZ">
      <acc value="0.3960001205" flag="0"/>
      <vel value="0.1182301579" flag="0"/>
      <psa03 value="0.8066715956" flag="0"/>
      <psa10 value="0.0946336048" flag="0"/>
      <psa30 value="0.0089301521" flag="0"/>
    </comp>
  </station>
  <station code="KNSS" name="KNSS" netid="HC" insttype="60" lat="35.3042" lon="25.1802">
    <comp name="--.HHN">
      <acc value="0.0806434754" flag="0"/>
      <vel value="0.0332732147" flag="0"/>
      <psa03 value="0.2778390766" flag="0"/>
      <psa10 value="0.0200438926" flag="0"/>
      <psa30 value="0.0026844930" flag="0"/>
    </comp>
    <comp name="--.HHZ">
      <acc value="0.0627069815" flag="0"/>
      <vel value="0.0400596907" flag="0"/>
      <psa03 value="0.1906331402" flag="0"/>
      <psa10 value="0.0225510753" flag="0"/>
      <psa30 value="0.0017459452" flag="0"/>
    </comp>
    <comp name="--.HHE">
      <acc value="0.0703527056" flag="0"/>
      <vel value="0.0400504349" flag="0"/>
      <psa03 value="0.2596713625" flag="0"/>
      <psa10 value="0.0364781413" flag="0"/>
      <psa30 value="0.0035128548" flag="0"/>
    </comp>
  </station>
  <station code="NAX1" name="NAX1" netid="HI" insttype="CMG-5TD,ACCELEROMETER,GURALP" lat="37.1014" lon="25.3741">
    <comp name="--.HNZ">
      <acc value="0.1506818440" flag="0"/>
      <vel value="0.0338237381" flag="0"/>
      <psa03 value="0.1481892279" flag="0"/>
      <psa10 value="0.0253139409" flag="0"/>
      <psa30 value="0.0028237018" flag="0"/>
    </comp>
    <comp name="--.HNN">
      <acc value="0.2738192436" flag="0"/>
      <vel value="0.0422285867" flag="0"/>
      <psa03 value="0.1417439742" flag="0"/>
      <psa10 value="0.0151445614" flag="0"/>
      <psa30 value="0.0030930036" flag="0"/>
    </comp>
    <comp name="--.HNE">
      <acc value="0.2996913434" flag="0"/>
      <vel value="0.0495018732" flag="0"/>
      <psa03 value="0.3576464839" flag="0"/>
      <psa10 value="0.0185030631" flag="0"/>
      <psa30 value="0.0030254544" flag="0"/>
    </comp>
  </station>
  <station code="APE" name="APE" netid="HL" insttype="120" lat="37.0727" lon="25.523">
    <comp name="--.HHE">
      <acc value="0.2120390023" flag="0"/>
      <vel value="0.0489357093" flag="0"/>
      <psa03 value="0.1826744165" flag="0"/>
      <psa10 value="0.0175613711" flag="0"/>
      <psa30 value="0.0049388154" flag="0"/>
    </comp>
    <comp name="--.HHN">
      <acc value="0.2390821280" flag="0"/>
      <vel value="0.0401171117" flag="0"/>
      <psa03 value="0.1162847136" flag="0"/>
      <psa10 value="0.0168679116" flag="0"/>
      <psa30 value="0.0034156330" flag="0"/>
    </comp>
    <comp name="--.HHZ">
      <acc value="0.1379564286" flag="0"/>
      <vel value="0.0211178655" flag="0"/>
      <psa03 value="0.0951900786" flag="0"/>
      <psa10 value="0.0262998338" flag="0"/>
      <psa30 value="0.0038325842" flag="0"/>
    </comp>
  </station>
  <station code="MHLO" name="MHLO" netid="HL" insttype="20" lat="36.6898" lon="24.4017">
    <comp name="--.HHE">
      <acc value="0.2793826868" flag="0"/>
      <vel value="0.1303094143" flag="0"/>
      <psa03 value="0.6103998097" flag="0"/>
      <psa10 value="0.1506202821" flag="0"/>
      <psa30 value="0.0112005484" flag="0"/>
    </comp>
    <comp name="--.HHN">
      <acc value="0.3349288703" flag="0"/>
      <vel value="0.1284765758" flag="0"/>
      <psa03 value="0.7501867506" flag="0"/>
      <psa10 value="0.1670810190" flag="0"/>
      <psa30 value="0.0094156791" flag="0"/>
    </comp>
    <comp name="--.HHZ">
      <acc value="0.1506535630" flag="0"/>
      <vel value="0.0761156432" flag="0"/>
      <psa03 value="0.3387567119" flag="0"/>
      <psa10 value="0.0909996526" flag="0"/>
      <psa30 value="0.0071771154" flag="0"/>
    </comp>
  </station>
  <station code="NISR" name="NISR" netid="HL" insttype="65535" lat="36.6106" lon="27.131">
    <comp name="--.HHE">
      <acc value="0.0000000000" flag="0"/>
      <vel value="-100.0000000000" flag="0"/>
      <psa03 value="0.0000000000" flag="0"/>
      <psa10 value="0.0000000000" flag="0"/>
      <psa30 value="0.0000000000" flag="0"/>
    </comp>
    <comp name="--.HHN">
      <acc value="0.0513406625" flag="0"/>
      <vel value="0.0324498280" flag="0"/>
      <psa03 value="0.0905415134" flag="0"/>
      <psa10 value="0.0351688337" flag="0"/>
      <psa30 value="0.0094876072" flag="0"/>
    </comp>
    <comp name="--.HHZ">
      <acc value="0.0324462049" flag="0"/>
      <vel value="0.0286384075" flag="0"/>
      <psa03 value="0.0549291206" flag="0"/>
      <psa10 value="0.0529011980" flag="0"/>
      <psa30 value="0.0029237317" flag="0"/>
    </comp>
  </station>
  <station code="NISR2" name="NISR2" netid="HL" insttype="120" lat="36.5744" lon="27.1767">
    <comp name="--.HHE">
      <acc value="0.1007598603" flag="0"/>
      <vel value="0.0988569529" flag="0"/>
      <psa03 value="0.1882064200" flag="0"/>
      <psa10 value="0.1398058097" flag="0"/>
      <psa30 value="0.0117610975" flag="0"/>
    </comp>
    <comp name="--.HHN">
      <acc value="0.0779262498" flag="0"/>
      <vel value="0.0853122611" flag="0"/>
      <psa03 value="0.2304907754" flag="0"/>
      <psa10 value="0.1025954265" flag="0"/>
      <psa30 value="0.0108281543" flag="0"/>
    </comp>
    <comp name="--.HHZ">
      <acc value="0.0309171716" flag="0"/>
      <vel value="0.0197799689" flag="0"/>
      <psa03 value="0.0794882689" flag="0"/>
      <psa10 value="0.0236650816" flag="0"/>
      <psa30 value="0.0027682810" flag="0"/>
    </comp>
  </station>
  <station code="NPS" name="NPS" netid="HL" insttype="CMG3ESPC-120s" lat="35.2613" lon="25.6104">
    <comp name="--.HHN">
      <acc value="0.0978856736" flag="0"/>
      <vel value="0.0417023822" flag="0"/>
      <psa03 value="0.2688899682" flag="0"/>
      <psa10 value="0.0497239987" flag="0"/>
      <psa30 value="0.0021295649" flag="0"/>
    </comp>
    <comp name="--.HHE">
      <acc value="0.0587263959" flag="0"/>
      <vel value="0.0273532092" flag="0"/>
      <psa03 value="0.2238366165" flag="0"/>
      <psa10 value="0.0312349370" flag="0"/>
      <psa30 value="0.0017071111" flag="0"/>
    </comp>
    <comp name="--.HHZ">
      <acc value="0.0780529166" flag="0"/>
      <vel value="0.0350762642" flag="0"/>
      <psa03 value="0.2091413955" flag="0"/>
      <psa10 value="0.0244486397" flag="0"/>
      <psa30 value="0.0015345519" flag="0"/>
    </comp>
  </station>
  <station code="SAP3" name="SAP3" netid="HL" insttype="LE3D20_SMART24" lat="36.4356" lon="25.3454">
    <comp name="--.HHE">
      <acc value="2.3544303453" flag="0"/>
      <vel value="0.9082522496" flag="0"/>
      <psa03 value="3.1998991271" flag="0"/>
      <psa10 value="0.5141494832" flag="0"/>
      <psa30 value="0.0695290205" flag="0"/>
    </comp>
    <comp name="--.HHN">
      <acc value="1.6306766004" flag="0"/>
      <vel value="0.5139271106" flag="0"/>
      <psa03 value="1.9364728548" flag="0"/>
      <psa10 value="0.3858517457" flag="0"/>
      <psa30 value="0.0591906400" flag="0"/>
    </comp>
    <comp name="--.HHZ">
      <acc value="2.0679863495" flag="0"/>
      <vel value="0.4349854485" flag="0"/>
      <psa03 value="1.9835864559" flag="0"/>
      <psa10 value="0.1712755988" flag="0"/>
      <psa30 value="0.0208371571" flag="0"/>
    </comp>
  </station>
  <station code="THERA" name="THERA" netid="HL" insttype="120" lat="36.367" lon="25.4753">
    <comp name="--.HHE">
      <acc value="0.5529976878" flag="0"/>
      <vel value="0.1581556382" flag="0"/>
      <psa03 value="0.7280866313" flag="0"/>
      <psa10 value="0.1511099341" flag="0"/>
      <psa30 value="0.0111694944" flag="0"/>
    </comp>
    <comp name="--.HHZ">
      <acc value="0.5419745311" flag="0"/>
      <vel value="0.1177425832" flag="0"/>
      <psa03 value="0.4877596153" flag="0"/>
      <psa10 value="0.0966676811" flag="0"/>
      <psa30 value="0.0066609972" flag="0"/>
    </comp>
    <comp name="--.HHN">
      <acc value="0.5175063505" flag="0"/>
      <vel value="0.1449018642" flag="0"/>
      <psa03 value="0.3735213506" flag="0"/>
      <psa10 value="0.0456960070" flag="0"/>
      <psa30 value="0.0033157073" flag="0"/>
    </comp>
  </station>
  <station code="THRA" name="THRA" netid="HL" insttype="CMG-5" lat="36.415" lon="25.4324">
    <comp name="00.HNE">
      <acc value="1.4893330381" flag="0"/>
      <vel value="0.6495215564" flag="0"/>
      <psa03 value="4.0681303668" flag="0"/>
      <psa10 value="0.4294712654" flag="0"/>
      <psa30 value="0.0431794378" flag="0"/>
    </comp>
    <comp name="00.HNZ">
      <acc value="1.3268709959" flag="0"/>
      <vel value="0.3907836316" flag="0"/>
      <psa03 value="2.9856068448" flag="0"/>
      <psa10 value="0.2258802762" flag="0"/>
      <psa30 value="0.0161143506" flag="0"/>
    </comp>
    <comp name="00.HNN">
      <acc value="1.3049430769" flag="0"/>
      <vel value="0.5317949142" flag="0"/>
      <psa03 value="3.0580559314" flag="0"/>
      <psa10 value="1.0629442587" flag="0"/>
      <psa30 value="0.0365902193" flag="0"/>
    </comp>
  </station>
  <station code="CMBO" name="CMBO" netid="HT" insttype="120P," lat="36.4709" lon="25.4056">
    <comp name="--.HHE">
      <acc value="1.6214437413" flag="0"/>
      <vel value="0.5239376595" flag="0"/>
      <psa03 value="2.3786837436" flag="0"/>
      <psa10 value="0.5163337697" flag="0"/>
      <psa30 value="0.0543327110" flag="0"/>
    </comp>
    <comp name="--.HHN">
      <acc value="2.4985249998" flag="0"/>
      <vel value="1.1145001444" flag="0"/>
      <psa03 value="3.1936805622" flag="0"/>
      <psa10 value="0.8331164515" flag="0"/>
      <psa30 value="0.0485946012" flag="0"/>
    </comp>
    <comp name="--.HHZ">
      <acc value="2.0686703888" flag="0"/>
      <vel value="0.5031006746" flag="0"/>
      <psa03 value="2.7341820445" flag="0"/>
      <psa10 value="0.2670932610" flag="0"/>
      <psa30 value="0.0289010703" flag="0"/>
    </comp>
  </station>
</stationlist>
