<?xml version="1.0" encoding="UTF-8" standalone="yes"?>
<!DOCTYPE earthquake SYSTEM "stationlist.dtd">
<stationlist created="" xmlns="ch.ethz.sed.shakemap.usgs.xml">
  <station code="ARPRA" name="ARPRA" netid="KO" insttype="CMG-5T" lat="39.0929" lon="38.3356">
    <comp name="--.HNE">
      <acc value="0.0147203151" flag="0"/>
      <vel value="0.0082096755" flag="0"/>
      <psa03 value="0.0409017705" flag="0"/>
      <psa10 value="0.0134416540" flag="0"/>
      <psa30 value="0.0007399095" flag="0"/>
    </comp>
    <comp name="--.HNZ">
      <acc value="0.0059288553" flag="0"/>
      <vel value="0.0035799856" flag="0"/>
      <psa03 value="0.0159308020" flag="0"/>
      <psa10 value="0.0046744334" flag="0"/>
      <psa30 value="0.0003534693" flag="0"/>
    </comp>
    <comp name="--.HNN">
      <acc value="0.0162578770" flag="0"/>
      <vel value="0.0086407250" flag="0"/>
      <psa03 value="0.0441235059" flag="0"/>
      <psa10 value="0.0093815495" flag="0"/>
      <psa30 value="0.0004558241" flag="0"/>
    </comp>
  </station>
</stationlist>
