<?xml version="1.0" encoding="UTF-8" standalone="yes"?>
<!DOCTYPE earthquake SYSTEM "stationlist.dtd">
<stationlist created="" xmlns="ch.ethz.sed.shakemap.usgs.xml">
  <station code="ARTB" name="ARTB" netid="HL" insttype="CMG-5" commtype="DIG" lat="39.157" lon="20.9785">
    <comp name="00.HNE">
      <acc value="0.2125579701" flag="0"/>
      <vel value="0.0752580638" flag="0"/>
      <psa03 value="0.5299763929" flag="0"/>
      <psa10 value="0.0184091626" flag="0"/>
      <psa30 value="0.0017719219" flag="0"/>
    </comp>
    <comp name="00.HNN">
      <acc value="0.1350391736" flag="0"/>
      <vel value="0.0418033447" flag="0"/>
      <psa03 value="0.2816808500" flag="0"/>
      <psa10 value="0.0122402262" flag="0"/>
      <psa30 value="0.0011772117" flag="0"/>
    </comp>
    <comp name="00.HNZ">
      <acc value="0.1561793799" flag="0"/>
      <vel value="0.0330686321" flag="0"/>
      <psa03 value="0.2177910759" flag="0"/>
      <psa10 value="0.0088075217" flag="0"/>
      <psa30 value="0.0009664514" flag="0"/>
    </comp>
  </station>
  <station code="JAN" name="JAN" netid="HL" insttype="CMG3EPSC60_DR24" commtype="DIG" lat="39.6562" lon="20.8487">
    <comp name="--.HHE">
      <acc value="0.4376495307" flag="0"/>
      <vel value="0.1032258345" flag="0"/>
      <psa03 value="0.4731610936" flag="0"/>
      <psa10 value="0.0280967194" flag="0"/>
      <psa30 value="0.0041918945" flag="0"/>
    </comp>
    <comp name="--.HHN">
      <acc value="0.3401384000" flag="0"/>
      <vel value="0.0779508081" flag="0"/>
      <psa03 value="0.5330464192" flag="0"/>
      <psa10 value="0.0464778884" flag="0"/>
      <psa30 value="0.0030465607" flag="0"/>
    </comp>
    <comp name="--.HHZ">
      <acc value="0.1496479245" flag="0"/>
      <vel value="0.0396215036" flag="0"/>
      <psa03 value="0.1424508433" flag="0"/>
      <psa10 value="0.0265558865" flag="0"/>
      <psa30 value="0.0027715980" flag="0"/>
    </comp>
  </station>
  <station code="KEK" name="KEK" netid="HL" insttype="120" commtype="DIG" lat="39.7127" lon="19.7962">
    <comp name="--.HHN">
      <acc value="0.0249384358" flag="0"/>
      <vel value="0.0158984913" flag="0"/>
      <psa03 value="0.0758057986" flag="0"/>
      <psa10 value="0.0126383256" flag="0"/>
      <psa30 value="0.0016270244" flag="0"/>
    </comp>
    <comp name="--.HHZ">
      <acc value="0.0222374301" flag="0"/>
      <vel value="0.0119738889" flag="0"/>
      <psa03 value="0.0610244505" flag="0"/>
      <psa10 value="0.0099984416" flag="0"/>
      <psa30 value="0.0006382871" flag="0"/>
    </comp>
    <comp name="--.HHE">
      <acc value="0.0315506393" flag="0"/>
      <vel value="0.0166756758" flag="0"/>
      <psa03 value="0.0885365260" flag="0"/>
      <psa10 value="0.0168222500" flag="0"/>
      <psa30 value="0.0008512576" flag="0"/>
    </comp>
  </station>
  <station code="PENT" name="PENT" netid="HL" insttype="Horizon,120s,1200" commtype="DIG" lat="40.1961" lon="21.1381">
    <comp name="--.HHE">
      <acc value="0.0074330583" flag="0"/>
      <vel value="0.0038370129" flag="0"/>
      <psa03 value="0.0208114283" flag="0"/>
      <psa10 value="0.0036502918" flag="0"/>
      <psa30 value="0.0005499178" flag="0"/>
    </comp>
    <comp name="--.HHZ">
      <acc value="0.0057411207" flag="0"/>
      <vel value="0.0027479143" flag="0"/>
      <psa03 value="0.0139205030" flag="0"/>
      <psa10 value="0.0038892510" flag="0"/>
      <psa30 value="0.0003354620" flag="0"/>
    </comp>
    <comp name="--.HHN">
      <acc value="0.0092583166" flag="0"/>
      <vel value="0.0052878122" flag="0"/>
      <psa03 value="0.0227530027" flag="0"/>
      <psa10 value="0.0034596776" flag="0"/>
      <psa30 value="0.0005363007" flag="0"/>
    </comp>
  </station>
  <station code="PRGA" name="PRGA" netid="HL" insttype="CMG-5" commtype="DIG" lat="39.2856" lon="20.4016">
    <comp name="00.HNE">
      <acc value="0.2944873403" flag="0"/>
      <vel value="0.1207697968" flag="0"/>
      <psa03 value="0.8397722672" flag="0"/>
      <psa10 value="0.0486446426" flag="0"/>
      <psa30 value="0.0033237385" flag="0"/>
    </comp>
    <comp name="00.HNN">
      <acc value="0.2866058397" flag="0"/>
      <vel value="0.1481369338" flag="0"/>
      <psa03 value="1.1266617755" flag="0"/>
      <psa10 value="0.0571617629" flag="0"/>
      <psa30 value="0.0046436520" flag="0"/>
    </comp>
    <comp name="00.HNZ">
      <acc value="0.0792341653" flag="0"/>
      <vel value="0.0275420862" flag="0"/>
      <psa03 value="0.1693305438" flag="0"/>
      <psa10 value="0.0191081556" flag="0"/>
      <psa30 value="0.0015013029" flag="0"/>
    </comp>
  </station>
  <station code="TETR" name="TETR" netid="HL" insttype="60" commtype="DIG" lat="39.3445" lon="21.2747">
    <comp name="--.HHN">
      <acc value="0.1858757860" flag="0"/>
      <vel value="0.0598658996" flag="0"/>
      <psa03 value="0.2864590389" flag="0"/>
      <psa10 value="0.0265216257" flag="0"/>
      <psa30 value="0.0029340523" flag="0"/>
    </comp>
    <comp name="--.HHE">
      <acc value="0.2045687178" flag="0"/>
      <vel value="0.0703759991" flag="0"/>
      <psa03 value="0.4416250238" flag="0"/>
      <psa10 value="0.0389502678" flag="0"/>
      <psa30 value="0.0034275089" flag="0"/>
    </comp>
    <comp name="--.HHZ">
      <acc value="0.1037711498" flag="0"/>
      <vel value="0.0297641303" flag="0"/>
      <psa03 value="0.1141464246" flag="0"/>
      <psa10 value="0.0259251623" flag="0"/>
      <psa30 value="0.0015655160" flag="0"/>
    </comp>
  </station>
  <station code="THL" name="THL" netid="HL" insttype="120" commtype="DIG" lat="39.5647" lon="22.0144">
    <comp name="--.HHE">
      <acc value="0.0046270043" flag="0"/>
      <vel value="0.0022430268" flag="0"/>
      <psa03 value="0.0105968464" flag="0"/>
      <psa10 value="0.0023904761" flag="0"/>
      <psa30 value="0.0002496117" flag="0"/>
    </comp>
    <comp name="--.HHN">
      <acc value="0.0034435225" flag="0"/>
      <vel value="0.0019895630" flag="0"/>
      <psa03 value="0.0091463995" flag="0"/>
      <psa10 value="0.0025358857" flag="0"/>
      <psa30 value="0.0004936510" flag="0"/>
    </comp>
    <comp name="--.HHZ">
      <acc value="0.0021124853" flag="0"/>
      <vel value="0.0013669492" flag="0"/>
      <psa03 value="0.0050038979" flag="0"/>
      <psa10 value="0.0022883455" flag="0"/>
      <psa30 value="0.0002539882" flag="0"/>
    </comp>
  </station>
  <station code="AMPL" name="AMPL" netid="HP" insttype="Compact," commtype="DIG" lat="38.9224" lon="21.2135">
    <comp name="--.HHE">
      <acc value="0.0393701910" flag="0"/>
      <vel value="0.0135673021" flag="0"/>
      <psa03 value="0.1042445940" flag="0"/>
      <psa10 value="0.0076990536" flag="0"/>
      <psa30 value="0.0006068192" flag="0"/>
    </comp>
    <comp name="--.HHN">
      <acc value="0.0271582509" flag="0"/>
      <vel value="0.0109516377" flag="0"/>
      <psa03 value="0.0547390423" flag="0"/>
      <psa10 value="0.0069457475" flag="0"/>
      <psa30 value="0.0006279534" flag="0"/>
    </comp>
    <comp name="--.HHZ">
      <acc value="0.0203135082" flag="0"/>
      <vel value="0.0098946376" flag="0"/>
      <psa03 value="0.0548157371" flag="0"/>
      <psa10 value="0.0069798914" flag="0"/>
      <psa30 value="0.0003205442" flag="0"/>
    </comp>
  </station>
  <station code="KSTR" name="KSTR" netid="HP" insttype="Compact," commtype="DIG" lat="39.2492" lon="20.576">
    <comp name="--.HHE">
      <acc value="0.1707006857" flag="0"/>
      <vel value="0.0643139012" flag="0"/>
      <psa03 value="0.3584423650" flag="0"/>
      <psa10 value="0.0418527356" flag="0"/>
      <psa30 value="0.0024291695" flag="0"/>
    </comp>
    <comp name="--.HHN">
      <acc value="0.1185494991" flag="0"/>
      <vel value="0.0513910828" flag="0"/>
      <psa03 value="0.3891192132" flag="0"/>
      <psa10 value="0.0241618257" flag="0"/>
      <psa30 value="0.0021167871" flag="0"/>
    </comp>
    <comp name="--.HHZ">
      <acc value="0.0849620022" flag="0"/>
      <vel value="0.0384648813" flag="0"/>
      <psa03 value="0.1450438683" flag="0"/>
      <psa10 value="0.0237773920" flag="0"/>
      <psa30 value="0.0012790919" flag="0"/>
    </comp>
  </station>
  <station code="PDO" name="PDO" netid="HP" insttype="120s" commtype="DIG" lat="38.5986" lon="21.1833">
    <comp name="--.HHE">
      <acc value="0.0208099723" flag="0"/>
      <vel value="0.0098788030" flag="0"/>
      <psa03 value="0.0494800006" flag="0"/>
      <psa10 value="0.0102787354" flag="0"/>
      <psa30 value="0.0004387216" flag="0"/>
    </comp>
    <comp name="--.HHN">
      <acc value="0.0190803375" flag="0"/>
      <vel value="0.0084458892" flag="0"/>
      <psa03 value="0.0862864874" flag="0"/>
      <psa10 value="0.0082184795" flag="0"/>
      <psa30 value="0.0004602003" flag="0"/>
    </comp>
    <comp name="--.HHZ">
      <acc value="0.0118119201" flag="0"/>
      <vel value="0.0049856402" flag="0"/>
      <psa03 value="0.0349186788" flag="0"/>
      <psa10 value="0.0041125376" flag="0"/>
      <psa30 value="0.0002577499" flag="0"/>
    </comp>
  </station>
  <station code="PRMD" name="PRMD" netid="HP" insttype="120P," commtype="DIG" lat="39.5299" lon="21.0965">
    <comp name="--.HHE">
      <acc value="0.1627407645" flag="0"/>
      <vel value="0.0784321766" flag="0"/>
      <psa03 value="0.5842701177" flag="0"/>
      <psa10 value="0.0783015550" flag="0"/>
      <psa30 value="0.0031083887" flag="0"/>
    </comp>
    <comp name="--.HHN">
      <acc value="0.1856726973" flag="0"/>
      <vel value="0.1222420942" flag="0"/>
      <psa03 value="0.5138593879" flag="0"/>
      <psa10 value="0.0644794728" flag="0"/>
      <psa30 value="0.0066636481" flag="0"/>
    </comp>
    <comp name="--.HHZ">
      <acc value="0.0703664737" flag="0"/>
      <vel value="0.0280855850" flag="0"/>
      <psa03 value="0.1482013799" flag="0"/>
      <psa10 value="0.0285349912" flag="0"/>
      <psa30 value="0.0015614025" flag="0"/>
    </comp>
  </station>
  <station code="EVGI" name="EVGI" netid="HT" insttype="30" commtype="DIG" lat="38.621" lon="20.656">
    <comp name="--.HHE">
      <acc value="0.0263226234" flag="0"/>
      <vel value="0.0092655017" flag="0"/>
      <psa03 value="0.0358170847" flag="0"/>
      <psa10 value="0.0048971944" flag="0"/>
      <psa30 value="0.0003861475" flag="0"/>
    </comp>
    <comp name="--.HHN">
      <acc value="0.0283990825" flag="0"/>
      <vel value="0.0092503204" flag="0"/>
      <psa03 value="0.0688252835" flag="0"/>
      <psa10 value="0.0060314932" flag="0"/>
      <psa30 value="0.0004233233" flag="0"/>
    </comp>
    <comp name="--.HHZ">
      <acc value="0.0210609015" flag="0"/>
      <vel value="0.0074516687" flag="0"/>
      <psa03 value="0.0401442376" flag="0"/>
      <psa10 value="0.0054266303" flag="0"/>
      <psa30 value="0.0002214656" flag="0"/>
    </comp>
  </station>
  <station code="IGT" name="IGT" netid="HT" insttype="Compact," commtype="DIG" lat="39.5315" lon="20.3299">
    <comp name="--.HHE">
      <acc value="0.6880435046" flag="0"/>
      <vel value="0.1883720293" flag="0"/>
      <psa03 value="0.7073918697" flag="0"/>
      <psa10 value="0.1106404386" flag="0"/>
      <psa30 value="0.0075388930" flag="0"/>
    </comp>
    <comp name="--.HHN">
      <acc value="0.6817727664" flag="0"/>
      <vel value="0.2145012313" flag="0"/>
      <psa03 value="0.6435332821" flag="0"/>
      <psa10 value="0.1347564318" flag="0"/>
      <psa30 value="0.0079457684" flag="0"/>
    </comp>
    <comp name="--.HHZ">
      <acc value="0.4712321392" flag="0"/>
      <vel value="0.1030421850" flag="0"/>
      <psa03 value="0.5662011733" flag="0"/>
      <psa10 value="0.0794872352" flag="0"/>
      <psa30 value="0.0032529274" flag="0"/>
    </comp>
  </station>
  <station code="KPRO" name="KPRO" netid="HT" insttype="100" commtype="DIG" lat="39.9549" lon="21.3632">
    <comp name="--.HHN">
      <acc value="0.0153839382" flag="0"/>
      <vel value="0.0088510816" flag="0"/>
      <psa03 value="0.0440133033" flag="0"/>
      <psa10 value="0.0083956869" flag="0"/>
      <psa30 value="0.0017131370" flag="0"/>
    </comp>
    <comp name="--.HHE">
      <acc value="0.0185497019" flag="0"/>
      <vel value="0.0091479674" flag="0"/>
      <psa03 value="0.0617234081" flag="0"/>
      <psa10 value="0.0132440442" flag="0"/>
      <psa30 value="0.0014844609" flag="0"/>
    </comp>
    <comp name="--.HHZ">
      <acc value="0.0073690366" flag="0"/>
      <vel value="0.0049097553" flag="0"/>
      <psa03 value="0.0194965406" flag="0"/>
      <psa10 value="0.0085551616" flag="0"/>
      <psa30 value="0.0008944421" flag="0"/>
    </comp>
  </station>
  <station code="LKD2" name="LKD2" netid="HT" insttype="100" commtype="DIG" lat="38.7889" lon="20.6578">
    <comp name="--.HHN">
      <acc value="0.0146414477" flag="0"/>
      <vel value="0.0070625488" flag="0"/>
      <psa03 value="0.0495603653" flag="0"/>
      <psa10 value="0.0056801439" flag="0"/>
      <psa30 value="0.0004775126" flag="0"/>
    </comp>
    <comp name="--.HHZ">
      <acc value="0.0100337949" flag="0"/>
      <vel value="0.0046750886" flag="0"/>
      <psa03 value="0.0293996208" flag="0"/>
      <psa10 value="0.0066872694" flag="0"/>
      <psa30 value="0.0004694117" flag="0"/>
    </comp>
    <comp name="--.HHE">
      <acc value="0.0263181533" flag="0"/>
      <vel value="0.0085409057" flag="0"/>
      <psa03 value="0.0401284264" flag="0"/>
      <psa10 value="0.0068934073" flag="0"/>
      <psa30 value="0.0004688654" flag="0"/>
    </comp>
  </station>
  <station code="NYDR" name="NYDR" netid="HT" insttype="1s-100Hz," commtype="DIG" lat="38.7135" lon="20.6983">
    <comp name="--.HHZ">
      <acc value="0.0095783623" flag="0"/>
      <vel value="0.0046368249" flag="0"/>
      <psa03 value="0.0266714713" flag="0"/>
      <psa10 value="0.0045589706" flag="0"/>
      <psa30 value="0.0002351199" flag="0"/>
    </comp>
    <comp name="--.HHN">
      <acc value="0.0152365336" flag="0"/>
      <vel value="0.0068499062" flag="0"/>
      <psa03 value="0.0311738463" flag="0"/>
      <psa10 value="0.0058375087" flag="0"/>
      <psa30 value="0.0005361084" flag="0"/>
    </comp>
    <comp name="--.HHE">
      <acc value="0.0171715822" flag="0"/>
      <vel value="0.0082201314" flag="0"/>
      <psa03 value="0.0489590990" flag="0"/>
      <psa10 value="0.0101013817" flag="0"/>
      <psa30 value="0.0005016126" flag="0"/>
    </comp>
  </station>
  <station code="TSLK" name="TSLK" netid="HT" insttype="1s-100Hz," commtype="DIG" lat="38.8249" lon="20.6554">
    <comp name="--.HHE">
      <acc value="0.0253535170" flag="0"/>
      <vel value="0.0118659656" flag="0"/>
      <psa03 value="0.0478162146" flag="0"/>
      <psa10 value="0.0090556202" flag="0"/>
      <psa30 value="0.0009628154" flag="0"/>
    </comp>
    <comp name="--.HHN">
      <acc value="0.0256169801" flag="0"/>
      <vel value="0.0115454886" flag="0"/>
      <psa03 value="0.0815791253" flag="0"/>
      <psa10 value="0.0122537576" flag="0"/>
      <psa30 value="0.0007860921" flag="0"/>
    </comp>
    <comp name="--.HHZ">
      <acc value="0.0173635485" flag="0"/>
      <vel value="0.0054820104" flag="0"/>
      <psa03 value="0.0326113672" flag="0"/>
      <psa10 value="0.0042144233" flag="0"/>
      <psa30 value="0.0005762455" flag="0"/>
    </comp>
  </station>
  <station code="KEK" name="KEK" netid="MN" insttype="" commtype="DIG" lat="39.7127" lon="19.7962">
    <comp name="--.HHE">
      <acc value="0.0315506175" flag="0"/>
      <vel value="0.0166756642" flag="0"/>
      <psa03 value="0.0885364647" flag="0"/>
      <psa10 value="0.0168222383" flag="0"/>
      <psa30 value="0.0008512570" flag="0"/>
    </comp>
    <comp name="--.HHZ">
      <acc value="0.0222374147" flag="0"/>
      <vel value="0.0119738806" flag="0"/>
      <psa03 value="0.0610244083" flag="0"/>
      <psa10 value="0.0099984347" flag="0"/>
      <psa30 value="0.0006382867" flag="0"/>
    </comp>
    <comp name="--.HHN">
      <acc value="0.0249384185" flag="0"/>
      <vel value="0.0158984802" flag="0"/>
      <psa03 value="0.0758057460" flag="0"/>
      <psa10 value="0.0126383168" flag="0"/>
      <psa30 value="0.0016270233" flag="0"/>
    </comp>
  </station>
  <station code="THL" name="THL" netid="MN" insttype="" commtype="DIG" lat="39.5647" lon="22.0144">
    <comp name="--.HHN">
      <acc value="0.0034435225" flag="0"/>
      <vel value="0.0019895630" flag="0"/>
      <psa03 value="0.0091463995" flag="0"/>
      <psa10 value="0.0025358857" flag="0"/>
      <psa30 value="0.0004936510" flag="0"/>
    </comp>
    <comp name="--.HHE">
      <acc value="0.0046270043" flag="0"/>
      <vel value="0.0022430268" flag="0"/>
      <psa03 value="0.0105968464" flag="0"/>
      <psa10 value="0.0023904761" flag="0"/>
      <psa30 value="0.0002496117" flag="0"/>
    </comp>
    <comp name="--.HHZ">
      <acc value="0.0021124853" flag="0"/>
      <vel value="0.0013669492" flag="0"/>
      <psa03 value="0.0050038979" flag="0"/>
      <psa10 value="0.0022883455" flag="0"/>
      <psa30 value="0.0002539882" flag="0"/>
    </comp>
  </station>
</stationlist>
