<?xml version="1.0" encoding="UTF-8" standalone="yes"?>
<!DOCTYPE earthquake SYSTEM "stationlist.dtd">
<stationlist created="" xmlns="ch.ethz.sed.shakemap.usgs.xml">
  <station code="ARTB" name="ARTB" netid="HL" insttype="CMG-5" commtype="DIG" lat="39.157" lon="20.9785">
    <comp name="00.HNN">
      <acc value="0.1350391735" flag="0"/>
      <vel value="0.0418033480" flag="0"/>
      <psa03 value="0.2816808500" flag="0"/>
      <psa10 value="0.0122402253" flag="0"/>
      <psa30 value="0.0011771779" flag="0"/>
    </comp>
    <comp name="00.HNE">
      <acc value="0.2125579673" flag="0"/>
      <vel value="0.0752580616" flag="0"/>
      <psa03 value="0.5299763929" flag="0"/>
      <psa10 value="0.0184091648" flag="0"/>
      <psa30 value="0.0017721132" flag="0"/>
    </comp>
    <comp name="00.HNZ">
      <acc value="0.1561793819" flag="0"/>
      <vel value="0.0330686333" flag="0"/>
      <psa03 value="0.2177910759" flag="0"/>
      <psa10 value="0.0088075213" flag="0"/>
      <psa30 value="0.0009663196" flag="0"/>
    </comp>
  </station>
  <station code="EVR" name="EVR" netid="HL" insttype="DR24" commtype="DIG" lat="38.9166" lon="21.8105">
    <comp name="--.HHE">
      <acc value="0.0088326657" flag="0"/>
      <vel value="0.0056666208" flag="0"/>
      <psa03 value="0.0362654380" flag="0"/>
      <psa10 value="0.0045899039" flag="0"/>
      <psa30 value="0.0004486010" flag="0"/>
    </comp>
    <comp name="--.HHN">
      <acc value="0.0077727649" flag="0"/>
      <vel value="0.0059552288" flag="0"/>
      <psa03 value="0.0226369637" flag="0"/>
      <psa10 value="0.0050622106" flag="0"/>
      <psa30 value="0.0005125722" flag="0"/>
    </comp>
    <comp name="--.HHZ">
      <acc value="0.0065532174" flag="0"/>
      <vel value="0.0048309951" flag="0"/>
      <psa03 value="0.0160028730" flag="0"/>
      <psa10 value="0.0051130915" flag="0"/>
      <psa30 value="0.0005518636" flag="0"/>
    </comp>
  </station>
  <station code="JAN" name="JAN" netid="HL" insttype="CMG3EPSC60_DR24" commtype="DIG" lat="39.6562" lon="20.8487">
    <comp name="--.HHE">
      <acc value="0.4376495311" flag="0"/>
      <vel value="0.1032258328" flag="0"/>
      <psa03 value="0.4731610936" flag="0"/>
      <psa10 value="0.0280967211" flag="0"/>
      <psa30 value="0.0041913279" flag="0"/>
    </comp>
    <comp name="--.HHN">
      <acc value="0.3401383997" flag="0"/>
      <vel value="0.0779508074" flag="0"/>
      <psa03 value="0.5330464192" flag="0"/>
      <psa10 value="0.0464778851" flag="0"/>
      <psa30 value="0.0030464138" flag="0"/>
    </comp>
    <comp name="--.HHZ">
      <acc value="0.1496479247" flag="0"/>
      <vel value="0.0396215092" flag="0"/>
      <psa03 value="0.1424508433" flag="0"/>
      <psa10 value="0.0265558869" flag="0"/>
      <psa30 value="0.0027718849" flag="0"/>
    </comp>
  </station>
  <station code="KEK" name="KEK" netid="HL" insttype="120" commtype="DIG" lat="39.7127" lon="19.7962">
    <comp name="--.HHE">
      <acc value="0.0315506393" flag="0"/>
      <vel value="0.0166756758" flag="0"/>
      <psa03 value="0.0885365260" flag="0"/>
      <psa10 value="0.0168222500" flag="0"/>
      <psa30 value="0.0008512621" flag="0"/>
    </comp>
    <comp name="--.HHN">
      <acc value="0.0249384358" flag="0"/>
      <vel value="0.0158984925" flag="0"/>
      <psa03 value="0.0758057986" flag="0"/>
      <psa10 value="0.0126383256" flag="0"/>
      <psa30 value="0.0016270426" flag="0"/>
    </comp>
    <comp name="--.HHZ">
      <acc value="0.0222374301" flag="0"/>
      <vel value="0.0119738895" flag="0"/>
      <psa03 value="0.0610244505" flag="0"/>
      <psa10 value="0.0099984416" flag="0"/>
      <psa30 value="0.0006382878" flag="0"/>
    </comp>
  </station>
  <station code="PENT" name="PENT" netid="HL" insttype="Horizon,120s,1200" commtype="DIG" lat="40.1961" lon="21.1381">
    <comp name="--.HHE">
      <acc value="0.0074330583" flag="0"/>
      <vel value="0.0038370129" flag="0"/>
      <psa03 value="0.0208114283" flag="0"/>
      <psa10 value="0.0036502918" flag="0"/>
      <psa30 value="0.0005499266" flag="0"/>
    </comp>
    <comp name="--.HHN">
      <acc value="0.0092583165" flag="0"/>
      <vel value="0.0052878142" flag="0"/>
      <psa03 value="0.0227530027" flag="0"/>
      <psa10 value="0.0034596776" flag="0"/>
      <psa30 value="0.0005363296" flag="0"/>
    </comp>
    <comp name="--.HHZ">
      <acc value="0.0057411213" flag="0"/>
      <vel value="0.0027479173" flag="0"/>
      <psa03 value="0.0139205030" flag="0"/>
      <psa10 value="0.0038892510" flag="0"/>
      <psa30 value="0.0003355207" flag="0"/>
    </comp>
  </station>
  <station code="PRGA" name="PRGA" netid="HL" insttype="CMG-5" commtype="DIG" lat="39.2856" lon="20.4016">
    <comp name="00.HNE">
      <acc value="0.2944873402" flag="0"/>
      <vel value="0.1207697977" flag="0"/>
      <psa03 value="0.8397722672" flag="0"/>
      <psa10 value="0.0486446428" flag="0"/>
      <psa30 value="0.0033239108" flag="0"/>
    </comp>
    <comp name="00.HNN">
      <acc value="0.2866058402" flag="0"/>
      <vel value="0.1481369349" flag="0"/>
      <psa03 value="1.1266617755" flag="0"/>
      <psa10 value="0.0571617652" flag="0"/>
      <psa30 value="0.0046440694" flag="0"/>
    </comp>
    <comp name="00.HNZ">
      <acc value="0.0792341650" flag="0"/>
      <vel value="0.0275420852" flag="0"/>
      <psa03 value="0.1693305438" flag="0"/>
      <psa10 value="0.0191081557" flag="0"/>
      <psa30 value="0.0015011902" flag="0"/>
    </comp>
  </station>
  <station code="TETR" name="TETR" netid="HL" insttype="60" commtype="DIG" lat="39.3445" lon="21.2747">
    <comp name="--.HHE">
      <acc value="0.2045687175" flag="0"/>
      <vel value="0.0703759989" flag="0"/>
      <psa03 value="0.4416250238" flag="0"/>
      <psa10 value="0.0389502677" flag="0"/>
      <psa30 value="0.0034274033" flag="0"/>
    </comp>
    <comp name="--.HHN">
      <acc value="0.1858757860" flag="0"/>
      <vel value="0.0598659027" flag="0"/>
      <psa03 value="0.2864590389" flag="0"/>
      <psa10 value="0.0265216255" flag="0"/>
      <psa30 value="0.0029341162" flag="0"/>
    </comp>
    <comp name="--.HHZ">
      <acc value="0.1037711501" flag="0"/>
      <vel value="0.0297641276" flag="0"/>
      <psa03 value="0.1141464246" flag="0"/>
      <psa10 value="0.0259251623" flag="0"/>
      <psa30 value="0.0015657234" flag="0"/>
    </comp>
  </station>
  <station code="THL" name="THL" netid="HL" insttype="120" commtype="DIG" lat="39.5647" lon="22.0144">
    <comp name="--.HHE">
      <acc value="0.0046270041" flag="0"/>
      <vel value="0.0022430275" flag="0"/>
      <psa03 value="0.0105968464" flag="0"/>
      <psa10 value="0.0023904761" flag="0"/>
      <psa30 value="0.0002496012" flag="0"/>
    </comp>
    <comp name="--.HHN">
      <acc value="0.0034435223" flag="0"/>
      <vel value="0.0019895611" flag="0"/>
      <psa03 value="0.0091463995" flag="0"/>
      <psa10 value="0.0025358856" flag="0"/>
      <psa30 value="0.0004938132" flag="0"/>
    </comp>
    <comp name="--.HHZ">
      <acc value="0.0021124856" flag="0"/>
      <vel value="0.0013669486" flag="0"/>
      <psa03 value="0.0050038979" flag="0"/>
      <psa10 value="0.0022883455" flag="0"/>
      <psa30 value="0.0002539694" flag="0"/>
    </comp>
  </station>
  <station code="AMPL" name="AMPL" netid="HP" insttype="Compact," commtype="DIG" lat="38.9224" lon="21.2135">
    <comp name="--.HHE">
      <acc value="0.0393701908" flag="0"/>
      <vel value="0.0135673035" flag="0"/>
      <psa03 value="0.1042445940" flag="0"/>
      <psa10 value="0.0076990536" flag="0"/>
      <psa30 value="0.0006068175" flag="0"/>
    </comp>
    <comp name="--.HHN">
      <acc value="0.0271582506" flag="0"/>
      <vel value="0.0109516370" flag="0"/>
      <psa03 value="0.0547390423" flag="0"/>
      <psa10 value="0.0069457475" flag="0"/>
      <psa30 value="0.0006280006" flag="0"/>
    </comp>
    <comp name="--.HHZ">
      <acc value="0.0203135084" flag="0"/>
      <vel value="0.0098946399" flag="0"/>
      <psa03 value="0.0548157371" flag="0"/>
      <psa10 value="0.0069798914" flag="0"/>
      <psa30 value="0.0003206795" flag="0"/>
    </comp>
  </station>
  <station code="KSTR" name="KSTR" netid="HP" insttype="Compact," commtype="DIG" lat="39.2492" lon="20.576">
    <comp name="--.HHN">
      <acc value="0.1185494994" flag="0"/>
      <vel value="0.0513910819" flag="0"/>
      <psa03 value="0.3891192132" flag="0"/>
      <psa10 value="0.0241618254" flag="0"/>
      <psa30 value="0.0021167000" flag="0"/>
    </comp>
    <comp name="--.HHE">
      <acc value="0.1707006859" flag="0"/>
      <vel value="0.0643138988" flag="0"/>
      <psa03 value="0.3584423650" flag="0"/>
      <psa10 value="0.0418527367" flag="0"/>
      <psa30 value="0.0024288627" flag="0"/>
    </comp>
    <comp name="--.HHZ">
      <acc value="0.0849620022" flag="0"/>
      <vel value="0.0384648823" flag="0"/>
      <psa03 value="0.1450438683" flag="0"/>
      <psa10 value="0.0237773916" flag="0"/>
      <psa30 value="0.0012789345" flag="0"/>
    </comp>
  </station>
  <station code="PDO" name="PDO" netid="HP" insttype="120s" commtype="DIG" lat="38.5986" lon="21.1833">
    <comp name="--.HHN">
      <acc value="0.0190803374" flag="0"/>
      <vel value="0.0084458912" flag="0"/>
      <psa03 value="0.0862864874" flag="0"/>
      <psa10 value="0.0082184795" flag="0"/>
      <psa30 value="0.0004601669" flag="0"/>
    </comp>
    <comp name="--.HHE">
      <acc value="0.0208099719" flag="0"/>
      <vel value="0.0098788010" flag="0"/>
      <psa03 value="0.0494800006" flag="0"/>
      <psa10 value="0.0102787354" flag="0"/>
      <psa30 value="0.0004387070" flag="0"/>
    </comp>
    <comp name="--.HHZ">
      <acc value="0.0118119204" flag="0"/>
      <vel value="0.0049856381" flag="0"/>
      <psa03 value="0.0349186788" flag="0"/>
      <psa10 value="0.0041125376" flag="0"/>
      <psa30 value="0.0002578042" flag="0"/>
    </comp>
  </station>
  <station code="PRMD" name="PRMD" netid="HP" insttype="120P," commtype="DIG" lat="39.5299" lon="21.0965">
    <comp name="--.HHN">
      <acc value="0.1856726973" flag="0"/>
      <vel value="0.1222420947" flag="0"/>
      <psa03 value="0.5138593879" flag="0"/>
      <psa10 value="0.0644794714" flag="0"/>
      <psa30 value="0.0066641548" flag="0"/>
    </comp>
    <comp name="--.HHZ">
      <acc value="0.0703664737" flag="0"/>
      <vel value="0.0280855843" flag="0"/>
      <psa03 value="0.1482013799" flag="0"/>
      <psa10 value="0.0285349913" flag="0"/>
      <psa30 value="0.0015612537" flag="0"/>
    </comp>
    <comp name="--.HHE">
      <acc value="0.1627407645" flag="0"/>
      <vel value="0.0784321776" flag="0"/>
      <psa03 value="0.5842701177" flag="0"/>
      <psa10 value="0.0783015562" flag="0"/>
      <psa30 value="0.0031089152" flag="0"/>
    </comp>
  </station>
  <station code="EVGI" name="EVGI" netid="HT" insttype="30" commtype="DIG" lat="38.621" lon="20.656">
    <comp name="--.HHZ">
      <acc value="0.0210609016" flag="0"/>
      <vel value="0.0074516697" flag="0"/>
      <psa03 value="0.0401442376" flag="0"/>
      <psa10 value="0.0054266303" flag="0"/>
      <psa30 value="0.0002214238" flag="0"/>
    </comp>
    <comp name="--.HHE">
      <acc value="0.0263226235" flag="0"/>
      <vel value="0.0092655100" flag="0"/>
      <psa03 value="0.0358170847" flag="0"/>
      <psa10 value="0.0048971943" flag="0"/>
      <psa30 value="0.0003862973" flag="0"/>
    </comp>
    <comp name="--.HHN">
      <acc value="0.0283990827" flag="0"/>
      <vel value="0.0092503098" flag="0"/>
      <psa03 value="0.0688252835" flag="0"/>
      <psa10 value="0.0060314932" flag="0"/>
      <psa30 value="0.0004233136" flag="0"/>
    </comp>
  </station>
  <station code="IGT" name="IGT" netid="HT" insttype="Compact," commtype="DIG" lat="39.5315" lon="20.3299">
    <comp name="--.HHE">
      <acc value="0.6880435046" flag="0"/>
      <vel value="0.1883720272" flag="0"/>
      <psa03 value="0.7073918697" flag="0"/>
      <psa10 value="0.1106404392" flag="0"/>
      <psa30 value="0.0075389430" flag="0"/>
    </comp>
    <comp name="--.HHN">
      <acc value="0.6817727664" flag="0"/>
      <vel value="0.2145012312" flag="0"/>
      <psa03 value="0.6435332821" flag="0"/>
      <psa10 value="0.1347564321" flag="0"/>
      <psa30 value="0.0079457635" flag="0"/>
    </comp>
    <comp name="--.HHZ">
      <acc value="0.4712321391" flag="0"/>
      <vel value="0.1030421851" flag="0"/>
      <psa03 value="0.5662011733" flag="0"/>
      <psa10 value="0.0794872352" flag="0"/>
      <psa30 value="0.0032529820" flag="0"/>
    </comp>
  </station>
  <station code="KPRO" name="KPRO" netid="HT" insttype="100" commtype="DIG" lat="39.9549" lon="21.3632">
    <comp name="--.HHN">
      <acc value="0.0153839380" flag="0"/>
      <vel value="0.0088510812" flag="0"/>
      <psa03 value="0.0440133033" flag="0"/>
      <psa10 value="0.0083956869" flag="0"/>
      <psa30 value="0.0017130740" flag="0"/>
    </comp>
    <comp name="--.HHZ">
      <acc value="0.0073690367" flag="0"/>
      <vel value="0.0049097532" flag="0"/>
      <psa03 value="0.0194965406" flag="0"/>
      <psa10 value="0.0085551616" flag="0"/>
      <psa30 value="0.0008944628" flag="0"/>
    </comp>
    <comp name="--.HHE">
      <acc value="0.0185497018" flag="0"/>
      <vel value="0.0091479654" flag="0"/>
      <psa03 value="0.0617234081" flag="0"/>
      <psa10 value="0.0132440441" flag="0"/>
      <psa30 value="0.0014844669" flag="0"/>
    </comp>
  </station>
  <station code="LKD2" name="LKD2" netid="HT" insttype="100" commtype="DIG" lat="38.7889" lon="20.6578">
    <comp name="--.HHN">
      <acc value="0.0146414478" flag="0"/>
      <vel value="0.0070625491" flag="0"/>
      <psa03 value="0.0495603653" flag="0"/>
      <psa10 value="0.0056801439" flag="0"/>
      <psa30 value="0.0004774425" flag="0"/>
    </comp>
    <comp name="--.HHE">
      <acc value="0.0263181533" flag="0"/>
      <vel value="0.0085409065" flag="0"/>
      <psa03 value="0.0401284264" flag="0"/>
      <psa10 value="0.0068934073" flag="0"/>
      <psa30 value="0.0004688730" flag="0"/>
    </comp>
    <comp name="--.HHZ">
      <acc value="0.0100337949" flag="0"/>
      <vel value="0.0046750872" flag="0"/>
      <psa03 value="0.0293996208" flag="0"/>
      <psa10 value="0.0066872694" flag="0"/>
      <psa30 value="0.0004694107" flag="0"/>
    </comp>
  </station>
  <station code="NYDR" name="NYDR" netid="HT" insttype="1s-100Hz," commtype="DIG" lat="38.7135" lon="20.6983">
    <comp name="--.HHN">
      <acc value="0.0152365329" flag="0"/>
      <vel value="0.0068501869" flag="0"/>
      <psa03 value="0.0311738456" flag="0"/>
      <psa10 value="0.0058375094" flag="0"/>
      <psa30 value="0.0005361133" flag="0"/>
    </comp>
    <comp name="--.HHZ">
      <acc value="0.0095783623" flag="0"/>
      <vel value="0.0046369314" flag="0"/>
      <psa03 value="0.0266714710" flag="0"/>
      <psa10 value="0.0045589704" flag="0"/>
      <psa30 value="0.0002350941" flag="0"/>
    </comp>
    <comp name="--.HHE">
      <acc value="0.0171715812" flag="0"/>
      <vel value="0.0082196368" flag="0"/>
      <psa03 value="0.0489591000" flag="0"/>
      <psa10 value="0.0101013806" flag="0"/>
      <psa30 value="0.0005017273" flag="0"/>
    </comp>
  </station>
  <station code="TSLK" name="TSLK" netid="HT" insttype="1s-100Hz," commtype="DIG" lat="38.8249" lon="20.6554">
    <comp name="--.HHE">
      <acc value="0.0253535169" flag="0"/>
      <vel value="0.0118658665" flag="0"/>
      <psa03 value="0.0478162147" flag="0"/>
      <psa10 value="0.0090556204" flag="0"/>
      <psa30 value="0.0009628021" flag="0"/>
    </comp>
    <comp name="--.HHN">
      <acc value="0.0256169802" flag="0"/>
      <vel value="0.0115454314" flag="0"/>
      <psa03 value="0.0815791254" flag="0"/>
      <psa10 value="0.0122537576" flag="0"/>
      <psa30 value="0.0007860950" flag="0"/>
    </comp>
    <comp name="--.HHZ">
      <acc value="0.0173635481" flag="0"/>
      <vel value="0.0054819121" flag="0"/>
      <psa03 value="0.0326113669" flag="0"/>
      <psa10 value="0.0042144236" flag="0"/>
      <psa30 value="0.0005761987" flag="0"/>
    </comp>
  </station>
  <station code="KEK" name="KEK" netid="MN" insttype="" commtype="DIG" lat="39.7127" lon="19.7962">
    <comp name="--.HHE">
      <acc value="0.0315506175" flag="0"/>
      <vel value="0.0166756642" flag="0"/>
      <psa03 value="0.0885364647" flag="0"/>
      <psa10 value="0.0168222383" flag="0"/>
      <psa30 value="0.0008512615" flag="0"/>
    </comp>
    <comp name="--.HHN">
      <acc value="0.0249384185" flag="0"/>
      <vel value="0.0158984815" flag="0"/>
      <psa03 value="0.0758057460" flag="0"/>
      <psa10 value="0.0126383168" flag="0"/>
      <psa30 value="0.0016270415" flag="0"/>
    </comp>
    <comp name="--.HHZ">
      <acc value="0.0222374147" flag="0"/>
      <vel value="0.0119738812" flag="0"/>
      <psa03 value="0.0610244083" flag="0"/>
      <psa10 value="0.0099984347" flag="0"/>
      <psa30 value="0.0006382874" flag="0"/>
    </comp>
  </station>
  <station code="THL" name="THL" netid="MN" insttype="" commtype="DIG" lat="39.5647" lon="22.0144">
    <comp name="--.HHE">
      <acc value="0.0046270041" flag="0"/>
      <vel value="0.0022430275" flag="0"/>
      <psa03 value="0.0105968464" flag="0"/>
      <psa10 value="0.0023904761" flag="0"/>
      <psa30 value="0.0002496012" flag="0"/>
    </comp>
    <comp name="--.HHZ">
      <acc value="0.0021124856" flag="0"/>
      <vel value="0.0013669486" flag="0"/>
      <psa03 value="0.0050038979" flag="0"/>
      <psa10 value="0.0022883455" flag="0"/>
      <psa30 value="0.0002539694" flag="0"/>
    </comp>
    <comp name="--.HHN">
      <acc value="0.0034435223" flag="0"/>
      <vel value="0.0019895611" flag="0"/>
      <psa03 value="0.0091463995" flag="0"/>
      <psa10 value="0.0025358856" flag="0"/>
      <psa30 value="0.0004938132" flag="0"/>
    </comp>
  </station>
</stationlist>
