<stationlist created="1775808277">
	<station code="SRN" name="SRN" netid="AC" source="Albanian Seismological Network (AC)" insttype="" lat="39.880001" lon="20.0005">
		<comp name="01.HNE" depth="0.0">
			<acc value="0.094800628430318" flag="0"/>
			<vel value="0.0504206726705569" flag="0"/>
			<psa03 value="0.235147889893659" flag="0"/>
			<psa10 value="0.0361854646094413" flag="0"/>
			<psa30 value="0.0040762229464318" flag="0"/>
		</comp>
		<comp name="01.HNN" depth="0.0">
			<acc value="0.106525475905952" flag="0"/>
			<vel value="0.0451683309250842" flag="0"/>
			<psa03 value="0.33707093346175" flag="0"/>
			<psa10 value="0.031221725786105" flag="0"/>
			<psa30 value="0.00541181475616778" flag="0"/>
		</comp>
		<comp name="01.HNZ" depth="0.0">
			<acc value="0.0650041253369573" flag="0"/>
			<vel value="0.0482290408173288" flag="0"/>
			<psa03 value="0.141702751695192" flag="0"/>
			<psa10 value="0.071760823802393" flag="0"/>
			<psa30 value="0.00281463603915741" flag="0"/>
		</comp>
	</station>
	<station code="LXR2" name="LXR2" netid="HI" source="ITSAK Strong Motion Network" insttype="" lat="38.206718" lon="20.436386">
		<comp name="--.HNE" depth="0.0">
			<acc value="0.0156371567209491" flag="0"/>
			<vel value="0.0090891380869231" flag="0"/>
			<psa03 value="0.0659730422652712" flag="0"/>
			<psa10 value="0.0123487167918831" flag="0"/>
			<psa30 value="0.00207234311589423" flag="0"/>
		</comp>
		<comp name="--.HNN" depth="0.0">
			<acc value="0.0261563625022572" flag="0"/>
			<vel value="0.0133375681169155" flag="0"/>
			<psa03 value="0.0684387785248638" flag="0"/>
			<psa10 value="0.00978589733017143" flag="0"/>
			<psa30 value="0.00112334410353377" flag="0"/>
		</comp>
		<comp name="--.HNZ" depth="0.0">
			<acc value="0.0133053661515696" flag="0"/>
			<vel value="0.00562583776213184" flag="0"/>
			<psa03 value="0.0199561058482396" flag="0"/>
			<psa10 value="0.00647184779065395" flag="0"/>
			<psa30 value="0.000652412021177864" flag="0"/>
		</comp>
	</station>
	<station code="ARTB" name="ARTB" netid="HL" source="National Observatory of Athens Seismic Network" insttype="" lat="39.15702" lon="20.9785">
		<comp name="00.HNE" depth="0.0">
			<acc value="0.212156302070601" flag="0"/>
			<vel value="0.0753470118713753" flag="0"/>
			<psa03 value="0.533029852278405" flag="0"/>
			<psa10 value="0.0184277776248288" flag="0"/>
			<psa30 value="0.00174365936304203" flag="0"/>
		</comp>
		<comp name="00.HNN" depth="0.0">
			<acc value="0.133131748351763" flag="0"/>
			<vel value="0.0416891506139453" flag="0"/>
			<psa03 value="0.283275598951519" flag="0"/>
			<psa10 value="0.0122519903842333" flag="0"/>
			<psa30 value="0.00136938196483459" flag="0"/>
		</comp>
		<comp name="00.HNZ" depth="0.0">
			<acc value="0.154187128723645" flag="0"/>
			<vel value="0.033009580126309" flag="0"/>
			<psa03 value="0.21802860999205" flag="0"/>
			<psa10 value="0.00884705357388018" flag="0"/>
			<psa30 value="0.00104791243988959" flag="0"/>
		</comp>
	</station>
	<station code="JAN" name="JAN" netid="HL" source="National Observatory of Athens Seismic Network" insttype="" lat="39.65616" lon="20.84874">
		<comp name="00.HNE" depth="0.0">
			<acc value="0.447002247527301" flag="0"/>
			<vel value="0.105978412893916" flag="0"/>
			<psa03 value="0.477670018294429" flag="0"/>
			<psa10 value="0.0286708311768563" flag="0"/>
			<psa30 value="0.00401760239644139" flag="0"/>
		</comp>
		<comp name="00.HNN" depth="0.0">
			<acc value="0.361964836681131" flag="0"/>
			<vel value="0.0786920217645047" flag="0"/>
			<psa03 value="0.536594213399836" flag="0"/>
			<psa10 value="0.0462718402823283" flag="0"/>
			<psa30 value="0.00304866945938959" flag="0"/>
		</comp>
		<comp name="00.HNZ" depth="0.0">
			<acc value="0.150043109185086" flag="0"/>
			<vel value="0.0385883567311492" flag="0"/>
			<psa03 value="0.140704727247637" flag="0"/>
			<psa10 value="0.0261985492753137" flag="0"/>
			<psa30 value="0.0027617994139903" flag="0"/>
		</comp>
	</station>
	<station code="LARA" name="LARA" netid="HL" source="National Observatory of Athens Seismic Network" insttype="" lat="39.63704" lon="22.42969">
		<comp name="00.HNE" depth="0.0">
			<acc value="0.00967880389664061" flag="0"/>
			<vel value="0.00999211433706171" flag="0"/>
			<psa03 value="0.0218582006026821" flag="0"/>
			<psa10 value="0.0169458932072588" flag="0"/>
			<psa30 value="0.00135905680167654" flag="0"/>
		</comp>
		<comp name="00.HNN" depth="0.0">
			<acc value="0.012769793087849" flag="0"/>
			<vel value="0.01154915089761" flag="0"/>
			<psa03 value="0.0296100656881998" flag="0"/>
			<psa10 value="0.0197489901486743" flag="0"/>
			<psa30 value="0.00200930977357798" flag="0"/>
		</comp>
		<comp name="00.HNZ" depth="0.0">
			<acc value="0.0166174261525879" flag="0"/>
			<vel value="0.00400989764435217" flag="0"/>
			<psa03 value="0.0121926501511508" flag="0"/>
			<psa10 value="0.00557551638184708" flag="0"/>
			<psa30 value="0.000627456305484176" flag="0"/>
		</comp>
	</station>
	<station code="LXRA" name="LXRA" netid="HL" source="National Observatory of Athens Seismic Network" insttype="" lat="38.20006" lon="20.43718">
		<comp name="00.HNE" depth="0.0">
			<acc value="0.023382035948392" flag="0"/>
			<vel value="0.0118553290750149" flag="0"/>
			<psa03 value="0.0559397578177507" flag="0"/>
			<psa10 value="0.0106666037976526" flag="0"/>
			<psa30 value="0.00221755190193032" flag="0"/>
		</comp>
		<comp name="00.HNN" depth="0.0">
			<acc value="0.0202135254639299" flag="0"/>
			<vel value="0.0096666987329914" flag="0"/>
			<psa03 value="0.048537095552706" flag="0"/>
			<psa10 value="0.0121104597585239" flag="0"/>
			<psa30 value="0.00130846636697519" flag="0"/>
		</comp>
		<comp name="00.HNZ" depth="0.0">
			<acc value="0.0173136367851156" flag="0"/>
			<vel value="0.00425847031913819" flag="0"/>
			<psa03 value="0.0299351783711528" flag="0"/>
			<psa10 value="0.00749841454566334" flag="0"/>
			<psa30 value="0.000555609254302975" flag="0"/>
		</comp>
	</station>
	<station code="PRGA" name="PRGA" netid="HL" source="National Observatory of Athens Seismic Network" insttype="" lat="39.28557" lon="20.40157">
		<comp name="00.HNE" depth="0.0">
			<acc value="0.294235377255899" flag="0"/>
			<vel value="0.119557389838807" flag="0"/>
			<psa03 value="0.841650921909635" flag="0"/>
			<psa10 value="0.0486326591749936" flag="0"/>
			<psa30 value="0.0034647355633937" flag="0"/>
		</comp>
		<comp name="00.HNN" depth="0.0">
			<acc value="0.285026882866892" flag="0"/>
			<vel value="0.147032736359259" flag="0"/>
			<psa03 value="1.12933047926845" flag="0"/>
			<psa10 value="0.0572863349385429" flag="0"/>
			<psa30 value="0.00497269816684881" flag="0"/>
		</comp>
		<comp name="00.HNZ" depth="0.0">
			<acc value="0.0790200323581004" flag="0"/>
			<vel value="0.026813479632365" flag="0"/>
			<psa03 value="0.169687126356006" flag="0"/>
			<psa10 value="0.0192615966112445" flag="0"/>
			<psa30 value="0.00154013473470092" flag="0"/>
		</comp>
	</station>
	<station code="SMHA" name="SMHA" netid="HL" source="National Observatory of Athens Seismic Network" insttype="" lat="38.25123" lon="20.6477">
		<comp name="00.HNE" depth="0.0">
			<acc value="0.0104747109316744" flag="0"/>
			<vel value="0.0020822772721812" flag="0"/>
			<psa03 value="0.00564138868827243" flag="0"/>
			<psa10 value="0.000206743637157566" flag="0"/>
			<psa30 value="2.23286487597512e-05" flag="0"/>
		</comp>
		<comp name="00.HNN" depth="0.0">
			<acc value="0.00925367113167431" flag="0"/>
			<vel value="0.00176202894545938" flag="0"/>
			<psa03 value="0.00355400984977287" flag="0"/>
			<psa10 value="0.000182485155152188" flag="0"/>
			<psa30 value="1.94434966950865e-05" flag="0"/>
		</comp>
		<comp name="00.HNZ" depth="0.0">
			<acc value="0.0143071373926211" flag="0"/>
			<vel value="0.00144049067849043" flag="0"/>
			<psa03 value="0.00220571073339644" flag="0"/>
			<psa10 value="0.00012194740703051" flag="0"/>
			<psa30 value="1.32938428914321e-05" flag="0"/>
		</comp>
	</station>
	<station code="TRKA" name="TRKA" netid="HL" source="National Observatory of Athens Seismic Network" insttype="" lat="39.55381" lon="21.76624">
		<comp name="00.HNE" depth="0.0">
			<acc value="0.0124269271803017" flag="0"/>
			<vel value="0.00823830016542455" flag="0"/>
			<psa03 value="0.0516818247089124" flag="0"/>
			<psa10 value="0.0116078524007532" flag="0"/>
			<psa30 value="0.00145045879410996" flag="0"/>
		</comp>
		<comp name="00.HNN" depth="0.0">
			<acc value="0.0109603770478637" flag="0"/>
			<vel value="0.0103980586519957" flag="0"/>
			<psa03 value="0.0267128998068454" flag="0"/>
			<psa10 value="0.00866339922018058" flag="0"/>
			<psa30 value="0.00113661664944147" flag="0"/>
		</comp>
		<comp name="00.HNZ" depth="0.0">
			<acc value="0.00712989689679532" flag="0"/>
			<vel value="0.00594832935206192" flag="0"/>
			<psa03 value="0.0231901299823001" flag="0"/>
			<psa10 value="0.00573324667445487" flag="0"/>
			<psa30 value="0.000418126162347865" flag="0"/>
		</comp>
	</station>
	<station code="ANX" name="ANX" netid="HP" source="University of Patras, Seismological Laboratory (PSLNET)" insttype="" lat="38.5933" lon="21.9209">
		<comp name="--.HNE" depth="0.0">
			<acc value="0.0118816886268985" flag="0"/>
			<vel value="0.00773970590604718" flag="0"/>
			<psa03 value="0.0282787327022567" flag="0"/>
			<psa10 value="0.0101987874946185" flag="0"/>
			<psa30 value="0.000462733987189004" flag="0"/>
		</comp>
		<comp name="--.HNN" depth="0.0">
			<acc value="0.00904903864514367" flag="0"/>
			<vel value="0.00775915422864524" flag="0"/>
			<psa03 value="0.0245338257663846" flag="0"/>
			<psa10 value="0.00766084530590404" flag="0"/>
			<psa30 value="0.0004823250766692" flag="0"/>
		</comp>
		<comp name="--.HNZ" depth="0.0">
			<acc value="0.00645931619531441" flag="0"/>
			<vel value="0.00436927019462495" flag="0"/>
			<psa03 value="0.0141053914442075" flag="0"/>
			<psa10 value="0.00502896595681375" flag="0"/>
			<psa30 value="0.000316400907924001" flag="0"/>
		</comp>
	</station>
	<station code="FSK" name="FSK" netid="HP" source="University of Patras, Seismological Laboratory (PSLNET)" insttype="" lat="38.4593" lon="20.5623">
		<comp name="--.HNE" depth="0.0">
			<acc value="0.0361484481612731" flag="0"/>
			<vel value="0.0105255587582424" flag="0"/>
			<psa03 value="0.0607613532664526" flag="0"/>
			<psa10 value="0.00525448105233206" flag="0"/>
			<psa30 value="0.000494252168863857" flag="0"/>
		</comp>
		<comp name="--.HNN" depth="0.0">
			<acc value="0.0156550335162115" flag="0"/>
			<vel value="0.00559651596142433" flag="0"/>
			<psa03 value="0.0320644053594911" flag="0"/>
			<psa10 value="0.00479631179461731" flag="0"/>
			<psa30 value="0.00039723970059728" flag="0"/>
		</comp>
		<comp name="--.HNZ" depth="0.0">
			<acc value="0.00858170342897059" flag="0"/>
			<vel value="0.0037849673760765" flag="0"/>
			<psa03 value="0.0279442027287877" flag="0"/>
			<psa10 value="0.00328261237883487" flag="0"/>
			<psa30 value="0.000397204568061588" flag="0"/>
		</comp>
	</station>
	<station code="PDO" name="PDO" netid="HP" source="University of Patras, Seismological Laboratory (PSLNET)" insttype="" lat="38.5986" lon="21.1833">
		<comp name="--.HNE" depth="0.0">
			<acc value="0.0188915473868993" flag="0"/>
			<vel value="0.00947377681702053" flag="0"/>
			<psa03 value="0.0494809601624375" flag="0"/>
			<psa10 value="0.0094833526005679" flag="0"/>
			<psa30 value="0.000402252819150114" flag="0"/>
		</comp>
		<comp name="--.HNN" depth="0.0">
			<acc value="0.0204630010855765" flag="0"/>
			<vel value="0.00858460894391108" flag="0"/>
			<psa03 value="0.0886845936690892" flag="0"/>
			<psa10 value="0.00915128404015548" flag="0"/>
			<psa30 value="0.000477786807281126" flag="0"/>
		</comp>
		<comp name="--.HNZ" depth="0.0">
			<acc value="0.0112825698320342" flag="0"/>
			<vel value="0.00489632849210145" flag="0"/>
			<psa03 value="0.0316109456325097" flag="0"/>
			<psa10 value="0.00401291536719871" flag="0"/>
			<psa30 value="0.000258648306055896" flag="0"/>
		</comp>
	</station>
	<station code="PVO" name="PVO" netid="HP" source="University of Patras, Seismological Laboratory (PSLNET)" insttype="" lat="38.616" lon="21.525">
		<comp name="--.HNE" depth="0.0">
			<acc value="0.00916702665290407" flag="0"/>
			<vel value="0.00707721657313526" flag="0"/>
			<psa03 value="0.0373501799952862" flag="0"/>
			<psa10 value="0.00633536593690095" flag="0"/>
			<psa30 value="0.000717030260152399" flag="0"/>
		</comp>
		<comp name="--.HNN" depth="0.0">
			<acc value="0.00870381206317002" flag="0"/>
			<vel value="0.00495499535110746" flag="0"/>
			<psa03 value="0.0361660312387426" flag="0"/>
			<psa10 value="0.00478676225575723" flag="0"/>
			<psa30 value="0.00039254470207667" flag="0"/>
		</comp>
		<comp name="--.HNZ" depth="0.0">
			<acc value="0.00479906244610115" flag="0"/>
			<vel value="0.00309140214611083" flag="0"/>
			<psa03 value="0.0171585924017033" flag="0"/>
			<psa10 value="0.00476498503187303" flag="0"/>
			<psa30 value="0.000646638201190626" flag="0"/>
		</comp>
	</station>
	<station code="VVK" name="VVK" netid="HP" source="University of Patras, Seismological Laboratory (PSLNET)" insttype="" lat="38.4222" lon="21.8116">
		<comp name="--.HNE" depth="0.0">
			<acc value="0.00412410594036059" flag="0"/>
			<vel value="0.00251246821700276" flag="0"/>
			<psa03 value="0.00734829017357713" flag="0"/>
			<psa10 value="0.00295005019197212" flag="0"/>
			<psa30 value="0.000513177120465688" flag="0"/>
		</comp>
		<comp name="--.HNN" depth="0.0">
			<acc value="0.00349187962352604" flag="0"/>
			<vel value="0.00304195021928484" flag="0"/>
			<psa03 value="0.0107861487742123" flag="0"/>
			<psa10 value="0.00324903054482818" flag="0"/>
			<psa30 value="0.000309537849113371" flag="0"/>
		</comp>
		<comp name="--.HNZ" depth="0.0">
			<acc value="0.00213612613785815" flag="0"/>
			<vel value="0.00212308287842679" flag="0"/>
			<psa03 value="0.00696429077716835" flag="0"/>
			<psa10 value="0.00187012162075429" flag="0"/>
			<psa30 value="0.000316683713116791" flag="0"/>
		</comp>
	</station>
	<station code="CKWP" name="CKWP" netid="KF" source="ARGONET" insttype="" lat="38.166171" lon="20.510214">
		<comp name="00.HNE" depth="0.0">
			<acc value="0.00922518516057644" flag="0"/>
			<vel value="0.00493619997958428" flag="0"/>
			<psa03 value="0.0331559906924955" flag="0"/>
			<psa10 value="0.00530390510768317" flag="0"/>
			<psa30 value="0.000473315313149918" flag="0"/>
		</comp>
		<comp name="00.HNN" depth="0.0">
			<acc value="0.00879343825212846" flag="0"/>
			<vel value="0.00389807078543167" flag="0"/>
			<psa03 value="0.0188352607644203" flag="0"/>
			<psa10 value="0.00505103241860855" flag="0"/>
			<psa30 value="0.000316504430406858" flag="0"/>
		</comp>
		<comp name="00.HNZ" depth="0.0">
			<acc value="0.00719062403732214" flag="0"/>
			<vel value="0.00305903612007877" flag="0"/>
			<psa03 value="0.019417493344888" flag="0"/>
			<psa10 value="0.00251739317119287" flag="0"/>
			<psa30 value="0.000375062814820769" flag="0"/>
		</comp>
	</station>
</stationlist>
