<stationlist xmlns:esm="https://esm-db.eu/esmws/shakemap/1/" created="1781488496">
	<station code="SRN" name="SRN" netid="AC" source="Albanian Seismological Network (AC)" insttype="" lat="39.880001" lon="20.0005" esm:processing="automatic (Paolucci et al 2011)" esm:quality="best">
		<comp name="01.HNE" depth="0.0">
			<acc value="0.094800628430318" flag="0"/>
			<vel value="0.0504206726705569" flag="0"/>
			<psa03 value="0.235147889893659" flag="0"/>
			<psa10 value="0.0361854646094413" flag="0"/>
			<psa30 value="0.0040762229464318" flag="0"/>
		</comp>
		<comp name="01.HNN" depth="0.0">
			<acc value="0.106525475905952" flag="0"/>
			<vel value="0.0451683309250842" flag="0"/>
			<psa03 value="0.33707093346175" flag="0"/>
			<psa10 value="0.031221725786105" flag="0"/>
			<psa30 value="0.00541181475616778" flag="0"/>
		</comp>
		<comp name="01.HNZ" depth="0.0">
			<acc value="0.0650041253369573" flag="0"/>
			<vel value="0.0482290408173288" flag="0"/>
			<psa03 value="0.141702751695192" flag="0"/>
			<psa10 value="0.071760823802393" flag="0"/>
			<psa30 value="0.00281463603915741" flag="0"/>
		</comp>
	</station>
	<station code="ARTB" name="ARTB" netid="HL" source="National Observatory of Athens Seismic Network" insttype="" lat="39.15702" lon="20.9785" esm:processing="automatic (Paolucci et al 2011)" esm:quality="best">
		<comp name="00.HNE" depth="0.0">
			<acc value="0.212156302070601" flag="0"/>
			<vel value="0.0753470118713753" flag="0"/>
			<psa03 value="0.533029852278405" flag="0"/>
			<psa10 value="0.0184277776248288" flag="0"/>
			<psa30 value="0.00174365936304203" flag="0"/>
		</comp>
		<comp name="00.HNN" depth="0.0">
			<acc value="0.133131748351763" flag="0"/>
			<vel value="0.0416891506139453" flag="0"/>
			<psa03 value="0.283275598951519" flag="0"/>
			<psa10 value="0.0122519903842333" flag="0"/>
			<psa30 value="0.00136938196483459" flag="0"/>
		</comp>
		<comp name="00.HNZ" depth="0.0">
			<acc value="0.154187128723645" flag="0"/>
			<vel value="0.033009580126309" flag="0"/>
			<psa03 value="0.21802860999205" flag="0"/>
			<psa10 value="0.00884705357388018" flag="0"/>
			<psa30 value="0.00104791243988959" flag="0"/>
		</comp>
	</station>
	<station code="ANX" name="ANX" netid="HP" source="University of Patras, Seismological Laboratory (PSLNET)" insttype="" lat="38.5933" lon="21.9209" esm:processing="automatic (Paolucci et al 2011)" esm:quality="best">
		<comp name="--.HNE" depth="0.0">
			<acc value="0.0118816886268985" flag="0"/>
			<vel value="0.00773970590604718" flag="0"/>
			<psa03 value="0.0282787327022567" flag="0"/>
			<psa10 value="0.0101987874946185" flag="0"/>
			<psa30 value="0.000462733987189004" flag="0"/>
		</comp>
		<comp name="--.HNN" depth="0.0">
			<acc value="0.00904903864514367" flag="0"/>
			<vel value="0.00775915422864524" flag="0"/>
			<psa03 value="0.0245338257663846" flag="0"/>
			<psa10 value="0.00766084530590404" flag="0"/>
			<psa30 value="0.0004823250766692" flag="0"/>
		</comp>
		<comp name="--.HNZ" depth="0.0">
			<acc value="0.00645931619531441" flag="0"/>
			<vel value="0.00436927019462495" flag="0"/>
			<psa03 value="0.0141053914442075" flag="0"/>
			<psa10 value="0.00502896595681375" flag="0"/>
			<psa30 value="0.000316400907924001" flag="0"/>
		</comp>
	</station>
	<station code="FSK" name="FSK" netid="HP" source="University of Patras, Seismological Laboratory (PSLNET)" insttype="" lat="38.4593" lon="20.5623" esm:processing="manual (Paolucci et al 2011)" esm:quality="good">
		<comp name="--.HNE" depth="0.0">
			<acc value="0.0356928620037443" flag="0"/>
			<vel value="0.0103952050297161" flag="0"/>
			<psa03 value="0.0606346104953661" flag="0"/>
			<psa10 value="0.00522756786321536" flag="0"/>
			<psa30 value="0.000395235349068828" flag="0"/>
		</comp>
		<comp name="--.HNN" depth="0.0">
			<acc value="0.0154892032058551" flag="0"/>
			<vel value="0.00560458386903201" flag="0"/>
			<psa03 value="0.0320182356343068" flag="0"/>
			<psa10 value="0.00478792389521014" flag="0"/>
			<psa30 value="0.000283584202728338" flag="0"/>
		</comp>
		<comp name="--.HNZ" depth="0.0">
			<acc value="0.0085255486728056" flag="0"/>
			<vel value="0.00377136174529842" flag="0"/>
			<psa03 value="0.0279210032752711" flag="0"/>
			<psa10 value="0.00325709287579304" flag="0"/>
			<psa30 value="0.000323238313993597" flag="0"/>
		</comp>
	</station>
	<station code="PDO" name="PDO" netid="HP" source="University of Patras, Seismological Laboratory (PSLNET)" insttype="" lat="38.5986" lon="21.1833" esm:processing="manual (Paolucci et al 2011)" esm:quality="good">
		<comp name="--.HNE" depth="0.0">
			<acc value="0.0188035316121725" flag="0"/>
			<vel value="0.00942934544395895" flag="0"/>
			<psa03 value="0.049436639518079" flag="0"/>
			<psa10 value="0.0094854302382012" flag="0"/>
			<psa30 value="0.000402684045633419" flag="0"/>
		</comp>
		<comp name="--.HNN" depth="0.0">
			<acc value="0.0203891474189556" flag="0"/>
			<vel value="0.00856014703526717" flag="0"/>
			<psa03 value="0.0886354029104428" flag="0"/>
			<psa10 value="0.00915351825066097" flag="0"/>
			<psa30 value="0.000478775779045652" flag="0"/>
		</comp>
		<comp name="--.HNZ" depth="0.0">
			<acc value="0.0113084947127526" flag="0"/>
			<vel value="0.0048918083898644" flag="0"/>
			<psa03 value="0.0315882956945624" flag="0"/>
			<psa10 value="0.00401423170439959" flag="0"/>
			<psa30 value="0.000259168314462234" flag="0"/>
		</comp>
	</station>
	<station code="PVO" name="PVO" netid="HP" source="University of Patras, Seismological Laboratory (PSLNET)" insttype="" lat="38.616" lon="21.525" esm:processing="manual (Paolucci et al 2011)" esm:quality="good">
		<comp name="--.HNE" depth="0.0">
			<acc value="0.00903729520572638" flag="0"/>
			<vel value="0.00717269652386331" flag="0"/>
			<psa03 value="0.0372326044981532" flag="0"/>
			<psa10 value="0.00634302300664425" flag="0"/>
			<psa30 value="0.000613152857950974" flag="0"/>
		</comp>
		<comp name="--.HNN" depth="0.0">
			<acc value="0.00873188473646995" flag="0"/>
			<vel value="0.0048863437253618" flag="0"/>
			<psa03 value="0.0360952374865039" flag="0"/>
			<psa10 value="0.00480404855713986" flag="0"/>
			<psa30 value="0.000328824803862801" flag="0"/>
		</comp>
		<comp name="--.HNZ" depth="0.0">
			<acc value="0.0047499643940781" flag="0"/>
			<vel value="0.00308178165483493" flag="0"/>
			<psa03 value="0.0171129852137842" flag="0"/>
			<psa10 value="0.00477239833546801" flag="0"/>
			<psa30 value="0.000532532725596202" flag="0"/>
		</comp>
	</station>
	<station code="VVK" name="VVK" netid="HP" source="University of Patras, Seismological Laboratory (PSLNET)" insttype="" lat="38.4222" lon="21.8116" esm:processing="manual (Paolucci et al 2011)" esm:quality="good">
		<comp name="--.HNE" depth="0.0">
			<acc value="0.00390214080684789" flag="0"/>
			<vel value="0.00233191135966839" flag="0"/>
			<psa03 value="0.00732532120407896" flag="0"/>
			<psa10 value="0.00293857044712037" flag="0"/>
			<psa30 value="0.000426221255899751" flag="0"/>
		</comp>
		<comp name="--.HNN" depth="0.0">
			<acc value="0.00333284234189284" flag="0"/>
			<vel value="0.0027717414314276" flag="0"/>
			<psa03 value="0.0107417298160493" flag="0"/>
			<psa10 value="0.00326095469411955" flag="0"/>
			<psa30 value="0.000261179880010246" flag="0"/>
		</comp>
		<comp name="--.HNZ" depth="0.0">
			<acc value="0.00210171569503784" flag="0"/>
			<vel value="0.00206159348858459" flag="0"/>
			<psa03 value="0.0069223355238804" flag="0"/>
			<psa10 value="0.00184430373857131" flag="0"/>
			<psa30 value="0.000248333065430162" flag="0"/>
		</comp>
	</station>
</stationlist>
