<?xml version="1.0" encoding="UTF-8" standalone="yes"?>
<!DOCTYPE earthquake SYSTEM "stationlist.dtd">
<stationlist created="" xmlns="ch.ethz.sed.shakemap.usgs.xml">
  <station code="UPC" name="UPC" netid="CZ" insttype="" commtype="DIG" lat="50.5074" lon="16.0121">
    <comp name="--.HHZ">
      <acc value="0.0088000570" flag="0"/>
      <vel value="0.0040844920" flag="0"/>
      <psa03 value="0.0171785578" flag="0"/>
      <psa10 value="0.0033721818" flag="0"/>
      <psa30 value="0.0004383773" flag="0"/>
    </comp>
    <comp name="--.HHE">
      <acc value="0.0119487625" flag="0"/>
      <vel value="0.0046825141" flag="0"/>
      <psa03 value="0.0340970256" flag="0"/>
      <psa10 value="0.0074117525" flag="0"/>
      <psa30 value="0.0005470383" flag="0"/>
    </comp>
    <comp name="--.HHN">
      <acc value="0.0091255153" flag="0"/>
      <vel value="0.0056466948" flag="0"/>
      <psa03 value="0.0232118591" flag="0"/>
      <psa10 value="0.0080425257" flag="0"/>
      <psa30 value="0.0005565818" flag="0"/>
    </comp>
  </station>
  <station code="KSP" name="KSP" netid="PL" insttype="STS-2/N" commtype="DIG" lat="50.8428" lon="16.2931">
    <comp name="--.HHZ">
      <acc value="0.0031398279" flag="0"/>
      <vel value="0.0047879247" flag="0"/>
      <psa03 value="0.0060895094" flag="0"/>
      <psa10 value="0.0023960140" flag="0"/>
      <psa30 value="0.0015024345" flag="0"/>
    </comp>
    <comp name="--.HHE">
      <acc value="0.0031097303" flag="0"/>
      <vel value="0.0020357653" flag="0"/>
      <psa03 value="0.0064130691" flag="0"/>
      <psa10 value="0.0012469977" flag="0"/>
      <psa30 value="0.0005566999" flag="0"/>
    </comp>
    <comp name="--.HHN">
      <acc value="0.0029737658" flag="0"/>
      <vel value="0.0049891138" flag="0"/>
      <psa03 value="0.0099974559" flag="0"/>
      <psa10 value="0.0028306463" flag="0"/>
      <psa30 value="0.0015095678" flag="0"/>
    </comp>
  </station>
</stationlist>
