<?xml version="1.0" encoding="UTF-8" standalone="yes"?>
<!DOCTYPE earthquake SYSTEM "stationlist.dtd">
<stationlist created="" xmlns="ch.ethz.sed.shakemap.usgs.xml">
  <station code="ARMT" name="ARMT" netid="KO" insttype="CMG-3ESP" lat="40.5683" lon="28.866">
    <comp name="--.HHE">
      <acc value="0.0435689980" flag="0"/>
      <vel value="0.0156869039" flag="0"/>
      <psa03 value="0.0751504966" flag="0"/>
      <psa10 value="0.0059842470" flag="0"/>
      <psa30 value="0.0003876833" flag="0"/>
    </comp>
    <comp name="--.HHZ">
      <acc value="0.0194798859" flag="0"/>
      <vel value="0.0064208099" flag="0"/>
      <psa03 value="0.0406651813" flag="0"/>
      <psa10 value="0.0042451065" flag="0"/>
      <psa30 value="0.0003124544" flag="0"/>
    </comp>
    <comp name="--.HHN">
      <acc value="0.0684838905" flag="0"/>
      <vel value="0.0158581315" flag="0"/>
      <psa03 value="0.0620411748" flag="0"/>
      <psa10 value="0.0077956990" flag="0"/>
      <psa30 value="0.0006809262" flag="0"/>
    </comp>
  </station>
  <station code="AVCI" name="AVCI" netid="KO" insttype="CMG-5T" lat="40.9958" lon="28.7225">
    <comp name="--.HNE">
      <acc value="0.0384182804" flag="0"/>
      <vel value="0.0194708051" flag="0"/>
      <psa03 value="0.0707250171" flag="0"/>
      <psa10 value="0.0158689032" flag="0"/>
      <psa30 value="0.0011976706" flag="0"/>
    </comp>
    <comp name="--.HNN">
      <acc value="0.0252247767" flag="0"/>
      <vel value="0.0145076787" flag="0"/>
      <psa03 value="0.0616276781" flag="0"/>
      <psa10 value="0.0172182307" flag="0"/>
      <psa30 value="0.0010267536" flag="0"/>
    </comp>
    <comp name="--.HNZ">
      <acc value="0.0392586475" flag="0"/>
      <vel value="0.0137832786" flag="0"/>
      <psa03 value="0.0626038698" flag="0"/>
      <psa10 value="0.0065940141" flag="0"/>
      <psa30 value="0.0005370383" flag="0"/>
    </comp>
  </station>
  <station code="BALB" name="BALB" netid="KO" insttype="CMG-5T" lat="39.6507" lon="27.8642">
    <comp name="--.HNE">
      <acc value="0.0706178966" flag="0"/>
      <vel value="0.0319411211" flag="0"/>
      <psa03 value="0.1372342681" flag="0"/>
      <psa10 value="0.0195842263" flag="0"/>
      <psa30 value="0.0009185067" flag="0"/>
    </comp>
    <comp name="--.HNN">
      <acc value="0.0729618096" flag="0"/>
      <vel value="0.0256680810" flag="0"/>
      <psa03 value="0.1649449020" flag="0"/>
      <psa10 value="0.0172954590" flag="0"/>
      <psa30 value="0.0013072579" flag="0"/>
    </comp>
    <comp name="--.HNZ">
      <acc value="0.0265373461" flag="0"/>
      <vel value="0.0128227206" flag="0"/>
      <psa03 value="0.0487488621" flag="0"/>
      <psa10 value="0.0088808031" flag="0"/>
      <psa30 value="0.0005428870" flag="0"/>
    </comp>
  </station>
  <station code="BIGA" name="BIGA" netid="KO" insttype="CMG-5T" lat="40.2813" lon="27.1505">
    <comp name="--.HNE">
      <acc value="0.2306564131" flag="0"/>
      <vel value="0.0474440590" flag="0"/>
      <psa03 value="0.3176069956" flag="0"/>
      <psa10 value="0.0222684479" flag="0"/>
      <psa30 value="0.0014114190" flag="0"/>
    </comp>
    <comp name="--.HNN">
      <acc value="0.2550771392" flag="0"/>
      <vel value="0.0979895387" flag="0"/>
      <psa03 value="0.6959540310" flag="0"/>
      <psa10 value="0.0352528565" flag="0"/>
      <psa30 value="0.0028523746" flag="0"/>
    </comp>
    <comp name="--.HNZ">
      <acc value="0.1759867116" flag="0"/>
      <vel value="0.0224182060" flag="0"/>
      <psa03 value="0.0901357576" flag="0"/>
      <psa10 value="0.0110607706" flag="0"/>
      <psa30 value="0.0010020395" flag="0"/>
    </comp>
  </station>
  <station code="BMYO" name="BMYO" netid="KO" insttype="CMG-5T" lat="39.8098" lon="26.6009">
    <comp name="--.HNZ">
      <acc value="0.0264925087" flag="0"/>
      <vel value="0.0090826829" flag="0"/>
      <psa03 value="0.0370784718" flag="0"/>
      <psa10 value="0.0121674636" flag="0"/>
      <psa30 value="0.0006567462" flag="0"/>
    </comp>
    <comp name="--.HNE">
      <acc value="0.0492443131" flag="0"/>
      <vel value="0.0204418418" flag="0"/>
      <psa03 value="0.1036638787" flag="0"/>
      <psa10 value="0.0142951714" flag="0"/>
      <psa30 value="0.0010195865" flag="0"/>
    </comp>
    <comp name="--.HNN">
      <acc value="0.0364990962" flag="0"/>
      <vel value="0.0152359865" flag="0"/>
      <psa03 value="0.1176712495" flag="0"/>
      <psa10 value="0.0180145973" flag="0"/>
      <psa30 value="0.0013160266" flag="0"/>
    </comp>
  </station>
  <station code="BOTS" name="BOTS" netid="KO" insttype="CMG-5T" lat="40.9902" lon="27.981">
    <comp name="--.HNE">
      <acc value="0.0994285848" flag="0"/>
      <vel value="0.0347295749" flag="0"/>
      <psa03 value="0.1243463168" flag="0"/>
      <psa10 value="0.0204749466" flag="0"/>
      <psa30 value="0.0012971994" flag="0"/>
    </comp>
    <comp name="--.HNN">
      <acc value="0.0842851011" flag="0"/>
      <vel value="0.0290337287" flag="0"/>
      <psa03 value="0.1668318542" flag="0"/>
      <psa10 value="0.0114306595" flag="0"/>
      <psa30 value="0.0009373664" flag="0"/>
    </comp>
    <comp name="--.HNZ">
      <acc value="0.1224466291" flag="0"/>
      <vel value="0.0218594075" flag="0"/>
      <psa03 value="0.0576841029" flag="0"/>
      <psa10 value="0.0046015359" flag="0"/>
      <psa30 value="0.0004224717" flag="0"/>
    </comp>
  </station>
  <station code="BUYK" name="BUYK" netid="KO" insttype="ACEBOX" lat="41.0168" lon="28.5828">
    <comp name="--.HNE">
      <acc value="0.0484345510" flag="0"/>
      <vel value="0.0175117762" flag="0"/>
      <psa03 value="0.0814492786" flag="0"/>
      <psa10 value="0.0212335402" flag="0"/>
      <psa30 value="0.0013008353" flag="0"/>
    </comp>
    <comp name="--.HNZ">
      <acc value="0.0546281158" flag="0"/>
      <vel value="0.0140496281" flag="0"/>
      <psa03 value="0.0512031511" flag="0"/>
      <psa10 value="0.0133866061" flag="0"/>
      <psa30 value="0.0005600927" flag="0"/>
    </comp>
    <comp name="--.HNN">
      <acc value="0.0477943605" flag="0"/>
      <vel value="0.0298775117" flag="0"/>
      <psa03 value="0.1365589902" flag="0"/>
      <psa10 value="0.0171939308" flag="0"/>
      <psa30 value="0.0017564785" flag="0"/>
    </comp>
  </station>
  <station code="CANM" name="CANM" netid="KO" insttype="CMG-5T" lat="40.0113" lon="27.0529">
    <comp name="--.HNE">
      <acc value="0.1088939698" flag="0"/>
      <vel value="0.0293514866" flag="0"/>
      <psa03 value="0.2233207324" flag="0"/>
      <psa10 value="0.0149348480" flag="0"/>
      <psa30 value="0.0009788585" flag="0"/>
    </comp>
    <comp name="--.HNZ">
      <acc value="0.1117110604" flag="0"/>
      <vel value="0.0377199018" flag="0"/>
      <psa03 value="0.2471442731" flag="0"/>
      <psa10 value="0.0099118029" flag="0"/>
      <psa30 value="0.0007816525" flag="0"/>
    </comp>
    <comp name="--.HNN">
      <acc value="0.1169679400" flag="0"/>
      <vel value="0.0418114509" flag="0"/>
      <psa03 value="0.2099952019" flag="0"/>
      <psa10 value="0.0240858083" flag="0"/>
      <psa30 value="0.0013631803" flag="0"/>
    </comp>
  </station>
  <station code="CRLT" name="CRLT" netid="KO" insttype="CMG-3ESP" lat="41.129" lon="27.736">
    <comp name="--.HHE">
      <acc value="0.0375822641" flag="0"/>
      <vel value="0.0101023287" flag="0"/>
      <psa03 value="0.0405603114" flag="0"/>
      <psa10 value="0.0069357526" flag="0"/>
      <psa30 value="0.0017351017" flag="0"/>
    </comp>
    <comp name="--.HHN">
      <acc value="0.0374469939" flag="0"/>
      <vel value="0.0132937800" flag="0"/>
      <psa03 value="0.0391872843" flag="0"/>
      <psa10 value="0.0121359705" flag="0"/>
      <psa30 value="0.0007437568" flag="0"/>
    </comp>
    <comp name="--.HHZ">
      <acc value="0.0493257193" flag="0"/>
      <vel value="0.0107950974" flag="0"/>
      <psa03 value="0.0291084952" flag="0"/>
      <psa10 value="0.0047873368" flag="0"/>
      <psa30 value="0.0005549466" flag="0"/>
    </comp>
  </station>
  <station code="CRLU" name="CRLU" netid="KO" insttype="ACEBOX" lat="41.1428" lon="27.8215">
    <comp name="--.HNE">
      <acc value="0.6480141016" flag="0"/>
      <vel value="0.2461236817" flag="0"/>
      <psa03 value="1.7504706402" flag="0"/>
      <psa10 value="0.1373635256" flag="0"/>
      <psa30 value="0.0243566147" flag="0"/>
    </comp>
    <comp name="--.HNZ">
      <acc value="0.7509922738" flag="0"/>
      <vel value="0.1641729247" flag="0"/>
      <psa03 value="0.6026682888" flag="0"/>
      <psa10 value="0.0818883118" flag="0"/>
      <psa30 value="0.0066299225" flag="0"/>
    </comp>
  </station>
  <station code="CTKS" name="CTKS" netid="KO" insttype="CMG-3ESP" lat="41.2373" lon="28.5072">
    <comp name="--.HHN">
      <acc value="0.0593197608" flag="0"/>
      <vel value="0.0137564856" flag="0"/>
      <psa03 value="0.0581138394" flag="0"/>
      <psa10 value="0.0045795781" flag="0"/>
      <psa30 value="0.0004037430" flag="0"/>
    </comp>
    <comp name="--.HHZ">
      <acc value="0.0000187041" flag="0"/>
      <vel value="0.0000022206" flag="0"/>
      <psa03 value="0.0000069856" flag="0"/>
      <psa10 value="0.0000025719" flag="0"/>
      <psa30 value="0.0000006524" flag="0"/>
    </comp>
  </station>
  <station code="DOGC" name="DOGC" netid="KO" insttype="CMG-5T" lat="41.3949" lon="26.9852">
    <comp name="--.HNE">
      <acc value="0.0292412619" flag="0"/>
      <vel value="0.0167350877" flag="0"/>
      <psa03 value="0.0832626865" flag="0"/>
      <psa10 value="0.0099084255" flag="0"/>
      <psa30 value="0.0009547590" flag="0"/>
    </comp>
    <comp name="--.HNZ">
      <acc value="0.0538167403" flag="0"/>
      <vel value="0.0261906536" flag="0"/>
      <psa03 value="0.1023207770" flag="0"/>
      <psa10 value="0.0085099740" flag="0"/>
      <psa30 value="0.0006177393" flag="0"/>
    </comp>
  </station>
  <station code="EDC" name="EDC" netid="KO" insttype="CMG-3T" lat="40.3465" lon="27.8618">
    <comp name="--.HHE">
      <acc value="0.4674125693" flag="0"/>
      <vel value="0.1471450499" flag="0"/>
      <psa03 value="0.9611193791" flag="0"/>
      <psa10 value="0.0427524801" flag="0"/>
      <psa30 value="0.0040027465" flag="0"/>
    </comp>
    <comp name="--.HHN">
      <acc value="0.5435970180" flag="0"/>
      <vel value="0.1199235678" flag="0"/>
      <psa03 value="0.5894346195" flag="0"/>
      <psa10 value="0.0614440743" flag="0"/>
      <psa30 value="0.0040763299" flag="0"/>
    </comp>
    <comp name="--.HHZ">
      <acc value="0.2984658305" flag="0"/>
      <vel value="0.0788117397" flag="0"/>
      <psa03 value="0.4721454481" flag="0"/>
      <psa10 value="0.0313402961" flag="0"/>
      <psa30 value="0.0022952049" flag="0"/>
    </comp>
  </station>
  <station code="ENEZ" name="ENEZ" netid="KO" insttype="CMG-3T" lat="40.7362" lon="26.153">
    <comp name="--.HHE">
      <acc value="0.0463098273" flag="0"/>
      <vel value="0.0236949851" flag="0"/>
      <psa03 value="0.1626449217" flag="0"/>
      <psa10 value="0.0199954269" flag="0"/>
      <psa30 value="0.0014096349" flag="0"/>
    </comp>
    <comp name="--.HHN">
      <acc value="0.0000230707" flag="0"/>
      <vel value="0.0000020306" flag="0"/>
      <psa03 value="0.0000079110" flag="0"/>
      <psa10 value="0.0000015027" flag="0"/>
      <psa30 value="0.0000003608" flag="0"/>
    </comp>
    <comp name="--.HHZ">
      <acc value="0.0293101848" flag="0"/>
      <vel value="0.0123625408" flag="0"/>
      <psa03 value="0.0745595583" flag="0"/>
      <psa10 value="0.0086582961" flag="0"/>
      <psa30 value="0.0005419814" flag="0"/>
    </comp>
  </station>
  <station code="ENZZ" name="ENZZ" netid="KO" insttype="CMG-5T" lat="40.607" lon="26.1406">
    <comp name="--.HNN">
      <acc value="0.0958709510" flag="0"/>
      <vel value="0.0556683477" flag="0"/>
      <psa03 value="0.2528086743" flag="0"/>
      <psa10 value="0.1119626456" flag="0"/>
      <psa30 value="0.0035425263" flag="0"/>
    </comp>
    <comp name="--.HNE">
      <acc value="0.0981354419" flag="0"/>
      <vel value="0.0635408190" flag="0"/>
      <psa03 value="0.2680852337" flag="0"/>
      <psa10 value="0.0768185264" flag="0"/>
      <psa30 value="0.0037796165" flag="0"/>
    </comp>
    <comp name="--.HNZ">
      <acc value="0.0527704693" flag="0"/>
      <vel value="0.0240260732" flag="0"/>
      <psa03 value="0.1013408888" flag="0"/>
      <psa10 value="0.0179794117" flag="0"/>
      <psa30 value="0.0012829999" flag="0"/>
    </comp>
  </station>
  <station code="ERIK" name="ERIK" netid="KO" insttype="CMG-3ESP" lat="40.6708" lon="26.5132">
    <comp name="--.HHZ">
      <acc value="0.0238349137" flag="0"/>
      <vel value="0.0102621642" flag="0"/>
      <psa03 value="0.0497854032" flag="0"/>
      <psa10 value="0.0058671530" flag="0"/>
      <psa30 value="0.0004497031" flag="0"/>
    </comp>
    <comp name="--.HHN">
      <acc value="0.0473142620" flag="0"/>
      <vel value="0.0212064680" flag="0"/>
      <psa03 value="0.1087364692" flag="0"/>
      <psa10 value="0.0254734288" flag="0"/>
      <psa30 value="0.0014374135" flag="0"/>
    </comp>
  </station>
  <station code="GAZK" name="GAZK" netid="KO" insttype="CMG-6T" lat="40.7479" lon="27.3275">
    <comp name="--.HHE">
      <acc value="0.3404378858" flag="0"/>
      <vel value="0.0970598910" flag="0"/>
      <psa03 value="0.2559958324" flag="0"/>
      <psa10 value="0.0231497234" flag="0"/>
      <psa30 value="0.0016505537" flag="0"/>
    </comp>
    <comp name="--.HHZ">
      <acc value="0.1569568449" flag="0"/>
      <vel value="0.0280647772" flag="0"/>
      <psa03 value="0.1297546394" flag="0"/>
      <psa10 value="0.0154216397" flag="0"/>
      <psa30 value="0.0011097371" flag="0"/>
    </comp>
    <comp name="--.HHN">
      <acc value="0.2291641119" flag="0"/>
      <vel value="0.0525432718" flag="0"/>
      <psa03 value="0.2681543403" flag="0"/>
      <psa10 value="0.0186573566" flag="0"/>
      <psa30 value="0.0014409984" flag="0"/>
    </comp>
  </station>
  <station code="GELI" name="GELI" netid="KO" insttype="CMG-3ESP" lat="40.398" lon="26.4742">
    <comp name="--.HHE">
      <acc value="0.0323730890" flag="0"/>
      <vel value="0.0174500979" flag="0"/>
      <psa03 value="0.0752483359" flag="0"/>
      <psa10 value="0.0160021620" flag="0"/>
      <psa30 value="0.0007597338" flag="0"/>
    </comp>
    <comp name="--.HHN">
      <acc value="0.0267250290" flag="0"/>
      <vel value="0.0128022405" flag="0"/>
      <psa03 value="0.0520150342" flag="0"/>
      <psa10 value="0.0158619847" flag="0"/>
      <psa30 value="0.0010529618" flag="0"/>
    </comp>
    <comp name="--.HHZ">
      <acc value="0.0304952932" flag="0"/>
      <vel value="0.0086041926" flag="0"/>
      <psa03 value="0.0521003898" flag="0"/>
      <psa10 value="0.0112667727" flag="0"/>
      <psa30 value="0.0004220555" flag="0"/>
    </comp>
  </station>
  <station code="KCTX" name="KCTX" netid="KO" insttype="CMG-5T" lat="40.2626" lon="28.3353">
    <comp name="--.HNE">
      <acc value="0.0815547485" flag="0"/>
      <vel value="0.0116364901" flag="0"/>
      <psa03 value="0.0561839982" flag="0"/>
      <psa10 value="0.0098669967" flag="0"/>
      <psa30 value="0.0005485207" flag="0"/>
    </comp>
    <comp name="--.HNN">
      <acc value="0.0959835135" flag="0"/>
      <vel value="0.0226653099" flag="0"/>
      <psa03 value="0.0442132549" flag="0"/>
      <psa10 value="0.0140616060" flag="0"/>
      <psa30 value="0.0011268212" flag="0"/>
    </comp>
    <comp name="--.HNZ">
      <acc value="0.0571849952" flag="0"/>
      <vel value="0.0076536192" flag="0"/>
      <psa03 value="0.0297764858" flag="0"/>
      <psa10 value="0.0034084564" flag="0"/>
      <psa30 value="0.0005299393" flag="0"/>
    </comp>
  </station>
  <station code="KRBG" name="KRBG" netid="KO" insttype="CMG-3ESP" lat="40.3932" lon="27.2977">
    <comp name="--.HHE">
      <acc value="0.6569790713" flag="0"/>
      <vel value="0.2830933095" flag="0"/>
      <psa03 value="1.2770808409" flag="0"/>
      <psa10 value="0.1062562416" flag="0"/>
      <psa30 value="0.0080176113" flag="0"/>
    </comp>
    <comp name="--.HHN">
      <acc value="0.4539339776" flag="0"/>
      <vel value="0.1842678300" flag="0"/>
      <psa03 value="0.7407524163" flag="0"/>
      <psa10 value="0.0329791680" flag="0"/>
      <psa30 value="0.0038080793" flag="0"/>
    </comp>
    <comp name="--.HHZ">
      <acc value="0.3333118445" flag="0"/>
      <vel value="0.1150263920" flag="0"/>
      <psa03 value="0.4809665765" flag="0"/>
      <psa10 value="0.0300724174" flag="0"/>
      <psa30 value="0.0029297197" flag="0"/>
    </comp>
  </station>
  <station code="KUMB" name="KUMB" netid="KO" insttype="CMG-5T" lat="40.8626" lon="27.4592">
    <comp name="--.HNE">
      <acc value="0.1890106322" flag="0"/>
      <vel value="0.0444808961" flag="0"/>
      <psa03 value="0.1810189753" flag="0"/>
      <psa10 value="0.0212713267" flag="0"/>
      <psa30 value="0.0019214296" flag="0"/>
    </comp>
    <comp name="--.HNN">
      <acc value="0.1786242415" flag="0"/>
      <vel value="0.0404025584" flag="0"/>
      <psa03 value="0.1944163702" flag="0"/>
      <psa10 value="0.0124975503" flag="0"/>
      <psa30 value="0.0015483366" flag="0"/>
    </comp>
    <comp name="--.HNZ">
      <acc value="0.0006158400" flag="0"/>
      <vel value="0.0005277351" flag="0"/>
      <psa03 value="0.0009169580" flag="0"/>
      <psa10 value="0.0006330426" flag="0"/>
      <psa30 value="0.0003833633" flag="0"/>
    </comp>
  </station>
  <station code="LAP" name="LAP" netid="KO" insttype="CMG-3ESP" lat="40.3703" lon="26.7593">
    <comp name="--.HHE">
      <acc value="0.0813136046" flag="0"/>
      <vel value="0.0315193411" flag="0"/>
      <psa03 value="0.1013453542" flag="0"/>
      <psa10 value="0.0318711569" flag="0"/>
      <psa30 value="0.0011370994" flag="0"/>
    </comp>
    <comp name="--.HHN">
      <acc value="0.0583965372" flag="0"/>
      <vel value="0.0211825118" flag="0"/>
      <psa03 value="0.0806895252" flag="0"/>
      <psa10 value="0.0300085716" flag="0"/>
      <psa30 value="0.0017230669" flag="0"/>
    </comp>
    <comp name="--.HHZ">
      <acc value="0.0504183244" flag="0"/>
      <vel value="0.0112178726" flag="0"/>
      <psa03 value="0.0488540030" flag="0"/>
      <psa10 value="0.0094072055" flag="0"/>
      <psa30 value="0.0006816522" flag="0"/>
    </comp>
  </station>
  <station code="LAPK" name="LAPK" netid="KO" insttype="CMG-5T" lat="40.3151" lon="26.6425">
    <comp name="--.HNE">
      <acc value="0.2293644250" flag="0"/>
      <vel value="0.0837410454" flag="0"/>
      <psa03 value="0.4876058630" flag="0"/>
      <psa10 value="0.0361436243" flag="0"/>
      <psa30 value="0.0027680051" flag="0"/>
    </comp>
    <comp name="--.HNZ">
      <acc value="0.1037868146" flag="0"/>
      <vel value="0.0232433287" flag="0"/>
      <psa03 value="0.1388937312" flag="0"/>
      <psa10 value="0.0221184935" flag="0"/>
      <psa30 value="0.0007097569" flag="0"/>
    </comp>
    <comp name="--.HNN">
      <acc value="0.2142573612" flag="0"/>
      <vel value="0.0617193809" flag="0"/>
      <psa03 value="0.3500149206" flag="0"/>
      <psa10 value="0.0459227164" flag="0"/>
      <psa30 value="0.0028177197" flag="0"/>
    </comp>
  </station>
  <station code="MAEG" name="MAEG" netid="KO" insttype="CMG-5T" lat="40.9653" lon="27.9448">
    <comp name="--.HNZ">
      <acc value="0.0546333988" flag="0"/>
      <vel value="0.0076795799" flag="0"/>
      <psa03 value="0.0268293389" flag="0"/>
      <psa10 value="0.0052470278" flag="0"/>
      <psa30 value="0.0004822856" flag="0"/>
    </comp>
    <comp name="--.HNN">
      <acc value="0.1119076294" flag="0"/>
      <vel value="0.0233779092" flag="0"/>
      <psa03 value="0.0825607136" flag="0"/>
      <psa10 value="0.0120553558" flag="0"/>
      <psa30 value="0.0012320751" flag="0"/>
    </comp>
