<?xml version="1.0" encoding="UTF-8" standalone="yes"?>
<!DOCTYPE earthquake SYSTEM "stationlist.dtd">
<stationlist created="" xmlns="ch.ethz.sed.shakemap.usgs.xml">
  <station code="ARMT" name="ARMT" netid="KO" insttype="CMG-3ESP" lat="40.5683" lon="28.866">
    <comp name="--.HHZ">
      <acc value="0.0194798855" flag="0"/>
      <vel value="0.0064208102" flag="0"/>
      <psa03 value="0.0406651813" flag="0"/>
      <psa10 value="0.0042451065" flag="0"/>
      <psa30 value="0.0003124373" flag="0"/>
    </comp>
    <comp name="--.HHE">
      <acc value="0.0435689978" flag="0"/>
      <vel value="0.0156869037" flag="0"/>
      <psa03 value="0.0751504966" flag="0"/>
      <psa10 value="0.0059842470" flag="0"/>
      <psa30 value="0.0003876891" flag="0"/>
    </comp>
    <comp name="--.HHN">
      <acc value="0.0684838902" flag="0"/>
      <vel value="0.0158581313" flag="0"/>
      <psa03 value="0.0620411748" flag="0"/>
      <psa10 value="0.0077956990" flag="0"/>
      <psa30 value="0.0006809190" flag="0"/>
    </comp>
  </station>
  <station code="AVCI" name="AVCI" netid="KO" insttype="CMG-5T" lat="40.9958" lon="28.7225">
    <comp name="--.HNE">
      <acc value="0.0384182834" flag="0"/>
      <vel value="0.0194708018" flag="0"/>
      <psa03 value="0.0707250171" flag="0"/>
      <psa10 value="0.0158689031" flag="0"/>
      <psa30 value="0.0011991753" flag="0"/>
    </comp>
    <comp name="--.HNN">
      <acc value="0.0252248112" flag="0"/>
      <vel value="0.0145076849" flag="0"/>
      <psa03 value="0.0616276781" flag="0"/>
      <psa10 value="0.0172182317" flag="0"/>
      <psa30 value="0.0010265433" flag="0"/>
    </comp>
    <comp name="--.HNZ">
      <acc value="0.0392589207" flag="0"/>
      <vel value="0.0137832807" flag="0"/>
      <psa03 value="0.0626038698" flag="0"/>
      <psa10 value="0.0065939805" flag="0"/>
      <psa30 value="0.0005370434" flag="0"/>
    </comp>
  </station>
  <station code="BALB" name="BALB" netid="KO" insttype="CMG-5T" lat="39.6507" lon="27.8642">
    <comp name="--.HNE">
      <acc value="0.0706178920" flag="0"/>
      <vel value="0.0319411208" flag="0"/>
      <psa03 value="0.1372342681" flag="0"/>
      <psa10 value="0.0195842260" flag="0"/>
      <psa30 value="0.0009184460" flag="0"/>
    </comp>
    <comp name="--.HNN">
      <acc value="0.0729618061" flag="0"/>
      <vel value="0.0256680795" flag="0"/>
      <psa03 value="0.1649449020" flag="0"/>
      <psa10 value="0.0172954591" flag="0"/>
      <psa30 value="0.0013070119" flag="0"/>
    </comp>
    <comp name="--.HNZ">
      <acc value="0.0265373493" flag="0"/>
      <vel value="0.0128227198" flag="0"/>
      <psa03 value="0.0487488621" flag="0"/>
      <psa10 value="0.0088808033" flag="0"/>
      <psa30 value="0.0005429225" flag="0"/>
    </comp>
  </station>
  <station code="BGKT" name="BGKT" netid="KO" insttype="CMG-3ESP" lat="41.181" lon="28.773">
    <comp name="--.HHZ">
      <acc value="0.0371328523" flag="0"/>
      <vel value="0.0096138444" flag="0"/>
      <psa03 value="0.0457354369" flag="0"/>
      <psa10 value="0.0119230732" flag="0"/>
      <psa30 value="0.0007737084" flag="0"/>
    </comp>
    <comp name="--.HHN">
      <acc value="0.0504435058" flag="0"/>
      <vel value="0.0167074678" flag="0"/>
      <psa03 value="0.0761935503" flag="0"/>
      <psa10 value="0.0176055068" flag="0"/>
      <psa30 value="0.0007565347" flag="0"/>
    </comp>
    <comp name="--.HHE">
      <acc value="0.0558583377" flag="0"/>
      <vel value="0.0182983267" flag="0"/>
      <psa03 value="0.1293501827" flag="0"/>
      <psa10 value="0.0186561599" flag="0"/>
      <psa30 value="0.0009301941" flag="0"/>
    </comp>
  </station>
  <station code="BIGA" name="BIGA" netid="KO" insttype="CMG-5T" lat="40.2813" lon="27.1505">
    <comp name="--.HNZ">
      <acc value="0.1759867082" flag="0"/>
      <vel value="0.0224182125" flag="0"/>
      <psa03 value="0.0901357576" flag="0"/>
      <psa10 value="0.0110607487" flag="0"/>
      <psa30 value="0.0010010509" flag="0"/>
    </comp>
    <comp name="--.HNE">
      <acc value="0.2306564447" flag="0"/>
      <vel value="0.0474440616" flag="0"/>
      <psa03 value="0.3176069956" flag="0"/>
      <psa10 value="0.0222684561" flag="0"/>
      <psa30 value="0.0014118623" flag="0"/>
    </comp>
    <comp name="--.HNN">
      <acc value="0.2550771061" flag="0"/>
      <vel value="0.0979895462" flag="0"/>
      <psa03 value="0.6959540310" flag="0"/>
      <psa10 value="0.0352528587" flag="0"/>
      <psa30 value="0.0028531361" flag="0"/>
    </comp>
  </station>
  <station code="BMYO" name="BMYO" netid="KO" insttype="CMG-5T" lat="39.8098" lon="26.6009">
    <comp name="--.HNE">
      <acc value="0.0492445795" flag="0"/>
      <vel value="0.0204418473" flag="0"/>
      <psa03 value="0.1036638787" flag="0"/>
      <psa10 value="0.0142951715" flag="0"/>
      <psa30 value="0.0010180770" flag="0"/>
    </comp>
    <comp name="--.HNN">
      <acc value="0.0364992207" flag="0"/>
      <vel value="0.0152359952" flag="0"/>
      <psa03 value="0.1176712495" flag="0"/>
      <psa10 value="0.0180145972" flag="0"/>
      <psa30 value="0.0013160039" flag="0"/>
    </comp>
    <comp name="--.HNZ">
      <acc value="0.0264924832" flag="0"/>
      <vel value="0.0090826891" flag="0"/>
      <psa03 value="0.0370784718" flag="0"/>
      <psa10 value="0.0121674635" flag="0"/>
      <psa30 value="0.0006559629" flag="0"/>
    </comp>
  </station>
  <station code="BOTS" name="BOTS" netid="KO" insttype="CMG-5T" lat="40.9902" lon="27.981">
    <comp name="--.HNE">
      <acc value="0.0994285706" flag="0"/>
      <vel value="0.0347295801" flag="0"/>
      <psa03 value="0.1243463168" flag="0"/>
      <psa10 value="0.0204749407" flag="0"/>
      <psa30 value="0.0012973352" flag="0"/>
    </comp>
    <comp name="--.HNN">
      <acc value="0.0842850974" flag="0"/>
      <vel value="0.0290337313" flag="0"/>
      <psa03 value="0.1668318542" flag="0"/>
      <psa10 value="0.0114306550" flag="0"/>
      <psa30 value="0.0009380300" flag="0"/>
    </comp>
    <comp name="--.HNZ">
      <acc value="0.1224466210" flag="0"/>
      <vel value="0.0218594099" flag="0"/>
      <psa03 value="0.0576841029" flag="0"/>
      <psa10 value="0.0046015361" flag="0"/>
      <psa30 value="0.0004223477" flag="0"/>
    </comp>
  </station>
  <station code="BRGA" name="BRGA" netid="KO" insttype="CMG-5T" lat="40.8846" lon="29.065">
    <comp name="--.HNE">
      <acc value="0.0270746169" flag="0"/>
      <vel value="0.0098834355" flag="0"/>
      <psa03 value="0.0336734125" flag="0"/>
      <psa10 value="0.0071261529" flag="0"/>
      <psa30 value="0.0004548950" flag="0"/>
    </comp>
    <comp name="--.HNN">
      <acc value="0.0344759663" flag="0"/>
      <vel value="0.0105923165" flag="0"/>
      <psa03 value="0.0681743832" flag="0"/>
      <psa10 value="0.0058570718" flag="0"/>
      <psa30 value="0.0004225709" flag="0"/>
    </comp>
  </station>
  <station code="BUYK" name="BUYK" netid="KO" insttype="ACEBOX" lat="41.0168" lon="28.5828">
    <comp name="--.HNE">
      <acc value="0.0484345558" flag="0"/>
      <vel value="0.0175117783" flag="0"/>
      <psa03 value="0.0814492786" flag="0"/>
      <psa10 value="0.0212335402" flag="0"/>
      <psa30 value="0.0013008309" flag="0"/>
    </comp>
    <comp name="--.HNN">
      <acc value="0.0477943425" flag="0"/>
      <vel value="0.0298775041" flag="0"/>
      <psa03 value="0.1365589902" flag="0"/>
      <psa10 value="0.0171939313" flag="0"/>
      <psa30 value="0.0017558707" flag="0"/>
    </comp>
    <comp name="--.HNZ">
      <acc value="0.0546281213" flag="0"/>
      <vel value="0.0140496301" flag="0"/>
      <psa03 value="0.0512031511" flag="0"/>
      <psa10 value="0.0133866062" flag="0"/>
      <psa30 value="0.0005601724" flag="0"/>
    </comp>
  </station>
  <station code="CANM" name="CANM" netid="KO" insttype="CMG-5T" lat="40.0113" lon="27.0529">
    <comp name="--.HNE">
      <acc value="0.1088939606" flag="0"/>
      <vel value="0.0293514862" flag="0"/>
      <psa03 value="0.2233207324" flag="0"/>
      <psa10 value="0.0149348475" flag="0"/>
      <psa30 value="0.0009800709" flag="0"/>
    </comp>
    <comp name="--.HNN">
      <acc value="0.1169679294" flag="0"/>
      <vel value="0.0418114526" flag="0"/>
      <psa03 value="0.2099952019" flag="0"/>
      <psa10 value="0.0240858085" flag="0"/>
      <psa30 value="0.0013635520" flag="0"/>
    </comp>
    <comp name="--.HNZ">
      <acc value="0.1117110576" flag="0"/>
      <vel value="0.0377199062" flag="0"/>
      <psa03 value="0.2471442731" flag="0"/>
      <psa10 value="0.0099118028" flag="0"/>
      <psa30 value="0.0007819135" flag="0"/>
    </comp>
  </station>
  <station code="CRLT" name="CRLT" netid="KO" insttype="CMG-3ESP" lat="41.129" lon="27.736">
    <comp name="--.HHZ">
      <acc value="0.0493257191" flag="0"/>
      <vel value="0.0107950972" flag="0"/>
      <psa03 value="0.0291084952" flag="0"/>
      <psa10 value="0.0047873368" flag="0"/>
      <psa30 value="0.0005549444" flag="0"/>
    </comp>
    <comp name="--.HHN">
      <acc value="0.0374469938" flag="0"/>
      <vel value="0.0132937851" flag="0"/>
      <psa03 value="0.0391872843" flag="0"/>
      <psa10 value="0.0121359705" flag="0"/>
      <psa30 value="0.0007436601" flag="0"/>
    </comp>
    <comp name="--.HHE">
      <acc value="0.0375822637" flag="0"/>
      <vel value="0.0101023275" flag="0"/>
      <psa03 value="0.0405603114" flag="0"/>
      <psa10 value="0.0069357526" flag="0"/>
      <psa30 value="0.0017350221" flag="0"/>
    </comp>
  </station>
  <station code="CRLU" name="CRLU" netid="KO" insttype="ACEBOX" lat="41.1428" lon="27.8215">
    <comp name="--.HNE">
      <acc value="0.6480141726" flag="0"/>
      <vel value="0.2461236752" flag="0"/>
      <psa03 value="1.7504706402" flag="0"/>
      <psa10 value="0.1373635279" flag="0"/>
      <psa30 value="0.0243562793" flag="0"/>
    </comp>
    <comp name="--.HNZ">
      <acc value="0.7509923544" flag="0"/>
      <vel value="0.1641729331" flag="0"/>
      <psa03 value="0.6026682888" flag="0"/>
      <psa10 value="0.0818883000" flag="0"/>
      <psa30 value="0.0066302769" flag="0"/>
    </comp>
  </station>
  <station code="CTKS" name="CTKS" netid="KO" insttype="CMG-3ESP" lat="41.2373" lon="28.5072">
    <comp name="--.HHN">
      <acc value="0.0593197608" flag="0"/>
      <vel value="0.0137564888" flag="0"/>
      <psa03 value="0.0581138394" flag="0"/>
      <psa10 value="0.0045795781" flag="0"/>
      <psa30 value="0.0004037585" flag="0"/>
    </comp>
    <comp name="--.HHZ">
      <acc value="0.0000187034" flag="0"/>
      <vel value="0.0000022205" flag="0"/>
      <psa03 value="0.0000093009" flag="0"/>
      <psa10 value="0.0000025719" flag="0"/>
      <psa30 value="0.0000006519" flag="0"/>
    </comp>
  </station>
  <station code="CTYL" name="CTYL" netid="KO" insttype="CMG-3T" lat="41.476" lon="28.2897">
    <comp name="--.HHE">
      <acc value="0.1403498690" flag="0"/>
      <vel value="0.0483061690" flag="0"/>
      <psa03 value="0.1693265413" flag="0"/>
      <psa10 value="0.0181287022" flag="0"/>
      <psa30 value="0.0016805514" flag="0"/>
    </comp>
    <comp name="--.HHN">
      <acc value="0.0828641077" flag="0"/>
      <vel value="0.0346144489" flag="0"/>
      <psa03 value="0.1520286310" flag="0"/>
      <psa10 value="0.0280309042" flag="0"/>
      <psa30 value="0.0013556528" flag="0"/>
    </comp>
    <comp name="--.HHZ">
      <acc value="0.0482226603" flag="0"/>
      <vel value="0.0228209175" flag="0"/>
      <psa03 value="0.1183963277" flag="0"/>
      <psa10 value="0.0215454447" flag="0"/>
      <psa30 value="0.0009942966" flag="0"/>
    </comp>
  </station>
  <station code="DOGC" name="DOGC" netid="KO" insttype="CMG-5T" lat="41.3949" lon="26.9852">
    <comp name="--.HNZ">
      <acc value="0.0538167743" flag="0"/>
      <vel value="0.0261906515" flag="0"/>
      <psa03 value="0.1023207770" flag="0"/>
      <psa10 value="0.0085099047" flag="0"/>
      <psa30 value="0.0006164459" flag="0"/>
    </comp>
    <comp name="--.HNE">
      <acc value="0.0292412276" flag="0"/>
      <vel value="0.0167350706" flag="0"/>
      <psa03 value="0.0832626865" flag="0"/>
      <psa10 value="0.0099084243" flag="0"/>
      <psa30 value="0.0009510887" flag="0"/>
    </comp>
  </station>
  <station code="DST" name="DST" netid="KO" insttype="CMG-5T" lat="39.6041" lon="28.6267">
    <comp name="--.HNE">
      <acc value="0.0409006125" flag="0"/>
      <vel value="0.0127377426" flag="0"/>
      <psa03 value="0.0800743664" flag="0"/>
      <psa10 value="0.0065181008" flag="0"/>
      <psa30 value="0.0007480538" flag="0"/>
    </comp>
    <comp name="--.HNN">
      <acc value="0.0276529705" flag="0"/>
      <vel value="0.0112394838" flag="0"/>
      <psa03 value="0.0785039011" flag="0"/>
      <psa10 value="0.0080972280" flag="0"/>
      <psa30 value="0.0005856583" flag="0"/>
    </comp>
    <comp name="--.HNZ">
      <acc value="0.0279690949" flag="0"/>
      <vel value="0.0124374699" flag="0"/>
      <psa03 value="0.0877745197" flag="0"/>
      <psa10 value="0.0080552973" flag="0"/>
      <psa30 value="0.0004530689" flag="0"/>
    </comp>
  </station>
  <station code="EDC" name="EDC" netid="KO" insttype="CMG-3T" lat="40.3465" lon="27.8618">
    <comp name="--.HHE">
      <acc value="0.4674125689" flag="0"/>
      <vel value="0.1471450498" flag="0"/>
      <psa03 value="0.9611193791" flag="0"/>
      <psa10 value="0.0427524798" flag="0"/>
      <psa30 value="0.0040027534" flag="0"/>
    </comp>
    <comp name="--.HHN">
      <acc value="0.5435970183" flag="0"/>
      <vel value="0.1199235680" flag="0"/>
      <psa03 value="0.5894346195" flag="0"/>
      <psa10 value="0.0614440745" flag="0"/>
      <psa30 value="0.0040763129" flag="0"/>
    </comp>
    <comp name="--.HHZ">
      <acc value="0.2984658307" flag="0"/>
      <vel value="0.0788117398" flag="0"/>
      <psa03 value="0.4721454481" flag="0"/>
      <psa10 value="0.0313402963" flag="0"/>
      <psa30 value="0.0022952049" flag="0"/>
    </comp>
  </station>
  <station code="ENEZ" name="ENEZ" netid="KO" insttype="CMG-3T" lat="40.7362" lon="26.153">
    <comp name="--.HHE">
      <acc value="0.0463098269" flag="0"/>
      <vel value="0.0236949841" flag="0"/>
      <psa03 value="0.1626449217" flag="0"/>
      <psa10 value="0.0199954269" flag="0"/>
      <psa30 value="0.0014095647" flag="0"/>
    </comp>
    <comp name="--.HHN">
      <acc value="0.0000266374" flag="0"/>
      <vel value="0.0000030841" flag="0"/>
      <psa03 value="0.0000095037" flag="0"/>
      <psa10 value="0.0000022706" flag="0"/>
      <psa30 value="0.0000004796" flag="0"/>
    </comp>
    <comp name="--.HHZ">
      <acc value="0.0293101844" flag="0"/>
      <vel value="0.0123625406" flag="0"/>
      <psa03 value="0.0745595583" flag="0"/>
      <psa10 value="0.0086582961" flag="0"/>
      <psa30 value="0.0005419493" flag="0"/>
    </comp>
  </station>
  <station code="ENZZ" name="ENZZ" netid="KO" insttype="CMG-5T" lat="40.607" lon="26.1406">
    <comp name="--.HNE">
      <acc value="0.0981355094" flag="0"/>
      <vel value="0.0635408081" flag="0"/>
      <psa03 value="0.2680852337" flag="0"/>
      <psa10 value="0.0768185268" flag="0"/>
      <psa30 value="0.0037786943" flag="0"/>
    </comp>
    <comp name="--.HNN">
      <acc value="0.0958709145" flag="0"/>
      <vel value="0.0556683563" flag="0"/>
      <psa03 value="0.2528086743" flag="0"/>
      <psa10 value="0.1119626453" flag="0"/>
      <psa30 value="0.0035436385" flag="0"/>
    </comp>
    <comp name="--.HNZ">
      <acc value="0.0527706438" flag="0"/>
      <vel value="0.0240260777" flag="0"/>
      <psa03 value="0.1013408888" flag="0"/>
      <psa10 value="0.0179794118" flag="0"/>
      <psa30 value="0.0012830380" flag="0"/>
    </comp>
  </station>
  <station code="ERIK" name="ERIK" netid="KO" insttype="CMG-3ESP" lat="40.6708" lon="26.5132">
    <comp name="--.HHN">
      <acc value="0.0473142621" flag="0"/>
      <vel value="0.0212064683" flag="0"/>
      <psa03 value="0.1087364692" flag="0"/>
      <psa10 value="0.0254734288" flag="0"/>
      <psa30 value="0.0014374504" flag="0"/>
    </comp>
    <comp name="--.HHZ">
      <acc value="0.0238349128" flag="0"/>
      <vel value="0.0102621636" flag="0"/>
      <psa03 value="0.0497854032" flag="0"/>
      <psa10 value="0.0058671530" flag="0"/>
      <psa30 value="0.0004497002" flag="0"/>
    </comp>
  </station>
  <station code="EZN" name="EZN" netid="KO" insttype="CMG-3ESP" lat="39.8255" lon="26.3246">
    <comp name="--.HHE">
      <acc value="0.0450868187" flag="0"/>
      <vel value="0.0113507771" flag="0"/>
      <psa03 value="0.0579942533" flag="0"/>
      <psa10 value="0.0064645488" flag="0"/>
      <psa30 value="0.0004267542" flag="0"/>
    </comp>
    <comp name="--.HHN">
      <acc value="0.0660273099" flag="0"/>
      <vel value="0.0149843532" flag="0"/>
      <psa03 value="0.0510358988" flag="0"/>
      <psa10 value="0.0093152617" flag="0"/>
      <psa30 value="0.0007191649" flag="0"/>
    </comp>
    <comp name="--.HHZ">
      <acc value="0.0422561747" flag="0"/>
      <vel value="0.0084621281" flag="0"/>
      <psa03 value="0.0398209834" flag="0"/>
      <psa10 value="0.0093931237" flag="0"/>
      <psa30 value="0.0007699324" flag="0"/>
    </comp>
  </station>
  <station code="EZNE" name="EZNE" netid="KO" insttype="CMG-5T" lat="39.756" lon="26.3655">
    <comp name="--.HNN">
      <acc value="0.0451382517" flag="0"/>
      <vel value="0.0190409914" flag="0"/>
      <psa03 value="0.0996440893" flag="0"/>
      <psa10 value="0.0093463139" flag="0"/>
      <psa30 value="0.0009984907" flag="0"/>
    </comp>
    <comp name="--.HNZ">
      <acc value="0.0337433658" flag="0"/>
      <vel value="0.0111779633" flag="0"/>
      <psa03 value="0.0774791183" flag="0"/>
      <psa10 value="0.0065307449" flag="0"/>
      <psa30 value="0.0004744684" flag="0"/>
    </comp>
    <comp name="--.HNE">
      <acc value="0.0332632589" flag="0"/>
      <vel value="0.0101376789" flag="0"/>
      <psa03 value="0.0477710812" flag="0"/>
      <psa10 value="0.0057381755" flag="0"/>
      <psa30 value="0.0003925259" flag="0"/>
    </comp>
  </station>
  <station code="GADA" name="GADA" netid="KO" insttype="CMG-3T" lat="40.1908" lon="25.8987">
    <comp name="--.HHZ">
      <acc value="0.0119802330" flag="0"/>
      <vel value="0.0061084722" flag="0"/>
      <psa03 value="0.0366654205" flag="0"/>
      <psa10 value="0.0053110794" flag="0"/>
      <psa30 value="0.0005069131" flag="0"/>
    </comp>
    <comp name="--.HHN">
      <acc value="0.0171724404" flag="0"/>
      <vel value="0.0094147108" flag="0"/>
      <psa03 value="0.0393846377" flag="0"/>
      <psa10 value="0.0067028835" flag="0"/>
      <psa30 value="0.0006563174" flag="0"/>
    </comp>
    <comp name="--.HHE">
      <acc value="0.0195951634" flag="0"/>
      <vel value="0.0082458732" flag="0"/>
      <psa03 value="0.0485220471" flag="0"/>
      <psa10 value="0.0065811649" flag="0"/>
      <psa30 value="0.0006308125" flag="0"/>
    </comp>
  </station>
  <station code="GAZK" name="GAZK" netid="KO" insttype="CMG-6T" lat="40.7479" lon="27.3275">
    <comp name="--.HHE">
      <acc value="0.3404378851" flag="0"/>
      <vel value="0.0970598896" flag="0"/>
      <psa03 value="0.2559958324" flag="0"/>
      <psa10 value="0.0231497239" flag="0"/>
      <psa30 value="0.0016506409" flag="0"/>
    </comp>
    <comp name="--.HHN">
      <acc value="0.2291641097" flag="0"/>
      <vel value="0.0525432718" flag="0"/>
      <psa03 value="0.2681543403" flag="0"/>
      <psa10 value="0.0186573559" flag="0"/>
      <psa30 value="0.0014410042" flag="0"/>
    </comp>
    <comp name="--.HHZ">
      <acc value="0.1569568465" flag="0"/>
      <vel value="0.0280647756" flag="0"/>
      <psa03 value="0.1297546394" flag="0"/>
      <psa10 value="0.0154216397" flag="0"/>
      <psa30 value="0.0011097635" flag="0"/>
    </comp>
  </station>
