<?xml version="1.0" encoding="UTF-8" standalone="yes"?>
<!DOCTYPE earthquake SYSTEM "stationlist.dtd">
<stationlist created="" xmlns="ch.ethz.sed.shakemap.usgs.xml">
  <station code="ARMT" name="ARMT" netid="KO" insttype="CMG-3ESP" lat="40.5683" lon="28.866">
    <comp name="--.HHZ">
      <acc value="0.0194798858" flag="0"/>
      <vel value="0.0064208127" flag="0"/>
      <psa03 value="0.0406651813" flag="0"/>
      <psa10 value="0.0042451065" flag="0"/>
      <psa30 value="0.0003124496" flag="0"/>
    </comp>
    <comp name="--.HHE">
      <acc value="0.0435689980" flag="0"/>
      <vel value="0.0156869039" flag="0"/>
      <psa03 value="0.0751504966" flag="0"/>
      <psa10 value="0.0059842470" flag="0"/>
      <psa30 value="0.0003876882" flag="0"/>
    </comp>
    <comp name="--.HHN">
      <acc value="0.0684838906" flag="0"/>
      <vel value="0.0158581316" flag="0"/>
      <psa03 value="0.0620411748" flag="0"/>
      <psa10 value="0.0077956990" flag="0"/>
      <psa30 value="0.0006809171" flag="0"/>
    </comp>
  </station>
  <station code="AVCI" name="AVCI" netid="KO" insttype="CMG-5T" lat="40.9958" lon="28.7225">
    <comp name="--.HNE">
      <acc value="0.0384182930" flag="0"/>
      <vel value="0.0194708019" flag="0"/>
      <psa03 value="0.0707250171" flag="0"/>
      <psa10 value="0.0158689031" flag="0"/>
      <psa30 value="0.0011991627" flag="0"/>
    </comp>
    <comp name="--.HNN">
      <acc value="0.0252247835" flag="0"/>
      <vel value="0.0145076853" flag="0"/>
      <psa03 value="0.0616276781" flag="0"/>
      <psa10 value="0.0172182320" flag="0"/>
      <psa30 value="0.0010266254" flag="0"/>
    </comp>
    <comp name="--.HNZ">
      <acc value="0.0392589365" flag="0"/>
      <vel value="0.0137832758" flag="0"/>
      <psa03 value="0.0626038698" flag="0"/>
      <psa10 value="0.0065939613" flag="0"/>
      <psa30 value="0.0005371020" flag="0"/>
    </comp>
  </station>
  <station code="BALB" name="BALB" netid="KO" insttype="CMG-5T" lat="39.6507" lon="27.8642">
    <comp name="--.HNE">
      <acc value="0.0706178945" flag="0"/>
      <vel value="0.0319411220" flag="0"/>
      <psa03 value="0.1372342681" flag="0"/>
      <psa10 value="0.0195842256" flag="0"/>
      <psa30 value="0.0009182286" flag="0"/>
    </comp>
    <comp name="--.HNN">
      <acc value="0.0729618077" flag="0"/>
      <vel value="0.0256680794" flag="0"/>
      <psa03 value="0.1649449020" flag="0"/>
      <psa10 value="0.0172954591" flag="0"/>
      <psa30 value="0.0013071110" flag="0"/>
    </comp>
    <comp name="--.HNZ">
      <acc value="0.0265373417" flag="0"/>
      <vel value="0.0128227221" flag="0"/>
      <psa03 value="0.0487488621" flag="0"/>
      <psa10 value="0.0088808033" flag="0"/>
      <psa30 value="0.0005430323" flag="0"/>
    </comp>
  </station>
  <station code="BIGA" name="BIGA" netid="KO" insttype="CMG-5T" lat="40.2813" lon="27.1505">
    <comp name="--.HNE">
      <acc value="0.2306564119" flag="0"/>
      <vel value="0.0474440523" flag="0"/>
      <psa03 value="0.3176069956" flag="0"/>
      <psa10 value="0.0222684677" flag="0"/>
      <psa30 value="0.0014122065" flag="0"/>
    </comp>
    <comp name="--.HNN">
      <acc value="0.2550771265" flag="0"/>
      <vel value="0.0979895587" flag="0"/>
      <psa03 value="0.6959540310" flag="0"/>
      <psa10 value="0.0352528503" flag="0"/>
      <psa30 value="0.0028557176" flag="0"/>
    </comp>
    <comp name="--.HNZ">
      <acc value="0.1759867269" flag="0"/>
      <vel value="0.0224182100" flag="0"/>
      <psa03 value="0.0901357576" flag="0"/>
      <psa10 value="0.0110606869" flag="0"/>
      <psa30 value="0.0009989767" flag="0"/>
    </comp>
  </station>
  <station code="BMYO" name="BMYO" netid="KO" insttype="CMG-5T" lat="39.8098" lon="26.6009">
    <comp name="--.HNZ">
      <acc value="0.0264925377" flag="0"/>
      <vel value="0.0090826893" flag="0"/>
      <psa03 value="0.0370784718" flag="0"/>
      <psa10 value="0.0121674636" flag="0"/>
      <psa30 value="0.0006559125" flag="0"/>
    </comp>
    <comp name="--.HNE">
      <acc value="0.0492442972" flag="0"/>
      <vel value="0.0204418437" flag="0"/>
      <psa03 value="0.1036638787" flag="0"/>
      <psa10 value="0.0142951715" flag="0"/>
      <psa30 value="0.0010180552" flag="0"/>
    </comp>
    <comp name="--.HNN">
      <acc value="0.0364990809" flag="0"/>
      <vel value="0.0152359932" flag="0"/>
      <psa03 value="0.1176712495" flag="0"/>
      <psa10 value="0.0180145972" flag="0"/>
      <psa30 value="0.0013160086" flag="0"/>
    </comp>
  </station>
  <station code="BOTS" name="BOTS" netid="KO" insttype="CMG-5T" lat="40.9902" lon="27.981">
    <comp name="--.HNE">
      <acc value="0.0994285737" flag="0"/>
      <vel value="0.0347295894" flag="0"/>
      <psa03 value="0.1243463168" flag="0"/>
      <psa10 value="0.0204749350" flag="0"/>
      <psa30 value="0.0012946905" flag="0"/>
    </comp>
    <comp name="--.HNN">
      <acc value="0.0842851035" flag="0"/>
      <vel value="0.0290337284" flag="0"/>
      <psa03 value="0.1668318542" flag="0"/>
      <psa10 value="0.0114306558" flag="0"/>
      <psa30 value="0.0009400119" flag="0"/>
    </comp>
    <comp name="--.HNZ">
      <acc value="0.1224466178" flag="0"/>
      <vel value="0.0218594056" flag="0"/>
      <psa03 value="0.0576841029" flag="0"/>
      <psa10 value="0.0046015364" flag="0"/>
      <psa30 value="0.0004221767" flag="0"/>
    </comp>
  </station>
  <station code="BUYK" name="BUYK" netid="KO" insttype="ACEBOX" lat="41.0168" lon="28.5828">
    <comp name="--.HNZ">
      <acc value="0.0546281160" flag="0"/>
      <vel value="0.0140496313" flag="0"/>
      <psa03 value="0.0512031511" flag="0"/>
      <psa10 value="0.0133866061" flag="0"/>
      <psa30 value="0.0005600675" flag="0"/>
    </comp>
    <comp name="--.HNE">
      <acc value="0.0484345535" flag="0"/>
      <vel value="0.0175117772" flag="0"/>
      <psa03 value="0.0814492786" flag="0"/>
      <psa10 value="0.0212335402" flag="0"/>
      <psa30 value="0.0013008469" flag="0"/>
    </comp>
    <comp name="--.HNN">
      <acc value="0.0477943638" flag="0"/>
      <vel value="0.0298775040" flag="0"/>
      <psa03 value="0.1365589902" flag="0"/>
      <psa10 value="0.0171939320" flag="0"/>
      <psa30 value="0.0017562332" flag="0"/>
    </comp>
  </station>
  <station code="CANM" name="CANM" netid="KO" insttype="CMG-5T" lat="40.0113" lon="27.0529">
    <comp name="--.HNE">
      <acc value="0.1088939699" flag="0"/>
      <vel value="0.0293514909" flag="0"/>
      <psa03 value="0.2233207324" flag="0"/>
      <psa10 value="0.0149348474" flag="0"/>
      <psa30 value="0.0009809462" flag="0"/>
    </comp>
    <comp name="--.HNN">
      <acc value="0.1169679411" flag="0"/>
      <vel value="0.0418114522" flag="0"/>
      <psa03 value="0.2099952019" flag="0"/>
      <psa10 value="0.0240858089" flag="0"/>
      <psa30 value="0.0013637921" flag="0"/>
    </comp>
    <comp name="--.HNZ">
      <acc value="0.1117110605" flag="0"/>
      <vel value="0.0377199066" flag="0"/>
      <psa03 value="0.2471442731" flag="0"/>
      <psa10 value="0.0099118015" flag="0"/>
      <psa30 value="0.0007821358" flag="0"/>
    </comp>
  </station>
  <station code="CRLT" name="CRLT" netid="KO" insttype="CMG-3ESP" lat="41.129" lon="27.736">
    <comp name="--.HHZ">
      <acc value="0.0493257193" flag="0"/>
      <vel value="0.0107950986" flag="0"/>
      <psa03 value="0.0291084952" flag="0"/>
      <psa10 value="0.0047873368" flag="0"/>
      <psa30 value="0.0005549364" flag="0"/>
    </comp>
    <comp name="--.HHN">
      <acc value="0.0374469939" flag="0"/>
      <vel value="0.0132937802" flag="0"/>
      <psa03 value="0.0391872843" flag="0"/>
      <psa10 value="0.0121359705" flag="0"/>
      <psa30 value="0.0007434980" flag="0"/>
    </comp>
    <comp name="--.HHE">
      <acc value="0.0375822640" flag="0"/>
      <vel value="0.0101023244" flag="0"/>
      <psa03 value="0.0405603114" flag="0"/>
      <psa10 value="0.0069357526" flag="0"/>
      <psa30 value="0.0017348665" flag="0"/>
    </comp>
  </station>
  <station code="CRLU" name="CRLU" netid="KO" insttype="ACEBOX" lat="41.1428" lon="27.8215">
    <comp name="--.HNE">
      <acc value="0.6480140936" flag="0"/>
      <vel value="0.2461236597" flag="0"/>
      <psa03 value="1.7504706402" flag="0"/>
      <psa10 value="0.1373635324" flag="0"/>
      <psa30 value="0.0243548988" flag="0"/>
    </comp>
    <comp name="--.HNN">
      <acc value="0.7171834458" flag="0"/>
      <vel value="0.3210556901" flag="0"/>
      <psa03 value="1.4745110633" flag="0"/>
      <psa10 value="0.2258309663" flag="0"/>
      <psa30 value="0.0229777185" flag="0"/>
    </comp>
    <comp name="--.HNZ">
      <acc value="0.7509922949" flag="0"/>
      <vel value="0.1641729167" flag="0"/>
      <psa03 value="0.6026682888" flag="0"/>
      <psa10 value="0.0818882847" flag="0"/>
      <psa30 value="0.0066318772" flag="0"/>
    </comp>
  </station>
  <station code="CTKS" name="CTKS" netid="KO" insttype="CMG-3ESP" lat="41.2373" lon="28.5072">
    <comp name="--.HHZ">
      <acc value="0.0000187040" flag="0"/>
      <vel value="0.0000022205" flag="0"/>
      <psa03 value="0.0000092947" flag="0"/>
      <psa10 value="0.0000025719" flag="0"/>
      <psa30 value="0.0000006518" flag="0"/>
    </comp>
    <comp name="--.HHN">
      <acc value="0.0593197608" flag="0"/>
      <vel value="0.0137564880" flag="0"/>
      <psa03 value="0.0581138394" flag="0"/>
      <psa10 value="0.0045795781" flag="0"/>
      <psa30 value="0.0004037559" flag="0"/>
    </comp>
  </station>
  <station code="DOGC" name="DOGC" netid="KO" insttype="CMG-5T" lat="41.3949" lon="26.9852">
    <comp name="--.HNE">
      <acc value="0.0292412699" flag="0"/>
      <vel value="0.0167350667" flag="0"/>
      <psa03 value="0.0832626865" flag="0"/>
      <psa10 value="0.0099084236" flag="0"/>
      <psa30 value="0.0009502241" flag="0"/>
    </comp>
    <comp name="--.HNZ">
      <acc value="0.0538167423" flag="0"/>
      <vel value="0.0261906506" flag="0"/>
      <psa03 value="0.1023207770" flag="0"/>
      <psa10 value="0.0085099023" flag="0"/>
      <psa30 value="0.0006163103" flag="0"/>
    </comp>
  </station>
  <station code="EDC" name="EDC" netid="KO" insttype="CMG-3T" lat="40.3465" lon="27.8618">
    <comp name="--.HHN">
      <acc value="0.5435970183" flag="0"/>
      <vel value="0.1199235681" flag="0"/>
      <psa03 value="0.5894346195" flag="0"/>
      <psa10 value="0.0614440719" flag="0"/>
      <psa30 value="0.0040763113" flag="0"/>
    </comp>
    <comp name="--.HHZ">
      <acc value="0.2984658306" flag="0"/>
      <vel value="0.0788117395" flag="0"/>
      <psa03 value="0.4721454481" flag="0"/>
      <psa10 value="0.0313402974" flag="0"/>
      <psa30 value="0.0022952724" flag="0"/>
    </comp>
    <comp name="--.HHE">
      <acc value="0.4674125695" flag="0"/>
      <vel value="0.1471450497" flag="0"/>
      <psa03 value="0.9611193791" flag="0"/>
      <psa10 value="0.0427524783" flag="0"/>
      <psa30 value="0.0040027707" flag="0"/>
    </comp>
  </station>
  <station code="ENEZ" name="ENEZ" netid="KO" insttype="CMG-3T" lat="40.7362" lon="26.153">
    <comp name="--.HHE">
      <acc value="0.0463098272" flag="0"/>
      <vel value="0.0236949839" flag="0"/>
      <psa03 value="0.1626449217" flag="0"/>
      <psa10 value="0.0199954269" flag="0"/>
      <psa30 value="0.0014095620" flag="0"/>
    </comp>
    <comp name="--.HHN">
      <acc value="0.0000230708" flag="0"/>
      <vel value="0.0000020306" flag="0"/>
      <psa03 value="0.0000079110" flag="0"/>
      <psa10 value="0.0000015027" flag="0"/>
      <psa30 value="0.0000003608" flag="0"/>
    </comp>
    <comp name="--.HHZ">
      <acc value="0.0293101849" flag="0"/>
      <vel value="0.0123625406" flag="0"/>
      <psa03 value="0.0745595583" flag="0"/>
      <psa10 value="0.0086582961" flag="0"/>
      <psa30 value="0.0005419491" flag="0"/>
    </comp>
  </station>
  <station code="ENZZ" name="ENZZ" netid="KO" insttype="CMG-5T" lat="40.607" lon="26.1406">
    <comp name="--.HNE">
      <acc value="0.0981354500" flag="0"/>
      <vel value="0.0635408099" flag="0"/>
      <psa03 value="0.2680852337" flag="0"/>
      <psa10 value="0.0768185268" flag="0"/>
      <psa30 value="0.0037786912" flag="0"/>
    </comp>
    <comp name="--.HNN">
      <acc value="0.0958709522" flag="0"/>
      <vel value="0.0556683553" flag="0"/>
      <psa03 value="0.2528086743" flag="0"/>
      <psa10 value="0.1119626453" flag="0"/>
      <psa30 value="0.0035435410" flag="0"/>
    </comp>
    <comp name="--.HNZ">
      <acc value="0.0527704824" flag="0"/>
      <vel value="0.0240260742" flag="0"/>
      <psa03 value="0.1013408888" flag="0"/>
      <psa10 value="0.0179794117" flag="0"/>
      <psa30 value="0.0012830361" flag="0"/>
    </comp>
  </station>
  <station code="ERIK" name="ERIK" netid="KO" insttype="CMG-3ESP" lat="40.6708" lon="26.5132">
    <comp name="--.HHN">
      <acc value="0.0473142619" flag="0"/>
      <vel value="0.0212064686" flag="0"/>
      <psa03 value="0.1087364692" flag="0"/>
      <psa10 value="0.0254734288" flag="0"/>
      <psa30 value="0.0014374750" flag="0"/>
    </comp>
    <comp name="--.HHZ">
      <acc value="0.0238349138" flag="0"/>
      <vel value="0.0102621641" flag="0"/>
      <psa03 value="0.0497854032" flag="0"/>
      <psa10 value="0.0058671530" flag="0"/>
      <psa30 value="0.0004496981" flag="0"/>
    </comp>
  </station>
  <station code="GAZK" name="GAZK" netid="KO" insttype="CMG-6T" lat="40.7479" lon="27.3275">
    <comp name="--.HHE">
      <acc value="0.3404378835" flag="0"/>
      <vel value="0.0970598920" flag="0"/>
      <psa03 value="0.2559958324" flag="0"/>
      <psa10 value="0.0231497246" flag="0"/>
      <psa30 value="0.0016507198" flag="0"/>
    </comp>
    <comp name="--.HHN">
      <acc value="0.2291641113" flag="0"/>
      <vel value="0.0525432714" flag="0"/>
      <psa03 value="0.2681543403" flag="0"/>
      <psa10 value="0.0186573545" flag="0"/>
      <psa30 value="0.0014410135" flag="0"/>
    </comp>
    <comp name="--.HHZ">
      <acc value="0.1569568456" flag="0"/>
      <vel value="0.0280647775" flag="0"/>
      <psa03 value="0.1297546394" flag="0"/>
      <psa10 value="0.0154216396" flag="0"/>
      <psa30 value="0.0011098584" flag="0"/>
    </comp>
  </station>
  <station code="GELI" name="GELI" netid="KO" insttype="CMG-3ESP" lat="40.398" lon="26.4742">
    <comp name="--.HHE">
      <acc value="0.0323730888" flag="0"/>
      <vel value="0.0174500980" flag="0"/>
      <psa03 value="0.0752483359" flag="0"/>
      <psa10 value="0.0160021619" flag="0"/>
      <psa30 value="0.0007597134" flag="0"/>
    </comp>
    <comp name="--.HHN">
      <acc value="0.0267250290" flag="0"/>
      <vel value="0.0128022406" flag="0"/>
      <psa03 value="0.0520150342" flag="0"/>
      <psa10 value="0.0158619847" flag="0"/>
      <psa30 value="0.0010529811" flag="0"/>
    </comp>
    <comp name="--.HHZ">
      <acc value="0.0304952932" flag="0"/>
      <vel value="0.0086041927" flag="0"/>
      <psa03 value="0.0521003898" flag="0"/>
      <psa10 value="0.0112667728" flag="0"/>
      <psa30 value="0.0004220165" flag="0"/>
    </comp>
  </station>
  <station code="KCTX" name="KCTX" netid="KO" insttype="CMG-5T" lat="40.2626" lon="28.3353">
    <comp name="--.HNE">
      <acc value="0.0815547537" flag="0"/>
      <vel value="0.0116364867" flag="0"/>
      <psa03 value="0.0561839982" flag="0"/>
      <psa10 value="0.0098669932" flag="0"/>
      <psa30 value="0.0005472504" flag="0"/>
    </comp>
    <comp name="--.HNZ">
      <acc value="0.0571850010" flag="0"/>
      <vel value="0.0076536461" flag="0"/>
      <psa03 value="0.0297764858" flag="0"/>
      <psa10 value="0.0034084694" flag="0"/>
      <psa30 value="0.0005308907" flag="0"/>
    </comp>
    <comp name="--.HNN">
      <acc value="0.0959835085" flag="0"/>
      <vel value="0.0226652889" flag="0"/>
      <psa03 value="0.0442132549" flag="0"/>
      <psa10 value="0.0140616033" flag="0"/>
      <psa30 value="0.0011249430" flag="0"/>
    </comp>
  </station>
  <station code="KRBG" name="KRBG" netid="KO" insttype="CMG-3ESP" lat="40.3932" lon="27.2977">
    <comp name="--.HHE">
      <acc value="0.6569790712" flag="0"/>
      <vel value="0.2830933103" flag="0"/>
      <psa03 value="1.2770808409" flag="0"/>
      <psa10 value="0.1062562416" flag="0"/>
      <psa30 value="0.0080175955" flag="0"/>
    </comp>
    <comp name="--.HHN">
      <acc value="0.4539339772" flag="0"/>
      <vel value="0.1842678295" flag="0"/>
      <psa03 value="0.7407524163" flag="0"/>
      <psa10 value="0.0329791681" flag="0"/>
      <psa30 value="0.0038081776" flag="0"/>
    </comp>
    <comp name="--.HHZ">
      <acc value="0.3333118443" flag="0"/>
      <vel value="0.1150263922" flag="0"/>
      <psa03 value="0.4809665765" flag="0"/>
      <psa10 value="0.0300724160" flag="0"/>
      <psa30 value="0.0029298568" flag="0"/>
    </comp>
  </station>
  <station code="KUMB" name="KUMB" netid="KO" insttype="CMG-5T" lat="40.8626" lon="27.4592">
    <comp name="--.HNE">
      <acc value="0.1890105506" flag="0"/>
      <vel value="0.0444808872" flag="0"/>
      <psa03 value="0.1810189753" flag="0"/>
      <psa10 value="0.0212713488" flag="0"/>
      <psa30 value="0.0019150719" flag="0"/>
    </comp>
    <comp name="--.HNN">
      <acc value="0.1786245799" flag="0"/>
      <vel value="0.0404025523" flag="0"/>
      <psa03 value="0.1944163702" flag="0"/>
      <psa10 value="0.0124975939" flag="0"/>
      <psa30 value="0.0015519434" flag="0"/>
    </comp>
    <comp name="--.HNZ">
      <acc value="0.0006158763" flag="0"/>
      <vel value="0.0005235258" flag="0"/>
      <psa03 value="0.0009172187" flag="0"/>
      <psa10 value="0.0006284512" flag="0"/>
      <psa30 value="0.0003833572" flag="0"/>
    </comp>
  </station>
  <station code="LAP" name="LAP" netid="KO" insttype="CMG-3ESP" lat="40.3703" lon="26.7593">
    <comp name="--.HHE">
      <acc value="0.0813136046" flag="0"/>
      <vel value="0.0315193408" flag="0"/>
      <psa03 value="0.1013453542" flag="0"/>
      <psa10 value="0.0318711570" flag="0"/>
      <psa30 value="0.0011371357" flag="0"/>
    </comp>
    <comp name="--.HHN">
      <acc value="0.0583965370" flag="0"/>
      <vel value="0.0211825121" flag="0"/>
      <psa03 value="0.0806895252" flag="0"/>
      <psa10 value="0.0300085716" flag="0"/>
      <psa30 value="0.0017231468" flag="0"/>
    </comp>
    <comp name="--.HHZ">
      <acc value="0.0504183244" flag="0"/>
      <vel value="0.0112178723" flag="0"/>
      <psa03 value="0.0488540030" flag="0"/>
      <psa10 value="0.0094072055" flag="0"/>
      <psa30 value="0.0006816574" flag="0"/>
    </comp>
  </station>
  <station code="LAPK" name="LAPK" netid="KO" insttype="CMG-5T" lat="40.3151" lon="26.6425">
    <comp name="--.HNE">
      <acc value="0.2293644290" flag="0"/>
      <vel value="0.0837410737" flag="0"/>
      <psa03 value="0.4876058630" flag="0"/>
      <psa10 value="0.0361436223" flag="0"/>
      <psa30 value="0.0027676755" flag="0"/>
    </comp>
    <comp name="--.HNZ">
      <acc value="0.1037868232" flag="0"/>
      <vel value="0.0232433346" flag="0"/>
      <psa03 value="0.1388937312" flag="0"/>
      <psa10 value="0.0221184930" flag="0"/>
      <psa30 value="0.0007107354" flag="0"/>
    </comp>
    <comp name="--.HNN">
      <acc value="0.2142573604" flag="0"/>
      <vel value="0.0617193810" flag="0"/>
      <psa03 value="0.3500149206" flag="0"/>
      <psa10 value="0.0459227156" flag="0"/>
      <psa30 value="0.0028169832" flag="0"/>
    </comp>
  </station>
  <station code="MAEG" name="MAEG" netid="KO" insttype="CMG-5T" lat="40.9653" lon="27.9448">
    <comp name="--.HNE">
      <acc value="0.0810413427" flag="0"/>
      <vel value="0.0249061134" flag="0"/>
      <psa03 value="0.0871925222" flag="0"/>
      <psa10 value="0.0245631418" flag="0"/>
      <psa30 value="0.0012057711" flag="0"/>
    </comp>
