<?xml version="1.0" encoding="UTF-8" standalone="yes"?>
<!DOCTYPE earthquake SYSTEM "stationlist.dtd">
<stationlist created="" xmlns="ch.ethz.sed.shakemap.usgs.xml">
  <station code="GIL" name="GIL" netid="VI" source="ODC" insttype="CMG-3ESP" lat="66.0773" lon="-16.3513">
    <comp name="--.HHE">
      <acc value="0.2632707359" flag="0"/>
      <vel value="0.0657977187" flag="0"/>
      <psa03 value="0.2534332612" flag="0"/>
      <psa10 value="0.0442815113" flag="0"/>
      <psa30 value="0.0022530933" flag="0"/>
    </comp>
    <comp name="--.HHN">
      <acc value="0.5549151472" flag="0"/>
      <vel value="0.1061164214" flag="0"/>
      <psa03 value="0.3688061137" flag="0"/>
      <psa10 value="0.0757051032" flag="0"/>
      <psa30 value="0.0045972356" flag="0"/>
    </comp>
    <comp name="--.HHZ">
      <acc value="0.3066598178" flag="0"/>
      <vel value="0.0475229952" flag="0"/>
      <psa03 value="0.1396534280" flag="0"/>
      <psa10 value="0.0197585039" flag="0"/>
      <psa30 value="0.0014612527" flag="0"/>
    </comp>
  </station>
</stationlist>
