<stationlist created="1778135717">
	<station code="S2604" name="S2604" netid="S2" source="IceSMN Icelandic Strong Motion Network (IceSMN)" insttype="" lat="63.9843" lon="-21.6486">
		<comp name="00.HN1" depth="0.0">
			<acc value="0.00840545961903121" flag="0"/>
			<vel value="0.00868741730672686" flag="0"/>
			<psa03 value="0.0164586840570252" flag="0"/>
			<psa10 value="0.0103550584718009" flag="0"/>
			<psa30 value="0.00109533224788397" flag="0"/>
		</comp>
		<comp name="00.HN2" depth="0.0">
			<acc value="0.00549863084783859" flag="0"/>
			<vel value="0.00460367907971014" flag="0"/>
			<psa03 value="0.016841469831368" flag="0"/>
			<psa10 value="0.00719117309867767" flag="0"/>
			<psa30 value="0.000745444225772739" flag="0"/>
		</comp>
		<comp name="00.HNZ" depth="0.0">
			<acc value="0.00476923982940581" flag="0"/>
			<vel value="0.0034959749894285" flag="0"/>
			<psa03 value="0.015545515491213" flag="0"/>
			<psa10 value="0.00499961088720017" flag="0"/>
			<psa30 value="0.000916245175910824" flag="0"/>
		</comp>
	</station>
</stationlist>
