<?xml version="1.0" encoding="UTF-8" standalone="yes"?>
<!DOCTYPE earthquake SYSTEM "stationlist.dtd">
<stationlist created="" xmlns="ch.ethz.sed.shakemap.usgs.xml">
  <station code="GVD" name="GVD" netid="GE" source="GFZ" insttype="STS-2/N" lat="34.8391" lon="24.0874">
    <comp name="--.HHE">
      <acc value="0.0535279111" flag="0"/>
      <vel value="0.0215272849" flag="0"/>
      <psa03 value="0.1450818682" flag="0"/>
      <psa10 value="0.0316502692" flag="0"/>
      <psa30 value="0.0011766496" flag="0"/>
    </comp>
    <comp name="--.HHN">
      <acc value="0.0430791227" flag="0"/>
      <vel value="0.0170846322" flag="0"/>
      <psa03 value="0.1469437751" flag="0"/>
      <psa10 value="0.0201091584" flag="0"/>
      <psa30 value="0.0008402589" flag="0"/>
    </comp>
    <comp name="--.HHZ">
      <acc value="0.0350984463" flag="0"/>
      <vel value="0.0125386821" flag="0"/>
      <psa03 value="0.0527970458" flag="0"/>
      <psa10 value="0.0065400727" flag="0"/>
      <psa30 value="0.0004286220" flag="0"/>
    </comp>
  </station>
  <station code="IMMV" name="IMMV" netid="GE" source="GFZ" insttype="STS-2/N" lat="35.4606" lon="23.9811">
    <comp name="--.HHE">
      <acc value="0.0848772766" flag="0"/>
      <vel value="0.0266093923" flag="0"/>
      <psa03 value="0.1409869733" flag="0"/>
      <psa10 value="0.0243722451" flag="0"/>
      <psa30 value="0.0009714585" flag="0"/>
    </comp>
    <comp name="--.HHN">
      <acc value="0.0827786716" flag="0"/>
      <vel value="0.0289824821" flag="0"/>
      <psa03 value="0.2355754369" flag="0"/>
      <psa10 value="0.0241147982" flag="0"/>
      <psa30 value="0.0011981709" flag="0"/>
    </comp>
    <comp name="--.HHZ">
      <acc value="0.0669110290" flag="0"/>
      <vel value="0.0253878812" flag="0"/>
      <psa03 value="0.1294304229" flag="0"/>
      <psa10 value="0.0093446652" flag="0"/>
      <psa30 value="0.0005864075" flag="0"/>
    </comp>
  </station>
  <station code="SANT" name="SANT" netid="GE" source="GFZ" insttype="STS-2/N" lat="36.3705" lon="25.4593">
    <comp name="--.HHE">
      <acc value="0.0873690289" flag="0"/>
      <vel value="0.0280387858" flag="0"/>
      <psa03 value="0.1370854994" flag="0"/>
      <psa10 value="0.0163232270" flag="0"/>
      <psa30 value="0.0006032949" flag="0"/>
    </comp>
    <comp name="--.HHN">
      <acc value="0.0527242057" flag="0"/>
      <vel value="0.0147903624" flag="0"/>
      <psa03 value="0.0495886334" flag="0"/>
      <psa10 value="0.0069346039" flag="0"/>
      <psa30 value="0.0003895500" flag="0"/>
    </comp>
    <comp name="--.HHZ">
      <acc value="0.0602678114" flag="0"/>
      <vel value="0.0129324167" flag="0"/>
      <psa03 value="0.0641993016" flag="0"/>
      <psa10 value="0.0071227352" flag="0"/>
      <psa30 value="0.0003753485" flag="0"/>
    </comp>
  </station>
  <station code="ANKY" name="ANKY" netid="HL" source="NOA" insttype="60" lat="35.867" lon="23.3012">
    <comp name="--.HHE">
      <acc value="0.0320171508" flag="0"/>
      <vel value="0.0143745882" flag="0"/>
      <psa03 value="0.0802422385" flag="0"/>
      <psa10 value="0.0067044220" flag="0"/>
      <psa30 value="0.0006491050" flag="0"/>
    </comp>
    <comp name="--.HHN">
      <acc value="0.0319952558" flag="0"/>
      <vel value="0.0128997394" flag="0"/>
      <psa03 value="0.0933157603" flag="0"/>
      <psa10 value="0.0093953177" flag="0"/>
      <psa30 value="0.0004996828" flag="0"/>
    </comp>
    <comp name="--.HHZ">
      <acc value="0.0326373094" flag="0"/>
      <vel value="0.0097783072" flag="0"/>
      <psa03 value="0.0483834440" flag="0"/>
      <psa10 value="0.0044441042" flag="0"/>
      <psa30 value="0.0003192600" flag="0"/>
    </comp>
  </station>
  <station code="GVD" name="GVD" netid="HL" source="NOA" insttype="120" lat="34.8391" lon="24.0874">
    <comp name="--.HHE">
      <acc value="0.0521683717" flag="0"/>
      <vel value="0.0211794453" flag="0"/>
      <psa03 value="0.1408666505" flag="0"/>
      <psa10 value="0.0314744694" flag="0"/>
      <psa30 value="0.0011708467" flag="0"/>
    </comp>
    <comp name="--.HHN">
      <acc value="0.0422630631" flag="0"/>
      <vel value="0.0166362566" flag="0"/>
      <psa03 value="0.1427112674" flag="0"/>
      <psa10 value="0.0199862960" flag="0"/>
      <psa30 value="0.0008384010" flag="0"/>
    </comp>
    <comp name="--.HHZ">
      <acc value="0.0341228580" flag="0"/>
      <vel value="0.0121239687" flag="0"/>
      <psa03 value="0.0512338703" flag="0"/>
      <psa10 value="0.0064603454" flag="0"/>
      <psa30 value="0.0004240172" flag="0"/>
    </comp>
  </station>
  <station code="IACM" name="IACM" netid="HL" source="NOA" insttype="120" lat="35.3058" lon="25.0709">
    <comp name="--.HHE">
      <acc value="0.1876479999" flag="0"/>
      <vel value="0.1468600075" flag="0"/>
      <psa03 value="0.6667831993" flag="0"/>
      <psa10 value="0.0995225226" flag="0"/>
      <psa30 value="0.0057136920" flag="0"/>
    </comp>
    <comp name="--.HHN">
      <acc value="0.2047102632" flag="0"/>
      <vel value="0.0915860690" flag="0"/>
      <psa03 value="0.6594724680" flag="0"/>
      <psa10 value="0.1028493083" flag="0"/>
      <psa30 value="0.0047896656" flag="0"/>
    </comp>
    <comp name="--.HHZ">
      <acc value="0.2145349989" flag="0"/>
      <vel value="0.0625485120" flag="0"/>
      <psa03 value="0.3077411173" flag="0"/>
      <psa10 value="0.0607338516" flag="0"/>
      <psa30 value="0.0024201203" flag="0"/>
    </comp>
  </station>
  <station code="IDI" name="IDI" netid="HL" source="NOA" insttype="120" lat="35.288" lon="24.89">
    <comp name="--.HHE">
      <acc value="0.1277909250" flag="0"/>
      <vel value="0.0303955907" flag="0"/>
      <psa03 value="0.1377274651" flag="0"/>
      <psa10 value="0.0136937483" flag="0"/>
      <psa30 value="0.0008457985" flag="0"/>
    </comp>
    <comp name="--.HHN">
      <acc value="0.1512235752" flag="0"/>
      <vel value="0.0251317294" flag="0"/>
      <psa03 value="0.1860880084" flag="0"/>
      <psa10 value="0.0174924672" flag="0"/>
      <psa30 value="0.0009320635" flag="0"/>
    </comp>
    <comp name="--.HHZ">
      <acc value="0.0792654093" flag="0"/>
      <vel value="0.0207038820" flag="0"/>
      <psa03 value="0.1330005574" flag="0"/>
      <psa10 value="0.0093409350" flag="0"/>
      <psa30 value="0.0006822492" flag="0"/>
    </comp>
  </station>
  <station code="IMMV" name="IMMV" netid="HL" source="NOA" insttype="120" lat="35.4606" lon="23.9811">
    <comp name="--.HHE">
      <acc value="0.0847404848" flag="0"/>
      <vel value="0.0261278886" flag="0"/>
      <psa03 value="0.1372491912" flag="0"/>
      <psa10 value="0.0241955248" flag="0"/>
      <psa30 value="0.0009580143" flag="0"/>
    </comp>
    <comp name="--.HHN">
      <acc value="0.0813196424" flag="0"/>
      <vel value="0.0282985864" flag="0"/>
      <psa03 value="0.2290685623" flag="0"/>
      <psa10 value="0.0239726733" flag="0"/>
      <psa30 value="0.0011833731" flag="0"/>
    </comp>
    <comp name="--.HHZ">
      <acc value="0.0644744405" flag="0"/>
      <vel value="0.0248768261" flag="0"/>
      <psa03 value="0.1254778326" flag="0"/>
      <psa10 value="0.0091269730" flag="0"/>
      <psa30 value="0.0005703649" flag="0"/>
    </comp>
  </station>
  <station code="MHLO" name="MHLO" netid="HL" source="NOA" insttype="20" lat="36.6898" lon="24.4017">
    <comp name="--.HHE">
      <acc value="0.6049000600" flag="0"/>
      <vel value="0.2157619240" flag="0"/>
      <psa03 value="1.3460299098" flag="0"/>
      <psa10 value="0.0556687818" flag="0"/>
      <psa30 value="0.0050301843" flag="0"/>
    </comp>
    <comp name="--.HHN">
      <acc value="0.3737389564" flag="0"/>
      <vel value="0.1440885094" flag="0"/>
      <psa03 value="0.4338752908" flag="0"/>
      <psa10 value="0.0615691229" flag="0"/>
      <psa30 value="0.0047402226" flag="0"/>
    </comp>
    <comp name="--.HHZ">
      <acc value="0.1969941580" flag="0"/>
      <vel value="0.0914235679" flag="0"/>
      <psa03 value="0.5302736208" flag="0"/>
      <psa10 value="0.0362619173" flag="0"/>
      <psa30 value="0.0019334710" flag="0"/>
    </comp>
  </station>
  <station code="SANT" name="SANT" netid="HL" source="NOA" insttype="120" lat="36.3705" lon="25.4593">
    <comp name="--.HHE">
      <acc value="0.0861870929" flag="0"/>
      <vel value="0.0276610755" flag="0"/>
      <psa03 value="0.1352327185" flag="0"/>
      <psa10 value="0.0161033605" flag="0"/>
      <psa30 value="0.0005953957" flag="0"/>
    </comp>
    <comp name="--.HHN">
      <acc value="0.0520107211" flag="0"/>
      <vel value="0.0145919108" flag="0"/>
      <psa03 value="0.0489215797" flag="0"/>
      <psa10 value="0.0068409742" flag="0"/>
      <psa30 value="0.0003841903" flag="0"/>
    </comp>
    <comp name="--.HHZ">
      <acc value="0.0594537258" flag="0"/>
      <vel value="0.0127583951" flag="0"/>
      <psa03 value="0.0633324004" flag="0"/>
      <psa10 value="0.0070263889" flag="0"/>
      <psa30 value="0.0003703051" flag="0"/>
    </comp>
  </station>
  <station code="IDI" name="IDI" netid="MN" source="INGV" insttype="" lat="35.288" lon="24.89">
    <comp name="--.HHE">
      <acc value="0.1437226673" flag="0"/>
      <vel value="0.0292517425" flag="0"/>
      <psa03 value="0.1321537004" flag="0"/>
      <psa10 value="0.0130050091" flag="0"/>
      <psa30 value="0.0008010913" flag="0"/>
    </comp>
    <comp name="--.HHN">
      <acc value="0.1544961096" flag="0"/>
      <vel value="0.0242658176" flag="0"/>
      <psa03 value="0.1809335517" flag="0"/>
      <psa10 value="0.0166750484" flag="0"/>
      <psa30 value="0.0009001236" flag="0"/>
    </comp>
    <comp name="--.HHZ">
      <acc value="0.0771151181" flag="0"/>
      <vel value="0.0204159386" flag="0"/>
      <psa03 value="0.1294784721" flag="0"/>
      <psa10 value="0.0089792162" flag="0"/>
      <psa30 value="0.0006567373" flag="0"/>
    </comp>
  </station>
</stationlist>
