<stationlist xmlns:esm="https://esm-db.eu/esmws/shakemap/1/" created="1783475726">
	<station code="IMMV" name="IMMV" netid="GE" source="GEOFON" insttype="" lat="35.4606" lon="23.9811" esm:processing="manual (Paolucci et al 2011)" esm:quality="best">
		<comp name="--.HNE" depth="0.0">
			<acc value="0.0811303918799098" flag="0"/>
			<vel value="0.0262227986327378" flag="0"/>
			<psa03 value="0.13928248920268" flag="0"/>
			<psa10 value="0.0244144798853923" flag="0"/>
			<psa30 value="0.000981196591138699" flag="0"/>
		</comp>
		<comp name="--.HNN" depth="0.0">
			<acc value="0.0765978545048074" flag="0"/>
			<vel value="0.028736653876844" flag="0"/>
			<psa03 value="0.22885638685246" flag="0"/>
			<psa10 value="0.024180925566845" flag="0"/>
			<psa30 value="0.00122951583787011" flag="0"/>
		</comp>
		<comp name="--.HNZ" depth="0.0">
			<acc value="0.0686430372647443" flag="0"/>
			<vel value="0.025246178931845" flag="0"/>
			<psa03 value="0.130020852432698" flag="0"/>
			<psa10 value="0.00927774396436483" flag="0"/>
			<psa30 value="0.000568226024052051" flag="0"/>
		</comp>
	</station>
	<station code="KTHA" name="KTHA" netid="GE" source="GEOFON" insttype="" lat="36.2566" lon="23.0621" esm:processing="manual (Paolucci et al 2011)" esm:quality="best">
		<comp name="--.HNE" depth="0.0">
			<acc value="0.108299896024371" flag="0"/>
			<vel value="0.0470714775319816" flag="0"/>
			<psa03 value="0.373150003196386" flag="0"/>
			<psa10 value="0.00980525458039425" flag="0"/>
			<psa30 value="0.000880079204181405" flag="0"/>
		</comp>
		<comp name="--.HNN" depth="0.0">
			<acc value="0.0873545709156641" flag="0"/>
			<vel value="0.0232719740220618" flag="0"/>
			<psa03 value="0.134853010747471" flag="0"/>
			<psa10 value="0.00837976787753612" flag="0"/>
			<psa30 value="0.000804912297062709" flag="0"/>
		</comp>
		<comp name="--.HNZ" depth="0.0">
			<acc value="0.0645608690195081" flag="0"/>
			<vel value="0.0234793937176048" flag="0"/>
			<psa03 value="0.100893675924203" flag="0"/>
			<psa10 value="0.00438115687206117" flag="0"/>
			<psa30 value="0.000365991250137463" flag="0"/>
		</comp>
	</station>
	<station code="CH01" name="CH01" netid="HI" source="ITSAK Strong Motion Network" insttype="" lat="35.517" lon="24.0208" esm:processing="manual (Paolucci et al 2011)" esm:quality="best">
		<comp name="--.HNE" depth="0.0">
			<acc value="0.160357938735932" flag="0"/>
			<vel value="0.0417490437324544" flag="0"/>
			<psa03 value="0.177984497927485" flag="0"/>
			<psa10 value="0.0225138309482482" flag="0"/>
			<psa30 value="0.00150781236303576" flag="0"/>
		</comp>
		<comp name="--.HNN" depth="0.0">
			<acc value="0.20829153199209" flag="0"/>
			<vel value="0.0500352392353946" flag="0"/>
			<psa03 value="0.166754204066299" flag="0"/>
			<psa10 value="0.0199326530484401" flag="0"/>
			<psa30 value="0.00148991548038845" flag="0"/>
		</comp>
		<comp name="--.HNZ" depth="0.0">
			<acc value="0.112863244135899" flag="0"/>
			<vel value="0.0242247244275311" flag="0"/>
			<psa03 value="0.0804017452930343" flag="0"/>
			<psa10 value="0.0106549090840752" flag="0"/>
			<psa30 value="0.000880974048313771" flag="0"/>
		</comp>
	</station>
	<station code="NAX1" name="NAX1" netid="HI" source="ITSAK Strong Motion Network" insttype="" lat="37.101394" lon="25.374103" esm:processing="manual (Paolucci et al 2011)" esm:quality="best">
		<comp name="--.HNE" depth="0.0">
			<acc value="0.0183272740363489" flag="0"/>
			<vel value="0.00504674098856445" flag="0"/>
			<psa03 value="0.0244649800598678" flag="0"/>
			<psa10 value="0.00242135891877178" flag="0"/>
			<psa30 value="0.000229224690219211" flag="0"/>
		</comp>
		<comp name="--.HNN" depth="0.0">
			<acc value="0.0300215755717312" flag="0"/>
			<vel value="0.00644606904347396" flag="0"/>
			<psa03 value="0.0263314656845269" flag="0"/>
			<psa10 value="0.00412804752538271" flag="0"/>
			<psa30 value="0.000213937375425959" flag="0"/>
		</comp>
		<comp name="--.HNZ" depth="0.0">
			<acc value="0.00990473795174195" flag="0"/>
			<vel value="0.00442607222088142" flag="0"/>
			<psa03 value="0.0213409619110786" flag="0"/>
			<psa10 value="0.00518651623751634" flag="0"/>
			<psa30 value="0.00029732974872008" flag="0"/>
		</comp>
	</station>
	<station code="NPS1" name="NPS1" netid="HI" source="ITSAK Strong Motion Network" insttype="" lat="36.51263" lon="23.06248" esm:processing="manual (Paolucci et al 2011)" esm:quality="best">
		<comp name="--.HNE" depth="0.0">
			<acc value="0.068022305101943" flag="0"/>
			<vel value="0.023975510530063" flag="0"/>
			<psa03 value="0.143027339442442" flag="0"/>
			<psa10 value="0.0170396287917697" flag="0"/>
			<psa30 value="0.000944679247030868" flag="0"/>
		</comp>
		<comp name="--.HNN" depth="0.0">
			<acc value="0.0486238750880324" flag="0"/>
			<vel value="0.0247487943247978" flag="0"/>
			<psa03 value="0.133738099075916" flag="0"/>
			<psa10 value="0.0258333013294175" flag="0"/>
			<psa30 value="0.0014124772155179" flag="0"/>
		</comp>
		<comp name="--.HNZ" depth="0.0">
			<acc value="0.0489666725502129" flag="0"/>
			<vel value="0.0149237325687466" flag="0"/>
			<psa03 value="0.107530310855331" flag="0"/>
			<psa10 value="0.0127267662107924" flag="0"/>
			<psa30 value="0.000455772744789343" flag="0"/>
		</comp>
	</station>
	<station code="SIT2" name="SIT2" netid="HI" source="ITSAK Strong Motion Network" insttype="" lat="35.2059" lon="26.107" esm:processing="manual (Paolucci et al 2011)" esm:quality="good">
		<comp name="--.HNE" depth="0.0">
			<acc value="0.0218216860325662" flag="0"/>
			<vel value="0.0123243278897387" flag="0"/>
			<psa03 value="0.0774216965155627" flag="0"/>
			<psa10 value="0.0106136334136357" flag="0"/>
			<psa30 value="0.000615550881389614" flag="0"/>
		</comp>
		<comp name="--.HNN" depth="0.0">
			<acc value="0.0353752638199544" flag="0"/>
			<vel value="0.0211635991312054" flag="0"/>
			<psa03 value="0.104029506027664" flag="0"/>
			<psa10 value="0.0102588486608724" flag="0"/>
			<psa30 value="0.000742421942225128" flag="0"/>
		</comp>
		<comp name="--.HNZ" depth="0.0">
			<acc value="0.0177332102638893" flag="0"/>
			<vel value="0.00688412396415478" flag="0"/>
			<psa03 value="0.0607275176918311" flag="0"/>
			<psa10 value="0.00318096330133188" flag="0"/>
			<psa30 value="0.000231419314769048" flag="0"/>
		</comp>
	</station>
	<station code="ANKY" name="ANKY" netid="HL" source="National Observatory of Athens Seismic Network" insttype="" lat="35.86704" lon="23.30117" esm:processing="manual (Paolucci et al 2011)" esm:quality="best">
		<comp name="00.HNE" depth="0.0">
			<acc value="0.039675832207649" flag="0"/>
			<vel value="0.0143261930921134" flag="0"/>
			<psa03 value="0.0849654503680981" flag="0"/>
			<psa10 value="0.00620529663588811" flag="0"/>
			<psa30 value="0.000749879382922234" flag="0"/>
		</comp>
		<comp name="00.HNN" depth="0.0">
			<acc value="0.0375450540322745" flag="0"/>
			<vel value="0.0147003749940487" flag="0"/>
			<psa03 value="0.0900660619225811" flag="0"/>
			<psa10 value="0.00925760997138661" flag="0"/>
			<psa30 value="0.000558382738596031" flag="0"/>
		</comp>
		<comp name="00.HNZ" depth="0.0">
			<acc value="0.0391582094473932" flag="0"/>
			<vel value="0.009212345227409" flag="0"/>
			<psa03 value="0.0485900363874431" flag="0"/>
			<psa10 value="0.00440129086503939" flag="0"/>
			<psa30 value="0.000382098444520041" flag="0"/>
		</comp>
	</station>
	<station code="CHNB" name="CHNB" netid="HL" source="National Observatory of Athens Seismic Network" insttype="" lat="35.48765" lon="24.06605" esm:processing="manual (Paolucci et al 2011)" esm:quality="best">
		<comp name="00.HNE" depth="0.0">
			<acc value="0.212619856064813" flag="0"/>
			<vel value="0.089826748356218" flag="0"/>
			<psa03 value="0.441352320758369" flag="0"/>
			<psa10 value="0.0723171731576954" flag="0"/>
			<psa30 value="0.00354685912867492" flag="0"/>
		</comp>
		<comp name="00.HNN" depth="0.0">
			<acc value="0.235837853385881" flag="0"/>
			<vel value="0.0991739356436622" flag="0"/>
			<psa03 value="0.568053297407689" flag="0"/>
			<psa10 value="0.0743625661551831" flag="0"/>
			<psa30 value="0.00327494611577237" flag="0"/>
		</comp>
		<comp name="00.HNZ" depth="0.0">
			<acc value="0.235816389596428" flag="0"/>
			<vel value="0.0744362538388326" flag="0"/>
			<psa03 value="0.55485650651955" flag="0"/>
			<psa10 value="0.021534927833283" flag="0"/>
			<psa30 value="0.00195547558232521" flag="0"/>
		</comp>
	</station>
	<station code="GVD" name="GVD" netid="HL" source="National Observatory of Athens Seismic Network" insttype="" lat="34.83914" lon="24.08738" esm:processing="manual (Paolucci et al 2011)" esm:quality="best">
		<comp name="00.HNE" depth="1.0">
			<acc value="0.0510301162376072" flag="0"/>
			<vel value="0.0207209730624456" flag="0"/>
			<psa03 value="0.140779346774229" flag="0"/>
			<psa10 value="0.0307566574776167" flag="0"/>
			<psa30 value="0.0012443501404249" flag="0"/>
		</comp>
		<comp name="00.HNN" depth="1.0">
			<acc value="0.0406952574235969" flag="0"/>
			<vel value="0.0160900682741711" flag="0"/>
			<psa03 value="0.140082654788304" flag="0"/>
			<psa10 value="0.0195636622466147" flag="0"/>
			<psa30 value="0.000828127203113909" flag="0"/>
		</comp>
		<comp name="00.HNZ" depth="1.0">
			<acc value="0.0330114642506718" flag="0"/>
			<vel value="0.0118555015702163" flag="0"/>
			<psa03 value="0.0496384393446928" flag="0"/>
			<psa10 value="0.00627806870373552" flag="0"/>
			<psa30 value="0.000376289510666732" flag="0"/>
		</comp>
	</station>
	<station code="HERG" name="HERG" netid="HL" source="National Observatory of Athens Seismic Network" insttype="" lat="35.32622" lon="25.06586" esm:processing="manual (Paolucci et al 2011)" esm:quality="good">
		<comp name="00.HNE" depth="0.0">
			<acc value="0.0991225293356749" flag="0"/>
			<vel value="0.0874925949161752" flag="0"/>
			<psa03 value="0.264265277110833" flag="0"/>
			<psa10 value="0.0934101454635161" flag="0"/>
			<psa30 value="0.00468832307839891" flag="0"/>
		</comp>
		<comp name="00.HNN" depth="0.0">
			<acc value="0.115076458946094" flag="0"/>
			<vel value="0.0633637111187972" flag="0"/>
			<psa03 value="0.479208578550446" flag="0"/>
			<psa10 value="0.120425645107926" flag="0"/>
			<psa30 value="0.00367530680437171" flag="0"/>
		</comp>
		<comp name="00.HNZ" depth="0.0">
			<acc value="0.147257628166909" flag="0"/>
			<vel value="0.0638423230449007" flag="0"/>
			<psa03 value="0.196448951278985" flag="0"/>
			<psa10 value="0.0493768472239352" flag="0"/>
			<psa30 value="0.00290161138417921" flag="0"/>
		</comp>
	</station>
	<station code="IACM" name="IACM" netid="HL" source="National Observatory of Athens Seismic Network" insttype="" lat="35.3058" lon="25.0709" esm:processing="manual (Paolucci et al 2011)" esm:quality="best">
		<comp name="--.HNE" depth="0.0">
			<acc value="0.195095130782501" flag="0"/>
			<vel value="0.147094540566546" flag="0"/>
			<psa03 value="0.672385881059388" flag="0"/>
			<psa10 value="0.0968324258294623" flag="0"/>
			<psa30 value="0.00563930772216697" flag="0"/>
		</comp>
		<comp name="--.HNN" depth="0.0">
			<acc value="0.20711554490688" flag="0"/>
			<vel value="0.0947892134442163" flag="0"/>
			<psa03 value="0.663661150768825" flag="0"/>
			<psa10 value="0.104137038481961" flag="0"/>
			<psa30 value="0.00472298733062477" flag="0"/>
		</comp>
		<comp name="--.HNZ" depth="0.0">
			<acc value="0.200630671514876" flag="0"/>
			<vel value="0.0635543406495179" flag="0"/>
			<psa03 value="0.310689882757279" flag="0"/>
			<psa10 value="0.0592060197517605" flag="0"/>
			<psa30 value="0.00232569990001777" flag="0"/>
		</comp>
	</station>
	<station code="IMMV" name="IMMV" netid="HL" source="National Observatory of Athens Seismic Network" insttype="" lat="35.4606" lon="23.9811" esm:processing="manual (Paolucci et al 2011)" esm:quality="best">
		<comp name="--.HNE" depth="0.0">
			<acc value="0.0794842127204078" flag="0"/>
			<vel value="0.0256907085729261" flag="0"/>
			<psa03 value="0.136463730185729" flag="0"/>
			<psa10 value="0.0239191836581281" flag="0"/>
			<psa30 value="0.000961062598160477" flag="0"/>
		</comp>
		<comp name="--.HNN" depth="0.0">
			<acc value="0.0750436024129101" flag="0"/>
			<vel value="0.0281536029564253" flag="0"/>
			<psa03 value="0.22420319736416" flag="0"/>
			<psa10 value="0.0236896561381763" flag="0"/>
			<psa30 value="0.00120446020216388" flag="0"/>
		</comp>
		<comp name="--.HNZ" depth="0.0">
			<acc value="0.067250216460893" flag="0"/>
			<vel value="0.0247339776170311" flag="0"/>
			<psa03 value="0.12738106224222" flag="0"/>
			<psa10 value="0.00908848443036954" flag="0"/>
			<psa30 value="0.000557040472397483" flag="0"/>
		</comp>
	</station>
	<station code="KTHA" name="KTHA" netid="HL" source="National Observatory of Athens Seismic Network" insttype="" lat="36.2566" lon="23.0621" esm:processing="manual (Paolucci et al 2011)" esm:quality="best">
		<comp name="--.HNE" depth="0.0">
			<acc value="0.106102354505744" flag="0"/>
			<vel value="0.0461163668477598" flag="0"/>
			<psa03 value="0.36554382807128" flag="0"/>
			<psa10 value="0.00960794144920768" flag="0"/>
			<psa30 value="0.000862182321534097" flag="0"/>
		</comp>
		<comp name="--.HNN" depth="0.0">
			<acc value="0.0855821349977918" flag="0"/>
			<vel value="0.0227997874521414" flag="0"/>
			<psa03 value="0.132123736143756" flag="0"/>
			<psa10 value="0.00821064233651905" flag="0"/>
			<psa30 value="0.000788357680613948" flag="0"/>
		</comp>
		<comp name="--.HNZ" depth="0.0">
			<acc value="0.0632508840769818" flag="0"/>
			<vel value="0.0230030018892498" flag="0"/>
			<psa03 value="0.0988355344197623" flag="0"/>
			<psa10 value="0.00429256730295699" flag="0"/>
			<psa30 value="0.000358385075012357" flag="0"/>
		</comp>
	</station>
	<station code="MILA" name="MILA" netid="HL" source="National Observatory of Athens Seismic Network" insttype="" lat="36.74288" lon="24.4282" esm:processing="manual (Paolucci et al 2011)" esm:quality="best">
		<comp name="00.HNE" depth="0.0">
			<acc value="0.0958341556551523" flag="0"/>
			<vel value="0.0394937212711543" flag="0"/>
			<psa03 value="0.267403193316099" flag="0"/>
			<psa10 value="0.0285915452995602" flag="0"/>
			<psa30 value="0.00174775828040949" flag="0"/>
		</comp>
		<comp name="00.HNN" depth="0.0">
			<acc value="0.0976579657050021" flag="0"/>
			<vel value="0.0506259085381534" flag="0"/>
			<psa03 value="0.263299754816673" flag="0"/>
			<psa10 value="0.030601562203299" flag="0"/>
			<psa30 value="0.00272129673088698" flag="0"/>
		</comp>
		<comp name="00.HNZ" depth="0.0">
			<acc value="0.080262424073454" flag="0"/>
			<vel value="0.0355777385282236" flag="0"/>
			<psa03 value="0.185141014683674" flag="0"/>
			<psa10 value="0.0266059331374984" flag="0"/>
			<psa30 value="0.0013639775443164" flag="0"/>
		</comp>
	</station>
	<station code="MNVA" name="MNVA" netid="HL" source="National Observatory of Athens Seismic Network" insttype="" lat="36.68709" lon="23.03734" esm:processing="manual (Paolucci et al 2011)" esm:quality="best">
		<comp name="00.HNE" depth="0.0">
			<acc value="0.0191203220926724" flag="0"/>
			<vel value="0.00852071946562281" flag="0"/>
			<psa03 value="0.0496638493462817" flag="0"/>
			<psa10 value="0.00513416820944668" flag="0"/>
			<psa30 value="0.000365096406005097" flag="0"/>
		</comp>
		<comp name="00.HNN" depth="0.0">
			<acc value="0.0187901714650672" flag="0"/>
			<vel value="0.00757388404363454" flag="0"/>
			<psa03 value="0.039999532716735" flag="0"/>
			<psa10 value="0.00314492970319832" flag="0"/>
			<psa30 value="0.000337803659967952" flag="0"/>
		</comp>
		<comp name="00.HNZ" depth="0.0">
			<acc value="0.0185185786738048" flag="0"/>
			<vel value="0.00728327478437936" flag="0"/>
			<psa03 value="0.0533327102889799" flag="0"/>
			<psa10 value="0.0040308253942401" flag="0"/>
			<psa30 value="0.000302009894673334" flag="0"/>
		</comp>
	</station>
	<station code="TNSA" name="TNSA" netid="HL" source="National Observatory of Athens Seismic Network" insttype="" lat="37.53942" lon="25.1631" esm:processing="manual (Paolucci et al 2011)" esm:quality="bad">
		<comp name="00.HNE" depth="0.0">
			<acc value="0.018758852657159" flag="0"/>
			<vel value="0.00553399003375609" flag="0"/>
			<psa03 value="0.0383440710718589" flag="0"/>
			<psa10 value="0.00194897052029192" flag="0"/>
			<psa30 value="0.000157492567296317" flag="0"/>
		</comp>
		<comp name="00.HNN" depth="0.0">
			<acc value="0.0146047783915245" flag="0"/>
			<vel value="0.00637712073957694" flag="0"/>
			<psa03 value="0.0453238553043093" flag="0"/>
			<psa10 value="0.00161071943825778" flag="0"/>
			<psa30 value="0.000164203898289057" flag="0"/>
		</comp>
		<comp name="00.HNZ" depth="0.0">
			<acc value="0.00925991702345518" flag="0"/>
			<vel value="0.00365247492952726" flag="0"/>
			<psa03 value="0.0191496644326203" flag="0"/>
			<psa10 value="0.00219863203322187" flag="0"/>
			<psa30 value="0.000164203898289057" flag="0"/>
		</comp>
	</station>
	<station code="ZKR" name="ZKR" netid="HL" source="National Observatory of Athens Seismic Network" insttype="" lat="35.1147" lon="26.21691" esm:processing="manual (Paolucci et al 2011)" esm:quality="bad">
		<comp name="00.HNE" depth="0.0">
			<acc value="0.00684592133274542" flag="0"/>
			<vel value="0.00381877662801046" flag="0"/>
			<psa03 value="0.0148544125972662" flag="0"/>
			<psa10 value="0.00542812450692873" flag="0"/>
			<psa30 value="0.000529747726360337" flag="0"/>
		</comp>
		<comp name="00.HNN" depth="0.0">
			<acc value="0.00579225177168206" flag="0"/>
			<vel value="0.00365887946222409" flag="0"/>
			<psa03 value="0.0114092626876593" flag="0"/>
			<psa10 value="0.00438518367065681" flag="0"/>
			<psa30 value="0.000509166311315932" flag="0"/>
		</comp>
		<comp name="00.HNZ" depth="0.0">
			<acc value="0.00526703820094066" flag="0"/>
			<vel value="0.00255981466283708" flag="0"/>
			<psa03 value="0.00894844132365435" flag="0"/>
			<psa10 value="0.00281473221835548" flag="0"/>
			<psa30 value="0.000415655099483745" flag="0"/>
		</comp>
	</station>
	<station code="AGNA" name="AGNA" netid="HL" source="National Observatory of Athens Seismic Network" insttype="" lat="35.1895" lon="25.71853" esm:processing="discarded" esm:quality="bad">
		<comp name="00.HNE" depth="0.0">
			<acc value="0" flag="1"/>
			<vel value="0" flag="1"/>
			<psa03 value="0" flag="1"/>
			<psa10 value="0" flag="1"/>
			<psa30 value="0" flag="1"/>
		</comp>
		<comp name="00.HNN" depth="0.0">
			<acc value="0" flag="1"/>
			<vel value="0" flag="1"/>
			<psa03 value="0" flag="1"/>
			<psa10 value="0" flag="1"/>
			<psa30 value="0" flag="1"/>
		</comp>
		<comp name="00.HNZ" depth="0.0">
			<acc value="0" flag="1"/>
			<vel value="0" flag="1"/>
			<psa03 value="0" flag="1"/>
			<psa10 value="0" flag="1"/>
			<psa30 value="0" flag="1"/>
		</comp>
	</station>
	<station code="AMGA" name="AMGA" netid="HL" source="National Observatory of Athens Seismic Network" insttype="" lat="36.831561" lon="25.893836" esm:processing="discarded" esm:quality="good">
		<comp name="00.HNE" depth="0.0">
			<acc value="0" flag="1"/>
			<vel value="0" flag="1"/>
			<psa03 value="0" flag="1"/>
			<psa10 value="0" flag="1"/>
			<psa30 value="0" flag="1"/>
		</comp>
		<comp name="00.HNN" depth="0.0">
			<acc value="0" flag="1"/>
			<vel value="0" flag="1"/>
			<psa03 value="0" flag="1"/>
			<psa10 value="0" flag="1"/>
			<psa30 value="0" flag="1"/>
		</comp>
		<comp name="00.HNZ" depth="0.0">
			<acc value="0" flag="1"/>
			<vel value="0" flag="1"/>
			<psa03 value="0" flag="1"/>
			<psa10 value="0" flag="1"/>
			<psa30 value="0" flag="1"/>
		</comp>
	</station>
	<station code="ASTA" name="ASTA" netid="HL" source="National Observatory of Athens Seismic Network" insttype="" lat="36.54552" lon="26.35295" esm:processing="discarded" esm:quality="bad">
		<comp name="00.HNE" depth="0.0">
			<acc value="0" flag="1"/>
			<vel value="0" flag="1"/>
			<psa03 value="0" flag="1"/>
			<psa10 value="0" flag="1"/>
