<stationlist created="1778136324">
	<station code="MALA" name="MALA" netid="CL" source="Corinth Riff Laboratory (CRLNET)" insttype="" lat="38.39341" lon="21.87263">
		<comp name="01.HNE" depth="0.0">
			<acc value="0.0099513231272582" flag="0"/>
			<vel value="0.0124042762937762" flag="0"/>
			<psa03 value="0.0142280217046104" flag="0"/>
			<psa10 value="0.0234923430069898" flag="0"/>
			<psa30 value="0.00150960205130049" flag="0"/>
		</comp>
		<comp name="01.HNN" depth="0.0">
			<acc value="0.00681750749221738" flag="0"/>
			<vel value="0.00680457092175194" flag="0"/>
			<psa03 value="0.0152123502502124" flag="0"/>
			<psa10 value="0.0177742890011746" flag="0"/>
			<psa30 value="0.00115837572934706" flag="0"/>
		</comp>
		<comp name="01.HNZ" depth="0.0">
			<acc value="0.00486713610062136" flag="0"/>
			<vel value="0.00456252064879714" flag="0"/>
			<psa03 value="0.00809833939790719" flag="0"/>
			<psa10 value="0.00730461265249905" flag="0"/>
			<psa30 value="0.000697978423245039" flag="0"/>
		</comp>
	</station>
	<station code="ROD3" name="ROD3" netid="CL" source="Corinth Riff Laboratory (CRLNET)" insttype="" lat="38.30811" lon="21.89204">
		<comp name="00.HNE" depth="0.0">
			<acc value="0.00510901196692344" flag="0"/>
			<vel value="0.00206561899962897" flag="0"/>
			<psa03 value="0.0109170984148583" flag="0"/>
			<psa10 value="0.00283083941273805" flag="0"/>
			<psa30 value="0.000262636752849255" flag="0"/>
		</comp>
		<comp name="00.HNN" depth="0.0">
			<acc value="0.0046857450586626" flag="0"/>
			<vel value="0.00221556627271923" flag="0"/>
			<psa03 value="0.0145412171509383" flag="0"/>
			<psa10 value="0.00273016944784694" flag="0"/>
			<psa30 value="0.000390599463777512" flag="0"/>
		</comp>
		<comp name="00.HNZ" depth="0.0">
			<acc value="0.00230192071731897" flag="0"/>
			<vel value="0.00139540581957393" flag="0"/>
			<psa03 value="0.00425050962873582" flag="0"/>
			<psa10 value="0.00198923850624836" flag="0"/>
			<psa30 value="0.000381203600387675" flag="0"/>
		</comp>
	</station>
	<station code="STC" name="STC" netid="EG" source="EUROSEISTEST Strong Motion Network" insttype="" lat="40.64865" lon="23.304856">
		<comp name="--.EN1" depth="0.0">
			<acc value="0.0103345255309913" flag="0"/>
			<vel value="0.00834202810722817" flag="0"/>
			<psa03 value="0.0390891727991853" flag="0"/>
			<psa10 value="0.0189107458691061" flag="0"/>
			<psa30 value="0.00071135175897902" flag="0"/>
		</comp>
		<comp name="--.EN2" depth="0.0">
			<acc value="0.00915207951740584" flag="0"/>
			<vel value="0.00617487169984115" flag="0"/>
			<psa03 value="0.0265249706908049" flag="0"/>
			<psa10 value="0.00784598569556444" flag="0"/>
			<psa30 value="0.000862522294117273" flag="0"/>
		</comp>
		<comp name="--.EN3" depth="0.0">
			<acc value="0.00675771855051671" flag="0"/>
			<vel value="0.00539925208665452" flag="0"/>
			<psa03 value="0.0133654609170278" flag="0"/>
			<psa10 value="0.00902705518559669" flag="0"/>
			<psa30 value="0.000342210326004649" flag="0"/>
		</comp>
	</station>
	<station code="VAS2" name="VAS2" netid="HI" source="ITSAK Strong Motion Network" insttype="" lat="38.630558" lon="20.608081">
		<comp name="--.HNE" depth="0.0">
			<acc value="0.0141112844910168" flag="0"/>
			<vel value="0.018793524040023" flag="0"/>
			<psa03 value="0.0357042808813809" flag="0"/>
			<psa10 value="0.037477414529663" flag="0"/>
			<psa30 value="0.00154450097246274" flag="0"/>
		</comp>
		<comp name="--.HNN" depth="0.0">
			<acc value="0.0174798214385637" flag="0"/>
			<vel value="0.0168048712415191" flag="0"/>
			<psa03 value="0.0306036693268979" flag="0"/>
			<psa10 value="0.0481846719954816" flag="0"/>
			<psa30 value="0.00147783508460152" flag="0"/>
		</comp>
		<comp name="--.HNZ" depth="0.0">
			<acc value="0.00921802137428989" flag="0"/>
			<vel value="0.00883071310877232" flag="0"/>
			<psa03 value="0.019597086498803" flag="0"/>
			<psa10 value="0.0166951069775419" flag="0"/>
			<psa30 value="0.000672027943406442" flag="0"/>
		</comp>
	</station>
	<station code="VOL2" name="VOL2" netid="HI" source="ITSAK Strong Motion Network" insttype="" lat="39.366" lon="22.9506">
		<comp name="--.HNE" depth="0.0">
			<acc value="0.0133517448177224" flag="0"/>
			<vel value="0.00712368035760468" flag="0"/>
			<psa03 value="0.0245634714334312" flag="0"/>
			<psa10 value="0.0054885264858634" flag="0"/>
			<psa30 value="0.000697531001178857" flag="0"/>
		</comp>
		<comp name="--.HNN" depth="0.0">
			<acc value="0.0123208393402143" flag="0"/>
			<vel value="0.00677715698390692" flag="0"/>
			<psa03 value="0.0204919306311685" flag="0"/>
			<psa10 value="0.00615697505274038" flag="0"/>
			<psa30 value="0.000607151743809948" flag="0"/>
		</comp>
		<comp name="--.HNZ" depth="0.0">
			<acc value="0.00974876800146586" flag="0"/>
			<vel value="0.00300204276918855" flag="0"/>
			<psa03 value="0.00787462836481583" flag="0"/>
			<psa10 value="0.00242010595598232" flag="0"/>
			<psa30 value="0.000358832497078539" flag="0"/>
		</comp>
	</station>
	<station code="ANX" name="ANX" netid="HP" source="University of Patras, Seismological Laboratory (PSLNET)" insttype="" lat="38.5933" lon="21.9209">
		<comp name="--.HNE" depth="0.0">
			<acc value="0.00854037054785862" flag="0"/>
			<vel value="0.00610043478317858" flag="0"/>
			<psa03 value="0.0166869452719939" flag="0"/>
			<psa10 value="0.0105580003531909" flag="0"/>
			<psa30 value="0.000599752491077372" flag="0"/>
		</comp>
		<comp name="--.HNN" depth="0.0">
			<acc value="0.00935023869326237" flag="0"/>
			<vel value="0.00675098646410709" flag="0"/>
			<psa03 value="0.0482871362857197" flag="0"/>
			<psa10 value="0.00834445090391536" flag="0"/>
			<psa30 value="0.000573068327545846" flag="0"/>
		</comp>
		<comp name="--.HNZ" depth="0.0">
			<acc value="0.00417027596733407" flag="0"/>
			<vel value="0.00400975728978813" flag="0"/>
			<psa03 value="0.0159649833830676" flag="0"/>
			<psa10 value="0.00561887441034541" flag="0"/>
			<psa30 value="0.000424738293077489" flag="0"/>
		</comp>
	</station>
	<station code="LTK" name="LTK" netid="HP" source="University of Patras, Seismological Laboratory (PSLNET)" insttype="" lat="38.0228" lon="22.9673">
		<comp name="--.HNE" depth="0.0">
			<acc value="0.000577650538534752" flag="0"/>
			<vel value="0.000734966748767595" flag="0"/>
			<psa03 value="0.00173528650369588" flag="0"/>
			<psa10 value="0.00113945438951242" flag="0"/>
			<psa30 value="0.000188599017196602" flag="0"/>
		</comp>
		<comp name="--.HNN" depth="0.0">
			<acc value="0.000642594922819152" flag="0"/>
			<vel value="0.000580958601973024" flag="0"/>
			<psa03 value="0.00169281852112707" flag="0"/>
			<psa10 value="0.00107374886496715" flag="0"/>
			<psa30 value="0.000140766512590827" flag="0"/>
		</comp>
		<comp name="--.HNZ" depth="0.0">
			<acc value="0.000458455162433335" flag="0"/>
			<vel value="0.000361521481186498" flag="0"/>
			<psa03 value="0.00114773301410263" flag="0"/>
			<psa10 value="0.000740994595068389" flag="0"/>
			<psa30 value="9.19759692585017e-05" flag="0"/>
		</comp>
	</station>
	<station code="PDO" name="PDO" netid="HP" source="University of Patras, Seismological Laboratory (PSLNET)" insttype="" lat="38.5986" lon="21.1833">
		<comp name="--.HNE" depth="0.0">
			<acc value="0.00480310979552265" flag="0"/>
			<vel value="0.00394627384042089" flag="0"/>
			<psa03 value="0.0136212512993881" flag="0"/>
			<psa10 value="0.00485099416706438" flag="0"/>
			<psa30 value="0.000256727840292778" flag="0"/>
		</comp>
		<comp name="--.HNN" depth="0.0">
			<acc value="0.00514116293873826" flag="0"/>
			<vel value="0.00394009862750008" flag="0"/>
			<psa03 value="0.0196533657411129" flag="0"/>
			<psa10 value="0.00513994705876912" flag="0"/>
			<psa30 value="0.000328373341663846" flag="0"/>
		</comp>
		<comp name="--.HNZ" depth="0.0">
			<acc value="0.00298920650743541" flag="0"/>
			<vel value="0.00157840719502184" flag="0"/>
			<psa03 value="0.0088083660630866" flag="0"/>
			<psa10 value="0.00161367213223625" flag="0"/>
			<psa30 value="0.00018205495087221" flag="0"/>
		</comp>
	</station>
	<station code="PVO" name="PVO" netid="HP" source="University of Patras, Seismological Laboratory (PSLNET)" insttype="" lat="38.616" lon="21.525">
		<comp name="--.HNE" depth="0.0">
			<acc value="0.00281254414434238" flag="0"/>
			<vel value="0.00266457663545997" flag="0"/>
			<psa03 value="0.00943983302489903" flag="0"/>
			<psa10 value="0.00369582928367598" flag="0"/>
			<psa30 value="0.000266631985976965" flag="0"/>
		</comp>
		<comp name="--.HNN" depth="0.0">
			<acc value="0.00258715785501128" flag="0"/>
			<vel value="0.00223618349386911" flag="0"/>
			<psa03 value="0.00745661050031697" flag="0"/>
			<psa10 value="0.0038877519976158" flag="0"/>
			<psa30 value="0.00026081485582925" flag="0"/>
		</comp>
		<comp name="--.HNZ" depth="0.0">
			<acc value="0.00196045591801495" flag="0"/>
			<vel value="0.00228659589691927" flag="0"/>
			<psa03 value="0.00553919311624665" flag="0"/>
			<psa10 value="0.00507132923193459" flag="0"/>
			<psa30 value="0.00026359428474459" flag="0"/>
		</comp>
	</station>
	<station code="SERG" name="SERG" netid="HP" source="University of Patras, Seismological Laboratory (PSLNET)" insttype="" lat="38.4133" lon="22.0566">
		<comp name="--.HNE" depth="0.0">
			<acc value="0.00534954029368593" flag="0"/>
			<vel value="0.00503528783073639" flag="0"/>
			<psa03 value="0.0106646485379031" flag="0"/>
			<psa10 value="0.013283480277889" flag="0"/>
			<psa30 value="0.000682230454835928" flag="0"/>
		</comp>
		<comp name="--.HNN" depth="0.0">
			<acc value="0.00418589305620126" flag="0"/>
			<vel value="0.0032730306395452" flag="0"/>
			<psa03 value="0.012160804291521" flag="0"/>
			<psa10 value="0.00664750005174317" flag="0"/>
			<psa30 value="0.000558653466381876" flag="0"/>
		</comp>
		<comp name="--.HNZ" depth="0.0">
			<acc value="0.00432809692650909" flag="0"/>
			<vel value="0.00340263664726241" flag="0"/>
			<psa03 value="0.00724458603808309" flag="0"/>
			<psa10 value="0.00575629663888185" flag="0"/>
			<psa30 value="0.000601222484289378" flag="0"/>
		</comp>
	</station>
</stationlist>
