<?xml version="1.0" encoding="UTF-8" standalone="yes"?>
<!DOCTYPE earthquake SYSTEM "stationlist.dtd">
<stationlist created="" xmlns="ch.ethz.sed.shakemap.usgs.xml">
  <station code="EVR" name="EVR" netid="HL" insttype="DR24" lat="38.9166" lon="21.8105">
    <comp name="--.HHE">
      <acc value="0.0063324617" flag="0"/>
      <vel value="0.0032533305" flag="0"/>
      <psa03 value="0.0135939964" flag="0"/>
      <psa10 value="0.0040227426" flag="0"/>
      <psa30 value="0.0005517182" flag="0"/>
    </comp>
    <comp name="--.HHZ">
      <acc value="0.0053918965" flag="0"/>
      <vel value="0.0032414469" flag="0"/>
      <psa03 value="0.0104372830" flag="0"/>
      <psa10 value="0.0062546395" flag="0"/>
      <psa30 value="0.0003967152" flag="0"/>
    </comp>
    <comp name="--.HHN">
      <acc value="0.0075118064" flag="0"/>
      <vel value="0.0043804047" flag="0"/>
      <psa03 value="0.0193758663" flag="0"/>
      <psa10 value="0.0070878316" flag="0"/>
      <psa30 value="0.0009673990" flag="0"/>
    </comp>
  </station>
  <station code="JAN" name="JAN" netid="HL" insttype="CMG3EPSC60_DR24" lat="39.6562" lon="20.8487">
    <comp name="--.HHE">
      <acc value="0.0085208386" flag="0"/>
      <vel value="0.0031536835" flag="0"/>
      <psa03 value="0.0225269244" flag="0"/>
      <psa10 value="0.0050646422" flag="0"/>
      <psa30 value="0.0002926037" flag="0"/>
    </comp>
    <comp name="--.HHN">
      <acc value="0.0064599233" flag="0"/>
      <vel value="0.0037257879" flag="0"/>
      <psa03 value="0.0161422375" flag="0"/>
      <psa10 value="0.0025830330" flag="0"/>
      <psa30 value="0.0003023126" flag="0"/>
    </comp>
    <comp name="--.HHZ">
      <acc value="0.0044804355" flag="0"/>
      <vel value="0.0021742208" flag="0"/>
      <psa03 value="0.0075851948" flag="0"/>
      <psa10 value="0.0022253723" flag="0"/>
      <psa30 value="0.0002784455" flag="0"/>
    </comp>
  </station>
  <station code="KZN" name="KZN" netid="HL" insttype="120" lat="40.3033" lon="21.7821">
    <comp name="--.HHE">
      <acc value="0.0586417452" flag="0"/>
      <vel value="0.0406631513" flag="0"/>
      <psa03 value="0.2033865350" flag="0"/>
      <psa10 value="0.0170397143" flag="0"/>
      <psa30 value="0.0016567914" flag="0"/>
    </comp>
    <comp name="--.HHN">
      <acc value="0.0421444551" flag="0"/>
      <vel value="0.0210691693" flag="0"/>
      <psa03 value="0.1224869391" flag="0"/>
      <psa10 value="0.0130240964" flag="0"/>
      <psa30 value="0.0010747705" flag="0"/>
    </comp>
    <comp name="--.HHZ">
      <acc value="0.0156213459" flag="0"/>
      <vel value="0.0090633909" flag="0"/>
      <psa03 value="0.0529938366" flag="0"/>
      <psa10 value="0.0063171545" flag="0"/>
      <psa30 value="0.0006354722" flag="0"/>
    </comp>
  </station>
  <station code="NEO" name="NEO" netid="HL" insttype="120" lat="39.3057" lon="23.2219">
    <comp name="--.HHZ">
      <acc value="0.0056853839" flag="0"/>
      <vel value="0.0049498561" flag="0"/>
      <psa03 value="0.0092671646" flag="0"/>
      <psa10 value="0.0094989184" flag="0"/>
      <psa30 value="0.0005078185" flag="0"/>
    </comp>
    <comp name="--.HHE">
      <acc value="0.0077202276" flag="0"/>
      <vel value="0.0072113011" flag="0"/>
      <psa03 value="0.0185197769" flag="0"/>
      <psa10 value="0.0059872249" flag="0"/>
      <psa30 value="0.0005987229" flag="0"/>
    </comp>
    <comp name="--.HHN">
      <acc value="0.0089741293" flag="0"/>
      <vel value="0.0098858827" flag="0"/>
      <psa03 value="0.0198043790" flag="0"/>
      <psa10 value="0.0156543664" flag="0"/>
      <psa30 value="0.0014645421" flag="0"/>
    </comp>
  </station>
  <station code="PENT" name="PENT" netid="HL" insttype="30" lat="40.1959" lon="21.1384">
    <comp name="--.HHE">
      <acc value="0.0057805992" flag="0"/>
      <vel value="0.0035516414" flag="0"/>
      <psa03 value="0.0205048858" flag="0"/>
      <psa10 value="0.0041876654" flag="0"/>
      <psa30 value="0.0002989228" flag="0"/>
    </comp>
    <comp name="--.HHN">
      <acc value="0.0004222510" flag="0"/>
      <vel value="0.0003696104" flag="0"/>
      <psa03 value="0.0008487958" flag="0"/>
      <psa10 value="0.0002584019" flag="0"/>
      <psa30 value="0.0001597994" flag="0"/>
    </comp>
    <comp name="--.HHZ">
      <acc value="0.0063848426" flag="0"/>
      <vel value="0.0033173294" flag="0"/>
      <psa03 value="0.0190199503" flag="0"/>
      <psa10 value="0.0038296812" flag="0"/>
      <psa30 value="0.0006314656" flag="0"/>
    </comp>
  </station>
  <station code="TETR" name="TETR" netid="HL" insttype="60" lat="39.3445" lon="21.2747">
    <comp name="--.HHE">
      <acc value="0.0642774161" flag="0"/>
      <vel value="0.0263724963" flag="0"/>
      <psa03 value="0.1464923938" flag="0"/>
      <psa10 value="0.0216338917" flag="0"/>
      <psa30 value="0.0015264962" flag="0"/>
    </comp>
    <comp name="--.HHN">
      <acc value="0.0555035821" flag="0"/>
      <vel value="0.0230639410" flag="0"/>
      <psa03 value="0.1558332296" flag="0"/>
      <psa10 value="0.0181833695" flag="0"/>
      <psa30 value="0.0009486234" flag="0"/>
    </comp>
    <comp name="--.HHZ">
      <acc value="0.0344130120" flag="0"/>
      <vel value="0.0119577779" flag="0"/>
      <psa03 value="0.0883354646" flag="0"/>
      <psa10 value="0.0104432507" flag="0"/>
      <psa30 value="0.0006267911" flag="0"/>
    </comp>
  </station>
  <station code="THL" name="THL" netid="HL" insttype="120" lat="39.5647" lon="22.0144">
    <comp name="--.HHN">
      <acc value="0.1588081343" flag="0"/>
      <vel value="0.0349029537" flag="0"/>
      <psa03 value="0.0978989751" flag="0"/>
      <psa10 value="0.0311532580" flag="0"/>
      <psa30 value="0.0020295731" flag="0"/>
    </comp>
    <comp name="--.HHE">
      <acc value="0.1544674332" flag="0"/>
      <vel value="0.0482464822" flag="0"/>
      <psa03 value="0.0807763085" flag="0"/>
      <psa10 value="0.0475060617" flag="0"/>
      <psa30 value="0.0025277159" flag="0"/>
    </comp>
    <comp name="--.HHZ">
      <acc value="0.1071071549" flag="0"/>
      <vel value="0.0288696479" flag="0"/>
      <psa03 value="0.0524103175" flag="0"/>
      <psa10 value="0.0239671804" flag="0"/>
      <psa30 value="0.0013700333" flag="0"/>
    </comp>
  </station>
  <station code="AMPL" name="AMPL" netid="HP" insttype="Compact," lat="38.9224" lon="21.2135">
    <comp name="--.HHE">
      <acc value="0.0060449610" flag="0"/>
      <vel value="0.0079813562" flag="0"/>
      <psa03 value="0.0134743096" flag="0"/>
      <psa10 value="0.0087793459" flag="0"/>
      <psa30 value="0.0008440931" flag="0"/>
    </comp>
    <comp name="--.HHN">
      <acc value="0.0041667007" flag="0"/>
      <vel value="0.0032397832" flag="0"/>
      <psa03 value="0.0124683964" flag="0"/>
      <psa10 value="0.0042400827" flag="0"/>
      <psa30 value="0.0006729109" flag="0"/>
    </comp>
    <comp name="--.HHZ">
      <acc value="0.0031535251" flag="0"/>
      <vel value="0.0021290389" flag="0"/>
      <psa03 value="0.0089729909" flag="0"/>
      <psa10 value="0.0027509013" flag="0"/>
      <psa30 value="0.0002632179" flag="0"/>
    </comp>
  </station>
  <station code="PRMD" name="PRMD" netid="HP" insttype="120P," lat="39.5299" lon="21.0965">
    <comp name="--.HHE">
      <acc value="0.0149309540" flag="0"/>
      <vel value="0.0100549336" flag="0"/>
      <psa03 value="0.0453548316" flag="0"/>
      <psa10 value="0.0124473840" flag="0"/>
      <psa30 value="0.0005486729" flag="0"/>
    </comp>
    <comp name="--.HHN">
      <acc value="0.0158269733" flag="0"/>
      <vel value="0.0102998028" flag="0"/>
      <psa03 value="0.0512479587" flag="0"/>
      <psa10 value="0.0154943859" flag="0"/>
      <psa30 value="0.0007624614" flag="0"/>
    </comp>
    <comp name="--.HHZ">
      <acc value="0.0145132448" flag="0"/>
      <vel value="0.0069168452" flag="0"/>
      <psa03 value="0.0338067735" flag="0"/>
      <psa10 value="0.0059757096" flag="0"/>
      <psa30 value="0.0005133580" flag="0"/>
    </comp>
  </station>
  <station code="AGG" name="AGG" netid="HT" insttype="120P," lat="39.0211" lon="22.336">
    <comp name="--.HHN">
      <acc value="0.0155460440" flag="0"/>
      <vel value="0.0058742371" flag="0"/>
      <psa03 value="0.0329383532" flag="0"/>
      <psa10 value="0.0042198047" flag="0"/>
      <psa30 value="0.0006992781" flag="0"/>
    </comp>
    <comp name="--.HHZ">
      <acc value="0.0124607095" flag="0"/>
      <vel value="0.0034674214" flag="0"/>
      <psa03 value="0.0134578755" flag="0"/>
      <psa10 value="0.0033183194" flag="0"/>
      <psa30 value="0.0004108365" flag="0"/>
    </comp>
    <comp name="--.HHE">
      <acc value="0.0205944415" flag="0"/>
      <vel value="0.0084021535" flag="0"/>
      <psa03 value="0.0297442313" flag="0"/>
      <psa10 value="0.0127693991" flag="0"/>
      <psa30 value="0.0008280943" flag="0"/>
    </comp>
  </station>
  <station code="KPRO" name="KPRO" netid="HT" insttype="100" lat="39.9549" lon="21.3632">
    <comp name="--.HHE">
      <acc value="0.0242176281" flag="0"/>
      <vel value="0.0127610556" flag="0"/>
      <psa03 value="0.0628632520" flag="0"/>
      <psa10 value="0.0161535933" flag="0"/>
      <psa30 value="0.0013171027" flag="0"/>
    </comp>
    <comp name="--.HHN">
      <acc value="0.0268743750" flag="0"/>
      <vel value="0.0161489076" flag="0"/>
      <psa03 value="0.0886110502" flag="0"/>
      <psa10 value="0.0124336892" flag="0"/>
      <psa30 value="0.0010524139" flag="0"/>
    </comp>
    <comp name="--.HHZ">
      <acc value="0.0158568065" flag="0"/>
      <vel value="0.0082240177" flag="0"/>
      <psa03 value="0.0429425039" flag="0"/>
      <psa10 value="0.0081306292" flag="0"/>
      <psa30 value="0.0007509589" flag="0"/>
    </comp>
  </station>
  <station code="LIT" name="LIT" netid="HT" insttype="100" lat="40.1033" lon="22.4892">
    <comp name="--.HHN">
      <acc value="0.1061394991" flag="0"/>
      <vel value="0.0505872157" flag="0"/>
      <psa03 value="0.3048260950" flag="0"/>
      <psa10 value="0.0293940244" flag="0"/>
      <psa30 value="0.0027967239" flag="0"/>
    </comp>
    <comp name="--.HHE">
      <acc value="0.1501182554" flag="0"/>
      <vel value="0.0520978257" flag="0"/>
      <psa03 value="0.1514588202" flag="0"/>
      <psa10 value="0.0128466372" flag="0"/>
      <psa30 value="0.0013115532" flag="0"/>
    </comp>
    <comp name="--.HHZ">
      <acc value="0.0395129112" flag="0"/>
      <vel value="0.0195450818" flag="0"/>
      <psa03 value="0.1423944048" flag="0"/>
      <psa10 value="0.0141045529" flag="0"/>
      <psa30 value="0.0008825718" flag="0"/>
    </comp>
  </station>
  <station code="TYRN" name="TYRN" netid="HT" insttype="120P," lat="39.711" lon="22.2325">
    <comp name="--.HHE">
      <acc value="0.2619445149" flag="0"/>
      <vel value="0.0933010052" flag="0"/>
      <psa03 value="0.1794055710" flag="0"/>
      <psa10 value="0.0695136631" flag="0"/>
      <psa30 value="0.0048695066" flag="0"/>
    </comp>
    <comp name="--.HHN">
      <acc value="0.1758920628" flag="0"/>
      <vel value="0.0413052277" flag="0"/>
      <psa03 value="0.1447016999" flag="0"/>
      <psa10 value="0.0469607536" flag="0"/>
      <psa30 value="0.0016676734" flag="0"/>
    </comp>
    <comp name="--.HHZ">
      <acc value="0.3570800962" flag="0"/>
      <vel value="0.0812427359" flag="0"/>
      <psa03 value="0.1692314052" flag="0"/>
      <psa10 value="0.0470834352" flag="0"/>
      <psa30 value="0.0031782305" flag="0"/>
    </comp>
  </station>
  <station code="XOR" name="XOR" netid="HT" insttype="Compact," lat="39.366" lon="23.1918">
    <comp name="--.HHN">
      <acc value="0.0186896774" flag="0"/>
      <vel value="0.0147262670" flag="0"/>
      <psa03 value="0.0362825410" flag="0"/>
      <psa10 value="0.0229073942" flag="0"/>
      <psa30 value="0.0025019803" flag="0"/>
    </comp>
    <comp name="--.HHZ">
      <acc value="0.0077494907" flag="0"/>
      <vel value="0.0070338916" flag="0"/>
      <psa03 value="0.0186970249" flag="0"/>
      <psa10 value="0.0100885652" flag="0"/>
      <psa30 value="0.0006047631" flag="0"/>
    </comp>
    <comp name="--.HHE">
      <acc value="0.0111759158" flag="0"/>
      <vel value="0.0109988266" flag="0"/>
      <psa03 value="0.0233366901" flag="0"/>
      <psa10 value="0.0150119686" flag="0"/>
      <psa30 value="0.0017092534" flag="0"/>
    </comp>
  </station>
  <station code="THL" name="THL" netid="MN" insttype="" lat="39.5647" lon="22.0144">
    <comp name="--.HHE">
      <acc value="0.1544674332" flag="0"/>
      <vel value="0.0482464822" flag="0"/>
      <psa03 value="0.0807763085" flag="0"/>
      <psa10 value="0.0475060617" flag="0"/>
      <psa30 value="0.0025277159" flag="0"/>
    </comp>
    <comp name="--.HHN">
      <acc value="0.1588081343" flag="0"/>
      <vel value="0.0349029537" flag="0"/>
      <psa03 value="0.0978989751" flag="0"/>
      <psa10 value="0.0311532580" flag="0"/>
      <psa30 value="0.0020295731" flag="0"/>
    </comp>
    <comp name="--.HHZ">
      <acc value="0.1071071549" flag="0"/>
      <vel value="0.0288696479" flag="0"/>
      <psa03 value="0.0524103175" flag="0"/>
      <psa10 value="0.0239671804" flag="0"/>
      <psa30 value="0.0013700333" flag="0"/>
    </comp>
  </station>
</stationlist>
