<?xml version="1.0" encoding="UTF-8" standalone="yes"?>
<!DOCTYPE earthquake SYSTEM "stationlist.dtd">
<stationlist created="" xmlns="ch.ethz.sed.shakemap.usgs.xml">
  <station code="AKS" name="AKS" netid="KO" insttype="CMG-5T" commtype="DIG" lat="38.8785" lon="27.8129">
    <comp name="--.HNZ">
      <acc value="0.1717470852" flag="0"/>
      <vel value="0.0216171524" flag="0"/>
      <psa03 value="0.0671952841" flag="0"/>
      <psa10 value="0.0193554562" flag="0"/>
      <psa30 value="0.0046493903" flag="0"/>
    </comp>
    <comp name="--.HNN">
      <acc value="0.0992156669" flag="0"/>
      <vel value="0.0394051135" flag="0"/>
      <psa03 value="0.1633539828" flag="0"/>
      <psa10 value="0.0205805074" flag="0"/>
      <psa30 value="0.0054481650" flag="0"/>
    </comp>
  </station>
  <station code="AYDB" name="AYDB" netid="KO" insttype="CMG-3ESPC" commtype="DIG" lat="37.9467" lon="27.8908">
    <comp name="--.HHN">
      <acc value="0.0268949798" flag="0"/>
      <vel value="0.0152592043" flag="0"/>
      <psa03 value="0.0906053598" flag="0"/>
      <psa10 value="0.0157411953" flag="0"/>
      <psa30 value="0.0016534688" flag="0"/>
    </comp>
    <comp name="--.HHZ">
      <acc value="0.0213356738" flag="0"/>
      <vel value="0.0065780771" flag="0"/>
      <psa03 value="0.0530081968" flag="0"/>
      <psa10 value="0.0056510396" flag="0"/>
      <psa30 value="0.0011046115" flag="0"/>
    </comp>
    <comp name="--.HHE">
      <acc value="0.0317985525" flag="0"/>
      <vel value="0.0131642806" flag="0"/>
      <psa03 value="0.1503144279" flag="0"/>
      <psa10 value="0.0135457856" flag="0"/>
      <psa30 value="0.0016886838" flag="0"/>
    </comp>
  </station>
  <station code="AYVL" name="AYVL" netid="KO" insttype="CMG-6T" commtype="DIG" lat="39.2907" lon="26.69">
    <comp name="--.HHE">
      <acc value="0.0291031502" flag="0"/>
      <vel value="0.0177175283" flag="0"/>
      <psa03 value="0.0696262196" flag="0"/>
      <psa10 value="0.0167839721" flag="0"/>
      <psa30 value="0.0006672314" flag="0"/>
    </comp>
    <comp name="--.HHN">
      <acc value="0.0414665417" flag="0"/>
      <vel value="0.0180130676" flag="0"/>
      <psa03 value="0.0941260215" flag="0"/>
      <psa10 value="0.0249480515" flag="0"/>
      <psa30 value="0.0007248381" flag="0"/>
    </comp>
    <comp name="--.HHZ">
      <acc value="0.0148464991" flag="0"/>
      <vel value="0.0055774888" flag="0"/>
      <psa03 value="0.0349669378" flag="0"/>
      <psa10 value="0.0051043257" flag="0"/>
      <psa30 value="0.0002945417" flag="0"/>
    </comp>
  </station>
  <station code="BALB" name="BALB" netid="KO" insttype="CMG-5T" commtype="DIG" lat="39.6507" lon="27.8642">
    <comp name="--.HNE">
      <acc value="0.0508903649" flag="0"/>
      <vel value="0.0367969789" flag="0"/>
      <psa03 value="0.1401626876" flag="0"/>
      <psa10 value="0.0610984625" flag="0"/>
      <psa30 value="0.0038040835" flag="0"/>
    </comp>
    <comp name="--.HNN">
      <acc value="0.0679389189" flag="0"/>
      <vel value="0.0534593141" flag="0"/>
      <psa03 value="0.1763659653" flag="0"/>
      <psa10 value="0.0729448235" flag="0"/>
      <psa30 value="0.0066129375" flag="0"/>
    </comp>
    <comp name="--.HNZ">
      <acc value="0.0367600179" flag="0"/>
      <vel value="0.0187158655" flag="0"/>
      <psa03 value="0.0560882820" flag="0"/>
      <psa10 value="0.0304224470" flag="0"/>
      <psa30 value="0.0029339283" flag="0"/>
    </comp>
  </station>
  <station code="BLCB" name="BLCB" netid="KO" insttype="CMG-3T" commtype="DIG" lat="38.3853" lon="27.042">
    <comp name="--.HHE">
      <acc value="0.0277554338" flag="0"/>
      <vel value="0.0179624898" flag="0"/>
      <psa03 value="0.0959495265" flag="0"/>
      <psa10 value="0.0305365198" flag="0"/>
      <psa30 value="0.0026756875" flag="0"/>
    </comp>
    <comp name="--.HHN">
      <acc value="0.0226312479" flag="0"/>
      <vel value="0.0145875634" flag="0"/>
      <psa03 value="0.0690882482" flag="0"/>
      <psa10 value="0.0265593560" flag="0"/>
      <psa30 value="0.0019138217" flag="0"/>
    </comp>
    <comp name="--.HHZ">
      <acc value="0.0177904351" flag="0"/>
      <vel value="0.0067124427" flag="0"/>
      <psa03 value="0.0412405662" flag="0"/>
      <psa10 value="0.0064607278" flag="0"/>
      <psa30 value="0.0017636083" flag="0"/>
    </comp>
  </station>
  <station code="DKL" name="DKL" netid="KO" insttype="CMG-3ESPC" commtype="DIG" lat="39.0713" lon="26.9053">
    <comp name="--.HHZ">
      <acc value="0.0066858485" flag="0"/>
      <vel value="0.0052974096" flag="0"/>
      <psa03 value="0.0176548123" flag="0"/>
      <psa10 value="0.0090104190" flag="0"/>
      <psa30 value="0.0017505099" flag="0"/>
    </comp>
    <comp name="--.HHN">
      <acc value="0.0035312648" flag="0"/>
      <vel value="0.0014963406" flag="0"/>
      <psa03 value="0.0090481686" flag="0"/>
      <psa10 value="0.0019553370" flag="0"/>
      <psa30 value="0.0001645518" flag="0"/>
    </comp>
    <comp name="--.HHE">
      <acc value="0.0031460686" flag="0"/>
      <vel value="0.0019578841" flag="0"/>
      <psa03 value="0.0073143492" flag="0"/>
      <psa10 value="0.0020597547" flag="0"/>
      <psa30 value="0.0002547724" flag="0"/>
    </comp>
  </station>
  <station code="DST" name="DST" netid="KO" insttype="CMG-5T" commtype="DIG" lat="39.6041" lon="28.6267">
    <comp name="--.HNE">
      <acc value="0.1106049055" flag="0"/>
      <vel value="0.0551876408" flag="0"/>
      <psa03 value="0.1793157125" flag="0"/>
      <psa10 value="0.0478789734" flag="0"/>
      <psa30 value="0.0026297745" flag="0"/>
    </comp>
    <comp name="--.HNZ">
      <acc value="0.1150518582" flag="0"/>
      <vel value="0.0419446900" flag="0"/>
      <psa03 value="0.1841830406" flag="0"/>
      <psa10 value="0.0249479277" flag="0"/>
      <psa30 value="0.0032712728" flag="0"/>
    </comp>
    <comp name="--.HNN">
      <acc value="0.1552868232" flag="0"/>
      <vel value="0.0646104535" flag="0"/>
      <psa03 value="0.2207509007" flag="0"/>
      <psa10 value="0.0505925771" flag="0"/>
      <psa30 value="0.0046915586" flag="0"/>
    </comp>
  </station>
  <station code="EDC" name="EDC" netid="KO" insttype="CMG-3T" commtype="DIG" lat="40.3465" lon="27.8618">
    <comp name="--.HHN">
      <acc value="0.0471981992" flag="0"/>
      <vel value="0.0451524336" flag="0"/>
      <psa03 value="0.1134839182" flag="0"/>
      <psa10 value="0.0661012070" flag="0"/>
      <psa30 value="0.0042798406" flag="0"/>
    </comp>
    <comp name="--.HHE">
      <acc value="0.0450187593" flag="0"/>
      <vel value="0.0446177338" flag="0"/>
      <psa03 value="0.0790848396" flag="0"/>
      <psa10 value="0.0556650716" flag="0"/>
      <psa30 value="0.0049367776" flag="0"/>
    </comp>
    <comp name="--.HHZ">
      <acc value="0.0192549115" flag="0"/>
      <vel value="0.0159459431" flag="0"/>
      <psa03 value="0.0399220900" flag="0"/>
      <psa10 value="0.0158048810" flag="0"/>
      <psa30 value="0.0021062662" flag="0"/>
    </comp>
  </station>
  <station code="FOCM" name="FOCM" netid="KO" insttype="CMG-5T" commtype="DIG" lat="38.7131" lon="26.7309">
    <comp name="--.HNE">
      <acc value="0.0146350576" flag="0"/>
      <vel value="0.0098526471" flag="0"/>
      <psa03 value="0.0346996258" flag="0"/>
      <psa10 value="0.0178331529" flag="0"/>
      <psa30 value="0.0026434219" flag="0"/>
    </comp>
    <comp name="--.HNN">
      <acc value="0.0134706855" flag="0"/>
      <vel value="0.0099168190" flag="0"/>
      <psa03 value="0.0251986857" flag="0"/>
      <psa10 value="0.0116670560" flag="0"/>
      <psa30 value="0.0024147978" flag="0"/>
    </comp>
    <comp name="--.HNZ">
      <acc value="0.0086657418" flag="0"/>
      <vel value="0.0075091427" flag="0"/>
      <psa03 value="0.0267400930" flag="0"/>
      <psa10 value="0.0082678814" flag="0"/>
      <psa30 value="0.0009763225" flag="0"/>
    </comp>
  </station>
  <station code="GEDZ" name="GEDZ" netid="KO" insttype="CMG-6T" commtype="DIG" lat="39.0445" lon="29.4105">
    <comp name="--.HHZ">
      <acc value="0.0727298310" flag="0"/>
      <vel value="0.0344317822" flag="0"/>
      <psa03 value="0.0991182699" flag="0"/>
      <psa10 value="0.0271680463" flag="0"/>
      <psa30 value="0.0020336356" flag="0"/>
    </comp>
    <comp name="--.HHN">
      <acc value="0.1233303094" flag="0"/>
      <vel value="0.0766393880" flag="0"/>
      <psa03 value="0.3621440215" flag="0"/>
      <psa10 value="0.0841633573" flag="0"/>
      <psa30 value="0.0049285979" flag="0"/>
    </comp>
    <comp name="--.HHE">
      <acc value="0.1314146655" flag="0"/>
      <vel value="0.0706110824" flag="0"/>
      <psa03 value="0.2974021096" flag="0"/>
      <psa10 value="0.0919764066" flag="0"/>
      <psa30 value="0.0046221025" flag="0"/>
    </comp>
  </station>
  <station code="GOMA" name="GOMA" netid="KO" insttype="CMG-5T" commtype="DIG" lat="38.7077" lon="27.9175">
    <comp name="--.HNZ">
      <acc value="0.1516021041" flag="0"/>
      <vel value="0.0388067552" flag="0"/>
      <psa03 value="0.1736477655" flag="0"/>
      <psa10 value="0.0137629479" flag="0"/>
      <psa30 value="0.0033257929" flag="0"/>
    </comp>
  </station>
  <station code="GONE" name="GONE" netid="KO" insttype="CMG-5T" commtype="DIG" lat="40.0466" lon="27.686">
    <comp name="--.HNE">
      <acc value="0.0399413088" flag="0"/>
      <vel value="0.0220305398" flag="0"/>
      <psa03 value="0.1228584725" flag="0"/>
      <psa10 value="0.0376586588" flag="0"/>
      <psa30 value="0.0022633326" flag="0"/>
    </comp>
    <comp name="--.HNN">
      <acc value="0.0518325865" flag="0"/>
      <vel value="0.0408145075" flag="0"/>
      <psa03 value="0.1567717229" flag="0"/>
      <psa10 value="0.0475418955" flag="0"/>
      <psa30 value="0.0029663158" flag="0"/>
    </comp>
    <comp name="--.HNZ">
      <acc value="0.0285107996" flag="0"/>
      <vel value="0.0119006906" flag="0"/>
      <psa03 value="0.0665841781" flag="0"/>
      <psa10 value="0.0177068467" flag="0"/>
      <psa30 value="0.0019368651" flag="0"/>
    </comp>
  </station>
  <station code="GORD" name="GORD" netid="KO" insttype="CMG-5T" commtype="DIG" lat="38.9088" lon="28.1769">
    <comp name="--.HNE">
      <acc value="0.0973923805" flag="0"/>
      <vel value="0.0870039022" flag="0"/>
      <psa03 value="0.1587678469" flag="0"/>
      <psa10 value="0.1100723161" flag="0"/>
      <psa30 value="0.0065136747" flag="0"/>
    </comp>
    <comp name="--.HNN">
      <acc value="0.1032121268" flag="0"/>
      <vel value="0.0743660809" flag="0"/>
      <psa03 value="0.1825846700" flag="0"/>
      <psa10 value="0.1397175870" flag="0"/>
      <psa30 value="0.0109134636" flag="0"/>
    </comp>
    <comp name="--.HNZ">
      <acc value="0.1227295247" flag="0"/>
      <vel value="0.0658643606" flag="0"/>
      <psa03 value="0.1314074262" flag="0"/>
      <psa10 value="0.0976830328" flag="0"/>
      <psa30 value="0.0148519775" flag="0"/>
    </comp>
  </station>
  <station code="KULA" name="KULA" netid="KO" insttype="CMG-3T" commtype="DIG" lat="38.5145" lon="28.6607">
    <comp name="--.HHE">
      <acc value="0.0954590265" flag="0"/>
      <vel value="0.0275426658" flag="0"/>
      <psa03 value="0.1148843168" flag="0"/>
      <psa10 value="0.0176391319" flag="0"/>
      <psa30 value="0.0019212325" flag="0"/>
    </comp>
    <comp name="--.HHN">
      <acc value="0.1297980275" flag="0"/>
      <vel value="0.0259345649" flag="0"/>
      <psa03 value="0.1345456997" flag="0"/>
      <psa10 value="0.0088037174" flag="0"/>
      <psa30 value="0.0020156231" flag="0"/>
    </comp>
    <comp name="--.HHZ">
      <acc value="0.0797944100" flag="0"/>
      <vel value="0.0184464058" flag="0"/>
      <psa03 value="0.1124833460" flag="0"/>
      <psa10 value="0.0134203595" flag="0"/>
      <psa30 value="0.0024764412" flag="0"/>
    </comp>
  </station>
  <station code="MDNY" name="MDNY" netid="KO" insttype="CMG-3ESP" commtype="DIG" lat="40.3709" lon="28.8846">
    <comp name="--.HHZ">
      <acc value="0.0579817392" flag="0"/>
      <vel value="0.0320743024" flag="0"/>
      <psa03 value="0.1166378944" flag="0"/>
      <psa10 value="0.0287118873" flag="0"/>
      <psa30 value="0.0053364739" flag="0"/>
    </comp>
    <comp name="--.HHN">
      <acc value="0.1508294715" flag="0"/>
      <vel value="0.0545020425" flag="0"/>
      <psa03 value="0.4306665954" flag="0"/>
      <psa10 value="0.0528879829" flag="0"/>
      <psa30 value="0.0024410606" flag="0"/>
    </comp>
    <comp name="--.HHE">
      <acc value="0.1369370819" flag="0"/>
      <vel value="0.0769481411" flag="0"/>
      <psa03 value="0.4379574239" flag="0"/>
      <psa10 value="0.0389073240" flag="0"/>
      <psa30 value="0.0038775370" flag="0"/>
    </comp>
  </station>
  <station code="NAZL" name="NAZL" netid="KO" insttype="CMG-5T" commtype="DIG" lat="37.9641" lon="28.2922">
    <comp name="--.HNZ">
      <acc value="0.0113912678" flag="0"/>
      <vel value="0.0053002320" flag="0"/>
      <psa03 value="0.0316044831" flag="0"/>
      <psa10 value="0.0072730158" flag="0"/>
      <psa30 value="0.0008567565" flag="0"/>
    </comp>
    <comp name="--.HNE">
      <acc value="0.0258420180" flag="0"/>
      <vel value="0.0132637143" flag="0"/>
      <psa03 value="0.1103802120" flag="0"/>
      <psa10 value="0.0227258138" flag="0"/>
      <psa30 value="0.0024458502" flag="0"/>
    </comp>
    <comp name="--.HNN">
      <acc value="0.0215981914" flag="0"/>
      <vel value="0.0128757702" flag="0"/>
      <psa03 value="0.0953570833" flag="0"/>
      <psa10 value="0.0140144410" flag="0"/>
      <psa30 value="0.0009759662" flag="0"/>
    </comp>
  </station>
  <station code="ODEM" name="ODEM" netid="KO" insttype="CMG-5T" commtype="DIG" lat="38.2762" lon="28.0747">
    <comp name="--.HNN">
      <acc value="0.0319738645" flag="0"/>
      <vel value="0.0133010445" flag="0"/>
      <psa03 value="0.0376050771" flag="0"/>
      <psa10 value="0.0148915035" flag="0"/>
      <psa30 value="0.0015087488" flag="0"/>
    </comp>
    <comp name="--.HNE">
      <acc value="0.0268420090" flag="0"/>
      <vel value="0.0104453625" flag="0"/>
      <psa03 value="0.0480837398" flag="0"/>
      <psa10 value="0.0155048997" flag="0"/>
      <psa30 value="0.0020233974" flag="0"/>
    </comp>
    <comp name="--.HNZ">
      <acc value="0.0352008432" flag="0"/>
      <vel value="0.0173475083" flag="0"/>
      <psa03 value="0.0627859291" flag="0"/>
      <psa10 value="0.0209237275" flag="0"/>
      <psa30 value="0.0017098353" flag="0"/>
    </comp>
  </station>
  <station code="ORLT" name="ORLT" netid="KO" insttype="CMG-5T" commtype="DIG" lat="40.0452" lon="28.8914">
    <comp name="--.HNE">
      <acc value="0.0909923596" flag="0"/>
      <vel value="0.0504949528" flag="0"/>
      <psa03 value="0.2648834186" flag="0"/>
      <psa10 value="0.0763400581" flag="0"/>
      <psa30 value="0.0041692246" flag="0"/>
    </comp>
    <comp name="--.HNN">
      <acc value="0.1150965946" flag="0"/>
      <vel value="0.0571014616" flag="0"/>
      <psa03 value="0.3482315533" flag="0"/>
      <psa10 value="0.1114467559" flag="0"/>
      <psa30 value="0.0044572618" flag="0"/>
    </comp>
    <comp name="--.HNZ">
      <acc value="0.0341387107" flag="0"/>
      <vel value="0.0342707842" flag="0"/>
      <psa03 value="0.0932062137" flag="0"/>
      <psa10 value="0.0540916943" flag="0"/>
      <psa30 value="0.0028617448" flag="0"/>
    </comp>
  </station>
  <station code="SHAP" name="SHAP" netid="KO" insttype="CMG-5T" commtype="DIG" lat="39.0231" lon="29.222">
    <comp name="--.HNE">
      <acc value="0.2494251559" flag="0"/>
      <vel value="0.0521953730" flag="0"/>
      <psa03 value="0.3960551584" flag="0"/>
      <psa10 value="0.0179725818" flag="0"/>
      <psa30 value="0.0019869847" flag="0"/>
    </comp>
    <comp name="--.HNN">
      <acc value="0.3423059410" flag="0"/>
      <vel value="0.0760126675" flag="0"/>
      <psa03 value="0.3645706014" flag="0"/>
      <psa10 value="0.0258665872" flag="0"/>
      <psa30 value="0.0018258638" flag="0"/>
    </comp>
    <comp name="--.HNZ">
      <acc value="0.2110726987" flag="0"/>
      <vel value="0.0424546751" flag="0"/>
      <psa03 value="0.1188118291" flag="0"/>
      <psa10 value="0.0108723912" flag="0"/>
      <psa30 value="0.0014049207" flag="0"/>
    </comp>
  </station>
  <station code="SIMA" name="SIMA" netid="KO" insttype="CMG-6T" commtype="DIG" lat="39.0833" lon="28.9825">
    <comp name="--.HHE">
      <acc value="0.2738854326" flag="0"/>
      <vel value="0.0336285671" flag="0"/>
      <psa03 value="0.1249315442" flag="0"/>
      <psa10 value="0.0184381572" flag="0"/>
      <psa30 value="0.0024331733" flag="0"/>
    </comp>
    <comp name="--.HHN">
      <acc value="0.2274658766" flag="0"/>
      <vel value="0.0422354591" flag="0"/>
      <psa03 value="0.1832713549" flag="0"/>
      <psa10 value="0.0174128552" flag="0"/>
      <psa30 value="0.0040378722" flag="0"/>
    </comp>
    <comp name="--.HHZ">
      <acc value="0.2241584366" flag="0"/>
      <vel value="0.0204061715" flag="0"/>
      <psa03 value="0.0617712027" flag="0"/>
      <psa10 value="0.0139916620" flag="0"/>
      <psa30 value="0.0015494153" flag="0"/>
    </comp>
  </station>
  <station code="SMAA" name="SMAA" netid="KO" insttype="CMG-5T" commtype="DIG" lat="39.1005" lon="28.9805">
    <comp name="--.HNE">
      <acc value="0.1852720665" flag="0"/>
      <vel value="0.0737567576" flag="0"/>
      <psa03 value="0.2504400529" flag="0"/>
      <psa10 value="0.1190988164" flag="0"/>
      <psa30 value="0.0108961858" flag="0"/>
    </comp>
    <comp name="--.HNZ">
      <acc value="0.0994526859" flag="0"/>
      <vel value="0.0336696328" flag="0"/>
      <psa03 value="0.0590304881" flag="0"/>
      <psa10 value="0.0872107887" flag="0"/>
      <psa30 value="0.0040355902" flag="0"/>
    </comp>
    <comp name="--.HNN">
      <acc value="0.2167505048" flag="0"/>
      <vel value="0.0740734497" flag="0"/>
      <psa03 value="0.2641416574" flag="0"/>
      <psa10 value="0.0907151386" flag="0"/>
      <psa30 value="0.0088226094" flag="0"/>
    </comp>
  </station>
  <station code="SOMA" name="SOMA" netid="KO" insttype="CMG-5T" commtype="DIG" lat="39.1564" lon="27.5341">
    <comp name="--.HNN">
      <acc value="0.0640376047" flag="0"/>
      <vel value="0.0243894144" flag="0"/>
      <psa03 value="0.1052922303" flag="0"/>
      <psa10 value="0.0301773650" flag="0"/>
      <psa30 value="0.0026594766" flag="0"/>
    </comp>
    <comp name="--.HNZ">
      <acc value="0.0556567998" flag="0"/>
      <vel value="0.0178374711" flag="0"/>
      <psa03 value="0.0533690601" flag="0"/>
      <psa10 value="0.0187482659" flag="0"/>
      <psa30 value="0.0028675675" flag="0"/>
    </comp>
    <comp name="--.HNE">
      <acc value="0.0842185969" flag="0"/>
      <vel value="0.0251409677" flag="0"/>
      <psa03 value="0.0938240808" flag="0"/>
      <psa10 value="0.0341973522" flag="0"/>
      <psa30 value="0.0036327593" flag="0"/>
    </comp>
  </station>
  <station code="SUSR" name="SUSR" netid="KO" insttype="CMG-5T" commtype="DIG" lat="39.9627" lon="28.0835">
    <comp name="--.HNE">
      <acc value="0.0556207976" flag="0"/>
      <vel value="0.0165668436" flag="0"/>
      <psa03 value="0.0617033702" flag="0"/>
      <psa10 value="0.0181568007" flag="0"/>
      <psa30 value="0.0019945170" flag="0"/>
    </comp>
    <comp name="--.HNN">
      <acc value="0.0515906175" flag="0"/>
      <vel value="0.0177467045" flag="0"/>
      <psa03 value="0.0923792040" flag="0"/>
      <psa10 value="0.0101701528" flag="0"/>
      <psa30 value="0.0021316009" flag="0"/>
    </comp>
    <comp name="--.HNZ">
      <acc value="0.0426843573" flag="0"/>
      <vel value="0.0130800532" flag="0"/>
      <psa03 value="0.0644448164" flag="0"/>
      <psa10 value="0.0135959507" flag="0"/>
      <psa30 value="0.0031171762" flag="0"/>
    </comp>
  </station>
