<?xml version="1.0" encoding="UTF-8" standalone="yes"?>
<!DOCTYPE earthquake SYSTEM "stationlist.dtd">
<stationlist created="" xmlns="ch.ethz.sed.shakemap.usgs.xml">
  <station code="BNN" name="BNN" netid="KO" insttype="CMG-3T" lat="38.8521" lon="35.8472">
    <comp name="--.HHE">
      <acc value="0.0084596257" flag="0"/>
      <vel value="0.0058928686" flag="0"/>
      <psa03 value="0.0225393571" flag="0"/>
      <psa10 value="0.0088775296" flag="0"/>
      <psa30 value="0.0004136806" flag="0"/>
    </comp>
    <comp name="--.HHN">
      <acc value="0.0059342489" flag="0"/>
      <vel value="0.0049769760" flag="0"/>
      <psa03 value="0.0194280885" flag="0"/>
      <psa10 value="0.0119904639" flag="0"/>
      <psa30 value="0.0003894681" flag="0"/>
    </comp>
    <comp name="--.HHZ">
      <acc value="0.0051119509" flag="0"/>
      <vel value="0.0044975689" flag="0"/>
      <psa03 value="0.0129552998" flag="0"/>
      <psa10 value="0.0087403669" flag="0"/>
      <psa30 value="0.0004332165" flag="0"/>
    </comp>
  </station>
  <station code="GAZ" name="GAZ" netid="KO" insttype="CMG-3T" lat="37.1721" lon="37.2096">
    <comp name="--.HHE">
      <acc value="0.0235298240" flag="0"/>
      <vel value="0.0173179723" flag="0"/>
      <psa03 value="0.0467968576" flag="0"/>
      <psa10 value="0.0122052224" flag="0"/>
      <psa30 value="0.0008470343" flag="0"/>
    </comp>
    <comp name="--.HHZ">
      <acc value="0.0228482650" flag="0"/>
      <vel value="0.0152842042" flag="0"/>
      <psa03 value="0.0748680383" flag="0"/>
      <psa10 value="0.0097986380" flag="0"/>
      <psa30 value="0.0005563059" flag="0"/>
    </comp>
    <comp name="--.HHN">
      <acc value="0.0412051037" flag="0"/>
      <vel value="0.0250360051" flag="0"/>
      <psa03 value="0.1265927106" flag="0"/>
      <psa10 value="0.0214754530" flag="0"/>
      <psa30 value="0.0015866978" flag="0"/>
    </comp>
  </station>
  <station code="KMRS" name="KMRS" netid="KO" insttype="CMG-3T" lat="37.5087" lon="36.9">
    <comp name="--.HHN">
      <acc value="0.0135845317" flag="0"/>
      <vel value="0.0092951981" flag="0"/>
      <psa03 value="0.0350322148" flag="0"/>
      <psa10 value="0.0085341372" flag="0"/>
      <psa30 value="0.0023713011" flag="0"/>
    </comp>
    <comp name="--.HHZ">
      <acc value="0.0110538751" flag="0"/>
      <vel value="0.0051653164" flag="0"/>
      <psa03 value="0.0250056608" flag="0"/>
      <psa10 value="0.0064650672" flag="0"/>
      <psa30 value="0.0016620777" flag="0"/>
    </comp>
    <comp name="--.HHE">
      <acc value="0.0164446108" flag="0"/>
      <vel value="0.0096249722" flag="0"/>
      <psa03 value="0.0408571689" flag="0"/>
      <psa10 value="0.0103306645" flag="0"/>
      <psa30 value="0.0009030442" flag="0"/>
    </comp>
  </station>
  <station code="SARI" name="SARI" netid="KO" insttype="CMG-3T" lat="38.4072" lon="36.4181">
    <comp name="--.HHN">
      <acc value="0.0754189739" flag="0"/>
      <vel value="0.0316464177" flag="0"/>
      <psa03 value="0.2038504227" flag="0"/>
      <psa10 value="0.0172517034" flag="0"/>
      <psa30 value="0.0013312961" flag="0"/>
    </comp>
    <comp name="--.HHE">
      <acc value="0.0845092063" flag="0"/>
      <vel value="0.0462477735" flag="0"/>
      <psa03 value="0.2842623151" flag="0"/>
      <psa10 value="0.0220232351" flag="0"/>
      <psa30 value="0.0019143037" flag="0"/>
    </comp>
    <comp name="--.HHZ">
      <acc value="0.0374805956" flag="0"/>
      <vel value="0.0188079262" flag="0"/>
      <psa03 value="0.1528235064" flag="0"/>
      <psa10 value="0.0143191580" flag="0"/>
      <psa30 value="0.0017576162" flag="0"/>
    </comp>
  </station>
  <station code="ANDN" name="ANDN" netid="TU" insttype="T" lat="37.58" lon="36.3452">
    <comp name="--.HHE">
      <acc value="0.5401945936" flag="0"/>
      <vel value="0.1109926278" flag="0"/>
      <psa03 value="0.4721207995" flag="0"/>
      <psa10 value="0.0926711476" flag="0"/>
      <psa30 value="0.0083381138" flag="0"/>
    </comp>
    <comp name="--.HHN">
      <acc value="0.5442845933" flag="0"/>
      <vel value="0.1480952059" flag="0"/>
      <psa03 value="0.7802894979" flag="0"/>
      <psa10 value="0.1056645202" flag="0"/>
      <psa30 value="0.0096843694" flag="0"/>
    </comp>
    <comp name="--.HHZ">
      <acc value="0.1376866018" flag="0"/>
      <vel value="0.0719244842" flag="0"/>
      <psa03 value="0.2535968484" flag="0"/>
      <psa10 value="0.0962951811" flag="0"/>
      <psa30 value="0.0092304710" flag="0"/>
    </comp>
  </station>
</stationlist>
