<?xml version="1.0" encoding="UTF-8" standalone="yes"?>
<!DOCTYPE earthquake SYSTEM "stationlist.dtd">
<stationlist created="" xmlns="ch.ethz.sed.shakemap.usgs.xml">
  <station code="BNN" name="BNN" netid="KO" insttype="CMG-3T" lat="38.8521" lon="35.8472">
    <comp name="--.HHN">
      <acc value="0.0059342485" flag="0"/>
      <vel value="0.0049769758" flag="0"/>
      <psa03 value="0.0194280885" flag="0"/>
      <psa10 value="0.0119904639" flag="0"/>
      <psa30 value="0.0003895034" flag="0"/>
    </comp>
    <comp name="--.HHE">
      <acc value="0.0084596256" flag="0"/>
      <vel value="0.0058928687" flag="0"/>
      <psa03 value="0.0225393571" flag="0"/>
      <psa10 value="0.0088775296" flag="0"/>
      <psa30 value="0.0004136439" flag="0"/>
    </comp>
    <comp name="--.HHZ">
      <acc value="0.0051119507" flag="0"/>
      <vel value="0.0044975705" flag="0"/>
      <psa03 value="0.0129552998" flag="0"/>
      <psa10 value="0.0087403669" flag="0"/>
      <psa30 value="0.0004336177" flag="0"/>
    </comp>
  </station>
  <station code="DARE" name="DARE" netid="KO" insttype="CMG-3ESP" lat="38.5712" lon="37.4832">
    <comp name="--.HHE">
      <acc value="0.0040757807" flag="0"/>
      <vel value="0.0027975871" flag="0"/>
      <psa03 value="0.0136018345" flag="0"/>
      <psa10 value="0.0036073266" flag="0"/>
      <psa30 value="0.0002544430" flag="0"/>
    </comp>
    <comp name="--.HHZ">
      <acc value="0.0043225885" flag="0"/>
      <vel value="0.0022137187" flag="0"/>
      <psa03 value="0.0082947445" flag="0"/>
      <psa10 value="0.0036110886" flag="0"/>
      <psa30 value="0.0004025309" flag="0"/>
    </comp>
    <comp name="--.HHN">
      <acc value="0.0046521087" flag="0"/>
      <vel value="0.0035731295" flag="0"/>
      <psa03 value="0.0132937199" flag="0"/>
      <psa10 value="0.0063269502" flag="0"/>
      <psa30 value="0.0005771098" flag="0"/>
    </comp>
  </station>
  <station code="GAZ" name="GAZ" netid="KO" insttype="CMG-3T" lat="37.1721" lon="37.2096">
    <comp name="--.HHN">
      <acc value="0.0412051044" flag="0"/>
      <vel value="0.0250360051" flag="0"/>
      <psa03 value="0.1265927106" flag="0"/>
      <psa10 value="0.0214754528" flag="0"/>
      <psa30 value="0.0015864478" flag="0"/>
    </comp>
    <comp name="--.HHE">
      <acc value="0.0235298242" flag="0"/>
      <vel value="0.0173179693" flag="0"/>
      <psa03 value="0.0467968576" flag="0"/>
      <psa10 value="0.0122052222" flag="0"/>
      <psa30 value="0.0008466024" flag="0"/>
    </comp>
    <comp name="--.HHZ">
      <acc value="0.0228482650" flag="0"/>
      <vel value="0.0152842132" flag="0"/>
      <psa03 value="0.0748680383" flag="0"/>
      <psa10 value="0.0097986379" flag="0"/>
      <psa30 value="0.0005571107" flag="0"/>
    </comp>
  </station>
  <station code="ANDN" name="ANDN" netid="TU" insttype="T" lat="37.58" lon="36.3452">
    <comp name="--.HHZ">
      <acc value="0.1376866011" flag="0"/>
      <vel value="0.0719244818" flag="0"/>
      <psa03 value="0.2535968484" flag="0"/>
      <psa10 value="0.0962951877" flag="0"/>
      <psa30 value="0.0092286125" flag="0"/>
    </comp>
    <comp name="--.HHN">
      <acc value="0.5442845924" flag="0"/>
      <vel value="0.1480952067" flag="0"/>
      <psa03 value="0.7802894979" flag="0"/>
      <psa10 value="0.1056645350" flag="0"/>
      <psa30 value="0.0096855951" flag="0"/>
    </comp>
    <comp name="--.HHE">
      <acc value="0.5401945940" flag="0"/>
      <vel value="0.1109926131" flag="0"/>
      <psa03 value="0.4721207995" flag="0"/>
      <psa10 value="0.0926711487" flag="0"/>
      <psa30 value="0.0083361559" flag="0"/>
    </comp>
  </station>
</stationlist>
