<stationlist created="1778118906">
	<station code="KBN" name="KBN" netid="AC" source="Albanian Seismological Network (AC)" insttype="" lat="40.6236" lon="20.7874">
		<comp name="00.HNE" depth="0.0">
			<acc value="0.00118577593295881" flag="0"/>
			<vel value="0.00273630374853048" flag="0"/>
			<psa03 value="0.00161071943825778" flag="0"/>
			<psa10 value="0.00235567717845201" flag="0"/>
			<psa30 value="0.00117403550166345" flag="0"/>
		</comp>
		<comp name="00.HNN" depth="0.0">
			<acc value="0.00168009828300498" flag="0"/>
			<vel value="0.00623045559695571" flag="0"/>
			<psa03 value="0.00192391488458569" flag="0"/>
			<psa10 value="0.00274224984363388" flag="0"/>
			<psa30 value="0.00186038095118774" flag="0"/>
		</comp>
		<comp name="00.HNZ" depth="0.0">
			<acc value="0.0010576409686818" flag="0"/>
			<vel value="0.00288099111897151" flag="0"/>
			<psa03 value="0.00134226619854815" flag="0"/>
			<psa10 value="0.0026536602745297" flag="0"/>
			<psa30 value="0.00128499617407676" flag="0"/>
		</comp>
	</station>
	<station code="TPE" name="TPE" netid="AC" source="Albanian Seismological Network (AC)" insttype="" lat="40.2947" lon="20.0094">
		<comp name="00.HNE" depth="0.0">
			<acc value="0.00118599973130096" flag="0"/>
			<vel value="0.00314902137380768" flag="0"/>
			<psa03 value="0.00187917267796741" flag="0"/>
			<psa10 value="0.00264157987874276" flag="0"/>
			<psa30 value="0.00164203898289057" flag="0"/>
		</comp>
		<comp name="00.HNN" depth="0.0">
			<acc value="0.00143927000954664" flag="0"/>
			<vel value="0.00333839802910828" flag="0"/>
			<psa03 value="0.00170020385149433" flag="0"/>
			<psa10 value="0.00395431622092286" flag="0"/>
			<psa30 value="0.00183443047134914" flag="0"/>
		</comp>
		<comp name="00.HNZ" depth="0.0">
			<acc value="0.000784608938474981" flag="0"/>
			<vel value="0.00408352531617341" flag="0"/>
			<psa03 value="0.00201339929782223" flag="0"/>
			<psa10 value="0.00217849804024365" flag="0"/>
			<psa30 value="0.00143667225451271" flag="0"/>
		</comp>
	</station>
	<station code="KRL1" name="KRL1" netid="HI" source="ITSAK Strong Motion Network" insttype="" lat="37.7951" lon="26.7065">
		<comp name="--.HNE" depth="0.0">
			<acc value="0.0851390754572137" flag="0"/>
			<vel value="0.0828969439723624" flag="0"/>
			<psa03 value="0.227872058306858" flag="0"/>
			<psa10 value="0.112698012296301" flag="0"/>
			<psa30 value="0.0200203477734119" flag="0"/>
		</comp>
		<comp name="--.HNN" depth="0.0">
			<acc value="0.0731600151162026" flag="0"/>
			<vel value="0.0835757723696344" flag="0"/>
			<psa03 value="0.303441645285119" flag="0"/>
			<psa10 value="0.155579390541319" flag="0"/>
			<psa30 value="0.0197509996895699" flag="0"/>
		</comp>
		<comp name="--.HNZ" depth="0.0">
			<acc value="0.0534420629475572" flag="0"/>
			<vel value="0.06289020653875" flag="0"/>
			<psa03 value="0.0948534780307361" flag="0"/>
			<psa10 value="0.100073998698956" flag="0"/>
			<psa30 value="0.0126325146166028" flag="0"/>
		</comp>
	</station>
	<station code="LAM2" name="LAM2" netid="HI" source="ITSAK Strong Motion Network" insttype="" lat="38.90203" lon="22.431301">
		<comp name="--.HNE" depth="0.0">
			<acc value="0.00606497244350749" flag="0"/>
			<vel value="0.0113026189791614" flag="0"/>
			<psa03 value="0.0113846721474067" flag="0"/>
			<psa10 value="0.0165203768938914" flag="0"/>
			<psa30 value="0.00413516518439913" flag="0"/>
		</comp>
		<comp name="--.HNN" depth="0.0">
			<acc value="0.00671116468270373" flag="0"/>
			<vel value="0.0176548292379583" flag="0"/>
			<psa03 value="0.00938961485444393" flag="0"/>
			<psa10 value="0.0125372164665614" flag="0"/>
			<psa30 value="0.00935361463106414" flag="0"/>
		</comp>
		<comp name="--.HNZ" depth="0.0">
			<acc value="0.00384211732392711" flag="0"/>
			<vel value="0.0111050747384707" flag="0"/>
			<psa03 value="0.00748183743188591" flag="0"/>
			<psa10 value="0.0104489328155183" flag="0"/>
			<psa30 value="0.00461131881057335" flag="0"/>
		</comp>
	</station>
	<station code="LMN1" name="LMN1" netid="HI" source="ITSAK Strong Motion Network" insttype="" lat="39.875" lon="25.0588">
		<comp name="--.HNE" depth="0.0">
			<acc value="0.637724042756685" flag="0"/>
			<vel value="0.286572568571842" flag="0"/>
			<psa03 value="1.41224300969913" flag="0"/>
			<psa10 value="0.109387983850682" flag="0"/>
			<psa30 value="0.0133175177999286" flag="0"/>
		</comp>
		<comp name="--.HNN" depth="0.0">
			<acc value="0.451770840622063" flag="0"/>
			<vel value="0.175477105206754" flag="0"/>
			<psa03 value="1.09757107055282" flag="0"/>
			<psa10 value="0.141272175130995" flag="0"/>
			<psa30 value="0.0216064589980296" flag="0"/>
		</comp>
		<comp name="--.HNZ" depth="0.0">
			<acc value="0.369214038612876" flag="0"/>
			<vel value="0.141058247138119" flag="0"/>
			<psa03 value="0.272032616239092" flag="0"/>
			<psa10 value="0.104282003231405" flag="0"/>
			<psa30 value="0.0144893161912611" flag="0"/>
		</comp>
	</station>
	<station code="MYT1" name="MYT1" netid="HI" source="ITSAK Strong Motion Network" insttype="" lat="39.085" lon="26.5694">
		<comp name="--.HNE" depth="0.0">
			<acc value="0.423975587567231" flag="0"/>
			<vel value="0.347600927697672" flag="0"/>
			<psa03 value="1.21801709076921" flag="0"/>
			<psa10 value="0.3541851240771" flag="0"/>
			<psa30 value="0.0405861030455005" flag="0"/>
		</comp>
		<comp name="--.HNN" depth="0.0">
			<acc value="0.465943405195128" flag="0"/>
			<vel value="0.296395905511213" flag="0"/>
			<psa03 value="0.909295865103137" flag="0"/>
			<psa10 value="0.317770784376687" flag="0"/>
			<psa30 value="0.0544718468694811" flag="0"/>
		</comp>
		<comp name="--.HNZ" depth="0.0">
			<acc value="0.377367446825592" flag="0"/>
			<vel value="0.174708353514289" flag="0"/>
			<psa03 value="0.714935719553364" flag="0"/>
			<psa10 value="0.194707792495196" flag="0"/>
			<psa30 value="0.0267670251093811" flag="0"/>
		</comp>
	</station>
	<station code="NAX1" name="NAX1" netid="HI" source="ITSAK Strong Motion Network" insttype="" lat="37.101394" lon="25.374103">
		<comp name="--.HNE" depth="0.0">
			<acc value="0.0134563722017524" flag="0"/>
			<vel value="0.0242723112884469" flag="0"/>
			<psa03 value="0.0462595436342443" flag="0"/>
			<psa10 value="0.0237959094872371" flag="0"/>
			<psa30 value="0.00717141840461068" flag="0"/>
		</comp>
		<comp name="--.HNN" depth="0.0">
			<acc value="0.0113788252432969" flag="0"/>
			<vel value="0.0144508363008569" flag="0"/>
			<psa03 value="0.0376693365545231" flag="0"/>
			<psa10 value="0.0218512050350946" flag="0"/>
			<psa30 value="0.00656724963141163" flag="0"/>
		</comp>
		<comp name="--.HNZ" depth="0.0">
			<acc value="0.0079974616578187" flag="0"/>
			<vel value="0.0176898388189563" flag="0"/>
			<psa03 value="0.0228314525758438" flag="0"/>
			<psa10 value="0.0178643309242651" flag="0"/>
			<psa30 value="0.00622083418305518" flag="0"/>
		</comp>
	</station>
	<station code="PLN1" name="PLN1" netid="HI" source="ITSAK Strong Motion Network" insttype="" lat="39.998" lon="23.575">
		<comp name="--.HNE" depth="0.0">
			<acc value="0.045878226151499" flag="0"/>
			<vel value="0.0403142818531264" flag="0"/>
			<psa03 value="0.0953283150330274" flag="0"/>
			<psa10 value="0.0835331086583417" flag="0"/>
			<psa30 value="0.00956440609497839" flag="0"/>
		</comp>
		<comp name="--.HNN" depth="0.0">
			<acc value="0.0470367473818273" flag="0"/>
			<vel value="0.0453484564619552" flag="0"/>
			<psa03 value="0.0907948376289985" flag="0"/>
			<psa10 value="0.0489476950446329" flag="0"/>
			<psa30 value="0.0166253146788216" flag="0"/>
		</comp>
		<comp name="--.HNZ" depth="0.0">
			<acc value="0.0180626906362948" flag="0"/>
			<vel value="0.0273434702384381" flag="0"/>
			<psa03 value="0.0452226780719661" flag="0"/>
			<psa10 value="0.0185725690915328" flag="0"/>
			<psa30 value="0.00646892728468798" flag="0"/>
		</comp>
	</station>
	<station code="SFL1" name="SFL1" netid="HI" source="ITSAK Strong Motion Network" insttype="" lat="41.189954" lon="26.304374">
		<comp name="--.HNE" depth="0.0">
			<acc value="0.179815979842984" flag="0"/>
			<vel value="0.159066356093252" flag="0"/>
			<psa03 value="0.532342774344197" flag="0"/>
			<psa10 value="0.130822632775297" flag="0"/>
			<psa30 value="0.0166691564977033" flag="0"/>
		</comp>
		<comp name="--.HNN" depth="0.0">
			<acc value="0.242827668601305" flag="0"/>
			<vel value="0.165135351679878" flag="0"/>
			<psa03 value="0.778961817224111" flag="0"/>
			<psa10 value="0.129356878086483" flag="0"/>
			<psa30 value="0.018225737865953" flag="0"/>
		</comp>
		<comp name="--.HNZ" depth="0.0">
			<acc value="0.112138028248456" flag="0"/>
			<vel value="0.0816704679188325" flag="0"/>
			<psa03 value="0.286708060009885" flag="0"/>
			<psa10 value="0.0506812871247811" flag="0"/>
			<psa30 value="0.0062701728354846" flag="0"/>
		</comp>
	</station>
	<station code="SKY1" name="SKY1" netid="HI" source="ITSAK Strong Motion Network" insttype="" lat="38.904483" lon="24.564572">
		<comp name="--.HNE" depth="0.0">
			<acc value="0.221855171128881" flag="0"/>
			<vel value="0.21346738615779" flag="0"/>
			<psa03 value="0.82947576849614" flag="0"/>
			<psa10 value="0.155329729028389" flag="0"/>
			<psa30 value="0.0151899791469033" flag="0"/>
		</comp>
		<comp name="--.HNN" depth="0.0">
			<acc value="0.291055826653409" flag="0"/>
			<vel value="0.210968228070894" flag="0"/>
			<psa03 value="1.07891357039301" flag="0"/>
			<psa10 value="0.163061182332027" flag="0"/>
			<psa30 value="0.0199800797874554" flag="0"/>
		</comp>
		<comp name="--.HNZ" depth="0.0">
			<acc value="0.0900048216226547" flag="0"/>
			<vel value="0.0765886966379893" flag="0"/>
			<psa03 value="0.355834769235115" flag="0"/>
			<psa10 value="0.103231008797941" flag="0"/>
			<psa30 value="0.0111560217981999" flag="0"/>
		</comp>
	</station>
	<station code="THS1" name="THS1" netid="HI" source="ITSAK Strong Motion Network" insttype="" lat="40.738476" lon="24.575145">
		<comp name="--.HNE" depth="0.0">
			<acc value="0.0792895608272284" flag="0"/>
			<vel value="0.0377268511078081" flag="0"/>
			<psa03 value="0.1718995578274" flag="0"/>
			<psa10 value="0.0268104250498008" flag="0"/>
			<psa30 value="0.0055789057432323" flag="0"/>
		</comp>
		<comp name="--.HNN" depth="0.0">
			<acc value="0.139336183195277" flag="0"/>
			<vel value="0.0492228031787012" flag="0"/>
			<psa03 value="0.392657605281953" flag="0"/>
			<psa10 value="0.0333620263649143" flag="0"/>
			<psa30 value="0.0042871982381628" flag="0"/>
		</comp>
		<comp name="--.HNZ" depth="0.0">
			<acc value="0.0527829719891132" flag="0"/>
			<vel value="0.0221514773806084" flag="0"/>
			<psa03 value="0.135882081499691" flag="0"/>
			<psa10 value="0.0281714829751286" flag="0"/>
			<psa30 value="0.00413239020326358" flag="0"/>
		</comp>
	</station>
	<station code="ALNA" name="ALNA" netid="HL" source="National Observatory of Athens Seismic Network" insttype="" lat="39.14804" lon="23.86669">
		<comp name="00.HNE" depth="0.0">
			<acc value="0.0525484669546127" flag="0"/>
			<vel value="0.0789300044042697" flag="0"/>
			<psa03 value="0.109976343867712" flag="0"/>
			<psa10 value="0.206063364534914" flag="0"/>
			<psa30 value="0.0082428567252842" flag="0"/>
		</comp>
		<comp name="00.HNN" depth="0.0">
			<acc value="0.0744479806238926" flag="0"/>
			<vel value="0.114216319269453" flag="0"/>
			<psa03 value="0.138163934037223" flag="0"/>
			<psa10 value="0.222536997589695" flag="0"/>
			<psa30 value="0.0411131662394637" flag="0"/>
		</comp>
		<comp name="00.HNZ" depth="0.0">
			<acc value="0.0385529411199876" flag="0"/>
			<vel value="0.0398197605652548" flag="0"/>
			<psa03 value="0.0961062598160477" flag="0"/>
			<psa10 value="0.0874741458931845" flag="0"/>
			<psa30 value="0.0118951630515337" flag="0"/>
		</comp>
	</station>
	<station code="DLFA" name="DLFA" netid="HL" source="National Observatory of Athens Seismic Network" insttype="" lat="38.47836" lon="22.49583">
		<comp name="00.HNE" depth="0.0">
			<acc value="0.00661082877670485" flag="0"/>
			<vel value="0.0149317155263835" flag="0"/>
			<psa03 value="0.0176284294075991" flag="0"/>
			<psa10 value="0.02471246298147" flag="0"/>
			<psa30 value="0.00375342371320682" flag="0"/>
		</comp>
		<comp name="00.HNN" depth="0.0">
			<acc value="0.00541870225921066" flag="0"/>
			<vel value="0.0122652718694773" flag="0"/>
			<psa03 value="0.0112750360678045" flag="0"/>
			<psa10 value="0.0137756779956997" flag="0"/>
			<psa30 value="0.00424156118741216" flag="0"/>
		</comp>
		<comp name="00.HNZ" depth="0.0">
			<acc value="0.00369058739254174" flag="0"/>
			<vel value="0.0114292015111732" flag="0"/>
			<psa03 value="0.00697978423245039" flag="0"/>
			<psa10 value="0.0137635975999128" flag="0"/>
			<psa30 value="0.00349928797961503" flag="0"/>
		</comp>
	</station>
	<station code="KLNA" name="KLNA" netid="HL" source="National Observatory of Athens Seismic Network" insttype="" lat="36.95708" lon="26.97274">
		<comp name="00.HNE" depth="0.0">
			<acc value="0.0177500916099577" flag="0"/>
			<vel value="0.0179312445359209" flag="0"/>
			<psa03 value="0.0592884796542177" flag="0"/>
			<psa10 value="0.018047719947888" flag="0"/>
			<psa30 value="0.0051648129768617" flag="0"/>
		</comp>
		<comp name="00.HNN" depth="0.0">
			<acc value="0.0221269554077302" flag="0"/>
			<vel value="0.0144327428914457" flag="0"/>
			<psa03 value="0.0512224765711681" flag="0"/>
			<psa10 value="0.0199604816589375" flag="0"/>
			<psa30 value="0.00615658451018868" flag="0"/>
		</comp>
		<comp name="00.HNZ" depth="0.0">
			<acc value="0.0127348690813464" flag="0"/>
			<vel value="0.0160106731540137" flag="0"/>
			<psa03 value="0.0274205404345593" flag="0"/>
			<psa10 value="0.0146066166791505" flag="0"/>
			<psa30 value="0.00378202679071491" flag="0"/>
		</comp>
	</station>
	<station code="KVLA" name="KVLA" netid="HL" source="National Observatory of Athens Seismic Network" insttype="" lat="40.93704" lon="24.38591">
		<comp name="00.HNE" depth="0.0">
			<acc value="0.0222398128684848" flag="0"/>
			<vel value="0.0113888202074612" flag="0"/>
			<psa03 value="0.078914837095635" flag="0"/>
			<psa10 value="0.0137158173555685" flag="0"/>
			<psa30 value="0.00323856058041108" flag="0"/>
		</comp>
		<comp name="00.HNN" depth="0.0">
			<acc value="0.0168435485229562" flag="0"/>
			<vel value="0.0134034392874008" flag="0"/>
			<psa03 value="0.0480020340660105" flag="0"/>
			<psa10 value="0.0180883857667673" flag="0"/>
			<psa30 value="0.0049347831551717" flag="0"/>
		</comp>
		<comp name="00.HNZ" depth="0.0">
			<acc value="0.0178871927706237" flag="0"/>
			<vel value="0.0134509241113602" flag="0"/>
			<psa03 value="0.0338143858704638" flag="0"/>
			<psa10 value="0.0127545949293289" flag="0"/>
			<psa30 value="0.00386540314732052" flag="0"/>
		</comp>
	</station>
	<station code="KYMI" name="KYMI" netid="HL" source="National Observatory of Athens Seismic Network" insttype="" lat="38.633147" lon="24.100138">
		<comp name="--.HNE" depth="1.0">
			<acc value="0.0532175030230668" flag="0"/>
			<vel value="0.0432437708123221" flag="0"/>
			<psa03 value="0.187783041176887" flag="0"/>
			<psa10 value="0.0519134874950484" flag="0"/>
			<psa30 value="0.0157514938399626" flag="0"/>
		</comp>
		<comp name="--.HNN" depth="1.0">
			<acc value="0.0695730347870538" flag="0"/>
			<vel value="0.068448387010471" flag="0"/>
			<psa03 value="0.153331542080817" flag="0"/>
			<psa10 value="0.0821990397328903" flag="0"/>
			<psa30 value="0.0140803724227701" flag="0"/>
		</comp>
		<comp name="--.HNZ" depth="1.0">
			<acc value="0.0226674138958319" flag="0"/>
			<vel value="0.0213271149284688" flag="0"/>
			<psa03 value="0.0777619551025563" flag="0"/>
			<psa10 value="0.0250829284522693" flag="0"/>
			<psa30 value="0.00815471457824621" flag="0"/>
		</comp>
	</station>
	<station code="LIA" name="LIA" netid="HL" source="National Observatory of Athens Seismic Network" insttype="" lat="39.89725" lon="25.18055">
		<comp name="00.HNE" depth="0.0">
			<acc value="0.323357167443208" flag="0"/>
			<vel value="0.178710068244753" flag="0"/>
			<psa03 value="1.18575795979744" flag="0"/>
			<psa10 value="0.118367744718969" flag="0"/>
			<psa30 value="0.00859587273550237" flag="0"/>
		</comp>
		<comp name="00.HNN" depth="0.0">
			<acc value="0.286024850451943" flag="0"/>
			<vel value="0.140970227045302" flag="0"/>
			<psa03 value="0.982762568370339" flag="0"/>
			<psa10 value="0.112359761214267" flag="0"/>
			<psa30 value="0.0145658253645784" flag="0"/>
		</comp>
		<comp name="00.HNZ" depth="0.0">
			<acc value="0.166102784856329" flag="0"/>
			<vel value="0.0586757714784478" flag="0"/>
			<psa03 value="0.362725069054329" flag="0"/>
			<psa10 value="0.0523000601602302" flag="0"/>
			<psa30 value="0.0124553354783945" flag="0"/>
		</comp>
	</station>
	<station code="NOAC" name="NOAC" netid="HL" source="National Observatory of Athens Seismic Network" insttype="" lat="37.97384" lon="23.71767">
		<comp name="02.HNE" depth="0.0">
			<acc value="0.0197335888161634" flag="0"/>
			<vel value="0.0254094228679497" flag="0"/>
			<psa03 value="0.0540766708555885" flag="0"/>
			<psa10 value="0.0322996896959267" flag="0"/>
			<psa30 value="0.0125463369665704" flag="0"/>
		</comp>
		<comp name="02.HNN" depth="0.0">
			<acc value="0.0229693902286852" flag="0"/>
			<vel value="0.024963293787932" flag="0"/>
			<psa03 value="0.0811033518658409" flag="0"/>
			<psa10 value="0.0329413422022707" flag="0"/>
			<psa30 value="0.00993440727240971" flag="0"/>
		</comp>
		<comp name="02.HNZ" depth="0.0">
			<acc value="0.0105112004134514" flag="0"/>
			<vel value="0.0208133447688743" flag="0"/>
			<psa03 value="0.0338720094793951" flag="0"/>
			<psa10 value="0.0228765267076136" flag="0"/>
			<psa30 value="0.00688875301276496" flag="0"/>
		</comp>
	</station>
	<station code="NVR" name="NVR" netid="HL" source="National Observatory of Athens Seismic Network" insttype="" lat="41.34846" lon="23.86517">
		<comp name="00.HNE" depth="0.0">
			<acc value="0.0872398408081399" flag="0"/>
			<vel value="0.0367515264584134" flag="0"/>
			<psa03 value="0.212886206833009" flag="0"/>
			<psa10 value="0.0436381270615601" flag="0"/>
			<psa30 value="0.00881514312664477" flag="0"/>
		</comp>
		<comp name="00.HNN" depth="0.0">
			<acc value="0.082064002126722" flag="0"/>
			<vel value="0.0393879075945477" flag="0"/>
			<psa03 value="0.264142268962159" flag="0"/>
			<psa10 value="0.0399276387601192" flag="0"/>
			<psa30 value="0.00567537263225822" flag="0"/>
		</comp>
		<comp name="00.HNZ" depth="0.0">
			<acc value="0.0534444045828998" flag="0"/>
			<vel value="0.0383453354318188" flag="0"/>
			<psa03 value="0.195957564560411" flag="0"/>
			<psa10 value="0.0403185421555005" flag="0"/>
			<psa30 value="0.00502768305933547" flag="0"/>
		</comp>
	</station>
	<station code="PLG" name="PLG" netid="HL" source="National Observatory of Athens Seismic Network" insttype="" lat="40.37328" lon="23.44443">
		<comp name="--.HNE" depth="0.0">
			<acc value="0.0083146218013703" flag="0"/>
			<vel value="0.0123013681544305" flag="0"/>
			<psa03 value="0.0242502759871033" flag="0"/>
			<psa10 value="0.0101555860582153" flag="0"/>
			<psa30 value="0.00404603774449031" flag="0"/>
		</comp>
		<comp name="--.HNN" depth="0.0">
			<acc value="0.0107361635163135" flag="0"/>
			<vel value="0.00867213445201589" flag="0"/>
			<psa03 value="0.0377624223858214" flag="0"/>
			<psa10 value="0.0164172578744425" flag="0"/>
			<psa30 value="0.00359056208111631" flag="0"/>
		</comp>
		<comp name="--.HNZ" depth="0.0">
			<acc value="0.0105221397903946" flag="0"/>
			<vel value="0.00942765299673303" flag="0"/>
			<psa03 value="0.0451448864778362" flag="0"/>
			<psa10 value="0.0110294013534702" flag="0"/>
			<psa30 value="0.0027623838366121" flag="0"/>
		</comp>
	</station>
	<station code="PSRA" name="PSRA" netid="HL" source="National Observatory of Athens Seismic Network" insttype="" lat="38.53978" lon="25.56202">
		<comp name="00.HNE" depth="0.0">
