<?xml version="1.0" encoding="UTF-8" standalone="yes"?>
<!DOCTYPE earthquake SYSTEM "stationlist.dtd">
<stationlist created="" xmlns="ch.ethz.sed.shakemap.usgs.xml">
  <station code="PSRA" name="PSRA" netid="HL" source="NOA" insttype="CMG-5" lat="38.5398" lon="25.562">
    <comp name="00.HNE">
      <acc value="0.7056844773" flag="0"/>
      <vel value="0.3021528800" flag="0"/>
      <psa03 value="1.6062030299" flag="0"/>
      <psa10 value="0.2313213731" flag="0"/>
      <psa30 value="0.0331174190" flag="0"/>
    </comp>
    <comp name="00.HNN">
      <acc value="0.9249695446" flag="0"/>
      <vel value="0.2819001046" flag="0"/>
      <psa03 value="2.4870768579" flag="0"/>
      <psa10 value="0.1658981607" flag="0"/>
      <psa30 value="0.0253323126" flag="0"/>
    </comp>
    <comp name="00.HNZ">
      <acc value="0.5560100449" flag="0"/>
      <vel value="0.1868227321" flag="0"/>
      <psa03 value="1.0545434511" flag="0"/>
      <psa10 value="0.1008602999" flag="0"/>
      <psa30 value="0.0316120635" flag="0"/>
    </comp>
  </station>
  <station code="SMTH" name="SMTH" netid="HL" source="NOA" insttype="CMG3ESPC60_P6C" lat="40.4709" lon="25.5304">
    <comp name="--.HHE">
      <acc value="0.1047953410" flag="0"/>
      <vel value="0.0463679569" flag="0"/>
      <psa03 value="0.1114817832" flag="0"/>
      <psa10 value="0.0259203513" flag="0"/>
      <psa30 value="0.0187929448" flag="0"/>
    </comp>
    <comp name="--.HHN">
      <acc value="0.1399962843" flag="0"/>
      <vel value="0.0476503818" flag="0"/>
      <psa03 value="0.1905570892" flag="0"/>
      <psa10 value="0.0362007893" flag="0"/>
      <psa30 value="0.0074701025" flag="0"/>
    </comp>
    <comp name="--.HHZ">
      <acc value="0.1188345254" flag="0"/>
      <vel value="0.0419819239" flag="0"/>
      <psa03 value="0.1455326166" flag="0"/>
      <psa10 value="0.0252870369" flag="0"/>
      <psa30 value="0.0094633241" flag="0"/>
    </comp>
  </station>
  <station code="ALN" name="ALN" netid="HT" source="GFZ" insttype="CMG-3ESP/90" lat="40.8957" lon="26.0497">
    <comp name="--.HHE">
      <acc value="0.0464389959" flag="0"/>
      <vel value="0.0381798015" flag="0"/>
      <psa03 value="0.1678980533" flag="0"/>
      <psa10 value="0.0300042059" flag="0"/>
      <psa30 value="0.0078948115" flag="0"/>
    </comp>
    <comp name="--.HHN">
      <acc value="0.0527006696" flag="0"/>
      <vel value="0.0303464501" flag="0"/>
      <psa03 value="0.1527285068" flag="0"/>
      <psa10 value="0.0423007875" flag="0"/>
      <psa30 value="0.0086475758" flag="0"/>
    </comp>
    <comp name="--.HHZ">
      <acc value="0.0483394707" flag="0"/>
      <vel value="0.0266492125" flag="0"/>
      <psa03 value="0.1130896988" flag="0"/>
      <psa10 value="0.0244923175" flag="0"/>
      <psa30 value="0.0073143644" flag="0"/>
    </comp>
  </station>
  <station code="CHOS" name="CHOS" netid="HT" source="GFZ" insttype="CMG-3ESP/90" lat="38.3868" lon="26.0506">
    <comp name="--.HHE">
      <acc value="0.4117130066" flag="0"/>
      <vel value="0.2899600725" flag="0"/>
      <psa03 value="0.9875474824" flag="0"/>
      <psa10 value="0.2897261174" flag="0"/>
      <psa30 value="0.0284009139" flag="0"/>
    </comp>
    <comp name="--.HHN">
      <acc value="0.2538334708" flag="0"/>
      <vel value="0.2455464259" flag="0"/>
      <psa03 value="0.5365018807" flag="0"/>
      <psa10 value="0.3589454080" flag="0"/>
      <psa30 value="0.0698831558" flag="0"/>
    </comp>
    <comp name="--.HHZ">
      <acc value="0.1183017723" flag="0"/>
      <vel value="0.1289541254" flag="0"/>
      <psa03 value="0.5190065516" flag="0"/>
      <psa10 value="0.1750267637" flag="0"/>
      <psa30 value="0.0515440311" flag="0"/>
    </comp>
  </station>
  <station code="SIGR" name="SIGR" netid="HT" source="GFZ" insttype="CMG-3ESP/90" lat="39.2114" lon="25.8553">
    <comp name="--.HHE">
      <acc value="1.3488658407" flag="0"/>
      <vel value="0.6978045498" flag="0"/>
      <psa03 value="2.8599555901" flag="0"/>
      <psa10 value="0.5907131018" flag="0"/>
      <psa30 value="0.0508842196" flag="0"/>
    </comp>
    <comp name="--.HHN">
      <acc value="1.1308435922" flag="0"/>
      <vel value="0.6906366979" flag="0"/>
      <psa03 value="2.9241498387" flag="0"/>
      <psa10 value="0.6055822744" flag="0"/>
      <psa30 value="0.0506759647" flag="0"/>
    </comp>
    <comp name="--.HHZ">
      <acc value="0.6667607501" flag="0"/>
      <vel value="0.2986535856" flag="0"/>
      <psa03 value="1.1098756643" flag="0"/>
      <psa10 value="0.2255876056" flag="0"/>
      <psa30 value="0.0580561108" flag="0"/>
    </comp>
  </station>
  <station code="AKS" name="AKS" netid="KO" source="KOERI" insttype="100" lat="38.8785" lon="27.8129">
    <comp name="--.HNE">
      <acc value="0.0751831657" flag="0"/>
      <vel value="0.0329392426" flag="0"/>
      <psa03 value="0.2434858409" flag="0"/>
      <psa10 value="0.0253579653" flag="0"/>
      <psa30 value="0.0059606874" flag="0"/>
    </comp>
    <comp name="--.HNN">
      <acc value="0.1189755963" flag="0"/>
      <vel value="0.0505012255" flag="0"/>
      <psa03 value="0.2155625256" flag="0"/>
      <psa10 value="0.0316504178" flag="0"/>
      <psa30 value="0.0058379045" flag="0"/>
    </comp>
    <comp name="--.HNZ">
      <acc value="0.0311490947" flag="0"/>
      <vel value="0.0133757464" flag="0"/>
      <psa03 value="0.0519356767" flag="0"/>
      <psa10 value="0.0153096029" flag="0"/>
      <psa30 value="0.0029785900" flag="0"/>
    </comp>
  </station>
  <station code="BALB" name="BALB" netid="KO" source="KOERI" insttype="120s," lat="39.6507" lon="27.8642">
    <comp name="--.HHN">
      <acc value="0.1032651009" flag="0"/>
      <vel value="0.0557967680" flag="0"/>
      <psa03 value="0.2821479326" flag="0"/>
      <psa10 value="0.1067809659" flag="0"/>
      <psa30 value="0.0091575928" flag="0"/>
    </comp>
    <comp name="--.HHZ">
      <acc value="0.0706357190" flag="0"/>
      <vel value="0.0336483377" flag="0"/>
      <psa03 value="0.1423612699" flag="0"/>
      <psa10 value="0.0661164718" flag="0"/>
      <psa30 value="0.0104264143" flag="0"/>
    </comp>
    <comp name="--.HHE">
      <acc value="0.1054912267" flag="0"/>
      <vel value="0.0789473149" flag="0"/>
      <psa03 value="0.2347667865" flag="0"/>
      <psa10 value="0.1282091736" flag="0"/>
      <psa30 value="0.0108733478" flag="0"/>
    </comp>
  </station>
  <station code="EDC" name="EDC" netid="KO" source="KOERI" insttype="120s," lat="40.3465" lon="27.8618">
    <comp name="--.HHE">
      <acc value="0.0865871547" flag="0"/>
      <vel value="0.0377509477" flag="0"/>
      <psa03 value="0.3641751858" flag="0"/>
      <psa10 value="0.0456598818" flag="0"/>
      <psa30 value="0.0055785699" flag="0"/>
    </comp>
    <comp name="--.HHN">
      <acc value="0.1104580550" flag="0"/>
      <vel value="0.0590188166" flag="0"/>
      <psa03 value="0.2516051700" flag="0"/>
      <psa10 value="0.0646979300" flag="0"/>
      <psa30 value="0.0109529446" flag="0"/>
    </comp>
    <comp name="--.HHZ">
      <acc value="0.0446365830" flag="0"/>
      <vel value="0.0230638592" flag="0"/>
      <psa03 value="0.0977855804" flag="0"/>
      <psa10 value="0.0261232326" flag="0"/>
      <psa30 value="0.0039706801" flag="0"/>
    </comp>
  </station>
  <station code="ERIK" name="ERIK" netid="KO" source="KOERI" insttype="120s," lat="40.6708" lon="26.5132">
    <comp name="--.HHE">
      <acc value="0.2809477376" flag="0"/>
      <vel value="0.1933212304" flag="0"/>
      <psa03 value="0.8698001236" flag="0"/>
      <psa10 value="0.1737180868" flag="0"/>
      <psa30 value="0.0094920530" flag="0"/>
    </comp>
    <comp name="--.HHN">
      <acc value="0.3597937073" flag="0"/>
      <vel value="0.1403088506" flag="0"/>
      <psa03 value="0.8014800150" flag="0"/>
      <psa10 value="0.1079708928" flag="0"/>
      <psa30 value="0.0148602841" flag="0"/>
    </comp>
    <comp name="--.HHZ">
      <acc value="0.1302161452" flag="0"/>
      <vel value="0.0665273597" flag="0"/>
      <psa03 value="0.5085108078" flag="0"/>
      <psa10 value="0.0826929128" flag="0"/>
      <psa30 value="0.0100058912" flag="0"/>
    </comp>
  </station>
  <station code="EZN" name="EZN" netid="KO" source="KOERI" insttype="120s," lat="39.8255" lon="26.3247">
    <comp name="--.HHE">
      <acc value="1.2136108889" flag="0"/>
      <vel value="0.1944662051" flag="0"/>
      <psa03 value="0.8071488500" flag="0"/>
      <psa10 value="0.2931469038" flag="0"/>
      <psa30 value="0.0142810600" flag="0"/>
    </comp>
    <comp name="--.HHN">
      <acc value="1.1847009177" flag="0"/>
      <vel value="0.1969504495" flag="0"/>
      <psa03 value="1.3740741355" flag="0"/>
      <psa10 value="0.1728477325" flag="0"/>
      <psa30 value="0.0150606826" flag="0"/>
    </comp>
    <comp name="--.HHZ">
      <acc value="0.7125592224" flag="0"/>
      <vel value="0.1711371164" flag="0"/>
      <psa03 value="0.6330676575" flag="0"/>
      <psa10 value="0.1024338948" flag="0"/>
      <psa30 value="0.0204675858" flag="0"/>
    </comp>
  </station>
  <station code="GELI" name="GELI" netid="KO" source="KOERI" insttype="30s," lat="40.398" lon="26.4742">
    <comp name="--.HHE">
      <acc value="0.1979831807" flag="0"/>
      <vel value="0.0994887288" flag="0"/>
      <psa03 value="0.5936644130" flag="0"/>
      <psa10 value="0.0989323873" flag="0"/>
      <psa30 value="0.0082748696" flag="0"/>
    </comp>
    <comp name="--.HHN">
      <acc value="0.1838857030" flag="0"/>
      <vel value="0.0631067309" flag="0"/>
      <psa03 value="0.3934008259" flag="0"/>
      <psa10 value="0.0613732761" flag="0"/>
      <psa30 value="0.0061299197" flag="0"/>
    </comp>
    <comp name="--.HHZ">
      <acc value="0.1413502156" flag="0"/>
      <vel value="0.0646872680" flag="0"/>
      <psa03 value="0.3230315709" flag="0"/>
      <psa10 value="0.0525368725" flag="0"/>
      <psa30 value="0.0073351431" flag="0"/>
    </comp>
  </station>
  <station code="GONE" name="GONE" netid="KO" source="KOERI" insttype="100" lat="40.0466" lon="27.686">
    <comp name="--.HNE">
      <acc value="0.0632133994" flag="0"/>
      <vel value="0.0508084496" flag="0"/>
      <psa03 value="0.1683482538" flag="0"/>
      <psa10 value="0.0662181276" flag="0"/>
      <psa30 value="0.0083589164" flag="0"/>
    </comp>
    <comp name="--.HNN">
      <acc value="0.0949090873" flag="0"/>
      <vel value="0.0484649710" flag="0"/>
      <psa03 value="0.2737575444" flag="0"/>
      <psa10 value="0.0652470083" flag="0"/>
      <psa30 value="0.0128797311" flag="0"/>
    </comp>
    <comp name="--.HNZ">
      <acc value="0.0489906724" flag="0"/>
      <vel value="0.0338749926" flag="0"/>
      <psa03 value="0.0806233409" flag="0"/>
      <psa10 value="0.0556111465" flag="0"/>
      <psa30 value="0.0066670011" flag="0"/>
    </comp>
  </station>
  <station code="GPNR" name="GPNR" netid="KO" source="KOERI" insttype="100" lat="39.4552" lon="26.1329">
    <comp name="--.HNE">
      <acc value="11.6829610489" flag="0"/>
      <vel value="3.9799901411" flag="0"/>
      <psa03 value="23.2056814909" flag="0"/>
      <psa10 value="3.4296981874" flag="0"/>
      <psa30 value="0.3294277885" flag="0"/>
    </comp>
    <comp name="--.HNN">
      <acc value="9.3857133151" flag="0"/>
      <vel value="5.3540888447" flag="0"/>
      <psa03 value="26.6777049070" flag="0"/>
      <psa10 value="6.5140925786" flag="0"/>
      <psa30 value="0.6217743665" flag="0"/>
    </comp>
    <comp name="--.HNZ">
      <acc value="6.0052292541" flag="0"/>
      <vel value="1.4693934913" flag="0"/>
      <psa03 value="6.8115988460" flag="0"/>
      <psa10 value="1.3002934426" flag="0"/>
      <psa30 value="0.1891507011" flag="0"/>
    </comp>
  </station>
  <station code="KRBG" name="KRBG" netid="KO" source="KOERI" insttype="30s," lat="40.3932" lon="27.2977">
    <comp name="--.HHN">
      <acc value="0.0000000000" flag="0"/>
      <vel value="0.0000000000" flag="0"/>
    </comp>
    <comp name="--.HHZ">
      <acc value="0.0000000000" flag="0"/>
      <vel value="0.0000000000" flag="0"/>
    </comp>
    <comp name="--.HHE">
      <acc value="0.2702981039" flag="0"/>
      <vel value="0.1137100694" flag="0"/>
      <psa03 value="0.3777085920" flag="0"/>
      <psa10 value="0.1670120755" flag="0"/>
      <psa30 value="0.0172668597" flag="0"/>
    </comp>
  </station>
  <station code="LAP" name="LAP" netid="KO" source="KOERI" insttype="30s," lat="40.3703" lon="26.7593">
    <comp name="--.HHE">
      <acc value="0.0000000000" flag="0"/>
      <vel value="0.0000000000" flag="0"/>
    </comp>
    <comp name="--.HHN">
      <acc value="0.0000000000" flag="0"/>
      <vel value="0.0000000000" flag="0"/>
    </comp>
    <comp name="--.HHZ">
      <acc value="0.1469783308" flag="0"/>
      <vel value="0.0744224190" flag="0"/>
      <psa03 value="0.3951330785" flag="0"/>
      <psa10 value="0.0748355275" flag="0"/>
      <psa30 value="0.0089397830" flag="0"/>
    </comp>
  </station>
  <station code="RKY" name="RKY" netid="KO" source="KOERI" insttype="30s," lat="40.6875" lon="27.1777">
    <comp name="--.HHN">
      <acc value="0.1749375361" flag="0"/>
      <vel value="0.1044358921" flag="0"/>
      <psa03 value="0.5083775805" flag="0"/>
      <psa10 value="0.1006268939" flag="0"/>
      <psa30 value="0.0140154905" flag="0"/>
    </comp>
    <comp name="--.HHE">
      <acc value="0.1355792104" flag="0"/>
      <vel value="0.0702885139" flag="0"/>
      <psa03 value="0.3760432784" flag="0"/>
      <psa10 value="0.0714664244" flag="0"/>
      <psa30 value="0.0187236459" flag="0"/>
    </comp>
    <comp name="--.HHZ">
      <acc value="0.0681006801" flag="0"/>
      <vel value="0.0409993393" flag="0"/>
      <psa03 value="0.1718418462" flag="0"/>
      <psa10 value="0.0500461230" flag="0"/>
      <psa30 value="0.0144946765" flag="0"/>
    </comp>
  </station>
</stationlist>
