<?xml version="1.0" encoding="UTF-8" standalone="yes"?>
<!DOCTYPE earthquake SYSTEM "stationlist.dtd">
<stationlist created="" xmlns="ch.ethz.sed.shakemap.usgs.xml">
  <station code="THERA" name="THERA" netid="GE" insttype="STS-2/N" lat="36.367" lon="25.4753">
    <comp name="--.HHE">
      <acc value="0.2331162754" flag="0"/>
      <vel value="0.0503455576" flag="0"/>
      <psa03 value="0.1887123710" flag="0"/>
      <psa10 value="0.0330674823" flag="0"/>
      <psa30 value="0.0038277928" flag="0"/>
    </comp>
    <comp name="--.HHZ">
      <acc value="0.1087337829" flag="0"/>
      <vel value="0.0413872656" flag="0"/>
      <psa03 value="0.0914105425" flag="0"/>
      <psa10 value="0.0270491602" flag="0"/>
      <psa30 value="0.0024928249" flag="0"/>
    </comp>
    <comp name="--.HHN">
      <acc value="0.1209962324" flag="0"/>
      <vel value="0.0243632090" flag="0"/>
      <psa03 value="0.0925758984" flag="0"/>
      <psa10 value="0.0137175909" flag="0"/>
      <psa30 value="0.0014923293" flag="0"/>
    </comp>
  </station>
  <station code="SNT1" name="SNT1" netid="HA" insttype="30" lat="36.4159" lon="25.4282">
    <comp name="--.HHZ">
      <acc value="0.1204025738" flag="0"/>
      <vel value="0.0434896158" flag="0"/>
      <psa03 value="0.1754557562" flag="0"/>
      <psa10 value="0.0325244200" flag="0"/>
      <psa30 value="0.0033469862" flag="0"/>
    </comp>
    <comp name="--.HHN">
      <acc value="0.1490718669" flag="0"/>
      <vel value="0.0733585372" flag="0"/>
      <psa03 value="0.2242270505" flag="0"/>
      <psa10 value="0.0746055992" flag="0"/>
      <psa30 value="0.0076896650" flag="0"/>
    </comp>
    <comp name="--.HHE">
      <acc value="0.1585759465" flag="0"/>
      <vel value="0.0593400246" flag="0"/>
      <psa03 value="0.3129285722" flag="0"/>
      <psa10 value="0.0774539247" flag="0"/>
      <psa30 value="0.0065871645" flag="0"/>
    </comp>
  </station>
  <station code="SFR2" name="SFR2" netid="HI" insttype="unknown" lat="36.3998" lon="25.4382">
    <comp name="--.HNZ">
      <acc value="0.4680320460" flag="0"/>
      <vel value="0.1262091556" flag="0"/>
      <psa03 value="0.5585220541" flag="0"/>
      <psa10 value="0.0699596680" flag="0"/>
      <psa30 value="0.0047790913" flag="0"/>
    </comp>
    <comp name="--.HNN">
      <acc value="0.4451034427" flag="0"/>
      <vel value="0.1783175989" flag="0"/>
      <psa03 value="1.2284823546" flag="0"/>
      <psa10 value="0.1184461185" flag="0"/>
      <psa30 value="0.0063286500" flag="0"/>
    </comp>
    <comp name="--.HNE">
      <acc value="0.4724630946" flag="0"/>
      <vel value="0.1559552140" flag="0"/>
      <psa03 value="0.8890862850" flag="0"/>
      <psa10 value="0.0743390491" flag="0"/>
      <psa30 value="0.0079549200" flag="0"/>
    </comp>
  </station>
  <station code="AMGA" name="AMGA" netid="HL" insttype="SMART24" lat="36.8316" lon="25.8938">
    <comp name="--.HHE">
      <acc value="0.3387435586" flag="0"/>
      <vel value="0.0789373337" flag="0"/>
      <psa03 value="0.2256348956" flag="0"/>
      <psa10 value="0.0269676831" flag="0"/>
      <psa30 value="0.0056930237" flag="0"/>
    </comp>
    <comp name="--.HHN">
      <acc value="0.4184161404" flag="0"/>
      <vel value="0.0803547466" flag="0"/>
      <psa03 value="0.2071140262" flag="0"/>
      <psa10 value="0.0280343909" flag="0"/>
      <psa30 value="0.0034582128" flag="0"/>
    </comp>
    <comp name="--.HHZ">
      <acc value="0.4686151939" flag="0"/>
      <vel value="0.1198067586" flag="0"/>
      <psa03 value="0.2577699361" flag="0"/>
      <psa10 value="0.0242465228" flag="0"/>
      <psa30 value="0.0044973902" flag="0"/>
    </comp>
  </station>
  <station code="MHLO" name="MHLO" netid="HL" insttype="20" lat="36.6898" lon="24.4017">
    <comp name="--.HHN">
      <acc value="0.1227330688" flag="0"/>
      <vel value="0.0563404399" flag="0"/>
      <psa03 value="0.2825079515" flag="0"/>
      <psa10 value="0.1036784962" flag="0"/>
      <psa30 value="0.0034197028" flag="0"/>
    </comp>
    <comp name="--.HHZ">
      <acc value="0.0657863488" flag="0"/>
      <vel value="0.0295412129" flag="0"/>
      <psa03 value="0.1084540450" flag="0"/>
      <psa10 value="0.0372280532" flag="0"/>
      <psa30 value="0.0027888808" flag="0"/>
    </comp>
    <comp name="--.HHE">
      <acc value="0.1302354005" flag="0"/>
      <vel value="0.0720258736" flag="0"/>
      <psa03 value="0.2584799134" flag="0"/>
      <psa10 value="0.0877804693" flag="0"/>
      <psa30 value="0.0039826072" flag="0"/>
    </comp>
  </station>
  <station code="MILA" name="MILA" netid="HL" insttype="CMG-5" lat="36.7429" lon="24.4282">
    <comp name="00.HNE">
      <acc value="0.2271891370" flag="0"/>
      <vel value="0.0850245448" flag="0"/>
      <psa03 value="0.2704775505" flag="0"/>
      <psa10 value="0.0622640018" flag="0"/>
      <psa30 value="0.0036764104" flag="0"/>
    </comp>
    <comp name="00.HNN">
      <acc value="0.2246988081" flag="0"/>
      <vel value="0.0920949646" flag="0"/>
      <psa03 value="0.3550089682" flag="0"/>
      <psa10 value="0.0621663638" flag="0"/>
      <psa30 value="0.0043340424" flag="0"/>
    </comp>
    <comp name="00.HNZ">
      <acc value="0.1801042401" flag="0"/>
      <vel value="0.0617144318" flag="0"/>
      <psa03 value="0.2119376624" flag="0"/>
      <psa10 value="0.0502114247" flag="0"/>
      <psa30 value="0.0029507037" flag="0"/>
    </comp>
  </station>
  <station code="SANT" name="SANT" netid="HL" insttype="30" lat="36.3705" lon="25.4593">
    <comp name="--.HHN">
      <acc value="0.3503202745" flag="0"/>
      <vel value="0.0506886939" flag="0"/>
      <psa03 value="0.1806023640" flag="0"/>
      <psa10 value="0.0391449715" flag="0"/>
      <psa30 value="0.0025017137" flag="0"/>
    </comp>
    <comp name="--.HHZ">
      <acc value="0.3139765574" flag="0"/>
      <vel value="0.0488675915" flag="0"/>
      <psa03 value="0.1176787642" flag="0"/>
      <psa10 value="0.0258216404" flag="0"/>
      <psa30 value="0.0025126742" flag="0"/>
    </comp>
    <comp name="--.HHE">
      <acc value="0.4694437602" flag="0"/>
      <vel value="0.1092617467" flag="0"/>
      <psa03 value="0.4641351214" flag="0"/>
      <psa10 value="0.0499143212" flag="0"/>
      <psa30 value="0.0036564184" flag="0"/>
    </comp>
  </station>
  <station code="THERA" name="THERA" netid="HL" insttype="120" lat="36.367" lon="25.4753">
    <comp name="--.HHE">
      <acc value="0.2328108083" flag="0"/>
      <vel value="0.0504264485" flag="0"/>
      <psa03 value="0.1835005239" flag="0"/>
      <psa10 value="0.0327838457" flag="0"/>
      <psa30 value="0.0038288124" flag="0"/>
    </comp>
    <comp name="--.HHZ">
      <acc value="0.1102958323" flag="0"/>
      <vel value="0.0405023105" flag="0"/>
      <psa03 value="0.0888599754" flag="0"/>
      <psa10 value="0.0268234302" flag="0"/>
      <psa30 value="0.0024888144" flag="0"/>
    </comp>
    <comp name="--.HHN">
      <acc value="0.2402515499" flag="0"/>
      <vel value="0.0475816758" flag="0"/>
      <psa03 value="0.1798467065" flag="0"/>
      <psa10 value="0.0269874856" flag="0"/>
      <psa30 value="0.0029844002" flag="0"/>
    </comp>
  </station>
  <station code="AKRO" name="AKRO" netid="HT" insttype="Compact," lat="36.3584" lon="25.3967">
    <comp name="--.HHN">
      <acc value="0.4892571217" flag="0"/>
      <vel value="0.1333985879" flag="0"/>
      <psa03 value="0.3728103334" flag="0"/>
      <psa10 value="0.0582004059" flag="0"/>
      <psa30 value="0.0044074064" flag="0"/>
    </comp>
    <comp name="--.HHE">
      <acc value="0.6449650058" flag="0"/>
      <vel value="0.2757551833" flag="0"/>
      <psa03 value="0.9689977323" flag="0"/>
      <psa10 value="0.1389133322" flag="0"/>
      <psa30 value="0.0086340436" flag="0"/>
    </comp>
    <comp name="--.HHZ">
      <acc value="0.4034205776" flag="0"/>
      <vel value="0.1027998141" flag="0"/>
      <psa03 value="0.4397811932" flag="0"/>
      <psa10 value="0.0516803069" flag="0"/>
      <psa30 value="0.0048931064" flag="0"/>
    </comp>
  </station>
  <station code="CMBO" name="CMBO" netid="HT" insttype="120P," lat="36.4709" lon="25.4056">
    <comp name="--.HHE">
      <acc value="0.4135454957" flag="0"/>
      <vel value="0.1160934196" flag="0"/>
      <psa03 value="0.3244162248" flag="0"/>
      <psa10 value="0.0674932363" flag="0"/>
      <psa30 value="0.0073775552" flag="0"/>
    </comp>
    <comp name="--.HHN">
      <acc value="0.5754749859" flag="0"/>
      <vel value="0.1861782937" flag="0"/>
      <psa03 value="0.3507087178" flag="0"/>
      <psa10 value="0.0801906809" flag="0"/>
      <psa30 value="0.0065634051" flag="0"/>
    </comp>
    <comp name="--.HHZ">
      <acc value="0.3235007993" flag="0"/>
      <vel value="0.0853932800" flag="0"/>
      <psa03 value="0.3006379072" flag="0"/>
      <psa10 value="0.0305173109" flag="0"/>
      <psa30 value="0.0065767153" flag="0"/>
    </comp>
  </station>
</stationlist>
