<?xml version="1.0" encoding="UTF-8" standalone="yes"?>
<!DOCTYPE earthquake SYSTEM "stationlist.dtd">
<stationlist created="" xmlns="ch.ethz.sed.shakemap.usgs.xml">
  <station code="THERA" name="THERA" netid="GE" insttype="STS-2/N" lat="36.367" lon="25.4753">
    <comp name="--.HHZ">
      <acc value="0.1087337828" flag="0"/>
      <vel value="0.0413872613" flag="0"/>
      <psa03 value="0.0914105425" flag="0"/>
      <psa10 value="0.0270491326" flag="0"/>
      <psa30 value="0.0024930054" flag="0"/>
    </comp>
    <comp name="--.HHN">
      <acc value="0.1209962322" flag="0"/>
      <vel value="0.0243632214" flag="0"/>
      <psa03 value="0.0925758984" flag="0"/>
      <psa10 value="0.0137175959" flag="0"/>
      <psa30 value="0.0014919211" flag="0"/>
    </comp>
    <comp name="--.HHE">
      <acc value="0.2331162751" flag="0"/>
      <vel value="0.0503455432" flag="0"/>
      <psa03 value="0.1887123710" flag="0"/>
      <psa10 value="0.0330675187" flag="0"/>
      <psa30 value="0.0038280264" flag="0"/>
    </comp>
  </station>
</stationlist>
