<stationlist created="1741951618">
	<station code="ABEA" name="ABEA" netid="HC" source="Seismological Network of Crete (HC)" insttype="" lat="35.5163" lon="24.0113">
		<comp name=".HNE" depth="0.0">
			<acc value="0.0034567348193448" flag="0"/>
			<vel value="0.00230408263474" flag="0"/>
			<psa03 value="0.0022687136049432" flag="0"/>
			<psa10 value="0.00184744457163549" flag="0"/>
			<psa30 value="0.00108218627286304" flag="0"/>
		</comp>
		<comp name=".HNN" depth="0.0">
			<acc value="0.0035511983507916" flag="0"/>
			<vel value="0.0021603341983" flag="0"/>
			<psa03 value="0.00212622434802147" flag="0"/>
			<psa10 value="0.00159141921277421" flag="0"/>
			<psa30 value="0.00111946290892392" flag="0"/>
		</comp>
		<comp name=".HNZ" depth="0.0">
			<acc value="0.0040702163853282" flag="0"/>
			<vel value="0.00152496102019" flag="0"/>
			<psa03 value="0.0015786740781086" flag="0"/>
			<psa10 value="0.00157686438140021" flag="0"/>
			<psa30 value="0.000556549681186942" flag="0"/>
		</comp>
	</station>
	<station code="ATEI" name="ATEI" netid="HC" source="Seismological Network of Crete (HC)" insttype="" lat="35.5193" lon="24.0432">
		<comp name=".HNE" depth="0.0">
			<acc value="0.0085180250044158" flag="0"/>
			<vel value="0.00573964346614" flag="0"/>
			<psa03 value="0.0171186952274809" flag="0"/>
			<psa10 value="0.00629649226794366" flag="0"/>
			<psa30 value="0.000888278531594179" flag="0"/>
		</comp>
		<comp name=".HNN" depth="0.0">
			<acc value="0.010969175933448" flag="0"/>
			<vel value="0.00692690507619" flag="0"/>
			<psa03 value="0.0249325891616753" flag="0"/>
			<psa10 value="0.00638745876279686" flag="0"/>
			<psa30 value="0.00109394288501414" flag="0"/>
		</comp>
		<comp name=".HNZ" depth="0.0">
			<acc value="0.0073337474332596" flag="0"/>
			<vel value="0.00538942831365" flag="0"/>
			<psa03 value="0.0117819054934252" flag="0"/>
			<psa10 value="0.00847965204783524" flag="0"/>
			<psa30 value="0.00117912144434232" flag="0"/>
		</comp>
	</station>
	<station code="G0LD" name="G0LD" netid="HC" source="Seismological Network of Crete (HC)" insttype="" lat="35.4955" lon="24.0306">
		<comp name=".HNE" depth="0.0">
			<acc value="0.0101761798990164" flag="0"/>
			<vel value="0.00295791246272" flag="0"/>
			<psa03 value="0.0021955985726281" flag="0"/>
			<psa10 value="0.00219909013205416" flag="0"/>
			<psa30 value="0.00143387477883548" flag="0"/>
		</comp>
		<comp name=".HNN" depth="0.0">
			<acc value="0.0091999888173552" flag="0"/>
			<vel value="0.00242626695053" flag="0"/>
			<psa03 value="0.00200901524885867" flag="0"/>
			<psa10 value="0.00157164778582752" flag="0"/>
			<psa30 value="0.00179062820366529" flag="0"/>
		</comp>
		<comp name=".HNZ" depth="0.0">
			<acc value="0.0081692907725814" flag="0"/>
			<vel value="0.00410336931856" flag="0"/>
			<psa03 value="0.00372721240432132" flag="0"/>
			<psa10 value="0.00178292857901935" flag="0"/>
			<psa30 value="0.00168501214461817" flag="0"/>
		</comp>
	</station>
	<station code="POLY" name="POLY" netid="HC" source="Seismological Network of Crete (HC)" insttype="" lat="35.5226" lon="24.0602">
		<comp name=".HNE" depth="0.0">
			<acc value="0.0016278335963814" flag="0"/>
			<vel value="0.00205322181686" flag="0"/>
			<psa03 value="0.00137817625834996" flag="0"/>
			<psa10 value="0.00111973581762747" flag="0"/>
			<psa30 value="0.00113833874268972" flag="0"/>
		</comp>
		<comp name=".HNN" depth="0.0">
			<acc value="0.0025804421965038" flag="0"/>
			<vel value="0.00242444929933" flag="0"/>
			<psa03 value="0.00148467305933625" flag="0"/>
			<psa10 value="0.000966056906684332" flag="0"/>
			<psa30 value="0.00101973890686554" flag="0"/>
		</comp>
		<comp name=".HNZ" depth="0.0">
			<acc value="0.00293772492246" flag="0"/>
			<vel value="0.00155923900867" flag="0"/>
			<psa03 value="0.00158117326710493" flag="0"/>
			<psa10 value="0.00118178871739115" flag="0"/>
			<psa30 value="0.000906262952140551" flag="0"/>
		</comp>
	</station>
	<station code="CH01" name="CH01" netid="HI" source="ITSAK Strong Motion Network" insttype="" lat="35.517" lon="24.0208">
		<comp name=".HNE" depth="0.0">
			<acc value="0.019656662311506" flag="0"/>
			<vel value="0.00813188727815" flag="0"/>
			<psa03 value="0.0197818508151111" flag="0"/>
			<psa10 value="0.0135294028190487" flag="0"/>
			<psa30 value="0.0012353336056238" flag="0"/>
		</comp>
		<comp name=".HNN" depth="0.0">
			<acc value="0.023788085905776" flag="0"/>
			<vel value="0.00765876146332" flag="0"/>
			<psa03 value="0.0396581349693132" flag="0"/>
			<psa10 value="0.00807908707485282" flag="0"/>
			<psa30 value="0.000996807283589977" flag="0"/>
		</comp>
		<comp name=".HNZ" depth="0.0">
			<acc value="0.033297834357696" flag="0"/>
			<vel value="0.00352902694234" flag="0"/>
			<psa03 value="0.0140443939138172" flag="0"/>
			<psa10 value="0.00428252307112811" flag="0"/>
			<psa30 value="0.000702318191799713" flag="0"/>
		</comp>
	</station>
	<station code="CH02" name="CH02" netid="HI" source="ITSAK Strong Motion Network" insttype="" lat="35.5145" lon="24.0315">
		<comp name=".HNE" depth="0.0">
			<acc value="0.010468390595292" flag="0"/>
			<vel value="0.00486005227931" flag="0"/>
			<psa03 value="0.02058721276012" flag="0"/>
			<psa10 value="0.00712766826678316" flag="0"/>
			<psa30 value="0.000998070596446894" flag="0"/>
		</comp>
		<comp name=".HNN" depth="0.0">
			<acc value="0.0100624892127438" flag="0"/>
			<vel value="0.00551824749529" flag="0"/>
			<psa03 value="0.0281241860059619" flag="0"/>
			<psa10 value="0.0079189149017372" flag="0"/>
			<psa30 value="0.000965116330052219" flag="0"/>
		</comp>
		<comp name=".HNZ" depth="0.0">
			<acc value="0.007689969524772" flag="0"/>
			<vel value="0.00351970829911" flag="0"/>
			<psa03 value="0.0107551551845668" flag="0"/>
			<psa10 value="0.00549075514182775" flag="0"/>
			<psa30 value="0.000749592052627883" flag="0"/>
		</comp>
	</station>
	<station code="CH03" name="CH03" netid="HI" source="ITSAK Strong Motion Network" insttype="" lat="35.53303" lon="24.0705">
		<comp name=".HNE" depth="0.0">
			<acc value="0.0070192183277058" flag="0"/>
			<vel value="0.0055747180858" flag="0"/>
			<psa03 value="0.0269514130030172" flag="0"/>
			<psa10 value="0.00736639876903573" flag="0"/>
			<psa30 value="0.000495106183770751" flag="0"/>
		</comp>
		<comp name=".HNN" depth="0.0">
			<acc value="0.0074994150618132" flag="0"/>
			<vel value="0.00600533909162" flag="0"/>
			<psa03 value="0.0196119033589978" flag="0"/>
			<psa10 value="0.0131221839677715" flag="0"/>
			<psa30 value="0.000756564754119809" flag="0"/>
		</comp>
		<comp name=".HNZ" depth="0.0">
			<acc value="0.0071981332548522" flag="0"/>
			<vel value="0.00432549099765" flag="0"/>
			<psa03 value="0.0162889254155294" flag="0"/>
			<psa10 value="0.00303450461478815" flag="0"/>
			<psa30 value="0.000482502223822804" flag="0"/>
		</comp>
	</station>
	<station code="GOR1" name="GOR1" netid="HI" source="ITSAK Strong Motion Network" insttype="" lat="35.0582" lon="24.9628">
		<comp name=".HNE" depth="0.0">
			<acc value="0.0101214191792736" flag="0"/>
			<vel value="0.0092136802123" flag="0"/>
			<psa03 value="0.0267432637974804" flag="0"/>
			<psa10 value="0.0104543500493986" flag="0"/>
			<psa30 value="0.00111047408429128" flag="0"/>
		</comp>
		<comp name=".HNN" depth="0.0">
			<acc value="0.0079806642418248" flag="0"/>
			<vel value="0.00827315614357" flag="0"/>
			<psa03 value="0.0191879638167869" flag="0"/>
			<psa10 value="0.00960084132113279" flag="0"/>
			<psa30 value="0.00118557270503992" flag="0"/>
		</comp>
		<comp name=".HNZ" depth="0.0">
			<acc value="0.0072784184513004" flag="0"/>
			<vel value="0.00701169779957" flag="0"/>
			<psa03 value="0.014385303216162" flag="0"/>
			<psa10 value="0.0142665385256418" flag="0"/>
			<psa30 value="0.000588892761254067" flag="0"/>
		</comp>
	</station>
	<station code="HER3" name="HER3" netid="HI" source="ITSAK Strong Motion Network" insttype="" lat="35.3296" lon="25.1065">
		<comp name=".HNE" depth="0.0">
			<acc value="0.047705971778952" flag="0"/>
			<vel value="0.0285938771873" flag="0"/>
			<psa03 value="0.12272484866889" flag="0"/>
			<psa10 value="0.0689290037080232" flag="0"/>
			<psa30 value="0.00302432347158734" flag="0"/>
		</comp>
		<comp name=".HNN" depth="0.0">
			<acc value="0.049880015207472" flag="0"/>
			<vel value="0.0320616558031" flag="0"/>
			<psa03 value="0.118732396688555" flag="0"/>
			<psa10 value="0.0496725093099463" flag="0"/>
			<psa30 value="0.00217834034602323" flag="0"/>
		</comp>
		<comp name=".HNZ" depth="0.0">
			<acc value="0.030150889709982" flag="0"/>
			<vel value="0.0181637897024" flag="0"/>
			<psa03 value="0.0701502721111454" flag="0"/>
			<psa10 value="0.0321910712504821" flag="0"/>
			<psa30 value="0.000958032319104482" flag="0"/>
		</comp>
	</station>
	<station code="KIS1" name="KIS1" netid="HI" source="ITSAK Strong Motion Network" insttype="" lat="35.493933" lon="23.658993">
		<comp name=".HNE" depth="0.0">
			<acc value="0.006505084179282" flag="0"/>
			<vel value="0.004240199733" flag="0"/>
			<psa03 value="0.0147184528898725" flag="0"/>
			<psa10 value="0.00718967721834079" flag="0"/>
			<psa30 value="0.00055479607543581" flag="0"/>
		</comp>
		<comp name=".HNN" depth="0.0">
			<acc value="0.0081390217932018" flag="0"/>
			<vel value="0.00519342105734" flag="0"/>
			<psa03 value="0.0130832963916799" flag="0"/>
			<psa10 value="0.00671422494071827" flag="0"/>
			<psa30 value="0.00084420816423248" flag="0"/>
		</comp>
		<comp name=".HNZ" depth="0.0">
			<acc value="0.0068198322456348" flag="0"/>
			<vel value="0.00328765917404" flag="0"/>
			<psa03 value="0.00891324280232319" flag="0"/>
			<psa10 value="0.00410466707031695" flag="0"/>
			<psa30 value="0.000504665462862269" flag="0"/>
		</comp>
	</station>
	<station code="KRL1" name="KRL1" netid="HI" source="ITSAK Strong Motion Network" insttype="" lat="37.7951" lon="26.7065">
		<comp name=".HNE" depth="0.0">
			<acc value="0.024501246836946" flag="0"/>
			<vel value="0.00823477918311" flag="0"/>
			<psa03 value="0.0378534945873994" flag="0"/>
			<psa10 value="0.0101391979221081" flag="0"/>
			<psa30 value="0.00103478469524053" flag="0"/>
		</comp>
		<comp name=".HNN" depth="0.0">
			<acc value="0.019547785706208" flag="0"/>
			<vel value="0.00666608027204" flag="0"/>
			<psa03 value="0.0325621883351501" flag="0"/>
			<psa10 value="0.0086810047614547" flag="0"/>
			<psa30 value="0.000626190909157603" flag="0"/>
		</comp>
		<comp name=".HNZ" depth="0.0">
			<acc value="0.009504615322524" flag="0"/>
			<vel value="0.00308716823104" flag="0"/>
			<psa03 value="0.0152229094847095" flag="0"/>
			<psa10 value="0.00412569799474991" flag="0"/>
			<psa30 value="0.000637666669372675" flag="0"/>
		</comp>
	</station>
	<station code="KTL1" name="KTL1" netid="HI" source="ITSAK Strong Motion Network" insttype="" lat="35.20778" lon="25.34272">
		<comp name=".HNE" depth="0.0">
			<acc value="0.01708281495243" flag="0"/>
			<vel value="0.00987163364767" flag="0"/>
			<psa03 value="0.0491758618260292" flag="0"/>
			<psa10 value="0.0121210438971605" flag="0"/>
			<psa30 value="0.00141473778193273" flag="0"/>
		</comp>
		<comp name=".HNN" depth="0.0">
			<acc value="0.017394631703574" flag="0"/>
			<vel value="0.0111963509769" flag="0"/>
			<psa03 value="0.0595380534786866" flag="0"/>
			<psa10 value="0.0161713487724814" flag="0"/>
			<psa30 value="0.000563279033221953" flag="0"/>
		</comp>
		<comp name=".HNZ" depth="0.0">
			<acc value="0.011324702806914" flag="0"/>
			<vel value="0.00499973407714" flag="0"/>
			<psa03 value="0.0174006696360341" flag="0"/>
			<psa10 value="0.00654846349105887" flag="0"/>
			<psa30 value="0.000608446348252092" flag="0"/>
		</comp>
	</station>
	<station code="NAX1" name="NAX1" netid="HI" source="ITSAK Strong Motion Network" insttype="" lat="37.101394" lon="25.374103">
		<comp name=".HNE" depth="0.0">
			<acc value="0.16198235006712" flag="0"/>
			<vel value="0.0364250221071" flag="0"/>
			<psa03 value="0.148362067842234" flag="0"/>
			<psa10 value="0.0127494298996544" flag="0"/>
			<psa30 value="0.00168001243841285" flag="0"/>
		</comp>
		<comp name=".HNN" depth="0.0">
			<acc value="0.13411683459888" flag="0"/>
			<vel value="0.0363767149282" flag="0"/>
			<psa03 value="0.110198529278358" flag="0"/>
			<psa10 value="0.00973395638932869" flag="0"/>
			<psa30 value="0.0019875941683572" flag="0"/>
		</comp>
		<comp name=".HNZ" depth="0.0">
			<acc value="0.094199406819336" flag="0"/>
			<vel value="0.0188350547693" flag="0"/>
			<psa03 value="0.0554941449648031" flag="0"/>
			<psa10 value="0.0130242668562512" flag="0"/>
			<psa30 value="0.00251407800366135" flag="0"/>
		</comp>
	</station>
	<station code="RTH1" name="RTH1" netid="HI" source="ITSAK Strong Motion Network" insttype="" lat="35.365393" lon="24.471773">
		<comp name=".HNE" depth="0.0">
			<acc value="0.0080259828258618" flag="0"/>
			<vel value="0.00373382890788" flag="0"/>
			<psa03 value="0.0174990342251279" flag="0"/>
			<psa10 value="0.00406999602349933" flag="0"/>
			<psa30 value="0.000922083896032718" flag="0"/>
		</comp>
		<comp name=".HNN" depth="0.0">
			<acc value="0.0089366778025404" flag="0"/>
			<vel value="0.00472500586312" flag="0"/>
			<psa03 value="0.0193159058860324" flag="0"/>
			<psa10 value="0.00411138892185792" flag="0"/>
			<psa30 value="0.000765299603594171" flag="0"/>
		</comp>
		<comp name=".HNZ" depth="0.0">
			<acc value="0.0078263027797908" flag="0"/>
			<vel value="0.00246907780893" flag="0"/>
			<psa03 value="0.00974712616800891" flag="0"/>
			<psa10 value="0.0028246081320527" flag="0"/>
			<psa30 value="0.000869827153030877" flag="0"/>
		</comp>
	</station>
	<station code="SFR2" name="SFR2" netid="HI" source="ITSAK Strong Motion Network" insttype="" lat="36.399841" lon="25.438209">
		<comp name=".HNE" depth="0.0">
			<acc value="0.46409275599162" flag="0"/>
			<vel value="0.158156648132" flag="0"/>
			<psa03 value="0.894606763308455" flag="0"/>
			<psa10 value="0.0743923881306889" flag="0"/>
			<psa30 value="0.00848313196585322" flag="0"/>
		</comp>
		<comp name=".HNN" depth="0.0">
			<acc value="0.42934374818028" flag="0"/>
			<vel value="0.178773696558" flag="0"/>
			<psa03 value="1.22885340550588" flag="0"/>
			<psa10 value="0.118761967397466" flag="0"/>
			<psa30 value="0.00629340857410675" flag="0"/>
		</comp>
		<comp name=".HNZ" depth="0.0">
			<acc value="0.46238561150532" flag="0"/>
			<vel value="0.127296087029" flag="0"/>
			<psa03 value="0.566723709329489" flag="0"/>
			<psa10 value="0.0700655464987361" flag="0"/>
			<psa30 value="0.00518322169634841" flag="0"/>
		</comp>
	</station>
	<station code="AMGA" name="AMGA" netid="HL" source="National Observatory of Athens Seismic Network" insttype="" lat="36.831561" lon="25.893836">
		<comp name="00.HNE" depth="0.0">
			<acc value="0.210899952078" flag="0"/>
			<vel value="0.0482124437796" flag="0"/>
			<psa03 value="0.13933246967562" flag="0"/>
			<psa10 value="0.0164008302245283" flag="0"/>
			<psa30 value="0.00418985547403124" flag="0"/>
		</comp>
		<comp name="00.HNN" depth="0.0">
			<acc value="0.24325157120304" flag="0"/>
			<vel value="0.04783961073" flag="0"/>
			<psa03 value="0.129676975879916" flag="0"/>
			<psa10 value="0.0173379141767186" flag="0"/>
			<psa30 value="0.00256450009387676" flag="0"/>
		</comp>
		<comp name="00.HNZ" depth="0.0">
			<acc value="0.28041969597936" flag="0"/>
			<vel value="0.0750057021193" flag="0"/>
			<psa03 value="0.161192199025405" flag="0"/>
			<psa10 value="0.0146737376880886" flag="0"/>
			<psa30 value="0.00328267662788342" flag="0"/>
		</comp>
	</station>
	<station code="ANAF" name="ANAF" netid="HL" source="National Observatory of Athens Seismic Network" insttype="" lat="36.35675" lon="25.77262">
		<comp name=".HNE" depth="0.0">
			<acc value="1.7659257209178" flag="0"/>
			<vel value="0.330190245461" flag="0"/>
			<psa03 value="1.8927402180859" flag="0"/>
			<psa10 value="0.136435883207598" flag="0"/>
			<psa30 value="0.00812111131711556" flag="0"/>
		</comp>
		<comp name=".HNN" depth="0.0">
			<acc value="1.9552443154524" flag="0"/>
			<vel value="0.659783331129" flag="0"/>
			<psa03 value="2.16129600858856" flag="0"/>
			<psa10 value="0.0981266379083153" flag="0"/>
			<psa30 value="0.0121259124488443" flag="0"/>
		</comp>
		<comp name=".HNZ" depth="0.0">
			<acc value="0.90233050069254" flag="0"/>
			<vel value="0.215625641851" flag="0"/>
			<psa03 value="0.626693765386036" flag="0"/>
			<psa10 value="0.0409090525240094" flag="0"/>
			<psa30 value="0.00878376438127181" flag="0"/>
		</comp>
	</station>
	<station code="CHNB" name="CHNB" netid="HL" source="National Observatory of Athens Seismic Network" insttype="" lat="35.48765" lon="24.06605">
		<comp name="00.HNE" depth="0.0">
			<acc value="0.015372858295428" flag="0"/>
			<vel value="0.0127070798384" flag="0"/>
			<psa03 value="0.0478957249401516" flag="0"/>
			<psa10 value="0.0169507516541189" flag="0"/>
			<psa30 value="0.000852819047159521" flag="0"/>
		</comp>
		<comp name="00.HNN" depth="0.0">
			<acc value="0.019053797351946" flag="0"/>
			<vel value="0.0133350772262" flag="0"/>
			<psa03 value="0.0563550561624843" flag="0"/>
			<psa10 value="0.0182870139249405" flag="0"/>
			<psa30 value="0.00103240495426266" flag="0"/>
		</comp>
		<comp name="00.HNZ" depth="0.0">
			<acc value="0.012882495937968" flag="0"/>
			<vel value="0.00739283807149" flag="0"/>
			<psa03 value="0.0268343948344785" flag="0"/>
			<psa10 value="0.00566815689382475" flag="0"/>
			<psa30 value="0.000550892379334941" flag="0"/>
		</comp>
	</station>
	<station code="HERG" name="HERG" netid="HL" source="National Observatory of Athens Seismic Network" insttype="" lat="35.32622" lon="25.06586">
		<comp name="00.HNE" depth="0.0">
			<acc value="0.02732870749164" flag="0"/>
			<vel value="0.0230972649119" flag="0"/>
			<psa03 value="0.0586853719929178" flag="0"/>
			<psa10 value="0.0308313286742042" flag="0"/>
			<psa30 value="0.00290044255675094" flag="0"/>
		</comp>
		<comp name="00.HNN" depth="0.0">
			<acc value="0.022954893430518" flag="0"/>
			<vel value="0.0175200751491" flag="0"/>
			<psa03 value="0.0627244520620897" flag="0"/>
			<psa10 value="0.0351471520763509" flag="0"/>
			<psa30 value="0.00343374871899946" flag="0"/>
		</comp>
		<comp name="00.HNZ" depth="0.0">
			<acc value="0.01988669947737" flag="0"/>
			<vel value="0.0134653568542" flag="0"/>
			<psa03 value="0.0451480481281494" flag="0"/>
			<psa10 value="0.0178245164117225" flag="0"/>
			<psa30 value="0.000854585674606405" flag="0"/>
		</comp>
	</station>
	<station code="IACM" name="IACM" netid="HL" source="National Observatory of Athens Seismic Network" insttype="" lat="35.3058" lon="25.0709">
		<comp name=".HNE" depth="0.0">
			<acc value="0.04781531001483" flag="0"/>
			<vel value="0.0342587481496" flag="0"/>
			<psa03 value="0.124737815351631" flag="0"/>
			<psa10 value="0.0500702606591672" flag="0"/>
			<psa30 value="0.002517788457796" flag="0"/>
		</comp>
		<comp name=".HNN" depth="0.0">
			<acc value="0.044614326516306" flag="0"/>
			<vel value="0.0295332561666" flag="0"/>
			<psa03 value="0.11434130371691" flag="0"/>
			<psa10 value="0.0399002956987817" flag="0"/>
			<psa30 value="0.00221500735836471" flag="0"/>
		</comp>
		<comp name=".HNZ" depth="0.0">
			<acc value="0.034212539091024" flag="0"/>
			<vel value="0.0185601067708" flag="0"/>
			<psa03 value="0.103311479295004" flag="0"/>
			<psa10 value="0.024783286146085" flag="0"/>
			<psa30 value="0.000976729286856924" flag="0"/>
		</comp>
	</station>
	<station code="KARA" name="KARA" netid="HL" source="National Observatory of Athens Seismic Network" insttype="" lat="38.01581" lon="24.42014">
		<comp name="00.HNE" depth="0.0">
			<acc value="0.011390388809448" flag="0"/>
			<vel value="0.00480566827166" flag="0"/>
			<psa03 value="0.0177977180739588" flag="0"/>
			<psa10 value="0.00614637029187583" flag="0"/>
			<psa30 value="0.000491888053920456" flag="0"/>
		</comp>
		<comp name="00.HNN" depth="0.0">
