<?xml version="1.0" encoding="UTF-8" standalone="yes"?>
<!DOCTYPE earthquake SYSTEM "stationlist.dtd">
<stationlist created="" xmlns="ch.ethz.sed.shakemap.usgs.xml">
  <station code="THERA" name="THERA" netid="GE" insttype="STS-2/N" lat="36.367" lon="25.4753">
    <comp name="--.HHE">
      <acc value="0.2331162754" flag="0"/>
      <vel value="0.0503455507" flag="0"/>
      <psa03 value="0.1887123710" flag="0"/>
      <psa10 value="0.0330673528" flag="0"/>
      <psa30 value="0.0038281393" flag="0"/>
    </comp>
    <comp name="--.HHN">
      <acc value="0.1209962326" flag="0"/>
      <vel value="0.0243632086" flag="0"/>
      <psa03 value="0.0925758984" flag="0"/>
      <psa10 value="0.0137177137" flag="0"/>
      <psa30 value="0.0014919867" flag="0"/>
    </comp>
    <comp name="--.HHZ">
      <acc value="0.1087337836" flag="0"/>
      <vel value="0.0413872346" flag="0"/>
      <psa03 value="0.0914105425" flag="0"/>
      <psa10 value="0.0270492305" flag="0"/>
      <psa30 value="0.0024928397" flag="0"/>
    </comp>
  </station>
</stationlist>
