<stationlist created="1778550948">
	<station code="4802" name="4802" netid="TK" source="Turkish National Strong Motion Network (TNSMN)" insttype="" lat="37.03304" lon="27.43997">
		<comp name="00.HNE" depth="None">
			<acc value="0.651962813090575" flag="0"/>
			<vel value="0.174990824608628" flag="0"/>
			<psa03 value="1.07752656198784" flag="0"/>
			<psa10 value="0.0910579966433081" flag="0"/>
			<psa30 value="0.00828133502297592" flag="0"/>
		</comp>
		<comp name="00.HNN" depth="None">
			<acc value="0.490159182085185" flag="0"/>
			<vel value="0.304341812753086" flag="0"/>
			<psa03 value="0.915649258442932" flag="0"/>
			<psa10 value="0.193093046258343" flag="0"/>
			<psa30 value="0.0175850294671793" flag="0"/>
		</comp>
		<comp name="00.HNZ" depth="None">
			<acc value="0.325150659838001" flag="0"/>
			<vel value="0.114108618679988" flag="0"/>
			<psa03 value="0.799051067995715" flag="0"/>
			<psa10 value="0.0679522263015002" flag="0"/>
			<psa30 value="0.0078312284243961" flag="0"/>
		</comp>
	</station>
</stationlist>
