<stationlist created="1778138444">
	<station code="ABEA" name="ABEA" netid="HC" source="Seismological Network of Crete (HC)" insttype="" lat="35.5163" lon="24.0113">
		<comp name="--.HNE" depth="0.0">
			<acc value="0.0407587242207082" flag="0"/>
			<vel value="0.0358411309321216" flag="0"/>
			<psa03 value="0.0847275502842115" flag="0"/>
			<psa10 value="0.0692893500795863" flag="0"/>
			<psa30 value="0.00485497078464894" flag="0"/>
		</comp>
		<comp name="--.HNN" depth="0.0">
			<acc value="0.0394273737536669" flag="0"/>
			<vel value="0.0272352861858506" flag="0"/>
			<psa03 value="0.0947371300364712" flag="0"/>
			<psa10 value="0.0566866814644279" flag="0"/>
			<psa30 value="0.00659736996003155" flag="0"/>
		</comp>
		<comp name="--.HNZ" depth="0.0">
			<acc value="0.0248812119420662" flag="0"/>
			<vel value="0.0187048324532074" flag="0"/>
			<psa03 value="0.034519312776741" flag="0"/>
			<psa10 value="0.052570873812365" flag="0"/>
			<psa30 value="0.00265521714510262" flag="0"/>
		</comp>
	</station>
	<station code="ATEI" name="ATEI" netid="HC" source="Seismological Network of Crete (HC)" insttype="" lat="35.5193" lon="24.0432">
		<comp name="--.HNE" depth="0.0">
			<acc value="0.0334327474585543" flag="0"/>
			<vel value="0.0266316079738876" flag="0"/>
			<psa03 value="0.0454660066915405" flag="0"/>
			<psa10 value="0.0406654363854225" flag="0"/>
			<psa30 value="0.00411735817143929" flag="0"/>
		</comp>
		<comp name="--.HNN" depth="0.0">
			<acc value="0.0299874893565998" flag="0"/>
			<vel value="0.031260462584854" flag="0"/>
			<psa03 value="0.0548031304382804" flag="0"/>
			<psa10 value="0.0507310056800655" flag="0"/>
			<psa30 value="0.00534277643270838" flag="0"/>
		</comp>
		<comp name="--.HNZ" depth="0.0">
			<acc value="0.0287385461462874" flag="0"/>
			<vel value="0.0238245117283238" flag="0"/>
			<psa03 value="0.0429690574266813" flag="0"/>
			<psa10 value="0.0510824714631589" flag="0"/>
			<psa30 value="0.00207607940507395" flag="0"/>
		</comp>
	</station>
	<station code="DEYA" name="DEYA" netid="HC" source="Seismological Network of Crete (HC)" insttype="" lat="35.4825" lon="24.014">
		<comp name="--.HNE" depth="0.0">
			<acc value="0.103136450625878" flag="0"/>
			<vel value="0.0897647011708829" flag="0"/>
			<psa03 value="0.262794513013425" flag="0"/>
			<psa10 value="0.179612973478178" flag="0"/>
			<psa30 value="0.00560217028294976" flag="0"/>
		</comp>
		<comp name="--.HNN" depth="0.0">
			<acc value="0.0583388691821409" flag="0"/>
			<vel value="0.0513454797131503" flag="0"/>
			<psa03 value="0.124125878980495" flag="0"/>
			<psa10 value="0.0807662503675582" flag="0"/>
			<psa30 value="0.00533646143104536" flag="0"/>
		</comp>
		<comp name="--.HNZ" depth="0.0">
			<acc value="0.06003710793371" flag="0"/>
			<vel value="0.0573586540467283" flag="0"/>
			<psa03 value="0.109154116341162" flag="0"/>
			<psa10 value="0.0517513882754382" flag="0"/>
			<psa30 value="0.00274588023442196" flag="0"/>
		</comp>
	</station>
	<station code="G0LD" name="G0LD" netid="HC" source="Seismological Network of Crete (HC)" insttype="" lat="35.4955" lon="24.0306">
		<comp name="--.HNE" depth="0.0">
			<acc value="0.0840720401289105" flag="0"/>
			<vel value="0.0954612240515273" flag="0"/>
			<psa03 value="0.233656145239696" flag="0"/>
			<psa10 value="0.281736783679245" flag="0"/>
			<psa30 value="0.0106816192715041" flag="0"/>
		</comp>
		<comp name="--.HNN" depth="0.0">
			<acc value="0.0790044398937398" flag="0"/>
			<vel value="0.100598042231092" flag="0"/>
			<psa03 value="0.213276086827339" flag="0"/>
			<psa10 value="0.206064210742478" flag="0"/>
			<psa30 value="0.0177840097700306" flag="0"/>
		</comp>
		<comp name="--.HNZ" depth="0.0">
			<acc value="0.0700923030326467" flag="0"/>
			<vel value="0.0581648524634735" flag="0"/>
			<psa03 value="0.112586937498599" flag="0"/>
			<psa10 value="0.107305693475647" flag="0"/>
			<psa30 value="0.00320666846771547" flag="0"/>
		</comp>
	</station>
	<station code="MULT" name="MULT" netid="HC" source="Seismological Network of Crete (HC)" insttype="" lat="35.5091" lon="24.0118">
		<comp name="--.HNE" depth="0.0">
			<acc value="0.0630964307055297" flag="0"/>
			<vel value="0.0435397119244533" flag="0"/>
			<psa03 value="0.0719957849926248" flag="0"/>
			<psa10 value="0.0710457414315093" flag="0"/>
			<psa30 value="0.00544545531802346" flag="0"/>
		</comp>
		<comp name="--.HNN" depth="0.0">
			<acc value="0.0503982641587759" flag="0"/>
			<vel value="0.0395237945134435" flag="0"/>
			<psa03 value="0.0952799784974817" flag="0"/>
			<psa10 value="0.0804501719290488" flag="0"/>
			<psa30 value="0.00810357265524988" flag="0"/>
		</comp>
		<comp name="--.HNZ" depth="0.0">
			<acc value="0.0375852840956635" flag="0"/>
			<vel value="0.0346292671556767" flag="0"/>
			<psa03 value="0.0587550641098555" flag="0"/>
			<psa10 value="0.0773792059925279" flag="0"/>
			<psa30 value="0.00393528027633847" flag="0"/>
		</comp>
	</station>
	<station code="NERO" name="NERO" netid="HC" source="Seismological Network of Crete (HC)" insttype="" lat="35.474" lon="24.0423">
		<comp name="--.HNE" depth="0.0">
			<acc value="0.0525172007484364" flag="0"/>
			<vel value="0.0382463947424015" flag="0"/>
			<psa03 value="0.131455083253987" flag="0"/>
			<psa10 value="0.0324934800335828" flag="0"/>
			<psa30 value="0.00195051858728536" flag="0"/>
		</comp>
		<comp name="--.HNN" depth="0.0">
			<acc value="0.0289856453913608" flag="0"/>
			<vel value="0.0263074411747766" flag="0"/>
			<psa03 value="0.0649924460554798" flag="0"/>
			<psa10 value="0.0577930872583487" flag="0"/>
			<psa30 value="0.00436485706702491" flag="0"/>
		</comp>
		<comp name="--.HNZ" depth="0.0">
			<acc value="0.025827254287275" flag="0"/>
			<vel value="0.0182930635944217" flag="0"/>
			<psa03 value="0.0544619463784294" flag="0"/>
			<psa10 value="0.0213383060580333" flag="0"/>
			<psa30 value="0.00189810532349458" flag="0"/>
		</comp>
	</station>
	<station code="PASK" name="PASK" netid="HC" source="Seismological Network of Crete (HC)" insttype="" lat="35.4996" lon="24.0121">
		<comp name="--.HNE" depth="0.0">
			<acc value="0.0569763620366266" flag="0"/>
			<vel value="0.0586432122025719" flag="0"/>
			<psa03 value="0.103863515864784" flag="0"/>
			<psa10 value="0.0694864856386192" flag="0"/>
			<psa30 value="0.00494569054439349" flag="0"/>
		</comp>
		<comp name="--.HNN" depth="0.0">
			<acc value="0.0615927043730311" flag="0"/>
			<vel value="0.0591105386729388" flag="0"/>
			<psa03 value="0.126704789403884" flag="0"/>
			<psa10 value="0.0685321674197902" flag="0"/>
			<psa30 value="0.0062921839096216" flag="0"/>
		</comp>
		<comp name="--.HNZ" depth="0.0">
			<acc value="0.0267429433506586" flag="0"/>
			<vel value="0.0253483490383252" flag="0"/>
			<psa03 value="0.0708741429809026" flag="0"/>
			<psa10 value="0.0378053319177196" flag="0"/>
			<psa30 value="0.00233646436263186" flag="0"/>
		</comp>
	</station>
	<station code="POLY" name="POLY" netid="HC" source="Seismological Network of Crete (HC)" insttype="" lat="35.5226" lon="24.0602">
		<comp name="--.HNE" depth="0.0">
			<acc value="0.0294059667894628" flag="0"/>
			<vel value="0.0333877498126855" flag="0"/>
			<psa03 value="0.0612682878898719" flag="0"/>
			<psa10 value="0.034500774256954" flag="0"/>
			<psa30 value="0.0032318197171951" flag="0"/>
		</comp>
		<comp name="--.HNN" depth="0.0">
			<acc value="0.03689867755592" flag="0"/>
			<vel value="0.03384190682798" flag="0"/>
			<psa03 value="0.0763016066901818" flag="0"/>
			<psa10 value="0.069156298765196" flag="0"/>
			<psa30 value="0.00547315590305453" flag="0"/>
		</comp>
		<comp name="--.HNZ" depth="0.0">
			<acc value="0.0187160244561844" flag="0"/>
			<vel value="0.018647636583838" flag="0"/>
			<psa03 value="0.04128241184051" flag="0"/>
			<psa10 value="0.0251981348777719" flag="0"/>
			<psa30 value="0.00180008112153849" flag="0"/>
		</comp>
	</station>
	<station code="SOUD" name="SOUD" netid="HC" source="Seismological Network of Crete (HC)" insttype="" lat="35.4878" lon="24.0678">
		<comp name="--.HNE" depth="0.0">
			<acc value="0.0566882902390531" flag="0"/>
			<vel value="0.0460479912156133" flag="0"/>
			<psa03 value="0.17475606631521" flag="0"/>
			<psa10 value="0.0795985280116958" flag="0"/>
			<psa30 value="0.00528374168862912" flag="0"/>
		</comp>
		<comp name="--.HNN" depth="0.0">
			<acc value="0.0780290127820849" flag="0"/>
			<vel value="0.0533922975430577" flag="0"/>
			<psa03 value="0.172559399963276" flag="0"/>
			<psa10 value="0.101852112202754" flag="0"/>
			<psa30 value="0.00430993717885263" flag="0"/>
		</comp>
		<comp name="--.HNZ" depth="0.0">
			<acc value="0.00592417817406191" flag="0"/>
			<vel value="0.00652317820772552" flag="0"/>
			<psa03 value="0.00721324802458329" flag="0"/>
			<psa10 value="0.00391937549876705" flag="0"/>
			<psa30 value="0.00196231978572096" flag="0"/>
		</comp>
	</station>
	<station code="CH01" name="CH01" netid="HI" source="ITSAK Strong Motion Network" insttype="" lat="35.517" lon="24.0208">
		<comp name="--.HNE" depth="0.0">
			<acc value="0.0433167223146153" flag="0"/>
			<vel value="0.0302855193800397" flag="0"/>
			<psa03 value="0.0868728278150052" flag="0"/>
			<psa10 value="0.0565309261462773" flag="0"/>
			<psa30 value="0.00523044524131695" flag="0"/>
		</comp>
		<comp name="--.HNN" depth="0.0">
			<acc value="0.0338086445410958" flag="0"/>
			<vel value="0.025425717535284" flag="0"/>
			<psa03 value="0.0611683802301694" flag="0"/>
			<psa10 value="0.0539911003955992" flag="0"/>
			<psa30 value="0.0059822754630598" flag="0"/>
		</comp>
		<comp name="--.HNZ" depth="0.0">
			<acc value="0.0210433298803876" flag="0"/>
			<vel value="0.0225613216771585" flag="0"/>
			<psa03 value="0.0518397570463164" flag="0"/>
			<psa10 value="0.050767791867234" flag="0"/>
			<psa30 value="0.00238921827398674" flag="0"/>
		</comp>
	</station>
	<station code="NAX1" name="NAX1" netid="HI" source="ITSAK Strong Motion Network" insttype="" lat="37.101394" lon="25.374103">
		<comp name="--.HNE" depth="0.0">
			<acc value="0.0028052369801583" flag="0"/>
			<vel value="0.00336856571801939" flag="0"/>
			<psa03 value="0.00429627484149707" flag="0"/>
			<psa10 value="0.0059963476973584" flag="0"/>
			<psa30 value="0.00125445278884204" flag="0"/>
		</comp>
		<comp name="--.HNN" depth="0.0">
			<acc value="0.002182517512278" flag="0"/>
			<vel value="0.00195544336084764" flag="0"/>
			<psa03 value="0.00508210033605946" flag="0"/>
			<psa10 value="0.00236988605582053" flag="0"/>
			<psa30 value="0.000548828440524624" flag="0"/>
		</comp>
		<comp name="--.HNZ" depth="0.0">
			<acc value="0.00186001674282596" flag="0"/>
			<vel value="0.00156335871521707" flag="0"/>
			<psa03 value="0.00451553415803059" flag="0"/>
			<psa10 value="0.00176729660597641" flag="0"/>
			<psa30 value="0.000424889214533631" flag="0"/>
		</comp>
	</station>
	<station code="SIT2" name="SIT2" netid="HI" source="ITSAK Strong Motion Network" insttype="" lat="35.2059" lon="26.107">
		<comp name="--.HNE" depth="0.0">
			<acc value="0.0639456559996217" flag="0"/>
			<vel value="0.0591785926518907" flag="0"/>
			<psa03 value="0.181596779895357" flag="0"/>
			<psa10 value="0.0439593058383386" flag="0"/>
			<psa30 value="0.00392709056714443" flag="0"/>
		</comp>
		<comp name="--.HNN" depth="0.0">
			<acc value="0.116116354492452" flag="0"/>
			<vel value="0.0598423408556685" flag="0"/>
			<psa03 value="0.437722330289541" flag="0"/>
			<psa10 value="0.0435448546329339" flag="0"/>
			<psa30 value="0.00306680670255966" flag="0"/>
		</comp>
		<comp name="--.HNZ" depth="0.0">
			<acc value="0.0552090079765286" flag="0"/>
			<vel value="0.0217909507303513" flag="0"/>
			<psa03 value="0.157046747326407" flag="0"/>
			<psa10 value="0.015540719183862" flag="0"/>
			<psa30 value="0.00174868417507845" flag="0"/>
		</comp>
	</station>
	<station code="IACM" name="IACM" netid="HL" source="National Observatory of Athens Seismic Network" insttype="" lat="35.3058" lon="25.0709">
		<comp name="--.HNE" depth="0.0">
			<acc value="0.572335104096926" flag="0"/>
			<vel value="0.406881488338936" flag="0"/>
			<psa03 value="2.02734113473588" flag="0"/>
			<psa10 value="1.0619126665006" flag="0"/>
			<psa30 value="0.0390501002108076" flag="0"/>
		</comp>
		<comp name="--.HNN" depth="0.0">
			<acc value="0.580196701326664" flag="0"/>
			<vel value="0.417717724454583" flag="0"/>
			<psa03 value="1.3918837054649" flag="0"/>
			<psa10 value="0.658610169690476" flag="0"/>
			<psa30 value="0.0298697953939987" flag="0"/>
		</comp>
		<comp name="--.HNZ" depth="0.0">
			<acc value="0.354430109881867" flag="0"/>
			<vel value="0.236064008670736" flag="0"/>
			<psa03 value="0.803455224965975" flag="0"/>
			<psa10 value="0.253661523831024" flag="0"/>
			<psa30 value="0.0168457409476464" flag="0"/>
		</comp>
	</station>
	<station code="IMMV" name="IMMV" netid="HL" source="National Observatory of Athens Seismic Network" insttype="" lat="35.4606" lon="23.9811">
		<comp name="--.HNE" depth="0.0">
			<acc value="0.0294479304720728" flag="0"/>
			<vel value="0.0250870987773481" flag="0"/>
			<psa03 value="0.0799518849618237" flag="0"/>
			<psa10 value="0.0522766518214768" flag="0"/>
			<psa30 value="0.00188493778454212" flag="0"/>
		</comp>
		<comp name="--.HNN" depth="0.0">
			<acc value="0.0337033844056408" flag="0"/>
			<vel value="0.0248686400691824" flag="0"/>
			<psa03 value="0.106125624051766" flag="0"/>
			<psa10 value="0.0458647958177206" flag="0"/>
			<psa30 value="0.00272681709658478" flag="0"/>
		</comp>
		<comp name="--.HNZ" depth="0.0">
			<acc value="0.0355585093818853" flag="0"/>
			<vel value="0.0198629171682507" flag="0"/>
			<psa03 value="0.0782266404641572" flag="0"/>
			<psa10 value="0.0245593456861257" flag="0"/>
			<psa30 value="0.00142928103701959" flag="0"/>
		</comp>
	</station>
	<station code="SIVA" name="SIVA" netid="HL" source="National Observatory of Athens Seismic Network" insttype="" lat="35.01777" lon="24.81204">
		<comp name="00.HNE" depth="0.0">
			<acc value="0.255963175926189" flag="0"/>
			<vel value="0.148031519358932" flag="0"/>
			<psa03 value="0.560845361585522" flag="0"/>
			<psa10 value="0.14758624186426" flag="0"/>
			<psa30 value="0.00602236770229978" flag="0"/>
		</comp>
		<comp name="00.HNN" depth="0.0">
			<acc value="0.371425532190749" flag="0"/>
			<vel value="0.210582181056481" flag="0"/>
			<psa03 value="0.452603316083756" flag="0"/>
			<psa10 value="0.191310418376277" flag="0"/>
			<psa30 value="0.0121069628601952" flag="0"/>
		</comp>
		<comp name="00.HNZ" depth="0.0">
			<acc value="0.15126842555061" flag="0"/>
			<vel value="0.0657359520156306" flag="0"/>
			<psa03 value="0.260042497372468" flag="0"/>
			<psa10 value="0.0628537550028197" flag="0"/>
			<psa30 value="0.00291000694034658" flag="0"/>
		</comp>
	</station>
</stationlist>
