<?xml version="1.0" encoding="UTF-8" standalone="yes"?>
<!DOCTYPE earthquake SYSTEM "stationlist.dtd">
<stationlist created="" xmlns="ch.ethz.sed.shakemap.usgs.xml">
  <station code="GVD" name="GVD" netid="GE" insttype="STS-2/N" lat="34.8391" lon="24.0874">
    <comp name="--.HHZ">
      <acc value="0.0124844174" flag="0"/>
      <vel value="0.0047269066" flag="0"/>
      <psa03 value="0.0242800887" flag="0"/>
      <psa10 value="0.0049936211" flag="0"/>
      <psa30 value="0.0007282902" flag="0"/>
    </comp>
    <comp name="--.HHN">
      <acc value="0.0211753848" flag="0"/>
      <vel value="0.0122950324" flag="0"/>
      <psa03 value="0.0642389962" flag="0"/>
      <psa10 value="0.0103047740" flag="0"/>
      <psa30 value="0.0021171258" flag="0"/>
    </comp>
    <comp name="--.HHE">
      <acc value="0.0212507528" flag="0"/>
      <vel value="0.0141506101" flag="0"/>
      <psa03 value="0.0733356947" flag="0"/>
      <psa10 value="0.0176593753" flag="0"/>
      <psa30 value="0.0010669589" flag="0"/>
    </comp>
  </station>
  <station code="IMMV" name="IMMV" netid="GE" insttype="STS-2/N" lat="35.4606" lon="23.9811">
    <comp name="--.HHE">
      <acc value="0.0317384934" flag="0"/>
      <vel value="0.0267563800" flag="0"/>
      <psa03 value="0.0844540540" flag="0"/>
      <psa10 value="0.0546709240" flag="0"/>
      <psa30 value="0.0019642008" flag="0"/>
    </comp>
    <comp name="--.HHN">
      <acc value="0.0354335419" flag="0"/>
      <vel value="0.0243024832" flag="0"/>
      <psa03 value="0.1118776173" flag="0"/>
      <psa10 value="0.0468060834" flag="0"/>
      <psa30 value="0.0025230559" flag="0"/>
    </comp>
    <comp name="--.HHZ">
      <acc value="0.0374646211" flag="0"/>
      <vel value="0.0207587290" flag="0"/>
      <psa03 value="0.0805352772" flag="0"/>
      <psa10 value="0.0249239435" flag="0"/>
      <psa30 value="0.0012687850" flag="0"/>
    </comp>
  </station>
  <station code="SNT5" name="SNT5" netid="HA" insttype="1s-100Hz," lat="36.4037" lon="25.3953">
    <comp name="--.HHE">
      <acc value="0.0459720686" flag="0"/>
      <vel value="0.0195435685" flag="0"/>
      <psa03 value="0.0655474299" flag="0"/>
      <psa10 value="0.0218418419" flag="0"/>
      <psa30 value="0.0058172252" flag="0"/>
    </comp>
    <comp name="--.HHZ">
      <acc value="0.0163374732" flag="0"/>
      <vel value="0.0066495549" flag="0"/>
      <psa03 value="0.0188198552" flag="0"/>
      <psa10 value="0.0102156143" flag="0"/>
      <psa30 value="0.0012314002" flag="0"/>
    </comp>
    <comp name="--.HHN">
      <acc value="0.0308008756" flag="0"/>
      <vel value="0.0132197565" flag="0"/>
      <psa03 value="0.0434480496" flag="0"/>
      <psa10 value="0.0135688658" flag="0"/>
      <psa30 value="0.0035790681" flag="0"/>
    </comp>
  </station>
  <station code="CHAN" name="CHAN" netid="HC" insttype="120" lat="35.5193" lon="24.0428">
    <comp name="--.HHN">
      <acc value="0.0548768948" flag="0"/>
      <vel value="0.0600696838" flag="0"/>
      <psa03 value="0.1029001942" flag="0"/>
      <psa10 value="0.0923128716" flag="0"/>
      <psa30 value="0.0076478517" flag="0"/>
    </comp>
    <comp name="--.HHZ">
      <acc value="0.0565840236" flag="0"/>
      <vel value="0.0447856969" flag="0"/>
      <psa03 value="0.0828562055" flag="0"/>
      <psa10 value="0.0974752113" flag="0"/>
      <psa30 value="0.0039654136" flag="0"/>
    </comp>
    <comp name="--.HHE">
      <acc value="0.0616096513" flag="0"/>
      <vel value="0.0509962341" flag="0"/>
      <psa03 value="0.0832177811" flag="0"/>
      <psa10 value="0.0868316065" flag="0"/>
      <psa30 value="0.0070061475" flag="0"/>
    </comp>
  </station>
  <station code="GVDS" name="GVDS" netid="HC" insttype="60" lat="34.8389" lon="24.0585">
    <comp name="--.HHE">
      <acc value="0.0206747966" flag="0"/>
      <vel value="0.0082385359" flag="0"/>
      <psa03 value="0.0436351880" flag="0"/>
      <psa10 value="0.0109904371" flag="0"/>
      <psa30 value="0.0008921570" flag="0"/>
    </comp>
    <comp name="--.HHN">
      <acc value="0.0199084006" flag="0"/>
      <vel value="0.0096214368" flag="0"/>
      <psa03 value="0.0438111097" flag="0"/>
      <psa10 value="0.0083330926" flag="0"/>
      <psa30 value="0.0019109148" flag="0"/>
    </comp>
    <comp name="--.HHZ">
      <acc value="0.0111514802" flag="0"/>
      <vel value="0.0045857144" flag="0"/>
      <psa03 value="0.0197437956" flag="0"/>
      <psa10 value="0.0071984483" flag="0"/>
      <psa30 value="0.0009915695" flag="0"/>
    </comp>
  </station>
  <station code="IMOD" name="IMOD" netid="HC" insttype="120" lat="34.9731" lon="24.7995">
    <comp name="--.HHZ">
      <acc value="0.0735995063" flag="0"/>
      <vel value="0.0309116069" flag="0"/>
      <psa03 value="0.1456452607" flag="0"/>
      <psa10 value="0.0405547879" flag="0"/>
      <psa30 value="0.0023748400" flag="0"/>
    </comp>
    <comp name="--.HHE">
      <acc value="0.1005489306" flag="0"/>
      <vel value="0.0792381993" flag="0"/>
      <psa03 value="0.2337951973" flag="0"/>
      <psa10 value="0.0824381380" flag="0"/>
      <psa30 value="0.0051651033" flag="0"/>
    </comp>
    <comp name="--.HHN">
      <acc value="0.1242063232" flag="0"/>
      <vel value="0.1033895204" flag="0"/>
      <psa03 value="0.3585159029" flag="0"/>
      <psa10 value="0.1708083131" flag="0"/>
      <psa30 value="0.0078795650" flag="0"/>
    </comp>
  </station>
  <station code="KNDR" name="KNDR" netid="HC" insttype="120" lat="35.2348" lon="23.6248">
    <comp name="--.HHZ">
      <acc value="0.0151337136" flag="0"/>
      <vel value="0.0076383497" flag="0"/>
      <psa03 value="0.0339709017" flag="0"/>
      <psa10 value="0.0072650109" flag="0"/>
      <psa30 value="0.0007334730" flag="0"/>
    </comp>
    <comp name="--.HHE">
      <acc value="0.0161431278" flag="0"/>
      <vel value="0.0125798170" flag="0"/>
      <psa03 value="0.0397372359" flag="0"/>
      <psa10 value="0.0257955049" flag="0"/>
      <psa30 value="0.0010706793" flag="0"/>
    </comp>
    <comp name="--.HHN">
      <acc value="0.0190271342" flag="0"/>
      <vel value="0.0167898911" flag="0"/>
      <psa03 value="0.0456072667" flag="0"/>
      <psa10 value="0.0162272599" flag="0"/>
      <psa30 value="0.0012579266" flag="0"/>
    </comp>
  </station>
  <station code="KNSS" name="KNSS" netid="HC" insttype="60" lat="35.3042" lon="25.1802">
    <comp name="--.HHN">
      <acc value="0.0000000000" flag="0"/>
      <vel value="-100.0000000000" flag="0"/>
      <psa03 value="0.0000000000" flag="0"/>
      <psa10 value="0.0000000000" flag="0"/>
      <psa30 value="0.0000000000" flag="0"/>
    </comp>
    <comp name="--.HHE">
      <acc value="0.4809845959" flag="0"/>
      <vel value="0.2494460867" flag="0"/>
      <psa03 value="1.3769069563" flag="0"/>
      <psa10 value="0.2474404925" flag="0"/>
      <psa30 value="0.0169347268" flag="0"/>
    </comp>
    <comp name="--.HHZ">
      <acc value="0.3968045650" flag="0"/>
      <vel value="0.1091881624" flag="0"/>
      <psa03 value="0.7780600516" flag="0"/>
      <psa10 value="0.1182854925" flag="0"/>
      <psa30 value="0.0161143681" flag="0"/>
    </comp>
  </station>
  <station code="PFKS" name="PFKS" netid="HC" insttype="120" lat="35.0429" lon="25.4733">
    <comp name="--.HHZ">
      <acc value="0.3877177030" flag="0"/>
      <vel value="0.1196612528" flag="0"/>
      <psa03 value="0.6368264916" flag="0"/>
      <psa10 value="0.0758131339" flag="0"/>
      <psa30 value="0.0069807399" flag="0"/>
    </comp>
    <comp name="--.HHE">
      <acc value="0.7166458900" flag="0"/>
      <vel value="0.2693587845" flag="0"/>
      <psa03 value="1.1482524277" flag="0"/>
      <psa10 value="0.1835699839" flag="0"/>
      <psa30 value="0.0093891249" flag="0"/>
    </comp>
    <comp name="--.HHN">
      <acc value="0.8513207974" flag="0"/>
      <vel value="0.3553378240" flag="0"/>
      <psa03 value="2.0590735648" flag="0"/>
      <psa10 value="0.3147302634" flag="0"/>
      <psa30 value="0.0178876867" flag="0"/>
    </comp>
  </station>
  <station code="RODP" name="RODP" netid="HC" insttype="120" lat="35.5604" lon="23.7577">
    <comp name="--.HHE">
      <acc value="0.0291210590" flag="0"/>
      <vel value="0.0244557277" flag="0"/>
      <psa03 value="0.0602460640" flag="0"/>
      <psa10 value="0.0207452458" flag="0"/>
      <psa30 value="0.0017625130" flag="0"/>
    </comp>
    <comp name="--.HHZ">
      <acc value="0.0149155245" flag="0"/>
      <vel value="0.0082006933" flag="0"/>
      <psa03 value="0.0470125789" flag="0"/>
      <psa10 value="0.0106350351" flag="0"/>
      <psa30 value="0.0013590249" flag="0"/>
    </comp>
    <comp name="--.HHN">
      <acc value="0.0202039234" flag="0"/>
      <vel value="0.0149928951" flag="0"/>
      <psa03 value="0.0564317449" flag="0"/>
      <psa10 value="0.0231295711" flag="0"/>
      <psa30 value="0.0028074195" flag="0"/>
    </comp>
  </station>
  <station code="SIT2" name="SIT2" netid="HI" insttype="CMG-5TD,ACCELEROMETER,GURALP" lat="35.2059" lon="26.107">
    <comp name="--.HNN">
      <acc value="0.1160972603" flag="0"/>
      <vel value="0.0607312630" flag="0"/>
      <psa03 value="0.4409071089" flag="0"/>
      <psa10 value="0.0436112782" flag="0"/>
      <psa30 value="0.0032438271" flag="0"/>
    </comp>
    <comp name="--.HNE">
      <acc value="0.0641088490" flag="0"/>
      <vel value="0.0589649775" flag="0"/>
      <psa03 value="0.1829591997" flag="0"/>
      <psa10 value="0.0438590740" flag="0"/>
      <psa30 value="0.0037447419" flag="0"/>
    </comp>
    <comp name="--.HNZ">
      <acc value="0.0548492443" flag="0"/>
      <vel value="0.0208702618" flag="0"/>
      <psa03 value="0.1566271383" flag="0"/>
      <psa10 value="0.0153732443" flag="0"/>
      <psa30 value="0.0016503731" flag="0"/>
    </comp>
  </station>
  <station code="IACM" name="IACM" netid="HL" insttype="120" lat="35.3058" lon="25.0709">
    <comp name="--.HHE">
      <acc value="0.5844140911" flag="0"/>
      <vel value="0.4189924652" flag="0"/>
      <psa03 value="2.0323407055" flag="0"/>
      <psa10 value="1.0486948128" flag="0"/>
      <psa30 value="0.0390366892" flag="0"/>
    </comp>
    <comp name="--.HHN">
      <acc value="0.6101958474" flag="0"/>
      <vel value="0.4227230782" flag="0"/>
      <psa03 value="1.3554794334" flag="0"/>
      <psa10 value="0.6385610024" flag="0"/>
      <psa30 value="0.0279308976" flag="0"/>
    </comp>
    <comp name="--.HHZ">
      <acc value="0.3841970535" flag="0"/>
      <vel value="0.2379544638" flag="0"/>
      <psa03 value="0.8053521414" flag="0"/>
      <psa10 value="0.2610594457" flag="0"/>
      <psa30 value="0.0168770971" flag="0"/>
    </comp>
  </station>
  <station code="IDI" name="IDI" netid="HL" insttype="120" lat="35.288" lon="24.89">
    <comp name="--.HHZ">
      <acc value="0.1481563311" flag="0"/>
      <vel value="0.0452415316" flag="0"/>
      <psa03 value="0.2024411292" flag="0"/>
      <psa10 value="0.0255395547" flag="0"/>
      <psa30 value="0.0036490265" flag="0"/>
    </comp>
    <comp name="--.HHN">
      <acc value="0.1900073387" flag="0"/>
      <vel value="0.0632433633" flag="0"/>
      <psa03 value="0.2738443831" flag="0"/>
      <psa10 value="0.0380486375" flag="0"/>
      <psa30 value="0.0046048454" flag="0"/>
    </comp>
    <comp name="--.HHE">
      <acc value="0.1797721400" flag="0"/>
      <vel value="0.0494473043" flag="0"/>
      <psa03 value="0.2000279695" flag="0"/>
      <psa10 value="0.0370637214" flag="0"/>
      <psa30 value="0.0021507536" flag="0"/>
    </comp>
  </station>
  <station code="IMMV" name="IMMV" netid="HL" insttype="120" lat="35.4606" lon="23.9811">
    <comp name="--.HHN">
      <acc value="0.0348232081" flag="0"/>
      <vel value="0.0239534405" flag="0"/>
      <psa03 value="0.1090508827" flag="0"/>
      <psa10 value="0.0465196017" flag="0"/>
      <psa30 value="0.0025211455" flag="0"/>
    </comp>
    <comp name="--.HHE">
      <acc value="0.0309756790" flag="0"/>
      <vel value="0.0264937415" flag="0"/>
      <psa03 value="0.0823555893" flag="0"/>
      <psa10 value="0.0543652704" flag="0"/>
      <psa30 value="0.0019517506" flag="0"/>
    </comp>
    <comp name="--.HHZ">
      <acc value="0.0363412520" flag="0"/>
      <vel value="0.0204178802" flag="0"/>
      <psa03 value="0.0782736458" flag="0"/>
      <psa10 value="0.0247591762" flag="0"/>
      <psa30 value="0.0012658104" flag="0"/>
    </comp>
  </station>
  <station code="NPS" name="NPS" netid="HL" insttype="CMG3ESPC-120s" lat="35.2613" lon="25.6104">
    <comp name="--.HHE">
      <acc value="0.0644035527" flag="0"/>
      <vel value="0.0289957645" flag="0"/>
      <psa03 value="0.1609107007" flag="0"/>
      <psa10 value="0.0454724588" flag="0"/>
      <psa30 value="0.0022833652" flag="0"/>
    </comp>
    <comp name="--.HHN">
      <acc value="0.1403745843" flag="0"/>
      <vel value="0.0729537772" flag="0"/>
      <psa03 value="0.2544753949" flag="0"/>
      <psa10 value="0.0872202809" flag="0"/>
      <psa30 value="0.0047516107" flag="0"/>
    </comp>
    <comp name="--.HHZ">
      <acc value="0.1416863656" flag="0"/>
      <vel value="0.0593113404" flag="0"/>
      <psa03 value="0.1672516504" flag="0"/>
      <psa10 value="0.0628734263" flag="0"/>
      <psa30 value="0.0061123050" flag="0"/>
    </comp>
  </station>
  <station code="SIVA" name="SIVA" netid="HL" insttype="60" lat="35.0178" lon="24.812">
    <comp name="--.HHE">
      <acc value="0.2779978599" flag="0"/>
      <vel value="0.1578819907" flag="0"/>
      <psa03 value="0.5982127396" flag="0"/>
      <psa10 value="0.1571467466" flag="0"/>
      <psa30 value="0.0068807376" flag="0"/>
    </comp>
    <comp name="--.HHZ">
      <acc value="0.1560244028" flag="0"/>
      <vel value="0.0668220653" flag="0"/>
      <psa03 value="0.2617735552" flag="0"/>
      <psa10 value="0.0645274175" flag="0"/>
      <psa30 value="0.0028867827" flag="0"/>
    </comp>
    <comp name="--.HHN">
      <acc value="0.3775877871" flag="0"/>
      <vel value="0.1830662847" flag="0"/>
      <psa03 value="0.4191943273" flag="0"/>
      <psa10 value="0.1603327763" flag="0"/>
      <psa30 value="0.0099821080" flag="0"/>
    </comp>
  </station>
  <station code="CMBO" name="CMBO" netid="HT" insttype="120P," lat="36.4709" lon="25.4056">
    <comp name="--.HHE">
      <acc value="0.0445578848" flag="0"/>
      <vel value="0.0304725747" flag="0"/>
      <psa03 value="0.0664736670" flag="0"/>
      <psa10 value="0.0425880502" flag="0"/>
      <psa30 value="0.0043312881" flag="0"/>
    </comp>
    <comp name="--.HHN">
      <acc value="0.0373323048" flag="0"/>
      <vel value="0.0220847262" flag="0"/>
      <psa03 value="0.0710246316" flag="0"/>
      <psa10 value="0.0327480185" flag="0"/>
      <psa30 value="0.0039705270" flag="0"/>
    </comp>
    <comp name="--.HHZ">
      <acc value="0.0354841826" flag="0"/>
      <vel value="0.0190161282" flag="0"/>
      <psa03 value="0.0937820360" flag="0"/>
      <psa10 value="0.0142629240" flag="0"/>
      <psa30 value="0.0023293677" flag="0"/>
    </comp>
  </station>
  <station code="IDI" name="IDI" netid="MN" insttype="" lat="35.288" lon="24.89">
    <comp name="--.HHE">
      <acc value="0.1948214066" flag="0"/>
      <vel value="0.0502459313" flag="0"/>
      <psa03 value="0.2006513292" flag="0"/>
      <psa10 value="0.0368206177" flag="0"/>
      <psa30 value="0.0021344959" flag="0"/>
    </comp>
    <comp name="--.HHZ">
      <acc value="0.1560348599" flag="0"/>
      <vel value="0.0459112602" flag="0"/>
      <psa03 value="0.2040352335" flag="0"/>
      <psa10 value="0.0254645455" flag="0"/>
      <psa30 value="0.0036089990" flag="0"/>
    </comp>
    <comp name="--.HHN">
      <acc value="0.2008816638" flag="0"/>
      <vel value="0.0657054422" flag="0"/>
      <psa03 value="0.2773272341" flag="0"/>
      <psa10 value="0.0379152756" flag="0"/>
      <psa30 value="0.0045687864" flag="0"/>
    </comp>
  </station>
</stationlist>
