<?xml version="1.0" encoding="UTF-8" standalone="yes"?>
<!DOCTYPE earthquake SYSTEM "stationlist.dtd">
<stationlist created="" xmlns="ch.ethz.sed.shakemap.usgs.xml">
  <station code="PE01" name="PE01" netid="Z3" source="GFZ" insttype="CMG-3ESP/60" lat="38.017" lon="22.0283">
    <comp name="--.HHE">
      <acc value="0.0495965989" flag="0"/>
      <vel value="0.0352045392" flag="0"/>
      <psa03 value="0.1504956748" flag="0"/>
      <psa10 value="0.0430535600" flag="0"/>
      <psa30 value="0.0054458368" flag="0"/>
    </comp>
    <comp name="--.HHN">
      <acc value="0.0667547329" flag="0"/>
      <vel value="0.0379054570" flag="0"/>
      <psa03 value="0.1893134948" flag="0"/>
      <psa10 value="0.0570497616" flag="0"/>
      <psa30 value="0.0044044641" flag="0"/>
    </comp>
    <comp name="--.HHZ">
      <acc value="0.0305399873" flag="0"/>
      <vel value="0.0253946037" flag="0"/>
      <psa03 value="0.0929072775" flag="0"/>
      <psa10 value="0.0272914320" flag="0"/>
      <psa30 value="0.0052771713" flag="0"/>
    </comp>
  </station>
  <station code="PE02" name="PE02" netid="Z3" source="GFZ" insttype="CMG-3ESP/60" lat="37.8958" lon="22.4907">
    <comp name="--.HHE">
      <acc value="0.0166724418" flag="0"/>
      <vel value="0.0180738695" flag="0"/>
      <psa03 value="0.0617359860" flag="0"/>
      <psa10 value="0.0231047615" flag="0"/>
      <psa30 value="0.0053382682" flag="0"/>
    </comp>
    <comp name="--.HHN">
      <acc value="0.0164744229" flag="0"/>
      <vel value="0.0157888179" flag="0"/>
      <psa03 value="0.0477492197" flag="0"/>
      <psa10 value="0.0361602745" flag="0"/>
      <psa30 value="0.0051429172" flag="0"/>
    </comp>
    <comp name="--.HHZ">
      <acc value="0.0121115073" flag="0"/>
      <vel value="0.0181462265" flag="0"/>
      <psa03 value="0.0343130593" flag="0"/>
      <psa10 value="0.0251270560" flag="0"/>
      <psa30 value="0.0042012691" flag="0"/>
    </comp>
  </station>
  <station code="PE03" name="PE03" netid="Z3" source="GFZ" insttype="CMG-3ESP/60" lat="37.3784" lon="21.7722">
    <comp name="--.HHE">
      <acc value="0.0920302732" flag="0"/>
      <vel value="0.0328518935" flag="0"/>
      <psa03 value="0.1884502520" flag="0"/>
      <psa10 value="0.0443993405" flag="0"/>
      <psa30 value="0.0051041273" flag="0"/>
    </comp>
    <comp name="--.HHN">
      <acc value="0.0742026587" flag="0"/>
      <vel value="0.0361594432" flag="0"/>
      <psa03 value="0.1389213906" flag="0"/>
      <psa10 value="0.0405837845" flag="0"/>
      <psa30 value="0.0043505369" flag="0"/>
    </comp>
    <comp name="--.HHZ">
      <acc value="0.0412623711" flag="0"/>
      <vel value="0.0250923449" flag="0"/>
      <psa03 value="0.1634819440" flag="0"/>
      <psa10 value="0.0318220780" flag="0"/>
      <psa30 value="0.0039751619" flag="0"/>
    </comp>
  </station>
  <station code="PE05" name="PE05" netid="Z3" source="GFZ" insttype="CMG-3ESP/60" lat="37.5128" lon="22.4553">
    <comp name="--.HHE">
      <acc value="0.0171193092" flag="0"/>
      <vel value="0.0186443111" flag="0"/>
      <psa03 value="0.0524289026" flag="0"/>
      <psa10 value="0.0385968838" flag="0"/>
      <psa30 value="0.0033504949" flag="0"/>
    </comp>
    <comp name="--.HHN">
      <acc value="0.0217681627" flag="0"/>
      <vel value="0.0176434902" flag="0"/>
      <psa03 value="0.0635219095" flag="0"/>
      <psa10 value="0.0373860858" flag="0"/>
      <psa30 value="0.0044422878" flag="0"/>
    </comp>
    <comp name="--.HHZ">
      <acc value="0.0113664793" flag="0"/>
      <vel value="0.0114047035" flag="0"/>
      <psa03 value="0.0339474933" flag="0"/>
      <psa10 value="0.0196859791" flag="0"/>
      <psa30 value="0.0039904904" flag="0"/>
    </comp>
  </station>
  <station code="PE06" name="PE06" netid="Z3" source="GFZ" insttype="CMG-3ESP/60" lat="37.1787" lon="21.9252">
    <comp name="--.HHE">
      <acc value="0.0407550481" flag="0"/>
      <vel value="0.0324652955" flag="0"/>
      <psa03 value="0.0996858721" flag="0"/>
      <psa10 value="0.0438039244" flag="0"/>
      <psa30 value="0.0056696604" flag="0"/>
    </comp>
    <comp name="--.HHN">
      <acc value="0.0533857134" flag="0"/>
      <vel value="0.0279151738" flag="0"/>
      <psa03 value="0.1152711831" flag="0"/>
      <psa10 value="0.0409767851" flag="0"/>
      <psa30 value="0.0048257669" flag="0"/>
    </comp>
    <comp name="--.HHZ">
      <acc value="0.0264716862" flag="0"/>
      <vel value="0.0191026352" flag="0"/>
      <psa03 value="0.0491618016" flag="0"/>
      <psa10 value="0.0344906814" flag="0"/>
      <psa30 value="0.0039061285" flag="0"/>
    </comp>
  </station>
  <station code="PE08" name="PE08" netid="Z3" source="GFZ" insttype="CMG-3ESP/60" lat="36.8311" lon="22.442">
    <comp name="--.HHE">
      <acc value="0.0263643895" flag="0"/>
      <vel value="0.0207104594" flag="0"/>
      <psa03 value="0.0640868877" flag="0"/>
      <psa10 value="0.0376862083" flag="0"/>
      <psa30 value="0.0025147490" flag="0"/>
    </comp>
    <comp name="--.HHN">
      <acc value="0.0223759087" flag="0"/>
      <vel value="0.0175969721" flag="0"/>
      <psa03 value="0.0682524897" flag="0"/>
      <psa10 value="0.0394857460" flag="0"/>
      <psa30 value="0.0030625867" flag="0"/>
    </comp>
    <comp name="--.HHZ">
      <acc value="0.0137077018" flag="0"/>
      <vel value="0.0099435743" flag="0"/>
      <psa03 value="0.0424906637" flag="0"/>
      <psa10 value="0.0201892783" flag="0"/>
      <psa30 value="0.0025175188" flag="0"/>
    </comp>
  </station>
  <station code="PE09" name="PE09" netid="Z3" source="GFZ" insttype="CMG-3ESP/60" lat="36.7921" lon="21.8879">
    <comp name="--.HHE">
      <acc value="0.0258486636" flag="0"/>
      <vel value="0.0165905588" flag="0"/>
      <psa03 value="0.0579228982" flag="0"/>
      <psa10 value="0.0245262127" flag="0"/>
      <psa30 value="0.0027937447" flag="0"/>
    </comp>
    <comp name="--.HHN">
      <acc value="0.0383488211" flag="0"/>
      <vel value="0.0156214450" flag="0"/>
      <psa03 value="0.0716147781" flag="0"/>
      <psa10 value="0.0224180299" flag="0"/>
      <psa30 value="0.0032109501" flag="0"/>
    </comp>
    <comp name="--.HHZ">
      <acc value="0.0214143200" flag="0"/>
      <vel value="0.0103103896" flag="0"/>
      <psa03 value="0.0312158545" flag="0"/>
      <psa10 value="0.0177292439" flag="0"/>
      <psa30 value="0.0044816914" flag="0"/>
    </comp>
  </station>
</stationlist>
