<?xml version="1.0" encoding="UTF-8" standalone="yes"?>
<!DOCTYPE earthquake SYSTEM "stationlist.dtd">
<stationlist created="" xmlns="ch.ethz.sed.shakemap.usgs.xml">
  <station code="AMOE" name="AMOE" netid="Z3" source="GFZ" insttype="L4-3D" lat="36.915" lon="25.9788">
    <comp name="--.HHE">
      <acc value="0.0755160768" flag="0"/>
      <vel value="0.0425849445" flag="0"/>
      <psa03 value="0.2899143153" flag="0"/>
      <psa10 value="0.0489018319" flag="0"/>
      <psa30 value="0.0059773893" flag="0"/>
    </comp>
    <comp name="--.HHN">
      <acc value="0.0936531726" flag="0"/>
      <vel value="0.0482902632" flag="0"/>
      <psa03 value="0.2934135699" flag="0"/>
      <psa10 value="0.0632901174" flag="0"/>
      <psa30 value="0.0042495842" flag="0"/>
    </comp>
    <comp name="--.HHZ">
      <acc value="0.0486503437" flag="0"/>
      <vel value="0.0254178746" flag="0"/>
      <psa03 value="0.1736179278" flag="0"/>
      <psa10 value="0.0199065494" flag="0"/>
      <psa30 value="0.0051791404" flag="0"/>
    </comp>
  </station>
  <station code="IKAR" name="IKAR" netid="Z3" source="GFZ" insttype="CMG-3ESP/60" lat="37.6435" lon="26.305">
    <comp name="--.HHE">
      <acc value="0.3041889218" flag="0"/>
      <vel value="0.1043131652" flag="0"/>
      <psa03 value="0.7509281077" flag="0"/>
      <psa10 value="0.0680365832" flag="0"/>
      <psa30 value="0.0050810190" flag="0"/>
    </comp>
    <comp name="--.HHN">
      <acc value="0.3720539486" flag="0"/>
      <vel value="0.1174468155" flag="0"/>
      <psa03 value="0.3993163270" flag="0"/>
      <psa10 value="0.0376181753" flag="0"/>
      <psa30 value="0.0032791461" flag="0"/>
    </comp>
    <comp name="--.HHZ">
      <acc value="0.1758089948" flag="0"/>
      <vel value="0.0715668676" flag="0"/>
      <psa03 value="0.4189095418" flag="0"/>
      <psa10 value="0.0324566455" flag="0"/>
      <psa30 value="0.0044185623" flag="0"/>
    </comp>
  </station>
  <station code="LERO" name="LERO" netid="Z3" source="GFZ" insttype="CMG-3ESP/60" lat="37.1634" lon="26.8353">
    <comp name="--.HHE">
      <acc value="0.0200205782" flag="0"/>
      <vel value="0.0106995749" flag="0"/>
      <psa03 value="0.0491545480" flag="0"/>
      <psa10 value="0.0104995763" flag="0"/>
      <psa30 value="0.0022616447" flag="0"/>
    </comp>
    <comp name="--.HHN">
      <acc value="0.0123670197" flag="0"/>
      <vel value="0.0123844107" flag="0"/>
      <psa03 value="0.0285175002" flag="0"/>
      <psa10 value="0.0219386561" flag="0"/>
      <psa30 value="0.0021673666" flag="0"/>
    </comp>
    <comp name="--.HHZ">
      <acc value="0.0111309470" flag="0"/>
      <vel value="0.0085014131" flag="0"/>
      <psa03 value="0.0234161211" flag="0"/>
      <psa10 value="0.0075888369" flag="0"/>
      <psa30 value="0.0031910139" flag="0"/>
    </comp>
  </station>
  <station code="MYKO" name="MYKO" netid="Z3" source="GFZ" insttype="STS-2/N" lat="37.4822" lon="25.3844">
    <comp name="--.HHE">
      <acc value="0.0438719257" flag="0"/>
      <vel value="0.0301155859" flag="0"/>
      <psa03 value="0.1729743065" flag="0"/>
      <psa10 value="0.0350403809" flag="0"/>
      <psa30 value="0.0035783408" flag="0"/>
    </comp>
    <comp name="--.HHN">
      <acc value="0.0397129700" flag="0"/>
      <vel value="0.0251659540" flag="0"/>
      <psa03 value="0.0985617425" flag="0"/>
      <psa10 value="0.0419584684" flag="0"/>
      <psa30 value="0.0038063875" flag="0"/>
    </comp>
    <comp name="--.HHZ">
      <acc value="0.0327724439" flag="0"/>
      <vel value="0.0159509404" flag="0"/>
      <psa03 value="0.0835955181" flag="0"/>
      <psa10 value="0.0257173630" flag="0"/>
      <psa30 value="0.0010392671" flag="0"/>
    </comp>
  </station>
  <station code="SAMO" name="SAMO" netid="Z3" source="GFZ" insttype="CMG-3ESP/60" lat="37.7043" lon="26.8377">
    <comp name="--.HHE">
      <acc value="0.0947525751" flag="0"/>
      <vel value="0.0540341490" flag="0"/>
      <psa03 value="0.4819598938" flag="0"/>
      <psa10 value="0.0527478019" flag="0"/>
      <psa30 value="0.0064377347" flag="0"/>
    </comp>
    <comp name="--.HHN">
      <acc value="0.1085081647" flag="0"/>
      <vel value="0.0490562806" flag="0"/>
      <psa03 value="0.3397729077" flag="0"/>
      <psa10 value="0.0558355701" flag="0"/>
      <psa30 value="0.0052256400" flag="0"/>
    </comp>
    <comp name="--.HHZ">
      <acc value="0.0514667850" flag="0"/>
      <vel value="0.0229672920" flag="0"/>
      <psa03 value="0.0992992957" flag="0"/>
      <psa10 value="0.0234493036" flag="0"/>
      <psa30 value="0.0072055433" flag="0"/>
    </comp>
  </station>
  <station code="TUR1" name="TUR1" netid="Z3" source="GFZ" insttype="CMG-3ESP/60" lat="38.0865" lon="26.8676">
    <comp name="--.HHE">
      <acc value="0.5372615540" flag="0"/>
      <vel value="0.1280578614" flag="0"/>
      <psa03 value="0.7617746588" flag="0"/>
      <psa10 value="0.0753526672" flag="0"/>
      <psa30 value="0.0220079052" flag="0"/>
    </comp>
    <comp name="--.HHN">
      <acc value="0.3953694587" flag="0"/>
      <vel value="0.1406670778" flag="0"/>
      <psa03 value="0.3757855712" flag="0"/>
      <psa10 value="0.1628707333" flag="0"/>
      <psa30 value="0.0211255046" flag="0"/>
    </comp>
    <comp name="--.HHZ">
      <acc value="0.2657445256" flag="0"/>
      <vel value="0.0991675732" flag="0"/>
      <psa03 value="0.1704451040" flag="0"/>
      <psa10 value="0.0539098551" flag="0"/>
      <psa30 value="0.0251931118" flag="0"/>
    </comp>
  </station>
  <station code="TUR2" name="TUR2" netid="Z3" source="GFZ" insttype="CMG-3ESP/60" lat="37.642" lon="27.2418">
    <comp name="--.HHE">
      <acc value="0.0648956917" flag="0"/>
      <vel value="0.0341280318" flag="0"/>
      <psa03 value="0.1196061185" flag="0"/>
      <psa10 value="0.0614244393" flag="0"/>
      <psa30 value="0.0047036585" flag="0"/>
    </comp>
    <comp name="--.HHN">
      <acc value="0.0590120663" flag="0"/>
      <vel value="0.0429493084" flag="0"/>
      <psa03 value="0.1379271734" flag="0"/>
      <psa10 value="0.0578874040" flag="0"/>
      <psa30 value="0.0056310778" flag="0"/>
    </comp>
    <comp name="--.HHZ">
      <acc value="0.0460957254" flag="0"/>
      <vel value="0.0193108904" flag="0"/>
      <psa03 value="0.0681996814" flag="0"/>
      <psa10 value="0.0272352614" flag="0"/>
      <psa30 value="0.0025003690" flag="0"/>
    </comp>
  </station>
  <station code="TUR3" name="TUR3" netid="Z3" source="GFZ" insttype="CMG-3ESP/60" lat="37.4663" lon="27.538">
    <comp name="--.HHE">
      <acc value="0.0877348907" flag="0"/>
      <vel value="0.0494285532" flag="0"/>
      <psa03 value="0.1637952142" flag="0"/>
      <psa10 value="0.0591400353" flag="0"/>
      <psa30 value="0.0036847646" flag="0"/>
    </comp>
    <comp name="--.HHN">
      <acc value="0.0819423785" flag="0"/>
      <vel value="0.0512005379" flag="0"/>
      <psa03 value="0.1377762404" flag="0"/>
      <psa10 value="0.0807243665" flag="0"/>
      <psa30 value="0.0046247051" flag="0"/>
    </comp>
    <comp name="--.HHZ">
      <acc value="0.0413102686" flag="0"/>
      <vel value="0.0220318612" flag="0"/>
      <psa03 value="0.0949075334" flag="0"/>
      <psa10 value="0.0203299531" flag="0"/>
      <psa30 value="0.0011340094" flag="0"/>
    </comp>
  </station>
  <station code="TUR5" name="TUR5" netid="Z3" source="GFZ" insttype="CMG-3ESP/60" lat="37.0302" lon="27.3167">
    <comp name="--.HHE">
      <acc value="0.0149355971" flag="0"/>
      <vel value="0.0106454309" flag="0"/>
      <psa03 value="0.0408810356" flag="0"/>
      <psa10 value="0.0154058121" flag="0"/>
      <psa30 value="0.0017365945" flag="0"/>
    </comp>
    <comp name="--.HHN">
      <acc value="0.0129778495" flag="0"/>
      <vel value="0.0091725015" flag="0"/>
      <psa03 value="0.0289448953" flag="0"/>
      <psa10 value="0.0117441891" flag="0"/>
      <psa30 value="0.0012563696" flag="0"/>
    </comp>
    <comp name="--.HHZ">
      <acc value="0.0081137940" flag="0"/>
      <vel value="0.0060289185" flag="0"/>
      <psa03 value="0.0211418365" flag="0"/>
      <psa10 value="0.0147362576" flag="0"/>
      <psa30 value="0.0013347259" flag="0"/>
    </comp>
  </station>
</stationlist>
