<stationlist created="1778118986">
	<station code="3502" name="3502" netid="TK" source="Turkish National Strong Motion Network (TNSMN)" insttype="" lat="38.45514" lon="27.22673">
		<comp name="00.HNE" depth="None">
			<acc value="0.131851618326339" flag="0"/>
			<vel value="0.128839421033549" flag="0"/>
			<psa03 value="0.409525417177041" flag="0"/>
			<psa10 value="0.154310948983691" flag="0"/>
			<psa30 value="0.0564369245841556" flag="0"/>
		</comp>
		<comp name="00.HNN" depth="None">
			<acc value="0.152837141585467" flag="0"/>
			<vel value="0.141520219908008" flag="0"/>
			<psa03 value="0.438652593685536" flag="0"/>
			<psa10 value="0.112106072902742" flag="0"/>
			<psa30 value="0.0243249954721558" flag="0"/>
		</comp>
		<comp name="00.HNZ" depth="None">
			<acc value="0.091281833589229" flag="0"/>
			<vel value="0.0625032734963338" flag="0"/>
			<psa03 value="0.249348317483629" flag="0"/>
			<psa10 value="0.0581389181239147" flag="0"/>
			<psa30 value="0.00932069648271837" flag="0"/>
		</comp>
	</station>
</stationlist>
