<?xml version="1.0" encoding="UTF-8" standalone="yes"?>
<!DOCTYPE earthquake SYSTEM "stationlist.dtd">
<stationlist created="" xmlns="ch.ethz.sed.shakemap.usgs.xml">
  <station code="APE" name="APE" netid="GE" insttype="STS-2/N" lat="37.0727" lon="25.523">
    <comp name="--.HHE">
      <acc value="0.1258603095" flag="0"/>
      <vel value="0.0239321551" flag="0"/>
      <psa03 value="0.1102464080" flag="0"/>
      <psa10 value="0.0075475818" flag="0"/>
      <psa30 value="0.0011470537" flag="0"/>
    </comp>
    <comp name="--.HHZ">
      <acc value="0.0985372473" flag="0"/>
      <vel value="0.0157801756" flag="0"/>
      <psa03 value="0.0592593105" flag="0"/>
      <psa10 value="0.0060522532" flag="0"/>
      <psa30 value="0.0012278090" flag="0"/>
    </comp>
    <comp name="--.HHN">
      <acc value="0.1808053615" flag="0"/>
      <vel value="0.0320632397" flag="0"/>
      <psa03 value="0.0874280257" flag="0"/>
      <psa10 value="0.0073023051" flag="0"/>
      <psa30 value="0.0012682833" flag="0"/>
    </comp>
  </station>
  <station code="THERA" name="THERA" netid="GE" insttype="STS-2/N" lat="36.367" lon="25.4753">
    <comp name="--.HHE">
      <acc value="0.2010977103" flag="0"/>
      <vel value="0.0392903537" flag="0"/>
      <psa03 value="0.2114051245" flag="0"/>
      <psa10 value="0.0122804626" flag="0"/>
      <psa30 value="0.0010205153" flag="0"/>
    </comp>
    <comp name="--.HHN">
      <acc value="0.1146986229" flag="0"/>
      <vel value="0.0257378406" flag="0"/>
      <psa03 value="0.1762853740" flag="0"/>
      <psa10 value="0.0053309063" flag="0"/>
      <psa30 value="0.0004975544" flag="0"/>
    </comp>
    <comp name="--.HHZ">
      <acc value="0.1596928994" flag="0"/>
      <vel value="0.0346312446" flag="0"/>
      <psa03 value="0.1331393450" flag="0"/>
      <psa10 value="0.0084289884" flag="0"/>
      <psa30 value="0.0008746085" flag="0"/>
    </comp>
  </station>
  <station code="SNT1" name="SNT1" netid="HA" insttype="30" lat="36.4159" lon="25.4282">
    <comp name="--.HHE">
      <acc value="0.2295722720" flag="0"/>
      <vel value="0.0579605458" flag="0"/>
      <psa03 value="0.1663477245" flag="0"/>
      <psa10 value="0.0179824597" flag="0"/>
      <psa30 value="0.0015977168" flag="0"/>
    </comp>
    <comp name="--.HHN">
      <acc value="0.1165824213" flag="0"/>
      <vel value="0.0604178470" flag="0"/>
      <psa03 value="0.2276256733" flag="0"/>
      <psa10 value="0.0190197020" flag="0"/>
      <psa30 value="0.0014752768" flag="0"/>
    </comp>
    <comp name="--.HHZ">
      <acc value="0.1020451162" flag="0"/>
      <vel value="0.0307728917" flag="0"/>
      <psa03 value="0.1282494959" flag="0"/>
      <psa10 value="0.0089979145" flag="0"/>
      <psa30 value="0.0007220822" flag="0"/>
    </comp>
  </station>
  <station code="NAX1" name="NAX1" netid="HI" insttype="CMG-5TD,ACCELEROMETER,GURALP" lat="37.1014" lon="25.3741">
    <comp name="--.HNE">
      <acc value="0.2105125561" flag="0"/>
      <vel value="0.0306028851" flag="0"/>
      <psa03 value="0.1192910624" flag="0"/>
      <psa10 value="0.0059743870" flag="0"/>
      <psa30 value="0.0007838274" flag="0"/>
    </comp>
    <comp name="--.HNN">
      <acc value="0.1849351714" flag="0"/>
      <vel value="0.0270875643" flag="0"/>
      <psa03 value="0.0727682653" flag="0"/>
      <psa10 value="0.0070261978" flag="0"/>
      <psa30 value="0.0008297423" flag="0"/>
    </comp>
    <comp name="--.HNZ">
      <acc value="0.1146032045" flag="0"/>
      <vel value="0.0208854058" flag="0"/>
      <psa03 value="0.0411942834" flag="0"/>
      <psa10 value="0.0051237150" flag="0"/>
      <psa30 value="0.0007099708" flag="0"/>
    </comp>
  </station>
  <station code="APE" name="APE" netid="HL" insttype="120" lat="37.0727" lon="25.523">
    <comp name="--.HHE">
      <acc value="0.1141219482" flag="0"/>
      <vel value="0.0224140490" flag="0"/>
      <psa03 value="0.1067671831" flag="0"/>
      <psa10 value="0.0074325115" flag="0"/>
      <psa30 value="0.0011417722" flag="0"/>
    </comp>
    <comp name="--.HHN">
      <acc value="0.1615297048" flag="0"/>
      <vel value="0.0305413971" flag="0"/>
      <psa03 value="0.0848109419" flag="0"/>
      <psa10 value="0.0071966842" flag="0"/>
      <psa30 value="0.0012632514" flag="0"/>
    </comp>
    <comp name="--.HHZ">
      <acc value="0.0813709330" flag="0"/>
      <vel value="0.0144660239" flag="0"/>
      <psa03 value="0.0573606684" flag="0"/>
      <psa10 value="0.0059847909" flag="0"/>
      <psa30 value="0.0012252989" flag="0"/>
    </comp>
  </station>
  <station code="THERA" name="THERA" netid="HL" insttype="120" lat="36.367" lon="25.4753">
    <comp name="--.HHE">
      <acc value="0.1984935861" flag="0"/>
      <vel value="0.0383831060" flag="0"/>
      <psa03 value="0.2051725441" flag="0"/>
      <psa10 value="0.0120123974" flag="0"/>
      <psa30 value="0.0010122536" flag="0"/>
    </comp>
    <comp name="--.HHZ">
      <acc value="0.1611741011" flag="0"/>
      <vel value="0.0336186922" flag="0"/>
      <psa03 value="0.1295196479" flag="0"/>
      <psa10 value="0.0083493295" flag="0"/>
      <psa30 value="0.0008608651" flag="0"/>
    </comp>
    <comp name="--.HHN">
      <acc value="0.1148089207" flag="0"/>
      <vel value="0.0248645772" flag="0"/>
      <psa03 value="0.1704376984" flag="0"/>
      <psa10 value="0.0051984513" flag="0"/>
      <psa30 value="0.0004869235" flag="0"/>
    </comp>
  </station>
</stationlist>
