<?xml version="1.0" encoding="UTF-8" standalone="yes"?>
<!DOCTYPE earthquake SYSTEM "stationlist.dtd">
<stationlist created="" xmlns="ch.ethz.sed.shakemap.usgs.xml">
  <station code="THERA" name="THERA" netid="GE" insttype="STS-2/N" lat="36.367" lon="25.4753">
    <comp name="--.HHE">
      <acc value="0.2010977104" flag="0"/>
      <vel value="0.0392903537" flag="0"/>
      <psa03 value="0.2114051245" flag="0"/>
      <psa10 value="0.0122802107" flag="0"/>
      <psa30 value="0.0010177271" flag="0"/>
    </comp>
    <comp name="--.HHN">
      <acc value="0.1146986230" flag="0"/>
      <vel value="0.0257378372" flag="0"/>
      <psa03 value="0.1762853740" flag="0"/>
      <psa10 value="0.0053307659" flag="0"/>
      <psa30 value="0.0004989120" flag="0"/>
    </comp>
    <comp name="--.HHZ">
      <acc value="0.1596929005" flag="0"/>
      <vel value="0.0346312568" flag="0"/>
      <psa03 value="0.1331393450" flag="0"/>
      <psa10 value="0.0084289583" flag="0"/>
      <psa30 value="0.0008761032" flag="0"/>
    </comp>
  </station>
</stationlist>
