<?xml version="1.0" encoding="UTF-8" standalone="yes"?>
<!DOCTYPE earthquake SYSTEM "stationlist.dtd">
<stationlist created="" xmlns="ch.ethz.sed.shakemap.usgs.xml">
  <station code="ARPRA" name="ARPRA" netid="KO" insttype="CMG-5T" lat="39.0929" lon="38.3356">
    <comp name="--.HNZ">
      <acc value="0.0132723333" flag="0"/>
      <vel value="0.0070487527" flag="0"/>
      <psa03 value="0.0223483412" flag="0"/>
      <psa10 value="0.0049527597" flag="0"/>
      <psa30 value="0.0003438651" flag="0"/>
    </comp>
    <comp name="--.HNE">
      <acc value="0.0356776793" flag="0"/>
      <vel value="0.0148734013" flag="0"/>
      <psa03 value="0.0847899491" flag="0"/>
      <psa10 value="0.0076455411" flag="0"/>
      <psa30 value="0.0007121355" flag="0"/>
    </comp>
    <comp name="--.HNN">
      <acc value="0.0241870036" flag="0"/>
      <vel value="0.0126889771" flag="0"/>
      <psa03 value="0.0753886460" flag="0"/>
      <psa10 value="0.0071032651" flag="0"/>
      <psa30 value="0.0005350864" flag="0"/>
    </comp>
  </station>
  <station code="DARE" name="DARE" netid="KO" insttype="CMG-3ESP" lat="38.5712" lon="37.4832">
    <comp name="--.HHN">
      <acc value="0.0030151900" flag="0"/>
      <vel value="0.0019068755" flag="0"/>
      <psa03 value="0.0082068463" flag="0"/>
      <psa10 value="0.0017777813" flag="0"/>
      <psa30 value="0.0001635183" flag="0"/>
    </comp>
    <comp name="--.HHZ">
      <acc value="0.0018438950" flag="0"/>
      <vel value="0.0014239791" flag="0"/>
      <psa03 value="0.0050274742" flag="0"/>
      <psa10 value="0.0015616067" flag="0"/>
      <psa30 value="0.0001681915" flag="0"/>
    </comp>
    <comp name="--.HHE">
      <acc value="0.0022336058" flag="0"/>
      <vel value="0.0011766149" flag="0"/>
      <psa03 value="0.0048257562" flag="0"/>
      <psa10 value="0.0016743337" flag="0"/>
      <psa30 value="0.0001446810" flag="0"/>
    </comp>
  </station>
  <station code="SVRC" name="SVRC" netid="KO" insttype="CMG-3T" lat="38.3775" lon="39.306">
    <comp name="--.HHZ">
      <acc value="0.0330410090" flag="0"/>
      <vel value="0.0107543912" flag="0"/>
      <psa03 value="0.0364004727" flag="0"/>
      <psa10 value="0.0048183487" flag="0"/>
      <psa30 value="0.0005285044" flag="0"/>
    </comp>
  </station>
  <station code="URFA" name="URFA" netid="KO" insttype="CMG-3ESP" lat="37.4409" lon="38.8213">
    <comp name="--.HHZ">
      <acc value="0.0244842008" flag="0"/>
      <vel value="0.0061360193" flag="0"/>
      <psa03 value="0.0271182658" flag="0"/>
      <psa10 value="0.0029648455" flag="0"/>
      <psa30 value="0.0003089389" flag="0"/>
    </comp>
  </station>
</stationlist>
