<stationlist created="1778069756">
	<station code="IMMV" name="IMMV" netid="GE" source="GEOFON" insttype="" lat="35.4606" lon="23.9811">
		<comp name="--.HNE" depth="0.0">
			<acc value="0.00138189130134506" flag="0"/>
			<vel value="0.00165010382636167" flag="0"/>
			<psa03 value="0.00344514990960693" flag="0"/>
			<psa10 value="0.00315701009898525" flag="0"/>
			<psa30 value="0.000668001144810797" flag="0"/>
		</comp>
		<comp name="--.HNN" depth="0.0">
			<acc value="0.0012166060013527" flag="0"/>
			<vel value="0.00171388897079127" flag="0"/>
			<psa03 value="0.00398205638902619" flag="0"/>
			<psa10 value="0.0025449367124473" flag="0"/>
			<psa30 value="0.000587017750831725" flag="0"/>
		</comp>
		<comp name="--.HNZ" depth="0.0">
			<acc value="0.00141041310715387" flag="0"/>
			<vel value="0.00114784068982976" flag="0"/>
			<psa03 value="0.00344514990960693" flag="0"/>
			<psa10 value="0.00223890001917832" flag="0"/>
			<psa30 value="0.000221921344826628" flag="0"/>
		</comp>
	</station>
	<station code="KARP" name="KARP" netid="GE" source="GEOFON" insttype="" lat="35.5471" lon="27.16106">
		<comp name="--.HNE" depth="0.0">
			<acc value="0.00967113730966287" flag="0"/>
			<vel value="0.00151728317575592" flag="0"/>
			<psa03 value="0.00429525183535409" flag="0"/>
			<psa10 value="0.00237178437283459" flag="0"/>
			<psa30 value="0.000540485855948723" flag="0"/>
		</comp>
		<comp name="--.HNN" depth="0.0">
			<acc value="0.0190549525420611" flag="0"/>
			<vel value="0.00203127897671787" flag="0"/>
			<psa03 value="0.00335566549637038" flag="0"/>
			<psa10 value="0.00291942898184223" flag="0"/>
			<psa30 value="0.000509613733382115" flag="0"/>
		</comp>
		<comp name="--.HNZ" depth="0.0">
			<acc value="0.00300065521672186" flag="0"/>
			<vel value="0.00146105610511028" flag="0"/>
			<psa03 value="0.00357937652946174" flag="0"/>
			<psa10 value="0.00273016944784694" flag="0"/>
			<psa30 value="0.00053019514842652" flag="0"/>
		</comp>
	</station>
	<station code="SIT2" name="SIT2" netid="HI" source="ITSAK Strong Motion Network" insttype="" lat="35.2059" lon="26.107">
		<comp name="--.HNE" depth="0.0">
			<acc value="0.0384021660634279" flag="0"/>
			<vel value="0.0309642374681281" flag="0"/>
			<psa03 value="0.123175294820102" flag="0"/>
			<psa10 value="0.0228842964190475" flag="0"/>
			<psa30 value="0.00181832327696656" flag="0"/>
		</comp>
		<comp name="--.HNN" depth="0.0">
			<acc value="0.048673440467519" flag="0"/>
			<vel value="0.0343523413295778" flag="0"/>
			<psa03 value="0.10304130184188" flag="0"/>
			<psa10 value="0.0209876742804989" flag="0"/>
			<psa30 value="0.00159371739974284" flag="0"/>
		</comp>
		<comp name="--.HNZ" depth="0.0">
			<acc value="0.027100553656583" flag="0"/>
			<vel value="0.010311210327452" flag="0"/>
			<psa03 value="0.0524378661566145" flag="0"/>
			<psa10 value="0.00784823046291105" flag="0"/>
			<psa30 value="0.000876947249718126" flag="0"/>
		</comp>
	</station>
	<station code="SIVA" name="SIVA" netid="HL" source="National Observatory of Athens Seismic Network" insttype="" lat="35.01777" lon="24.81204">
		<comp name="00.HNE" depth="0.0">
			<acc value="0.0092547414870317" flag="0"/>
			<vel value="0.00657410210211687" flag="0"/>
			<psa03 value="0.039507368443934" flag="0"/>
			<psa10 value="0.00635026138533131" flag="0"/>
			<psa30 value="0.0013333177572245" flag="0"/>
		</comp>
		<comp name="00.HNN" depth="0.0">
			<acc value="0.00858028729886599" flag="0"/>
			<vel value="0.00671817843339688" flag="0"/>
			<psa03 value="0.0214315169701522" flag="0"/>
			<psa10 value="0.00680528962663913" flag="0"/>
			<psa30 value="0.0013230270497023" flag="0"/>
		</comp>
		<comp name="00.HNZ" depth="0.0">
			<acc value="0.00644579292536386" flag="0"/>
			<vel value="0.00369109311884207" flag="0"/>
			<psa03 value="0.0180311092671635" flag="0"/>
			<psa10 value="0.00370062790939726" flag="0"/>
			<psa30 value="0.000589254861162639" flag="0"/>
		</comp>
	</station>
</stationlist>
