<?xml version="1.0" encoding="UTF-8" standalone="yes"?>
<!DOCTYPE earthquake SYSTEM "stationlist.dtd">
<stationlist created="" xmlns="ch.ethz.sed.shakemap.usgs.xml">
  <station code="NPS" name="NPS" netid="HL" insttype="CMG3ESPC-120s" lat="35.2613" lon="25.6104">
    <comp name="--.HHE">
      <acc value="0.0051474524" flag="0"/>
      <vel value="0.0019488974" flag="0"/>
      <psa03 value="0.0085726961" flag="0"/>
      <psa10 value="0.0024900922" flag="0"/>
      <psa30 value="0.0003522727" flag="0"/>
    </comp>
    <comp name="--.HHN">
      <acc value="0.0090564870" flag="0"/>
      <vel value="0.0042556303" flag="0"/>
      <psa03 value="0.0213138127" flag="0"/>
      <psa10 value="0.0055220291" flag="0"/>
      <psa30 value="0.0007676152" flag="0"/>
    </comp>
    <comp name="--.HHZ">
      <acc value="0.0066829953" flag="0"/>
      <vel value="0.0035039468" flag="0"/>
      <psa03 value="0.0092137785" flag="0"/>
      <psa10 value="0.0041809744" flag="0"/>
      <psa30 value="0.0006826286" flag="0"/>
    </comp>
  </station>
  <station code="SIVA" name="SIVA" netid="HL" insttype="60" lat="35.0178" lon="24.812">
    <comp name="--.HHN">
      <acc value="0.0082257597" flag="0"/>
      <vel value="0.0055407455" flag="0"/>
      <psa03 value="0.0193213554" flag="0"/>
      <psa10 value="0.0058200180" flag="0"/>
      <psa30 value="0.0009731065" flag="0"/>
    </comp>
    <comp name="--.HHE">
      <acc value="0.0100691958" flag="0"/>
      <vel value="0.0066965216" flag="0"/>
      <psa03 value="0.0421481426" flag="0"/>
      <psa10 value="0.0066401700" flag="0"/>
      <psa30 value="0.0008659827" flag="0"/>
    </comp>
    <comp name="--.HHZ">
      <acc value="0.0065412138" flag="0"/>
      <vel value="0.0036982825" flag="0"/>
      <psa03 value="0.0181686088" flag="0"/>
      <psa10 value="0.0036497887" flag="0"/>
      <psa30 value="0.0004311027" flag="0"/>
    </comp>
  </station>
</stationlist>
