<?xml version="1.0" encoding="UTF-8" standalone="yes"?>
<!DOCTYPE earthquake SYSTEM "stationlist.dtd">
<stationlist created="" xmlns="ch.ethz.sed.shakemap.usgs.xml">
  <station code="KRL1" name="KRL1" netid="HI" insttype="CMG-5TD,ACCELEROMETER,GURALP" lat="37.7951" lon="26.7065">
    <comp name="--.HNN">
      <acc value="0.2257899277" flag="0"/>
      <vel value="0.0810588223" flag="0"/>
      <psa03 value="0.5153409182" flag="0"/>
      <psa10 value="0.0700318418" flag="0"/>
      <psa30 value="0.0050072598" flag="0"/>
    </comp>
    <comp name="--.HNE">
      <acc value="0.5477829926" flag="0"/>
      <vel value="0.1852411554" flag="0"/>
      <psa03 value="0.6857780307" flag="0"/>
      <psa10 value="0.1445096904" flag="0"/>
      <psa30 value="0.0102710562" flag="0"/>
    </comp>
    <comp name="--.HNZ">
      <acc value="0.2368935587" flag="0"/>
      <vel value="0.0627695571" flag="0"/>
      <psa03 value="0.1917889999" flag="0"/>
      <psa10 value="0.0455731141" flag="0"/>
      <psa30 value="0.0053671577" flag="0"/>
    </comp>
  </station>
  <station code="EAG2" name="EAG2" netid="HL" insttype="SMART24" lat="38.5438" lon="26.1079">
    <comp name="--.HHZ">
      <acc value="0.2387380988" flag="0"/>
      <vel value="0.0920900875" flag="0"/>
      <psa03 value="0.5454301117" flag="0"/>
      <psa10 value="0.0247873433" flag="0"/>
      <psa30 value="0.0019163556" flag="0"/>
    </comp>
    <comp name="--.HHE">
      <acc value="0.5023955032" flag="0"/>
      <vel value="0.2744951954" flag="0"/>
      <psa03 value="2.3889792211" flag="0"/>
      <psa10 value="0.0877384480" flag="0"/>
      <psa30 value="0.0081177730" flag="0"/>
    </comp>
    <comp name="--.HHN">
      <acc value="0.5492558939" flag="0"/>
      <vel value="0.2904699425" flag="0"/>
      <psa03 value="1.3971852836" flag="0"/>
      <psa10 value="0.1278053108" flag="0"/>
      <psa30 value="0.0065664217" flag="0"/>
    </comp>
  </station>
  <station code="SMG" name="SMG" netid="HL" insttype="120" lat="37.7043" lon="26.8377">
    <comp name="--.HHE">
      <acc value="0.1766490023" flag="0"/>
      <vel value="0.0662828735" flag="0"/>
      <psa03 value="0.3869794801" flag="0"/>
      <psa10 value="0.0370441526" flag="0"/>
      <psa30 value="0.0017819966" flag="0"/>
    </comp>
    <comp name="--.HHZ">
      <acc value="0.1829542203" flag="0"/>
      <vel value="0.0389803133" flag="0"/>
      <psa03 value="0.1047344070" flag="0"/>
      <psa10 value="0.0355336028" flag="0"/>
      <psa30 value="0.0020963764" flag="0"/>
    </comp>
    <comp name="--.HHN">
      <acc value="0.2325287143" flag="0"/>
      <vel value="0.0581598126" flag="0"/>
      <psa03 value="0.2033399330" flag="0"/>
      <psa10 value="0.0370550498" flag="0"/>
      <psa30 value="0.0016685068" flag="0"/>
    </comp>
  </station>
  <station code="GMLD" name="GMLD" netid="KO" insttype="100" lat="38.0764" lon="26.8747">
    <comp name="--.HNE">
      <acc value="0.3820888359" flag="0"/>
      <vel value="0.1602862542" flag="0"/>
      <psa03 value="0.6659206486" flag="0"/>
      <psa10 value="0.1169007813" flag="0"/>
      <psa30 value="0.0055968974" flag="0"/>
    </comp>
    <comp name="--.HNN">
      <acc value="0.5354812909" flag="0"/>
      <vel value="0.1894481429" flag="0"/>
      <psa03 value="0.5778993323" flag="0"/>
      <psa10 value="0.0959941707" flag="0"/>
      <psa30 value="0.0058608224" flag="0"/>
    </comp>
    <comp name="--.HNZ">
      <acc value="0.2248141944" flag="0"/>
      <vel value="0.0589801596" flag="0"/>
      <psa03 value="0.4086918666" flag="0"/>
      <psa10 value="0.0312931450" flag="0"/>
      <psa30 value="0.0029040383" flag="0"/>
    </comp>
  </station>
  <station code="KRBN" name="KRBN" netid="KO" insttype="100" lat="38.5936" lon="26.5537">
    <comp name="--.HNE">
      <acc value="0.2114836882" flag="0"/>
      <vel value="0.0608371201" flag="0"/>
      <psa03 value="0.3024710659" flag="0"/>
      <psa10 value="0.0458978988" flag="0"/>
      <psa30 value="0.0029937270" flag="0"/>
    </comp>
    <comp name="--.HNN">
      <acc value="0.2082660377" flag="0"/>
      <vel value="0.0914460622" flag="0"/>
      <psa03 value="0.3106628583" flag="0"/>
      <psa10 value="0.0616039800" flag="0"/>
      <psa30 value="0.0056667690" flag="0"/>
    </comp>
    <comp name="--.HNZ">
      <acc value="0.0939077259" flag="0"/>
      <vel value="0.0428803328" flag="0"/>
      <psa03 value="0.1833901329" flag="0"/>
      <psa10 value="0.0465191973" flag="0"/>
      <psa30 value="0.0020955962" flag="0"/>
    </comp>
  </station>
  <station code="KUSD" name="KUSD" netid="KO" insttype="100" lat="37.86" lon="27.2815">
    <comp name="--.HNE">
      <acc value="0.0303846188" flag="0"/>
      <vel value="0.0153357591" flag="0"/>
      <psa03 value="0.0887826758" flag="0"/>
      <psa10 value="0.0192325365" flag="0"/>
      <psa30 value="0.0008085000" flag="0"/>
    </comp>
    <comp name="--.HNZ">
      <acc value="0.0206793710" flag="0"/>
      <vel value="0.0084899584" flag="0"/>
      <psa03 value="0.0362596711" flag="0"/>
      <psa10 value="0.0073283721" flag="0"/>
      <psa30 value="0.0006305309" flag="0"/>
    </comp>
    <comp name="--.HNN">
      <acc value="0.0371376187" flag="0"/>
      <vel value="0.0169163093" flag="0"/>
      <psa03 value="0.0819199121" flag="0"/>
      <psa10 value="0.0189839803" flag="0"/>
      <psa30 value="0.0013603050" flag="0"/>
    </comp>
  </station>
</stationlist>
