<stationlist created="1778135986">
	<station code="KRL1" name="KRL1" netid="HI" source="ITSAK Strong Motion Network" insttype="" lat="37.7951" lon="26.7065">
		<comp name="--.HNE" depth="0.0">
			<acc value="0.554557805060184" flag="0"/>
			<vel value="0.185674094892426" flag="0"/>
			<psa03 value="0.687553489102982" flag="0"/>
			<psa10 value="0.144711061131675" flag="0"/>
			<psa30 value="0.0105649772487725" flag="0"/>
		</comp>
		<comp name="--.HNN" depth="0.0">
			<acc value="0.222581802479347" flag="0"/>
			<vel value="0.0806609362525214" flag="0"/>
			<psa03 value="0.517488361746931" flag="0"/>
			<psa10 value="0.0700099203838745" flag="0"/>
			<psa30 value="0.00529971437393429" flag="0"/>
		</comp>
		<comp name="--.HNZ" depth="0.0">
			<acc value="0.239043483246089" flag="0"/>
			<vel value="0.0634620875086679" flag="0"/>
			<psa03 value="0.188677885309252" flag="0"/>
			<psa10 value="0.0456437620816299" flag="0"/>
			<psa30 value="0.00592521042245773" flag="0"/>
		</comp>
	</station>
	<station code="MYT1" name="MYT1" netid="HI" source="ITSAK Strong Motion Network" insttype="" lat="39.085" lon="26.5694">
		<comp name="--.HNE" depth="0.0">
			<acc value="0.0392801389510204" flag="0"/>
			<vel value="0.0304803583182794" flag="0"/>
			<psa03 value="0.124112398920522" flag="0"/>
			<psa10 value="0.0346119953748259" flag="0"/>
			<psa30 value="0.00207183724904785" flag="0"/>
		</comp>
		<comp name="--.HNN" depth="0.0">
			<acc value="0.0671797674337535" flag="0"/>
			<vel value="0.0320977376185999" flag="0"/>
			<psa03 value="0.137477971824385" flag="0"/>
			<psa10 value="0.029170084874975" flag="0"/>
			<psa30 value="0.0033156438117961" flag="0"/>
		</comp>
		<comp name="--.HNZ" depth="0.0">
			<acc value="0.0355771518052499" flag="0"/>
			<vel value="0.0204246792089147" flag="0"/>
			<psa03 value="0.129561572401687" flag="0"/>
			<psa10 value="0.0321530624826028" flag="0"/>
			<psa30 value="0.00189201637846589" flag="0"/>
		</comp>
	</station>
	<station code="NAX1" name="NAX1" netid="HI" source="ITSAK Strong Motion Network" insttype="" lat="37.101394" lon="25.374103">
		<comp name="--.HNE" depth="0.0">
			<acc value="0.0628270206461359" flag="0"/>
			<vel value="0.0162364944490557" flag="0"/>
			<psa03 value="0.0429528402065147" flag="0"/>
			<psa10 value="0.0100709640269226" flag="0"/>
			<psa30 value="0.000750404398108803" flag="0"/>
		</comp>
		<comp name="--.HNN" depth="0.0">
			<acc value="0.0394255585454472" flag="0"/>
			<vel value="0.0102554130688355" flag="0"/>
			<psa03 value="0.0255363244686631" flag="0"/>
			<psa10 value="0.00739003564733409" flag="0"/>
			<psa30 value="0.000585223299423533" flag="0"/>
		</comp>
		<comp name="--.HNZ" depth="0.0">
			<acc value="0.0241376292149551" flag="0"/>
			<vel value="0.0070738980589737" flag="0"/>
			<psa03 value="0.0220759650285045" flag="0"/>
			<psa10 value="0.00750200962755178" flag="0"/>
			<psa30 value="0.000478137455510966" flag="0"/>
		</comp>
	</station>
	<station code="KLNA" name="KLNA" netid="HL" source="National Observatory of Athens Seismic Network" insttype="" lat="36.95708" lon="26.97274">
		<comp name="00.HNE" depth="0.0">
			<acc value="0.055625533931749" flag="0"/>
			<vel value="0.0225164811675853" flag="0"/>
			<psa03 value="0.190959737846784" flag="0"/>
			<psa10 value="0.0174763059050969" flag="0"/>
			<psa30 value="0.00234493904886362" flag="0"/>
		</comp>
		<comp name="00.HNN" depth="0.0">
			<acc value="0.0565251463556148" flag="0"/>
			<vel value="0.0277133747827327" flag="0"/>
			<psa03 value="0.195612927335084" flag="0"/>
			<psa10 value="0.0139971519184601" flag="0"/>
			<psa30 value="0.00132123736143756" flag="0"/>
		</comp>
		<comp name="00.HNZ" depth="0.0">
			<acc value="0.0711975606870549" flag="0"/>
			<vel value="0.0301350222504444" flag="0"/>
			<psa03 value="0.129618172573133" flag="0"/>
			<psa10 value="0.0144481533611723" flag="0"/>
			<psa30 value="0.00103622950527917" flag="0"/>
		</comp>
	</station>
	<station code="PRK" name="PRK" netid="HL" source="National Observatory of Athens Seismic Network" insttype="" lat="39.24565" lon="26.26499">
		<comp name="--.HNE" depth="0.0">
			<acc value="0.053886891488829" flag="0"/>
			<vel value="0.0442971206700042" flag="0"/>
			<psa03 value="0.125859827217198" flag="0"/>
			<psa10 value="0.0548087556853167" flag="0"/>
			<psa30 value="0.00324515224602325" flag="0"/>
		</comp>
		<comp name="--.HNN" depth="0.0">
			<acc value="0.0484052164149588" flag="0"/>
			<vel value="0.0319766656915831" flag="0"/>
			<psa03 value="0.134226619854815" flag="0"/>
			<psa10 value="0.0371270830518419" flag="0"/>
			<psa30 value="0.00257401914674917" flag="0"/>
		</comp>
		<comp name="--.HNZ" depth="0.0">
			<acc value="0.0246511524474574" flag="0"/>
			<vel value="0.0141786628185973" flag="0"/>
			<psa03 value="0.0774935018628467" flag="0"/>
			<psa10 value="0.0107273914587968" flag="0"/>
			<psa30 value="0.0017346553505904" flag="0"/>
		</comp>
	</station>
	<station code="SMG" name="SMG" netid="HL" source="National Observatory of Athens Seismic Network" insttype="" lat="37.70425" lon="26.83772">
		<comp name="00.HNE" depth="0.0">
			<acc value="0.151477889348237" flag="0"/>
			<vel value="0.0614973649291888" flag="0"/>
			<psa03 value="0.363261975533748" flag="0"/>
			<psa10 value="0.0335835002876748" flag="0"/>
			<psa30 value="0.00184203664647425" flag="0"/>
		</comp>
		<comp name="00.HNN" depth="0.0">
			<acc value="0.197682398099614" flag="0"/>
			<vel value="0.0565684918809148" flag="0"/>
			<psa03 value="0.22263722013252" flag="0"/>
			<psa10 value="0.038008951944288" flag="0"/>
			<psa30 value="0.00170423065008997" flag="0"/>
		</comp>
		<comp name="00.HNZ" depth="0.0">
			<acc value="0.144167563320287" flag="0"/>
			<vel value="0.0368812725432742" flag="0"/>
			<psa03 value="0.103712434941154" flag="0"/>
			<psa10 value="0.0345136907632686" flag="0"/>
			<psa30 value="0.00216731248858908" flag="0"/>
		</comp>
	</station>
	<station code="THRA" name="THRA" netid="HL" source="National Observatory of Athens Seismic Network" insttype="" lat="36.41502" lon="25.43244">
		<comp name="00.HNE" depth="0.0">
			<acc value="0.0424349221909317" flag="0"/>
			<vel value="0.0239289450757899" flag="0"/>
			<psa03 value="0.0908266794350917" flag="0"/>
			<psa10 value="0.0432921117017736" flag="0"/>
			<psa30 value="0.00211496410684571" flag="0"/>
		</comp>
		<comp name="00.HNN" depth="0.0">
			<acc value="0.0452274927446645" flag="0"/>
			<vel value="0.0229642039630824" flag="0"/>
			<psa03 value="0.100312027238165" flag="0"/>
			<psa10 value="0.045937718379112" flag="0"/>
			<psa30 value="0.00259236345146266" flag="0"/>
		</comp>
		<comp name="00.HNZ" depth="0.0">
			<acc value="0.0240894506817426" flag="0"/>
			<vel value="0.0119476792044818" flag="0"/>
			<psa03 value="0.0705137176303963" flag="0"/>
			<psa10 value="0.0125837456113889" flag="0"/>
			<psa30 value="0.000890817333769791" flag="0"/>
		</comp>
	</station>
	<station code="TNSA" name="TNSA" netid="HL" source="National Observatory of Athens Seismic Network" insttype="" lat="37.53942" lon="25.1631">
		<comp name="00.HNE" depth="0.0">
			<acc value="0.0345215755643704" flag="0"/>
			<vel value="0.0260843883934156" flag="0"/>
			<psa03 value="0.078209377168739" flag="0"/>
			<psa10 value="0.0174763059050969" flag="0"/>
			<psa30 value="0.00162503694437563" flag="0"/>
		</comp>
		<comp name="00.HNN" depth="0.0">
			<acc value="0.0368880878967932" flag="0"/>
			<vel value="0.0150248476960826" flag="0"/>
			<psa03 value="0.0783883459952121" flag="0"/>
			<psa10 value="0.00861332219608349" flag="0"/>
			<psa30 value="0.000825941134173296" flag="0"/>
		</comp>
		<comp name="00.HNZ" depth="0.0">
			<acc value="0.0230678203809204" flag="0"/>
			<vel value="0.0094598460102194" flag="0"/>
			<psa03 value="0.030782638153371" flag="0"/>
			<psa10 value="0.00585496515806704" flag="0"/>
			<psa30 value="0.000409838612623369" flag="0"/>
		</comp>
	</station>
	<station code="AKS" name="AKS" netid="KO" source="Bogazici University Kandilli Observatory And Earthquake Research Institute (KOERI)" insttype="" lat="38.8785" lon="27.8129">
		<comp name="--.HNE" depth="0.0">
			<acc value="0.0289755067902423" flag="0"/>
			<vel value="0.0139123810376799" flag="0"/>
			<psa03 value="0.0578516731574254" flag="0"/>
			<psa10 value="0.0104012207725496" flag="0"/>
			<psa30 value="0.00196776224707159" flag="0"/>
		</comp>
		<comp name="--.HNN" depth="0.0">
			<acc value="0.0328244292035896" flag="0"/>
			<vel value="0.0153802501434109" flag="0"/>
			<psa03 value="0.0790147368878679" flag="0"/>
			<psa10 value="0.0173957699331841" flag="0"/>
			<psa30 value="0.0016102720161916" flag="0"/>
		</comp>
		<comp name="--.HNZ" depth="0.0">
			<acc value="0.0142162507295528" flag="0"/>
			<vel value="0.0068750235552177" flag="0"/>
			<psa03 value="0.0314985134592633" flag="0"/>
			<psa10 value="0.00433686208750908" flag="0"/>
			<psa30 value="0.00147112375360877" flag="0"/>
		</comp>
	</station>
	<station code="DATC" name="DATC" netid="KO" source="Bogazici University Kandilli Observatory And Earthquake Research Institute (KOERI)" insttype="" lat="36.7584" lon="27.6602">
		<comp name="--.HNE" depth="0.0">
			<acc value="0.0640315888338196" flag="0"/>
			<vel value="0.0588040471809389" flag="0"/>
			<psa03 value="0.182637687415785" flag="0"/>
			<psa10 value="0.0829077562857237" flag="0"/>
			<psa30 value="0.00620395436968956" flag="0"/>
		</comp>
		<comp name="--.HNN" depth="0.0">
			<acc value="0.0695070303654387" flag="0"/>
			<vel value="0.0539007246843643" flag="0"/>
			<psa03 value="0.234091225026798" flag="0"/>
			<psa10 value="0.100549160933242" flag="0"/>
			<psa30 value="0.00897976086828714" flag="0"/>
		</comp>
		<comp name="--.HNZ" depth="0.0">
			<acc value="0.08184856730435" flag="0"/>
			<vel value="0.0362036094118281" flag="0"/>
			<psa03 value="0.124651787638505" flag="0"/>
			<psa10 value="0.0617912244501642" flag="0"/>
			<psa30 value="0.00448853816794502" flag="0"/>
		</comp>
	</station>
	<station code="FOCM" name="FOCM" netid="KO" source="Bogazici University Kandilli Observatory And Earthquake Research Institute (KOERI)" insttype="" lat="38.7131" lon="26.7309">
		<comp name="--.HNE" depth="0.0">
			<acc value="0.0915927193390083" flag="0"/>
			<vel value="0.0391003592407978" flag="0"/>
			<psa03 value="0.328139343338405" flag="0"/>
			<psa10 value="0.0270641133613264" flag="0"/>
			<psa30 value="0.00129349719333424" flag="0"/>
		</comp>
		<comp name="--.HNN" depth="0.0">
			<acc value="0.113043473386888" flag="0"/>
			<vel value="0.0425293435240751" flag="0"/>
			<psa03 value="0.181340163423855" flag="0"/>
			<psa10 value="0.0259366097545459" flag="0"/>
			<psa30 value="0.00154673808279365" flag="0"/>
		</comp>
		<comp name="--.HNZ" depth="0.0">
			<acc value="0.0678615384959124" flag="0"/>
			<vel value="0.0220455975046763" flag="0"/>
			<psa03 value="0.111542321099351" flag="0"/>
			<psa10 value="0.0113153040537609" flag="0"/>
			<psa30 value="0.00143354030004943" flag="0"/>
		</comp>
	</station>
	<station code="GMLD" name="GMLD" netid="KO" source="Bogazici University Kandilli Observatory And Earthquake Research Institute (KOERI)" insttype="" lat="38.0766" lon="26.9157">
		<comp name="--.HNE" depth="0.0">
			<acc value="2.38955602086826" flag="0"/>
			<vel value="1.0109688813404" flag="0"/>
			<psa03 value="4.27547578002881" flag="0"/>
			<psa10 value="0.736626293899836" flag="0"/>
			<psa30 value="0.0342980333273686" flag="0"/>
		</comp>
		<comp name="--.HNN" depth="0.0">
			<acc value="3.37146115763134" flag="0"/>
			<vel value="1.19809215736144" flag="0"/>
			<psa03 value="3.62649007303078" flag="0"/>
			<psa10 value="0.604503005178146" flag="0"/>
			<psa30 value="0.0364648983938915" flag="0"/>
		</comp>
		<comp name="--.HNZ" depth="0.0">
			<acc value="1.36241223849539" flag="0"/>
			<vel value="0.376243500335359" flag="0"/>
			<psa03 value="2.60256467457163" flag="0"/>
			<psa10 value="0.196644682619701" flag="0"/>
			<psa30 value="0.0186700279776724" flag="0"/>
		</comp>
	</station>
	<station code="GOMA" name="GOMA" netid="KO" source="Bogazici University Kandilli Observatory And Earthquake Research Institute (KOERI)" insttype="" lat="38.7077" lon="27.9175">
		<comp name="--.HNE" depth="0.0">
			<acc value="0.0381699128876988" flag="0"/>
			<vel value="0.0180473597316695" flag="0"/>
			<psa03 value="0.111766032132443" flag="0"/>
			<psa10 value="0.0102200148357456" flag="0"/>
			<psa30 value="0.000716322727958531" flag="0"/>
		</comp>
		<comp name="--.HNN" depth="0.0">
			<acc value="0.0480706917205623" flag="0"/>
			<vel value="0.0196507308592381" flag="0"/>
			<psa03 value="0.107783975743417" flag="0"/>
			<psa10 value="0.0081341331632018" flag="0"/>
			<psa30 value="0.000818782381114373" flag="0"/>
		</comp>
		<comp name="--.HNZ" depth="0.0">
			<acc value="0.0331035885186235" flag="0"/>
			<vel value="0.0141469069244217" flag="0"/>
			<psa03 value="0.0851444191945711" flag="0"/>
			<psa10 value="0.00851667902978803" flag="0"/>
			<psa30 value="0.000882763736578501" flag="0"/>
		</comp>
	</station>
	<station code="GORD" name="GORD" netid="KO" source="Bogazici University Kandilli Observatory And Earthquake Research Institute (KOERI)" insttype="" lat="38.9088" lon="28.1769">
		<comp name="--.HNE" depth="0.0">
			<acc value="0.0796067172057194" flag="0"/>
			<vel value="0.0587242154311453" flag="0"/>
			<psa03 value="0.231048754976755" flag="0"/>
			<psa10 value="0.119821419011996" flag="0"/>
			<psa30 value="0.00898557735514752" flag="0"/>
		</comp>
		<comp name="--.HNN" depth="0.0">
			<acc value="0.0498791641448337" flag="0"/>
			<vel value="0.0451784579280585" flag="0"/>
			<psa03 value="0.145188460476292" flag="0"/>
			<psa10 value="0.0820742089764253" flag="0"/>
			<psa30 value="0.00532298032137579" flag="0"/>
		</comp>
		<comp name="--.HNZ" depth="0.0">
			<acc value="0.0643102379030369" flag="0"/>
			<vel value="0.0604398861204358" flag="0"/>
			<psa03 value="0.141832794979921" flag="0"/>
			<psa10 value="0.0584046868312272" flag="0"/>
			<psa30 value="0.00553371611454785" flag="0"/>
		</comp>
	</station>
	<station code="KRBN" name="KRBN" netid="KO" source="Bogazici University Kandilli Observatory And Earthquake Research Institute (KOERI)" insttype="" lat="38.5936" lon="26.5537">
		<comp name="--.HNE" depth="0.0">
			<acc value="1.34976042192821" flag="0"/>
			<vel value="0.388192535553921" flag="0"/>
			<psa03 value="1.92776271435486" flag="0"/>
			<psa10 value="0.288781861286642" flag="0"/>
			<psa30 value="0.0192082767232902" flag="0"/>
		</comp>
		<comp name="--.HNN" depth="0.0">
			<acc value="1.31885351815092" flag="0"/>
			<vel value="0.578774615686345" flag="0"/>
			<psa03 value="1.99339953146386" flag="0"/>
			<psa10 value="0.387466614470101" flag="0"/>
			<psa30 value="0.0357203880757634" flag="0"/>
		</comp>
		<comp name="--.HNZ" depth="0.0">
			<acc value="0.590064927102782" flag="0"/>
			<vel value="0.271672210065411" flag="0"/>
			<psa03 value="1.17600415875465" flag="0"/>
			<psa10 value="0.292977785423304" flag="0"/>
			<psa30 value="0.0134620351273056" flag="0"/>
		</comp>
	</station>
	<station code="KUSD" name="KUSD" netid="KO" source="Bogazici University Kandilli Observatory And Earthquake Research Institute (KOERI)" insttype="" lat="37.8606" lon="27.2868">
		<comp name="--.HNE" depth="0.0">
			<acc value="0.19109721851165" flag="0"/>
			<vel value="0.0970091261022352" flag="0"/>
			<psa03 value="0.560709333340182" flag="0"/>
			<psa10 value="0.12102945859069" flag="0"/>
			<psa30 value="0.00525452474524983" flag="0"/>
		</comp>
		<comp name="--.HNN" depth="0.0">
			<acc value="0.230476542158815" flag="0"/>
			<vel value="0.107779413993188" flag="0"/>
			<psa03 value="0.513864243010851" flag="0"/>
			<psa10 value="0.119571757499067" flag="0"/>
			<psa30 value="0.00921286776476834" flag="0"/>
		</comp>
		<comp name="--.HNZ" depth="0.0">
			<acc value="0.129465877768798" flag="0"/>
			<vel value="0.0530486462896241" flag="0"/>
			<psa03 value="0.229214324505406" flag="0"/>
			<psa10 value="0.0461712726976594" flag="0"/>
			<psa30 value="0.00404872227688741" flag="0"/>
		</comp>
	</station>
	<station code="NAZL" name="NAZL" netid="KO" source="Bogazici University Kandilli Observatory And Earthquake Research Institute (KOERI)" insttype="" lat="37.9641" lon="28.2922">
		<comp name="--.HNE" depth="0.0">
			<acc value="0.103770460852672" flag="0"/>
			<vel value="0.0590179088099823" flag="0"/>
			<psa03 value="0.407959439945402" flag="0"/>
			<psa10 value="0.0685361120978687" flag="0"/>
			<psa30 value="0.00445945573364314" flag="0"/>
		</comp>
		<comp name="--.HNN" depth="0.0">
			<acc value="0.111492596498967" flag="0"/>
			<vel value="0.0602452354305074" flag="0"/>
			<psa03 value="0.28451569188559" flag="0"/>
			<psa10 value="0.0459618791706858" flag="0"/>
			<psa30 value="0.00398787287588656" flag="0"/>
		</comp>
		<comp name="--.HNZ" depth="0.0">
			<acc value="0.0498778934065199" flag="0"/>
			<vel value="0.0230406348503012" flag="0"/>
			<psa03 value="0.162235241197853" flag="0"/>
			<psa10 value="0.0167998037410287" flag="0"/>
			<psa30 value="0.00258252016600665" flag="0"/>
		</comp>
	</station>
	<station code="ODEM" name="ODEM" netid="KO" source="Bogazici University Kandilli Observatory And Earthquake Research Institute (KOERI)" insttype="" lat="38.2762" lon="28.0747">
		<comp name="--.HNE" depth="0.0">
			<acc value="0.0433952659104629" flag="0"/>
			<vel value="0.0248049384497289" flag="0"/>
			<psa03 value="0.139953622301954" flag="0"/>
			<psa10 value="0.0494208991643444" flag="0"/>
			<psa30 value="0.00372389385683876" flag="0"/>
		</comp>
		<comp name="--.HNN" depth="0.0">
			<acc value="0.0773892775871061" flag="0"/>
			<vel value="0.0349841150490396" flag="0"/>
			<psa03 value="0.207022190022743" flag="0"/>
			<psa10 value="0.0306318569170674" flag="0"/>
			<psa30 value="0.00253419858285891" flag="0"/>
		</comp>
		<comp name="--.HNZ" depth="0.0">
			<acc value="0.0367371042009674" flag="0"/>
			<vel value="0.0268400681650185" flag="0"/>
			<psa03 value="0.0931980163858601" flag="0"/>
			<psa10 value="0.0538060828350012" flag="0"/>
			<psa30 value="0.00323709864883196" flag="0"/>
		</comp>
	</station>
	<station code="SOMA" name="SOMA" netid="KO" source="Bogazici University Kandilli Observatory And Earthquake Research Institute (KOERI)" insttype="" lat="39.1564" lon="27.5341">
		<comp name="--.HNE" depth="0.0">
			<acc value="0.233460125541367" flag="0"/>
			<vel value="0.0945905282952864" flag="0"/>
			<psa03 value="0.555742948405553" flag="0"/>
			<psa10 value="0.0411256940573168" flag="0"/>
			<psa30 value="0.00710058819031973" flag="0"/>
		</comp>
		<comp name="--.HNN" depth="0.0">
			<acc value="0.174794711197925" flag="0"/>
			<vel value="0.0833090847184211" flag="0"/>
			<psa03 value="0.668538051290217" flag="0"/>
			<psa10 value="0.0492396932275404" flag="0"/>
			<psa30 value="0.0045408865496884" flag="0"/>
		</comp>
		<comp name="--.HNZ" depth="0.0">
			<acc value="0.166424219770809" flag="0"/>
			<vel value="0.0692098929571994" flag="0"/>
			<psa03 value="0.297490931804889" flag="0"/>
			<psa10 value="0.0368733947403163" flag="0"/>
			<psa30 value="0.00415655099483745" flag="0"/>
		</comp>
	</station>
</stationlist>
