<?xml version="1.0" encoding="UTF-8" standalone="yes"?>
<!DOCTYPE earthquake SYSTEM "stationlist.dtd">
<stationlist created="" xmlns="ch.ethz.sed.shakemap.usgs.xml">
  <station code="BZS" name="BZS" netid="MN" insttype="" lat="45.6188" lon="21.6401">
    <comp name="--.HHN">
      <acc value="0.0287039709" flag="0"/>
      <vel value="0.0090302746" flag="0"/>
      <psa03 value="0.0396025403" flag="0"/>
      <psa10 value="0.0040069183" flag="0"/>
      <psa30 value="0.0003192174" flag="0"/>
    </comp>
    <comp name="--.HHE">
      <acc value="0.0537370803" flag="0"/>
      <vel value="0.0199960741" flag="0"/>
      <psa03 value="0.1073749847" flag="0"/>
      <psa10 value="0.0090420505" flag="0"/>
      <psa30 value="0.0007755329" flag="0"/>
    </comp>
    <comp name="--.HHZ">
      <acc value="0.0407640482" flag="0"/>
      <vel value="0.0070795204" flag="0"/>
      <psa03 value="0.0255240102" flag="0"/>
      <psa10 value="0.0032037699" flag="0"/>
      <psa30 value="0.0003042210" flag="0"/>
    </comp>
  </station>
  <station code="BORR" name="BORR" netid="RO" insttype="200" lat="47.0902" lon="21.7856">
    <comp name="--.HNZ">
      <acc value="0.0457999665" flag="0"/>
      <vel value="0.0123207228" flag="0"/>
      <psa03 value="0.0549416395" flag="0"/>
      <psa10 value="0.0082064022" flag="0"/>
      <psa30 value="0.0005459016" flag="0"/>
    </comp>
  </station>
  <station code="BZS" name="BZS" netid="RO" insttype="w/attenuator" lat="45.6188" lon="21.6401">
    <comp name="--.HHE">
      <acc value="0.0412988943" flag="0"/>
      <vel value="0.0149850213" flag="0"/>
      <psa03 value="0.0803940428" flag="0"/>
      <psa10 value="0.0067626073" flag="0"/>
      <psa30 value="0.0005839582" flag="0"/>
    </comp>
    <comp name="--.HHN">
      <acc value="0.0203070341" flag="0"/>
      <vel value="0.0067322298" flag="0"/>
      <psa03 value="0.0298205745" flag="0"/>
      <psa10 value="0.0030157465" flag="0"/>
      <psa30 value="0.0002408302" flag="0"/>
    </comp>
    <comp name="--.HHZ">
      <acc value="0.0285386095" flag="0"/>
      <vel value="0.0053663004" flag="0"/>
      <psa03 value="0.0190434565" flag="0"/>
      <psa10 value="0.0023957340" flag="0"/>
      <psa30 value="0.0002309986" flag="0"/>
    </comp>
  </station>
  <station code="DEV" name="DEV" netid="RO" insttype="CMG40T.1to100/Quanterra" lat="45.887" lon="22.898">
    <comp name="--.HHN">
      <acc value="0.0236909969" flag="0"/>
      <vel value="0.0090658902" flag="0"/>
      <psa03 value="0.0356004980" flag="0"/>
      <psa10 value="0.0120800006" flag="0"/>
      <psa30 value="0.0004681711" flag="0"/>
    </comp>
  </station>
  <station code="DRGR" name="DRGR" netid="RO" insttype="330" lat="46.7917" lon="22.7111">
    <comp name="--.HHE">
      <acc value="0.0975568084" flag="0"/>
      <vel value="0.0253118963" flag="0"/>
      <psa03 value="0.1027141567" flag="0"/>
      <psa10 value="0.0067846952" flag="0"/>
      <psa30 value="0.0005918123" flag="0"/>
    </comp>
    <comp name="--.HHN">
      <acc value="0.0798805920" flag="0"/>
      <vel value="0.0193813893" flag="0"/>
      <psa03 value="0.1299432343" flag="0"/>
      <psa10 value="0.0043852754" flag="0"/>
      <psa30 value="0.0004049958" flag="0"/>
    </comp>
  </station>
  <station code="JIMR" name="JIMR" netid="RO" insttype="200" lat="45.7818" lon="20.7024">
    <comp name="--.HNZ">
      <acc value="0.0337457181" flag="0"/>
      <vel value="0.0043047065" flag="0"/>
      <psa03 value="0.0127691186" flag="0"/>
      <psa10 value="0.0041027608" flag="0"/>
      <psa30 value="0.0010937067" flag="0"/>
    </comp>
  </station>
  <station code="SURR" name="SURR" netid="RO" insttype="Linear" lat="45.754" lon="22.1246">
    <comp name="--.HHN">
      <acc value="0.1190783250" flag="0"/>
      <vel value="0.0156925401" flag="0"/>
      <psa03 value="0.0696085554" flag="0"/>
      <psa10 value="0.0036150857" flag="0"/>
      <psa30 value="0.0005283566" flag="0"/>
    </comp>
  </station>
</stationlist>
