<stationlist created="1778136316">
	<station code="MALA" name="MALA" netid="CL" source="Corinth Riff Laboratory (CRLNET)" insttype="" lat="38.39341" lon="21.87263">
		<comp name="01.HNE" depth="0.0">
			<acc value="0.0137571671912996" flag="0"/>
			<vel value="0.0152809665400165" flag="0"/>
			<psa03 value="0.039686337270407" flag="0"/>
			<psa10 value="0.0374452001408978" flag="0"/>
			<psa30 value="0.00327691921272222" flag="0"/>
		</comp>
		<comp name="01.HNN" depth="0.0">
			<acc value="0.0145066586512411" flag="0"/>
			<vel value="0.0176042879095473" flag="0"/>
			<psa03 value="0.0293956297482045" flag="0"/>
			<psa10 value="0.0321257991960515" flag="0"/>
			<psa30 value="0.0018796201000336" flag="0"/>
		</comp>
		<comp name="01.HNZ" depth="0.0">
			<acc value="0.00562011006737331" flag="0"/>
			<vel value="0.00603358696046187" flag="0"/>
			<psa03 value="0.0116777159273689" flag="0"/>
			<psa10 value="0.0090844576317739" flag="0"/>
			<psa30 value="0.00218118257264075" flag="0"/>
		</comp>
	</station>
	<station code="ROD3" name="ROD3" netid="CL" source="Corinth Riff Laboratory (CRLNET)" insttype="" lat="38.30811" lon="21.89204">
		<comp name="00.HNE" depth="0.0">
			<acc value="0.00667199681641115" flag="0"/>
			<vel value="0.00609773465969563" flag="0"/>
			<psa03 value="0.0331987173107576" flag="0"/>
			<psa10 value="0.0107636326461576" flag="0"/>
			<psa30 value="0.000753906181517879" flag="0"/>
		</comp>
		<comp name="00.HNN" depth="0.0">
			<acc value="0.00859233698153732" flag="0"/>
			<vel value="0.00465773306046952" flag="0"/>
			<psa03 value="0.0289034654754036" flag="0"/>
			<psa10 value="0.00786433765729363" flag="0"/>
			<psa30 value="0.000882316314512319" flag="0"/>
		</comp>
		<comp name="00.HNZ" depth="0.0">
			<acc value="0.00423980620078699" flag="0"/>
			<vel value="0.00232282667934456" flag="0"/>
			<psa03 value="0.00957483221631016" flag="0"/>
			<psa10 value="0.0033060016470241" flag="0"/>
			<psa30 value="0.00049395396106572" flag="0"/>
		</comp>
	</station>
	<station code="MMAA" name="MMAA" netid="EG" source="EUROSEISTEST Strong Motion Network" insttype="" lat="40.630855" lon="22.943725">
		<comp name="--.EN1" depth="0.0">
			<acc value="0.0326128606707183" flag="0"/>
			<vel value="0.0216735021160658" flag="0"/>
			<psa03 value="0.0818337700438984" flag="0"/>
			<psa10 value="0.0295953667977992" flag="0"/>
			<psa30 value="0.00133151060187523" flag="0"/>
		</comp>
		<comp name="--.EN2" depth="0.0">
			<acc value="0.0282368195723817" flag="0"/>
			<vel value="0.0178368098454216" flag="0"/>
			<psa03 value="0.0820977562816538" flag="0"/>
			<psa10 value="0.0333353395526352" flag="0"/>
			<psa30 value="0.00144522844762674" flag="0"/>
		</comp>
		<comp name="--.EN3" depth="0.0">
			<acc value="0.027605268186981" flag="0"/>
			<vel value="0.00928515448487176" flag="0"/>
			<psa03 value="0.0642088264362933" flag="0"/>
			<psa10 value="0.00970604985315102" flag="0"/>
			<psa30 value="0.000949987098647549" flag="0"/>
		</comp>
	</station>
	<station code="STC" name="STC" netid="EG" source="EUROSEISTEST Strong Motion Network" insttype="" lat="40.64865" lon="23.304856">
		<comp name="--.EN1" depth="0.0">
			<acc value="0.0369649375001378" flag="0"/>
			<vel value="0.0189844639440134" flag="0"/>
			<psa03 value="0.140651296624949" flag="0"/>
			<psa10 value="0.0177514934493162" flag="0"/>
			<psa30 value="0.00142114633146934" flag="0"/>
		</comp>
		<comp name="--.EN2" depth="0.0">
			<acc value="0.0263688793176102" flag="0"/>
			<vel value="0.0164413097822065" flag="0"/>
			<psa03 value="0.0708181392709443" flag="0"/>
			<psa10 value="0.00975836206860549" flag="0"/>
			<psa30 value="0.000730734188804281" flag="0"/>
		</comp>
		<comp name="--.EN3" depth="0.0">
			<acc value="0.0131434964112736" flag="0"/>
			<vel value="0.00766071157971301" flag="0"/>
			<psa03 value="0.0369484997401045" flag="0"/>
			<psa10 value="0.009570221480223" flag="0"/>
			<psa30 value="0.00103234265846693" flag="0"/>
		</comp>
	</station>
	<station code="TST" name="TST" netid="EG" source="EUROSEISTEST Strong Motion Network" insttype="" lat="40.6638" lon="23.2906">
		<comp name="00.EN1" depth="0.0">
			<acc value="0.0107994899236168" flag="0"/>
			<vel value="0.0084643799919552" flag="0"/>
			<psa03 value="0.0367973647281575" flag="0"/>
			<psa10 value="0.0108552056665964" flag="0"/>
			<psa30 value="0.000732267050762825" flag="0"/>
		</comp>
		<comp name="00.EN2" depth="0.0">
			<acc value="0.00768186501973272" flag="0"/>
			<vel value="0.00532691184677591" flag="0"/>
			<psa03 value="0.0185495491291147" flag="0"/>
			<psa10 value="0.00465267727953679" flag="0"/>
			<psa30 value="0.000623425465544656" flag="0"/>
		</comp>
		<comp name="00.EN3" depth="0.0">
			<acc value="0.0163086722486048" flag="0"/>
			<vel value="0.0126338385329794" flag="0"/>
			<psa03 value="0.0489586859810219" flag="0"/>
			<psa10 value="0.0213167215031955" flag="0"/>
			<psa30 value="0.00126731926617957" flag="0"/>
		</comp>
	</station>
	<station code="KRK1" name="KRK1" netid="HI" source="ITSAK Strong Motion Network" insttype="" lat="39.618861" lon="19.9202">
		<comp name="--.HNE" depth="0.0">
			<acc value="0.00867333001956319" flag="0"/>
			<vel value="0.00640892076969407" flag="0"/>
			<psa03 value="0.0161966787958144" flag="0"/>
			<psa10 value="0.00443753205240019" flag="0"/>
			<psa30 value="0.00074585258432659" flag="0"/>
		</comp>
		<comp name="--.HNN" depth="0.0">
			<acc value="0.00542719955825715" flag="0"/>
			<vel value="0.00390472104621239" flag="0"/>
			<psa03 value="0.00993276986925633" flag="0"/>
			<psa10 value="0.00568181281845433" flag="0"/>
			<psa30 value="0.000620574405795429" flag="0"/>
		</comp>
		<comp name="--.HNZ" depth="0.0">
			<acc value="0.00222141346603994" flag="0"/>
			<vel value="0.00155559144563962" flag="0"/>
			<psa03 value="0.00653236216626768" flag="0"/>
			<psa10 value="0.00166306782000116" flag="0"/>
			<psa30 value="0.000391046885843695" flag="0"/>
		</comp>
	</station>
	<station code="LMS2" name="LMS2" netid="HI" source="ITSAK Strong Motion Network" insttype="" lat="40.834985" lon="21.141815">
		<comp name="--.HNE" depth="0.0">
			<acc value="0.00480321881376039" flag="0"/>
			<vel value="0.00289260314567808" flag="0"/>
			<psa03 value="0.0101564809023477" flag="0"/>
			<psa10 value="0.00419995093525717" flag="0"/>
			<psa30 value="0.00039015204171133" flag="0"/>
		</comp>
		<comp name="--.HNN" depth="0.0">
			<acc value="0.00435245246256311" flag="0"/>
			<vel value="0.00342447389270935" flag="0"/>
			<psa03 value="0.0117672003406055" flag="0"/>
			<psa10 value="0.00836366068315354" flag="0"/>
			<psa30 value="0.000465318948830026" flag="0"/>
		</comp>
		<comp name="--.HNZ" depth="0.0">
			<acc value="0.00200724572663784" flag="0"/>
			<vel value="0.00198882313320299" flag="0"/>
			<psa03 value="0.00595071348023014" flag="0"/>
			<psa10 value="0.00558114285356322" flag="0"/>
			<psa30 value="0.000496638493462816" flag="0"/>
		</comp>
	</station>
	<station code="MSL1" name="MSL1" netid="HI" source="ITSAK Strong Motion Network" insttype="" lat="38.3727" lon="21.4243">
		<comp name="--.HNE" depth="0.0">
			<acc value="0.00874994174888583" flag="0"/>
			<vel value="0.0096557683318403" flag="0"/>
			<psa03 value="0.0196865709120396" flag="0"/>
			<psa10 value="0.0196870183341058" flag="0"/>
			<psa30 value="0.00211496410684571" flag="0"/>
		</comp>
		<comp name="--.HNN" depth="0.0">
			<acc value="0.0108394023920081" flag="0"/>
			<vel value="0.0127706313643545" flag="0"/>
			<psa03 value="0.019104922226002" flag="0"/>
			<psa10 value="0.0166789997831593" flag="0"/>
			<psa30 value="0.00206708994576415" flag="0"/>
		</comp>
		<comp name="--.HNZ" depth="0.0">
			<acc value="0.0052662723369188" flag="0"/>
			<vel value="0.0048762638311636" flag="0"/>
			<psa03 value="0.00800885498467064" flag="0"/>
			<psa10 value="0.00976095979584216" flag="0"/>
			<psa30 value="0.000861734899467914" flag="0"/>
		</comp>
	</station>
	<station code="SKO1" name="SKO1" netid="HI" source="ITSAK Strong Motion Network" insttype="" lat="39.123383" lon="23.728705">
		<comp name="--.HNE" depth="0.0">
			<acc value="0.00404374053939766" flag="0"/>
			<vel value="0.00225555250026681" flag="0"/>
			<psa03 value="0.00921689456336398" flag="0"/>
			<psa10 value="0.00204158688799174" flag="0"/>
			<psa30 value="0.000290376920952584" flag="0"/>
		</comp>
		<comp name="--.HNN" depth="0.0">
			<acc value="0.00394231866864174" flag="0"/>
			<vel value="0.00262299298736773" flag="0"/>
			<psa03 value="0.0127962710928257" flag="0"/>
			<psa10 value="0.00177179138208356" flag="0"/>
			<psa30 value="0.000310958335996989" flag="0"/>
		</comp>
		<comp name="--.HNZ" depth="0.0">
			<acc value="0.00353768087439317" flag="0"/>
			<vel value="0.00177059201054222" flag="0"/>
			<psa03 value="0.010380191935439" flag="0"/>
			<psa10 value="0.00231138239389992" flag="0"/>
			<psa30 value="0.000282323323761295" flag="0"/>
		</comp>
	</station>
	<station code="VOL2" name="VOL2" netid="HI" source="ITSAK Strong Motion Network" insttype="" lat="39.366" lon="22.9506">
		<comp name="--.HNE" depth="0.0">
			<acc value="0.0254569349198907" flag="0"/>
			<vel value="0.0119381105369571" flag="0"/>
			<psa03 value="0.0702005221840684" flag="0"/>
			<psa10 value="0.00643482415583984" flag="0"/>
			<psa30 value="0.000577174465375705" flag="0"/>
		</comp>
		<comp name="--.HNN" depth="0.0">
			<acc value="0.0294179254320639" flag="0"/>
			<vel value="0.0132575594451736" flag="0"/>
			<psa03 value="0.0750326804988418" flag="0"/>
			<psa10 value="0.00688179879995638" flag="0"/>
			<psa30 value="0.000611625964471775" flag="0"/>
		</comp>
		<comp name="--.HNZ" depth="0.0">
			<acc value="0.0193084671592741" flag="0"/>
			<vel value="0.00637959466199108" flag="0"/>
			<psa03 value="0.0327065530379567" flag="0"/>
			<psa10 value="0.00351942197259326" flag="0"/>
			<psa30 value="0.000464871526763843" flag="0"/>
		</comp>
	</station>
	<station code="DLFA" name="DLFA" netid="HL" source="National Observatory of Athens Seismic Network" insttype="" lat="38.47836" lon="22.49583">
		<comp name="00.HNE" depth="0.0">
			<acc value="0.00743716784825885" flag="0"/>
			<vel value="0.00677322096319333" flag="0"/>
			<psa03 value="0.0151242701378412" flag="0"/>
			<psa10 value="0.00640608812190288" flag="0"/>
			<psa30 value="0.000725640622214477" flag="0"/>
		</comp>
		<comp name="00.HNN" depth="0.0">
			<acc value="0.00543299175164472" flag="0"/>
			<vel value="0.00421594943732411" flag="0"/>
			<psa03 value="0.00752021627636557" flag="0"/>
			<psa10 value="0.0055410347226118" flag="0"/>
			<psa30 value="0.000476577456334769" flag="0"/>
		</comp>
		<comp name="00.HNZ" depth="0.0">
			<acc value="0.00287315390232078" flag="0"/>
			<vel value="0.00317622833859964" flag="0"/>
			<psa03 value="0.00857840356360789" flag="0"/>
			<psa10 value="0.00382528832845215" flag="0"/>
			<psa30 value="0.000650310996580587" flag="0"/>
		</comp>
	</station>
	<station code="ANX" name="ANX" netid="HP" source="University of Patras, Seismological Laboratory (PSLNET)" insttype="" lat="38.5933" lon="21.9209">
		<comp name="--.HNE" depth="0.0">
			<acc value="0.0181231919547013" flag="0"/>
			<vel value="0.0116618592513535" flag="0"/>
			<psa03 value="0.0528679657848933" flag="0"/>
			<psa10 value="0.0138133388158854" flag="0"/>
			<psa30 value="0.000684794166335755" flag="0"/>
		</comp>
		<comp name="--.HNN" depth="0.0">
			<acc value="0.035560247340291" flag="0"/>
			<vel value="0.0193701497152573" flag="0"/>
			<psa03 value="0.156644335251633" flag="0"/>
			<psa10 value="0.0132186487956135" flag="0"/>
			<psa30 value="0.00117086350146218" flag="0"/>
		</comp>
		<comp name="--.HNZ" depth="0.0">
			<acc value="0.0155442825526499" flag="0"/>
			<vel value="0.0141294555651086" flag="0"/>
			<psa03 value="0.0485685299268295" flag="0"/>
			<psa10 value="0.00759170056915861" flag="0"/>
			<psa30 value="0.000849698423767449" flag="0"/>
		</comp>
	</station>
	<station code="LTK" name="LTK" netid="HP" source="University of Patras, Seismological Laboratory (PSLNET)" insttype="" lat="38.0228" lon="22.9673">
		<comp name="--.HNE" depth="0.0">
			<acc value="0.0010561382782408" flag="0"/>
			<vel value="0.000788086852912396" flag="0"/>
			<psa03 value="0.00362313324396411" flag="0"/>
			<psa10 value="0.00144522972375277" flag="0"/>
			<psa30 value="8.58447167392696e-05" flag="0"/>
		</comp>
		<comp name="--.HNN" depth="0.0">
			<acc value="0.00129529416098889" flag="0"/>
			<vel value="0.00123748130695797" flag="0"/>
			<psa03 value="0.00464460618494812" flag="0"/>
			<psa10 value="0.00146116640447632" flag="0"/>
			<psa30 value="0.000113605559665052" flag="0"/>
		</comp>
		<comp name="--.HNZ" depth="0.0">
			<acc value="0.000897289888035022" flag="0"/>
			<vel value="0.000668395455404251" flag="0"/>
			<psa03 value="0.0033416539853624" flag="0"/>
			<psa10 value="0.000899234745669753" flag="0"/>
			<psa30 value="9.55637459936335e-05" flag="0"/>
		</comp>
	</station>
	<station code="PDO" name="PDO" netid="HP" source="University of Patras, Seismological Laboratory (PSLNET)" insttype="" lat="38.5986" lon="21.1833">
		<comp name="--.HNE" depth="0.0">
			<acc value="0.00548574086350805" flag="0"/>
			<vel value="0.00479330251956733" flag="0"/>
			<psa03 value="0.0194838636270007" flag="0"/>
			<psa10 value="0.00520107704584333" flag="0"/>
			<psa30 value="0.00091392366795736" flag="0"/>
		</comp>
		<comp name="--.HNN" depth="0.0">
			<acc value="0.00783526558399259" flag="0"/>
			<vel value="0.00542348486773995" flag="0"/>
			<psa03 value="0.0332719098298901" flag="0"/>
			<psa10 value="0.00481505600507633" flag="0"/>
			<psa30 value="0.000558094575192844" flag="0"/>
		</comp>
		<comp name="--.HNZ" depth="0.0">
			<acc value="0.00362838033408244" flag="0"/>
			<vel value="0.00204243435246488" flag="0"/>
			<psa03 value="0.0102947067133802" flag="0"/>
			<psa10 value="0.00308487982690065" flag="0"/>
			<psa30 value="0.000435824704581061" flag="0"/>
		</comp>
	</station>
	<station code="PVO" name="PVO" netid="HP" source="University of Patras, Seismological Laboratory (PSLNET)" insttype="" lat="38.616" lon="21.525">
		<comp name="--.HNE" depth="0.0">
			<acc value="0.00467909100249829" flag="0"/>
			<vel value="0.00327994677598777" flag="0"/>
			<psa03 value="0.0103710503124348" flag="0"/>
			<psa10 value="0.00403622409879542" flag="0"/>
			<psa30 value="0.000802983454128311" flag="0"/>
		</comp>
		<comp name="--.HNN" depth="0.0">
			<acc value="0.0049561669447408" flag="0"/>
			<vel value="0.00319021749296661" flag="0"/>
			<psa03 value="0.0114570727769166" flag="0"/>
			<psa10 value="0.00485719379650473" flag="0"/>
			<psa30 value="0.00057625635123778" flag="0"/>
		</comp>
		<comp name="--.HNZ" depth="0.0">
			<acc value="0.00243283273993979" flag="0"/>
			<vel value="0.00249016853559514" flag="0"/>
			<psa03 value="0.00956256967124174" flag="0"/>
			<psa10 value="0.0054657827062726" flag="0"/>
			<psa30 value="0.00114092766419034" flag="0"/>
		</comp>
	</station>
	<station code="SERG" name="SERG" netid="HP" source="University of Patras, Seismological Laboratory (PSLNET)" insttype="" lat="38.4133" lon="22.0566">
		<comp name="--.HNE" depth="0.0">
			<acc value="0.0125704402026817" flag="0"/>
			<vel value="0.0132953393209628" flag="0"/>
			<psa03 value="0.0438749429579782" flag="0"/>
			<psa10 value="0.0122294363901575" flag="0"/>
			<psa30 value="0.00073324154240321" flag="0"/>
		</comp>
		<comp name="--.HNN" depth="0.0">
			<acc value="0.0140024176304683" flag="0"/>
			<vel value="0.00937806794238106" flag="0"/>
			<psa03 value="0.0332662922702808" flag="0"/>
			<psa10 value="0.00694385077729326" flag="0"/>
			<psa30 value="0.00111273621331426" flag="0"/>
		</comp>
		<comp name="--.HNZ" depth="0.0">
			<acc value="0.0121226945764793" flag="0"/>
			<vel value="0.00731066221207466" flag="0"/>
			<psa03 value="0.0370178480841007" flag="0"/>
			<psa10 value="0.00572281863991202" flag="0"/>
			<psa30 value="0.000975543270788285" flag="0"/>
		</comp>
	</station>
</stationlist>
