<?xml version="1.0" encoding="UTF-8" standalone="yes"?>
<!DOCTYPE earthquake SYSTEM "stationlist.dtd">
<stationlist created="" xmlns="ch.ethz.sed.shakemap.usgs.xml">
  <station code="VOL2" name="VOL2" netid="HI" insttype="CMG-5TD,ACCELEROMETER,GURALP" lat="39.366" lon="22.9506">
    <comp name="--.HNN">
      <acc value="0.0295087701" flag="0"/>
      <vel value="0.0131339283" flag="0"/>
      <psa03 value="0.0752350708" flag="0"/>
      <psa10 value="0.0069001051" flag="0"/>
      <psa30 value="0.0007244874" flag="0"/>
    </comp>
    <comp name="--.HNE">
      <acc value="0.0251791458" flag="0"/>
      <vel value="0.0119276039" flag="0"/>
      <psa03 value="0.0705864437" flag="0"/>
      <psa10 value="0.0064333871" flag="0"/>
      <psa30 value="0.0007028349" flag="0"/>
    </comp>
    <comp name="--.HNZ">
      <acc value="0.0193123152" flag="0"/>
      <vel value="0.0062388198" flag="0"/>
      <psa03 value="0.0323172382" flag="0"/>
      <psa10 value="0.0035130109" flag="0"/>
      <psa30 value="0.0006274848" flag="0"/>
    </comp>
  </station>
  <station code="EVR" name="EVR" netid="HL" insttype="DR24" lat="38.9166" lon="21.8105">
    <comp name="--.HHE">
      <acc value="0.0149860963" flag="0"/>
      <vel value="0.0066508053" flag="0"/>
      <psa03 value="0.0298011733" flag="0"/>
      <psa10 value="0.0100578435" flag="0"/>
      <psa30 value="0.0010443714" flag="0"/>
    </comp>
    <comp name="--.HHN">
      <acc value="0.0184676167" flag="0"/>
      <vel value="0.0119462134" flag="0"/>
      <psa03 value="0.0588478728" flag="0"/>
      <psa10 value="0.0107857664" flag="0"/>
      <psa30 value="0.0011899249" flag="0"/>
    </comp>
    <comp name="--.HHZ">
      <acc value="0.0120530048" flag="0"/>
      <vel value="0.0076869449" flag="0"/>
      <psa03 value="0.0334667418" flag="0"/>
      <psa10 value="0.0079540731" flag="0"/>
      <psa30 value="0.0007609828" flag="0"/>
    </comp>
  </station>
  <station code="JAN" name="JAN" netid="HL" insttype="CMG3EPSC60_DR24" lat="39.6562" lon="20.8487">
    <comp name="--.HHE">
      <acc value="0.0054705981" flag="0"/>
      <vel value="0.0035189383" flag="0"/>
      <psa03 value="0.0141028903" flag="0"/>
      <psa10 value="0.0054910075" flag="0"/>
      <psa30 value="0.0011241469" flag="0"/>
    </comp>
    <comp name="--.HHZ">
      <acc value="0.0029304840" flag="0"/>
      <vel value="0.0017953239" flag="0"/>
      <psa03 value="0.0063359559" flag="0"/>
      <psa10 value="0.0028258646" flag="0"/>
      <psa30 value="0.0008519501" flag="0"/>
    </comp>
    <comp name="--.HHN">
      <acc value="0.0048792773" flag="0"/>
      <vel value="0.0035196427" flag="0"/>
      <psa03 value="0.0146650814" flag="0"/>
      <psa10 value="0.0043848477" flag="0"/>
      <psa30 value="0.0006593185" flag="0"/>
    </comp>
  </station>
  <station code="KZN" name="KZN" netid="HL" insttype="120" lat="40.3033" lon="21.7821">
    <comp name="--.HHE">
      <acc value="0.0329073313" flag="0"/>
      <vel value="0.0189136493" flag="0"/>
      <psa03 value="0.0866068141" flag="0"/>
      <psa10 value="0.0107183190" flag="0"/>
      <psa30 value="0.0007825819" flag="0"/>
    </comp>
    <comp name="--.HHN">
      <acc value="0.0194013568" flag="0"/>
      <vel value="0.0122290338" flag="0"/>
      <psa03 value="0.0623308801" flag="0"/>
      <psa10 value="0.0069765425" flag="0"/>
      <psa30 value="0.0014240574" flag="0"/>
    </comp>
    <comp name="--.HHZ">
      <acc value="0.0093987318" flag="0"/>
      <vel value="0.0077658579" flag="0"/>
      <psa03 value="0.0302391070" flag="0"/>
      <psa10 value="0.0080374814" flag="0"/>
      <psa30 value="0.0013145027" flag="0"/>
    </comp>
  </station>
  <station code="NEO" name="NEO" netid="HL" insttype="120" lat="39.3057" lon="23.2219">
    <comp name="--.HHZ">
      <acc value="0.0121307539" flag="0"/>
      <vel value="0.0056457196" flag="0"/>
      <psa03 value="0.0351652170" flag="0"/>
      <psa10 value="0.0045325523" flag="0"/>
      <psa30 value="0.0007086198" flag="0"/>
    </comp>
    <comp name="--.HHE">
      <acc value="0.0220228127" flag="0"/>
      <vel value="0.0123706558" flag="0"/>
      <psa03 value="0.0525467477" flag="0"/>
      <psa10 value="0.0081105204" flag="0"/>
      <psa30 value="0.0006197948" flag="0"/>
    </comp>
    <comp name="--.HHN">
      <acc value="0.0280368602" flag="0"/>
      <vel value="0.0156929996" flag="0"/>
      <psa03 value="0.0644714674" flag="0"/>
      <psa10 value="0.0070966231" flag="0"/>
      <psa30 value="0.0009311524" flag="0"/>
    </comp>
  </station>
  <station code="PENT" name="PENT" netid="HL" insttype="30" lat="40.1959" lon="21.1384">
    <comp name="--.HHN">
      <acc value="0.0003089416" flag="0"/>
      <vel value="0.0003302636" flag="0"/>
      <psa03 value="0.0006827428" flag="0"/>
      <psa10 value="0.0003453525" flag="0"/>
      <psa30 value="0.0002091972" flag="0"/>
    </comp>
    <comp name="--.HHE">
      <acc value="0.0036164142" flag="0"/>
      <vel value="0.0029586472" flag="0"/>
      <psa03 value="0.0097343162" flag="0"/>
      <psa10 value="0.0048698104" flag="0"/>
      <psa30 value="0.0004342765" flag="0"/>
    </comp>
    <comp name="--.HHZ">
      <acc value="0.0035956034" flag="0"/>
      <vel value="0.0040597695" flag="0"/>
      <psa03 value="0.0096623350" flag="0"/>
      <psa10 value="0.0049217624" flag="0"/>
      <psa30 value="0.0008332276" flag="0"/>
    </comp>
  </station>
  <station code="TETR" name="TETR" netid="HL" insttype="60" lat="39.3445" lon="21.2747">
    <comp name="--.HHZ">
      <acc value="0.0164721096" flag="0"/>
      <vel value="0.0094355314" flag="0"/>
      <psa03 value="0.0382008098" flag="0"/>
      <psa10 value="0.0065863570" flag="0"/>
      <psa30 value="0.0007330773" flag="0"/>
    </comp>
    <comp name="--.HHE">
      <acc value="0.0499214228" flag="0"/>
      <vel value="0.0200640637" flag="0"/>
      <psa03 value="0.1276149565" flag="0"/>
      <psa10 value="0.0130514713" flag="0"/>
      <psa30 value="0.0013663534" flag="0"/>
    </comp>
    <comp name="--.HHN">
      <acc value="0.0439506279" flag="0"/>
      <vel value="0.0160051188" flag="0"/>
      <psa03 value="0.1054594185" flag="0"/>
      <psa10 value="0.0122474715" flag="0"/>
      <psa30 value="0.0010270676" flag="0"/>
    </comp>
  </station>
  <station code="THL" name="THL" netid="HL" insttype="120" lat="39.5647" lon="22.0144">
    <comp name="--.HHE">
      <acc value="0.1025749849" flag="0"/>
      <vel value="0.0320699177" flag="0"/>
      <psa03 value="0.1629087196" flag="0"/>
      <psa10 value="0.0280475795" flag="0"/>
      <psa30 value="0.0024323481" flag="0"/>
    </comp>
    <comp name="--.HHN">
      <acc value="0.1389384244" flag="0"/>
      <vel value="0.0437779086" flag="0"/>
      <psa03 value="0.0990833851" flag="0"/>
      <psa10 value="0.0395501266" flag="0"/>
      <psa30 value="0.0079670384" flag="0"/>
    </comp>
    <comp name="--.HHZ">
      <acc value="0.1656007234" flag="0"/>
      <vel value="0.0466693136" flag="0"/>
      <psa03 value="0.1322003447" flag="0"/>
      <psa10 value="0.0409019637" flag="0"/>
      <psa30 value="0.0065082809" flag="0"/>
    </comp>
  </station>
  <station code="AMPL" name="AMPL" netid="HP" insttype="Compact," lat="38.9224" lon="21.2135">
    <comp name="--.HHE">
      <acc value="0.0057434925" flag="0"/>
      <vel value="0.0049446806" flag="0"/>
      <psa03 value="0.0161419176" flag="0"/>
      <psa10 value="0.0071408479" flag="0"/>
      <psa30 value="0.0006743362" flag="0"/>
    </comp>
    <comp name="--.HHZ">
      <acc value="0.0035454741" flag="0"/>
      <vel value="0.0032354452" flag="0"/>
      <psa03 value="0.0063785258" flag="0"/>
      <psa10 value="0.0040971171" flag="0"/>
      <psa30 value="0.0005749113" flag="0"/>
    </comp>
    <comp name="--.HHN">
      <acc value="0.0039905378" flag="0"/>
      <vel value="0.0036151038" flag="0"/>
      <psa03 value="0.0078182575" flag="0"/>
      <psa10 value="0.0040498229" flag="0"/>
      <psa30 value="0.0005613363" flag="0"/>
    </comp>
  </station>
  <station code="PRMD" name="PRMD" netid="HP" insttype="120P," lat="39.5299" lon="21.0965">
    <comp name="--.HHN">
      <acc value="0.0101473518" flag="0"/>
      <vel value="0.0062054164" flag="0"/>
      <psa03 value="0.0293986403" flag="0"/>
      <psa10 value="0.0112794150" flag="0"/>
      <psa30 value="0.0009365172" flag="0"/>
    </comp>
    <comp name="--.HHE">
      <acc value="0.0155239416" flag="0"/>
      <vel value="0.0098265607" flag="0"/>
      <psa03 value="0.0355338868" flag="0"/>
      <psa10 value="0.0097610196" flag="0"/>
      <psa30 value="0.0011936384" flag="0"/>
    </comp>
    <comp name="--.HHZ">
      <acc value="0.0086637607" flag="0"/>
      <vel value="0.0062784071" flag="0"/>
      <psa03 value="0.0177541641" flag="0"/>
      <psa10 value="0.0065233546" flag="0"/>
      <psa30 value="0.0012010568" flag="0"/>
    </comp>
  </station>
  <station code="AGG" name="AGG" netid="HT" insttype="120P," lat="39.0211" lon="22.336">
    <comp name="--.HHE">
      <acc value="0.0274898947" flag="0"/>
      <vel value="0.0152238157" flag="0"/>
      <psa03 value="0.0993108396" flag="0"/>
      <psa10 value="0.0091275885" flag="0"/>
      <psa30 value="0.0008555244" flag="0"/>
    </comp>
    <comp name="--.HHZ">
      <acc value="0.0149089071" flag="0"/>
      <vel value="0.0083687373" flag="0"/>
      <psa03 value="0.0372306259" flag="0"/>
      <psa10 value="0.0064848165" flag="0"/>
      <psa30 value="0.0015477045" flag="0"/>
    </comp>
    <comp name="--.HHN">
      <acc value="0.0254866179" flag="0"/>
      <vel value="0.0113774748" flag="0"/>
      <psa03 value="0.1245125937" flag="0"/>
      <psa10 value="0.0083733920" flag="0"/>
      <psa30 value="0.0008284649" flag="0"/>
    </comp>
  </station>
  <station code="HORT" name="HORT" netid="HT" insttype="100" lat="40.5978" lon="23.0996">
    <comp name="--.HHZ">
      <acc value="0.0050769199" flag="0"/>
      <vel value="0.0028668604" flag="0"/>
      <psa03 value="0.0169245711" flag="0"/>
      <psa10 value="0.0032223072" flag="0"/>
      <psa30 value="0.0005950013" flag="0"/>
    </comp>
    <comp name="--.HHN">
      <acc value="0.0000115906" flag="0"/>
      <vel value="0.0000021768" flag="0"/>
      <psa03 value="0.0000109728" flag="0"/>
      <psa10 value="0.0000029000" flag="0"/>
      <psa30 value="0.0000003660" flag="0"/>
    </comp>
  </station>
  <station code="KPRO" name="KPRO" netid="HT" insttype="100" lat="39.9549" lon="21.3632">
    <comp name="--.HHE">
      <acc value="0.0131076531" flag="0"/>
      <vel value="0.0096377865" flag="0"/>
      <psa03 value="0.0333123768" flag="0"/>
      <psa10 value="0.0158776142" flag="0"/>
      <psa30 value="0.0015139224" flag="0"/>
    </comp>
    <comp name="--.HHN">
      <acc value="0.0140101010" flag="0"/>
      <vel value="0.0115285626" flag="0"/>
      <psa03 value="0.0360529023" flag="0"/>
      <psa10 value="0.0295835911" flag="0"/>
      <psa30 value="0.0038342776" flag="0"/>
    </comp>
    <comp name="--.HHZ">
      <acc value="0.0082920755" flag="0"/>
      <vel value="0.0051664080" flag="0"/>
      <psa03 value="0.0131475527" flag="0"/>
      <psa10 value="0.0066537560" flag="0"/>
      <psa30 value="0.0007888032" flag="0"/>
    </comp>
  </station>
  <station code="LIT" name="LIT" netid="HT" insttype="100" lat="40.1033" lon="22.4892">
    <comp name="--.HHE">
      <acc value="0.2747864101" flag="0"/>
      <vel value="0.0762069710" flag="0"/>
      <psa03 value="0.4424304606" flag="0"/>
      <psa10 value="0.0221635619" flag="0"/>
      <psa30 value="0.0024178051" flag="0"/>
    </comp>
    <comp name="--.HHN">
      <acc value="0.1925899135" flag="0"/>
      <vel value="0.0737750154" flag="0"/>
      <psa03 value="0.3650164960" flag="0"/>
      <psa10 value="0.0229445112" flag="0"/>
      <psa30 value="0.0024757207" flag="0"/>
    </comp>
    <comp name="--.HHZ">
      <acc value="0.0747450332" flag="0"/>
      <vel value="0.0355225705" flag="0"/>
      <psa03 value="0.2406517545" flag="0"/>
      <psa10 value="0.0195479169" flag="0"/>
      <psa30 value="0.0024617653" flag="0"/>
    </comp>
  </station>
  <station code="THE" name="THE" netid="HT" insttype="30s-100Hz," lat="40.6319" lon="22.9628">
    <comp name="--.HHE">
      <acc value="0.0043280668" flag="0"/>
      <vel value="0.0026736838" flag="0"/>
      <psa03 value="0.0125959396" flag="0"/>
      <psa10 value="0.0032421252" flag="0"/>
      <psa30 value="0.0002975169" flag="0"/>
    </comp>
    <comp name="--.HHN">
      <acc value="0.0047638202" flag="0"/>
      <vel value="0.0025564078" flag="0"/>
      <psa03 value="0.0154682216" flag="0"/>
      <psa10 value="0.0035208132" flag="0"/>
      <psa30 value="0.0005382181" flag="0"/>
    </comp>
    <comp name="--.HHZ">
      <acc value="0.0021260313" flag="0"/>
      <vel value="0.0018533941" flag="0"/>
      <psa03 value="0.0055724934" flag="0"/>
      <psa10 value="0.0021934808" flag="0"/>
      <psa30 value="0.0005142902" flag="0"/>
    </comp>
  </station>
  <station code="TYRN" name="TYRN" netid="HT" insttype="120P," lat="39.711" lon="22.2325">
    <comp name="--.HHE">
      <acc value="0.6307292699" flag="0"/>
      <vel value="0.2246931588" flag="0"/>
      <psa03 value="0.8965881386" flag="0"/>
      <psa10 value="0.1706454322" flag="0"/>
      <psa30 value="0.0085324060" flag="0"/>
    </comp>
    <comp name="--.HHN">
      <acc value="0.7233696416" flag="0"/>
      <vel value="0.3545280748" flag="0"/>
      <psa03 value="1.0467923861" flag="0"/>
      <psa10 value="0.1570571169" flag="0"/>
      <psa30 value="0.0168537716" flag="0"/>
    </comp>
    <comp name="--.HHZ">
      <acc value="0.7798970701" flag="0"/>
      <vel value="0.3142335302" flag="0"/>
      <psa03 value="0.9722018550" flag="0"/>
      <psa10 value="0.1463964813" flag="0"/>
      <psa30 value="0.0117745356" flag="0"/>
    </comp>
  </station>
  <station code="XOR" name="XOR" netid="HT" insttype="Compact," lat="39.366" lon="23.1918">
    <comp name="--.HHE">
      <acc value="0.0348761317" flag="0"/>
      <vel value="0.0183357579" flag="0"/>
      <psa03 value="0.0762608987" flag="0"/>
      <psa10 value="0.0125443838" flag="0"/>
      <psa30 value="0.0021932378" flag="0"/>
    </comp>
    <comp name="--.HHN">
      <acc value="0.0641253097" flag="0"/>
      <vel value="0.0270345294" flag="0"/>
      <psa03 value="0.1287133064" flag="0"/>
      <psa10 value="0.0278270521" flag="0"/>
      <psa30 value="0.0022863484" flag="0"/>
    </comp>
    <comp name="--.HHZ">
      <acc value="0.0377961121" flag="0"/>
      <vel value="0.0130235548" flag="0"/>
      <psa03 value="0.0829578411" flag="0"/>
      <psa10 value="0.0090674497" flag="0"/>
      <psa30 value="0.0015361058" flag="0"/>
    </comp>
  </station>
  <station code="THL" name="THL" netid="MN" insttype="" lat="39.5647" lon="22.0144">
    <comp name="--.HHZ">
      <acc value="0.1656007234" flag="0"/>
      <vel value="0.0466693136" flag="0"/>
      <psa03 value="0.1322003447" flag="0"/>
      <psa10 value="0.0409019637" flag="0"/>
      <psa30 value="0.0065082809" flag="0"/>
    </comp>
    <comp name="--.HHE">
      <acc value="0.1025749849" flag="0"/>
      <vel value="0.0320699177" flag="0"/>
      <psa03 value="0.1629087196" flag="0"/>
      <psa10 value="0.0280475795" flag="0"/>
      <psa30 value="0.0024323481" flag="0"/>
    </comp>
    <comp name="--.HHN">
      <acc value="0.1389384244" flag="0"/>
      <vel value="0.0437779086" flag="0"/>
      <psa03 value="0.0990833851" flag="0"/>
      <psa10 value="0.0395501266" flag="0"/>
      <psa30 value="0.0079670384" flag="0"/>
    </comp>
  </station>
</stationlist>
