<?xml version="1.0" encoding="UTF-8" standalone="yes"?>
<!DOCTYPE earthquake SYSTEM "stationlist.dtd">
<stationlist created="" xmlns="ch.ethz.sed.shakemap.usgs.xml">
  <station code="AKS" name="AKS" netid="KO" insttype="CMG-5T" commtype="DIG" lat="38.8785" lon="27.8129">
    <comp name="--.HNZ">
      <acc value="0.1078309903" flag="0"/>
      <vel value="0.0173226164" flag="0"/>
      <psa03 value="0.0746386322" flag="0"/>
      <psa10 value="0.0082070430" flag="0"/>
      <psa30 value="0.0007816717" flag="0"/>
    </comp>
    <comp name="--.HNN">
      <acc value="0.1987097755" flag="0"/>
      <vel value="0.0485300132" flag="0"/>
      <psa03 value="0.1311748581" flag="0"/>
      <psa10 value="0.0165728188" flag="0"/>
      <psa30 value="0.0012180380" flag="0"/>
    </comp>
    <comp name="--.HNE">
      <acc value="0.1275383844" flag="0"/>
      <vel value="0.0308504968" flag="0"/>
      <psa03 value="0.1924989426" flag="0"/>
      <psa10 value="0.0103845088" flag="0"/>
      <psa30 value="0.0010871430" flag="0"/>
    </comp>
  </station>
  <station code="BALB" name="BALB" netid="KO" insttype="CMG-5T" commtype="DIG" lat="39.6507" lon="27.8642">
    <comp name="--.HNN">
      <acc value="0.0427967718" flag="0"/>
      <vel value="0.0129907145" flag="0"/>
      <psa03 value="0.0597932294" flag="0"/>
      <psa10 value="0.0117778850" flag="0"/>
      <psa30 value="0.0010009507" flag="0"/>
    </comp>
    <comp name="--.HNE">
      <acc value="0.0426432042" flag="0"/>
      <vel value="0.0126315557" flag="0"/>
      <psa03 value="0.0842892160" flag="0"/>
      <psa10 value="0.0138874133" flag="0"/>
      <psa30 value="0.0007485951" flag="0"/>
    </comp>
    <comp name="--.HNZ">
      <acc value="0.0333492340" flag="0"/>
      <vel value="0.0069348268" flag="0"/>
      <psa03 value="0.0349053779" flag="0"/>
      <psa10 value="0.0071341331" flag="0"/>
      <psa30 value="0.0005287788" flag="0"/>
    </comp>
  </station>
  <station code="GOMA" name="GOMA" netid="KO" insttype="CMG-5T" commtype="DIG" lat="38.7077" lon="27.9175">
    <comp name="--.HNE">
      <acc value="0.1202999980" flag="0"/>
      <vel value="0.0548146650" flag="0"/>
      <psa03 value="0.2489788263" flag="0"/>
      <psa10 value="0.0224077726" flag="0"/>
      <psa30 value="0.0014959767" flag="0"/>
    </comp>
    <comp name="--.HNZ">
      <acc value="0.1343107233" flag="0"/>
      <vel value="0.0331601863" flag="0"/>
      <psa03 value="0.1385191619" flag="0"/>
      <psa10 value="0.0091826700" flag="0"/>
      <psa30 value="0.0010461889" flag="0"/>
    </comp>
  </station>
  <station code="GONE" name="GONE" netid="KO" insttype="CMG-5T" commtype="DIG" lat="40.0466" lon="27.686">
    <comp name="--.HNE">
      <acc value="0.0200653695" flag="0"/>
      <vel value="0.0085415768" flag="0"/>
      <psa03 value="0.0522132654" flag="0"/>
      <psa10 value="0.0129772411" flag="0"/>
      <psa30 value="0.0005862738" flag="0"/>
    </comp>
    <comp name="--.HNN">
      <acc value="0.0482780712" flag="0"/>
      <vel value="0.0240801429" flag="0"/>
      <psa03 value="0.2075296269" flag="0"/>
      <psa10 value="0.0162241837" flag="0"/>
      <psa30 value="0.0012614843" flag="0"/>
    </comp>
    <comp name="--.HNZ">
      <acc value="0.0144098089" flag="0"/>
      <vel value="0.0043210697" flag="0"/>
      <psa03 value="0.0294203439" flag="0"/>
      <psa10 value="0.0029014984" flag="0"/>
      <psa30 value="0.0003021026" flag="0"/>
    </comp>
  </station>
  <station code="GORD" name="GORD" netid="KO" insttype="CMG-5T" commtype="DIG" lat="38.9088" lon="28.1769">
    <comp name="--.HNN">
      <acc value="0.1359006079" flag="0"/>
      <vel value="0.0631116705" flag="0"/>
      <psa03 value="0.1961488352" flag="0"/>
      <psa10 value="0.0584561124" flag="0"/>
      <psa30 value="0.0032790843" flag="0"/>
    </comp>
    <comp name="--.HNE">
      <acc value="0.1229156762" flag="0"/>
      <vel value="0.0588989831" flag="0"/>
      <psa03 value="0.2038851517" flag="0"/>
      <psa10 value="0.0695644450" flag="0"/>
      <psa30 value="0.0032564763" flag="0"/>
    </comp>
    <comp name="--.HNZ">
      <acc value="0.2574615006" flag="0"/>
      <vel value="0.0429073382" flag="0"/>
      <psa03 value="0.2127864801" flag="0"/>
      <psa10 value="0.0279522352" flag="0"/>
      <psa30 value="0.0038388028" flag="0"/>
    </comp>
  </station>
  <station code="KCTX" name="KCTX" netid="KO" insttype="CMG-3ESP" commtype="DIG" lat="40.2626" lon="28.3353">
    <comp name="--.HHN">
      <acc value="0.0264839698" flag="0"/>
      <vel value="0.0119774874" flag="0"/>
      <psa03 value="0.0803366193" flag="0"/>
      <psa10 value="0.0093623488" flag="0"/>
      <psa30 value="0.0005999824" flag="0"/>
    </comp>
    <comp name="--.HHZ">
      <acc value="0.0231945039" flag="0"/>
      <vel value="0.0095132122" flag="0"/>
      <psa03 value="0.0576552982" flag="0"/>
      <psa10 value="0.0062124684" flag="0"/>
      <psa30 value="0.0005769846" flag="0"/>
    </comp>
    <comp name="--.HHE">
      <acc value="0.0196625094" flag="0"/>
      <vel value="0.0152073415" flag="0"/>
      <psa03 value="0.0398121677" flag="0"/>
      <psa10 value="0.0159216587" flag="0"/>
      <psa30 value="0.0009160326" flag="0"/>
    </comp>
  </station>
  <station code="KULA" name="KULA" netid="KO" insttype="CMG-3T" commtype="DIG" lat="38.5145" lon="28.6607">
    <comp name="--.HHE">
      <acc value="0.0443053171" flag="0"/>
      <vel value="0.0117353631" flag="0"/>
      <psa03 value="0.0600151074" flag="0"/>
      <psa10 value="0.0120125077" flag="0"/>
      <psa30 value="0.0006574002" flag="0"/>
    </comp>
  </station>
  <station code="ORLT" name="ORLT" netid="KO" insttype="CMG-5T" commtype="DIG" lat="40.0452" lon="28.8914">
    <comp name="--.HNN">
      <acc value="0.0819259900" flag="0"/>
      <vel value="0.0392781336" flag="0"/>
      <psa03 value="0.3823774495" flag="0"/>
      <psa10 value="0.0392931015" flag="0"/>
      <psa30 value="0.0019534577" flag="0"/>
    </comp>
    <comp name="--.HNZ">
      <acc value="0.0230292754" flag="0"/>
      <vel value="0.0179207826" flag="0"/>
      <psa03 value="0.1087036252" flag="0"/>
      <psa10 value="0.0238259755" flag="0"/>
      <psa30 value="0.0009873725" flag="0"/>
    </comp>
    <comp name="--.HNE">
      <acc value="0.0954653628" flag="0"/>
      <vel value="0.0398842522" flag="0"/>
      <psa03 value="0.2434165653" flag="0"/>
      <psa10 value="0.0326650534" flag="0"/>
      <psa30 value="0.0018657290" flag="0"/>
    </comp>
  </station>
  <station code="SHAP" name="SHAP" netid="KO" insttype="CMG-5T" commtype="DIG" lat="39.0231" lon="29.222">
    <comp name="--.HNZ">
      <acc value="0.0862053155" flag="0"/>
      <vel value="0.0202284265" flag="0"/>
      <psa03 value="0.0833758741" flag="0"/>
      <psa10 value="0.0075275304" flag="0"/>
      <psa30 value="0.0005020596" flag="0"/>
    </comp>
    <comp name="--.HNE">
      <acc value="0.1070045415" flag="0"/>
      <vel value="0.0356975492" flag="0"/>
      <psa03 value="0.3100164430" flag="0"/>
      <psa10 value="0.0125223065" flag="0"/>
      <psa30 value="0.0009594605" flag="0"/>
    </comp>
    <comp name="--.HNN">
      <acc value="0.1121117770" flag="0"/>
      <vel value="0.0384232167" flag="0"/>
      <psa03 value="0.2658308296" flag="0"/>
      <psa10 value="0.0160914157" flag="0"/>
      <psa30 value="0.0010977560" flag="0"/>
    </comp>
  </station>
  <station code="SIMA" name="SIMA" netid="KO" insttype="CMG-6T" commtype="DIG" lat="39.0833" lon="28.9825">
    <comp name="--.HHE">
      <acc value="0.0900031139" flag="0"/>
      <vel value="0.0261437658" flag="0"/>
      <psa03 value="0.1877898641" flag="0"/>
      <psa10 value="0.0076122895" flag="0"/>
      <psa30 value="0.0006175168" flag="0"/>
    </comp>
    <comp name="--.HHN">
      <acc value="0.0991382805" flag="0"/>
      <vel value="0.0402006189" flag="0"/>
      <psa03 value="0.3099448242" flag="0"/>
      <psa10 value="0.0135671467" flag="0"/>
      <psa30 value="0.0011106960" flag="0"/>
    </comp>
    <comp name="--.HHZ">
      <acc value="0.0488643193" flag="0"/>
      <vel value="0.0196609943" flag="0"/>
      <psa03 value="0.1054206734" flag="0"/>
      <psa10 value="0.0062120079" flag="0"/>
      <psa30 value="0.0005771538" flag="0"/>
    </comp>
  </station>
  <station code="SMAA" name="SMAA" netid="KO" insttype="CMG-5T" commtype="DIG" lat="39.1005" lon="28.9805">
    <comp name="--.HNZ">
      <acc value="0.0447442344" flag="0"/>
      <vel value="0.0158654061" flag="0"/>
      <psa03 value="0.1041570696" flag="0"/>
      <psa10 value="0.0194168648" flag="0"/>
      <psa30 value="0.0011875063" flag="0"/>
    </comp>
    <comp name="--.HNE">
      <acc value="0.0840909918" flag="0"/>
      <vel value="0.0495246498" flag="0"/>
      <psa03 value="0.2828890378" flag="0"/>
      <psa10 value="0.0298614215" flag="0"/>
      <psa30 value="0.0026779541" flag="0"/>
    </comp>
    <comp name="--.HNN">
      <acc value="0.0977243449" flag="0"/>
      <vel value="0.0379230007" flag="0"/>
      <psa03 value="0.2848137412" flag="0"/>
      <psa10 value="0.0377497507" flag="0"/>
      <psa30 value="0.0024865993" flag="0"/>
    </comp>
  </station>
  <station code="SOMA" name="SOMA" netid="KO" insttype="CMG-5T" commtype="DIG" lat="39.1564" lon="27.5341">
    <comp name="--.HNE">
      <acc value="0.0698156958" flag="0"/>
      <vel value="0.0226718196" flag="0"/>
      <psa03 value="0.1157564862" flag="0"/>
      <psa10 value="0.0103425675" flag="0"/>
      <psa30 value="0.0005938912" flag="0"/>
    </comp>
    <comp name="--.HNN">
      <acc value="0.0743178958" flag="0"/>
      <vel value="0.0228461963" flag="0"/>
      <psa03 value="0.0678830016" flag="0"/>
      <psa10 value="0.0244198235" flag="0"/>
      <psa30 value="0.0010512022" flag="0"/>
    </comp>
    <comp name="--.HNZ">
      <acc value="0.0682452842" flag="0"/>
      <vel value="0.0173628720" flag="0"/>
      <psa03 value="0.0468433596" flag="0"/>
      <psa10 value="0.0123455653" flag="0"/>
      <psa30 value="0.0007009335" flag="0"/>
    </comp>
  </station>
  <station code="SUSR" name="SUSR" netid="KO" insttype="CMG-5T" commtype="DIG" lat="39.9627" lon="28.0835">
    <comp name="--.HNE">
      <acc value="0.0347825226" flag="0"/>
      <vel value="0.0109105468" flag="0"/>
      <psa03 value="0.1013742247" flag="0"/>
      <psa10 value="0.0059047606" flag="0"/>
      <psa30 value="0.0004267802" flag="0"/>
    </comp>
    <comp name="--.HNN">
      <acc value="0.0381946927" flag="0"/>
      <vel value="0.0102836178" flag="0"/>
      <psa03 value="0.0661224026" flag="0"/>
      <psa10 value="0.0052210308" flag="0"/>
      <psa30 value="0.0003881094" flag="0"/>
    </comp>
    <comp name="--.HNZ">
      <acc value="0.0321885502" flag="0"/>
      <vel value="0.0075889110" flag="0"/>
      <psa03 value="0.0489655681" flag="0"/>
      <psa10 value="0.0029755373" flag="0"/>
      <psa30 value="0.0002702561" flag="0"/>
    </comp>
  </station>
  <station code="TVSB" name="TVSB" netid="KO" insttype="CMG-3T" commtype="DIG" lat="39.4497" lon="29.4615">
    <comp name="--.HHZ">
      <acc value="0.0317206471" flag="0"/>
      <vel value="0.0139692128" flag="0"/>
      <psa03 value="0.0649828869" flag="0"/>
      <psa10 value="0.0111028557" flag="0"/>
      <psa30 value="0.0006539230" flag="0"/>
    </comp>
    <comp name="--.HHE">
      <acc value="0.0925694689" flag="0"/>
      <vel value="0.0602790096" flag="0"/>
      <psa03 value="0.2623326155" flag="0"/>
      <psa10 value="0.0292923537" flag="0"/>
      <psa30 value="0.0018941209" flag="0"/>
    </comp>
    <comp name="--.HHN">
      <acc value="0.0791474045" flag="0"/>
      <vel value="0.0339569732" flag="0"/>
      <psa03 value="0.1816040207" flag="0"/>
      <psa10 value="0.0172393613" flag="0"/>
      <psa30 value="0.0010850240" flag="0"/>
    </comp>
  </station>
  <station code="YAYO" name="YAYO" netid="KO" insttype="CMG-6T" commtype="DIG" lat="39.6113" lon="27.0726">
    <comp name="--.HHE">
      <acc value="0.0130860517" flag="0"/>
      <vel value="0.0065926251" flag="0"/>
      <psa03 value="0.0485672538" flag="0"/>
      <psa10 value="0.0064866436" flag="0"/>
      <psa30 value="0.0003669177" flag="0"/>
    </comp>
    <comp name="--.HHN">
      <acc value="0.0154781643" flag="0"/>
      <vel value="0.0077714188" flag="0"/>
      <psa03 value="0.0464277124" flag="0"/>
      <psa10 value="0.0050605830" flag="0"/>
      <psa30 value="0.0004229752" flag="0"/>
    </comp>
    <comp name="--.HHZ">
      <acc value="0.0136985230" flag="0"/>
      <vel value="0.0038420952" flag="0"/>
      <psa03 value="0.0259849740" flag="0"/>
      <psa10 value="0.0022023069" flag="0"/>
      <psa30 value="0.0001950367" flag="0"/>
    </comp>
  </station>
  <station code="YENI" name="YENI" netid="KO" insttype="CMG-5T" commtype="DIG" lat="39.9364" lon="27.2422">
    <comp name="--.HNZ">
      <acc value="0.0128284891" flag="0"/>
      <vel value="0.0031557478" flag="0"/>
      <psa03 value="0.0232912552" flag="0"/>
      <psa10 value="0.0046999617" flag="0"/>
      <psa30 value="0.0004305050" flag="0"/>
    </comp>
    <comp name="--.HNE">
      <acc value="0.0236418336" flag="0"/>
      <vel value="0.0114587697" flag="0"/>
      <psa03 value="0.0597488033" flag="0"/>
      <psa10 value="0.0123199519" flag="0"/>
      <psa30 value="0.0007144708" flag="0"/>
    </comp>
    <comp name="--.HNN">
      <acc value="0.0312046515" flag="0"/>
      <vel value="0.0134976547" flag="0"/>
      <psa03 value="0.0649480187" flag="0"/>
      <psa10 value="0.0107480646" flag="0"/>
      <psa30 value="0.0004266433" flag="0"/>
    </comp>
  </station>
</stationlist>
