<stationlist xmlns:esm="https://esm-db.eu/esmws/shakemap/1/" created="1784685251">
	<station code="AME" name="AME" netid="IT" source="Italian Strong Motion Network (RAN)" insttype="" lat="42.5597" lon="12.414" esm:processing="manual (Paolucci et al 2011)" esm:quality="good">
		<comp name="--.HGE" depth="0.0">
			<acc value="0.022283736" flag="0"/>
			<vel value="0.022914" flag="0"/>
			<psa03 value="0.0349436633688702" flag="0"/>
			<psa10 value="0.0340707429177478" flag="0"/>
			<psa30 value="0.00982807310576957" flag="0"/>
		</comp>
		<comp name="--.HGN" depth="0.0">
			<acc value="0.02701776" flag="0"/>
			<vel value="0.031717" flag="0"/>
			<psa03 value="0.0791489635077227" flag="0"/>
			<psa10 value="0.0386894809069519" flag="0"/>
			<psa30 value="0.00694533273335432" flag="0"/>
		</comp>
		<comp name="--.HGZ" depth="0.0">
			<acc value="0.011258964" flag="0"/>
			<vel value="0.023733" flag="0"/>
			<psa03 value="0.0285455278224574" flag="0"/>
			<psa10 value="0.0171259744272759" flag="0"/>
			<psa30 value="0.00981867724237973" flag="0"/>
		</comp>
	</station>
	<station code="ANB" name="ANB" netid="IT" source="Italian Strong Motion Network (RAN)" insttype="" lat="43.5922" lon="13.5074" esm:processing="manual (Paolucci et al 2011)" esm:quality="good">
		<comp name="--.HGE" depth="0.0">
			<acc value="1.930381008" flag="0"/>
			<vel value="0.953931" flag="0"/>
			<psa03 value="4.29592296845336" flag="0"/>
			<psa10 value="0.828582266629973" flag="0"/>
			<psa30 value="0.118659911328186" flag="0"/>
		</comp>
		<comp name="--.HGN" depth="0.0">
			<acc value="2.3325921" flag="0"/>
			<vel value="1.045709" flag="0"/>
			<psa03 value="4.74934049032293" flag="0"/>
			<psa10 value="1.33777094904921" flag="0"/>
			<psa30 value="0.11737133577758" flag="0"/>
		</comp>
		<comp name="--.HGZ" depth="0.0">
			<acc value="0.8515215" flag="0"/>
			<vel value="0.594581" flag="0"/>
			<psa03 value="2.65321285246352" flag="0"/>
			<psa10 value="0.533631349894804" flag="0"/>
			<psa30 value="0.158835280916931" flag="0"/>
		</comp>
	</station>
	<station code="ATI" name="ATI" netid="IT" source="Italian Strong Motion Network (RAN)" insttype="" lat="41.6219" lon="13.7948" esm:processing="manual (Paolucci et al 2011)" esm:quality="bad">
		<comp name="--.HGE" depth="0.0">
			<acc value="0.011909112" flag="0"/>
			<vel value="0.02864" flag="0"/>
			<psa03 value="0.0301115050540969" flag="0"/>
			<psa10 value="0.0278654462818596" flag="0"/>
			<psa30 value="0.0106745956549873" flag="0"/>
		</comp>
		<comp name="--.HGN" depth="0.0">
			<acc value="0.01753431" flag="0"/>
			<vel value="0.023927" flag="0"/>
			<psa03 value="0.0304247005004248" flag="0"/>
			<psa10 value="0.0266453263073794" flag="0"/>
			<psa30 value="0.00982136177477683" flag="0"/>
		</comp>
		<comp name="--.HGZ" depth="0.0">
			<acc value="0.008207736" flag="0"/>
			<vel value="0.027272" flag="0"/>
			<psa03 value="0.018612757953201" flag="0"/>
			<psa10 value="0.0145729841176373" flag="0"/>
			<psa30 value="0.013778809950163" flag="0"/>
		</comp>
	</station>
	<station code="BGR" name="BGR" netid="IT" source="Italian Strong Motion Network (RAN)" insttype="" lat="43.8895" lon="11.9912" esm:processing="manual (Paolucci et al 2011)" esm:quality="best">
		<comp name="--.HGE" depth="0.0">
			<acc value="0.014991348" flag="0"/>
			<vel value="0.014964" flag="0"/>
			<psa03 value="0.0459949884035834" flag="0"/>
			<psa10 value="0.017170269211828" flag="0"/>
			<psa30 value="0.00483215831477335" flag="0"/>
		</comp>
		<comp name="--.HGN" depth="0.0">
			<acc value="0.014242668" flag="0"/>
			<vel value="0.020581" flag="0"/>
			<psa03 value="0.0621021827861612" flag="0"/>
			<psa10 value="0.0170937600385107" flag="0"/>
			<psa30 value="0.0075672494053483" flag="0"/>
		</comp>
		<comp name="--.HGZ" depth="0.0">
			<acc value="0.008456004" flag="0"/>
			<vel value="0.019918" flag="0"/>
			<psa03 value="0.0226842987554638" flag="0"/>
			<psa10 value="0.0203594936995784" flag="0"/>
			<psa30 value="0.00859363562517145" flag="0"/>
		</comp>
	</station>
	<station code="CCT" name="CCT" netid="IT" source="Italian Strong Motion Network (RAN)" insttype="" lat="43.3683" lon="12.2346" esm:processing="manual (Paolucci et al 2011)" esm:quality="good">
		<comp name="--.HGE" depth="0.0">
			<acc value="0.116930148" flag="0"/>
			<vel value="0.10182" flag="0"/>
			<psa03 value="0.255701710823423" flag="0"/>
			<psa10 value="0.182264984834655" flag="0"/>
			<psa30 value="0.0174986770084061" flag="0"/>
		</comp>
		<comp name="--.HGN" depth="0.0">
			<acc value="0.068537574" flag="0"/>
			<vel value="0.062543" flag="0"/>
			<psa03 value="0.192749426111515" flag="0"/>
			<psa10 value="0.10387932337184" flag="0"/>
			<psa30 value="0.0195447381170596" flag="0"/>
		</comp>
		<comp name="--.HGZ" depth="0.0">
			<acc value="0.040853754" flag="0"/>
			<vel value="0.03932" flag="0"/>
			<psa03 value="0.0907371950218551" flag="0"/>
			<psa10 value="0.0455511457139301" flag="0"/>
			<psa30 value="0.00583617343128737" flag="0"/>
		</comp>
	</station>
	<station code="CLF" name="CLF" netid="IT" source="Italian Strong Motion Network (RAN)" insttype="" lat="43.0367" lon="12.9204" esm:processing="manual (Paolucci et al 2011)" esm:quality="good">
		<comp name="--.HGE" depth="0.0">
			<acc value="0.135204978" flag="0"/>
			<vel value="0.157186" flag="0"/>
			<psa03 value="0.314582454733069" flag="0"/>
			<psa10 value="0.383729745373343" flag="0"/>
			<psa30 value="0.0246627991321238" flag="0"/>
		</comp>
		<comp name="--.HGN" depth="0.0">
			<acc value="0.119194446" flag="0"/>
			<vel value="0.122972" flag="0"/>
			<psa03 value="0.487555825519307" flag="0"/>
			<psa10 value="0.346896618618983" flag="0"/>
			<psa30 value="0.0131967138420593" flag="0"/>
		</comp>
		<comp name="--.HGZ" depth="0.0">
			<acc value="0.107231682" flag="0"/>
			<vel value="0.085717" flag="0"/>
			<psa03 value="0.397087083737162" flag="0"/>
			<psa10 value="0.0930955567327042" flag="0"/>
			<psa30 value="0.0137219873477578" flag="0"/>
		</comp>
	</station>
	<station code="CSC" name="CSC" netid="IT" source="Italian Strong Motion Network (RAN)" insttype="" lat="42.719" lon="13.0122" esm:processing="manual (Paolucci et al 2011)" esm:quality="good">
		<comp name="--.HGE" depth="0.0">
			<acc value="0.090996036" flag="0"/>
			<vel value="0.065593" flag="0"/>
			<psa03 value="0.218699905950112" flag="0"/>
			<psa10 value="0.074761542726735" flag="0"/>
			<psa30 value="0.0173814524270662" flag="0"/>
		</comp>
		<comp name="--.HGN" depth="0.0">
			<acc value="0.07079769" flag="0"/>
			<vel value="0.04992" flag="0"/>
			<psa03 value="0.226350823281837" flag="0"/>
			<psa10 value="0.0544262098187305" flag="0"/>
			<psa30 value="0.0115672026770218" flag="0"/>
		</comp>
		<comp name="--.HGZ" depth="0.0">
			<acc value="0.052286526" flag="0"/>
			<vel value="0.036093" flag="0"/>
			<psa03 value="0.114584791149394" flag="0"/>
			<psa10 value="0.0441216322124763" flag="0"/>
			<psa30 value="0.0112302938611862" flag="0"/>
		</comp>
	</station>
	<station code="CSN" name="CSN" netid="IT" source="Italian Strong Motion Network (RAN)" insttype="" lat="44.137" lon="12.2414" esm:processing="manual (Paolucci et al 2011)" esm:quality="best">
		<comp name="--.HGE" depth="0.0">
			<acc value="0.041889054" flag="0"/>
			<vel value="0.035113" flag="0"/>
			<psa03 value="0.104294083627191" flag="0"/>
			<psa10 value="0.0341351716952781" flag="0"/>
			<psa30 value="0.00807015180773767" flag="0"/>
		</comp>
		<comp name="--.HGN" depth="0.0">
			<acc value="0.041470956" flag="0"/>
			<vel value="0.030592" flag="0"/>
			<psa03 value="0.0985670811800527" flag="0"/>
			<psa10 value="0.0211326390299421" flag="0"/>
			<psa30 value="0.00893770319406596" flag="0"/>
		</comp>
		<comp name="--.HGZ" depth="0.0">
			<acc value="0.016168938" flag="0"/>
			<vel value="0.016234" flag="0"/>
			<psa03 value="0.0435789092461967" flag="0"/>
			<psa10 value="0.0199568138400139" flag="0"/>
			<psa30 value="0.00562856959257859" flag="0"/>
		</comp>
	</station>
	<station code="CSS" name="CSS" netid="IT" source="Italian Strong Motion Network (RAN)" insttype="" lat="41.4858" lon="13.8231" esm:processing="manual (Paolucci et al 2011)" esm:quality="bad">
		<comp name="--.HGE" depth="0.0">
			<acc value="0.012968382" flag="0"/>
			<vel value="0.025602" flag="0"/>
			<psa03 value="0.0311853180129354" flag="0"/>
			<psa10 value="0.0199487602428226" flag="0"/>
			<psa30 value="0.0126249084414777" flag="0"/>
		</comp>
		<comp name="--.HGN" depth="0.0">
			<acc value="0.016028994" flag="0"/>
			<vel value="0.023508" flag="0"/>
			<psa03 value="0.0704242332171598" flag="0"/>
			<psa10 value="0.0141179558763295" flag="0"/>
			<psa30 value="0.0100455202299344" flag="0"/>
		</comp>
		<comp name="--.HGZ" depth="0.0">
			<acc value="0.007960386" flag="0"/>
			<vel value="0.028026" flag="0"/>
			<psa03 value="0.0151228658369759" flag="0"/>
			<psa10 value="0.00926163676998225" flag="0"/>
			<psa30 value="0.0147716395150224" flag="0"/>
		</comp>
	</station>
	<station code="CTS" name="CTS" netid="IT" source="Italian Strong Motion Network (RAN)" insttype="" lat="43.4919" lon="12.2233" esm:processing="manual (Paolucci et al 2011)" esm:quality="good">
		<comp name="--.HGE" depth="0.0">
			<acc value="0.059852784" flag="0"/>
			<vel value="0.060357" flag="0"/>
			<psa03 value="0.156955660816897" flag="0"/>
			<psa10 value="0.105200113311211" flag="0"/>
			<psa30 value="0.0173241824025948" flag="0"/>
		</comp>
		<comp name="--.HGN" depth="0.0">
			<acc value="0.04525689" flag="0"/>
			<vel value="0.049209" flag="0"/>
			<psa03 value="0.163085343123601" flag="0"/>
			<psa10 value="0.0548772112614427" flag="0"/>
			<psa30 value="0.0250278955381288" flag="0"/>
		</comp>
		<comp name="--.HGZ" depth="0.0">
			<acc value="0.030051954" flag="0"/>
			<vel value="0.037027" flag="0"/>
			<psa03 value="0.0805807141195074" flag="0"/>
			<psa10 value="0.0627415489187363" flag="0"/>
			<psa30 value="0.00839542764985251" flag="0"/>
		</comp>
	</station>
	<station code="DUR" name="DUR" netid="IT" source="Italian Strong Motion Network (RAN)" insttype="" lat="41.6611" lon="14.4565" esm:processing="manual (Paolucci et al 2011)" esm:quality="bad">
		<comp name="--.HGE" depth="0.0">
			<acc value="0.0315435" flag="0"/>
			<vel value="0.067817" flag="0"/>
			<psa03 value="0.068992482605375" flag="0"/>
			<psa10 value="0.0809064373836884" flag="0"/>
			<psa30 value="0.0351736383108881" flag="0"/>
		</comp>
		<comp name="--.HGN" depth="0.0">
			<acc value="0.025497144" flag="0"/>
			<vel value="0.053602" flag="0"/>
			<psa03 value="0.0541380700081088" flag="0"/>
			<psa10 value="0.0578932834095804" flag="0"/>
			<psa30 value="0.0337964731911777" flag="0"/>
		</comp>
		<comp name="--.HGZ" depth="0.0">
			<acc value="0.00881382" flag="0"/>
			<vel value="0.019437" flag="0"/>
			<psa03 value="0.022057907862808" flag="0"/>
			<psa10 value="0.0220749099013229" flag="0"/>
			<psa30 value="0.0147667178722944" flag="0"/>
		</comp>
	</station>
	<station code="FOC" name="FOC" netid="IT" source="Italian Strong Motion Network (RAN)" insttype="" lat="43.0263" lon="12.8965" esm:processing="manual (Paolucci et al 2011)" esm:quality="best">
		<comp name="--.HGE" depth="0.0">
			<acc value="0.182327958" flag="0"/>
			<vel value="0.05901" flag="0"/>
			<psa03 value="0.337087784662059" flag="0"/>
			<psa10 value="0.0428974854394004" flag="0"/>
			<psa30 value="0.0127148402767805" flag="0"/>
		</comp>
		<comp name="--.HGN" depth="0.0">
			<acc value="0.1827432" flag="0"/>
			<vel value="0.067708" flag="0"/>
			<psa03 value="0.502454980323192" flag="0"/>
			<psa10 value="0.0636073106167999" flag="0"/>
			<psa30 value="0.0135313855475639" flag="0"/>
		</comp>
		<comp name="--.HGZ" depth="0.0">
			<acc value="0.078236142" flag="0"/>
			<vel value="0.028288" flag="0"/>
			<psa03 value="0.203174360253572" flag="0"/>
			<psa10 value="0.0362210533678219" flag="0"/>
			<psa30 value="0.0123296098777971" flag="0"/>
		</comp>
	</station>
	<station code="FOS" name="FOS" netid="IT" source="Italian Strong Motion Network (RAN)" insttype="" lat="43.0146" lon="12.8351" esm:processing="manual (Paolucci et al 2011)" esm:quality="best">
		<comp name="--.HGE" depth="0.0">
			<acc value="0.137351772" flag="0"/>
			<vel value="0.071502" flag="0"/>
			<psa03 value="0.322143887651557" flag="0"/>
			<psa10 value="0.0582114004986363" flag="0"/>
			<psa30 value="0.0213550077968349" flag="0"/>
		</comp>
		<comp name="--.HGN" depth="0.0">
			<acc value="0.144710154" flag="0"/>
			<vel value="0.065845" flag="0"/>
			<psa03 value="0.330152742636227" flag="0"/>
			<psa10 value="0.0587348843160701" flag="0"/>
			<psa30 value="0.0125412405151016" flag="0"/>
		</comp>
		<comp name="--.HGZ" depth="0.0">
			<acc value="0.07568757" flag="0"/>
			<vel value="0.037995" flag="0"/>
			<psa03 value="0.193689012450498" flag="0"/>
			<psa10 value="0.0297056932400692" flag="0"/>
			<psa30 value="0.0120374432685798" flag="0"/>
		</comp>
	</station>
	<station code="GNU" name="GNU" netid="IT" source="Italian Strong Motion Network (RAN)" insttype="" lat="42.8038" lon="12.5702" esm:processing="manual (Paolucci et al 2011)" esm:quality="good">
		<comp name="--.HGE" depth="0.0">
			<acc value="0.088193178" flag="0"/>
			<vel value="0.052965" flag="0"/>
			<psa03 value="0.291092796258476" flag="0"/>
			<psa10 value="0.0551550603645421" flag="0"/>
			<psa30 value="0.0164199424068395" flag="0"/>
		</comp>
		<comp name="--.HGN" depth="0.0">
			<acc value="0.0876333" flag="0"/>
			<vel value="0.059857" flag="0"/>
			<psa03 value="0.20916981594042" flag="0"/>
			<psa10 value="0.0715038626628586" flag="0"/>
			<psa30 value="0.016171175738042" flag="0"/>
		</comp>
		<comp name="--.HGZ" depth="0.0">
			<acc value="0.0337824" flag="0"/>
			<vel value="0.038217" flag="0"/>
			<psa03 value="0.0926611099064408" flag="0"/>
			<psa10 value="0.0260815745039892" flag="0"/>
			<psa30 value="0.0136709812322129" flag="0"/>
		</comp>
	</station>
	<station code="MCS" name="MCS" netid="IT" source="Italian Strong Motion Network (RAN)" insttype="" lat="43.9937" lon="12.1067" esm:processing="manual (Paolucci et al 2011)" esm:quality="best">
		<comp name="--.HGE" depth="0.0">
			<acc value="0.023621364" flag="0"/>
			<vel value="0.018393" flag="0"/>
			<psa03 value="0.0636234178111824" flag="0"/>
			<psa10 value="0.0192400436899892" flag="0"/>
			<psa30 value="0.00513685274184378" flag="0"/>
		</comp>
		<comp name="--.HGN" depth="0.0">
			<acc value="0.021307494" flag="0"/>
			<vel value="0.023807" flag="0"/>
			<psa03 value="0.101922746676423" flag="0"/>
			<psa10 value="0.0282963137315936" flag="0"/>
			<psa30 value="0.0100307553017503" flag="0"/>
		</comp>
		<comp name="--.HGZ" depth="0.0">
			<acc value="0.012732456" flag="0"/>
			<vel value="0.021814" flag="0"/>
			<psa03 value="0.0504244668587923" flag="0"/>
			<psa10 value="0.0125434776254325" flag="0"/>
			<psa30 value="0.00502186527083482" flag="0"/>
		</comp>
	</station>
	<station code="MCT" name="MCT" netid="IT" source="Italian Strong Motion Network (RAN)" insttype="" lat="43.2925" lon="13.4189" esm:processing="manual (Paolucci et al 2011)" esm:quality="good">
		<comp name="--.HGE" depth="0.0">
			<acc value="0.437303172" flag="0"/>
			<vel value="0.417777" flag="0"/>
			<psa03 value="1.26365414151985" flag="0"/>
			<psa10 value="0.520359021723559" flag="0"/>
			<psa30 value="0.14396386628115" flag="0"/>
		</comp>
		<comp name="--.HGN" depth="0.0">
			<acc value="0.490825836" flag="0"/>
			<vel value="0.400644" flag="0"/>
			<psa03 value="1.70069601576713" flag="0"/>
			<psa10 value="0.382791501300558" flag="0"/>
			<psa30 value="0.210357274104069" flag="0"/>
		</comp>
		<comp name="--.HGZ" depth="0.0">
			<acc value="0.370793154" flag="0"/>
			<vel value="0.268885" flag="0"/>
			<psa03 value="0.756322260675266" flag="0"/>
			<psa10 value="0.225516828550472" flag="0"/>
			<psa30 value="0.169159097672031" flag="0"/>
		</comp>
	</station>
	<station code="MMP1" name="MMP1" netid="IT" source="Italian Strong Motion Network (RAN)" insttype="" lat="42.2492" lon="12.7483" esm:processing="manual (Paolucci et al 2011)" esm:quality="best">
		<comp name="--.HGE" depth="0.0">
			<acc value="0.03482382" flag="0"/>
			<vel value="0.036845" flag="0"/>
			<psa03 value="0.112034485372152" flag="0"/>
			<psa10 value="0.0320009684395865" flag="0"/>
			<psa30 value="0.0124231210896293" flag="0"/>
		</comp>
		<comp name="--.HGN" depth="0.0">
			<acc value="0.030008706" flag="0"/>
			<vel value="0.033461" flag="0"/>
			<psa03 value="0.0872025606990117" flag="0"/>
			<psa10 value="0.0387176684971215" flag="0"/>
			<psa30 value="0.0107233646602012" flag="0"/>
		</comp>
		<comp name="--.HGZ" depth="0.0">
			<acc value="0.023252124" flag="0"/>
			<vel value="0.028232" flag="0"/>
			<psa03 value="0.0750326804988418" flag="0"/>
			<psa10 value="0.0175487882798185" flag="0"/>
			<psa30 value="0.00703571199072323" flag="0"/>
		</comp>
	</station>
	<station code="MOG" name="MOG" netid="IT" source="Italian Strong Motion Network (RAN)" insttype="" lat="44.1703" lon="11.7669" esm:processing="manual (Paolucci et al 2011)" esm:quality="best">
		<comp name="--.HGE" depth="0.0">
			<acc value="0.018625812" flag="0"/>
			<vel value="0.013739" flag="0"/>
			<psa03 value="0.0522588973301414" flag="0"/>
			<psa10 value="0.0169045005045154" flag="0"/>
			<psa30 value="0.00404961712101978" flag="0"/>
		</comp>
		<comp name="--.HGN" depth="0.0">
			<acc value="0.022436328" flag="0"/>
			<vel value="0.01832" flag="0"/>
			<psa03 value="0.0505139512720288" flag="0"/>
			<psa10 value="0.0227957068499433" flag="0"/>
			<psa30 value="0.00457578547085065" flag="0"/>
		</comp>
		<comp name="--.HGZ" depth="0.0">
			<acc value="0.00897294" flag="0"/>
			<vel value="0.011657" flag="0"/>
			<psa03 value="0.0266216129378717" flag="0"/>
			<psa10 value="0.00800124880954554" flag="0"/>
			<psa30 value="0.00423574470055179" flag="0"/>
		</comp>
	</station>
	<station code="PAN" name="PAN" netid="IT" source="Italian Strong Motion Network (RAN)" insttype="" lat="43.0058" lon="12.1436" esm:processing="manual (Paolucci et al 2011)" esm:quality="good">
		<comp name="--.HGE" depth="0.0">
			<acc value="0.01788162" flag="0"/>
			<vel value="0.025505" flag="0"/>
			<psa03 value="0.0474267390153681" flag="0"/>
			<psa10 value="0.0414115967576076" flag="0"/>
			<psa30 value="0.00637844897550082" flag="0"/>
		</comp>
		<comp name="--.HGN" depth="0.0">
			<acc value="0.01480326" flag="0"/>
			<vel value="0.034793" flag="0"/>
			<psa03 value="0.0363306717740367" flag="0"/>
			<psa10 value="0.029198316617018" flag="0"/>
			<psa30 value="0.00786657476762454" flag="0"/>
		</comp>
		<comp name="--.HGZ" depth="0.0">
			<acc value="0.013441968" flag="0"/>
			<vel value="0.023392" flag="0"/>
			<psa03 value="0.0254583155657966" flag="0"/>
			<psa10 value="0.0251070892438432" flag="0"/>
			<psa30 value="0.00865582729237085" flag="0"/>
		</comp>
	</station>
	<station code="RQT" name="RQT" netid="IT" source="Italian Strong Motion Network (RAN)" insttype="" lat="42.813" lon="13.311" esm:processing="manual (Paolucci et al 2011)" esm:quality="good">
		<comp name="--.HGE" depth="0.0">
			<acc value="0.241503156" flag="0"/>
			<vel value="0.075991" flag="0"/>
			<psa03 value="0.254851608897676" flag="0"/>
			<psa10 value="0.0405699958511179" flag="0"/>
			<psa30 value="0.0106124039877879" flag="0"/>
		</comp>
		<comp name="--.HGN" depth="0.0">
			<acc value="0.288186312" flag="0"/>
			<vel value="0.084715" flag="0"/>
			<psa03 value="0.2847841451253" flag="0"/>
			<psa10 value="0.0422048760809496" flag="0"/>
			<psa30 value="0.0156033971360561" flag="0"/>
		</comp>
		<comp name="--.HGZ" depth="0.0">
			<acc value="0.118315512" flag="0"/>
			<vel value="0.044845" flag="0"/>
			<psa03 value="0.133152806895977" flag="0"/>
			<psa10 value="0.0318197625027825" flag="0"/>
			<psa30 value="0.0109121767721303" flag="0"/>
		</comp>
	</station>
