<?xml version="1.0" encoding="UTF-8" standalone="yes"?>
<!DOCTYPE earthquake SYSTEM "stationlist.dtd">
<stationlist created="" xmlns="ch.ethz.sed.shakemap.usgs.xml">
  <station code="AOI" name="AOI" netid="IV" source="INGV" insttype="" lat="43.5502" lon="13.602">
    <comp name="--.HHE">
      <acc value="3.8839472942" flag="0"/>
      <vel value="0.5939941678" flag="0"/>
      <psa03 value="4.0477682257" flag="0"/>
      <psa10 value="0.6057012163" flag="0"/>
      <psa30 value="0.1452165680" flag="0"/>
    </comp>
    <comp name="--.HHN">
      <acc value="2.9754068567" flag="0"/>
      <vel value="0.5168795027" flag="0"/>
      <psa03 value="1.6046891750" flag="0"/>
      <psa10 value="0.4263613172" flag="0"/>
      <psa30 value="0.0565165730" flag="0"/>
    </comp>
    <comp name="--.HHZ">
      <acc value="1.7570823464" flag="0"/>
      <vel value="0.3978362770" flag="0"/>
      <psa03 value="2.2354275638" flag="0"/>
      <psa10 value="0.2853321854" flag="0"/>
      <psa30 value="0.0702923655" flag="0"/>
    </comp>
  </station>
  <station code="ARVD" name="ARVD" netid="IV" source="INGV" insttype="" lat="43.4981" lon="12.9415">
    <comp name="--.HHE">
      <acc value="0.0504333157" flag="0"/>
      <vel value="0.0251709883" flag="0"/>
      <psa03 value="0.0930952526" flag="0"/>
      <psa10 value="0.0240515719" flag="0"/>
      <psa30 value="0.0088801119" flag="0"/>
    </comp>
    <comp name="--.HHN">
      <acc value="0.0703754161" flag="0"/>
      <vel value="0.0191487947" flag="0"/>
      <psa03 value="0.0827464424" flag="0"/>
      <psa10 value="0.0268268879" flag="0"/>
      <psa30 value="0.0071364317" flag="0"/>
    </comp>
    <comp name="--.HHZ">
      <acc value="0.0467053508" flag="0"/>
      <vel value="0.0228957857" flag="0"/>
      <psa03 value="0.0985532015" flag="0"/>
      <psa10 value="0.0130756152" flag="0"/>
      <psa30 value="0.0060843845" flag="0"/>
    </comp>
  </station>
  <station code="ASSB" name="ASSB" netid="IV" source="INGV" insttype="" lat="43.0426" lon="12.6587">
    <comp name="--.HHZ">
      <acc value="0.0522991350" flag="0"/>
      <vel value="0.0268652246" flag="0"/>
      <psa03 value="0.1334140618" flag="0"/>
      <psa10 value="0.0325002463" flag="0"/>
      <psa30 value="0.0119476722" flag="0"/>
    </comp>
    <comp name="--.HHE">
      <acc value="0.1150384978" flag="0"/>
      <vel value="0.0592185098" flag="0"/>
      <psa03 value="0.2141068123" flag="0"/>
      <psa10 value="0.0569562016" flag="0"/>
      <psa30 value="0.0129311028" flag="0"/>
    </comp>
    <comp name="--.HHN">
      <acc value="0.0820119036" flag="0"/>
      <vel value="0.0370832426" flag="0"/>
      <psa03 value="0.2915566045" flag="0"/>
      <psa10 value="0.0422057043" flag="0"/>
      <psa30 value="0.0101637117" flag="0"/>
    </comp>
  </station>
  <station code="ATFO" name="ATFO" netid="IV" source="INGV" insttype="" lat="43.3666" lon="12.5715">
    <comp name="--.HHE">
      <acc value="0.0539203141" flag="0"/>
      <vel value="0.0432534199" flag="0"/>
      <psa03 value="0.1824613440" flag="0"/>
      <psa10 value="0.0616935149" flag="0"/>
      <psa30 value="0.0139225364" flag="0"/>
    </comp>
    <comp name="--.HHN">
      <acc value="0.0714764040" flag="0"/>
      <vel value="0.0394957297" flag="0"/>
      <psa03 value="0.2000266634" flag="0"/>
      <psa10 value="0.0381159044" flag="0"/>
      <psa30 value="0.0090243554" flag="0"/>
    </comp>
    <comp name="--.HHZ">
      <acc value="0.0292238073" flag="0"/>
      <vel value="0.0237724233" flag="0"/>
      <psa03 value="0.0850962254" flag="0"/>
      <psa10 value="0.0227082998" flag="0"/>
      <psa30 value="0.0077924848" flag="0"/>
    </comp>
  </station>
  <station code="ATLO" name="ATLO" netid="IV" source="INGV" insttype="" lat="43.3152" lon="12.4073">
    <comp name="--.HNE">
      <acc value="0.0290254192" flag="0"/>
      <vel value="0.0192853239" flag="0"/>
      <psa03 value="0.0760595035" flag="0"/>
      <psa10 value="0.0243509931" flag="0"/>
      <psa30 value="0.0077373125" flag="0"/>
    </comp>
    <comp name="--.HNN">
      <acc value="0.0274481115" flag="0"/>
      <vel value="0.0199818141" flag="0"/>
      <psa03 value="0.0715109831" flag="0"/>
      <psa10 value="0.0368439270" flag="0"/>
      <psa30 value="0.0069731247" flag="0"/>
    </comp>
    <comp name="--.HNZ">
      <acc value="0.0055192589" flag="0"/>
      <vel value="0.0041919816" flag="0"/>
      <psa03 value="0.0129516111" flag="0"/>
      <psa10 value="0.0037796729" flag="0"/>
      <psa30 value="0.0020334009" flag="0"/>
    </comp>
  </station>
  <station code="ATMI" name="ATMI" netid="IV" source="INGV" insttype="" lat="43.3342" lon="12.268">
    <comp name="--.HHE">
      <acc value="0.0347405011" flag="0"/>
      <vel value="0.0315218631" flag="0"/>
      <psa03 value="0.1177689849" flag="0"/>
      <psa10 value="0.0440568663" flag="0"/>
      <psa30 value="0.0109055784" flag="0"/>
    </comp>
    <comp name="--.HHN">
      <acc value="0.0490518922" flag="0"/>
      <vel value="0.0382272552" flag="0"/>
      <psa03 value="0.1746025827" flag="0"/>
      <psa10 value="0.0694252018" flag="0"/>
      <psa30 value="0.0101999767" flag="0"/>
    </comp>
    <comp name="--.HHZ">
      <acc value="0.0388440650" flag="0"/>
      <vel value="0.0407808622" flag="0"/>
      <psa03 value="0.0798041449" flag="0"/>
      <psa10 value="0.0566314056" flag="0"/>
      <psa30 value="0.0091572617" flag="0"/>
    </comp>
  </station>
  <station code="ATPC" name="ATPC" netid="IV" source="INGV" insttype="" lat="43.4807" lon="12.457">
    <comp name="--.HHE">
      <acc value="0.0510024015" flag="0"/>
      <vel value="0.0274395623" flag="0"/>
      <psa03 value="0.1776294535" flag="0"/>
      <psa10 value="0.0358452884" flag="0"/>
      <psa30 value="0.0063132096" flag="0"/>
    </comp>
    <comp name="--.HHN">
      <acc value="0.0451624591" flag="0"/>
      <vel value="0.0256798851" flag="0"/>
      <psa03 value="0.1341032051" flag="0"/>
      <psa10 value="0.0298768697" flag="0"/>
      <psa30 value="0.0077571799" flag="0"/>
    </comp>
    <comp name="--.HHZ">
      <acc value="0.0183852907" flag="0"/>
      <vel value="0.0149663916" flag="0"/>
      <psa03 value="0.0718566603" flag="0"/>
      <psa10 value="0.0172470364" flag="0"/>
      <psa30 value="0.0051553918" flag="0"/>
    </comp>
  </station>
  <station code="ATTE" name="ATTE" netid="IV" source="INGV" insttype="" lat="43.1979" lon="12.3536">
    <comp name="--.HHE">
      <acc value="0.0346894281" flag="0"/>
      <vel value="0.0349874038" flag="0"/>
      <psa03 value="0.1027047508" flag="0"/>
      <psa10 value="0.0517099593" flag="0"/>
      <psa30 value="0.0113740621" flag="0"/>
    </comp>
    <comp name="--.HHN">
      <acc value="0.0273101474" flag="0"/>
      <vel value="0.0285030785" flag="0"/>
      <psa03 value="0.0825912890" flag="0"/>
      <psa10 value="0.0261812199" flag="0"/>
      <psa30 value="0.0091507762" flag="0"/>
    </comp>
    <comp name="--.HHZ">
      <acc value="0.0254190863" flag="0"/>
      <vel value="0.0243978389" flag="0"/>
      <psa03 value="0.0781563570" flag="0"/>
      <psa10 value="0.0256623819" flag="0"/>
      <psa30 value="0.0065855926" flag="0"/>
    </comp>
  </station>
  <station code="ATVO" name="ATVO" netid="IV" source="INGV" insttype="" lat="43.3821" lon="12.4066">
    <comp name="--.HHE">
      <acc value="0.0321736829" flag="0"/>
      <vel value="0.0223167147" flag="0"/>
      <psa03 value="0.0823407850" flag="0"/>
      <psa10 value="0.0374293738" flag="0"/>
      <psa30 value="0.0052511496" flag="0"/>
    </comp>
    <comp name="--.HHN">
      <acc value="0.0223555902" flag="0"/>
      <vel value="0.0179449777" flag="0"/>
      <psa03 value="0.0745407119" flag="0"/>
      <psa10 value="0.0184419228" flag="0"/>
      <psa30 value="0.0054077218" flag="0"/>
    </comp>
    <comp name="--.HHZ">
      <acc value="0.0203207941" flag="0"/>
      <vel value="0.0140152270" flag="0"/>
      <psa03 value="0.0480318630" flag="0"/>
      <psa10 value="0.0155921256" flag="0"/>
      <psa30 value="0.0064229895" flag="0"/>
    </comp>
  </station>
  <station code="CADA" name="CADA" netid="IV" source="INGV" insttype="" lat="43.1942" lon="13.7614">
    <comp name="--.HNE">
      <acc value="3.1086647090" flag="0"/>
      <vel value="1.1494718778" flag="0"/>
      <psa03 value="6.8332922951" flag="0"/>
      <psa10 value="0.5856442709" flag="0"/>
      <psa30 value="0.1517470976" flag="0"/>
    </comp>
    <comp name="--.HNN">
      <acc value="1.6506910129" flag="0"/>
      <vel value="0.8548918724" flag="0"/>
      <psa03 value="4.2375187743" flag="0"/>
      <psa10 value="0.5938773344" flag="0"/>
      <psa30 value="0.1402230234" flag="0"/>
    </comp>
    <comp name="--.HNZ">
      <acc value="0.9612139789" flag="0"/>
      <vel value="0.3551126224" flag="0"/>
      <psa03 value="1.8429855219" flag="0"/>
      <psa10 value="0.2170708951" flag="0"/>
      <psa30 value="0.0833481579" flag="0"/>
    </comp>
  </station>
  <station code="CAFI" name="CAFI" netid="IV" source="INGV" insttype="" lat="43.3292" lon="11.9663">
    <comp name="--.HHE">
      <acc value="0.0154998493" flag="0"/>
      <vel value="0.0174296385" flag="0"/>
      <psa03 value="0.0401326953" flag="0"/>
      <psa10 value="0.0221667943" flag="0"/>
      <psa30 value="0.0059491801" flag="0"/>
    </comp>
    <comp name="--.HHN">
      <acc value="0.0151608325" flag="0"/>
      <vel value="0.0161943040" flag="0"/>
      <psa03 value="0.0386758275" flag="0"/>
      <psa10 value="0.0256039552" flag="0"/>
      <psa30 value="0.0053575722" flag="0"/>
    </comp>
    <comp name="--.HHZ">
      <acc value="0.0123019456" flag="0"/>
      <vel value="0.0156912725" flag="0"/>
      <psa03 value="0.0345742248" flag="0"/>
      <psa10 value="0.0175485530" flag="0"/>
      <psa30 value="0.0049224003" flag="0"/>
    </comp>
  </station>
  <station code="CAFR" name="CAFR" netid="IV" source="INGV" insttype="" lat="42.2273" lon="14.347">
    <comp name="--.HHE">
      <acc value="0.1481978183" flag="0"/>
      <vel value="0.1975104902" flag="0"/>
      <psa03 value="0.4954146120" flag="0"/>
      <psa10 value="0.2815372687" flag="0"/>
      <psa30 value="0.0459917143" flag="0"/>
    </comp>
    <comp name="--.HHN">
      <acc value="0.1348565213" flag="0"/>
      <vel value="0.2020911971" flag="0"/>
      <psa03 value="0.3805914467" flag="0"/>
      <psa10 value="0.2028293584" flag="0"/>
      <psa30 value="0.0878615293" flag="0"/>
    </comp>
    <comp name="--.HHZ">
      <acc value="0.0960262622" flag="0"/>
      <vel value="0.1079155095" flag="0"/>
      <psa03 value="0.3109995212" flag="0"/>
      <psa10 value="0.1553332267" flag="0"/>
      <psa30 value="0.0272300116" flag="0"/>
    </comp>
  </station>
  <station code="CDCA" name="CDCA" netid="IV" source="INGV" insttype="" lat="43.4584" lon="12.2336">
    <comp name="--.HNE">
      <acc value="0.0507260888" flag="0"/>
      <vel value="0.0383940219" flag="0"/>
      <psa03 value="0.1069133421" flag="0"/>
      <psa10 value="0.0778236652" flag="0"/>
      <psa30 value="0.0081942860" flag="0"/>
    </comp>
    <comp name="--.HNN">
      <acc value="0.0740121081" flag="0"/>
      <vel value="0.0647262866" flag="0"/>
      <psa03 value="0.2284237901" flag="0"/>
      <psa10 value="0.1268068726" flag="0"/>
      <psa30 value="0.0208295658" flag="0"/>
    </comp>
    <comp name="--.HNZ">
      <acc value="0.0351289256" flag="0"/>
      <vel value="0.0393667696" flag="0"/>
      <psa03 value="0.1033109117" flag="0"/>
      <psa10 value="0.0687901999" flag="0"/>
      <psa30 value="0.0051577665" flag="0"/>
    </comp>
  </station>
  <station code="CESI" name="CESI" netid="IV" source="INGV" insttype="" lat="43.0049" lon="12.9046">
    <comp name="--.HHE">
      <acc value="0.0279389301" flag="0"/>
      <vel value="0.0174527507" flag="0"/>
      <psa03 value="0.0956085444" flag="0"/>
      <psa10 value="0.0139281023" flag="0"/>
      <psa30 value="0.0025235566" flag="0"/>
    </comp>
    <comp name="--.HHN">
      <acc value="0.0541384103" flag="0"/>
      <vel value="0.0275169541" flag="0"/>
      <psa03 value="0.1989323879" flag="0"/>
      <psa10 value="0.0360845085" flag="0"/>
      <psa30 value="0.0087286409" flag="0"/>
    </comp>
    <comp name="--.HHZ">
      <acc value="0.0433805180" flag="0"/>
      <vel value="0.0201435452" flag="0"/>
      <psa03 value="0.0882421559" flag="0"/>
      <psa10 value="0.0162202947" flag="0"/>
      <psa30 value="0.0046418431" flag="0"/>
    </comp>
  </station>
  <station code="CESX" name="CESX" netid="IV" source="INGV" insttype="" lat="42.6085" lon="12.5868">
    <comp name="--.HHE">
      <acc value="0.0612772898" flag="0"/>
      <vel value="0.0501209892" flag="0"/>
      <psa03 value="0.1639889950" flag="0"/>
      <psa10 value="0.0845644570" flag="0"/>
      <psa30 value="0.0095700290" flag="0"/>
    </comp>
    <comp name="--.HHN">
      <acc value="0.0472001841" flag="0"/>
      <vel value="0.0466721721" flag="0"/>
      <psa03 value="0.1668373145" flag="0"/>
      <psa10 value="0.0784248915" flag="0"/>
      <psa30 value="0.0102010569" flag="0"/>
    </comp>
    <comp name="--.HHZ">
      <acc value="0.0225343062" flag="0"/>
      <vel value="0.0319705957" flag="0"/>
      <psa03 value="0.0521067043" flag="0"/>
      <psa10 value="0.0274448435" flag="0"/>
      <psa30 value="0.0147383323" flag="0"/>
    </comp>
  </station>
  <station code="CIMA" name="CIMA" netid="IV" source="INGV" insttype="" lat="43.3053" lon="13.6701">
    <comp name="--.HNE">
      <acc value="3.9049465877" flag="0"/>
      <vel value="1.7238916170" flag="0"/>
      <psa03 value="6.8566493073" flag="0"/>
      <psa10 value="1.5221910157" flag="0"/>
      <psa30 value="0.5200312590" flag="0"/>
    </comp>
    <comp name="--.HNN">
      <acc value="3.2709106441" flag="0"/>
      <vel value="2.3049747472" flag="0"/>
      <psa03 value="7.5555486256" flag="0"/>
      <psa10 value="1.6923067113" flag="0"/>
      <psa30 value="0.3841002832" flag="0"/>
    </comp>
    <comp name="--.HNZ">
      <acc value="1.9007784108" flag="0"/>
      <vel value="0.6996290660" flag="0"/>
      <psa03 value="1.8379752068" flag="0"/>
      <psa10 value="0.5785768918" flag="0"/>
      <psa30 value="0.7117479193" flag="0"/>
    </comp>
  </station>
  <station code="CING" name="CING" netid="IV" source="INGV" insttype="" lat="43.3756" lon="13.1954">
    <comp name="--.HHE">
      <acc value="0.0000000000" flag="0"/>
      <vel value="0.0000000000" flag="0"/>
    </comp>
    <comp name="--.HHN">
      <acc value="0.1857724117" flag="0"/>
      <vel value="0.0561522010" flag="0"/>
      <psa03 value="0.2006600958" flag="0"/>
      <psa10 value="0.0394976744" flag="0"/>
      <psa30 value="0.0187660658" flag="0"/>
    </comp>
    <comp name="--.HHZ">
      <acc value="0.1034336266" flag="0"/>
      <vel value="0.0647703629" flag="0"/>
      <psa03 value="0.1708374175" flag="0"/>
      <psa10 value="0.0792759284" flag="0"/>
      <psa30 value="0.0261133695" flag="0"/>
    </comp>
  </station>
  <station code="COR1" name="COR1" netid="IV" source="INGV" insttype="" lat="43.6318" lon="13.0003">
    <comp name="--.HNE">
      <acc value="0.1394304171" flag="0"/>
      <vel value="0.0968303410" flag="0"/>
      <psa03 value="0.3492939656" flag="0"/>
      <psa10 value="0.0854016977" flag="0"/>
      <psa30 value="0.0584655202" flag="0"/>
    </comp>
    <comp name="--.HNN">
      <acc value="0.1308493751" flag="0"/>
      <vel value="0.0969780964" flag="0"/>
      <psa03 value="0.2804773098" flag="0"/>
      <psa10 value="0.1264016354" flag="0"/>
      <psa30 value="0.0582844980" flag="0"/>
    </comp>
    <comp name="--.HNZ">
      <acc value="0.0702829951" flag="0"/>
      <vel value="0.0690160881" flag="0"/>
      <psa03 value="0.2570097976" flag="0"/>
      <psa10 value="0.0564003255" flag="0"/>
      <psa30 value="0.0281396032" flag="0"/>
    </comp>
  </station>
  <station code="CPGN" name="CPGN" netid="IV" source="INGV" insttype="" lat="43.8011" lon="12.3205">
    <comp name="--.HNE">
      <acc value="0.0352964065" flag="0"/>
      <vel value="0.0331145145" flag="0"/>
      <psa03 value="0.1240906938" flag="0"/>
      <psa10 value="0.0531999772" flag="0"/>
      <psa30 value="0.0141968706" flag="0"/>
    </comp>
    <comp name="--.HNN">
      <acc value="0.0213369442" flag="0"/>
      <vel value="0.0374590155" flag="0"/>
      <psa03 value="0.0571491763" flag="0"/>
      <psa10 value="0.0379080976" flag="0"/>
      <psa30 value="0.0133756108" flag="0"/>
    </comp>
    <comp name="--.HNZ">
      <acc value="0.0152087739" flag="0"/>
      <vel value="0.0243386534" flag="0"/>
      <psa03 value="0.0448754522" flag="0"/>
      <psa10 value="0.0337412165" flag="0"/>
      <psa30 value="0.0109188478" flag="0"/>
    </comp>
  </station>
  <station code="CRM1" name="CRM1" netid="IV" source="INGV" insttype="" lat="43.2101" lon="13.058">
    <comp name="--.HNE">
      <acc value="0.2619935147" flag="0"/>
      <vel value="0.1513657053" flag="0"/>
      <psa03 value="0.6602982135" flag="0"/>
      <psa10 value="0.0926089927" flag="0"/>
      <psa30 value="0.0198258093" flag="0"/>
    </comp>
    <comp name="--.HNN">
      <acc value="0.2127057688" flag="0"/>
      <vel value="0.1534010842" flag="0"/>
      <psa03 value="0.6130790266" flag="0"/>
      <psa10 value="0.0694004205" flag="0"/>
      <psa30 value="0.0322531445" flag="0"/>
    </comp>
    <comp name="--.HNZ">
      <acc value="0.1426776281" flag="0"/>
      <vel value="0.0644843891" flag="0"/>
      <psa03 value="0.2709348389" flag="0"/>
      <psa10 value="0.0509214905" flag="0"/>
      <psa30 value="0.0268392015" flag="0"/>
    </comp>
  </station>
  <station code="FAGN" name="FAGN" netid="IV" source="INGV" insttype="" lat="42.2657" lon="13.5838">
    <comp name="--.HHE">
      <acc value="0.2004225362" flag="0"/>
      <vel value="0.1496048297" flag="0"/>
      <psa03 value="0.4049651570" flag="0"/>
      <psa10 value="0.0768516021" flag="0"/>
      <psa30 value="0.0194640518" flag="0"/>
    </comp>
    <comp name="--.HHN">
      <acc value="0.1131721540" flag="0"/>
      <vel value="0.1018812404" flag="0"/>
      <psa03 value="0.2766626067" flag="0"/>
      <psa10 value="0.0496934988" flag="0"/>
      <psa30 value="0.0081519573" flag="0"/>
    </comp>
    <comp name="--.HHZ">
      <acc value="0.1151029492" flag="0"/>
      <vel value="0.0716784032" flag="0"/>
      <psa03 value="0.3007731421" flag="0"/>
      <psa10 value="0.0459935141" flag="0"/>
      <psa30 value="0.0107443603" flag="0"/>
    </comp>
  </station>
  <station code="FDMO" name="FDMO" netid="IV" source="INGV" insttype="" lat="43.0365" lon="13.0873">
    <comp name="--.HHE">
      <acc value="0.1695560684" flag="0"/>
      <vel value="0.0602997943" flag="0"/>
      <psa03 value="0.4192009481" flag="0"/>
      <psa10 value="0.0582260809" flag="0"/>
      <psa30 value="0.0068754346" flag="0"/>
    </comp>
    <comp name="--.HHN">
      <acc value="0.0997616507" flag="0"/>
      <vel value="0.0432805841" flag="0"/>
      <psa03 value="0.2170244534" flag="0"/>
      <psa10 value="0.0427327164" flag="0"/>
      <psa30 value="0.0190086327" flag="0"/>
    </comp>
    <comp name="--.HHZ">
      <acc value="0.0563881518" flag="0"/>
      <vel value="0.0339840427" flag="0"/>
      <psa03 value="0.1206696255" flag="0"/>
      <psa10 value="0.0273689880" flag="0"/>
      <psa30 value="0.0243439006" flag="0"/>
    </comp>
  </station>
  <station code="FEMA" name="FEMA" netid="IV" source="INGV" insttype="" lat="42.9621" lon="13.0498">
    <comp name="--.HNE">
      <acc value="0.2157551438" flag="0"/>
      <vel value="0.1105071325" flag="0"/>
      <psa03 value="0.7783766051" flag="0"/>
      <psa10 value="0.0940660016" flag="0"/>
      <psa30 value="0.0184555609" flag="0"/>
    </comp>
    <comp name="--.HNN">
      <acc value="0.1836894661" flag="0"/>
