<?xml version="1.0" encoding="UTF-8" standalone="yes"?>
<!DOCTYPE earthquake SYSTEM "stationlist.dtd">
<stationlist created="" xmlns="ch.ethz.sed.shakemap.usgs.xml">
  <station code="CEYT" name="CEYT" netid="KO" insttype="CMG-3ESP" lat="37.0105" lon="35.7478">
    <comp name="--.HHN">
      <acc value="0.0142120691" flag="0"/>
      <vel value="0.0047469814" flag="0"/>
      <psa03 value="0.0256036298" flag="0"/>
      <psa10 value="0.0041918456" flag="0"/>
      <psa30 value="0.0004701023" flag="0"/>
    </comp>
    <comp name="--.HHE">
      <acc value="0.0184372493" flag="0"/>
      <vel value="0.0061737614" flag="0"/>
      <psa03 value="0.0460651089" flag="0"/>
      <psa10 value="0.0045741836" flag="0"/>
      <psa30 value="0.0003275757" flag="0"/>
    </comp>
    <comp name="--.HHZ">
      <acc value="0.0089483950" flag="0"/>
      <vel value="0.0051573440" flag="0"/>
      <psa03 value="0.0237760467" flag="0"/>
      <psa10 value="0.0046584635" flag="0"/>
      <psa30 value="0.0002463018" flag="0"/>
    </comp>
  </station>
</stationlist>
