<?xml version="1.0" encoding="UTF-8" standalone="yes"?>
<!DOCTYPE earthquake SYSTEM "stationlist.dtd">
<stationlist created="" xmlns="ch.ethz.sed.shakemap.usgs.xml">
  <station code="CEYT" name="CEYT" netid="KO" insttype="CMG-3ESP" lat="37.0105" lon="35.7478">
    <comp name="--.HHN">
      <acc value="0.0142120689" flag="0"/>
      <vel value="0.0047469953" flag="0"/>
      <psa03 value="0.0256036299" flag="0"/>
      <psa10 value="0.0041918456" flag="0"/>
      <psa30 value="0.0004698382" flag="0"/>
    </comp>
    <comp name="--.HHZ">
      <acc value="0.0089483948" flag="0"/>
      <vel value="0.0051573443" flag="0"/>
      <psa03 value="0.0237760467" flag="0"/>
      <psa10 value="0.0046584635" flag="0"/>
      <psa30 value="0.0002636368" flag="0"/>
    </comp>
    <comp name="--.HHE">
      <acc value="0.0184372488" flag="0"/>
      <vel value="0.0061737588" flag="0"/>
      <psa03 value="0.0460651089" flag="0"/>
      <psa10 value="0.0045741836" flag="0"/>
      <psa30 value="0.0003274951" flag="0"/>
    </comp>
  </station>
</stationlist>
