<?xml version="1.0" encoding="UTF-8" standalone="yes"?>
<!DOCTYPE earthquake SYSTEM "stationlist.dtd">
<stationlist created="" xmlns="ch.ethz.sed.shakemap.usgs.xml">
  <station code="MYT1" name="MYT1" netid="HI" insttype="CMG-5TD,ACCELEROMETER,GURALP" commtype="DIG" lat="39.085" lon="26.5694">
    <comp name="--.HNN">
      <acc value="0.0204455949" flag="0"/>
      <vel value="0.0081280902" flag="0"/>
      <psa03 value="0.0412936941" flag="0"/>
      <psa10 value="0.0073726644" flag="0"/>
      <psa30 value="0.0003344674" flag="0"/>
    </comp>
    <comp name="--.HNE">
      <acc value="0.0154825286" flag="0"/>
      <vel value="0.0056741843" flag="0"/>
      <psa03 value="0.0332645070" flag="0"/>
      <psa10 value="0.0060360696" flag="0"/>
      <psa30 value="0.0004102085" flag="0"/>
    </comp>
    <comp name="--.HNZ">
      <acc value="0.0155917260" flag="0"/>
      <vel value="0.0050868538" flag="0"/>
      <psa03 value="0.0203978590" flag="0"/>
      <psa10 value="0.0041383484" flag="0"/>
      <psa30 value="0.0002294661" flag="0"/>
    </comp>
  </station>
  <station code="EFSA" name="EFSA" netid="HL" insttype="CMG-5" commtype="DIG" lat="39.5401" lon="24.9886">
    <comp name="00.HNE">
      <acc value="0.0152372126" flag="0"/>
      <vel value="0.0086714472" flag="0"/>
      <psa03 value="0.0394340883" flag="0"/>
      <psa10 value="0.0077892767" flag="0"/>
      <psa30 value="0.0004424870" flag="0"/>
    </comp>
    <comp name="00.HNN">
      <acc value="0.0204825995" flag="0"/>
      <vel value="0.0099539561" flag="0"/>
      <psa03 value="0.0439956259" flag="0"/>
      <psa10 value="0.0059081950" flag="0"/>
      <psa30 value="0.0002571707" flag="0"/>
    </comp>
    <comp name="00.HNZ">
      <acc value="0.0111801962" flag="0"/>
      <vel value="0.0054873272" flag="0"/>
      <psa03 value="0.0377020796" flag="0"/>
      <psa10 value="0.0022560684" flag="0"/>
      <psa30 value="0.0002117664" flag="0"/>
    </comp>
  </station>
  <station code="LIA" name="LIA" netid="HL" insttype="60s" commtype="DIG" lat="39.8972" lon="25.1806">
    <comp name="--.HHN">
      <acc value="0.0246681196" flag="0"/>
      <vel value="0.0064736258" flag="0"/>
      <psa03 value="0.0505022222" flag="0"/>
      <psa10 value="0.0019723469" flag="0"/>
      <psa30 value="0.0002086757" flag="0"/>
    </comp>
    <comp name="--.HHE">
      <acc value="0.0000000000" flag="0"/>
      <vel value="-100.0000000000" flag="0"/>
      <psa03 value="0.0000000000" flag="0"/>
      <psa10 value="0.0000000000" flag="0"/>
      <psa30 value="0.0000000000" flag="0"/>
    </comp>
    <comp name="--.HHZ">
      <acc value="0.0000000000" flag="0"/>
      <vel value="-100.0000000000" flag="0"/>
      <psa03 value="0.0000000000" flag="0"/>
      <psa10 value="0.0000000000" flag="0"/>
      <psa30 value="0.0000000000" flag="0"/>
    </comp>
  </station>
  <station code="PRK" name="PRK" netid="HL" insttype="120" commtype="DIG" lat="39.2456" lon="26.265">
    <comp name="--.HHN">
      <acc value="0.0522294200" flag="0"/>
      <vel value="0.0250914187" flag="0"/>
      <psa03 value="0.0753328216" flag="0"/>
      <psa10 value="0.0343362061" flag="0"/>
      <psa30 value="0.0013701358" flag="0"/>
    </comp>
    <comp name="--.HHZ">
      <acc value="0.0383286251" flag="0"/>
      <vel value="0.0172038141" flag="0"/>
      <psa03 value="0.0455273210" flag="0"/>
      <psa10 value="0.0164372474" flag="0"/>
      <psa30 value="0.0010484663" flag="0"/>
    </comp>
    <comp name="--.HHE">
      <acc value="0.0461456142" flag="0"/>
      <vel value="0.0247305329" flag="0"/>
      <psa03 value="0.0927267169" flag="0"/>
      <psa10 value="0.0121417650" flag="0"/>
      <psa30 value="0.0008252479" flag="0"/>
    </comp>
  </station>
  <station code="PSRA" name="PSRA" netid="HL" insttype="CMG-5" commtype="DIG" lat="38.5398" lon="25.562">
    <comp name="00.HNE">
      <acc value="0.0265773412" flag="0"/>
      <vel value="0.0083305418" flag="0"/>
      <psa03 value="0.0278230839" flag="0"/>
      <psa10 value="0.0065916609" flag="0"/>
      <psa30 value="0.0003925424" flag="0"/>
    </comp>
    <comp name="00.HNN">
      <acc value="0.0215502899" flag="0"/>
      <vel value="0.0075021888" flag="0"/>
      <psa03 value="0.0322944450" flag="0"/>
      <psa10 value="0.0040416585" flag="0"/>
      <psa30 value="0.0002527462" flag="0"/>
    </comp>
    <comp name="00.HNZ">
      <acc value="0.0188875112" flag="0"/>
      <vel value="0.0052271045" flag="0"/>
      <psa03 value="0.0172782901" flag="0"/>
      <psa10 value="0.0032345299" flag="0"/>
      <psa30 value="0.0002947209" flag="0"/>
    </comp>
  </station>
  <station code="AMPK" name="AMPK" netid="HT" insttype="120" commtype="DIG" lat="39.0574" lon="26.313">
    <comp name="--.HHZ">
      <acc value="0.0475904187" flag="0"/>
      <vel value="0.0088018394" flag="0"/>
      <psa03 value="0.0382378147" flag="0"/>
      <psa10 value="0.0019714526" flag="0"/>
      <psa30 value="0.0002359759" flag="0"/>
    </comp>
    <comp name="--.HHN">
      <acc value="0.0969925026" flag="0"/>
      <vel value="0.0224477648" flag="0"/>
      <psa03 value="0.0555643852" flag="0"/>
      <psa10 value="0.0038443955" flag="0"/>
      <psa30 value="0.0004215464" flag="0"/>
    </comp>
    <comp name="--.HHE">
      <acc value="0.1168919142" flag="0"/>
      <vel value="0.0263547767" flag="0"/>
      <psa03 value="0.0586122603" flag="0"/>
      <psa10 value="0.0047402081" flag="0"/>
      <psa30 value="0.0004117762" flag="0"/>
    </comp>
  </station>
  <station code="LES3" name="LES3" netid="HT" insttype="" commtype="DIG" lat="39.3032" lon="26.1807">
    <comp name="--.HHE">
      <acc value="0.0536942985" flag="0"/>
      <vel value="0.0227322849" flag="0"/>
      <psa03 value="0.1480006629" flag="0"/>
      <psa10 value="0.0096278395" flag="0"/>
      <psa30 value="0.0006121270" flag="0"/>
    </comp>
    <comp name="--.HHZ">
      <acc value="0.0485181261" flag="0"/>
      <vel value="0.0139457212" flag="0"/>
      <psa03 value="0.0470288622" flag="0"/>
      <psa10 value="0.0050243860" flag="0"/>
      <psa30 value="0.0004378001" flag="0"/>
    </comp>
    <comp name="--.HHN">
      <acc value="0.0458969081" flag="0"/>
      <vel value="0.0112069662" flag="0"/>
      <psa03 value="0.0822624639" flag="0"/>
      <psa10 value="0.0077623161" flag="0"/>
      <psa30 value="0.0006925949" flag="0"/>
    </comp>
  </station>
  <station code="SIGR" name="SIGR" netid="HT" insttype="100" commtype="DIG" lat="39.2114" lon="25.8553">
    <comp name="--.HHE">
      <acc value="0.0462022951" flag="0"/>
      <vel value="0.0141184172" flag="0"/>
      <psa03 value="0.0931428937" flag="0"/>
      <psa10 value="0.0060236486" flag="0"/>
      <psa30 value="0.0004603954" flag="0"/>
    </comp>
    <comp name="--.HHN">
      <acc value="0.0510991894" flag="0"/>
      <vel value="0.0194282776" flag="0"/>
      <psa03 value="0.1468573688" flag="0"/>
      <psa10 value="0.0136472850" flag="0"/>
      <psa30 value="0.0007792639" flag="0"/>
    </comp>
    <comp name="--.HHZ">
      <acc value="0.0441706053" flag="0"/>
      <vel value="0.0101829712" flag="0"/>
      <psa03 value="0.0428874358" flag="0"/>
      <psa10 value="0.0043493719" flag="0"/>
      <psa30 value="0.0003220841" flag="0"/>
    </comp>
  </station>
  <station code="AYVL" name="AYVL" netid="KO" insttype="CMG-6T" commtype="DIG" lat="39.2907" lon="26.69">
    <comp name="--.HHE">
      <acc value="0.1179138839" flag="0"/>
      <vel value="0.0331256160" flag="0"/>
      <psa03 value="0.2049890421" flag="0"/>
      <psa10 value="0.0069883014" flag="0"/>
      <psa30 value="0.0006039527" flag="0"/>
    </comp>
    <comp name="--.HHN">
      <acc value="0.1049900502" flag="0"/>
      <vel value="0.0320534073" flag="0"/>
      <psa03 value="0.1558428429" flag="0"/>
      <psa10 value="0.0075892124" flag="0"/>
      <psa30 value="0.0006774055" flag="0"/>
    </comp>
    <comp name="--.HHZ">
      <acc value="0.0493805946" flag="0"/>
      <vel value="0.0114664915" flag="0"/>
      <psa03 value="0.0385022790" flag="0"/>
      <psa10 value="0.0022388973" flag="0"/>
      <psa30 value="0.0002581568" flag="0"/>
    </comp>
  </station>
  <station code="BMYO" name="BMYO" netid="KO" insttype="CMG-5T" commtype="DIG" lat="39.8098" lon="26.6009">
    <comp name="--.HNZ">
      <acc value="0.0533421496" flag="0"/>
      <vel value="0.0096758150" flag="0"/>
      <psa03 value="0.0365116059" flag="0"/>
      <psa10 value="0.0077019652" flag="0"/>
      <psa30 value="0.0005075677" flag="0"/>
    </comp>
    <comp name="--.HNN">
      <acc value="0.0795569727" flag="0"/>
      <vel value="0.0304599253" flag="0"/>
      <psa03 value="0.1564639772" flag="0"/>
      <psa10 value="0.0237643771" flag="0"/>
      <psa30 value="0.0011019752" flag="0"/>
    </comp>
    <comp name="--.HNE">
      <acc value="0.0855539942" flag="0"/>
      <vel value="0.0159297445" flag="0"/>
      <psa03 value="0.0823962935" flag="0"/>
      <psa10 value="0.0084293309" flag="0"/>
      <psa30 value="0.0009232345" flag="0"/>
    </comp>
  </station>
  <station code="CANM" name="CANM" netid="KO" insttype="CMG-5T" commtype="DIG" lat="40.0113" lon="27.0529">
    <comp name="--.HNN">
      <acc value="0.1312139329" flag="0"/>
      <vel value="0.0395429683" flag="0"/>
      <psa03 value="0.2088946372" flag="0"/>
      <psa10 value="0.0133250355" flag="0"/>
      <psa30 value="0.0007262732" flag="0"/>
    </comp>
    <comp name="--.HNZ">
      <acc value="0.0774829437" flag="0"/>
      <vel value="0.0208502117" flag="0"/>
      <psa03 value="0.1098726016" flag="0"/>
      <psa10 value="0.0049804521" flag="0"/>
      <psa30 value="0.0004056595" flag="0"/>
    </comp>
    <comp name="--.HNE">
      <acc value="0.1192984625" flag="0"/>
      <vel value="0.0371564329" flag="0"/>
      <psa03 value="0.1292983394" flag="0"/>
      <psa10 value="0.0071262005" flag="0"/>
      <psa30 value="0.0006211373" flag="0"/>
    </comp>
  </station>
  <station code="DKL" name="DKL" netid="KO" insttype="CMG-3ESPC" commtype="DIG" lat="39.0713" lon="26.9053">
    <comp name="--.HHN">
      <acc value="0.0096256407" flag="0"/>
      <vel value="0.0027938456" flag="0"/>
      <psa03 value="0.0162154012" flag="0"/>
      <psa10 value="0.0026867121" flag="0"/>
      <psa30 value="0.0002769183" flag="0"/>
    </comp>
    <comp name="--.HHE">
      <acc value="0.0103952846" flag="0"/>
      <vel value="0.0038504352" flag="0"/>
      <psa03 value="0.0162104131" flag="0"/>
      <psa10 value="0.0017654762" flag="0"/>
      <psa30 value="0.0001704110" flag="0"/>
    </comp>
    <comp name="--.HHZ">
      <acc value="0.0097622148" flag="0"/>
      <vel value="0.0024731267" flag="0"/>
      <psa03 value="0.0096770588" flag="0"/>
      <psa10 value="0.0013839249" flag="0"/>
      <psa30 value="0.0001311833" flag="0"/>
    </comp>
  </station>
  <station code="ENZZ" name="ENZZ" netid="KO" insttype="CMG-5T" commtype="DIG" lat="40.607" lon="26.1406">
    <comp name="--.HNZ">
      <acc value="0.0267114712" flag="0"/>
      <vel value="0.0113431710" flag="0"/>
      <psa03 value="0.0484734820" flag="0"/>
      <psa10 value="0.0052539772" flag="0"/>
      <psa30 value="0.0005870765" flag="0"/>
    </comp>
    <comp name="--.HNN">
      <acc value="0.0948965573" flag="0"/>
      <vel value="0.0460894571" flag="0"/>
      <psa03 value="0.2193972860" flag="0"/>
      <psa10 value="0.0298245976" flag="0"/>
      <psa30 value="0.0018203126" flag="0"/>
    </comp>
  </station>
  <station code="EZN" name="EZN" netid="KO" insttype="CMG-3ESP" commtype="DIG" lat="39.8255" lon="26.3246">
    <comp name="--.HHE">
      <acc value="0.1965118143" flag="0"/>
      <vel value="0.0265393217" flag="0"/>
      <psa03 value="0.1130787492" flag="0"/>
      <psa10 value="0.0133825401" flag="0"/>
      <psa30 value="0.0006400240" flag="0"/>
    </comp>
    <comp name="--.HHN">
      <acc value="0.2428070488" flag="0"/>
      <vel value="0.0395232799" flag="0"/>
      <psa03 value="0.2004554573" flag="0"/>
      <psa10 value="0.0185743060" flag="0"/>
      <psa30 value="0.0015039931" flag="0"/>
    </comp>
    <comp name="--.HHZ">
      <acc value="0.1043017306" flag="0"/>
      <vel value="0.0170238361" flag="0"/>
      <psa03 value="0.0496370063" flag="0"/>
      <psa10 value="0.0105646491" flag="0"/>
      <psa30 value="0.0007080019" flag="0"/>
    </comp>
  </station>
  <station code="EZNE" name="EZNE" netid="KO" insttype="CMG-5T" commtype="DIG" lat="39.756" lon="26.3655">
    <comp name="--.HNZ">
      <acc value="0.1458633185" flag="0"/>
      <vel value="0.0311931736" flag="0"/>
      <psa03 value="0.1397178704" flag="0"/>
      <psa10 value="0.0189145549" flag="0"/>
      <psa30 value="0.0010669167" flag="0"/>
    </comp>
    <comp name="--.HNE">
      <acc value="0.1420142069" flag="0"/>
      <vel value="0.0387310650" flag="0"/>
      <psa03 value="0.1507128331" flag="0"/>
      <psa10 value="0.0143728989" flag="0"/>
      <psa30 value="0.0011435829" flag="0"/>
    </comp>
    <comp name="--.HNN">
      <acc value="0.1421479886" flag="0"/>
      <vel value="0.0733288443" flag="0"/>
      <psa03 value="0.4600733041" flag="0"/>
      <psa10 value="0.0372099204" flag="0"/>
      <psa30 value="0.0021269490" flag="0"/>
    </comp>
  </station>
  <station code="GADA" name="GADA" netid="KO" insttype="CMG-3T" commtype="DIG" lat="40.1908" lon="25.8987">
    <comp name="--.HHZ">
      <acc value="0.0328974166" flag="0"/>
      <vel value="0.0070882255" flag="0"/>
      <psa03 value="0.0344330969" flag="0"/>
      <psa10 value="0.0030806502" flag="0"/>
      <psa30 value="0.0002800643" flag="0"/>
    </comp>
  </station>
  <station code="GELI" name="GELI" netid="KO" insttype="CMG-3ESP" commtype="DIG" lat="40.398" lon="26.4742">
    <comp name="--.HHN">
      <acc value="0.0403299164" flag="0"/>
      <vel value="0.0159320069" flag="0"/>
      <psa03 value="0.0890018334" flag="0"/>
      <psa10 value="0.0040602041" flag="0"/>
      <psa30 value="0.0002789440" flag="0"/>
    </comp>
    <comp name="--.HHZ">
      <acc value="0.0262474067" flag="0"/>
      <vel value="0.0075663442" flag="0"/>
      <psa03 value="0.0444577015" flag="0"/>
      <psa10 value="0.0027580055" flag="0"/>
      <psa30 value="0.0001867245" flag="0"/>
    </comp>
  </station>
  <station code="GPNR" name="GPNR" netid="KO" insttype="CMG-5T" commtype="DIG" lat="39.456" lon="26.1331">
    <comp name="--.HNE">
      <acc value="0.2279287230" flag="0"/>
      <vel value="0.0653098421" flag="0"/>
      <psa03 value="0.3443443787" flag="0"/>
      <psa10 value="0.0531860726" flag="0"/>
      <psa30 value="0.0029295445" flag="0"/>
    </comp>
    <comp name="--.HNZ">
      <acc value="0.2194823902" flag="0"/>
      <vel value="0.0418603118" flag="0"/>
      <psa03 value="0.1893485819" flag="0"/>
      <psa10 value="0.0296109264" flag="0"/>
      <psa30 value="0.0014600112" flag="0"/>
    </comp>
    <comp name="--.HNN">
      <acc value="0.2294299843" flag="0"/>
      <vel value="0.0874211361" flag="0"/>
      <psa03 value="0.4923567525" flag="0"/>
      <psa10 value="0.0684203923" flag="0"/>
      <psa30 value="0.0044529251" flag="0"/>
    </comp>
  </station>
  <station code="LAP" name="LAP" netid="KO" insttype="CMG-3ESP" commtype="DIG" lat="40.3703" lon="26.7593">
    <comp name="--.HHE">
      <acc value="0.0268954211" flag="0"/>
      <vel value="0.0093663155" flag="0"/>
      <psa03 value="0.0476781131" flag="0"/>
      <psa10 value="0.0108847790" flag="0"/>
      <psa30 value="0.0008653662" flag="0"/>
    </comp>
    <comp name="--.HHN">
      <acc value="0.0316908744" flag="0"/>
      <vel value="0.0138729481" flag="0"/>
      <psa03 value="0.0588020237" flag="0"/>
      <psa10 value="0.0091779835" flag="0"/>
      <psa30 value="0.0005190381" flag="0"/>
    </comp>
    <comp name="--.HHZ">
      <acc value="0.0220217546" flag="0"/>
      <vel value="0.0077725626" flag="0"/>
      <psa03 value="0.0360450634" flag="0"/>
      <psa10 value="0.0055748161" flag="0"/>
      <psa30 value="0.0002443756" flag="0"/>
    </comp>
  </station>
  <station code="LAPK" name="LAPK" netid="KO" insttype="CMG-5T" commtype="DIG" lat="40.3151" lon="26.6425">
    <comp name="--.HNE">
      <acc value="0.0797343340" flag="0"/>
      <vel value="0.0372964072" flag="0"/>
      <psa03 value="0.2867353025" flag="0"/>
      <psa10 value="0.0185185146" flag="0"/>
      <psa30 value="0.0012336475" flag="0"/>
    </comp>
    <comp name="--.HNN">
      <acc value="0.1032575039" flag="0"/>
      <vel value="0.0461399014" flag="0"/>
      <psa03 value="0.2921113564" flag="0"/>
      <psa10 value="0.0233764355" flag="0"/>
      <psa30 value="0.0013941141" flag="0"/>
    </comp>
    <comp name="--.HNZ">
      <acc value="0.0609525542" flag="0"/>
      <vel value="0.0194936373" flag="0"/>
      <psa03 value="0.1711563458" flag="0"/>
      <psa10 value="0.0104828553" flag="0"/>
      <psa30 value="0.0006422289" flag="0"/>
    </comp>
  </station>
  <station code="YAYO" name="YAYO" netid="KO" insttype="CMG-6T" commtype="DIG" lat="39.6113" lon="27.0726">
    <comp name="--.HHE">
      <acc value="0.0557144132" flag="0"/>
      <vel value="0.0308310304" flag="0"/>
      <psa03 value="0.1362647844" flag="0"/>
      <psa10 value="0.0170067939" flag="0"/>
      <psa30 value="0.0010124334" flag="0"/>
    </comp>
    <comp name="--.HHN">
      <acc value="0.0545662875" flag="0"/>
      <vel value="0.0192484992" flag="0"/>
      <psa03 value="0.1655865870" flag="0"/>
      <psa10 value="0.0088924128" flag="0"/>
      <psa30 value="0.0006791284" flag="0"/>
    </comp>
    <comp name="--.HHZ">
      <acc value="0.0366114167" flag="0"/>
      <vel value="0.0189595116" flag="0"/>
      <psa03 value="0.1055043815" flag="0"/>
      <psa10 value="0.0040576787" flag="0"/>
      <psa30 value="0.0004435860" flag="0"/>
    </comp>
  </station>
  <station code="YENI" name="YENI" netid="KO" insttype="CMG-5T" commtype="DIG" lat="39.9364" lon="27.2422">
    <comp name="--.HNE">
      <acc value="0.0729944783" flag="0"/>
      <vel value="0.0198036438" flag="0"/>
      <psa03 value="0.1794056776" flag="0"/>
      <psa10 value="0.0082720968" flag="0"/>
      <psa30 value="0.0005418229" flag="0"/>
    </comp>
    <comp name="--.HNN">
      <acc value="0.0817600927" flag="0"/>
      <vel value="0.0208452474" flag="0"/>
      <psa03 value="0.1159237992" flag="0"/>
      <psa10 value="0.0064118046" flag="0"/>
      <psa30 value="0.0005646209" flag="0"/>
    </comp>
    <comp name="--.HNZ">
      <acc value="0.0301241386" flag="0"/>
      <vel value="0.0103801351" flag="0"/>
      <psa03 value="0.0696877328" flag="0"/>
      <psa10 value="0.0051563178" flag="0"/>
      <psa30 value="0.0002778872" flag="0"/>
    </comp>
  </station>
</stationlist>
