<?xml version="1.0" encoding="UTF-8" standalone="yes"?>
<!DOCTYPE earthquake SYSTEM "stationlist.dtd">
<stationlist created="" xmlns="ch.ethz.sed.shakemap.usgs.xml">
  <station code="CAAM" name="CAAM" netid="IV" insttype="" lat="40.8201" lon="14.142">
    <comp name="--.HHN">
      <acc value="2.0446677896" flag="0"/>
      <vel value="0.4602723332" flag="0"/>
      <psa03 value="0.7543434205" flag="0"/>
      <psa10 value="0.2877070733" flag="0"/>
      <psa30 value="0.0507493931" flag="0"/>
    </comp>
    <comp name="--.HHZ">
      <acc value="1.3399206839" flag="0"/>
      <vel value="0.2963359361" flag="0"/>
      <psa03 value="1.0358582881" flag="0"/>
      <psa10 value="0.2439606663" flag="0"/>
      <psa30 value="0.0366506223" flag="0"/>
    </comp>
    <comp name="--.HHE">
      <acc value="1.8258152679" flag="0"/>
      <vel value="0.3390879012" flag="0"/>
      <psa03 value="0.7480521360" flag="0"/>
      <psa10 value="0.4088612434" flag="0"/>
      <psa30 value="0.0379429232" flag="0"/>
    </comp>
  </station>
  <station code="CAFE" name="CAFE" netid="IV" insttype="" lat="41.028" lon="15.2366">
    <comp name="--.HHE">
      <acc value="0.0009584237" flag="0"/>
      <vel value="0.0016306364" flag="0"/>
      <psa03 value="0.0033988942" flag="0"/>
      <psa10 value="0.0022544753" flag="0"/>
      <psa30 value="0.0008545116" flag="0"/>
    </comp>
    <comp name="--.HHN">
      <acc value="0.0008213993" flag="0"/>
      <vel value="0.0012530952" flag="0"/>
      <psa03 value="0.0024964271" flag="0"/>
      <psa10 value="0.0024221086" flag="0"/>
      <psa30 value="0.0006239392" flag="0"/>
    </comp>
    <comp name="--.HHZ">
      <acc value="0.0008367569" flag="0"/>
      <vel value="0.0010157699" flag="0"/>
      <psa03 value="0.0019254292" flag="0"/>
      <psa10 value="0.0007625313" flag="0"/>
      <psa30 value="0.0005237047" flag="0"/>
    </comp>
  </station>
  <station code="CBAC" name="CBAC" netid="IV" insttype="" lat="40.8109" lon="14.0806">
    <comp name="--.HNE">
      <acc value="5.8859736729" flag="0"/>
      <vel value="0.6347688868" flag="0"/>
      <psa03 value="1.6315209705" flag="0"/>
      <psa10 value="0.3134743485" flag="0"/>
      <psa30 value="0.0217827817" flag="0"/>
    </comp>
    <comp name="--.HNZ">
      <acc value="2.1851646040" flag="0"/>
      <vel value="0.3564204714" flag="0"/>
      <psa03 value="1.1623764885" flag="0"/>
      <psa10 value="0.0959869884" flag="0"/>
      <psa30 value="0.0192432578" flag="0"/>
    </comp>
    <comp name="--.HNN">
      <acc value="7.0221290630" flag="0"/>
      <vel value="1.3966809090" flag="0"/>
      <psa03 value="2.0670868806" flag="0"/>
      <psa10 value="0.3218278914" flag="0"/>
      <psa30 value="0.0378619340" flag="0"/>
    </comp>
  </station>
  <station code="CDRU" name="CDRU" netid="IV" insttype="" lat="40.4896" lon="15.3046">
    <comp name="--.HHE">
      <acc value="0.0010351992" flag="0"/>
      <vel value="0.0004292760" flag="0"/>
      <psa03 value="0.0020305558" flag="0"/>
      <psa10 value="0.0005862969" flag="0"/>
      <psa30 value="0.0001404134" flag="0"/>
    </comp>
    <comp name="--.HHN">
      <acc value="0.0004075513" flag="0"/>
      <vel value="0.0004427127" flag="0"/>
      <psa03 value="0.0013989455" flag="0"/>
      <psa10 value="0.0010183250" flag="0"/>
      <psa30 value="0.0001221248" flag="0"/>
    </comp>
    <comp name="--.HHZ">
      <acc value="0.0006436564" flag="0"/>
      <vel value="0.0003727282" flag="0"/>
      <psa03 value="0.0017448556" flag="0"/>
      <psa10 value="0.0005762022" flag="0"/>
      <psa30 value="0.0001118245" flag="0"/>
    </comp>
  </station>
  <station code="CERA" name="CERA" netid="IV" insttype="" lat="41.5978" lon="14.0183">
    <comp name="--.HHE">
      <acc value="0.0009051959" flag="0"/>
      <vel value="0.0012428740" flag="0"/>
      <psa03 value="0.0023356197" flag="0"/>
      <psa10 value="0.0014198678" flag="0"/>
      <psa30 value="0.0002278495" flag="0"/>
    </comp>
    <comp name="--.HHN">
      <acc value="0.0011901606" flag="0"/>
      <vel value="0.0011092993" flag="0"/>
      <psa03 value="0.0022893957" flag="0"/>
      <psa10 value="0.0015063283" flag="0"/>
      <psa30 value="0.0001936596" flag="0"/>
    </comp>
    <comp name="--.HHZ">
      <acc value="0.0007489221" flag="0"/>
      <vel value="0.0007727116" flag="0"/>
      <psa03 value="0.0014112557" flag="0"/>
      <psa10 value="0.0011713825" flag="0"/>
      <psa30 value="0.0002319275" flag="0"/>
    </comp>
  </station>
  <station code="CFMN" name="CFMN" netid="IV" insttype="" lat="40.8329" lon="14.0904">
    <comp name="--.HNE">
      <acc value="3.6311224164" flag="0"/>
      <vel value="0.4954211502" flag="0"/>
      <psa03 value="1.3508609256" flag="0"/>
      <psa10 value="0.1752476065" flag="0"/>
      <psa30 value="0.0223933598" flag="0"/>
    </comp>
    <comp name="--.HNN">
      <acc value="4.3636526515" flag="0"/>
      <vel value="0.5597256759" flag="0"/>
      <psa03 value="1.4343204207" flag="0"/>
      <psa10 value="0.1652185366" flag="0"/>
      <psa30 value="0.0473127334" flag="0"/>
    </comp>
    <comp name="--.HNZ">
      <acc value="4.6877040369" flag="0"/>
      <vel value="0.4358463017" flag="0"/>
      <psa03 value="0.7899285506" flag="0"/>
      <psa10 value="0.1542535203" flag="0"/>
      <psa30 value="0.0119650812" flag="0"/>
    </comp>
  </station>
  <station code="CMIS" name="CMIS" netid="IV" insttype="" lat="40.7782" lon="14.089">
    <comp name="--.HNE">
      <acc value="2.0691149767" flag="0"/>
      <vel value="0.9706759217" flag="0"/>
      <psa03 value="4.4366677740" flag="0"/>
      <psa10 value="0.5550733025" flag="0"/>
      <psa30 value="0.0416137433" flag="0"/>
    </comp>
    <comp name="--.HNN">
      <acc value="1.8837362839" flag="0"/>
      <vel value="1.3361769604" flag="0"/>
      <psa03 value="4.9994529732" flag="0"/>
      <psa10 value="0.9177047787" flag="0"/>
      <psa30 value="0.0526864557" flag="0"/>
    </comp>
    <comp name="--.HNZ">
      <acc value="1.6722163800" flag="0"/>
      <vel value="0.4059903502" flag="0"/>
      <psa03 value="4.0023478307" flag="0"/>
      <psa10 value="0.2204574396" flag="0"/>
      <psa30 value="0.0310750131" flag="0"/>
    </comp>
  </station>
  <station code="CMPR" name="CMPR" netid="IV" insttype="" lat="40.3181" lon="15.303">
    <comp name="--.HHN">
      <acc value="0.0005195514" flag="0"/>
      <vel value="0.0004211690" flag="0"/>
      <psa03 value="0.0012070907" flag="0"/>
      <psa10 value="0.0004719502" flag="0"/>
      <psa30 value="0.0001568311" flag="0"/>
    </comp>
    <comp name="--.HHE">
      <acc value="0.0006667273" flag="0"/>
      <vel value="0.0004600725" flag="0"/>
      <psa03 value="0.0016549677" flag="0"/>
      <psa10 value="0.0009934704" flag="0"/>
      <psa30 value="0.0001190090" flag="0"/>
    </comp>
    <comp name="--.HHZ">
      <acc value="0.0003929443" flag="0"/>
      <vel value="0.0003352303" flag="0"/>
      <psa03 value="0.0015779735" flag="0"/>
      <psa10 value="0.0008445998" flag="0"/>
      <psa30 value="0.0001214857" flag="0"/>
    </comp>
  </station>
  <station code="CNIS" name="CNIS" netid="IV" insttype="" lat="40.7982" lon="14.1632">
    <comp name="--.HHE">
      <acc value="0.3729867238" flag="0"/>
      <vel value="0.2017004217" flag="0"/>
      <psa03 value="0.5734594749" flag="0"/>
      <psa10 value="0.3582379049" flag="0"/>
      <psa30 value="0.0266416315" flag="0"/>
    </comp>
    <comp name="--.HHN">
      <acc value="0.2627344286" flag="0"/>
      <vel value="0.1259399077" flag="0"/>
      <psa03 value="0.5105695152" flag="0"/>
      <psa10 value="0.1780982123" flag="0"/>
      <psa30 value="0.0305638316" flag="0"/>
    </comp>
    <comp name="--.HHZ">
      <acc value="0.4495266329" flag="0"/>
      <vel value="0.1365673445" flag="0"/>
      <psa03 value="0.3749140555" flag="0"/>
      <psa10 value="0.2742112997" flag="0"/>
      <psa30 value="0.0194593130" flag="0"/>
    </comp>
  </station>
  <station code="COLB" name="COLB" netid="IV" insttype="" lat="40.819" lon="14.1446">
    <comp name="--.HHE">
      <acc value="3.7760637053" flag="0"/>
      <vel value="0.5729263202" flag="0"/>
      <psa03 value="1.0162209208" flag="0"/>
      <psa10 value="0.2770322855" flag="0"/>
      <psa30 value="0.0424352501" flag="0"/>
    </comp>
    <comp name="--.HHN">
      <acc value="2.0349109186" flag="0"/>
      <vel value="0.3241761196" flag="0"/>
      <psa03 value="1.0644650561" flag="0"/>
      <psa10 value="0.3443930258" flag="0"/>
      <psa30 value="0.0484772114" flag="0"/>
    </comp>
    <comp name="--.HHZ">
      <acc value="1.8033433022" flag="0"/>
      <vel value="0.2786913165" flag="0"/>
      <psa03 value="0.9774453285" flag="0"/>
      <psa10 value="0.1577314579" flag="0"/>
      <psa30 value="0.0339962535" flag="0"/>
    </comp>
  </station>
  <station code="CQUE" name="CQUE" netid="IV" insttype="" lat="40.8854" lon="14.1554">
    <comp name="--.HHE">
      <acc value="0.2817513861" flag="0"/>
      <vel value="0.1122561589" flag="0"/>
      <psa03 value="0.9277025580" flag="0"/>
      <psa10 value="0.1564085417" flag="0"/>
      <psa30 value="0.0079277661" flag="0"/>
    </comp>
    <comp name="--.HHN">
      <acc value="0.2020405404" flag="0"/>
      <vel value="0.1271006664" flag="0"/>
      <psa03 value="0.5748367484" flag="0"/>
      <psa10 value="0.1681072636" flag="0"/>
      <psa30 value="0.0144484991" flag="0"/>
    </comp>
    <comp name="--.HHZ">
      <acc value="0.2784548837" flag="0"/>
      <vel value="0.0791197604" flag="0"/>
      <psa03 value="0.5847434837" flag="0"/>
      <psa10 value="0.1226436042" flag="0"/>
      <psa30 value="0.0070372082" flag="0"/>
    </comp>
  </station>
  <station code="CSFT" name="CSFT" netid="IV" insttype="" lat="40.8292" lon="14.1396">
    <comp name="--.HHZ">
      <acc value="0.0423491607" flag="0"/>
      <vel value="0.0034188916" flag="0"/>
      <psa03 value="0.0043036184" flag="0"/>
      <psa10 value="0.0007880939" flag="0"/>
      <psa30 value="0.0001386095" flag="0"/>
    </comp>
    <comp name="--.HHN">
      <acc value="0.0578533151" flag="0"/>
      <vel value="0.0054251195" flag="0"/>
      <psa03 value="0.0310912601" flag="0"/>
      <psa10 value="0.0014347416" flag="0"/>
      <psa30 value="0.0002523589" flag="0"/>
    </comp>
    <comp name="--.HHE">
      <acc value="0.0753208729" flag="0"/>
      <vel value="0.0051027198" flag="0"/>
      <psa03 value="0.0219365135" flag="0"/>
      <psa10 value="0.0012025757" flag="0"/>
      <psa30 value="0.0002006551" flag="0"/>
    </comp>
  </station>
  <station code="CSOB" name="CSOB" netid="IV" insttype="" lat="40.8265" lon="14.144">
    <comp name="--.HNE">
      <acc value="2.4183099668" flag="0"/>
      <vel value="0.3643743456" flag="0"/>
      <psa03 value="1.1478565974" flag="0"/>
      <psa10 value="0.2529427618" flag="0"/>
      <psa30 value="0.0454248795" flag="0"/>
    </comp>
    <comp name="--.HNN">
      <acc value="1.5232448814" flag="0"/>
      <vel value="0.4750395818" flag="0"/>
      <psa03 value="1.4105248823" flag="0"/>
      <psa10 value="0.3798185506" flag="0"/>
      <psa30 value="0.0529582834" flag="0"/>
    </comp>
    <comp name="--.HNZ">
      <acc value="1.6253039454" flag="0"/>
      <vel value="0.3333229688" flag="0"/>
      <psa03 value="1.2265427112" flag="0"/>
      <psa10 value="0.1720546323" flag="0"/>
      <psa30 value="0.0340801524" flag="0"/>
    </comp>
  </station>
  <station code="CSTH" name="CSTH" netid="IV" insttype="" lat="40.8294" lon="14.1493">
    <comp name="--.HHE">
      <acc value="4.4033471370" flag="0"/>
      <vel value="0.3371634346" flag="0"/>
      <psa03 value="0.9967754010" flag="0"/>
      <psa10 value="0.2557193101" flag="0"/>
      <psa30 value="0.0390601938" flag="0"/>
    </comp>
    <comp name="--.HHZ">
      <acc value="2.5642688867" flag="0"/>
      <vel value="0.3153430221" flag="0"/>
      <psa03 value="0.8868114272" flag="0"/>
      <psa10 value="0.1710804140" flag="0"/>
      <psa30 value="0.0353184045" flag="0"/>
    </comp>
    <comp name="--.HHN">
      <acc value="2.8243508624" flag="0"/>
      <vel value="0.4082808132" flag="0"/>
      <psa03 value="0.9103865540" flag="0"/>
      <psa10 value="0.2353996000" flag="0"/>
      <psa30 value="0.0420317729" flag="0"/>
    </comp>
  </station>
  <station code="GATE" name="GATE" netid="IV" insttype="" lat="41.5131" lon="14.9102">
    <comp name="--.HHE">
      <acc value="0.0004034545" flag="0"/>
      <vel value="0.0006391031" flag="0"/>
      <psa03 value="0.0015068731" flag="0"/>
      <psa10 value="0.0007062016" flag="0"/>
      <psa30 value="0.0007093025" flag="0"/>
    </comp>
    <comp name="--.HHN">
      <acc value="0.0004318796" flag="0"/>
      <vel value="0.0006675634" flag="0"/>
      <psa03 value="0.0010313735" flag="0"/>
      <psa10 value="0.0009183693" flag="0"/>
      <psa30 value="0.0003292107" flag="0"/>
    </comp>
    <comp name="--.HHZ">
      <acc value="0.0004204244" flag="0"/>
      <vel value="0.0004231620" flag="0"/>
      <psa03 value="0.0009727207" flag="0"/>
      <psa10 value="0.0004875853" flag="0"/>
      <psa30 value="0.0003910930" flag="0"/>
    </comp>
  </station>
  <station code="IFOR" name="IFOR" netid="IV" insttype="" lat="40.7115" lon="13.8552">
    <comp name="--.HHN">
      <acc value="0.0896383372" flag="0"/>
      <vel value="0.0411313400" flag="0"/>
      <psa03 value="0.1663520836" flag="0"/>
      <psa10 value="0.0686064824" flag="0"/>
      <psa30 value="0.0032185596" flag="0"/>
    </comp>
    <comp name="--.HHE">
      <acc value="0.0606196804" flag="0"/>
      <vel value="0.0310847467" flag="0"/>
      <psa03 value="0.1508772054" flag="0"/>
      <psa10 value="0.0449941183" flag="0"/>
      <psa30 value="0.0028342490" flag="0"/>
    </comp>
    <comp name="--.HHZ">
      <acc value="0.0595822574" flag="0"/>
      <vel value="0.0173199808" flag="0"/>
      <psa03 value="0.0520588166" flag="0"/>
      <psa10 value="0.0167101671" flag="0"/>
      <psa30 value="0.0016397218" flag="0"/>
    </comp>
  </station>
  <station code="IMTC" name="IMTC" netid="IV" insttype="" lat="40.7209" lon="13.8758">
    <comp name="--.HHE">
      <acc value="0.0244870755" flag="0"/>
      <vel value="0.0070240158" flag="0"/>
      <psa03 value="0.0260186837" flag="0"/>
      <psa10 value="0.0109915795" flag="0"/>
      <psa30 value="0.0010880033" flag="0"/>
    </comp>
    <comp name="--.HHZ">
      <acc value="0.0180115006" flag="0"/>
      <vel value="0.0080578563" flag="0"/>
      <psa03 value="0.0315503601" flag="0"/>
      <psa10 value="0.0108690995" flag="0"/>
      <psa30 value="0.0017407095" flag="0"/>
    </comp>
    <comp name="--.HHN">
      <acc value="0.0295482191" flag="0"/>
      <vel value="0.0078328172" flag="0"/>
      <psa03 value="0.0375878598" flag="0"/>
      <psa10 value="0.0116543172" flag="0"/>
      <psa30 value="0.0017358003" flag="0"/>
    </comp>
  </station>
  <station code="IOCA" name="IOCA" netid="IV" insttype="" lat="40.7468" lon="13.9014">
    <comp name="--.HHE">
      <acc value="0.0520228180" flag="0"/>
      <vel value="0.0260747206" flag="0"/>
      <psa03 value="0.1659914331" flag="0"/>
      <psa10 value="0.0231819451" flag="0"/>
      <psa30 value="0.0036129557" flag="0"/>
    </comp>
    <comp name="--.HHZ">
      <acc value="0.0358672202" flag="0"/>
      <vel value="0.0125975234" flag="0"/>
      <psa03 value="0.0847851423" flag="0"/>
      <psa10 value="0.0072219772" flag="0"/>
      <psa30 value="0.0014276250" flag="0"/>
    </comp>
    <comp name="--.HHN">
      <acc value="0.0567062043" flag="0"/>
      <vel value="0.0292216038" flag="0"/>
      <psa03 value="0.1318312609" flag="0"/>
      <psa10 value="0.0255859655" flag="0"/>
      <psa30 value="0.0036395271" flag="0"/>
    </comp>
  </station>
  <station code="IPSM" name="IPSM" netid="IV" insttype="" lat="40.7462" lon="13.9438">
    <comp name="--.HHE">
      <acc value="0.1246647064" flag="0"/>
      <vel value="0.0507986784" flag="0"/>
      <psa03 value="0.2844120672" flag="0"/>
      <psa10 value="0.0711453404" flag="0"/>
      <psa30 value="0.0107431007" flag="0"/>
    </comp>
    <comp name="--.HHN">
      <acc value="0.1126023158" flag="0"/>
      <vel value="0.0727462173" flag="0"/>
      <psa03 value="0.3095917372" flag="0"/>
      <psa10 value="0.0988892138" flag="0"/>
      <psa30 value="0.0156577744" flag="0"/>
    </comp>
    <comp name="--.HHZ">
      <acc value="0.0888198913" flag="0"/>
      <vel value="0.0399031103" flag="0"/>
      <psa03 value="0.1905426715" flag="0"/>
      <psa10 value="0.0705186336" flag="0"/>
      <psa30 value="0.0057093655" flag="0"/>
    </comp>
  </station>
  <station code="MCRV" name="MCRV" netid="IV" insttype="" lat="40.7826" lon="15.1684">
    <comp name="--.HHE">
      <acc value="0.0006373580" flag="0"/>
      <vel value="0.0004854535" flag="0"/>
      <psa03 value="0.0013082419" flag="0"/>
      <psa10 value="0.0006122620" flag="0"/>
      <psa30 value="0.0001176690" flag="0"/>
    </comp>
    <comp name="--.HHN">
      <acc value="0.0007127806" flag="0"/>
      <vel value="0.0005646006" flag="0"/>
      <psa03 value="0.0016194570" flag="0"/>
      <psa10 value="0.0006340228" flag="0"/>
      <psa30 value="0.0001358453" flag="0"/>
    </comp>
    <comp name="--.HHZ">
      <acc value="0.0003416020" flag="0"/>
      <vel value="0.0002851765" flag="0"/>
      <psa03 value="0.0009243650" flag="0"/>
      <psa10 value="0.0003844457" flag="0"/>
      <psa30 value="0.0000750975" flag="0"/>
    </comp>
  </station>
  <station code="MIDA" name="MIDA" netid="IV" insttype="" lat="41.6419" lon="14.254">
    <comp name="--.HHE">
      <acc value="nan" flag="0"/>
      <vel value="-100.0000000000" flag="0"/>
      <psa03 value="0.0000000000" flag="0"/>
      <psa10 value="0.0000000000" flag="0"/>
      <psa30 value="0.0000000000" flag="0"/>
    </comp>
    <comp name="--.HHN">
      <acc value="nan" flag="0"/>
      <vel value="-100.0000000000" flag="0"/>
      <psa03 value="0.0000000000" flag="0"/>
      <psa10 value="0.0000000000" flag="0"/>
      <psa30 value="0.0000000000" flag="0"/>
    </comp>
    <comp name="--.HHZ">
      <acc value="nan" flag="0"/>
      <vel value="-100.0000000000" flag="0"/>
      <psa03 value="0.0000000000" flag="0"/>
      <psa10 value="0.0000000000" flag="0"/>
      <psa30 value="0.0000000000" flag="0"/>
    </comp>
  </station>
  <station code="MODR" name="MODR" netid="IV" insttype="" lat="41.1459" lon="13.8779">
    <comp name="--.HHN">
      <acc value="0.0013005819" flag="0"/>
      <vel value="0.0005598782" flag="0"/>
      <psa03 value="0.0030710492" flag="0"/>
      <psa10 value="0.0008151374" flag="0"/>
      <psa30 value="0.0002381999" flag="0"/>
    </comp>
    <comp name="--.HHE">
      <acc value="0.0021586122" flag="0"/>
      <vel value="0.0006245241" flag="0"/>
      <psa03 value="0.0018241651" flag="0"/>
      <psa10 value="0.0005624933" flag="0"/>
      <psa30 value="0.0002505404" flag="0"/>
    </comp>
    <comp name="--.HHZ">
      <acc value="0.0007072065" flag="0"/>
      <vel value="0.0004183038" flag="0"/>
      <psa03 value="0.0011753071" flag="0"/>
      <psa10 value="0.0010843303" flag="0"/>
      <psa30 value="0.0001346083" flag="0"/>
    </comp>
  </station>
  <station code="MRB1" name="MRB1" netid="IV" insttype="" lat="41.1227" lon="14.9681">
    <comp name="--.HHE">
      <acc value="0.0024491227" flag="0"/>
      <vel value="0.0037902340" flag="0"/>
      <psa03 value="0.0072166376" flag="0"/>
      <psa10 value="0.0055021623" flag="0"/>
      <psa30 value="0.0018436845" flag="0"/>
    </comp>
    <comp name="--.HHN">
      <acc value="0.0034646603" flag="0"/>
      <vel value="0.0036937674" flag="0"/>
      <psa03 value="0.0063656084" flag="0"/>
      <psa10 value="0.0059135581" flag="0"/>
      <psa30 value="0.0018944219" flag="0"/>
    </comp>
    <comp name="--.HHZ">
