<?xml version="1.0" encoding="UTF-8" standalone="yes"?>
<!DOCTYPE earthquake SYSTEM "stationlist.dtd">
<stationlist created="" xmlns="ch.ethz.sed.shakemap.usgs.xml">
  <station code="GAZ" name="GAZ" netid="KO" insttype="CMG-3T" lat="37.1721" lon="37.2096">
    <comp name="--.HHN">
      <acc value="0.0260168900" flag="0"/>
      <vel value="0.0112140883" flag="0"/>
      <psa03 value="0.0584778832" flag="0"/>
      <psa10 value="0.0162276593" flag="0"/>
      <psa30 value="0.0007991294" flag="0"/>
    </comp>
  </station>
  <station code="KHMN" name="KHMN" netid="KO" insttype="CMG-5T" lat="37.3916" lon="37.1574">
    <comp name="--.HNE">
      <acc value="0.1628840092" flag="0"/>
      <vel value="0.0332413904" flag="0"/>
      <psa03 value="0.1791778042" flag="0"/>
      <psa10 value="0.0176703792" flag="0"/>
      <psa30 value="0.0016982141" flag="0"/>
    </comp>
    <comp name="--.HNN">
      <acc value="0.1825686339" flag="0"/>
      <vel value="0.0440667150" flag="0"/>
      <psa03 value="0.1642322369" flag="0"/>
      <psa10 value="0.0344079961" flag="0"/>
      <psa30 value="0.0031029487" flag="0"/>
    </comp>
    <comp name="--.HNZ">
      <acc value="0.1131244137" flag="0"/>
      <vel value="0.0289796279" flag="0"/>
      <psa03 value="0.1545489483" flag="0"/>
      <psa10 value="0.0153812204" flag="0"/>
      <psa30 value="0.0016650779" flag="0"/>
    </comp>
  </station>
  <station code="ANDN" name="ANDN" netid="TU" insttype="T" lat="37.58" lon="36.3452">
    <comp name="--.HHE">
      <acc value="0.1991807766" flag="0"/>
      <vel value="0.0470778361" flag="0"/>
      <psa03 value="0.3076257949" flag="0"/>
      <psa10 value="0.0132895558" flag="0"/>
      <psa30 value="0.0012127420" flag="0"/>
    </comp>
    <comp name="--.HHZ">
      <acc value="0.1163809088" flag="0"/>
      <vel value="0.0319722981" flag="0"/>
      <psa03 value="0.1337361085" flag="0"/>
      <psa10 value="0.0115655350" flag="0"/>
      <psa30 value="0.0007063167" flag="0"/>
    </comp>
    <comp name="--.HHN">
      <acc value="0.3352508433" flag="0"/>
      <vel value="0.0715737224" flag="0"/>
      <psa03 value="0.3969963053" flag="0"/>
      <psa10 value="0.0175895784" flag="0"/>
      <psa30 value="0.0012627199" flag="0"/>
    </comp>
  </station>
</stationlist>
