<?xml version="1.0" encoding="UTF-8" standalone="yes"?>
<!DOCTYPE earthquake SYSTEM "stationlist.dtd">
<stationlist created="" xmlns="ch.ethz.sed.shakemap.usgs.xml">
  <station code="GAZ" name="GAZ" netid="KO" insttype="CMG-3T" lat="37.1721" lon="37.2096">
    <comp name="--.HHN">
      <acc value="0.0260168897" flag="0"/>
      <vel value="0.0112140884" flag="0"/>
      <psa03 value="0.0584778832" flag="0"/>
      <psa10 value="0.0162276594" flag="0"/>
      <psa30 value="0.0007991290" flag="0"/>
    </comp>
  </station>
  <station code="KHMN" name="KHMN" netid="KO" insttype="CMG-5T" lat="37.3916" lon="37.1574">
    <comp name="--.HNE">
      <acc value="0.1628840077" flag="0"/>
      <vel value="0.0332413920" flag="0"/>
      <psa03 value="0.1791778042" flag="0"/>
      <psa10 value="0.0176703794" flag="0"/>
      <psa30 value="0.0016981427" flag="0"/>
    </comp>
    <comp name="--.HNN">
      <acc value="0.1825686344" flag="0"/>
      <vel value="0.0440667147" flag="0"/>
      <psa03 value="0.1642322369" flag="0"/>
      <psa10 value="0.0344080030" flag="0"/>
      <psa30 value="0.0031031138" flag="0"/>
    </comp>
    <comp name="--.HNZ">
      <acc value="0.1131244090" flag="0"/>
      <vel value="0.0289796275" flag="0"/>
      <psa03 value="0.1545489483" flag="0"/>
      <psa10 value="0.0153812153" flag="0"/>
      <psa30 value="0.0016650146" flag="0"/>
    </comp>
  </station>
  <station code="ANDN" name="ANDN" netid="TU" insttype="T" lat="37.58" lon="36.3452">
    <comp name="--.HHZ">
      <acc value="0.1163809088" flag="0"/>
      <vel value="0.0319722982" flag="0"/>
      <psa03 value="0.1337361085" flag="0"/>
      <psa10 value="0.0115655350" flag="0"/>
      <psa30 value="0.0007063174" flag="0"/>
    </comp>
    <comp name="--.HHE">
      <acc value="0.1991807767" flag="0"/>
      <vel value="0.0470778362" flag="0"/>
      <psa03 value="0.3076257949" flag="0"/>
      <psa10 value="0.0132895558" flag="0"/>
      <psa30 value="0.0012127457" flag="0"/>
    </comp>
    <comp name="--.HHN">
      <acc value="0.3352508433" flag="0"/>
      <vel value="0.0715737226" flag="0"/>
      <psa03 value="0.3969963053" flag="0"/>
      <psa10 value="0.0175895783" flag="0"/>
      <psa30 value="0.0012627175" flag="0"/>
    </comp>
  </station>
</stationlist>
