<?xml version="1.0" encoding="UTF-8" standalone="yes"?>
<!DOCTYPE earthquake SYSTEM "stationlist.dtd">
<stationlist created="" xmlns="ch.ethz.sed.shakemap.usgs.xml">
  <station code="IDI" name="IDI" netid="HL" insttype="120" lat="35.288" lon="24.89">
    <comp name="--.HHE">
      <acc value="0.0009724418" flag="0"/>
      <vel value="0.0008737444" flag="0"/>
      <psa03 value="0.0026661018" flag="0"/>
      <psa10 value="0.0009196267" flag="0"/>
      <psa30 value="0.0002155839" flag="0"/>
    </comp>
    <comp name="--.HHN">
      <acc value="0.0008924604" flag="0"/>
      <vel value="0.0006187940" flag="0"/>
      <psa03 value="0.0020706609" flag="0"/>
      <psa10 value="0.0008234466" flag="0"/>
      <psa30 value="0.0001387337" flag="0"/>
    </comp>
    <comp name="--.HHZ">
      <acc value="0.0008229885" flag="0"/>
      <vel value="0.0007885285" flag="0"/>
      <psa03 value="0.0017590638" flag="0"/>
      <psa10 value="0.0012012753" flag="0"/>
      <psa30 value="0.0001301305" flag="0"/>
    </comp>
  </station>
</stationlist>
