<stationlist created="1778069559">
	<station code="SIT2" name="SIT2" netid="HI" source="ITSAK Strong Motion Network" insttype="" lat="35.2059" lon="26.107">
		<comp name="--.HNE" depth="0.0">
			<acc value="0.0105732335629163" flag="0"/>
			<vel value="0.00634359320813583" flag="0"/>
			<psa03 value="0.024697698053286" flag="0"/>
			<psa10 value="0.00825896391966678" flag="0"/>
			<psa30 value="0.000485900363874431" flag="0"/>
		</comp>
		<comp name="--.HNN" depth="0.0">
			<acc value="0.00991805340730092" flag="0"/>
			<vel value="0.0068940484064901" flag="0"/>
			<psa03 value="0.0285455278224574" flag="0"/>
			<psa10 value="0.00649522613477451" flag="0"/>
			<psa30 value="0.000333329439306125" flag="0"/>
		</comp>
		<comp name="--.HNZ" depth="0.0">
			<acc value="0.0079346918391202" flag="0"/>
			<vel value="0.0034435571525875" flag="0"/>
			<psa03 value="0.0196418287054213" flag="0"/>
			<psa10 value="0.00169930900736196" flag="0"/>
			<psa30 value="0.000260399642518342" flag="0"/>
		</comp>
	</station>
</stationlist>
