<stationlist created="1778138808">
	<station code="AIGS" name="AIGS" netid="HA" source="Hellenic Seismological Network, University of Athens, Seismological Laboratory (HA)" insttype="" lat="38.25001" lon="22.0878">
		<comp name="--.HNE" depth="0.0">
			<acc value="0.0411986667470113" flag="0"/>
			<vel value="0.0136550744474341" flag="0"/>
			<psa03 value="0.0984892640135146" flag="0"/>
			<psa10 value="0.00442015296968146" flag="0"/>
			<psa30 value="0.000812414703905651" flag="0"/>
		</comp>
		<comp name="--.HNN" depth="0.0">
			<acc value="0.0506602177017329" flag="0"/>
			<vel value="0.0141706604350531" flag="0"/>
			<psa03 value="0.0881968842772902" flag="0"/>
			<psa10 value="0.00500489920625309" flag="0"/>
			<psa30 value="0.000818107320593418" flag="0"/>
		</comp>
		<comp name="--.HNZ" depth="0.0">
			<acc value="0.0586121735589288" flag="0"/>
			<vel value="0.00902845505927649" flag="0"/>
			<psa03 value="0.0276059928240372" flag="0"/>
			<psa10 value="0.00455921124412539" flag="0"/>
			<psa30 value="0.000800347289913371" flag="0"/>
		</comp>
	</station>
	<station code="CORS" name="CORS" netid="HA" source="Hellenic Seismological Network, University of Athens, Seismological Laboratory (HA)" insttype="" lat="38.2562" lon="22.0748">
		<comp name="00.HNE" depth="0.0">
			<acc value="0.0217650832634204" flag="0"/>
			<vel value="0.00827317608483808" flag="0"/>
			<psa03 value="0.0659916268298119" flag="0"/>
			<psa10 value="0.0122695377966774" flag="0"/>
			<psa30 value="0.000773908923917542" flag="0"/>
		</comp>
		<comp name="00.HNN" depth="0.0">
			<acc value="0.0159270359255947" flag="0"/>
			<vel value="0.00722263148464501" flag="0"/>
			<psa03 value="0.0464215804101991" flag="0"/>
			<psa10 value="0.00711494601774282" flag="0"/>
			<psa30 value="0.000500632279016833" flag="0"/>
		</comp>
		<comp name="00.HNZ" depth="0.0">
			<acc value="0.0115389732774762" flag="0"/>
			<vel value="0.00455474260842355" flag="0"/>
			<psa03 value="0.027272978575993" flag="0"/>
			<psa10 value="0.00404516844131237" flag="0"/>
			<psa30 value="0.000265206422790437" flag="0"/>
		</comp>
	</station>
	<station code="DRES" name="DRES" netid="HA" source="Hellenic Seismological Network, University of Athens, Seismological Laboratory (HA)" insttype="" lat="38.319719" lon="21.853176">
		<comp name="--.HNE" depth="0.0">
			<acc value="0.0483551051100199" flag="0"/>
			<vel value="0.0263407489248157" flag="0"/>
			<psa03 value="0.137662400708325" flag="0"/>
			<psa10 value="0.018222440272257" flag="0"/>
			<psa30 value="0.00178646917814902" flag="0"/>
		</comp>
		<comp name="--.HNN" depth="0.0">
			<acc value="0.0389817454085691" flag="0"/>
			<vel value="0.017679255546188" flag="0"/>
			<psa03 value="0.10175234476016" flag="0"/>
			<psa10 value="0.0164000745494637" flag="0"/>
			<psa30 value="0.00100040106332925" flag="0"/>
		</comp>
		<comp name="--.HNZ" depth="0.0">
			<acc value="0.0382120116136276" flag="0"/>
			<vel value="0.0130056871371193" flag="0"/>
			<psa03 value="0.0369103513796322" flag="0"/>
			<psa10 value="0.00613564223744491" flag="0"/>
			<psa30 value="0.000936869146314911" flag="0"/>
		</comp>
	</station>
	<station code="KIAS" name="KIAS" netid="HA" source="Hellenic Seismological Network, University of Athens, Seismological Laboratory (HA)" insttype="" lat="37.9875" lon="22.7543">
		<comp name="--.HNE" depth="0.0">
			<acc value="0.00768026939892088" flag="0"/>
			<vel value="0.00292349990773335" flag="0"/>
			<psa03 value="0.013476986534206" flag="0"/>
			<psa10 value="0.00572550006754002" flag="0"/>
			<psa30 value="0.000876317426726863" flag="0"/>
		</comp>
		<comp name="--.HNN" depth="0.0">
			<acc value="0.00754118660859788" flag="0"/>
			<vel value="0.00270381131823995" flag="0"/>
			<psa03 value="0.0119890272871165" flag="0"/>
			<psa10 value="0.00389882202782484" flag="0"/>
			<psa30 value="0.000873156696514737" flag="0"/>
		</comp>
		<comp name="--.HNZ" depth="0.0">
			<acc value="0.00598848481520269" flag="0"/>
			<vel value="0.00230234683397225" flag="0"/>
			<psa03 value="0.00656502604660504" flag="0"/>
			<psa10 value="0.00448954475405164" flag="0"/>
			<psa30 value="0.000737175657186752" flag="0"/>
		</comp>
	</station>
	<station code="LTRS" name="LTRS" netid="HA" source="Hellenic Seismological Network, University of Athens, Seismological Laboratory (HA)" insttype="" lat="37.97528" lon="22.9765">
		<comp name="--.HNE" depth="0.0">
			<acc value="0.00361783517400483" flag="0"/>
			<vel value="0.00328005277453618" flag="0"/>
			<psa03 value="0.0103681959566973" flag="0"/>
			<psa10 value="0.00548620937196598" flag="0"/>
			<psa30 value="0.000614978655984991" flag="0"/>
		</comp>
		<comp name="--.HNN" depth="0.0">
			<acc value="0.00370433643218269" flag="0"/>
			<vel value="0.00307663081663258" flag="0"/>
			<psa03 value="0.00930649802022102" flag="0"/>
			<psa10 value="0.00412723044002875" flag="0"/>
			<psa30 value="0.000512668961802127" flag="0"/>
		</comp>
		<comp name="--.HNZ" depth="0.0">
			<acc value="0.00311285148785385" flag="0"/>
			<vel value="0.00195112283459169" flag="0"/>
			<psa03 value="0.00581135697909567" flag="0"/>
			<psa10 value="0.00335633640331659" flag="0"/>
			<psa30 value="0.000577252146369785" flag="0"/>
		</comp>
	</station>
	<station code="ARS1" name="ARS1" netid="HI" source="ITSAK Strong Motion Network" insttype="" lat="37.6349" lon="22.7293">
		<comp name="--.HNE" depth="0.0">
			<acc value="0.00387589845871077" flag="0"/>
			<vel value="0.002977399306209" flag="0"/>
			<psa03 value="0.00975361357696431" flag="0"/>
			<psa10 value="0.00424560375042767" flag="0"/>
			<psa30 value="0.000254140976217339" flag="0"/>
		</comp>
		<comp name="--.HNN" depth="0.0">
			<acc value="0.00434282052578099" flag="0"/>
			<vel value="0.00328793325023543" flag="0"/>
			<psa03 value="0.013196193193466" flag="0"/>
			<psa10 value="0.00333669822738371" flag="0"/>
			<psa30 value="0.000397272931965147" flag="0"/>
		</comp>
		<comp name="--.HNZ" depth="0.0">
			<acc value="0.00207713333589103" flag="0"/>
			<vel value="0.00111272054871917" flag="0"/>
			<psa03 value="0.00723698266977083" flag="0"/>
			<psa10 value="0.00186595474315671" flag="0"/>
			<psa30 value="0.000234477694454707" flag="0"/>
		</comp>
	</station>
	<station code="ART2" name="ART2" netid="HI" source="ITSAK Strong Motion Network" insttype="" lat="39.1474" lon="20.9937">
		<comp name="--.HNE" depth="0.0">
			<acc value="0.00965542396921996" flag="0"/>
			<vel value="0.00347645522223842" flag="0"/>
			<psa03 value="0.0269001622120757" flag="0"/>
			<psa10 value="0.0017043618118548" flag="0"/>
			<psa30 value="0.000135178082488615" flag="0"/>
		</comp>
		<comp name="--.HNN" depth="0.0">
			<acc value="0.0114174530528331" flag="0"/>
			<vel value="0.00527369174487472" flag="0"/>
			<psa03 value="0.0272079742697499" flag="0"/>
			<psa10 value="0.0020161919221955" flag="0"/>
			<psa30 value="0.000207648026495925" flag="0"/>
		</comp>
		<comp name="--.HNZ" depth="0.0">
			<acc value="0.0108115687600827" flag="0"/>
			<vel value="0.0057410436377121" flag="0"/>
			<psa03 value="0.0366960663509656" flag="0"/>
			<psa10 value="0.00211781474795911" flag="0"/>
			<psa30 value="0.000178294154862578" flag="0"/>
		</comp>
	</station>
	<station code="KLV1" name="KLV1" netid="HI" source="ITSAK Strong Motion Network" insttype="" lat="38.03256" lon="22.10797">
		<comp name="--.HNE" depth="0.0">
			<acc value="0.0314599080504756" flag="0"/>
			<vel value="0.0158620910513086" flag="0"/>
			<psa03 value="0.140422448131516" flag="0"/>
			<psa10 value="0.00473088917944564" flag="0"/>
			<psa30 value="0.000414031724444786" flag="0"/>
		</comp>
		<comp name="--.HNN" depth="0.0">
			<acc value="0.0187773491625632" flag="0"/>
			<vel value="0.00941916362848295" flag="0"/>
			<psa03 value="0.0766676778158961" flag="0"/>
			<psa10 value="0.00522319647989566" flag="0"/>
			<psa30 value="0.000333864356458448" flag="0"/>
		</comp>
		<comp name="--.HNZ" depth="0.0">
			<acc value="0.0142733787677713" flag="0"/>
			<vel value="0.0048073773909278" flag="0"/>
			<psa03 value="0.0250696399072853" flag="0"/>
			<psa10 value="0.00372127073467414" flag="0"/>
			<psa30 value="0.000176154364674839" flag="0"/>
		</comp>
	</station>
	<station code="KRK1" name="KRK1" netid="HI" source="ITSAK Strong Motion Network" insttype="" lat="39.618861" lon="19.9202">
		<comp name="--.HNE" depth="0.0">
			<acc value="0.0042278928381173" flag="0"/>
			<vel value="0.00242157643559209" flag="0"/>
			<psa03 value="0.0103092656205258" flag="0"/>
			<psa10 value="0.00121686033758959" flag="0"/>
			<psa30 value="0.000114261735945767" flag="0"/>
		</comp>
		<comp name="--.HNN" depth="0.0">
			<acc value="0.00447455359442525" flag="0"/>
			<vel value="0.00192130857263139" flag="0"/>
			<psa03 value="0.0109873880167624" flag="0"/>
			<psa10 value="0.00149082301752063" flag="0"/>
			<psa30 value="0.000112652345477666" flag="0"/>
		</comp>
		<comp name="--.HNZ" depth="0.0">
			<acc value="0.00168531599178022" flag="0"/>
			<vel value="0.000778463167639323" flag="0"/>
			<psa03 value="0.00596293407760069" flag="0"/>
			<psa10 value="0.000565543558234392" flag="0"/>
			<psa30 value="0.000104958795452934" flag="0"/>
		</comp>
	</station>
	<station code="LAM2" name="LAM2" netid="HI" source="ITSAK Strong Motion Network" insttype="" lat="38.90203" lon="22.431301">
		<comp name="--.HNE" depth="0.0">
			<acc value="0.0129796397901921" flag="0"/>
			<vel value="0.00455432328696263" flag="0"/>
			<psa03 value="0.0355961419238784" flag="0"/>
			<psa10 value="0.00287561455785162" flag="0"/>
			<psa30 value="0.00022441997088814" flag="0"/>
		</comp>
		<comp name="--.HNN" depth="0.0">
			<acc value="0.016710506235296" flag="0"/>
			<vel value="0.00615497311801999" flag="0"/>
			<psa03 value="0.034658486058763" flag="0"/>
			<psa10 value="0.0022666147614798" flag="0"/>
			<psa30 value="0.000202251210650088" flag="0"/>
		</comp>
		<comp name="--.HNZ" depth="0.0">
			<acc value="0.00756278034583154" flag="0"/>
			<vel value="0.00274154863122857" flag="0"/>
			<psa03 value="0.0119672341767867" flag="0"/>
			<psa10 value="0.00227033688305085" flag="0"/>
			<psa30 value="0.000160768071970754" flag="0"/>
		</comp>
	</station>
	<station code="MSL1" name="MSL1" netid="HI" source="ITSAK Strong Motion Network" insttype="" lat="38.3727" lon="21.4243">
		<comp name="--.HNE" depth="0.0">
			<acc value="0.285553761962961" flag="0"/>
			<vel value="0.11210314012275" flag="0"/>
			<psa03 value="0.631318196731548" flag="0"/>
			<psa10 value="0.125360462015232" flag="0"/>
			<psa30 value="0.00640983545349038" flag="0"/>
		</comp>
		<comp name="--.HNN" depth="0.0">
			<acc value="0.244241642362338" flag="0"/>
			<vel value="0.113883976903661" flag="0"/>
			<psa03 value="0.563000629360234" flag="0"/>
			<psa10 value="0.195814661760347" flag="0"/>
			<psa30 value="0.00516866198182967" flag="0"/>
		</comp>
		<comp name="--.HNZ" depth="0.0">
			<acc value="0.225138487062446" flag="0"/>
			<vel value="0.0519103047230002" flag="0"/>
			<psa03 value="0.249897554486561" flag="0"/>
			<psa10 value="0.0579184880657381" flag="0"/>
			<psa30 value="0.00328874515489113" flag="0"/>
		</comp>
	</station>
	<station code="VAS2" name="VAS2" netid="HI" source="ITSAK Strong Motion Network" insttype="" lat="38.630558" lon="20.608081">
		<comp name="--.HNE" depth="0.0">
			<acc value="0.0542965108941691" flag="0"/>
			<vel value="0.0248876419809615" flag="0"/>
			<psa03 value="0.176720477697625" flag="0"/>
			<psa10 value="0.0197906854107625" flag="0"/>
			<psa30 value="0.000770810802016518" flag="0"/>
		</comp>
		<comp name="--.HNN" depth="0.0">
			<acc value="0.0807374379279425" flag="0"/>
			<vel value="0.032008798082681" flag="0"/>
			<psa03 value="0.263805496653006" flag="0"/>
			<psa10 value="0.0225778344207067" flag="0"/>
			<psa30 value="0.00142355534522381" flag="0"/>
		</comp>
		<comp name="--.HNZ" depth="0.0">
			<acc value="0.0277236309857603" flag="0"/>
			<vel value="0.0134236822175035" flag="0"/>
			<psa03 value="0.0825900076411332" flag="0"/>
			<psa10 value="0.00999943085073639" flag="0"/>
			<psa30 value="0.000642540377645005" flag="0"/>
		</comp>
	</station>
	<station code="DLFA" name="DLFA" netid="HL" source="National Observatory of Athens Seismic Network" insttype="" lat="38.47836" lon="22.49583">
		<comp name="00.HNE" depth="0.0">
			<acc value="0.00721173388286058" flag="0"/>
			<vel value="0.00278777270527497" flag="0"/>
			<psa03 value="0.0171532131390897" flag="0"/>
			<psa10 value="0.00280865105934724" flag="0"/>
			<psa30 value="0.000168301539776115" flag="0"/>
		</comp>
		<comp name="00.HNN" depth="0.0">
			<acc value="0.0086813909929851" flag="0"/>
			<vel value="0.00307681753114584" flag="0"/>
			<psa03 value="0.0147908769584296" flag="0"/>
			<psa10 value="0.00272471182691144" flag="0"/>
			<psa30 value="0.000132238343474687" flag="0"/>
		</comp>
		<comp name="00.HNZ" depth="0.0">
			<acc value="0.00609400222726911" flag="0"/>
			<vel value="0.00229305439896268" flag="0"/>
			<psa03 value="0.0158575569957642" flag="0"/>
			<psa10 value="0.00166949434580696" flag="0"/>
			<psa30 value="0.000123057579044053" flag="0"/>
		</comp>
	</station>
	<station code="GINA" name="GINA" netid="HL" source="National Observatory of Athens Seismic Network" insttype="" lat="39.66886" lon="22.389">
		<comp name="00.HNE" depth="0.0">
			<acc value="0.00675316717838459" flag="0"/>
			<vel value="0.00409410925246379" flag="0"/>
			<psa03 value="0.0165914324342834" flag="0"/>
			<psa10 value="0.00410843185096683" flag="0"/>
			<psa30 value="0.000486795424890169" flag="0"/>
		</comp>
		<comp name="00.HNN" depth="0.0">
			<acc value="0.00635495327534601" flag="0"/>
			<vel value="0.00525423755046538" flag="0"/>
			<psa03 value="0.0105109827593689" flag="0"/>
			<psa10 value="0.00353383261469063" flag="0"/>
			<psa30 value="0.00058796254338282" flag="0"/>
		</comp>
		<comp name="00.HNZ" depth="0.0">
			<acc value="0.0143217752580881" flag="0"/>
			<vel value="0.00185249587720467" flag="0"/>
			<psa03 value="0.0074121316423448" flag="0"/>
			<psa10 value="0.00299078328096239" flag="0"/>
			<psa30 value="0.000188778078537878" flag="0"/>
		</comp>
	</station>
	<station code="PATC" name="PATC" netid="HL" source="National Observatory of Athens Seismic Network" insttype="" lat="38.26933" lon="21.76001">
		<comp name="00.HNE" depth="0.0">
			<acc value="0.077780181902647" flag="0"/>
			<vel value="0.030593435718648" flag="0"/>
			<psa03 value="0.164717307546779" flag="0"/>
			<psa10 value="0.0279710029416902" flag="0"/>
			<psa30 value="0.00248487315231977" flag="0"/>
		</comp>
		<comp name="00.HNN" depth="0.0">
			<acc value="0.0809772864624201" flag="0"/>
			<vel value="0.0284851884343095" flag="0"/>
			<psa03 value="0.152385771892822" flag="0"/>
			<psa10 value="0.0273580098338698" flag="0"/>
			<psa30 value="0.00282808338831261" flag="0"/>
		</comp>
		<comp name="00.HNZ" depth="0.0">
			<acc value="0.11989186124716" flag="0"/>
			<vel value="0.0222388408601668" flag="0"/>
			<psa03 value="0.106625553002986" flag="0"/>
			<psa10 value="0.0159827694050369" flag="0"/>
			<psa30 value="0.000883447378220686" flag="0"/>
		</comp>
	</station>
	<station code="PATG" name="PATG" netid="HL" source="National Observatory of Athens Seismic Network" insttype="" lat="38.23865" lon="21.72657">
		<comp name="00.HNE" depth="0.0">
			<acc value="0.134584175796852" flag="0"/>
			<vel value="0.0540551491883893" flag="0"/>
			<psa03 value="0.311996793256556" flag="0"/>
			<psa10 value="0.0217529541514601" flag="0"/>
			<psa30 value="0.00232888115194541" flag="0"/>
		</comp>
		<comp name="00.HNN" depth="0.0">
			<acc value="0.132714856046432" flag="0"/>
			<vel value="0.0448409305364414" flag="0"/>
			<psa03 value="0.28316425824246" flag="0"/>
			<psa10 value="0.0244470257454798" flag="0"/>
			<psa30 value="0.00318792868462876" flag="0"/>
		</comp>
		<comp name="00.HNZ" depth="0.0">
			<acc value="0.0814401141868612" flag="0"/>
			<vel value="0.0154753510087564" flag="0"/>
			<psa03 value="0.101838808821209" flag="0"/>
			<psa10 value="0.0115026363681899" flag="0"/>
			<psa30 value="0.00124283181067243" flag="0"/>
		</comp>
	</station>
	<station code="RIOA" name="RIOA" netid="HL" source="National Observatory of Athens Seismic Network" insttype="" lat="38.29585" lon="21.79118">
		<comp name="00.HNE" depth="0.0">
			<acc value="0.0884587938190755" flag="0"/>
			<vel value="0.0248688894791446" flag="0"/>
			<psa03 value="0.0802477066415408" flag="0"/>
			<psa10 value="0.0144600560327536" flag="0"/>
			<psa30 value="0.00153964886918186" flag="0"/>
		</comp>
		<comp name="00.HNN" depth="0.0">
			<acc value="0.134092760039143" flag="0"/>
			<vel value="0.0335679051947922" flag="0"/>
			<psa03 value="0.234803242062327" flag="0"/>
			<psa10 value="0.0236002121482483" flag="0"/>
			<psa30 value="0.00219227064383679" flag="0"/>
		</comp>
		<comp name="00.HNZ" depth="0.0">
			<acc value="0.11285689142554" flag="0"/>
			<vel value="0.020104982227473" flag="0"/>
			<psa03 value="0.0926423454339289" flag="0"/>
			<psa10 value="0.00885622949425323" flag="0"/>
			<psa30 value="0.000938668328003413" flag="0"/>
		</comp>
	</station>
	<station code="SOFA" name="SOFA" netid="HL" source="National Observatory of Athens Seismic Network" insttype="" lat="39.33773" lon="22.09691">
		<comp name="00.HNE" depth="0.0">
			<acc value="0.0138618134006394" flag="0"/>
			<vel value="0.00756441200487985" flag="0"/>
			<psa03 value="0.0477573876510926" flag="0"/>
			<psa10 value="0.00743332148355213" flag="0"/>
			<psa30 value="0.000705228957540479" flag="0"/>
		</comp>
		<comp name="00.HNN" depth="0.0">
			<acc value="0.0173576876668226" flag="0"/>
			<vel value="0.0163992004703667" flag="0"/>
			<psa03 value="0.0448492106232612" flag="0"/>
			<psa10 value="0.00963861944872664" flag="0"/>
			<psa30 value="0.00123900291119665" flag="0"/>
		</comp>
		<comp name="00.HNZ" depth="0.0">
			<acc value="0.00733063352150291" flag="0"/>
			<vel value="0.00366889138790939" flag="0"/>
			<psa03 value="0.0142181697485622" flag="0"/>
			<psa10 value="0.00617098410992915" flag="0"/>
			<psa30 value="0.000377656293917569" flag="0"/>
		</comp>
	</station>
	<station code="ANX" name="ANX" netid="HP" source="University of Patras, Seismological Laboratory (PSLNET)" insttype="" lat="38.5933" lon="21.9209">
		<comp name="--.HNE" depth="0.0">
			<acc value="0.0963461396666408" flag="0"/>
			<vel value="0.028946584931493" flag="0"/>
			<psa03 value="0.194796800165457" flag="0"/>
			<psa10 value="0.0202728867292325" flag="0"/>
			<psa30 value="0.00132253031947836" flag="0"/>
		</comp>
		<comp name="--.HNN" depth="0.0">
			<acc value="0.081250757309339" flag="0"/>
			<vel value="0.0468332838177194" flag="0"/>
			<psa03 value="0.154770023588019" flag="0"/>
			<psa10 value="0.0319645974977013" flag="0"/>
			<psa30 value="0.00218917668888037" flag="0"/>
		</comp>
		<comp name="--.HNZ" depth="0.0">
			<acc value="0.063381344667463" flag="0"/>
			<vel value="0.0196747668809209" flag="0"/>
			<psa03 value="0.0968578226052548" flag="0"/>
			<psa10 value="0.0174788447626724" flag="0"/>
			<psa30 value="0.000901005208005618" flag="0"/>
		</comp>
	</station>
	<station code="FSK" name="FSK" netid="HP" source="University of Patras, Seismological Laboratory (PSLNET)" insttype="" lat="38.4593" lon="20.5623">
		<comp name="--.HNE" depth="0.0">
			<acc value="0.0465495731510318" flag="0"/>
			<vel value="0.0107587442002164" flag="0"/>
			<psa03 value="0.03366093820531" flag="0"/>
			<psa10 value="0.00404553221541168" flag="0"/>
			<psa30 value="0.000170202329756355" flag="0"/>
		</comp>
		<comp name="--.HNN" depth="0.0">
			<acc value="0.0201732782459647" flag="0"/>
			<vel value="0.00502526222526371" flag="0"/>
			<psa03 value="0.0169135058534069" flag="0"/>
			<psa10 value="0.00271363945279556" flag="0"/>
			<psa30 value="0.000177105899063504" flag="0"/>
		</comp>
		<comp name="--.HNZ" depth="0.0">
			<acc value="0.0251882353517827" flag="0"/>
