<?xml version="1.0" encoding="UTF-8" standalone="yes"?>
<!DOCTYPE earthquake SYSTEM "stationlist.dtd">
<stationlist created="" xmlns="ch.ethz.sed.shakemap.usgs.xml">
  <station code="KLV" name="KLV" netid="MN" insttype="" lat="38.0437" lon="22.1504">
    <comp name="--.HHE">
      <acc value="0.0096846363" flag="0"/>
      <vel value="0.0032918687" flag="0"/>
      <psa03 value="0.0215122339" flag="0"/>
      <psa10 value="0.0025283822" flag="0"/>
      <psa30 value="0.0001224440" flag="0"/>
    </comp>
    <comp name="--.HHZ">
      <acc value="0.0127015774" flag="0"/>
      <vel value="0.0034651334" flag="0"/>
      <psa03 value="0.0198145051" flag="0"/>
      <psa10 value="0.0016472038" flag="0"/>
      <psa30 value="0.0002228559" flag="0"/>
    </comp>
    <comp name="--.HHN">
      <acc value="0.0067132085" flag="0"/>
      <vel value="0.0027517179" flag="0"/>
      <psa03 value="0.0182366768" flag="0"/>
      <psa10 value="0.0025693573" flag="0"/>
      <psa30 value="0.0001365396" flag="0"/>
    </comp>
  </station>
</stationlist>
