<?xml version="1.0" encoding="UTF-8" standalone="yes"?>
<!DOCTYPE earthquake SYSTEM "stationlist.dtd">
<stationlist created="" xmlns="ch.ethz.sed.shakemap.usgs.xml">
  <station code="ART2" name="ART2" netid="HI" insttype="CMG-5TD,ACCELEROMETER,GURALP" lat="39.1474" lon="20.9937">
    <comp name="--.HNN">
      <acc value="0.2424270899" flag="0"/>
      <vel value="0.0451423859" flag="0"/>
      <psa03 value="0.1714594412" flag="0"/>
      <psa10 value="0.0200287962" flag="0"/>
      <psa30 value="0.0012238040" flag="0"/>
    </comp>
    <comp name="--.HNE">
      <acc value="0.1880809542" flag="0"/>
      <vel value="0.0282944883" flag="0"/>
      <psa03 value="0.1260288948" flag="0"/>
      <psa10 value="0.0107520237" flag="0"/>
      <psa30 value="0.0014677120" flag="0"/>
    </comp>
    <comp name="--.HNZ">
      <acc value="0.1011033269" flag="0"/>
      <vel value="0.0203976669" flag="0"/>
      <psa03 value="0.0675578219" flag="0"/>
      <psa10 value="0.0103503843" flag="0"/>
      <psa30 value="0.0018327209" flag="0"/>
    </comp>
  </station>
  <station code="EVR" name="EVR" netid="HL" insttype="DR24" lat="38.9166" lon="21.8105">
    <comp name="--.HHE">
      <acc value="0.1503323141" flag="0"/>
      <vel value="0.0297683989" flag="0"/>
      <psa03 value="0.1301315092" flag="0"/>
      <psa10 value="0.0091807683" flag="0"/>
      <psa30 value="0.0026450859" flag="0"/>
    </comp>
    <comp name="--.HHN">
      <acc value="0.1540455327" flag="0"/>
      <vel value="0.0293931626" flag="0"/>
      <psa03 value="0.0904291344" flag="0"/>
      <psa10 value="0.0087895013" flag="0"/>
      <psa30 value="0.0011212355" flag="0"/>
    </comp>
    <comp name="--.HHZ">
      <acc value="0.1050910931" flag="0"/>
      <vel value="0.0227893607" flag="0"/>
      <psa03 value="0.0647765650" flag="0"/>
      <psa10 value="0.0088474284" flag="0"/>
      <psa30 value="0.0014631510" flag="0"/>
    </comp>
  </station>
  <station code="TETR" name="TETR" netid="HL" insttype="60" lat="39.3445" lon="21.2747">
    <comp name="--.HHE">
      <acc value="0.3282070282" flag="0"/>
      <vel value="0.1100892029" flag="0"/>
      <psa03 value="0.4824592717" flag="0"/>
      <psa10 value="0.0698264144" flag="0"/>
      <psa30 value="0.0088243498" flag="0"/>
    </comp>
    <comp name="--.HHN">
      <acc value="0.5397090038" flag="0"/>
      <vel value="0.1305721518" flag="0"/>
      <psa03 value="0.6290420106" flag="0"/>
      <psa10 value="0.0921358385" flag="0"/>
      <psa30 value="0.0060198148" flag="0"/>
    </comp>
    <comp name="--.HHZ">
      <acc value="0.2990302347" flag="0"/>
      <vel value="0.0852431620" flag="0"/>
      <psa03 value="0.2239397427" flag="0"/>
      <psa10 value="0.0497252064" flag="0"/>
      <psa30 value="0.0030423263" flag="0"/>
    </comp>
  </station>
  <station code="THL" name="THL" netid="HL" insttype="120" lat="39.5647" lon="22.0144">
    <comp name="--.HHE">
      <acc value="0.0427471985" flag="0"/>
      <vel value="0.0135668468" flag="0"/>
      <psa03 value="0.0570981507" flag="0"/>
      <psa10 value="0.0056868388" flag="0"/>
      <psa30 value="0.0006797173" flag="0"/>
    </comp>
    <comp name="--.HHN">
      <acc value="0.0366093394" flag="0"/>
      <vel value="0.0084007580" flag="0"/>
      <psa03 value="0.0377095033" flag="0"/>
      <psa10 value="0.0044888161" flag="0"/>
      <psa30 value="0.0007177206" flag="0"/>
    </comp>
    <comp name="--.HHZ">
      <acc value="0.0302035323" flag="0"/>
      <vel value="0.0068788578" flag="0"/>
      <psa03 value="0.0379849595" flag="0"/>
      <psa10 value="0.0042801219" flag="0"/>
      <psa30 value="0.0010602283" flag="0"/>
    </comp>
  </station>
  <station code="AMPL" name="AMPL" netid="HP" insttype="Compact," lat="38.9224" lon="21.2135">
    <comp name="--.HHE">
      <acc value="0.1923473843" flag="0"/>
      <vel value="0.0558054977" flag="0"/>
      <psa03 value="0.1752180530" flag="0"/>
      <psa10 value="0.0244701362" flag="0"/>
      <psa30 value="0.0016704178" flag="0"/>
    </comp>
    <comp name="--.HHZ">
      <acc value="0.0681926419" flag="0"/>
      <vel value="0.0198417997" flag="0"/>
      <psa03 value="0.1101229607" flag="0"/>
      <psa10 value="0.0217181746" flag="0"/>
      <psa30 value="0.0018553511" flag="0"/>
    </comp>
    <comp name="--.HHN">
      <acc value="0.1943493153" flag="0"/>
      <vel value="0.0391884807" flag="0"/>
      <psa03 value="0.1654307763" flag="0"/>
      <psa10 value="0.0303755584" flag="0"/>
      <psa30 value="0.0020899246" flag="0"/>
    </comp>
  </station>
  <station code="ANX" name="ANX" netid="HP" insttype="120" lat="38.5933" lon="21.9209">
    <comp name="--.HHE">
      <acc value="0.0412743614" flag="0"/>
      <vel value="0.0136676002" flag="0"/>
      <psa03 value="0.0682932893" flag="0"/>
      <psa10 value="0.0074182268" flag="0"/>
      <psa30 value="0.0006764244" flag="0"/>
    </comp>
    <comp name="--.HHN">
      <acc value="0.0356079940" flag="0"/>
      <vel value="0.0128938675" flag="0"/>
      <psa03 value="0.0694546860" flag="0"/>
      <psa10 value="0.0089539772" flag="0"/>
      <psa30 value="0.0005242342" flag="0"/>
    </comp>
    <comp name="--.HHZ">
      <acc value="0.0239575609" flag="0"/>
      <vel value="0.0085180895" flag="0"/>
      <psa03 value="0.0508948409" flag="0"/>
      <psa10 value="0.0051657910" flag="0"/>
      <psa30 value="0.0005014928" flag="0"/>
    </comp>
  </station>
  <station code="EFP" name="EFP" netid="HP" insttype="40," lat="38.4269" lon="21.9058">
    <comp name="--.HHN">
      <acc value="0.0249272342" flag="0"/>
      <vel value="0.0113453924" flag="0"/>
      <psa03 value="0.0787110769" flag="0"/>
      <psa10 value="0.0084629582" flag="0"/>
      <psa30 value="0.0006651706" flag="0"/>
    </comp>
    <comp name="--.HHE">
      <acc value="0.0372569187" flag="0"/>
      <vel value="0.0107072834" flag="0"/>
      <psa03 value="0.0738853817" flag="0"/>
      <psa10 value="0.0107551830" flag="0"/>
      <psa30 value="0.0006117755" flag="0"/>
    </comp>
    <comp name="--.HHZ">
      <acc value="0.0193934609" flag="0"/>
      <vel value="0.0068965732" flag="0"/>
      <psa03 value="0.0291620487" flag="0"/>
      <psa10 value="0.0047116942" flag="0"/>
      <psa30 value="0.0005458275" flag="0"/>
    </comp>
  </station>
  <station code="PLEV" name="PLEV" netid="HP" insttype="Compact," lat="38.4124" lon="21.4073">
    <comp name="--.HHE">
      <acc value="0.0202397830" flag="0"/>
      <vel value="0.0089851108" flag="0"/>
      <psa03 value="0.0675333324" flag="0"/>
      <psa10 value="0.0061132189" flag="0"/>
      <psa30 value="0.0004955374" flag="0"/>
    </comp>
    <comp name="--.HHN">
      <acc value="0.0146395192" flag="0"/>
      <vel value="0.0079211714" flag="0"/>
      <psa03 value="0.0352043240" flag="0"/>
      <psa10 value="0.0089000266" flag="0"/>
      <psa30 value="0.0004200095" flag="0"/>
    </comp>
    <comp name="--.HHZ">
      <acc value="0.0129357358" flag="0"/>
      <vel value="0.0057073319" flag="0"/>
      <psa03 value="0.0443269616" flag="0"/>
      <psa10 value="0.0029261145" flag="0"/>
      <psa30 value="0.0004194591" flag="0"/>
    </comp>
  </station>
  <station code="PRMD" name="PRMD" netid="HP" insttype="120P," lat="39.5299" lon="21.0965">
    <comp name="--.HHN">
      <acc value="0.0402467285" flag="0"/>
      <vel value="0.0206199693" flag="0"/>
      <psa03 value="0.1042041015" flag="0"/>
      <psa10 value="0.0155239093" flag="0"/>
      <psa30 value="0.0015710810" flag="0"/>
    </comp>
    <comp name="--.HHZ">
      <acc value="0.0291272144" flag="0"/>
      <vel value="0.0110680222" flag="0"/>
      <psa03 value="0.0497085236" flag="0"/>
      <psa10 value="0.0189400131" flag="0"/>
      <psa30 value="0.0021264600" flag="0"/>
    </comp>
    <comp name="--.HHE">
      <acc value="0.0428336703" flag="0"/>
      <vel value="0.0272058518" flag="0"/>
      <psa03 value="0.1506551570" flag="0"/>
      <psa10 value="0.0289888282" flag="0"/>
      <psa30 value="0.0020972862" flag="0"/>
    </comp>
  </station>
  <station code="PVO" name="PVO" netid="HP" insttype="DC_100" lat="38.616" lon="21.525">
    <comp name="--.HNE">
      <acc value="0.0436184278" flag="0"/>
      <vel value="0.0177174338" flag="0"/>
      <psa03 value="0.1173402631" flag="0"/>
      <psa10 value="0.0110061489" flag="0"/>
      <psa30 value="0.0016497031" flag="0"/>
    </comp>
    <comp name="--.HNZ">
      <acc value="0.0305219196" flag="0"/>
      <vel value="0.0116120122" flag="0"/>
      <psa03 value="0.0860148707" flag="0"/>
      <psa10 value="0.0078529001" flag="0"/>
      <psa30 value="0.0013734683" flag="0"/>
    </comp>
    <comp name="--.HNN">
      <acc value="0.0409854905" flag="0"/>
      <vel value="0.0162017892" flag="0"/>
      <psa03 value="0.0769688529" flag="0"/>
      <psa10 value="0.0103055162" flag="0"/>
      <psa30 value="0.0011970661" flag="0"/>
    </comp>
  </station>
  <station code="AGG" name="AGG" netid="HT" insttype="120P," lat="39.0211" lon="22.336">
    <comp name="--.HHN">
      <acc value="0.0353657722" flag="0"/>
      <vel value="0.0113941554" flag="0"/>
      <psa03 value="0.0760603352" flag="0"/>
      <psa10 value="0.0073832837" flag="0"/>
      <psa30 value="0.0006333592" flag="0"/>
    </comp>
    <comp name="--.HHE">
      <acc value="0.0310697134" flag="0"/>
      <vel value="0.0093924655" flag="0"/>
      <psa03 value="0.0536951825" flag="0"/>
      <psa10 value="0.0056668973" flag="0"/>
      <psa30 value="0.0004205215" flag="0"/>
    </comp>
    <comp name="--.HHZ">
      <acc value="0.0253648749" flag="0"/>
      <vel value="0.0058302097" flag="0"/>
      <psa03 value="0.0285385329" flag="0"/>
      <psa10 value="0.0060188170" flag="0"/>
      <psa30 value="0.0004421081" flag="0"/>
    </comp>
  </station>
  <station code="KPRO" name="KPRO" netid="HT" insttype="100" lat="39.9549" lon="21.3632">
    <comp name="--.HHZ">
      <acc value="0.0149907387" flag="0"/>
      <vel value="0.0064246540" flag="0"/>
      <psa03 value="0.0227056207" flag="0"/>
      <psa10 value="0.0096524583" flag="0"/>
      <psa30 value="0.0014114258" flag="0"/>
    </comp>
    <comp name="--.HHN">
      <acc value="0.0297066797" flag="0"/>
      <vel value="0.0108628264" flag="0"/>
      <psa03 value="0.0450037248" flag="0"/>
      <psa10 value="0.0095163669" flag="0"/>
      <psa30 value="0.0012690036" flag="0"/>
    </comp>
    <comp name="--.HHE">
      <acc value="0.0227112363" flag="0"/>
      <vel value="0.0103255455" flag="0"/>
      <psa03 value="0.0393809402" flag="0"/>
      <psa10 value="0.0119530267" flag="0"/>
      <psa30 value="0.0015611212" flag="0"/>
    </comp>
  </station>
  <station code="LKD2" name="LKD2" netid="HT" insttype="100" lat="38.7889" lon="20.6578">
    <comp name="--.HHE">
      <acc value="0.0311378244" flag="0"/>
      <vel value="0.0175555925" flag="0"/>
      <psa03 value="0.0828397122" flag="0"/>
      <psa10 value="0.0134561652" flag="0"/>
      <psa30 value="0.0012251013" flag="0"/>
    </comp>
    <comp name="--.HHZ">
      <acc value="0.0230344686" flag="0"/>
      <vel value="0.0138082999" flag="0"/>
      <psa03 value="0.0394056576" flag="0"/>
      <psa10 value="0.0130668608" flag="0"/>
      <psa30 value="0.0008866530" flag="0"/>
    </comp>
    <comp name="--.HHN">
      <acc value="0.0368839679" flag="0"/>
      <vel value="0.0215952927" flag="0"/>
      <psa03 value="0.0918469960" flag="0"/>
      <psa10 value="0.0258130516" flag="0"/>
      <psa30 value="0.0009389776" flag="0"/>
    </comp>
  </station>
  <station code="NYDR" name="NYDR" netid="HT" insttype="1s-100Hz," lat="38.7135" lon="20.6983">
    <comp name="--.HHZ">
      <acc value="0.0238932602" flag="0"/>
      <vel value="0.0140102295" flag="0"/>
      <psa03 value="0.0926145018" flag="0"/>
      <psa10 value="0.0077350600" flag="0"/>
      <psa30 value="0.0007611512" flag="0"/>
    </comp>
    <comp name="--.HHN">
      <acc value="0.0287912660" flag="0"/>
      <vel value="0.0180731653" flag="0"/>
      <psa03 value="0.0540739306" flag="0"/>
      <psa10 value="0.0189993731" flag="0"/>
      <psa30 value="0.0009038999" flag="0"/>
    </comp>
    <comp name="--.HHE">
      <acc value="0.0281124206" flag="0"/>
      <vel value="0.0153124772" flag="0"/>
      <psa03 value="0.1171026745" flag="0"/>
      <psa10 value="0.0130308093" flag="0"/>
      <psa30 value="0.0008843983" flag="0"/>
    </comp>
  </station>
  <station code="TSLK" name="TSLK" netid="HT" insttype="1s-100Hz," lat="38.8249" lon="20.6554">
    <comp name="--.HHE">
      <acc value="0.0350509113" flag="0"/>
      <vel value="0.0183704442" flag="0"/>
      <psa03 value="0.1168217381" flag="0"/>
      <psa10 value="0.0218777768" flag="0"/>
      <psa30 value="0.0021743082" flag="0"/>
    </comp>
    <comp name="--.HHN">
      <acc value="0.0411932264" flag="0"/>
      <vel value="0.0294036233" flag="0"/>
      <psa03 value="0.1127035495" flag="0"/>
      <psa10 value="0.0320089179" flag="0"/>
      <psa30 value="0.0014815938" flag="0"/>
    </comp>
    <comp name="--.HHZ">
      <acc value="0.0249551458" flag="0"/>
      <vel value="0.0139161960" flag="0"/>
      <psa03 value="0.0581032001" flag="0"/>
      <psa10 value="0.0109470277" flag="0"/>
      <psa30 value="0.0015617042" flag="0"/>
    </comp>
  </station>
  <station code="TYRN" name="TYRN" netid="HT" insttype="120P," lat="39.711" lon="22.2325">
    <comp name="--.HHE">
      <acc value="0.0237275782" flag="0"/>
      <vel value="0.0083400027" flag="0"/>
      <psa03 value="0.0466396345" flag="0"/>
      <psa10 value="0.0050739541" flag="0"/>
      <psa30 value="0.0004279889" flag="0"/>
    </comp>
    <comp name="--.HHN">
      <acc value="0.0236956773" flag="0"/>
      <vel value="0.0093126826" flag="0"/>
      <psa03 value="0.0776657857" flag="0"/>
      <psa10 value="0.0044686733" flag="0"/>
      <psa30 value="0.0005281852" flag="0"/>
    </comp>
    <comp name="--.HHZ">
      <acc value="0.0284436177" flag="0"/>
      <vel value="0.0086661502" flag="0"/>
      <psa03 value="0.0649703874" flag="0"/>
      <psa10 value="0.0083304779" flag="0"/>
      <psa30 value="0.0005317107" flag="0"/>
    </comp>
  </station>
  <station code="THL" name="THL" netid="MN" insttype="" lat="39.5647" lon="22.0144">
    <comp name="--.HHE">
      <acc value="0.0427471985" flag="0"/>
      <vel value="0.0135668468" flag="0"/>
      <psa03 value="0.0570981507" flag="0"/>
      <psa10 value="0.0056868388" flag="0"/>
      <psa30 value="0.0006797173" flag="0"/>
    </comp>
    <comp name="--.HHZ">
      <acc value="0.0302035323" flag="0"/>
      <vel value="0.0068788578" flag="0"/>
      <psa03 value="0.0379849595" flag="0"/>
      <psa10 value="0.0042801219" flag="0"/>
      <psa30 value="0.0010602283" flag="0"/>
    </comp>
    <comp name="--.HHN">
      <acc value="0.0366093394" flag="0"/>
      <vel value="0.0084007580" flag="0"/>
      <psa03 value="0.0377095033" flag="0"/>
      <psa10 value="0.0044888161" flag="0"/>
      <psa30 value="0.0007177206" flag="0"/>
    </comp>
  </station>
</stationlist>
