<?xml version="1.0" encoding="UTF-8" standalone="yes"?>
<!DOCTYPE earthquake SYSTEM "stationlist.dtd">
<stationlist created="" xmlns="ch.ethz.sed.shakemap.usgs.xml">
  <station code="GVD" name="GVD" netid="GE" insttype="STS-2/N" lat="34.8391" lon="24.0874">
    <comp name="--.HHN">
      <acc value="0.0109886094" flag="0"/>
      <vel value="0.0050200201" flag="0"/>
      <psa03 value="0.0440065159" flag="0"/>
      <psa10 value="0.0026569052" flag="0"/>
      <psa30 value="0.0005117992" flag="0"/>
    </comp>
    <comp name="--.HHE">
      <acc value="0.2360940384" flag="0"/>
      <vel value="0.0302500171" flag="0"/>
      <psa03 value="0.2669266701" flag="0"/>
      <psa10 value="0.0348998218" flag="0"/>
      <psa30 value="0.0084738380" flag="0"/>
    </comp>
    <comp name="--.HHZ">
      <acc value="0.0084332295" flag="0"/>
      <vel value="0.0023489858" flag="0"/>
      <psa03 value="0.0148073323" flag="0"/>
      <psa10 value="0.0017553821" flag="0"/>
      <psa30 value="0.0002484555" flag="0"/>
    </comp>
  </station>
  <station code="KNDR" name="KNDR" netid="HC" insttype="120" lat="35.2348" lon="23.6248">
    <comp name="--.HHE">
      <acc value="0.0268284197" flag="0"/>
      <vel value="0.0148476221" flag="0"/>
      <psa03 value="0.0968740959" flag="0"/>
      <psa10 value="0.0193916935" flag="0"/>
      <psa30 value="0.0007524905" flag="0"/>
    </comp>
    <comp name="--.HHN">
      <acc value="0.0301731966" flag="0"/>
      <vel value="0.0157318118" flag="0"/>
      <psa03 value="0.0892150549" flag="0"/>
      <psa10 value="0.0115647658" flag="0"/>
      <psa30 value="0.0010457084" flag="0"/>
    </comp>
    <comp name="--.HHZ">
      <acc value="0.0395042082" flag="0"/>
      <vel value="0.0111881064" flag="0"/>
      <psa03 value="0.0465317824" flag="0"/>
      <psa10 value="0.0055410193" flag="0"/>
      <psa30 value="0.0004860675" flag="0"/>
    </comp>
  </station>
  <station code="RODP" name="RODP" netid="HC" insttype="120" lat="35.5604" lon="23.7577">
    <comp name="--.HHE">
      <acc value="0.0077537530" flag="0"/>
      <vel value="0.0062263743" flag="0"/>
      <psa03 value="0.0289421518" flag="0"/>
      <psa10 value="0.0091290255" flag="0"/>
      <psa30 value="0.0007664848" flag="0"/>
    </comp>
    <comp name="--.HHZ">
      <acc value="0.0032400939" flag="0"/>
      <vel value="0.0022206229" flag="0"/>
      <psa03 value="0.0091293064" flag="0"/>
      <psa10 value="0.0024538321" flag="0"/>
      <psa30 value="0.0004414247" flag="0"/>
    </comp>
    <comp name="--.HHN">
      <acc value="0.0073143319" flag="0"/>
      <vel value="0.0048614755" flag="0"/>
      <psa03 value="0.0187105614" flag="0"/>
      <psa10 value="0.0048209770" flag="0"/>
      <psa30 value="0.0008592849" flag="0"/>
    </comp>
  </station>
  <station code="ANKY" name="ANKY" netid="HL" insttype="60" lat="35.867" lon="23.3012">
    <comp name="--.HHE">
      <acc value="0.0101751915" flag="0"/>
      <vel value="0.0034482069" flag="0"/>
      <psa03 value="0.0170770364" flag="0"/>
      <psa10 value="0.0048225043" flag="0"/>
      <psa30 value="0.0004325385" flag="0"/>
    </comp>
    <comp name="--.HHZ">
      <acc value="0.0060132521" flag="0"/>
      <vel value="0.0024820602" flag="0"/>
      <psa03 value="0.0136945677" flag="0"/>
      <psa10 value="0.0026117726" flag="0"/>
      <psa30 value="0.0002802737" flag="0"/>
    </comp>
    <comp name="--.HHN">
      <acc value="0.0100352928" flag="0"/>
      <vel value="0.0044399408" flag="0"/>
      <psa03 value="0.0166719748" flag="0"/>
      <psa10 value="0.0056850435" flag="0"/>
      <psa30 value="0.0004499673" flag="0"/>
    </comp>
  </station>
  <station code="GVD" name="GVD" netid="HL" insttype="120" lat="34.8391" lon="24.0874">
    <comp name="--.HHE">
      <acc value="0.2545369533" flag="0"/>
      <vel value="0.0301110354" flag="0"/>
      <psa03 value="0.2596712261" flag="0"/>
      <psa10 value="0.0346771771" flag="0"/>
      <psa30 value="0.0084779597" flag="0"/>
    </comp>
    <comp name="--.HHN">
      <acc value="0.0106945892" flag="0"/>
      <vel value="0.0049005738" flag="0"/>
      <psa03 value="0.0427757722" flag="0"/>
      <psa10 value="0.0026375976" flag="0"/>
      <psa30 value="0.0005118579" flag="0"/>
    </comp>
    <comp name="--.HHZ">
      <acc value="0.0083711953" flag="0"/>
      <vel value="0.0023013976" flag="0"/>
      <psa03 value="0.0144117130" flag="0"/>
      <psa10 value="0.0017331301" flag="0"/>
      <psa30 value="0.0002483821" flag="0"/>
    </comp>
  </station>
  <station code="IMMV" name="IMMV" netid="HL" insttype="120" lat="35.4606" lon="23.9811">
    <comp name="--.HHZ">
      <acc value="0.0040879109" flag="0"/>
      <vel value="0.0020571221" flag="0"/>
      <psa03 value="0.0102192169" flag="0"/>
      <psa10 value="0.0023114854" flag="0"/>
      <psa30 value="0.0002929006" flag="0"/>
    </comp>
    <comp name="--.HHE">
      <acc value="0.0068440870" flag="0"/>
      <vel value="0.0061267997" flag="0"/>
      <psa03 value="0.0166728138" flag="0"/>
      <psa10 value="0.0065599226" flag="0"/>
      <psa30 value="0.0005897515" flag="0"/>
    </comp>
    <comp name="--.HHN">
      <acc value="0.0071494880" flag="0"/>
      <vel value="0.0037504911" flag="0"/>
      <psa03 value="0.0217611718" flag="0"/>
      <psa10 value="0.0054814369" flag="0"/>
      <psa30 value="0.0005330038" flag="0"/>
    </comp>
  </station>
</stationlist>
