<?xml version="1.0" encoding="UTF-8" standalone="yes"?>
<!DOCTYPE earthquake SYSTEM "stationlist.dtd">
<stationlist created="" xmlns="ch.ethz.sed.shakemap.usgs.xml">
  <station code="OEM7" name="OEM7" netid="3D" insttype="" commtype="DIG" lat="38.4825" lon="14.9707">
    <comp name="--.HHE">
      <acc value="0.1102991239" flag="0"/>
      <vel value="0.0523010438" flag="0"/>
      <psa03 value="0.3006630294" flag="0"/>
      <psa10 value="0.0416048514" flag="0"/>
      <psa30 value="0.0021666908" flag="0"/>
    </comp>
    <comp name="--.HHN">
      <acc value="0.1098614912" flag="0"/>
      <vel value="0.0586017351" flag="0"/>
      <psa03 value="0.3021922005" flag="0"/>
      <psa10 value="0.0455874161" flag="0"/>
      <psa30 value="0.0025438007" flag="0"/>
    </comp>
    <comp name="--.HHZ">
      <acc value="0.0866329919" flag="0"/>
      <vel value="0.0404381779" flag="0"/>
      <psa03 value="0.3202326123" flag="0"/>
      <psa10 value="0.0125765680" flag="0"/>
      <psa30 value="0.0011258985" flag="0"/>
    </comp>
  </station>
  <station code="AIO" name="AIO" netid="IV" insttype="" commtype="DIG" lat="37.9712" lon="15.233">
    <comp name="--.HHE">
      <acc value="0.1220358995" flag="0"/>
      <vel value="0.0473009184" flag="0"/>
      <psa03 value="0.2379752170" flag="0"/>
      <psa10 value="0.0221776646" flag="0"/>
      <psa30 value="0.0014255151" flag="0"/>
    </comp>
    <comp name="--.HHN">
      <acc value="0.1208768391" flag="0"/>
      <vel value="0.0427363084" flag="0"/>
      <psa03 value="0.3044830333" flag="0"/>
      <psa10 value="0.0209087895" flag="0"/>
      <psa30 value="0.0016068396" flag="0"/>
    </comp>
    <comp name="--.HHZ">
      <acc value="0.0874847071" flag="0"/>
      <vel value="0.0267292767" flag="0"/>
      <psa03 value="0.1815665048" flag="0"/>
      <psa10 value="0.0128845763" flag="0"/>
      <psa30 value="0.0010547400" flag="0"/>
    </comp>
  </station>
  <station code="BASIC" name="BASIC" netid="IV" insttype="" commtype="DIG" lat="38.067" lon="15.0688">
    <comp name="--.HHE">
      <acc value="0.4307255775" flag="0"/>
      <vel value="0.2081359740" flag="0"/>
      <psa03 value="1.4550445050" flag="0"/>
      <psa10 value="0.0744263049" flag="0"/>
      <psa30 value="0.0066682321" flag="0"/>
    </comp>
    <comp name="--.HHZ">
      <acc value="0.4526574782" flag="0"/>
      <vel value="0.1215589307" flag="0"/>
      <psa03 value="0.7927517682" flag="0"/>
      <psa10 value="0.0370175626" flag="0"/>
      <psa30 value="0.0033971236" flag="0"/>
    </comp>
    <comp name="--.HHN">
      <acc value="0.4348916204" flag="0"/>
      <vel value="0.2130727445" flag="0"/>
      <psa03 value="1.3900989146" flag="0"/>
      <psa10 value="0.1131480258" flag="0"/>
      <psa30 value="0.0078788113" flag="0"/>
    </comp>
  </station>
  <station code="BRICA" name="BRICA" netid="IV" insttype="" commtype="DIG" lat="38.7238" lon="16.0291">
    <comp name="--.HNN">
      <acc value="0.0615738106" flag="0"/>
      <vel value="0.0242308814" flag="0"/>
      <psa03 value="0.1449495873" flag="0"/>
      <psa10 value="0.0152951771" flag="0"/>
      <psa30 value="0.0021653449" flag="0"/>
    </comp>
    <comp name="--.HNZ">
      <acc value="0.0358860525" flag="0"/>
      <vel value="0.0099737735" flag="0"/>
      <psa03 value="0.0443308910" flag="0"/>
      <psa10 value="0.0101602902" flag="0"/>
      <psa30 value="0.0008816324" flag="0"/>
    </comp>
    <comp name="--.HNE">
      <acc value="0.0528761671" flag="0"/>
      <vel value="0.0312591612" flag="0"/>
      <psa03 value="0.1444172169" flag="0"/>
      <psa10 value="0.0164951039" flag="0"/>
      <psa30 value="0.0015360908" flag="0"/>
    </comp>
  </station>
  <station code="EBDA" name="EBDA" netid="IV" insttype="" commtype="DIG" lat="37.6335" lon="15.1223">
    <comp name="--.HHE">
      <acc value="0.9539672366" flag="0"/>
      <vel value="0.2662972704" flag="0"/>
      <psa03 value="1.8804808677" flag="0"/>
      <psa10 value="0.1523947854" flag="0"/>
      <psa30 value="0.0070581100" flag="0"/>
    </comp>
    <comp name="--.HHN">
      <acc value="0.7981324126" flag="0"/>
      <vel value="0.3213505413" flag="0"/>
      <psa03 value="2.1425035947" flag="0"/>
      <psa10 value="0.1540089308" flag="0"/>
      <psa30 value="0.0136562978" flag="0"/>
    </comp>
    <comp name="--.HHZ">
      <acc value="0.4584784319" flag="0"/>
      <vel value="0.1398317097" flag="0"/>
      <psa03 value="0.5986558773" flag="0"/>
      <psa10 value="0.0462219605" flag="0"/>
      <psa30 value="0.0032610531" flag="0"/>
    </comp>
  </station>
  <station code="ECBD" name="ECBD" netid="IV" insttype="" commtype="DIG" lat="37.7802" lon="15.0865">
    <comp name="--.HHZ">
      <acc value="0.2600336434" flag="0"/>
      <vel value="0.0783652256" flag="0"/>
      <psa03 value="0.5205848103" flag="0"/>
      <psa10 value="0.0468873269" flag="0"/>
      <psa30 value="0.0021785726" flag="0"/>
    </comp>
  </station>
  <station code="ECHR" name="ECHR" netid="IV" insttype="" commtype="DIG" lat="37.6863" lon="14.9129">
    <comp name="--.HHE">
      <acc value="0.4130911339" flag="0"/>
      <vel value="0.1570492525" flag="0"/>
      <psa03 value="0.8359397851" flag="0"/>
      <psa10 value="0.0979498752" flag="0"/>
      <psa30 value="0.0062594680" flag="0"/>
    </comp>
    <comp name="--.HHN">
      <acc value="0.5673038252" flag="0"/>
      <vel value="0.2158184426" flag="0"/>
      <psa03 value="1.1284737733" flag="0"/>
      <psa10 value="0.0650650228" flag="0"/>
      <psa30 value="0.0059316290" flag="0"/>
    </comp>
    <comp name="--.HHZ">
      <acc value="0.3942823343" flag="0"/>
      <vel value="0.1143748187" flag="0"/>
      <psa03 value="1.1467664434" flag="0"/>
      <psa10 value="0.0333350167" flag="0"/>
      <psa30 value="0.0036326691" flag="0"/>
    </comp>
  </station>
  <station code="ECTS" name="ECTS" netid="IV" insttype="" commtype="DIG" lat="37.882" lon="15.121">
    <comp name="--.HHN">
      <acc value="0.1707753498" flag="0"/>
      <vel value="0.0746749700" flag="0"/>
      <psa03 value="0.3624314207" flag="0"/>
      <psa10 value="0.0335895329" flag="0"/>
      <psa30 value="0.0036167180" flag="0"/>
    </comp>
    <comp name="--.HHE">
      <acc value="0.2077928472" flag="0"/>
      <vel value="0.1067027215" flag="0"/>
      <psa03 value="0.5134906019" flag="0"/>
      <psa10 value="0.0471334147" flag="0"/>
      <psa30 value="0.0052681161" flag="0"/>
    </comp>
    <comp name="--.HHZ">
      <acc value="0.1386887366" flag="0"/>
      <vel value="0.0430591328" flag="0"/>
      <psa03 value="0.3072301200" flag="0"/>
      <psa10 value="0.0285994430" flag="0"/>
      <psa30 value="0.0019505966" flag="0"/>
    </comp>
  </station>
  <station code="ECZM" name="ECZM" netid="IV" insttype="" commtype="DIG" lat="37.7313" lon="14.9041">
    <comp name="--.HHE">
      <acc value="0.3819266521" flag="0"/>
      <vel value="0.1400014189" flag="0"/>
      <psa03 value="0.6857951837" flag="0"/>
      <psa10 value="0.0830089352" flag="0"/>
      <psa30 value="0.0047141571" flag="0"/>
    </comp>
    <comp name="--.HHN">
      <acc value="0.4428600157" flag="0"/>
      <vel value="0.1517246521" flag="0"/>
      <psa03 value="0.9326620380" flag="0"/>
      <psa10 value="0.0895871395" flag="0"/>
      <psa30 value="0.0059065967" flag="0"/>
    </comp>
    <comp name="--.HHZ">
      <acc value="0.3177744543" flag="0"/>
      <vel value="0.1097565500" flag="0"/>
      <psa03 value="0.8401997958" flag="0"/>
      <psa10 value="0.0384734194" flag="0"/>
      <psa30 value="0.0034796606" flag="0"/>
    </comp>
  </station>
  <station code="EFIU" name="EFIU" netid="IV" insttype="" commtype="DIG" lat="37.7896" lon="15.2103">
    <comp name="--.HHE">
      <acc value="0.1640720367" flag="0"/>
      <vel value="0.1018307311" flag="0"/>
      <psa03 value="0.4371374451" flag="0"/>
      <psa10 value="0.1135761205" flag="0"/>
      <psa30 value="0.0072416869" flag="0"/>
    </comp>
    <comp name="--.HHN">
      <acc value="0.1730399086" flag="0"/>
      <vel value="0.1035518259" flag="0"/>
      <psa03 value="0.4597575642" flag="0"/>
      <psa10 value="0.0782144420" flag="0"/>
      <psa30 value="0.0061674259" flag="0"/>
    </comp>
    <comp name="--.HHZ">
      <acc value="0.1122421797" flag="0"/>
      <vel value="0.0445181400" flag="0"/>
      <psa03 value="0.2677114915" flag="0"/>
      <psa10 value="0.0615863160" flag="0"/>
      <psa30 value="0.0029181343" flag="0"/>
    </comp>
  </station>
  <station code="EMFO" name="EMFO" netid="IV" insttype="" commtype="DIG" lat="37.7357" lon="15.0902">
    <comp name="--.HHE">
      <acc value="0.6296053361" flag="0"/>
      <vel value="0.3266523602" flag="0"/>
      <psa03 value="1.4904861334" flag="0"/>
      <psa10 value="0.0853400466" flag="0"/>
      <psa30 value="0.0098863925" flag="0"/>
    </comp>
    <comp name="--.HHN">
      <acc value="0.5300586100" flag="0"/>
      <vel value="0.2154263624" flag="0"/>
      <psa03 value="1.6416590953" flag="0"/>
      <psa10 value="0.1241333437" flag="0"/>
      <psa30 value="0.0085609982" flag="0"/>
    </comp>
    <comp name="--.HHZ">
      <acc value="0.4353511146" flag="0"/>
      <vel value="0.1324931260" flag="0"/>
      <psa03 value="0.9920565535" flag="0"/>
      <psa10 value="0.0369533960" flag="0"/>
      <psa30 value="0.0035594471" flag="0"/>
    </comp>
  </station>
  <station code="EMFS" name="EMFS" netid="IV" insttype="" commtype="DIG" lat="37.7196" lon="14.9979">
    <comp name="--.HHE">
      <acc value="0.7718897912" flag="0"/>
      <vel value="0.2073499088" flag="0"/>
      <psa03 value="1.6298518431" flag="0"/>
      <psa10 value="0.0758769716" flag="0"/>
      <psa30 value="0.0046541295" flag="0"/>
    </comp>
    <comp name="--.HHN">
      <acc value="0.9643688042" flag="0"/>
      <vel value="0.2588442985" flag="0"/>
      <psa03 value="2.1125461959" flag="0"/>
      <psa10 value="0.0934398292" flag="0"/>
      <psa30 value="0.0061186871" flag="0"/>
    </comp>
    <comp name="--.HHZ">
      <acc value="0.4807815770" flag="0"/>
      <vel value="0.1035861864" flag="0"/>
      <psa03 value="0.7053820978" flag="0"/>
      <psa10 value="0.0371737758" flag="0"/>
      <psa30 value="0.0028274171" flag="0"/>
    </comp>
  </station>
  <station code="EMNR" name="EMNR" netid="IV" insttype="" commtype="DIG" lat="37.8168" lon="15.026">
    <comp name="--.HHZ">
      <acc value="0.4621646084" flag="0"/>
      <vel value="0.1176326565" flag="0"/>
      <psa03 value="0.5659471714" flag="0"/>
      <psa10 value="0.0494023402" flag="0"/>
      <psa30 value="0.0037778118" flag="0"/>
    </comp>
    <comp name="--.HHE">
      <acc value="0.7268099835" flag="0"/>
      <vel value="0.2151678601" flag="0"/>
      <psa03 value="0.9761996233" flag="0"/>
      <psa10 value="0.1100418130" flag="0"/>
      <psa30 value="0.0075217035" flag="0"/>
    </comp>
    <comp name="--.HHN">
      <acc value="0.8028008903" flag="0"/>
      <vel value="0.2476971546" flag="0"/>
      <psa03 value="1.3309460793" flag="0"/>
      <psa10 value="0.1121791921" flag="0"/>
      <psa30 value="0.0085120020" flag="0"/>
    </comp>
  </station>
  <station code="EMPL" name="EMPL" netid="IV" insttype="" commtype="DIG" lat="37.679" lon="14.9703">
    <comp name="--.HHE">
      <acc value="1.1216117155" flag="0"/>
      <vel value="0.3342530464" flag="0"/>
      <psa03 value="1.7981170716" flag="0"/>
      <psa10 value="0.0769499297" flag="0"/>
      <psa30 value="0.0049593817" flag="0"/>
    </comp>
    <comp name="--.HHN">
      <acc value="1.3741696934" flag="0"/>
      <vel value="0.4247964435" flag="0"/>
      <psa03 value="1.6092041727" flag="0"/>
      <psa10 value="0.0691275854" flag="0"/>
      <psa30 value="0.0065339380" flag="0"/>
    </comp>
    <comp name="--.HHZ">
      <acc value="1.0923837644" flag="0"/>
      <vel value="0.2447408514" flag="0"/>
      <psa03 value="0.8038990667" flag="0"/>
      <psa10 value="0.0398985094" flag="0"/>
      <psa30 value="0.0031958191" flag="0"/>
    </comp>
  </station>
  <station code="EMSA" name="EMSA" netid="IV" insttype="" commtype="DIG" lat="37.498" lon="14.945">
    <comp name="--.HHE">
      <acc value="0.0079503200" flag="0"/>
      <vel value="0.0011159513" flag="0"/>
      <psa03 value="0.0012474262" flag="0"/>
      <psa10 value="0.0002324441" flag="0"/>
      <psa30 value="0.0000295825" flag="0"/>
    </comp>
    <comp name="--.HHN">
      <acc value="0.5195632530" flag="0"/>
      <vel value="0.1906634483" flag="0"/>
      <psa03 value="1.2849967072" flag="0"/>
      <psa10 value="0.1499916492" flag="0"/>
      <psa30 value="0.0108579827" flag="0"/>
    </comp>
    <comp name="--.HHZ">
      <acc value="0.3184291349" flag="0"/>
      <vel value="0.0889411517" flag="0"/>
      <psa03 value="0.7138252619" flag="0"/>
      <psa10 value="0.0585874681" flag="0"/>
      <psa30 value="0.0075088588" flag="0"/>
    </comp>
  </station>
  <station code="EMSG" name="EMSG" netid="IV" insttype="" commtype="DIG" lat="37.8208" lon="14.9498">
    <comp name="--.HHE">
      <acc value="0.3332106183" flag="0"/>
      <vel value="0.0957235454" flag="0"/>
      <psa03 value="0.8314266631" flag="0"/>
      <psa10 value="0.0656573170" flag="0"/>
      <psa30 value="0.0047581826" flag="0"/>
    </comp>
    <comp name="--.HHZ">
      <acc value="0.3273354098" flag="0"/>
      <vel value="0.0938252570" flag="0"/>
      <psa03 value="0.5047024721" flag="0"/>
      <psa10 value="0.0385139277" flag="0"/>
      <psa30 value="0.0028456250" flag="0"/>
    </comp>
    <comp name="--.HHN">
      <acc value="0.4574073355" flag="0"/>
      <vel value="0.1295979452" flag="0"/>
      <psa03 value="0.7389450348" flag="0"/>
      <psa10 value="0.0566042379" flag="0"/>
      <psa30 value="0.0067857910" flag="0"/>
    </comp>
  </station>
  <station code="ENIC" name="ENIC" netid="IV" insttype="" commtype="DIG" lat="37.6314" lon="15.0216">
    <comp name="--.HHN">
      <acc value="1.5438075459" flag="0"/>
      <vel value="0.5334732158" flag="0"/>
      <psa03 value="2.2177035810" flag="0"/>
      <psa10 value="0.1508485888" flag="0"/>
      <psa30 value="0.0102423051" flag="0"/>
    </comp>
    <comp name="--.HHE">
      <acc value="1.5219965112" flag="0"/>
      <vel value="0.4846904705" flag="0"/>
      <psa03 value="2.4991877221" flag="0"/>
      <psa10 value="0.1283139162" flag="0"/>
      <psa30 value="0.0094110955" flag="0"/>
    </comp>
    <comp name="--.HHZ">
      <acc value="0.6384701337" flag="0"/>
      <vel value="0.2243558838" flag="0"/>
      <psa03 value="1.1640383568" flag="0"/>
      <psa10 value="0.0520935170" flag="0"/>
      <psa30 value="0.0050283967" flag="0"/>
    </comp>
  </station>
  <station code="EPDN" name="EPDN" netid="IV" insttype="" commtype="DIG" lat="37.7659" lon="15.0168">
    <comp name="--.HHE">
      <acc value="0.2661453192" flag="0"/>
      <vel value="0.1388630438" flag="0"/>
      <psa03 value="0.8305190590" flag="0"/>
      <psa10 value="0.1590905537" flag="0"/>
      <psa30 value="0.0070613455" flag="0"/>
    </comp>
    <comp name="--.HHZ">
      <acc value="0.2482970780" flag="0"/>
      <vel value="0.0951597595" flag="0"/>
      <psa03 value="0.4923164039" flag="0"/>
      <psa10 value="0.0434360166" flag="0"/>
      <psa30 value="0.0023737134" flag="0"/>
    </comp>
    <comp name="--.HHN">
      <acc value="0.2491564873" flag="0"/>
      <vel value="0.1049473626" flag="0"/>
      <psa03 value="0.8143978805" flag="0"/>
      <psa10 value="0.1493338755" flag="0"/>
      <psa30 value="0.0054801064" flag="0"/>
    </comp>
  </station>
  <station code="EPMN" name="EPMN" netid="IV" insttype="" commtype="DIG" lat="37.8204" lon="15.1773">
    <comp name="--.HHE">
      <acc value="0.9428609224" flag="0"/>
      <vel value="0.3131285659" flag="0"/>
      <psa03 value="2.3209779264" flag="0"/>
      <psa10 value="0.1026462726" flag="0"/>
      <psa30 value="0.0089315378" flag="0"/>
    </comp>
    <comp name="--.HHN">
      <acc value="0.5892457550" flag="0"/>
      <vel value="0.2668117346" flag="0"/>
      <psa03 value="1.6356902547" flag="0"/>
      <psa10 value="0.0994951111" flag="0"/>
      <psa30 value="0.0085642033" flag="0"/>
    </comp>
    <comp name="--.HHZ">
      <acc value="0.3055517186" flag="0"/>
      <vel value="0.1058641388" flag="0"/>
      <psa03 value="0.4819673897" flag="0"/>
      <psa10 value="0.0401247006" flag="0"/>
      <psa30 value="0.0028495399" flag="0"/>
    </comp>
  </station>
  <station code="EPOZ" name="EPOZ" netid="IV" insttype="" commtype="DIG" lat="37.6719" lon="15.1885">
    <comp name="--.HHE">
      <acc value="0.5439585446" flag="0"/>
      <vel value="0.1800787330" flag="0"/>
      <psa03 value="1.5462645875" flag="0"/>
      <psa10 value="0.0598775837" flag="0"/>
      <psa30 value="0.0063421702" flag="0"/>
    </comp>
    <comp name="--.HHZ">
      <acc value="0.4713776277" flag="0"/>
      <vel value="0.1346932970" flag="0"/>
      <psa03 value="0.6411298047" flag="0"/>
      <psa10 value="0.0415299405" flag="0"/>
      <psa30 value="0.0031320361" flag="0"/>
    </comp>
    <comp name="--.HHN">
      <acc value="0.5083819613" flag="0"/>
      <vel value="0.1786146787" flag="0"/>
      <psa03 value="0.6499924984" flag="0"/>
      <psa10 value="0.1446196045" flag="0"/>
      <psa30 value="0.0114130045" flag="0"/>
    </comp>
  </station>
  <station code="EPZF" name="EPZF" netid="IV" insttype="" commtype="DIG" lat="37.824" lon="14.857">
    <comp name="--.HHE">
      <acc value="0.2784368643" flag="0"/>
      <vel value="0.1460029820" flag="0"/>
      <psa03 value="0.9179610552" flag="0"/>
      <psa10 value="0.0616823139" flag="0"/>
      <psa30 value="0.0049927343" flag="0"/>
    </comp>
    <comp name="--.HHN">
      <acc value="0.3386266208" flag="0"/>
      <vel value="0.1265004464" flag="0"/>
      <psa03 value="0.6998757484" flag="0"/>
      <psa10 value="0.0901573334" flag="0"/>
      <psa30 value="0.0075727225" flag="0"/>
    </comp>
    <comp name="--.HHZ">
      <acc value="0.1399158361" flag="0"/>
      <vel value="0.0617807912" flag="0"/>
      <psa03 value="0.2946211037" flag="0"/>
      <psa10 value="0.0294314750" flag="0"/>
      <psa30 value="0.0022121321" flag="0"/>
    </comp>
  </station>
  <station code="ESAL" name="ESAL" netid="IV" insttype="" commtype="DIG" lat="37.7551" lon="15.1345">
    <comp name="--.HHE">
      <acc value="0.4378361647" flag="0"/>
      <vel value="0.1438118120" flag="0"/>
      <psa03 value="1.0808941315" flag="0"/>
      <psa10 value="0.0708275462" flag="0"/>
      <psa30 value="0.0059591817" flag="0"/>
    </comp>
    <comp name="--.HHZ">
      <acc value="0.2213683017" flag="0"/>
      <vel value="0.0734500661" flag="0"/>
      <psa03 value="0.5245460218" flag="0"/>
      <psa10 value="0.0277688162" flag="0"/>
      <psa30 value="0.0023066502" flag="0"/>
    </comp>
    <comp name="--.HHN">
      <acc value="0.3229629994" flag="0"/>
      <vel value="0.1154922509" flag="0"/>
      <psa03 value="0.6365181694" flag="0"/>
      <psa10 value="0.0762140695" flag="0"/>
      <psa30 value="0.0040799038" flag="0"/>
    </comp>
  </station>
  <station code="ESCV" name="ESCV" netid="IV" insttype="" commtype="DIG" lat="37.747" lon="14.8152">
    <comp name="--.HHN">
      <acc value="0.7515601998" flag="0"/>
      <vel value="0.2496294994" flag="0"/>
      <psa03 value="1.6726780169" flag="0"/>
      <psa10 value="0.1451346066" flag="0"/>
      <psa30 value="0.0082914605" flag="0"/>
    </comp>
    <comp name="--.HHE">
      <acc value="0.5566490436" flag="0"/>
      <vel value="0.1918918511" flag="0"/>
      <psa03 value="1.0916843849" flag="0"/>
      <psa10 value="0.0565545448" flag="0"/>
      <psa30 value="0.0059916478" flag="0"/>
    </comp>
    <comp name="--.HHZ">
      <acc value="0.2524506598" flag="0"/>
      <vel value="0.0976872195" flag="0"/>
      <psa03 value="0.5624277100" flag="0"/>
