<?xml version="1.0" encoding="UTF-8" standalone="yes"?>
<!DOCTYPE earthquake SYSTEM "stationlist.dtd">
<stationlist created="" xmlns="ch.ethz.sed.shakemap.usgs.xml">
  <station code="OEM7" name="OEM7" netid="3D" insttype="" commtype="DIG" lat="38.4825" lon="14.9707">
    <comp name="--.HHE">
      <acc value="0.1102991246" flag="0"/>
      <vel value="0.0523010721" flag="0"/>
      <psa03 value="0.3006630295" flag="0"/>
      <psa10 value="0.0416048514" flag="0"/>
      <psa30 value="0.0021667410" flag="0"/>
    </comp>
    <comp name="--.HHN">
      <acc value="0.1098614915" flag="0"/>
      <vel value="0.0586017560" flag="0"/>
      <psa03 value="0.3021922005" flag="0"/>
      <psa10 value="0.0455874162" flag="0"/>
      <psa30 value="0.0025437070" flag="0"/>
    </comp>
    <comp name="--.HHZ">
      <acc value="0.0866329922" flag="0"/>
      <vel value="0.0404381717" flag="0"/>
      <psa03 value="0.3202326123" flag="0"/>
      <psa10 value="0.0125765680" flag="0"/>
      <psa30 value="0.0011259134" flag="0"/>
    </comp>
  </station>
  <station code="AIO" name="AIO" netid="IV" insttype="" commtype="DIG" lat="37.9712" lon="15.233">
    <comp name="--.HHE">
      <acc value="0.1220358992" flag="0"/>
      <vel value="0.0473009186" flag="0"/>
      <psa03 value="0.2379752170" flag="0"/>
      <psa10 value="0.0221776647" flag="0"/>
      <psa30 value="0.0014253327" flag="0"/>
    </comp>
    <comp name="--.HHN">
      <acc value="0.1208768391" flag="0"/>
      <vel value="0.0427363083" flag="0"/>
      <psa03 value="0.3044830333" flag="0"/>
      <psa10 value="0.0209087894" flag="0"/>
      <psa30 value="0.0016065577" flag="0"/>
    </comp>
    <comp name="--.HHZ">
      <acc value="0.0874847071" flag="0"/>
      <vel value="0.0267292774" flag="0"/>
      <psa03 value="0.1815665048" flag="0"/>
      <psa10 value="0.0128845764" flag="0"/>
      <psa30 value="0.0010546731" flag="0"/>
    </comp>
  </station>
  <station code="BASIC" name="BASIC" netid="IV" insttype="" commtype="DIG" lat="38.067" lon="15.0688">
    <comp name="--.HHN">
      <acc value="0.4348916214" flag="0"/>
      <vel value="0.2130727447" flag="0"/>
      <psa03 value="1.3900989146" flag="0"/>
      <psa10 value="0.1131480248" flag="0"/>
      <psa30 value="0.0078792976" flag="0"/>
    </comp>
    <comp name="--.HHE">
      <acc value="0.4307255772" flag="0"/>
      <vel value="0.2081359730" flag="0"/>
      <psa03 value="1.4550445050" flag="0"/>
      <psa10 value="0.0744263050" flag="0"/>
      <psa30 value="0.0066682186" flag="0"/>
    </comp>
    <comp name="--.HHZ">
      <acc value="0.4526574778" flag="0"/>
      <vel value="0.1215589299" flag="0"/>
      <psa03 value="0.7927517682" flag="0"/>
      <psa10 value="0.0370175627" flag="0"/>
      <psa30 value="0.0033972094" flag="0"/>
    </comp>
  </station>
  <station code="BRICA" name="BRICA" netid="IV" insttype="" commtype="DIG" lat="38.7238" lon="16.0291">
    <comp name="--.HNE">
      <acc value="0.0528761662" flag="0"/>
      <vel value="0.0312591613" flag="0"/>
      <psa03 value="0.1444172169" flag="0"/>
      <psa10 value="0.0164951039" flag="0"/>
      <psa30 value="0.0015363903" flag="0"/>
    </comp>
    <comp name="--.HNN">
      <acc value="0.0615738102" flag="0"/>
      <vel value="0.0242308764" flag="0"/>
      <psa03 value="0.1449495873" flag="0"/>
      <psa10 value="0.0152951771" flag="0"/>
      <psa30 value="0.0021656168" flag="0"/>
    </comp>
    <comp name="--.HNZ">
      <acc value="0.0358860522" flag="0"/>
      <vel value="0.0099737648" flag="0"/>
      <psa03 value="0.0443308910" flag="0"/>
      <psa10 value="0.0101602903" flag="0"/>
      <psa30 value="0.0008817159" flag="0"/>
    </comp>
  </station>
  <station code="EBDA" name="EBDA" netid="IV" insttype="" commtype="DIG" lat="37.6335" lon="15.1223">
    <comp name="--.HHE">
      <acc value="0.9539672331" flag="0"/>
      <vel value="0.2662972740" flag="0"/>
      <psa03 value="1.8804808677" flag="0"/>
      <psa10 value="0.1523947785" flag="0"/>
      <psa30 value="0.0070555946" flag="0"/>
    </comp>
    <comp name="--.HHZ">
      <acc value="0.4584784371" flag="0"/>
      <vel value="0.1398317132" flag="0"/>
      <psa03 value="0.5986558773" flag="0"/>
      <psa10 value="0.0462219564" flag="0"/>
      <psa30 value="0.0032600712" flag="0"/>
    </comp>
    <comp name="--.HHN">
      <acc value="0.7981324085" flag="0"/>
      <vel value="0.3213505443" flag="0"/>
      <psa03 value="2.1425035947" flag="0"/>
      <psa10 value="0.1540089446" flag="0"/>
      <psa30 value="0.0136563553" flag="0"/>
    </comp>
  </station>
  <station code="ECBD" name="ECBD" netid="IV" insttype="" commtype="DIG" lat="37.7802" lon="15.0865">
    <comp name="--.HHN">
      <acc value="0.7541042396" flag="0"/>
      <vel value="0.1955004875" flag="0"/>
      <psa03 value="0.6925574860" flag="0"/>
      <psa10 value="0.0808381696" flag="0"/>
      <psa30 value="0.0055020733" flag="0"/>
    </comp>
    <comp name="--.HHZ">
      <acc value="0.2600336431" flag="0"/>
      <vel value="0.0783652184" flag="0"/>
      <psa03 value="0.5205848103" flag="0"/>
      <psa10 value="0.0468873268" flag="0"/>
      <psa30 value="0.0021783914" flag="0"/>
    </comp>
  </station>
  <station code="ECHR" name="ECHR" netid="IV" insttype="" commtype="DIG" lat="37.6863" lon="14.9129">
    <comp name="--.HHE">
      <acc value="0.4130911338" flag="0"/>
      <vel value="0.1570492544" flag="0"/>
      <psa03 value="0.8359397851" flag="0"/>
      <psa10 value="0.0979498753" flag="0"/>
      <psa30 value="0.0062590547" flag="0"/>
    </comp>
    <comp name="--.HHZ">
      <acc value="0.3942823330" flag="0"/>
      <vel value="0.1143748209" flag="0"/>
      <psa03 value="1.1467664434" flag="0"/>
      <psa10 value="0.0333350167" flag="0"/>
      <psa30 value="0.0036302303" flag="0"/>
    </comp>
    <comp name="--.HHN">
      <acc value="0.5673038254" flag="0"/>
      <vel value="0.2158184392" flag="0"/>
      <psa03 value="1.1284737733" flag="0"/>
      <psa10 value="0.0650650201" flag="0"/>
      <psa30 value="0.0059309522" flag="0"/>
    </comp>
  </station>
  <station code="ECTS" name="ECTS" netid="IV" insttype="" commtype="DIG" lat="37.882" lon="15.121">
    <comp name="--.HHE">
      <acc value="0.2077928474" flag="0"/>
      <vel value="0.1067027229" flag="0"/>
      <psa03 value="0.5134906019" flag="0"/>
      <psa10 value="0.0471334092" flag="0"/>
      <psa30 value="0.0052682309" flag="0"/>
    </comp>
    <comp name="--.HHN">
      <acc value="0.1707753497" flag="0"/>
      <vel value="0.0746749708" flag="0"/>
      <psa03 value="0.3624314207" flag="0"/>
      <psa10 value="0.0335895333" flag="0"/>
      <psa30 value="0.0036168629" flag="0"/>
    </comp>
    <comp name="--.HHZ">
      <acc value="0.1386887366" flag="0"/>
      <vel value="0.0430591314" flag="0"/>
      <psa03 value="0.3072301200" flag="0"/>
      <psa10 value="0.0285994427" flag="0"/>
      <psa30 value="0.0019511107" flag="0"/>
    </comp>
  </station>
  <station code="ECZM" name="ECZM" netid="IV" insttype="" commtype="DIG" lat="37.7313" lon="14.9041">
    <comp name="--.HHE">
      <acc value="0.3819266510" flag="0"/>
      <vel value="0.1400014210" flag="0"/>
      <psa03 value="0.6857951837" flag="0"/>
      <psa10 value="0.0830089365" flag="0"/>
      <psa30 value="0.0047140198" flag="0"/>
    </comp>
    <comp name="--.HHN">
      <acc value="0.4428600158" flag="0"/>
      <vel value="0.1517246552" flag="0"/>
      <psa03 value="0.9326620380" flag="0"/>
      <psa10 value="0.0895871421" flag="0"/>
      <psa30 value="0.0059056773" flag="0"/>
    </comp>
    <comp name="--.HHZ">
      <acc value="0.3177744551" flag="0"/>
      <vel value="0.1097565510" flag="0"/>
      <psa03 value="0.8401997958" flag="0"/>
      <psa10 value="0.0384734179" flag="0"/>
      <psa30 value="0.0034800182" flag="0"/>
    </comp>
  </station>
  <station code="EFIU" name="EFIU" netid="IV" insttype="" commtype="DIG" lat="37.7896" lon="15.2103">
    <comp name="--.HHE">
      <acc value="0.1640720365" flag="0"/>
      <vel value="0.1018307337" flag="0"/>
      <psa03 value="0.4371374451" flag="0"/>
      <psa10 value="0.1135761178" flag="0"/>
      <psa30 value="0.0072401489" flag="0"/>
    </comp>
    <comp name="--.HHN">
      <acc value="0.1730399101" flag="0"/>
      <vel value="0.1035518209" flag="0"/>
      <psa03 value="0.4597575642" flag="0"/>
      <psa10 value="0.0782144441" flag="0"/>
      <psa30 value="0.0061662063" flag="0"/>
    </comp>
    <comp name="--.HHZ">
      <acc value="0.1122421795" flag="0"/>
      <vel value="0.0445181366" flag="0"/>
      <psa03 value="0.2677114915" flag="0"/>
      <psa10 value="0.0615863160" flag="0"/>
      <psa30 value="0.0029175068" flag="0"/>
    </comp>
  </station>
  <station code="EMCN" name="EMCN" netid="IV" insttype="" commtype="DIG" lat="37.7912" lon="15.0336">
    <comp name="--.HHE">
      <acc value="0.5976268105" flag="0"/>
      <vel value="0.1451010377" flag="0"/>
      <psa03 value="0.7128983890" flag="0"/>
      <psa10 value="0.0855584425" flag="0"/>
      <psa30 value="0.0049681922" flag="0"/>
    </comp>
    <comp name="--.HHN">
      <acc value="0.5428955895" flag="0"/>
      <vel value="0.1588044884" flag="0"/>
      <psa03 value="0.9496452722" flag="0"/>
      <psa10 value="0.0557372808" flag="0"/>
      <psa30 value="0.0055428659" flag="0"/>
    </comp>
    <comp name="--.HHZ">
      <acc value="0.3341834329" flag="0"/>
      <vel value="0.1081314646" flag="0"/>
      <psa03 value="0.5632544099" flag="0"/>
      <psa10 value="0.0389107641" flag="0"/>
      <psa30 value="0.0025226376" flag="0"/>
    </comp>
  </station>
  <station code="EMFO" name="EMFO" netid="IV" insttype="" commtype="DIG" lat="37.7357" lon="15.0902">
    <comp name="--.HHE">
      <acc value="0.6296053361" flag="0"/>
      <vel value="0.3266523635" flag="0"/>
      <psa03 value="1.4904861334" flag="0"/>
      <psa10 value="0.0853400457" flag="0"/>
      <psa30 value="0.0098867780" flag="0"/>
    </comp>
    <comp name="--.HHZ">
      <acc value="0.4353511144" flag="0"/>
      <vel value="0.1324931279" flag="0"/>
      <psa03 value="0.9920565535" flag="0"/>
      <psa10 value="0.0369533985" flag="0"/>
      <psa30 value="0.0035596306" flag="0"/>
    </comp>
    <comp name="--.HHN">
      <acc value="0.5300586096" flag="0"/>
      <vel value="0.2154263578" flag="0"/>
      <psa03 value="1.6416590953" flag="0"/>
      <psa10 value="0.1241333495" flag="0"/>
      <psa30 value="0.0085617958" flag="0"/>
    </comp>
  </station>
  <station code="EMFS" name="EMFS" netid="IV" insttype="" commtype="DIG" lat="37.7196" lon="14.9979">
    <comp name="--.HHE">
      <acc value="0.7718897906" flag="0"/>
      <vel value="0.2073499236" flag="0"/>
      <psa03 value="1.6298518430" flag="0"/>
      <psa10 value="0.0758769711" flag="0"/>
      <psa30 value="0.0046548578" flag="0"/>
    </comp>
    <comp name="--.HHN">
      <acc value="0.9643688026" flag="0"/>
      <vel value="0.2588443085" flag="0"/>
      <psa03 value="2.1125461959" flag="0"/>
      <psa10 value="0.0934398308" flag="0"/>
      <psa30 value="0.0061188756" flag="0"/>
    </comp>
    <comp name="--.HHZ">
      <acc value="0.4807815762" flag="0"/>
      <vel value="0.1035861942" flag="0"/>
      <psa03 value="0.7053820978" flag="0"/>
      <psa10 value="0.0371737758" flag="0"/>
      <psa30 value="0.0028273455" flag="0"/>
    </comp>
  </station>
  <station code="EMNR" name="EMNR" netid="IV" insttype="" commtype="DIG" lat="37.8168" lon="15.026">
    <comp name="--.HHZ">
      <acc value="0.4621646088" flag="0"/>
      <vel value="0.1176326628" flag="0"/>
      <psa03 value="0.5659471714" flag="0"/>
      <psa10 value="0.0494023400" flag="0"/>
      <psa30 value="0.0037784080" flag="0"/>
    </comp>
    <comp name="--.HHE">
      <acc value="0.7268099831" flag="0"/>
      <vel value="0.2151678513" flag="0"/>
      <psa03 value="0.9761996233" flag="0"/>
      <psa10 value="0.1100418131" flag="0"/>
      <psa30 value="0.0075218286" flag="0"/>
    </comp>
    <comp name="--.HHN">
      <acc value="0.8028008902" flag="0"/>
      <vel value="0.2476972165" flag="0"/>
      <psa03 value="1.3309460794" flag="0"/>
      <psa10 value="0.1121791921" flag="0"/>
      <psa30 value="0.0085135000" flag="0"/>
    </comp>
  </station>
  <station code="EMPL" name="EMPL" netid="IV" insttype="" commtype="DIG" lat="37.679" lon="14.9703">
    <comp name="--.HHE">
      <acc value="1.1216117117" flag="0"/>
      <vel value="0.3342530515" flag="0"/>
      <psa03 value="1.7981170716" flag="0"/>
      <psa10 value="0.0769499297" flag="0"/>
      <psa30 value="0.0049583219" flag="0"/>
    </comp>
    <comp name="--.HHN">
      <acc value="1.3741696916" flag="0"/>
      <vel value="0.4247964425" flag="0"/>
      <psa03 value="1.6092041727" flag="0"/>
      <psa10 value="0.0691275853" flag="0"/>
      <psa30 value="0.0065344100" flag="0"/>
    </comp>
    <comp name="--.HHZ">
      <acc value="1.0923837587" flag="0"/>
      <vel value="0.2447408504" flag="0"/>
      <psa03 value="0.8038990667" flag="0"/>
      <psa10 value="0.0398985081" flag="0"/>
      <psa30 value="0.0031959196" flag="0"/>
    </comp>
  </station>
  <station code="EMSA" name="EMSA" netid="IV" insttype="" commtype="DIG" lat="37.498" lon="14.945">
    <comp name="--.HHE">
      <acc value="0.0079503204" flag="0"/>
      <vel value="0.0011159513" flag="0"/>
      <psa03 value="0.0012474262" flag="0"/>
      <psa10 value="0.0002324442" flag="0"/>
      <psa30 value="0.0000295891" flag="0"/>
    </comp>
    <comp name="--.HHN">
      <acc value="0.5195632526" flag="0"/>
      <vel value="0.1906634511" flag="0"/>
      <psa03 value="1.2849967072" flag="0"/>
      <psa10 value="0.1499916509" flag="0"/>
      <psa30 value="0.0108564016" flag="0"/>
    </comp>
    <comp name="--.HHZ">
      <acc value="0.3184291348" flag="0"/>
      <vel value="0.0889411440" flag="0"/>
      <psa03 value="0.7138252619" flag="0"/>
      <psa10 value="0.0585874732" flag="0"/>
      <psa30 value="0.0075095952" flag="0"/>
    </comp>
  </station>
  <station code="EMSG" name="EMSG" netid="IV" insttype="" commtype="DIG" lat="37.8208" lon="14.9498">
    <comp name="--.HHE">
      <acc value="0.3332106186" flag="0"/>
      <vel value="0.0957235516" flag="0"/>
      <psa03 value="0.8314266631" flag="0"/>
      <psa10 value="0.0656573171" flag="0"/>
      <psa30 value="0.0047584384" flag="0"/>
    </comp>
    <comp name="--.HHN">
      <acc value="0.4574073354" flag="0"/>
      <vel value="0.1295979458" flag="0"/>
      <psa03 value="0.7389450348" flag="0"/>
      <psa10 value="0.0566042379" flag="0"/>
      <psa30 value="0.0067863684" flag="0"/>
    </comp>
    <comp name="--.HHZ">
      <acc value="0.3273354102" flag="0"/>
      <vel value="0.0938252574" flag="0"/>
      <psa03 value="0.5047024721" flag="0"/>
      <psa10 value="0.0385139277" flag="0"/>
      <psa30 value="0.0028460231" flag="0"/>
    </comp>
  </station>
  <station code="ENIC" name="ENIC" netid="IV" insttype="" commtype="DIG" lat="37.6314" lon="15.0216">
    <comp name="--.HHE">
      <acc value="1.5219965123" flag="0"/>
      <vel value="0.4846904722" flag="0"/>
      <psa03 value="2.4991877221" flag="0"/>
      <psa10 value="0.1283139105" flag="0"/>
      <psa30 value="0.0094116948" flag="0"/>
    </comp>
    <comp name="--.HHN">
      <acc value="1.5438075460" flag="0"/>
      <vel value="0.5334732177" flag="0"/>
      <psa03 value="2.2177035810" flag="0"/>
      <psa10 value="0.1508485860" flag="0"/>
      <psa30 value="0.0102421122" flag="0"/>
    </comp>
    <comp name="--.HHZ">
      <acc value="0.6384701341" flag="0"/>
      <vel value="0.2243558806" flag="0"/>
      <psa03 value="1.1640383568" flag="0"/>
      <psa10 value="0.0520935201" flag="0"/>
      <psa30 value="0.0050291682" flag="0"/>
    </comp>
  </station>
  <station code="EPDN" name="EPDN" netid="IV" insttype="" commtype="DIG" lat="37.7659" lon="15.0168">
    <comp name="--.HHE">
      <acc value="0.2661453198" flag="0"/>
      <vel value="0.1388630203" flag="0"/>
      <psa03 value="0.8305190590" flag="0"/>
      <psa10 value="0.1590905537" flag="0"/>
      <psa30 value="0.0070609652" flag="0"/>
    </comp>
    <comp name="--.HHN">
      <acc value="0.2491564865" flag="0"/>
      <vel value="0.1049473596" flag="0"/>
      <psa03 value="0.8143978805" flag="0"/>
      <psa10 value="0.1493338755" flag="0"/>
      <psa30 value="0.0054806802" flag="0"/>
    </comp>
    <comp name="--.HHZ">
      <acc value="0.2482970787" flag="0"/>
      <vel value="0.0951597648" flag="0"/>
      <psa03 value="0.4923164039" flag="0"/>
      <psa10 value="0.0434360164" flag="0"/>
      <psa30 value="0.0023737602" flag="0"/>
    </comp>
  </station>
  <station code="EPMN" name="EPMN" netid="IV" insttype="" commtype="DIG" lat="37.8204" lon="15.1773">
    <comp name="--.HHN">
      <acc value="0.5892457554" flag="0"/>
      <vel value="0.2668117385" flag="0"/>
      <psa03 value="1.6356902547" flag="0"/>
      <psa10 value="0.0994951128" flag="0"/>
      <psa30 value="0.0085647217" flag="0"/>
    </comp>
    <comp name="--.HHE">
      <acc value="0.9428609207" flag="0"/>
      <vel value="0.3131285627" flag="0"/>
      <psa03 value="2.3209779264" flag="0"/>
      <psa10 value="0.1026462709" flag="0"/>
      <psa30 value="0.0089315120" flag="0"/>
    </comp>
    <comp name="--.HHZ">
      <acc value="0.3055517189" flag="0"/>
      <vel value="0.1058641418" flag="0"/>
      <psa03 value="0.4819673897" flag="0"/>
      <psa10 value="0.0401247005" flag="0"/>
      <psa30 value="0.0028494232" flag="0"/>
    </comp>
  </station>
  <station code="EPOZ" name="EPOZ" netid="IV" insttype="" commtype="DIG" lat="37.6719" lon="15.1885">
    <comp name="--.HHN">
      <acc value="0.5083819604" flag="0"/>
      <vel value="0.1786146837" flag="0"/>
      <psa03 value="0.6499924984" flag="0"/>
      <psa10 value="0.1446196032" flag="0"/>
      <psa30 value="0.0114115966" flag="0"/>
    </comp>
    <comp name="--.HHE">
      <acc value="0.5439585441" flag="0"/>
      <vel value="0.1800787408" flag="0"/>
      <psa03 value="1.5462645875" flag="0"/>
      <psa10 value="0.0598775748" flag="0"/>
      <psa30 value="0.0063373695" flag="0"/>
    </comp>
    <comp name="--.HHZ">
      <acc value="0.4713776277" flag="0"/>
      <vel value="0.1346932958" flag="0"/>
      <psa03 value="0.6411298047" flag="0"/>
      <psa10 value="0.0415299339" flag="0"/>
      <psa30 value="0.0031335930" flag="0"/>
    </comp>
  </station>
  <station code="EPZF" name="EPZF" netid="IV" insttype="" commtype="DIG" lat="37.824" lon="14.857">
    <comp name="--.HHE">
      <acc value="0.2784368648" flag="0"/>
      <vel value="0.1460029822" flag="0"/>
      <psa03 value="0.9179610552" flag="0"/>
      <psa10 value="0.0616823142" flag="0"/>
      <psa30 value="0.0049928367" flag="0"/>
    </comp>
    <comp name="--.HHN">
      <acc value="0.3386266199" flag="0"/>
      <vel value="0.1265004393" flag="0"/>
      <psa03 value="0.6998757484" flag="0"/>
      <psa10 value="0.0901573341" flag="0"/>
      <psa30 value="0.0075743669" flag="0"/>
    </comp>
    <comp name="--.HHZ">
      <acc value="0.1399158362" flag="0"/>
      <vel value="0.0617807885" flag="0"/>
      <psa03 value="0.2946211037" flag="0"/>
      <psa10 value="0.0294314756" flag="0"/>
      <psa30 value="0.0022121159" flag="0"/>
    </comp>
  </station>
  <station code="ESAL" name="ESAL" netid="IV" insttype="" commtype="DIG" lat="37.7551" lon="15.1345">
    <comp name="--.HHE">
      <acc value="0.4378361647" flag="0"/>
      <vel value="0.1438118124" flag="0"/>
      <psa03 value="1.0808941315" flag="0"/>
      <psa10 value="0.0708275462" flag="0"/>
      <psa30 value="0.0059589792" flag="0"/>
    </comp>
    <comp name="--.HHZ">
      <acc value="0.2213683005" flag="0"/>
      <vel value="0.0734500664" flag="0"/>
      <psa03 value="0.5245460218" flag="0"/>
