<stationlist xmlns:esm="https://esm-db.eu/esmws/shakemap/1/" created="1784080663">
	<station code="CSMBE" name="CSMBE" netid="7C" source="Urban Seismic Network (RUSN-CAL-INGV)" insttype="" lat="39.2895" lon="16.2642" esm:processing="manual (Paolucci et al 2011)" esm:quality="good">
		<comp name="--.HNE" depth="0.0">
			<acc value="0.0363391954280966" flag="0"/>
			<vel value="0.0183624796605044" flag="0"/>
			<psa03 value="0.152885159141645" flag="0"/>
			<psa10 value="0.0139464585719192" flag="0"/>
			<psa30 value="0.000871873590680993" flag="0"/>
		</comp>
		<comp name="--.HNN" depth="0.0">
			<acc value="0.0542496382656539" flag="0"/>
			<vel value="0.0268507850635086" flag="0"/>
			<psa03 value="0.165922366542395" flag="0"/>
			<psa10 value="0.010121673948733" flag="0"/>
			<psa30 value="0.000879920269568315" flag="0"/>
		</comp>
		<comp name="--.HNZ" depth="0.0">
			<acc value="0.0178254957313495" flag="0"/>
			<vel value="0.00770644820200322" flag="0"/>
			<psa03 value="0.0384730590680355" flag="0"/>
			<psa10 value="0.00564296694385762" flag="0"/>
			<psa30 value="0.000372048005729669" flag="0"/>
		</comp>
	</station>
	<station code="BVM" name="BVM" netid="IT" source="Italian Strong Motion Network (RAN)" insttype="" lat="37.9309997558594" lon="15.9359998703003" esm:processing="manual (Paolucci et al 2011)" esm:quality="best">
		<comp name="--.HNE" depth="0.0">
			<acc value="0.372299789362787" flag="0"/>
			<vel value="0.156322493881048" flag="0"/>
			<psa03 value="0.913590187531004" flag="0"/>
			<psa10 value="0.0653088963938057" flag="0"/>
			<psa30 value="0.00566083625263466" flag="0"/>
		</comp>
		<comp name="--.HNN" depth="0.0">
			<acc value="0.404699998972521" flag="0"/>
			<vel value="0.212285475573133" flag="0"/>
			<psa03 value="0.819064759019152" flag="0"/>
			<psa10 value="0.0788215365398206" flag="0"/>
			<psa30 value="0.00711031018981009" flag="0"/>
		</comp>
		<comp name="--.HNZ" depth="0.0">
			<acc value="0.167744787748328" flag="0"/>
			<vel value="0.0920340874104683" flag="0"/>
			<psa03 value="0.403931425141147" flag="0"/>
			<psa10 value="0.0607512982255206" flag="0"/>
			<psa30 value="0.00396969713961992" flag="0"/>
		</comp>
	</station>
	<station code="FRR" name="FRR" netid="IT" source="Italian Strong Motion Network (RAN)" insttype="" lat="38.0515" lon="16.1325" esm:processing="manual (Paolucci et al 2011)" esm:quality="best">
		<comp name="--.HGE" depth="0.0">
			<acc value="0.203724948549115" flag="0"/>
			<vel value="0.0798315358625916" flag="0"/>
			<psa03 value="0.633371749435009" flag="0"/>
			<psa10 value="0.0532057008663782" flag="0"/>
			<psa30 value="0.00347089492975626" flag="0"/>
		</comp>
		<comp name="--.HGN" depth="0.0">
			<acc value="0.212831090793177" flag="0"/>
			<vel value="0.0952867455681401" flag="0"/>
			<psa03 value="0.529462324280597" flag="0"/>
			<psa10 value="0.0386781009843779" flag="0"/>
			<psa30 value="0.00360469504335424" flag="0"/>
		</comp>
		<comp name="--.HGZ" depth="0.0">
			<acc value="0.120970058552392" flag="0"/>
			<vel value="0.0253013279497973" flag="0"/>
			<psa03 value="0.176669911848077" flag="0"/>
			<psa10 value="0.0243532489082228" flag="0"/>
			<psa30 value="0.00106858995550579" flag="0"/>
		</comp>
	</station>
	<station code="MLPS" name="MLPS" netid="IT" source="Italian Strong Motion Network (RAN)" insttype="" lat="37.9226989746094" lon="15.7776002883911" esm:processing="manual (Paolucci et al 2011)" esm:quality="good">
		<comp name="--.HNE" depth="0.0">
			<acc value="0.805458140938891" flag="0"/>
			<vel value="0.384517996163438" flag="0"/>
			<psa03 value="2.15076581101402" flag="0"/>
			<psa10 value="0.17316715147377" flag="0"/>
			<psa30 value="0.0155512501940176" flag="0"/>
		</comp>
		<comp name="--.HNN" depth="0.0">
			<acc value="0.640175384761752" flag="0"/>
			<vel value="0.416747412738804" flag="0"/>
			<psa03 value="1.94266302522577" flag="0"/>
			<psa10 value="0.246849062538904" flag="0"/>
			<psa30 value="0.0191384928312278" flag="0"/>
		</comp>
		<comp name="--.HNZ" depth="0.0">
			<acc value="0.626198044496967" flag="0"/>
			<vel value="0.206438504657607" flag="0"/>
			<psa03 value="1.09681099167832" flag="0"/>
			<psa10 value="0.0704878544742355" flag="0"/>
			<psa30 value="0.00761664623208693" flag="0"/>
		</comp>
	</station>
	<station code="ACATE" name="ACATE" netid="IV" source="Italian National Seismic Network (INSN)" insttype="" lat="37.02398" lon="14.50064" esm:processing="manual (Paolucci et al 2011)" esm:quality="good">
		<comp name="--.HNE" depth="0.0">
			<acc value="0.271781151112387" flag="0"/>
			<vel value="0.0842725584795429" flag="0"/>
			<psa03 value="0.672414169140554" flag="0"/>
			<psa10 value="0.0326443525281581" flag="0"/>
			<psa30 value="0.00417005999601116" flag="0"/>
		</comp>
		<comp name="--.HNN" depth="0.0">
			<acc value="0.233429463237813" flag="0"/>
			<vel value="0.0861235772740745" flag="0"/>
			<psa03 value="0.53131553038048" flag="0"/>
			<psa10 value="0.0336044423794005" flag="0"/>
			<psa30 value="0.00498022283198649" flag="0"/>
		</comp>
		<comp name="--.HNZ" depth="0.0">
			<acc value="0.239660317289882" flag="0"/>
			<vel value="0.0708427348963778" flag="0"/>
			<psa03 value="0.319921964093563" flag="0"/>
			<psa10 value="0.0185030282347967" flag="0"/>
			<psa30 value="0.00183800384206957" flag="0"/>
		</comp>
	</station>
	<station code="BASIC" name="BASIC" netid="IV" source="Italian National Seismic Network (INSN)" insttype="" lat="38.06703" lon="15.068847" esm:processing="manual (Paolucci et al 2011)" esm:quality="good">
		<comp name="--.HNE" depth="0.0">
			<acc value="0.433783386325939" flag="0"/>
			<vel value="0.214226770015587" flag="0"/>
			<psa03 value="1.45466303095351" flag="0"/>
			<psa10 value="0.080803827856892" flag="0"/>
			<psa30 value="0.00701908081297648" flag="0"/>
		</comp>
		<comp name="--.HNN" depth="0.0">
			<acc value="0.434455082697812" flag="0"/>
			<vel value="0.207916361036668" flag="0"/>
			<psa03 value="1.18917777719314" flag="0"/>
			<psa10 value="0.105558512733305" flag="0"/>
			<psa30 value="0.007466482117791" flag="0"/>
		</comp>
		<comp name="--.HNZ" depth="0.0">
			<acc value="0.495869771259016" flag="0"/>
			<vel value="0.129888770914763" flag="0"/>
			<psa03 value="0.775267107639311" flag="0"/>
			<psa10 value="0.0374758425906307" flag="0"/>
			<psa30 value="0.0037273023321522" flag="0"/>
		</comp>
	</station>
	<station code="BRICA" name="BRICA" netid="IV" source="Italian National Seismic Network (INSN)" insttype="" lat="38.72384" lon="16.02905" esm:processing="manual (Paolucci et al 2011)" esm:quality="best">
		<comp name="--.HNE" depth="0.0">
			<acc value="0.0525790476143877" flag="0"/>
			<vel value="0.0314217258112706" flag="0"/>
			<psa03 value="0.143848498006983" flag="0"/>
			<psa10 value="0.0164672883770356" flag="0"/>
			<psa30 value="0.00156475157377894" flag="0"/>
		</comp>
		<comp name="--.HNN" depth="0.0">
			<acc value="0.0610580163293687" flag="0"/>
			<vel value="0.0242880851912955" flag="0"/>
			<psa03 value="0.144844772338759" flag="0"/>
			<psa10 value="0.0153029599960073" flag="0"/>
			<psa30 value="0.00221303451934473" flag="0"/>
		</comp>
		<comp name="--.HNZ" depth="0.0">
			<acc value="0.0342160100124142" flag="0"/>
			<vel value="0.00998121952657239" flag="0"/>
			<psa03 value="0.0441207561168945" flag="0"/>
			<psa10 value="0.0101623763325543" flag="0"/>
			<psa30 value="0.000903754244284513" flag="0"/>
		</comp>
	</station>
	<station code="CELI" name="CELI" netid="IV" source="Italian National Seismic Network (INSN)" insttype="" lat="39.4027" lon="16.5088" esm:processing="manual (Paolucci et al 2011)" esm:quality="good">
		<comp name="--.HNE" depth="0.0">
			<acc value="0.00537292465435627" flag="0"/>
			<vel value="0.00385125809928335" flag="0"/>
			<psa03 value="0.0165661872723349" flag="0"/>
			<psa10 value="0.00550162289302938" flag="0"/>
			<psa30 value="0.00044751172879074" flag="0"/>
		</comp>
		<comp name="--.HNN" depth="0.0">
			<acc value="0.0126941148547121" flag="0"/>
			<vel value="0.00651090011829673" flag="0"/>
			<psa03 value="0.056653508225343" flag="0"/>
			<psa10 value="0.00628514495374036" flag="0"/>
			<psa30 value="0.000402889267561496" flag="0"/>
		</comp>
		<comp name="--.HNZ" depth="0.0">
			<acc value="0.00423492140191819" flag="0"/>
			<vel value="0.0027427278062178" flag="0"/>
			<psa03 value="0.0132322880324693" flag="0"/>
			<psa10 value="0.00264078712668843" flag="0"/>
			<psa30 value="0.000411913016382573" flag="0"/>
		</comp>
	</station>
	<station code="CROCE" name="CROCE" netid="IV" source="Italian National Seismic Network (INSN)" insttype="" lat="36.8326" lon="14.5345" esm:processing="manual (Paolucci et al 2011)" esm:quality="good">
		<comp name="--.HNE" depth="0.0">
			<acc value="0.177755291720852" flag="0"/>
			<vel value="0.0553851342659916" flag="0"/>
			<psa03 value="0.286610069843666" flag="0"/>
			<psa10 value="0.0255382317825112" flag="0"/>
			<psa30 value="0.00206482365943404" flag="0"/>
		</comp>
		<comp name="--.HNN" depth="0.0">
			<acc value="0.195268723668348" flag="0"/>
			<vel value="0.061954976285402" flag="0"/>
			<psa03 value="0.337909280664717" flag="0"/>
			<psa10 value="0.0265706470499464" flag="0"/>
			<psa30 value="0.00179318483135973" flag="0"/>
		</comp>
		<comp name="--.HNZ" depth="0.0">
			<acc value="0.183237937433327" flag="0"/>
			<vel value="0.050335928347278" flag="0"/>
			<psa03 value="0.332303909336254" flag="0"/>
			<psa10 value="0.0146168632954607" flag="0"/>
			<psa30 value="0.000948635238261306" flag="0"/>
		</comp>
	</station>
	<station code="CSLB" name="CSLB" netid="IV" source="Italian National Seismic Network (INSN)" insttype="" lat="37.93745" lon="14.05785" esm:processing="manual (Paolucci et al 2011)" esm:quality="best">
		<comp name="--.HNE" depth="0.0">
			<acc value="0.014960895562807" flag="0"/>
			<vel value="0.00705329930058898" flag="0"/>
			<psa03 value="0.0334017491602823" flag="0"/>
			<psa10 value="0.00860251393684458" flag="0"/>
			<psa30 value="0.000407097801564717" flag="0"/>
		</comp>
		<comp name="--.HNN" depth="0.0">
			<acc value="0.00928959370652556" flag="0"/>
			<vel value="0.00746462291059818" flag="0"/>
			<psa03 value="0.0270880522630092" flag="0"/>
			<psa10 value="0.00892671166332154" flag="0"/>
			<psa30 value="0.000647022705827331" flag="0"/>
		</comp>
		<comp name="--.HNZ" depth="0.0">
			<acc value="0.0100704817291068" flag="0"/>
			<vel value="0.00456020134175115" flag="0"/>
			<psa03 value="0.0260695238530002" flag="0"/>
			<psa10 value="0.00588556348342952" flag="0"/>
			<psa30 value="0.000896794199879623" flag="0"/>
		</comp>
	</station>
	<station code="ECHR" name="ECHR" netid="IV" source="Italian National Seismic Network (INSN)" insttype="" lat="37.6863" lon="14.9129" esm:processing="manual (Paolucci et al 2011)" esm:quality="best">
		<comp name="--.HNE" depth="0.0">
			<acc value="0.0984299280362586" flag="0"/>
			<vel value="0.038464991316991" flag="0"/>
			<psa03 value="0.205481799660873" flag="0"/>
			<psa10 value="0.0244360375175782" flag="0"/>
			<psa30 value="0.00162669109363315" flag="0"/>
		</comp>
		<comp name="--.HNN" depth="0.0">
			<acc value="0.139990354330652" flag="0"/>
			<vel value="0.0543772526720459" flag="0"/>
			<psa03 value="0.273556517610146" flag="0"/>
			<psa10 value="0.0173642352953638" flag="0"/>
			<psa30 value="0.00166262222389575" flag="0"/>
		</comp>
		<comp name="--.HNZ" depth="0.0">
			<acc value="0.0961474643780118" flag="0"/>
			<vel value="0.0286440182551405" flag="0"/>
			<psa03 value="0.287871757591155" flag="0"/>
			<psa10 value="0.00840451113260082" flag="0"/>
			<psa30 value="0.000928075855469583" flag="0"/>
		</comp>
	</station>
	<station code="EFIU" name="EFIU" netid="IV" source="Italian National Seismic Network (INSN)" insttype="" lat="37.7896" lon="15.2103" esm:processing="manual (Paolucci et al 2011)" esm:quality="best">
		<comp name="--.HNE" depth="0.0">
			<acc value="0.171367908818769" flag="0"/>
			<vel value="0.123370492506638" flag="0"/>
			<psa03 value="0.485485494363086" flag="0"/>
			<psa10 value="0.121559877745224" flag="0"/>
			<psa30 value="0.00763008212215054" flag="0"/>
		</comp>
		<comp name="--.HNN" depth="0.0">
			<acc value="0.196183409081149" flag="0"/>
			<vel value="0.103573337021251" flag="0"/>
			<psa03 value="0.486499394862998" flag="0"/>
			<psa10 value="0.0865317548041478" flag="0"/>
			<psa30 value="0.00778758005564815" flag="0"/>
		</comp>
		<comp name="--.HNZ" depth="0.0">
			<acc value="0.119421169543906" flag="0"/>
			<vel value="0.0499065810903863" flag="0"/>
			<psa03 value="0.288215322017382" flag="0"/>
			<psa10 value="0.0672309662215117" flag="0"/>
			<psa30 value="0.00325717056322891" flag="0"/>
		</comp>
	</station>
	<station code="EMCN" name="EMCN" netid="IV" source="Italian National Seismic Network (INSN)" insttype="" lat="37.7912" lon="15.0336" esm:processing="manual (Paolucci et al 2011)" esm:quality="best">
		<comp name="--.HNE" depth="0.0">
			<acc value="0.0824053520608173" flag="0"/>
			<vel value="0.0272267310109924" flag="0"/>
			<psa03 value="0.144833042394806" flag="0"/>
			<psa10 value="0.00993445873413067" flag="0"/>
			<psa30 value="0.000626513743046143" flag="0"/>
		</comp>
		<comp name="--.HNN" depth="0.0">
			<acc value="0.131611251329138" flag="0"/>
			<vel value="0.0401448363527761" flag="0"/>
			<psa03 value="0.244386272724696" flag="0"/>
			<psa10 value="0.014397181242586" flag="0"/>
			<psa30 value="0.00144511146070706" flag="0"/>
		</comp>
		<comp name="--.HNZ" depth="0.0">
			<acc value="0.14837970024208" flag="0"/>
			<vel value="0.0359034982409309" flag="0"/>
			<psa03 value="0.178004812778753" flag="0"/>
			<psa10 value="0.0219353549846138" flag="0"/>
			<psa30 value="0.00129336505408597" flag="0"/>
		</comp>
	</station>
	<station code="EPOZ" name="EPOZ" netid="IV" source="Italian National Seismic Network (INSN)" insttype="" lat="37.6719" lon="15.1885" esm:processing="manual (Paolucci et al 2011)" esm:quality="good">
		<comp name="--.HNE" depth="0.0">
			<acc value="0.555365137749218" flag="0"/>
			<vel value="0.192416350264318" flag="0"/>
			<psa03 value="1.63367538964287" flag="0"/>
			<psa10 value="0.0729512426617666" flag="0"/>
			<psa30 value="0.00805282679357746" flag="0"/>
		</comp>
		<comp name="--.HNN" depth="0.0">
			<acc value="0.571979009492338" flag="0"/>
			<vel value="0.194147770716395" flag="0"/>
			<psa03 value="0.826237400837525" flag="0"/>
			<psa10 value="0.15940453476817" flag="0"/>
			<psa30 value="0.0125166591672327" flag="0"/>
		</comp>
		<comp name="--.HNZ" depth="0.0">
			<acc value="0.483953729413067" flag="0"/>
			<vel value="0.15034287807236" flag="0"/>
			<psa03 value="0.692406326854026" flag="0"/>
			<psa10 value="0.048570667568479" flag="0"/>
			<psa30 value="0.00334774114642088" flag="0"/>
		</comp>
	</station>
	<station code="EPZF" name="EPZF" netid="IV" source="Italian National Seismic Network (INSN)" insttype="" lat="37.824" lon="14.857" esm:processing="manual (Paolucci et al 2011)" esm:quality="good">
		<comp name="--.HNE" depth="0.0">
			<acc value="0.27634807960612" flag="0"/>
			<vel value="0.145892701372786" flag="0"/>
			<psa03 value="0.881289214417167" flag="0"/>
			<psa10 value="0.0729757392847192" flag="0"/>
			<psa30 value="0.00482805691839145" flag="0"/>
		</comp>
		<comp name="--.HNN" depth="0.0">
			<acc value="0.340462770223717" flag="0"/>
			<vel value="0.129486141548985" flag="0"/>
			<psa03 value="0.660988287228699" flag="0"/>
			<psa10 value="0.0831844255597874" flag="0"/>
			<psa30 value="0.00767973457807287" flag="0"/>
		</comp>
		<comp name="--.HNZ" depth="0.0">
			<acc value="0.133980112053787" flag="0"/>
			<vel value="0.0602771681698386" flag="0"/>
			<psa03 value="0.280356134717818" flag="0"/>
			<psa10 value="0.0292155416362345" flag="0"/>
			<psa30 value="0.00223230829613505" flag="0"/>
		</comp>
	</station>
	<station code="EVRN" name="EVRN" netid="IV" source="Italian National Seismic Network (INSN)" insttype="" lat="37.6892" lon="15.1356" esm:processing="manual (Paolucci et al 2011)" esm:quality="good">
		<comp name="--.HNE" depth="0.0">
			<acc value="0.592279818995817" flag="0"/>
			<vel value="0.197104199849387" flag="0"/>
			<psa03 value="1.36831506082579" flag="0"/>
			<psa10 value="0.10081236332436" flag="0"/>
			<psa30 value="0.00684081150352164" flag="0"/>
		</comp>
		<comp name="--.HNN" depth="0.0">
			<acc value="1.19210388742725" flag="0"/>
			<vel value="0.370115501830662" flag="0"/>
			<psa03 value="1.5484652448895" flag="0"/>
			<psa10 value="0.0975971403317396" flag="0"/>
			<psa30 value="0.0082094255008015" flag="0"/>
		</comp>
		<comp name="--.HNZ" depth="0.0">
			<acc value="0.33160717523315" flag="0"/>
			<vel value="0.0970380566135558" flag="0"/>
			<psa03 value="0.405486694837024" flag="0"/>
			<psa10 value="0.0370937710303022" flag="0"/>
			<psa30 value="0.00258807853083548" flag="0"/>
		</comp>
	</station>
	<station code="GALF" name="GALF" netid="IV" source="Italian National Seismic Network (INSN)" insttype="" lat="37.7107" lon="14.5665" esm:processing="manual (Paolucci et al 2011)" esm:quality="good">
		<comp name="--.HNE" depth="0.0">
			<acc value="0.275624343867135" flag="0"/>
			<vel value="0.174761684137518" flag="0"/>
			<psa03 value="0.814801643278176" flag="0"/>
			<psa10 value="0.100457829838313" flag="0"/>
			<psa30 value="0.0071094209642698" flag="0"/>
		</comp>
		<comp name="--.HNN" depth="0.0">
			<acc value="0.35084440915451" flag="0"/>
			<vel value="0.180476771462981" flag="0"/>
			<psa03 value="1.50397946459104" flag="0"/>
			<psa10 value="0.165146765162558" flag="0"/>
			<psa30 value="0.00646886353044395" flag="0"/>
		</comp>
		<comp name="--.HNZ" depth="0.0">
			<acc value="0.215519660728622" flag="0"/>
			<vel value="0.100092598180763" flag="0"/>
			<psa03 value="0.750467964820342" flag="0"/>
			<psa10 value="0.0406450275336418" flag="0"/>
			<psa30 value="0.00351755218723739" flag="0"/>
		</comp>
	</station>
	<station code="GMB1" name="GMB1" netid="IV" source="Italian National Seismic Network (INSN)" insttype="" lat="38.1723" lon="15.8179" esm:processing="manual (Paolucci et al 2011)" esm:quality="best">
		<comp name="--.HNE" depth="0.0">
			<acc value="0.290313138309125" flag="0"/>
			<vel value="0.112282012716751" flag="0"/>
			<psa03 value="0.442820668029424" flag="0"/>
			<psa10 value="0.0718165224923117" flag="0"/>
			<psa30 value="0.00435513142274939" flag="0"/>
		</comp>
		<comp name="--.HNN" depth="0.0">
			<acc value="0.1810871182871" flag="0"/>
			<vel value="0.0567580982313565" flag="0"/>
			<psa03 value="0.347932173798807" flag="0"/>
			<psa10 value="0.0412995583929072" flag="0"/>
			<psa30 value="0.00540237038054573" flag="0"/>
		</comp>
		<comp name="--.HNZ" depth="0.0">
			<acc value="0.271756591841512" flag="0"/>
			<vel value="0.040422248647983" flag="0"/>
			<psa03 value="0.161117735759283" flag="0"/>
			<psa10 value="0.0321508610867764" flag="0"/>
			<psa30 value="0.00319342300693506" flag="0"/>
		</comp>
	</station>
	<station code="HLNI" name="HLNI" netid="IV" source="Italian National Seismic Network (INSN)" insttype="" lat="37.3485" lon="14.872" esm:processing="manual (Paolucci et al 2011)" esm:quality="good">
		<comp name="--.HNE" depth="0.0">
			<acc value="0.801491268728891" flag="0"/>
			<vel value="0.192425404400397" flag="0"/>
			<psa03 value="0.751287769126878" flag="0"/>
			<psa10 value="0.0550979899715194" flag="0"/>
			<psa30 value="0.00441828643979092" flag="0"/>
		</comp>
		<comp name="--.HNN" depth="0.0">
			<acc value="0.747169396532239" flag="0"/>
			<vel value="0.183003073370209" flag="0"/>
			<psa03 value="0.639728253857028" flag="0"/>
			<psa10 value="0.0395592406055583" flag="0"/>
			<psa30 value="0.00391200790132552" flag="0"/>
		</comp>
		<comp name="--.HNZ" depth="0.0">
			<acc value="0.486278114009234" flag="0"/>
			<vel value="0.117431719961813" flag="0"/>
			<psa03 value="0.423054941980347" flag="0"/>
