<?xml version="1.0" encoding="UTF-8" standalone="yes"?>
<!DOCTYPE earthquake SYSTEM "stationlist.dtd">
<stationlist created="" xmlns="ch.ethz.sed.shakemap.usgs.xml">
  <station code="CEYT" name="CEYT" netid="KO" insttype="CMG-3ESP" lat="37.0105" lon="35.7478">
    <comp name="--.HHE">
      <acc value="0.0554464531" flag="0"/>
      <vel value="0.0379634115" flag="0"/>
      <psa03 value="0.2163508493" flag="0"/>
      <psa10 value="0.0750457629" flag="0"/>
      <psa30 value="0.0058573032" flag="0"/>
    </comp>
    <comp name="--.HHZ">
      <acc value="0.0386680304" flag="0"/>
      <vel value="0.0362580700" flag="0"/>
      <psa03 value="0.0782966531" flag="0"/>
      <psa10 value="0.0256338545" flag="0"/>
      <psa30 value="0.0029765970" flag="0"/>
    </comp>
    <comp name="--.HHN">
      <acc value="0.0593284397" flag="0"/>
      <vel value="0.0831088447" flag="0"/>
      <psa03 value="0.2328564836" flag="0"/>
      <psa10 value="0.1366599946" flag="0"/>
      <psa30 value="0.0088894425" flag="0"/>
    </comp>
  </station>
  <station code="DARE" name="DARE" netid="KO" insttype="CMG-3ESP" lat="38.5712" lon="37.4832">
    <comp name="--.HHE">
      <acc value="0.0197171594" flag="0"/>
      <vel value="0.0176231014" flag="0"/>
      <psa03 value="0.0643362806" flag="0"/>
      <psa10 value="0.0349984762" flag="0"/>
      <psa30 value="0.0042537241" flag="0"/>
    </comp>
    <comp name="--.HHZ">
      <acc value="0.0246553386" flag="0"/>
      <vel value="0.0202619517" flag="0"/>
      <psa03 value="0.0774162552" flag="0"/>
      <psa10 value="0.0252898326" flag="0"/>
      <psa30 value="0.0047533435" flag="0"/>
    </comp>
    <comp name="--.HHN">
      <acc value="0.0228110766" flag="0"/>
      <vel value="0.0173437773" flag="0"/>
      <psa03 value="0.0600818283" flag="0"/>
      <psa10 value="0.0468375260" flag="0"/>
      <psa30 value="0.0030785834" flag="0"/>
    </comp>
  </station>
  <station code="GAZ" name="GAZ" netid="KO" insttype="CMG-3T" lat="37.1721" lon="37.2096">
    <comp name="--.HHZ">
      <acc value="0.6509323161" flag="0"/>
      <vel value="0.4801840013" flag="0"/>
      <psa03 value="1.2873969713" flag="0"/>
      <psa10 value="0.4836495799" flag="0"/>
      <psa30 value="0.0376745704" flag="0"/>
    </comp>
    <comp name="--.HHE">
      <acc value="1.4792528413" flag="0"/>
      <vel value="0.8150216839" flag="0"/>
      <psa03 value="2.8797125504" flag="0"/>
      <psa10 value="0.7552570245" flag="0"/>
      <psa30 value="0.0762017464" flag="0"/>
    </comp>
  </station>
  <station code="KMRS" name="KMRS" netid="KO" insttype="CMG-3T" lat="37.5087" lon="36.9">
    <comp name="--.HHN">
      <acc value="0.4630534857" flag="0"/>
      <vel value="0.2915676081" flag="0"/>
      <psa03 value="1.0023214967" flag="0"/>
      <psa10 value="0.3329901368" flag="0"/>
      <psa30 value="0.0215426252" flag="0"/>
    </comp>
    <comp name="--.HHE">
      <acc value="0.3863511424" flag="0"/>
      <vel value="0.2550003965" flag="0"/>
      <psa03 value="1.2126639936" flag="0"/>
      <psa10 value="0.3324003498" flag="0"/>
      <psa30 value="0.0442785560" flag="0"/>
    </comp>
    <comp name="--.HHZ">
      <acc value="0.2678035544" flag="0"/>
      <vel value="0.1901321010" flag="0"/>
      <psa03 value="0.7592002412" flag="0"/>
      <psa10 value="0.2870290177" flag="0"/>
      <psa30 value="0.0236458964" flag="0"/>
    </comp>
  </station>
  <station code="SARI" name="SARI" netid="KO" insttype="CMG-3T" lat="38.4072" lon="36.4181">
    <comp name="--.HHN">
      <acc value="0.0979422551" flag="0"/>
      <vel value="0.0369564612" flag="0"/>
      <psa03 value="0.2619406451" flag="0"/>
      <psa10 value="0.0642407576" flag="0"/>
      <psa30 value="0.0048917687" flag="0"/>
    </comp>
    <comp name="--.HHZ">
      <acc value="0.0596746952" flag="0"/>
      <vel value="0.0309810093" flag="0"/>
      <psa03 value="0.1400056361" flag="0"/>
      <psa10 value="0.0265562210" flag="0"/>
      <psa30 value="0.0039305404" flag="0"/>
    </comp>
    <comp name="--.HHE">
      <acc value="0.1042035669" flag="0"/>
      <vel value="0.0486087376" flag="0"/>
      <psa03 value="0.3608711466" flag="0"/>
      <psa10 value="0.0470524788" flag="0"/>
      <psa30 value="0.0049880424" flag="0"/>
    </comp>
  </station>
  <station code="TAHT" name="TAHT" netid="KO" insttype="CMG-3ESPC" lat="36.3755" lon="36.1855">
    <comp name="--.HHE">
      <acc value="0.4548930512" flag="0"/>
      <vel value="0.2652512821" flag="0"/>
      <psa03 value="1.7785676762" flag="0"/>
      <psa10 value="0.2047959780" flag="0"/>
      <psa30 value="0.0215617727" flag="0"/>
    </comp>
    <comp name="--.HHZ">
      <acc value="0.2642791567" flag="0"/>
      <vel value="0.1958731622" flag="0"/>
      <psa03 value="0.6962476789" flag="0"/>
      <psa10 value="0.1727427874" flag="0"/>
      <psa30 value="0.0095638348" flag="0"/>
    </comp>
    <comp name="--.HHN">
      <acc value="0.3647353465" flag="0"/>
      <vel value="0.2424945317" flag="0"/>
      <psa03 value="0.8297859698" flag="0"/>
      <psa10 value="0.1942897259" flag="0"/>
      <psa30 value="0.0100428730" flag="0"/>
    </comp>
  </station>
  <station code="URFA" name="URFA" netid="KO" insttype="CMG-3ESP" lat="37.4409" lon="38.8213">
    <comp name="--.HHE">
      <acc value="0.1144738058" flag="0"/>
      <vel value="0.0351167553" flag="0"/>
      <psa03 value="0.2468481670" flag="0"/>
      <psa10 value="0.0444898048" flag="0"/>
      <psa30 value="0.0056736521" flag="0"/>
    </comp>
  </station>
  <station code="ANDN" name="ANDN" netid="TU" insttype="T" lat="37.58" lon="36.3452">
    <comp name="--.HHN">
      <acc value="0.7166462162" flag="0"/>
      <vel value="0.2187724632" flag="0"/>
      <psa03 value="1.5701046990" flag="0"/>
      <psa10 value="0.2324997637" flag="0"/>
      <psa30 value="0.0290286462" flag="0"/>
    </comp>
    <comp name="--.HHE">
      <acc value="0.5114693537" flag="0"/>
      <vel value="0.2610570066" flag="0"/>
      <psa03 value="1.1709614285" flag="0"/>
      <psa10 value="0.3581612940" flag="0"/>
      <psa30 value="0.0189634731" flag="0"/>
    </comp>
    <comp name="--.HHZ">
      <acc value="0.3060173803" flag="0"/>
      <vel value="0.1793726654" flag="0"/>
      <psa03 value="0.4843849958" flag="0"/>
      <psa10 value="0.3265310534" flag="0"/>
      <psa30 value="0.0179121469" flag="0"/>
    </comp>
  </station>
</stationlist>
