<?xml version="1.0" encoding="UTF-8" standalone="yes"?>
<!DOCTYPE earthquake SYSTEM "stationlist.dtd">
<stationlist created="" xmlns="ch.ethz.sed.shakemap.usgs.xml">
  <station code="AKIN" name="AKIN" netid="KO" insttype="CMG-5T" commtype="DIG" lat="35.0157" lon="33.4662">
    <comp name="--.HNN">
      <acc value="0.0200409377" flag="0"/>
      <vel value="0.0186402607" flag="0"/>
      <psa03 value="0.0368263111" flag="0"/>
      <psa10 value="0.0271056976" flag="0"/>
      <psa30 value="0.0015859418" flag="0"/>
    </comp>
    <comp name="--.HNE">
      <acc value="0.0283627157" flag="0"/>
      <vel value="0.0238931651" flag="0"/>
      <psa03 value="0.0480245409" flag="0"/>
      <psa10 value="0.0334560650" flag="0"/>
      <psa30 value="0.0017815078" flag="0"/>
    </comp>
    <comp name="--.HNZ">
      <acc value="0.0185313036" flag="0"/>
      <vel value="0.0101112155" flag="0"/>
      <psa03 value="0.0554825872" flag="0"/>
      <psa10 value="0.0136786370" flag="0"/>
      <psa30 value="0.0009074038" flag="0"/>
    </comp>
  </station>
</stationlist>
