<?xml version="1.0" encoding="UTF-8" standalone="yes"?>
<!DOCTYPE earthquake SYSTEM "stationlist.dtd">
<stationlist created="" xmlns="ch.ethz.sed.shakemap.usgs.xml">
  <station code="DARE" name="DARE" netid="KO" insttype="CMG-3ESP" lat="38.5712" lon="37.4832">
    <comp name="--.HHE">
      <acc value="0.0351555887" flag="0"/>
      <vel value="0.0180384944" flag="0"/>
      <psa03 value="0.0831154663" flag="0"/>
      <psa10 value="0.0183962622" flag="0"/>
      <psa30 value="0.0011310180" flag="0"/>
    </comp>
    <comp name="--.HHN">
      <acc value="0.0293160186" flag="0"/>
      <vel value="0.0146165646" flag="0"/>
      <psa03 value="0.0527966081" flag="0"/>
      <psa10 value="0.0115548115" flag="0"/>
      <psa30 value="0.0005928547" flag="0"/>
    </comp>
  </station>
  <station code="GAZ" name="GAZ" netid="KO" insttype="CMG-3T" lat="37.1721" lon="37.2096">
    <comp name="--.HHN">
      <acc value="0.0095850280" flag="0"/>
      <vel value="0.0035948182" flag="0"/>
      <psa03 value="0.0176868342" flag="0"/>
      <psa10 value="0.0031639490" flag="0"/>
      <psa30 value="0.0002981131" flag="0"/>
    </comp>
    <comp name="--.HHE">
      <acc value="0.0129972076" flag="0"/>
      <vel value="0.0036211065" flag="0"/>
      <psa03 value="0.0239491161" flag="0"/>
      <psa10 value="0.0031220170" flag="0"/>
      <psa30 value="0.0007225325" flag="0"/>
    </comp>
    <comp name="--.HHZ">
      <acc value="0.0071632053" flag="0"/>
      <vel value="0.0025435538" flag="0"/>
      <psa03 value="0.0162386778" flag="0"/>
      <psa10 value="0.0023448912" flag="0"/>
      <psa30 value="0.0004534936" flag="0"/>
    </comp>
  </station>
  <station code="SARI" name="SARI" netid="KO" insttype="CMG-3T" lat="38.4072" lon="36.4181">
    <comp name="--.HHE">
      <acc value="0.0258530239" flag="0"/>
      <vel value="0.0117972076" flag="0"/>
      <psa03 value="0.0919523409" flag="0"/>
      <psa10 value="0.0059371731" flag="0"/>
      <psa30 value="0.0003859103" flag="0"/>
    </comp>
    <comp name="--.HHZ">
      <acc value="0.0124521308" flag="0"/>
      <vel value="0.0051818424" flag="0"/>
      <psa03 value="0.0264177377" flag="0"/>
      <psa10 value="0.0037621870" flag="0"/>
      <psa30 value="0.0003270367" flag="0"/>
    </comp>
    <comp name="--.HHN">
      <acc value="0.0155137855" flag="0"/>
      <vel value="0.0058683467" flag="0"/>
      <psa03 value="0.0309070123" flag="0"/>
      <psa10 value="0.0078080843" flag="0"/>
      <psa30 value="0.0003483296" flag="0"/>
    </comp>
  </station>
  <station code="URFA" name="URFA" netid="KO" insttype="CMG-3ESP" lat="37.4409" lon="38.8213">
    <comp name="--.HHN">
      <acc value="0.0409931124" flag="0"/>
      <vel value="0.0159073455" flag="0"/>
      <psa03 value="0.0540370715" flag="0"/>
      <psa10 value="0.0116807805" flag="0"/>
      <psa30 value="0.0008026565" flag="0"/>
    </comp>
    <comp name="--.HHE">
      <acc value="0.0415981170" flag="0"/>
      <vel value="0.0102911603" flag="0"/>
      <psa03 value="0.0612311912" flag="0"/>
      <psa10 value="0.0101977543" flag="0"/>
      <psa30 value="0.0005486714" flag="0"/>
    </comp>
    <comp name="--.HHZ">
      <acc value="0.0355912278" flag="0"/>
      <vel value="0.0091566271" flag="0"/>
      <psa03 value="0.0447508810" flag="0"/>
      <psa10 value="0.0072166827" flag="0"/>
      <psa30 value="0.0003988228" flag="0"/>
    </comp>
  </station>
</stationlist>
