<?xml version="1.0" encoding="UTF-8" standalone="yes"?>
<!DOCTYPE earthquake SYSTEM "stationlist.dtd">
<stationlist created="" xmlns="ch.ethz.sed.shakemap.usgs.xml">
  <station code="DARE" name="DARE" netid="KO" insttype="CMG-3ESP" lat="38.5712" lon="37.4832">
    <comp name="--.HHE">
      <acc value="0.0351555887" flag="0"/>
      <vel value="0.0180384950" flag="0"/>
      <psa03 value="0.0831154663" flag="0"/>
      <psa10 value="0.0183962621" flag="0"/>
      <psa30 value="0.0011309586" flag="0"/>
    </comp>
    <comp name="--.HHZ">
      <acc value="0.0358739415" flag="0"/>
      <vel value="0.0130478445" flag="0"/>
      <psa03 value="0.0543320269" flag="0"/>
      <psa10 value="0.0104915574" flag="0"/>
      <psa30 value="0.0011852478" flag="0"/>
    </comp>
    <comp name="--.HHN">
      <acc value="0.0293160186" flag="0"/>
      <vel value="0.0146165639" flag="0"/>
      <psa03 value="0.0527966081" flag="0"/>
      <psa10 value="0.0115548118" flag="0"/>
      <psa30 value="0.0005928697" flag="0"/>
    </comp>
  </station>
  <station code="GAZ" name="GAZ" netid="KO" insttype="CMG-3T" lat="37.1721" lon="37.2096">
    <comp name="--.HHZ">
      <acc value="0.0071632061" flag="0"/>
      <vel value="0.0025435519" flag="0"/>
      <psa03 value="0.0162386778" flag="0"/>
      <psa10 value="0.0023448912" flag="0"/>
      <psa30 value="0.0004535015" flag="0"/>
    </comp>
    <comp name="--.HHE">
      <acc value="0.0129972072" flag="0"/>
      <vel value="0.0036211059" flag="0"/>
      <psa03 value="0.0239491161" flag="0"/>
      <psa10 value="0.0031220170" flag="0"/>
      <psa30 value="0.0007224919" flag="0"/>
    </comp>
    <comp name="--.HHN">
      <acc value="0.0095850275" flag="0"/>
      <vel value="0.0035948168" flag="0"/>
      <psa03 value="0.0176868342" flag="0"/>
      <psa10 value="0.0031639490" flag="0"/>
      <psa30 value="0.0002981320" flag="0"/>
    </comp>
  </station>
  <station code="KMRS" name="KMRS" netid="KO" insttype="CMG-3T" lat="37.5053" lon="36.9">
    <comp name="--.HHE">
      <acc value="0.0150849886" flag="0"/>
      <vel value="0.0068920340" flag="0"/>
      <psa03 value="0.0333293720" flag="0"/>
      <psa10 value="0.0047472058" flag="0"/>
      <psa30 value="0.0003439488" flag="0"/>
    </comp>
  </station>
  <station code="SARI" name="SARI" netid="KO" insttype="CMG-3T" lat="38.4072" lon="36.4181">
    <comp name="--.HHE">
      <acc value="0.0258530222" flag="0"/>
      <vel value="0.0117972059" flag="0"/>
      <psa03 value="0.0919523409" flag="0"/>
      <psa10 value="0.0059371733" flag="0"/>
      <psa30 value="0.0003858826" flag="0"/>
    </comp>
    <comp name="--.HHN">
      <acc value="0.0155137848" flag="0"/>
      <vel value="0.0058683464" flag="0"/>
      <psa03 value="0.0309070123" flag="0"/>
      <psa10 value="0.0078080843" flag="0"/>
      <psa30 value="0.0003484532" flag="0"/>
    </comp>
    <comp name="--.HHZ">
      <acc value="0.0124521328" flag="0"/>
      <vel value="0.0051818419" flag="0"/>
      <psa03 value="0.0264177377" flag="0"/>
      <psa10 value="0.0037621870" flag="0"/>
      <psa30 value="0.0003270344" flag="0"/>
    </comp>
  </station>
  <station code="URFA" name="URFA" netid="KO" insttype="CMG-3ESP" lat="37.4409" lon="38.8213">
    <comp name="--.HHE">
      <acc value="0.0415981170" flag="0"/>
      <vel value="0.0102911599" flag="0"/>
      <psa03 value="0.0612311912" flag="0"/>
      <psa10 value="0.0101977545" flag="0"/>
      <psa30 value="0.0005486820" flag="0"/>
    </comp>
    <comp name="--.HHN">
      <acc value="0.0409931122" flag="0"/>
      <vel value="0.0159073435" flag="0"/>
      <psa03 value="0.0540370715" flag="0"/>
      <psa10 value="0.0116807803" flag="0"/>
      <psa30 value="0.0008027244" flag="0"/>
    </comp>
    <comp name="--.HHZ">
      <acc value="0.0355912279" flag="0"/>
      <vel value="0.0091566259" flag="0"/>
      <psa03 value="0.0447508810" flag="0"/>
      <psa10 value="0.0072166827" flag="0"/>
      <psa30 value="0.0003989083" flag="0"/>
    </comp>
  </station>
</stationlist>
