<?xml version="1.0" encoding="UTF-8" standalone="yes"?>
<!DOCTYPE earthquake SYSTEM "stationlist.dtd">
<stationlist created="" xmlns="ch.ethz.sed.shakemap.usgs.xml">
  <station code="ACOR" name="ACOR" netid="HA" insttype="Horizon,120s,1200" lat="37.8905" lon="22.8694">
    <comp name="--.HHE">
      <acc value="0.0070086853" flag="0"/>
      <vel value="0.0037669324" flag="0"/>
      <psa03 value="0.0152679312" flag="0"/>
      <psa10 value="0.0036156634" flag="0"/>
      <psa30 value="0.0002356005" flag="0"/>
    </comp>
    <comp name="--.HHN">
      <acc value="0.0095865205" flag="0"/>
      <vel value="0.0041273511" flag="0"/>
      <psa03 value="0.0183975418" flag="0"/>
      <psa10 value="0.0040412657" flag="0"/>
      <psa30 value="0.0002311773" flag="0"/>
    </comp>
    <comp name="--.HHZ">
      <acc value="0.0064579448" flag="0"/>
      <vel value="0.0023450140" flag="0"/>
      <psa03 value="0.0107391595" flag="0"/>
      <psa10 value="0.0034995627" flag="0"/>
      <psa30 value="0.0002140119" flag="0"/>
    </comp>
  </station>
  <station code="AMPE" name="AMPE" netid="HA" insttype="1s-100Hz," lat="38.3015" lon="23.2688">
    <comp name="--.HHE">
      <acc value="0.0278691935" flag="0"/>
      <vel value="0.0170397289" flag="0"/>
      <psa03 value="0.0426101232" flag="0"/>
      <psa10 value="0.0099809594" flag="0"/>
      <psa30 value="0.0006304174" flag="0"/>
    </comp>
    <comp name="--.HHN">
      <acc value="0.0275086037" flag="0"/>
      <vel value="0.0089900753" flag="0"/>
      <psa03 value="0.0531647974" flag="0"/>
      <psa10 value="0.0054092355" flag="0"/>
      <psa30 value="0.0005798526" flag="0"/>
    </comp>
    <comp name="--.HHZ">
      <acc value="0.0174826088" flag="0"/>
      <vel value="0.0057222095" flag="0"/>
      <psa03 value="0.0245600294" flag="0"/>
      <psa10 value="0.0032091555" flag="0"/>
      <psa30 value="0.0002521667" flag="0"/>
    </comp>
  </station>
  <station code="ATHU" name="ATHU" netid="HA" insttype="60s," lat="37.9665" lon="23.7845">
    <comp name="--.HHZ">
      <acc value="0.1511669419" flag="0"/>
      <vel value="0.0268522246" flag="0"/>
      <psa03 value="0.0840199996" flag="0"/>
      <psa10 value="0.0064693352" flag="0"/>
      <psa30 value="0.0006264395" flag="0"/>
    </comp>
    <comp name="--.HHN">
      <acc value="0.1640478717" flag="0"/>
      <vel value="0.0254528669" flag="0"/>
      <psa03 value="0.0851518953" flag="0"/>
      <psa10 value="0.0085028583" flag="0"/>
      <psa30 value="0.0007765079" flag="0"/>
    </comp>
    <comp name="--.HHE">
      <acc value="0.1973736898" flag="0"/>
      <vel value="0.0272255391" flag="0"/>
      <psa03 value="0.0576235760" flag="0"/>
      <psa10 value="0.0071822839" flag="0"/>
      <psa30 value="0.0004955787" flag="0"/>
    </comp>
  </station>
  <station code="DOMV" name="DOMV" netid="HA" insttype="60" lat="38.2569" lon="22.9795">
    <comp name="--.HHN">
      <acc value="0.0587777086" flag="0"/>
      <vel value="0.0128107281" flag="0"/>
      <psa03 value="0.0723246993" flag="0"/>
      <psa10 value="0.0026594566" flag="0"/>
      <psa30 value="0.0002274630" flag="0"/>
    </comp>
    <comp name="--.HHE">
      <acc value="0.0658687512" flag="0"/>
      <vel value="0.0132586978" flag="0"/>
      <psa03 value="0.0505589771" flag="0"/>
      <psa10 value="0.0031828370" flag="0"/>
      <psa30 value="0.0002406565" flag="0"/>
    </comp>
    <comp name="--.HHZ">
      <acc value="0.0343312999" flag="0"/>
      <vel value="0.0098967154" flag="0"/>
      <psa03 value="0.0336553391" flag="0"/>
      <psa10 value="0.0040511496" flag="0"/>
      <psa30 value="0.0003853330" flag="0"/>
    </comp>
  </station>
  <station code="EPID" name="EPID" netid="HA" insttype="30" lat="37.6144" lon="23.1189">
    <comp name="--.HHE">
      <acc value="0.0193226025" flag="0"/>
      <vel value="0.0052375181" flag="0"/>
      <psa03 value="0.0281362554" flag="0"/>
      <psa10 value="0.0026875550" flag="0"/>
      <psa30 value="0.0002259398" flag="0"/>
    </comp>
    <comp name="--.HHZ">
      <acc value="0.0228864538" flag="0"/>
      <vel value="0.0037294323" flag="0"/>
      <psa03 value="0.0129107929" flag="0"/>
      <psa10 value="0.0020150170" flag="0"/>
      <psa30 value="0.0001682270" flag="0"/>
    </comp>
    <comp name="--.HHN">
      <acc value="0.0212965670" flag="0"/>
      <vel value="0.0052816398" flag="0"/>
      <psa03 value="0.0190569154" flag="0"/>
      <psa10 value="0.0022523934" flag="0"/>
      <psa30 value="0.0002660590" flag="0"/>
    </comp>
  </station>
  <station code="ERTR" name="ERTR" netid="HA" insttype="Horizon,120s,1200" lat="38.4066" lon="23.7865">
    <comp name="--.HHZ">
      <acc value="0.0288332160" flag="0"/>
      <vel value="0.0068983934" flag="0"/>
      <psa03 value="0.0451417232" flag="0"/>
      <psa10 value="0.0026799913" flag="0"/>
      <psa30 value="0.0002313493" flag="0"/>
    </comp>
    <comp name="--.HHE">
      <acc value="0.0529142763" flag="0"/>
      <vel value="0.0184786325" flag="0"/>
      <psa03 value="0.1171143456" flag="0"/>
      <psa10 value="0.0059023824" flag="0"/>
      <psa30 value="0.0005760151" flag="0"/>
    </comp>
    <comp name="--.HHN">
      <acc value="0.0410443303" flag="0"/>
      <vel value="0.0129225414" flag="0"/>
      <psa03 value="0.0656684556" flag="0"/>
      <psa10 value="0.0050834764" flag="0"/>
      <psa30 value="0.0003685135" flag="0"/>
    </comp>
  </station>
  <station code="KARY" name="KARY" netid="HA" insttype="60" lat="38.0321" lon="24.437">
    <comp name="--.HHE">
      <acc value="0.1387921580" flag="0"/>
      <vel value="0.0139428034" flag="0"/>
      <psa03 value="0.0363375158" flag="0"/>
      <psa10 value="0.0048666255" flag="0"/>
      <psa30 value="0.0003848743" flag="0"/>
    </comp>
    <comp name="--.HHN">
      <acc value="0.1169700889" flag="0"/>
      <vel value="0.0216753346" flag="0"/>
      <psa03 value="0.0328825667" flag="0"/>
      <psa10 value="0.0102722455" flag="0"/>
      <psa30 value="0.0006641844" flag="0"/>
    </comp>
    <comp name="--.HHZ">
      <acc value="0.1239369527" flag="0"/>
      <vel value="0.0184476942" flag="0"/>
      <psa03 value="0.0425070932" flag="0"/>
      <psa10 value="0.0036892515" flag="0"/>
      <psa30 value="0.0005978137" flag="0"/>
    </comp>
  </station>
  <station code="LOUT" name="LOUT" netid="HA" insttype="30" lat="37.9879" lon="22.9743">
    <comp name="--.HHZ">
      <acc value="0.0331200385" flag="0"/>
      <vel value="0.0101775313" flag="0"/>
      <psa03 value="0.0610538617" flag="0"/>
      <psa10 value="0.0055425019" flag="0"/>
      <psa30 value="0.0004137421" flag="0"/>
    </comp>
    <comp name="--.HHN">
      <acc value="0.0479305049" flag="0"/>
      <vel value="0.0152196197" flag="0"/>
      <psa03 value="0.0917357168" flag="0"/>
      <psa10 value="0.0070387184" flag="0"/>
      <psa30 value="0.0004764385" flag="0"/>
    </comp>
    <comp name="--.HHE">
      <acc value="0.0654161898" flag="0"/>
      <vel value="0.0157574371" flag="0"/>
      <psa03 value="0.0785384862" flag="0"/>
      <psa10 value="0.0114017772" flag="0"/>
      <psa30 value="0.0004916321" flag="0"/>
    </comp>
  </station>
  <station code="MDRA" name="MDRA" netid="HA" insttype="60" lat="38.0606" lon="23.4662">
    <comp name="--.HHZ">
      <acc value="0.0670734533" flag="0"/>
      <vel value="0.0105774317" flag="0"/>
      <psa03 value="0.0320906026" flag="0"/>
      <psa10 value="0.0033725367" flag="0"/>
      <psa30 value="0.0003766808" flag="0"/>
    </comp>
    <comp name="--.HHN">
      <acc value="0.0517901124" flag="0"/>
      <vel value="0.0087080053" flag="0"/>
      <psa03 value="0.0451559869" flag="0"/>
      <psa10 value="0.0048900434" flag="0"/>
      <psa30 value="0.0004401285" flag="0"/>
    </comp>
    <comp name="--.HHE">
      <acc value="0.0617484172" flag="0"/>
      <vel value="0.0093232114" flag="0"/>
      <psa03 value="0.0352057957" flag="0"/>
      <psa10 value="0.0023663634" flag="0"/>
      <psa30 value="0.0002052594" flag="0"/>
    </comp>
  </station>
  <station code="MRKA" name="MRKA" netid="HA" insttype="Horizon,120s,1200" lat="38.7047" lon="23.5863">
    <comp name="--.HHE">
      <acc value="0.0388988369" flag="0"/>
      <vel value="0.0123229784" flag="0"/>
      <psa03 value="0.0466064230" flag="0"/>
      <psa10 value="0.0080037154" flag="0"/>
      <psa30 value="0.0005872624" flag="0"/>
    </comp>
    <comp name="--.HHN">
      <acc value="0.0333495816" flag="0"/>
      <vel value="0.0119383444" flag="0"/>
      <psa03 value="0.0505883928" flag="0"/>
      <psa10 value="0.0075748863" flag="0"/>
      <psa30 value="0.0005572108" flag="0"/>
    </comp>
    <comp name="--.HHZ">
      <acc value="0.0198050173" flag="0"/>
      <vel value="0.0068110954" flag="0"/>
      <psa03 value="0.0418817220" flag="0"/>
      <psa10 value="0.0039943015" flag="0"/>
      <psa30 value="0.0004836191" flag="0"/>
    </comp>
  </station>
  <station code="MRTH" name="MRTH" netid="HA" insttype="S100," lat="38.1225" lon="23.9409">
    <comp name="--.HHZ">
      <acc value="0.1999032519" flag="0"/>
      <vel value="0.0563426852" flag="0"/>
      <psa03 value="0.2299436758" flag="0"/>
      <psa10 value="0.0131985240" flag="0"/>
      <psa30 value="0.0011471989" flag="0"/>
    </comp>
    <comp name="--.HHN">
      <acc value="0.2083746561" flag="0"/>
      <vel value="0.0498525271" flag="0"/>
      <psa03 value="0.2770104493" flag="0"/>
      <psa10 value="0.0182769680" flag="0"/>
      <psa30 value="0.0010707549" flag="0"/>
    </comp>
    <comp name="--.HHE">
      <acc value="0.1950500091" flag="0"/>
      <vel value="0.0540849858" flag="0"/>
      <psa03 value="0.2121605886" flag="0"/>
      <psa10 value="0.0149007393" flag="0"/>
      <psa30 value="0.0013337883" flag="0"/>
    </comp>
  </station>
  <station code="PSAH" name="PSAH" netid="HA" insttype="25" lat="38.5694" lon="23.6473">
    <comp name="--.HHN">
      <acc value="0.0263550275" flag="0"/>
      <vel value="0.0069000282" flag="0"/>
      <psa03 value="0.0289800867" flag="0"/>
      <psa10 value="0.0040316126" flag="0"/>
      <psa30 value="0.0003054503" flag="0"/>
    </comp>
    <comp name="--.HHE">
      <acc value="0.0183937051" flag="0"/>
      <vel value="0.0056793233" flag="0"/>
      <psa03 value="0.0317209800" flag="0"/>
      <psa10 value="0.0054033619" flag="0"/>
      <psa30 value="0.0002948033" flag="0"/>
    </comp>
    <comp name="--.HHZ">
      <acc value="0.0123313828" flag="0"/>
      <vel value="0.0045743020" flag="0"/>
      <psa03 value="0.0175404614" flag="0"/>
      <psa10 value="0.0027168317" flag="0"/>
      <psa30 value="0.0001362667" flag="0"/>
    </comp>
  </station>
  <station code="STFN" name="STFN" netid="HA" insttype="1s-100Hz," lat="38.1766" lon="23.544">
    <comp name="--.HHE">
      <acc value="0.1162055386" flag="0"/>
      <vel value="0.0315018076" flag="0"/>
      <psa03 value="0.1202531693" flag="0"/>
      <psa10 value="0.0088676706" flag="0"/>
      <psa30 value="0.0007342843" flag="0"/>
    </comp>
    <comp name="--.HHN">
      <acc value="0.0914787090" flag="0"/>
      <vel value="0.0289853841" flag="0"/>
      <psa03 value="0.1381285713" flag="0"/>
      <psa10 value="0.0079950785" flag="0"/>
      <psa30 value="0.0007176502" flag="0"/>
    </comp>
    <comp name="--.HHZ">
      <acc value="0.0465999851" flag="0"/>
      <vel value="0.0134611097" flag="0"/>
      <psa03 value="0.0664818319" flag="0"/>
      <psa10 value="0.0086661772" flag="0"/>
      <psa30 value="0.0005486855" flag="0"/>
    </comp>
  </station>
  <station code="THIV" name="THIV" netid="HA" insttype="25" lat="38.299" lon="23.332">
    <comp name="--.HHZ">
      <acc value="0.0400278498" flag="0"/>
      <vel value="0.0077024028" flag="0"/>
      <psa03 value="0.0288845368" flag="0"/>
      <psa10 value="0.0035643088" flag="0"/>
      <psa30 value="0.0002719380" flag="0"/>
    </comp>
    <comp name="--.HHN">
      <acc value="0.0500789989" flag="0"/>
      <vel value="0.0114428540" flag="0"/>
      <psa03 value="0.0323855471" flag="0"/>
      <psa10 value="0.0030598678" flag="0"/>
      <psa30 value="0.0003827092" flag="0"/>
    </comp>
    <comp name="--.HHE">
      <acc value="0.0482574924" flag="0"/>
      <vel value="0.0081902722" flag="0"/>
      <psa03 value="0.0636801483" flag="0"/>
      <psa10 value="0.0049154589" flag="0"/>
      <psa30 value="0.0003010547" flag="0"/>
    </comp>
  </station>
  <station code="VILL" name="VILL" netid="HA" insttype="Horizon,120s,1200" lat="38.1642" lon="23.3122">
    <comp name="--.HHZ">
      <acc value="0.0178885765" flag="0"/>
      <vel value="0.0043666071" flag="0"/>
      <psa03 value="0.0241198537" flag="0"/>
      <psa10 value="0.0039113359" flag="0"/>
      <psa30 value="0.0002580154" flag="0"/>
    </comp>
    <comp name="--.HHN">
      <acc value="0.0281838771" flag="0"/>
      <vel value="0.0092881960" flag="0"/>
      <psa03 value="0.0396448393" flag="0"/>
      <psa10 value="0.0033711342" flag="0"/>
      <psa30 value="0.0003527960" flag="0"/>
    </comp>
    <comp name="--.HHE">
      <acc value="0.0334313197" flag="0"/>
      <vel value="0.0109755544" flag="0"/>
      <psa03 value="0.0420019154" flag="0"/>
      <psa10 value="0.0078354311" flag="0"/>
      <psa30 value="0.0005632574" flag="0"/>
    </comp>
  </station>
  <station code="SKY1" name="SKY1" netid="HI" insttype="CMG-5TD,ACCELEROMETER,GURALP" lat="38.9045" lon="24.5646">
    <comp name="--.HNZ">
      <acc value="0.0094437060" flag="0"/>
      <vel value="0.0039737719" flag="0"/>
      <psa03 value="0.0229265990" flag="0"/>
      <psa10 value="0.0023435423" flag="0"/>
      <psa30 value="0.0001882822" flag="0"/>
    </comp>
    <comp name="--.HNE">
      <acc value="0.0145667551" flag="0"/>
      <vel value="0.0069539429" flag="0"/>
      <psa03 value="0.0350786147" flag="0"/>
      <psa10 value="0.0047423295" flag="0"/>
      <psa30 value="0.0004013006" flag="0"/>
    </comp>
    <comp name="--.HNN">
      <acc value="0.0142395473" flag="0"/>
      <vel value="0.0090594230" flag="0"/>
      <psa03 value="0.0581840470" flag="0"/>
      <psa10 value="0.0044245329" flag="0"/>
      <psa30 value="0.0004098409" flag="0"/>
    </comp>
  </station>
  <station code="ATH" name="ATH" netid="HL" insttype="DR24" lat="37.9738" lon="23.7177">
    <comp name="--.HHN">
      <acc value="0.1400017740" flag="0"/>
      <vel value="0.0392048399" flag="0"/>
      <psa03 value="0.2095573578" flag="0"/>
      <psa10 value="0.0123378962" flag="0"/>
      <psa30 value="0.0017149649" flag="0"/>
    </comp>
    <comp name="--.HHE">
      <acc value="0.2730254481" flag="0"/>
      <vel value="0.0683419555" flag="0"/>
      <psa03 value="0.3387012698" flag="0"/>
      <psa10 value="0.0149386265" flag="0"/>
      <psa30 value="0.0011753324" flag="0"/>
    </comp>
    <comp name="--.HHZ">
      <acc value="0.1330199757" flag="0"/>
      <vel value="0.0224436987" flag="0"/>
      <psa03 value="0.0873770093" flag="0"/>
      <psa10 value="0.0067223961" flag="0"/>
      <psa30 value="0.0005802627" flag="0"/>
    </comp>
  </station>
  <station code="ATHP" name="ATHP" netid="HL" insttype="CMG-5" lat="38.0008" lon="23.7735">
    <comp name="00.HNE">
      <acc value="0.2736425402" flag="0"/>
      <vel value="0.0509506027" flag="0"/>
      <psa03 value="0.1443773224" flag="0"/>
      <psa10 value="0.0093347363" flag="0"/>
      <psa30 value="0.0008369777" flag="0"/>
    </comp>
    <comp name="00.HNZ">
      <acc value="0.1557652893" flag="0"/>
      <vel value="0.0300671551" flag="0"/>
      <psa03 value="0.1009922782" flag="0"/>
      <psa10 value="0.0102074659" flag="0"/>
      <psa30 value="0.0007962668" flag="0"/>
    </comp>
    <comp name="00.HNN">
      <acc value="0.1824624991" flag="0"/>
      <vel value="0.0532347363" flag="0"/>
      <psa03 value="0.1624788275" flag="0"/>
      <psa10 value="0.0166780096" flag="0"/>
      <psa30 value="0.0011025782" flag="0"/>
    </comp>
  </station>
  <station code="NOAC" name="NOAC" netid="HL" insttype="CMG-5" lat="37.9738" lon="23.7177">
    <comp name="00.HNE">
      <acc value="0.2729280268" flag="0"/>
      <vel value="0.0692134705" flag="0"/>
      <psa03 value="0.3451117275" flag="0"/>
      <psa10 value="0.0156592056" flag="0"/>
      <psa30 value="0.0012068007" flag="0"/>
    </comp>
    <comp name="00.HNN">
      <acc value="0.1336802999" flag="0"/>
      <vel value="0.0375265298" flag="0"/>
      <psa03 value="0.2215617266" flag="0"/>
      <psa10 value="0.0125991653" flag="0"/>
      <psa30 value="0.0017528449" flag="0"/>
    </comp>
    <comp name="00.HNZ">
      <acc value="0.1211401009" flag="0"/>
      <vel value="0.0238710764" flag="0"/>
      <psa03 value="0.0984357588" flag="0"/>
      <psa10 value="0.0069143640" flag="0"/>
      <psa30 value="0.0005988904" flag="0"/>
    </comp>
  </station>
  <station code="PTL" name="PTL" netid="HL" insttype="120" lat="38.0473" lon="23.8638">
    <comp name="--.HHN">
      <acc value="0.0000130330" flag="0"/>
      <vel value="-100.0000000000" flag="0"/>
      <psa03 value="0.0000005648" flag="0"/>
      <psa10 value="0.0000005989" flag="0"/>
      <psa30 value="0.0000007656" flag="0"/>
    </comp>
    <comp name="--.HHE">
      <acc value="0.2637643461" flag="0"/>
      <vel value="0.0515686127" flag="0"/>
      <psa03 value="0.2725951437" flag="0"/>
      <psa10 value="0.0140836171" flag="0"/>
      <psa30 value="0.0010522799" flag="0"/>
    </comp>
    <comp name="--.HHZ">
      <acc value="0.2652273216" flag="0"/>
      <vel value="0.0342692087" flag="0"/>
      <psa03 value="0.1672961424" flag="0"/>
      <psa10 value="0.0205316030" flag="0"/>
      <psa30 value="0.0029906024" flag="0"/>
    </comp>
  </station>
  <station code="SKY" name="SKY" netid="HL" insttype="120" lat="38.8831" lon="24.5482">
    <comp name="--.HHE">
      <acc value="0.0000094294" flag="0"/>
      <vel value="0.0000099179" flag="0"/>
      <psa03 value="0.0000137774" flag="0"/>
      <psa10 value="0.0000105811" flag="0"/>
      <psa30 value="0.0000081504" flag="0"/>
    </comp>
    <comp name="--.HHN">
      <acc value="0.0305785599" flag="0"/>
      <vel value="0.0092530896" flag="0"/>
      <psa03 value="0.0419113831" flag="0"/>
      <psa10 value="0.0055440075" flag="0"/>
      <psa30 value="0.0003104870" flag="0"/>
    </comp>
    <comp name="--.HHZ">
      <acc value="0.0235695649" flag="0"/>
      <vel value="0.0048857349" flag="0"/>
      <psa03 value="0.0193086793" flag="0"/>
      <psa10 value="0.0031300584" flag="0"/>
      <psa30 value="0.0002806948" flag="0"/>
    </comp>
  </station>
  <station code="THI2" name="THI2" netid="HL" insttype="LE3D20_SMART24" lat="38.3727" lon="23.211">
    <comp name="--.HHN">
      <acc value="0.2139638966" flag="0"/>
      <vel value="0.0529150565" flag="0"/>
      <psa03 value="0.0982118412" flag="0"/>
      <psa10 value="0.0150692458" flag="0"/>
      <psa30 value="0.0008277954" flag="0"/>
    </comp>
    <comp name="--.HHE">
      <acc value="0.1474690908" flag="0"/>
      <vel value="0.0332223042" flag="0"/>
      <psa03 value="0.1162549590" flag="0"/>
      <psa10 value="0.0133735922" flag="0"/>
      <psa30 value="0.0008085001" flag="0"/>
    </comp>
    <comp name="--.HHZ">
      <acc value="0.1357152038" flag="0"/>
      <vel value="0.0294031384" flag="0"/>
      <psa03 value="0.0893759629" flag="0"/>
      <psa10 value="0.0080898887" flag="0"/>
      <psa30 value="0.0006661425" flag="0"/>
    </comp>
  </station>
  <station code="THVA" name="THVA" netid="HL" insttype="LE3D20_SMART24" lat="38.3298" lon="23.336">
    <comp name="--.HHE">
      <acc value="0.1763794399" flag="0"/>
      <vel value="0.0552855699" flag="0"/>
      <psa03 value="0.2389851244" flag="0"/>
      <psa10 value="0.0198795616" flag="0"/>
      <psa30 value="0.0012884091" flag="0"/>
    </comp>
    <comp name="--.HHZ">
      <acc value="0.1803304227" flag="0"/>
