<stationlist created="1778069857">
	<station code="SFL1" name="SFL1" netid="HI" source="ITSAK Strong Motion Network" insttype="" lat="41.189954" lon="26.304374">
		<comp name="--.HNE" depth="0.0">
			<acc value="0.0100892654693635" flag="0"/>
			<vel value="0.00667150998911647" flag="0"/>
			<psa03 value="0.040178501543208" flag="0"/>
			<psa10 value="0.00550866047884162" flag="0"/>
			<psa30 value="0.000943613137579351" flag="0"/>
		</comp>
		<comp name="--.HNN" depth="0.0">
			<acc value="0.00975911072767697" flag="0"/>
			<vel value="0.00554440395971795" flag="0"/>
			<psa03 value="0.0329750062776663" flag="0"/>
			<psa10 value="0.00366438672203646" flag="0"/>
			<psa30 value="0.00107605006916944" flag="0"/>
		</comp>
		<comp name="--.HNZ" depth="0.0">
			<acc value="0.00704909971971852" flag="0"/>
			<vel value="0.00277753635742383" flag="0"/>
			<psa03 value="0.0111408094479497" flag="0"/>
			<psa10 value="0.00161877303544907" flag="0"/>
			<psa30 value="0.000585675484633177" flag="0"/>
		</comp>
	</station>
	<station code="BOTS" name="BOTS" netid="KO" source="Bogazici University Kandilli Observatory And Earthquake Research Institute (KOERI)" insttype="" lat="40.9902" lon="27.981">
		<comp name="--.HNE" depth="0.0">
			<acc value="0.0904269551550848" flag="0"/>
			<vel value="0.0438691486377419" flag="0"/>
			<psa03 value="0.138566613896788" flag="0"/>
			<psa10 value="0.0381861310824964" flag="0"/>
			<psa30 value="0.00364425272905823" flag="0"/>
		</comp>
		<comp name="--.HNN" depth="0.0">
			<acc value="0.0959375374187998" flag="0"/>
			<vel value="0.0439230597865869" flag="0"/>
			<psa03 value="0.286350122356939" flag="0"/>
			<psa10 value="0.024849374133722" flag="0"/>
			<psa30 value="0.00318967190981659" flag="0"/>
		</comp>
		<comp name="--.HNZ" depth="0.0">
			<acc value="0.0591177976901257" flag="0"/>
			<vel value="0.0125247030285868" flag="0"/>
			<psa03 value="0.0641603242906017" flag="0"/>
			<psa10 value="0.00936633353346901" flag="0"/>
			<psa30 value="0.00153868448560237" flag="0"/>
		</comp>
	</station>
	<station code="BRGA" name="BRGA" netid="KO" source="Bogazici University Kandilli Observatory And Earthquake Research Institute (KOERI)" insttype="" lat="40.8846" lon="29.065">
		<comp name="--.HNE" depth="0.0">
			<acc value="0.202271920273777" flag="0"/>
			<vel value="0.0521591086630998" flag="0"/>
			<psa03 value="0.248050793491699" flag="0"/>
			<psa10 value="0.0240923359977408" flag="0"/>
			<psa30 value="0.00152570924568307" flag="0"/>
		</comp>
		<comp name="--.HNN" depth="0.0">
			<acc value="0.265368920014395" flag="0"/>
			<vel value="0.0735647235901997" flag="0"/>
			<psa03 value="0.350510446647541" flag="0"/>
			<psa10 value="0.0261460032815195" flag="0"/>
			<psa30 value="0.00248140277904935" flag="0"/>
		</comp>
		<comp name="--.HNZ" depth="0.0">
			<acc value="0.116045853501824" flag="0"/>
			<vel value="0.0345928761763732" flag="0"/>
			<psa03 value="0.184382633473898" flag="0"/>
			<psa10 value="0.0160387388064519" flag="0"/>
			<psa30 value="0.00084786481541625" flag="0"/>
		</comp>
	</station>
	<station code="CANM" name="CANM" netid="KO" source="Bogazici University Kandilli Observatory And Earthquake Research Institute (KOERI)" insttype="" lat="40.0113" lon="27.0529">
		<comp name="--.HNE" depth="0.0">
			<acc value="0.0621858621390626" flag="0"/>
			<vel value="0.0232785284659246" flag="0"/>
			<psa03 value="0.101609551230095" flag="0"/>
			<psa10 value="0.0156723001342482" flag="0"/>
			<psa30 value="0.00220802789661171" flag="0"/>
		</comp>
		<comp name="--.HNN" depth="0.0">
			<acc value="0.060779469027131" flag="0"/>
			<vel value="0.0245113123317181" flag="0"/>
			<psa03 value="0.174986770084061" flag="0"/>
			<psa10 value="0.0154065314269357" flag="0"/>
			<psa30 value="0.0018612757953201" flag="0"/>
		</comp>
		<comp name="--.HNZ" depth="0.0">
			<acc value="0.0545335069918058" flag="0"/>
			<vel value="0.0177111963017236" flag="0"/>
			<psa03 value="0.119148496224458" flag="0"/>
			<psa10 value="0.0115287243793301" flag="0"/>
			<psa30 value="0.00292479804663642" flag="0"/>
		</comp>
	</station>
	<station code="GONE" name="GONE" netid="KO" source="Bogazici University Kandilli Observatory And Earthquake Research Institute (KOERI)" insttype="" lat="40.0466" lon="27.686">
		<comp name="--.HNE" depth="0.0">
			<acc value="0.0337803646671322" flag="0"/>
			<vel value="0.0214036317084008" flag="0"/>
			<psa03 value="0.0639366132575103" flag="0"/>
			<psa10 value="0.0345579855478207" flag="0"/>
			<psa30 value="0.00257401914674917" flag="0"/>
		</comp>
		<comp name="--.HNN" depth="0.0">
			<acc value="0.0515692442974216" flag="0"/>
			<vel value="0.0272100452095954" flag="0"/>
			<psa03 value="0.104517794660283" flag="0"/>
			<psa10 value="0.0204521100672782" flag="0"/>
			<psa30 value="0.00284023527612789" flag="0"/>
		</comp>
		<comp name="--.HNZ" depth="0.0">
			<acc value="0.0278220635637242" flag="0"/>
			<vel value="0.012959803391816" flag="0"/>
			<psa03 value="0.0354358276416712" flag="0"/>
			<psa10 value="0.0147864044432064" flag="0"/>
			<psa30 value="0.00130110336845934" flag="0"/>
		</comp>
	</station>
	<station code="GORD" name="GORD" netid="KO" source="Bogazici University Kandilli Observatory And Earthquake Research Institute (KOERI)" insttype="" lat="38.9088" lon="28.1769">
		<comp name="--.HNE" depth="0.0">
			<acc value="0.00643846277955295" flag="0"/>
			<vel value="0.0078420089588491" flag="0"/>
			<psa03 value="0.015972967762723" flag="0"/>
			<psa10 value="0.014021312710034" flag="0"/>
			<psa30 value="0.00281607448455402" flag="0"/>
		</comp>
		<comp name="--.HNN" depth="0.0">
			<acc value="0.00681493105913419" flag="0"/>
			<vel value="0.00757589291380733" flag="0"/>
			<psa03 value="0.0125278178531161" flag="0"/>
			<psa10 value="0.0128011927355537" flag="0"/>
			<psa30 value="0.0016075874837945" flag="0"/>
		</comp>
		<comp name="--.HNZ" depth="0.0">
			<acc value="0.00555738263777276" flag="0"/>
			<vel value="0.00699717506509452" flag="0"/>
			<psa03 value="0.0137358574318094" flag="0"/>
			<psa10 value="0.00851265223119238" flag="0"/>
			<psa30 value="0.000849654503680981" flag="0"/>
		</comp>
	</station>
	<station code="HVHR" name="HVHR" netid="KO" source="Bogazici University Kandilli Observatory And Earthquake Research Institute (KOERI)" insttype="" lat="40.9699" lon="28.8445">
		<comp name="--.HNE" depth="0.0">
			<acc value="0.476387812577141" flag="0"/>
			<vel value="0.276717458428417" flag="0"/>
			<psa03 value="1.16182087925666" flag="0"/>
			<psa10 value="0.136999741821016" flag="0"/>
			<psa30 value="0.00891577951282301" flag="0"/>
		</comp>
		<comp name="--.HNN" depth="0.0">
			<acc value="0.816958611092127" flag="0"/>
			<vel value="0.273385489870887" flag="0"/>
			<psa03 value="1.64481299970091" flag="0"/>
			<psa10 value="0.127291130406917" flag="0"/>
			<psa30 value="0.0110562466774411" flag="0"/>
		</comp>
		<comp name="--.HNZ" depth="0.0">
			<acc value="0.68017700700563" flag="0"/>
			<vel value="0.243421726624055" flag="0"/>
			<psa03 value="1.43170586957808" flag="0"/>
			<psa10 value="0.0793239055356002" flag="0"/>
			<psa30 value="0.00457802258118156" flag="0"/>
		</comp>
	</station>
	<station code="HYBA" name="HYBA" netid="KO" source="Bogazici University Kandilli Observatory And Earthquake Research Institute (KOERI)" insttype="" lat="40.8748" lon="29.0861">
		<comp name="--.HNE" depth="0.0">
			<acc value="0.0771129632797646" flag="0"/>
			<vel value="0.0284270539952237" flag="0"/>
			<psa03 value="0.157045145230134" flag="0"/>
			<psa10 value="0.0160669263966214" flag="0"/>
			<psa30 value="0.000831310198967489" flag="0"/>
		</comp>
		<comp name="--.HNN" depth="0.0">
			<acc value="0.0873279052742177" flag="0"/>
			<vel value="0.0407791759615708" flag="0"/>
			<psa03 value="0.193465301417407" flag="0"/>
			<psa10 value="0.0281352417877678" flag="0"/>
			<psa30 value="0.00192973137144606" flag="0"/>
		</comp>
		<comp name="--.HNZ" depth="0.0">
			<acc value="0.080686515392653" flag="0"/>
			<vel value="0.0272627326451691" flag="0"/>
			<psa03 value="0.109215726355201" flag="0"/>
			<psa10 value="0.0112065804916785" flag="0"/>
			<psa30 value="0.000651893950428219" flag="0"/>
		</comp>
	</station>
	<station code="IZI" name="IZI" netid="KO" source="Bogazici University Kandilli Observatory And Earthquake Research Institute (KOERI)" insttype="" lat="40.3483" lon="29.4612">
		<comp name="--.HNE" depth="0.0">
			<acc value="0.120827076939022" flag="0"/>
			<vel value="0.0606985533453564" flag="0"/>
			<psa03 value="0.250377388235849" flag="0"/>
			<psa10 value="0.052336301347591" flag="0"/>
			<psa30 value="0.00486795208006797" flag="0"/>
		</comp>
		<comp name="--.HNN" depth="0.0">
			<acc value="0.172668241071936" flag="0"/>
			<vel value="0.0597390118099659" flag="0"/>
			<psa03 value="0.335745518463511" flag="0"/>
			<psa10 value="0.0362935357425435" flag="0"/>
			<psa30 value="0.00469345747425671" flag="0"/>
		</comp>
		<comp name="--.HNZ" depth="0.0">
			<acc value="0.114204540826657" flag="0"/>
			<vel value="0.0405970873909766" flag="0"/>
			<psa03 value="0.186843454837903" flag="0"/>
			<psa10 value="0.0291057002493181" flag="0"/>
			<psa30 value="0.00345812514952622" flag="0"/>
		</comp>
	</station>
	<station code="KAVV" name="KAVV" netid="KO" source="Bogazici University Kandilli Observatory And Earthquake Research Institute (KOERI)" insttype="" lat="41.0638" lon="29.06">
		<comp name="--.HNE" depth="0.0">
			<acc value="0.998412145376812" flag="0"/>
			<vel value="0.242138792369795" flag="0"/>
			<psa03 value="0.98714730461893" flag="0"/>
			<psa10 value="0.0518047639329659" flag="0"/>
			<psa30 value="0.00498920346000348" flag="0"/>
		</comp>
		<comp name="--.HNN" depth="0.0">
			<acc value="1.13044624143814" flag="0"/>
			<vel value="0.350242219895194" flag="0"/>
			<psa03 value="2.59231870925605" flag="0"/>
			<psa10 value="0.10850208815964" flag="0"/>
			<psa30 value="0.0109130716162627" flag="0"/>
		</comp>
		<comp name="--.HNZ" depth="0.0">
			<acc value="0.736492853104262" flag="0"/>
			<vel value="0.181554691188927" flag="0"/>
			<psa03 value="0.851041512086147" flag="0"/>
			<psa10 value="0.06014023702595" flag="0"/>
			<psa30 value="0.00498114986281219" flag="0"/>
		</comp>
	</station>
	<station code="LAFA" name="LAFA" netid="KO" source="Bogazici University Kandilli Observatory And Earthquake Research Institute (KOERI)" insttype="" lat="40.7598" lon="29.3554">
		<comp name="--.HNE" depth="0.0">
			<acc value="0.214988541975177" flag="0"/>
			<vel value="0.0551946199912869" flag="0"/>
			<psa03 value="0.225053299289907" flag="0"/>
			<psa10 value="0.0122011997448027" flag="0"/>
			<psa30 value="0.00111945000958916" flag="0"/>
		</comp>
		<comp name="--.HNN" depth="0.0">
			<acc value="0.369247441673941" flag="0"/>
			<vel value="0.143432845044294" flag="0"/>
			<psa03 value="0.512566719018921" flag="0"/>
			<psa10 value="0.0316023153786177" flag="0"/>
			<psa30 value="0.00359995794450614" flag="0"/>
		</comp>
		<comp name="--.HNZ" depth="0.0">
			<acc value="0.102958735409643" flag="0"/>
			<vel value="0.02783399983192" flag="0"/>
			<psa03 value="0.131049923184918" flag="0"/>
			<psa10 value="0.00556906245777628" flag="0"/>
			<psa30 value="0.000667553722744614" flag="0"/>
		</comp>
	</station>
	<station code="ORLT" name="ORLT" netid="KO" source="Bogazici University Kandilli Observatory And Earthquake Research Institute (KOERI)" insttype="" lat="40.0452" lon="28.8914">
		<comp name="--.HNE" depth="0.0">
			<acc value="0.249258920161293" flag="0"/>
			<vel value="0.119892183573677" flag="0"/>
			<psa03 value="0.926655841271026" flag="0"/>
			<psa10 value="0.0682139682102171" flag="0"/>
			<psa30 value="0.00462723900846166" flag="0"/>
		</comp>
		<comp name="--.HNN" depth="0.0">
			<acc value="0.317540495124064" flag="0"/>
			<vel value="0.125859628129079" flag="0"/>
			<psa03 value="0.615831731893893" flag="0"/>
			<psa10 value="0.0803185247887244" flag="0"/>
			<psa30 value="0.00488405927445054" flag="0"/>
		</comp>
		<comp name="--.HNZ" depth="0.0">
			<acc value="0.103295227945882" flag="0"/>
			<vel value="0.0486663546487937" flag="0"/>
			<psa03 value="0.19131767549973" flag="0"/>
			<psa10 value="0.0297056932400692" flag="0"/>
			<psa30 value="0.00245768940954167" flag="0"/>
		</comp>
	</station>
	<station code="SHAP" name="SHAP" netid="KO" source="Bogazici University Kandilli Observatory And Earthquake Research Institute (KOERI)" insttype="" lat="39.0231" lon="29.222">
		<comp name="--.HNE" depth="0.0">
			<acc value="0.0298433715443354" flag="0"/>
			<vel value="0.0140634418672422" flag="0"/>
			<psa03 value="0.0961062598160477" flag="0"/>
			<psa10 value="0.015177003906984" flag="0"/>
			<psa30 value="0.0024205533780485" flag="0"/>
		</comp>
		<comp name="--.HNN" depth="0.0">
			<acc value="0.0367397194275754" flag="0"/>
			<vel value="0.011794691565529" flag="0"/>
			<psa03 value="0.0801332920533247" flag="0"/>
			<psa10 value="0.0177098602236443" flag="0"/>
			<psa30 value="0.00142593412492432" flag="0"/>
		</comp>
		<comp name="--.HNZ" depth="0.0">
			<acc value="0.0148119238851138" flag="0"/>
			<vel value="0.00626399324291586" flag="0"/>
			<psa03 value="0.0331539751041394" flag="0"/>
			<psa10 value="0.0103086044048498" flag="0"/>
			<psa30 value="0.00119014269604603" flag="0"/>
		</comp>
	</station>
	<station code="SINB" name="SINB" netid="KO" source="Bogazici University Kandilli Observatory And Earthquake Research Institute (KOERI)" insttype="" lat="40.9998" lon="28.5392">
		<comp name="--.HNE" depth="0.0">
			<acc value="0.691413267527936" flag="0"/>
			<vel value="0.291412030102615" flag="0"/>
			<psa03 value="1.46320438303734" flag="0"/>
			<psa10 value="0.0979921438250079" flag="0"/>
			<psa30 value="0.00732922086613909" flag="0"/>
		</comp>
		<comp name="--.HNN" depth="0.0">
			<acc value="0.40064775193742" flag="0"/>
			<vel value="0.131403514906314" flag="0"/>
			<psa03 value="0.637173764450808" flag="0"/>
			<psa10 value="0.0914928908916377" flag="0"/>
			<psa30 value="0.00652788794560585" flag="0"/>
		</comp>
		<comp name="--.HNZ" depth="0.0">
			<acc value="0.276464228902457" flag="0"/>
			<vel value="0.082403774623392" flag="0"/>
			<psa03 value="0.452298966704109" flag="0"/>
			<psa10 value="0.0241607915738667" flag="0"/>
			<psa30 value="0.00315566783278671" flag="0"/>
		</comp>
	</station>
	<station code="SOMA" name="SOMA" netid="KO" source="Bogazici University Kandilli Observatory And Earthquake Research Institute (KOERI)" insttype="" lat="39.1564" lon="27.5341">
		<comp name="--.HNE" depth="0.0">
			<acc value="0.0116080144403219" flag="0"/>
			<vel value="0.0116561211732123" flag="0"/>
			<psa03 value="0.0315432556658816" flag="0"/>
			<psa10 value="0.0282318849540633" flag="0"/>
			<psa30 value="0.00243979252689436" flag="0"/>
		</comp>
		<comp name="--.HNN" depth="0.0">
			<acc value="0.0179560172073658" flag="0"/>
			<vel value="0.0149963623084819" flag="0"/>
			<psa03 value="0.0418339631880841" flag="0"/>
			<psa10 value="0.0320694240157125" flag="0"/>
			<psa30 value="0.00301920410260098" flag="0"/>
		</comp>
		<comp name="--.HNZ" depth="0.0">
			<acc value="0.0102112335660892" flag="0"/>
			<vel value="0.00949102156284321" flag="0"/>
			<psa03 value="0.0272480038305275" flag="0"/>
			<psa10 value="0.0226668492948827" flag="0"/>
			<psa30 value="0.00221652891586918" flag="0"/>
		</comp>
	</station>
	<station code="SUSR" name="SUSR" netid="KO" source="Bogazici University Kandilli Observatory And Earthquake Research Institute (KOERI)" insttype="" lat="39.9627" lon="28.0835">
		<comp name="--.HNE" depth="0.0">
			<acc value="0.0936452203018476" flag="0"/>
			<vel value="0.0779872224381574" flag="0"/>
			<psa03 value="0.14263815469905" flag="0"/>
			<psa10 value="0.056866449767691" flag="0"/>
			<psa30 value="0.00446035057777551" flag="0"/>
		</comp>
		<comp name="--.HNN" depth="0.0">
			<acc value="0.107239356253024" flag="0"/>
			<vel value="0.0467633224549011" flag="0"/>
			<psa03 value="0.252122334293961" flag="0"/>
			<psa10 value="0.0397686629305847" flag="0"/>
			<psa30 value="0.00191004480053402" flag="0"/>
		</comp>
		<comp name="--.HNZ" depth="0.0">
			<acc value="0.0874475559795155" flag="0"/>
			<vel value="0.0432438056499581" flag="0"/>
			<psa03 value="0.138566613896788" flag="0"/>
			<psa10 value="0.0224655093651004" flag="0"/>
			<psa30 value="0.00226977214174493" flag="0"/>
		</comp>
	</station>
	<station code="TKR" name="TKR" netid="KO" source="Bogazici University Kandilli Observatory And Earthquake Research Institute (KOERI)" insttype="" lat="40.9893" lon="27.5351">
		<comp name="--.HNE" depth="0.0">
			<acc value="0.16949949538454" flag="0"/>
			<vel value="0.0550351025107994" flag="0"/>
			<psa03 value="0.282949714653951" flag="0"/>
			<psa10 value="0.0311714479288837" flag="0"/>
			<psa30 value="0.00617576677952005" flag="0"/>
		</comp>
		<comp name="--.HNN" depth="0.0">
			<acc value="0.170214664625902" flag="0"/>
			<vel value="0.0582451754643045" flag="0"/>
			<psa03 value="0.253330373872655" flag="0"/>
			<psa10 value="0.0270037113823917" flag="0"/>
			<psa30 value="0.00900839588052283" flag="0"/>
		</comp>
		<comp name="--.HNZ" depth="0.0">
			<acc value="0.0927289682950199" flag="0"/>
			<vel value="0.0200346488120912" flag="0"/>
			<psa03 value="0.105502123205885" flag="0"/>
			<psa10 value="0.0128253535271276" flag="0"/>
			<psa30 value="0.00499099314826821" flag="0"/>
		</comp>
	</station>
	<station code="TUZL" name="TUZL" netid="KO" source="Bogazici University Kandilli Observatory And Earthquake Research Institute (KOERI)" insttype="" lat="40.8128" lon="29.2657">
		<comp name="--.HNE" depth="0.0">
			<acc value="0.269955503554536" flag="0"/>
			<vel value="0.0848720733498556" flag="0"/>
			<psa03 value="0.299101651243147" flag="0"/>
			<psa10 value="0.014270974222964" flag="0"/>
			<psa30 value="0.00178655631026759" flag="0"/>
		</comp>
		<comp name="--.HNN" depth="0.0">
			<acc value="0.338506308017781" flag="0"/>
			<vel value="0.103594626492458" flag="0"/>
			<psa03 value="0.359324661351341" flag="0"/>
			<psa10 value="0.0252037324101387" flag="0"/>
			<psa30 value="0.00204561368658738" flag="0"/>
		</comp>
		<comp name="--.HNZ" depth="0.0">
			<acc value="0.082342186780833" flag="0"/>
			<vel value="0.0184712221412427" flag="0"/>
			<psa03 value="0.11158706330597" flag="0"/>
			<psa10 value="0.00962002184499461" flag="0"/>
			<psa30 value="0.000476057078418411" flag="0"/>
		</comp>
	</station>
	<station code="YKBL" name="YKBL" netid="KO" source="Bogazici University Kandilli Observatory And Earthquake Research Institute (KOERI)" insttype="" lat="40.9908" lon="28.6678">
		<comp name="--.HNE" depth="0.0">
			<acc value="0.355481357978291" flag="0"/>
			<vel value="0.146917847284387" flag="0"/>
			<psa03 value="0.800706529640591" flag="0"/>
			<psa10 value="0.0966955146772104" flag="0"/>
			<psa30 value="0.00599008662205422" flag="0"/>
		</comp>
		<comp name="--.HNN" depth="0.0">
			<acc value="0.323109837402295" flag="0"/>
			<vel value="0.131695708845265" flag="0"/>
			<psa03 value="0.621871929787359" flag="0"/>
			<psa10 value="0.0758044835630069" flag="0"/>
			<psa30 value="0.00817529599329061" flag="0"/>
		</comp>
		<comp name="--.HNZ" depth="0.0">
			<acc value="0.25478729116606" flag="0"/>
			<vel value="0.066134659119902" flag="0"/>
			<psa03 value="0.348004883076918" flag="0"/>
			<psa10 value="0.0255701710823423" flag="0"/>
			<psa30 value="0.00351584259606379" flag="0"/>
		</comp>
	</station>
	<station code="YLVH" name="YLVH" netid="KO" source="Bogazici University Kandilli Observatory And Earthquake Research Institute (KOERI)" insttype="" lat="40.6953" lon="29.3703">
		<comp name="--.HNE" depth="0.0">
			<acc value="0.713269441660232" flag="0"/>
			<vel value="0.349420354967447" flag="0"/>
			<psa03 value="2.40954679522041" flag="0"/>
			<psa10 value="0.455797359839592" flag="0"/>
			<psa30 value="0.033784840217457" flag="0"/>
