<?xml version="1.0" encoding="UTF-8" standalone="yes"?>
<!DOCTYPE earthquake SYSTEM "stationlist.dtd">
<stationlist created="" xmlns="ch.ethz.sed.shakemap.usgs.xml">
  <station code="ARMT" name="ARMT" netid="KO" insttype="120s," lat="40.5683" lon="28.866">
    <comp name="--.HHE">
      <acc value="0.0830175057" flag="0"/>
      <vel value="0.0187668605" flag="0"/>
      <psa03 value="0.1473234294" flag="0"/>
      <psa10 value="0.0115451838" flag="0"/>
      <psa30 value="0.0009494551" flag="0"/>
    </comp>
    <comp name="--.HHZ">
      <acc value="0.0378034617" flag="0"/>
      <vel value="0.0102992995" flag="0"/>
      <psa03 value="0.0397212989" flag="0"/>
      <psa10 value="0.0049768213" flag="0"/>
      <psa30 value="0.0003881856" flag="0"/>
    </comp>
    <comp name="--.HHN">
      <acc value="0.0833365713" flag="0"/>
      <vel value="0.0294829431" flag="0"/>
      <psa03 value="0.1390490766" flag="0"/>
      <psa10 value="0.0097084798" flag="0"/>
      <psa30 value="0.0010542691" flag="0"/>
    </comp>
  </station>
  <station code="BGKT" name="BGKT" netid="KO" insttype="120s," lat="41.181" lon="28.773">
    <comp name="--.HHZ">
      <acc value="0.1336503447" flag="0"/>
      <vel value="0.0375190772" flag="0"/>
      <psa03 value="0.2150239884" flag="0"/>
      <psa10 value="0.0070548199" flag="0"/>
      <psa30 value="0.0005945970" flag="0"/>
    </comp>
    <comp name="--.HHN">
      <acc value="0.1620139018" flag="0"/>
      <vel value="0.0380966132" flag="0"/>
      <psa03 value="0.2685176699" flag="0"/>
      <psa10 value="0.0143580176" flag="0"/>
      <psa30 value="0.0011558520" flag="0"/>
    </comp>
    <comp name="--.HHE">
      <acc value="0.2183405882" flag="0"/>
      <vel value="0.0465998837" flag="0"/>
      <psa03 value="0.1604277358" flag="0"/>
      <psa10 value="0.0119499258" flag="0"/>
      <psa30 value="0.0010816954" flag="0"/>
    </comp>
  </station>
  <station code="CRLT" name="CRLT" netid="KO" insttype="30s," lat="41.129" lon="27.736">
    <comp name="--.HHE">
      <acc value="0.0214382338" flag="0"/>
      <vel value="0.0091586085" flag="0"/>
      <psa03 value="0.0717395068" flag="0"/>
      <psa10 value="0.0056469257" flag="0"/>
      <psa30 value="0.0024649307" flag="0"/>
    </comp>
    <comp name="--.HHN">
      <acc value="0.0222772289" flag="0"/>
      <vel value="0.0068248654" flag="0"/>
      <psa03 value="0.0304373839" flag="0"/>
      <psa10 value="0.0054504374" flag="0"/>
      <psa30 value="0.0032493475" flag="0"/>
    </comp>
    <comp name="--.HHZ">
      <acc value="0.0316873996" flag="0"/>
      <vel value="0.0074319418" flag="0"/>
      <psa03 value="0.0369615943" flag="0"/>
      <psa10 value="0.0051002404" flag="0"/>
      <psa30 value="0.0028200530" flag="0"/>
    </comp>
  </station>
  <station code="CTKS" name="CTKS" netid="KO" insttype="30s," lat="41.2373" lon="28.5072">
    <comp name="--.HHZ">
      <acc value="0.0000360684" flag="0"/>
      <vel value="0.0000038705" flag="0"/>
      <psa03 value="0.0000091814" flag="0"/>
      <psa10 value="0.0000044445" flag="0"/>
      <psa30 value="0.0000009770" flag="0"/>
    </comp>
    <comp name="--.HHN">
      <acc value="0.1290554765" flag="0"/>
      <vel value="0.0248372547" flag="0"/>
      <psa03 value="0.0356854777" flag="0"/>
      <psa10 value="0.0060251505" flag="0"/>
      <psa30 value="0.0005902664" flag="0"/>
    </comp>
  </station>
  <station code="CTYL" name="CTYL" netid="KO" insttype="360s," lat="41.476" lon="28.2897">
    <comp name="--.HHE">
      <acc value="0.0934438044" flag="0"/>
      <vel value="0.0226991387" flag="0"/>
      <psa03 value="0.1260658936" flag="0"/>
      <psa10 value="0.0163663279" flag="0"/>
      <psa30 value="0.0020137223" flag="0"/>
    </comp>
    <comp name="--.HHN">
      <acc value="0.1019790108" flag="0"/>
      <vel value="0.0290308795" flag="0"/>
      <psa03 value="0.1058970857" flag="0"/>
      <psa10 value="0.0117662752" flag="0"/>
      <psa30 value="0.0007591289" flag="0"/>
    </comp>
    <comp name="--.HHZ">
      <acc value="0.0549946086" flag="0"/>
      <vel value="0.0143416546" flag="0"/>
      <psa03 value="0.0939432984" flag="0"/>
      <psa10 value="0.0059398817" flag="0"/>
      <psa30 value="0.0005037587" flag="0"/>
    </comp>
  </station>
  <station code="EDC" name="EDC" netid="KO" insttype="120s," lat="40.3465" lon="27.8618">
    <comp name="--.HHN">
      <acc value="0.0212983335" flag="0"/>
      <vel value="0.0067577551" flag="0"/>
      <psa03 value="0.0462901584" flag="0"/>
      <psa10 value="0.0030912026" flag="0"/>
      <psa30 value="0.0006172507" flag="0"/>
    </comp>
    <comp name="--.HHE">
      <acc value="0.0237434989" flag="0"/>
      <vel value="0.0060058833" flag="0"/>
      <psa03 value="0.0358285538" flag="0"/>
      <psa10 value="0.0053453584" flag="0"/>
      <psa30 value="0.0007153160" flag="0"/>
    </comp>
    <comp name="--.HHZ">
      <acc value="0.0156877663" flag="0"/>
      <vel value="0.0034951440" flag="0"/>
      <psa03 value="0.0195198383" flag="0"/>
      <psa10 value="0.0017882238" flag="0"/>
      <psa30 value="0.0004024708" flag="0"/>
    </comp>
  </station>
  <station code="GEML" name="GEML" netid="KO" insttype="120s," lat="40.4646" lon="29.2116">
    <comp name="--.HHE">
      <acc value="0.1316992383" flag="0"/>
      <vel value="0.0321528732" flag="0"/>
      <psa03 value="0.2324939484" flag="0"/>
      <psa10 value="0.0135524494" flag="0"/>
      <psa30 value="0.0008078859" flag="0"/>
    </comp>
    <comp name="--.HHN">
      <acc value="0.1411569827" flag="0"/>
      <vel value="0.0434195298" flag="0"/>
      <psa03 value="0.2218730083" flag="0"/>
      <psa10 value="0.0182726233" flag="0"/>
      <psa30 value="0.0010750277" flag="0"/>
    </comp>
    <comp name="--.HHZ">
      <acc value="0.1092260866" flag="0"/>
      <vel value="0.0255191695" flag="0"/>
      <psa03 value="0.0843944179" flag="0"/>
      <psa10 value="0.0091650569" flag="0"/>
      <psa30 value="0.0007804657" flag="0"/>
    </comp>
  </station>
  <station code="GONE" name="GONE" netid="KO" insttype="100" lat="40.0466" lon="27.686">
    <comp name="--.HNE">
      <acc value="0.0335585923" flag="0"/>
      <vel value="0.0218516413" flag="0"/>
      <psa03 value="0.0646485354" flag="0"/>
      <psa10 value="0.0344911628" flag="0"/>
      <psa30 value="0.0024255514" flag="0"/>
    </comp>
    <comp name="--.HNN">
      <acc value="0.0514679331" flag="0"/>
      <vel value="0.0269460565" flag="0"/>
      <psa03 value="0.1051576637" flag="0"/>
      <psa10 value="0.0204222080" flag="0"/>
      <psa30 value="0.0027401234" flag="0"/>
    </comp>
    <comp name="--.HNZ">
      <acc value="0.0276943829" flag="0"/>
      <vel value="0.0128611985" flag="0"/>
      <psa03 value="0.0348631510" flag="0"/>
      <psa10 value="0.0147257454" flag="0"/>
      <psa30 value="0.0012020020" flag="0"/>
    </comp>
  </station>
  <station code="ISK" name="ISK" netid="KO" insttype="120s," lat="41.0657" lon="29.0592">
    <comp name="--.HHE">
      <acc value="0.2327984637" flag="0"/>
      <vel value="0.0404532142" flag="0"/>
      <psa03 value="0.0967211655" flag="0"/>
      <psa10 value="0.0067569592" flag="0"/>
      <psa30 value="0.0006849216" flag="0"/>
    </comp>
    <comp name="--.HHN">
      <acc value="0.1811399902" flag="0"/>
      <vel value="0.0554827382" flag="0"/>
      <psa03 value="0.1961428248" flag="0"/>
      <psa10 value="0.0195971247" flag="0"/>
      <psa30 value="0.0013644401" flag="0"/>
    </comp>
    <comp name="--.HHZ">
      <acc value="0.1033127813" flag="0"/>
      <vel value="0.0304369286" flag="0"/>
      <psa03 value="0.1427910087" flag="0"/>
      <psa10 value="0.0126375202" flag="0"/>
      <psa30 value="0.0010550509" flag="0"/>
    </comp>
  </station>
  <station code="IZI" name="IZI" netid="KO" insttype="100" lat="40.3368" lon="29.4728">
    <comp name="--.HNN">
      <acc value="0.1733389300" flag="0"/>
      <vel value="0.0594398484" flag="0"/>
      <psa03 value="0.3345955572" flag="0"/>
      <psa10 value="0.0362712809" flag="0"/>
      <psa30 value="0.0045498142" flag="0"/>
    </comp>
    <comp name="--.HNZ">
      <acc value="0.1133969688" flag="0"/>
      <vel value="0.0394309348" flag="0"/>
      <psa03 value="0.1853067292" flag="0"/>
      <psa10 value="0.0290852238" flag="0"/>
      <psa30 value="0.0031745664" flag="0"/>
    </comp>
    <comp name="--.HNE">
      <acc value="0.1212512267" flag="0"/>
      <vel value="0.0595286880" flag="0"/>
      <psa03 value="0.2466150896" flag="0"/>
      <psa10 value="0.0522983510" flag="0"/>
      <psa30 value="0.0045875473" flag="0"/>
    </comp>
  </station>
  <station code="KAVV" name="KAVV" netid="KO" insttype="100" lat="41.0628" lon="29.0608">
    <comp name="--.HNZ">
      <acc value="0.7465082709" flag="0"/>
      <vel value="0.1779775722" flag="0"/>
      <psa03 value="0.8294956951" flag="0"/>
      <psa10 value="0.0602425410" flag="0"/>
      <psa30 value="0.0044273833" flag="0"/>
    </comp>
    <comp name="--.HNE">
      <acc value="1.0054705165" flag="0"/>
      <vel value="0.2370578316" flag="0"/>
      <psa03 value="0.9570008115" flag="0"/>
      <psa10 value="0.0513305041" flag="0"/>
      <psa30 value="0.0049414739" flag="0"/>
    </comp>
    <comp name="--.HNN">
      <acc value="1.1337790043" flag="0"/>
      <vel value="0.3455995202" flag="0"/>
      <psa03 value="2.5335612777" flag="0"/>
      <psa10 value="0.1082459341" flag="0"/>
      <psa30 value="0.0106893451" flag="0"/>
    </comp>
  </station>
  <station code="KCTX" name="KCTX" netid="KO" insttype="30s," lat="40.2627" lon="28.3353">
    <comp name="--.HHE">
      <acc value="0.0245298319" flag="0"/>
      <vel value="0.0078376487" flag="0"/>
      <psa03 value="0.0281310862" flag="0"/>
      <psa10 value="0.0087305041" flag="0"/>
      <psa30 value="0.0007487526" flag="0"/>
    </comp>
    <comp name="--.HHN">
      <acc value="0.0219682175" flag="0"/>
      <vel value="0.0062771275" flag="0"/>
      <psa03 value="0.0229900262" flag="0"/>
      <psa10 value="0.0060223964" flag="0"/>
      <psa30 value="0.0005141263" flag="0"/>
    </comp>
    <comp name="--.HHZ">
      <acc value="0.0163917055" flag="0"/>
      <vel value="0.0059023347" flag="0"/>
      <psa03 value="0.0198881728" flag="0"/>
      <psa10 value="0.0047185370" flag="0"/>
      <psa30 value="0.0003025227" flag="0"/>
    </comp>
  </station>
  <station code="KLYT" name="KLYT" netid="KO" insttype="120s," lat="41.253" lon="29.042">
    <comp name="--.HHN">
      <acc value="0.3427860686" flag="0"/>
      <vel value="0.0681698222" flag="0"/>
      <psa03 value="0.4715830699" flag="0"/>
      <psa10 value="0.0429303540" flag="0"/>
      <psa30 value="0.0020992301" flag="0"/>
    </comp>
    <comp name="--.HHZ">
      <acc value="0.1637086495" flag="0"/>
      <vel value="0.0341726371" flag="0"/>
      <psa03 value="0.1257320763" flag="0"/>
      <psa10 value="0.0106408357" flag="0"/>
      <psa30 value="0.0007846407" flag="0"/>
    </comp>
  </station>
  <station code="KRBG" name="KRBG" netid="KO" insttype="30s," lat="40.3932" lon="27.2977">
    <comp name="--.HHN">
      <acc value="0.0172720693" flag="0"/>
      <vel value="0.0049865706" flag="0"/>
      <psa03 value="0.0297702377" flag="0"/>
      <psa10 value="0.0027401892" flag="0"/>
      <psa30 value="0.0002889222" flag="0"/>
    </comp>
    <comp name="--.HHE">
      <acc value="0.0223796098" flag="0"/>
      <vel value="0.0070835051" flag="0"/>
      <psa03 value="0.0335561511" flag="0"/>
      <psa10 value="0.0059948183" flag="0"/>
      <psa30 value="0.0003562571" flag="0"/>
    </comp>
    <comp name="--.HHZ">
      <acc value="0.0144845749" flag="0"/>
      <vel value="0.0034953995" flag="0"/>
      <psa03 value="0.0167717607" flag="0"/>
      <psa10 value="0.0013582755" flag="0"/>
      <psa30 value="0.0002021743" flag="0"/>
    </comp>
  </station>
  <station code="MDNY" name="MDNY" netid="KO" insttype="30s," lat="40.371" lon="28.8847">
    <comp name="--.HHE">
      <acc value="0.1168418626" flag="0"/>
      <vel value="0.0395573261" flag="0"/>
      <psa03 value="0.2131490914" flag="0"/>
      <psa10 value="0.0117418318" flag="0"/>
      <psa30 value="0.0006760605" flag="0"/>
    </comp>
    <comp name="--.HHN">
      <acc value="0.1164287231" flag="0"/>
      <vel value="0.0369936235" flag="0"/>
      <psa03 value="0.2282879274" flag="0"/>
      <psa10 value="0.0074740707" flag="0"/>
      <psa30 value="0.0008464514" flag="0"/>
    </comp>
    <comp name="--.HHZ">
      <acc value="0.0549168749" flag="0"/>
      <vel value="0.0133818420" flag="0"/>
      <psa03 value="0.0562906226" flag="0"/>
      <psa10 value="0.0040358596" flag="0"/>
      <psa30 value="0.0004549759" flag="0"/>
    </comp>
  </station>
  <station code="MRMT" name="MRMT" netid="KO" insttype="120s," lat="40.609" lon="27.5832">
    <comp name="--.HHE">
      <acc value="0.0000119654" flag="0"/>
      <vel value="0.0000011582" flag="0"/>
      <psa03 value="0.0000044155" flag="0"/>
      <psa10 value="0.0000009375" flag="0"/>
      <psa30 value="0.0000002288" flag="0"/>
    </comp>
    <comp name="--.HHN">
      <acc value="0.0046185401" flag="0"/>
      <vel value="0.0012299009" flag="0"/>
      <psa03 value="0.0085969418" flag="0"/>
      <psa10 value="0.0007364355" flag="0"/>
      <psa30 value="0.0001775120" flag="0"/>
    </comp>
    <comp name="--.HHZ">
      <acc value="0.0000097597" flag="0"/>
      <vel value="0.0000008292" flag="0"/>
      <psa03 value="0.0000031073" flag="0"/>
      <psa10 value="0.0000006878" flag="0"/>
      <psa30 value="0.0000001510" flag="0"/>
    </comp>
  </station>
  <station code="ORLT" name="ORLT" netid="KO" insttype="100" lat="40.0452" lon="28.8914">
    <comp name="--.HNE">
      <acc value="0.2502650990" flag="0"/>
      <vel value="0.1187976839" flag="0"/>
      <psa03 value="0.9021543935" flag="0"/>
      <psa10 value="0.0680393528" flag="0"/>
      <psa30 value="0.0045070028" flag="0"/>
    </comp>
    <comp name="--.HNN">
      <acc value="0.3175755143" flag="0"/>
      <vel value="0.1250413150" flag="0"/>
      <psa03 value="0.6038535221" flag="0"/>
      <psa10 value="0.0800705119" flag="0"/>
      <psa30 value="0.0045664328" flag="0"/>
    </comp>
    <comp name="--.HNZ">
      <acc value="0.1019305686" flag="0"/>
      <vel value="0.0483839050" flag="0"/>
      <psa03 value="0.1911315131" flag="0"/>
      <psa10 value="0.0296967875" flag="0"/>
      <psa30 value="0.0022403417" flag="0"/>
    </comp>
  </station>
  <station code="PHSR" name="PHSR" netid="KO" insttype="30s," lat="41.6308" lon="27.5238">
    <comp name="--.HHE">
      <acc value="0.0126152486" flag="0"/>
      <vel value="0.0066906351" flag="0"/>
      <psa03 value="0.0152589345" flag="0"/>
      <psa10 value="0.0058238018" flag="0"/>
      <psa30 value="0.0004824305" flag="0"/>
    </comp>
    <comp name="--.HHN">
      <acc value="0.0158426659" flag="0"/>
      <vel value="0.0060886803" flag="0"/>
      <psa03 value="0.0152958512" flag="0"/>
      <psa10 value="0.0055811725" flag="0"/>
      <psa30 value="0.0005183042" flag="0"/>
    </comp>
    <comp name="--.HHZ">
      <acc value="0.0109943318" flag="0"/>
      <vel value="0.0033628809" flag="0"/>
      <psa03 value="0.0092326878" flag="0"/>
      <psa10 value="0.0025880051" flag="0"/>
      <psa30 value="0.0002257375" flag="0"/>
    </comp>
  </station>
  <station code="RKY" name="RKY" netid="KO" insttype="30s," lat="40.6875" lon="27.1777">
    <comp name="--.HHE">
      <acc value="0.0075651977" flag="0"/>
      <vel value="0.0027237277" flag="0"/>
      <psa03 value="0.0122936936" flag="0"/>
      <psa10 value="0.0030651590" flag="0"/>
      <psa30 value="0.0002911885" flag="0"/>
    </comp>
    <comp name="--.HHN">
      <acc value="0.0088031067" flag="0"/>
      <vel value="0.0031358043" flag="0"/>
      <psa03 value="0.0242124083" flag="0"/>
      <psa10 value="0.0033136372" flag="0"/>
      <psa30 value="0.0006903786" flag="0"/>
    </comp>
    <comp name="--.HHZ">
      <acc value="0.0050620263" flag="0"/>
      <vel value="0.0014712217" flag="0"/>
      <psa03 value="0.0051119604" flag="0"/>
      <psa10 value="0.0017855967" flag="0"/>
      <psa30 value="0.0002267084" flag="0"/>
    </comp>
  </station>
  <station code="SLVT" name="SLVT" netid="KO" insttype="30s," lat="41.23" lon="28.21">
    <comp name="--.HHZ">
      <acc value="0.0692575542" flag="0"/>
      <vel value="0.0176359065" flag="0"/>
      <psa03 value="0.1336462025" flag="0"/>
      <psa10 value="0.0214113117" flag="0"/>
      <psa30 value="0.0020129309" flag="0"/>
    </comp>
    <comp name="--.HHN">
      <acc value="0.0969596129" flag="0"/>
      <vel value="0.0373152850" flag="0"/>
      <psa03 value="0.2059823965" flag="0"/>
      <psa10 value="0.0511406631" flag="0"/>
      <psa30 value="0.0065951611" flag="0"/>
    </comp>
    <comp name="--.HHE">
      <acc value="0.0954832237" flag="0"/>
      <vel value="0.0375184600" flag="0"/>
      <psa03 value="0.1710691069" flag="0"/>
      <psa10 value="0.0316606131" flag="0"/>
      <psa30 value="0.0040931906" flag="0"/>
    </comp>
  </station>
  <station code="TKR" name="TKR" netid="KO" insttype="100" lat="40.9902" lon="27.5357">
    <comp name="--.HNE">
      <acc value="0.1719282005" flag="0"/>
      <vel value="0.0538518456" flag="0"/>
      <psa03 value="0.2801894171" flag="0"/>
      <psa10 value="0.0312169203" flag="0"/>
      <psa30 value="0.0053520332" flag="0"/>
    </comp>
    <comp name="--.HNN">
      <acc value="0.1692699451" flag="0"/>
      <vel value="0.0574557400" flag="0"/>
      <psa03 value="0.2527939192" flag="0"/>
      <psa10 value="0.0270479399" flag="0"/>
      <psa30 value="0.0081762560" flag="0"/>
    </comp>
    <comp name="--.HNZ">
      <acc value="0.0918338676" flag="0"/>
      <vel value="0.0206750019" flag="0"/>
      <psa03 value="0.1040432190" flag="0"/>
      <psa10 value="0.0126562111" flag="0"/>
      <psa30 value="0.0043290510" flag="0"/>
    </comp>
  </station>
  <station code="YLV" name="YLV" netid="KO" insttype="120s," lat="40.5658" lon="29.3708">
    <comp name="--.HHN">
      <acc value="0.0636329907" flag="0"/>
      <vel value="0.0204488754" flag="0"/>
      <psa03 value="0.0986336766" flag="0"/>
      <psa10 value="0.0175738021" flag="0"/>
      <psa30 value="0.0012547305" flag="0"/>
    </comp>
    <comp name="--.HHZ">
      <acc value="0.0253122958" flag="0"/>
      <vel value="0.0113786320" flag="0"/>
      <psa03 value="0.0757301704" flag="0"/>
      <psa10 value="0.0085934626" flag="0"/>
      <psa30 value="0.0005759655" flag="0"/>
    </comp>
    <comp name="--.HHE">
      <acc value="0.0444852396" flag="0"/>
      <vel value="0.0159067243" flag="0"/>
      <psa03 value="0.0831466305" flag="0"/>
      <psa10 value="0.0230907548" flag="0"/>
      <psa30 value="0.0012253605" flag="0"/>
    </comp>
  </station>
</stationlist>
