<?xml version="1.0" encoding="UTF-8" standalone="yes"?>
<!DOCTYPE earthquake SYSTEM "stationlist.dtd">
<stationlist created="" xmlns="ch.ethz.sed.shakemap.usgs.xml">
  <station code="APE" name="APE" netid="GE" insttype="STS-2/N" lat="37.0727" lon="25.523">
    <comp name="--.HHE">
      <acc value="0.1427355502" flag="0"/>
      <vel value="0.0270341613" flag="0"/>
      <psa03 value="0.0956013033" flag="0"/>
      <psa10 value="0.0100158216" flag="0"/>
      <psa30 value="0.0017418707" flag="0"/>
    </comp>
    <comp name="--.HHN">
      <acc value="0.1576238232" flag="0"/>
      <vel value="0.0349192864" flag="0"/>
      <psa03 value="0.0966567401" flag="0"/>
      <psa10 value="0.0152118992" flag="0"/>
      <psa30 value="0.0021533338" flag="0"/>
    </comp>
    <comp name="--.HHZ">
      <acc value="0.0852988964" flag="0"/>
      <vel value="0.0163478536" flag="0"/>
      <psa03 value="0.0530069446" flag="0"/>
      <psa10 value="0.0108416334" flag="0"/>
      <psa30 value="0.0022575294" flag="0"/>
    </comp>
  </station>
  <station code="THERA" name="THERA" netid="GE" insttype="STS-2/N" lat="36.367" lon="25.4753">
    <comp name="--.HHZ">
      <acc value="0.1042551624" flag="0"/>
      <vel value="0.0191049935" flag="0"/>
      <psa03 value="0.0610777841" flag="0"/>
      <psa10 value="0.0043679130" flag="0"/>
      <psa30 value="0.0007406090" flag="0"/>
    </comp>
    <comp name="--.HHN">
      <acc value="0.0653981927" flag="0"/>
      <vel value="0.0146022495" flag="0"/>
      <psa03 value="0.0620916080" flag="0"/>
      <psa10 value="0.0028910387" flag="0"/>
      <psa30 value="0.0004833622" flag="0"/>
    </comp>
    <comp name="--.HHE">
      <acc value="0.1001238800" flag="0"/>
      <vel value="0.0216666618" flag="0"/>
      <psa03 value="0.0732691841" flag="0"/>
      <psa10 value="0.0051905165" flag="0"/>
      <psa30 value="0.0013316011" flag="0"/>
    </comp>
  </station>
  <station code="SNT1" name="SNT1" netid="HA" insttype="30" lat="36.4159" lon="25.4282">
    <comp name="--.HHE">
      <acc value="0.0723097094" flag="0"/>
      <vel value="0.0128806548" flag="0"/>
      <psa03 value="0.0591294365" flag="0"/>
      <psa10 value="0.0126099885" flag="0"/>
      <psa30 value="0.0021682540" flag="0"/>
    </comp>
    <comp name="--.HHN">
      <acc value="0.0647738860" flag="0"/>
      <vel value="0.0113519805" flag="0"/>
      <psa03 value="0.0483431903" flag="0"/>
      <psa10 value="0.0195701662" flag="0"/>
      <psa30 value="0.0018172977" flag="0"/>
    </comp>
    <comp name="--.HHZ">
      <acc value="0.0615133264" flag="0"/>
      <vel value="0.0103227808" flag="0"/>
      <psa03 value="0.0559479789" flag="0"/>
      <psa10 value="0.0091068875" flag="0"/>
      <psa30 value="0.0008554361" flag="0"/>
    </comp>
  </station>
  <station code="APE" name="APE" netid="HL" insttype="120" lat="37.0727" lon="25.523">
    <comp name="--.HHE">
      <acc value="0.1229732813" flag="0"/>
      <vel value="0.0263004353" flag="0"/>
      <psa03 value="0.0925221576" flag="0"/>
      <psa10 value="0.0098816292" flag="0"/>
      <psa30 value="0.0017345269" flag="0"/>
    </comp>
    <comp name="--.HHN">
      <acc value="0.1349443625" flag="0"/>
      <vel value="0.0330602392" flag="0"/>
      <psa03 value="0.0945405226" flag="0"/>
      <psa10 value="0.0149864661" flag="0"/>
      <psa30 value="0.0021466819" flag="0"/>
    </comp>
    <comp name="--.HHZ">
      <acc value="0.0803033700" flag="0"/>
      <vel value="0.0159379389" flag="0"/>
      <psa03 value="0.0517012172" flag="0"/>
      <psa10 value="0.0107505973" flag="0"/>
      <psa30 value="0.0022498930" flag="0"/>
    </comp>
  </station>
  <station code="MHLO" name="MHLO" netid="HL" insttype="20" lat="36.6898" lon="24.4017">
    <comp name="--.HHE">
      <acc value="0.0833478146" flag="0"/>
      <vel value="0.0259870852" flag="0"/>
      <psa03 value="0.1699510228" flag="0"/>
      <psa10 value="0.0265435475" flag="0"/>
      <psa30 value="0.0021602495" flag="0"/>
    </comp>
    <comp name="--.HHZ">
      <acc value="0.0248717265" flag="0"/>
      <vel value="0.0117810945" flag="0"/>
      <psa03 value="0.0750314281" flag="0"/>
      <psa10 value="0.0211139056" flag="0"/>
      <psa30 value="0.0014746762" flag="0"/>
    </comp>
    <comp name="--.HHN">
      <acc value="0.0548591632" flag="0"/>
      <vel value="0.0202479603" flag="0"/>
      <psa03 value="0.1321334508" flag="0"/>
      <psa10 value="0.0238979910" flag="0"/>
      <psa30 value="0.0015760796" flag="0"/>
    </comp>
  </station>
  <station code="SAP3" name="SAP3" netid="HL" insttype="LE3D20_SMART24" lat="36.4356" lon="25.3454">
    <comp name="--.HHE">
      <acc value="0.2200637498" flag="0"/>
      <vel value="0.0546906817" flag="0"/>
      <psa03 value="0.2449786365" flag="0"/>
      <psa10 value="0.0535882849" flag="0"/>
      <psa30 value="0.0095886348" flag="0"/>
    </comp>
    <comp name="--.HHN">
      <acc value="0.2149280004" flag="0"/>
      <vel value="0.0528013683" flag="0"/>
      <psa03 value="0.2119502203" flag="0"/>
      <psa10 value="0.0336072433" flag="0"/>
      <psa30 value="0.0065410310" flag="0"/>
    </comp>
    <comp name="--.HHZ">
      <acc value="0.3186652134" flag="0"/>
      <vel value="0.0539956506" flag="0"/>
      <psa03 value="0.1568950972" flag="0"/>
      <psa10 value="0.0176002528" flag="0"/>
      <psa30 value="0.0041212801" flag="0"/>
    </comp>
  </station>
  <station code="THERA" name="THERA" netid="HL" insttype="120" lat="36.367" lon="25.4753">
    <comp name="--.HHN">
      <acc value="0.0652102475" flag="0"/>
      <vel value="0.0142682825" flag="0"/>
      <psa03 value="0.0600353272" flag="0"/>
      <psa10 value="0.0028611666" flag="0"/>
      <psa30 value="0.0004821984" flag="0"/>
    </comp>
    <comp name="--.HHZ">
      <acc value="0.1020394046" flag="0"/>
      <vel value="0.0184763528" flag="0"/>
      <psa03 value="0.0597569033" flag="0"/>
      <psa10 value="0.0043139668" flag="0"/>
      <psa30 value="0.0007393578" flag="0"/>
    </comp>
  </station>
</stationlist>
