<?xml version="1.0" encoding="UTF-8" standalone="yes"?>
<!DOCTYPE earthquake SYSTEM "stationlist.dtd">
<stationlist created="" xmlns="ch.ethz.sed.shakemap.usgs.xml">
  <station code="APEC" name="APEC" netid="IV" insttype="" commtype="DIG" lat="43.5585" lon="12.4199">
    <comp name="--.HHE">
      <acc value="0.0512786213" flag="0"/>
      <vel value="0.0364193960" flag="0"/>
      <psa03 value="0.1489068349" flag="0"/>
      <psa10 value="0.0280103557" flag="0"/>
      <psa30 value="0.0014531615" flag="0"/>
    </comp>
    <comp name="--.HHN">
      <acc value="0.0494079896" flag="0"/>
      <vel value="0.0225350995" flag="0"/>
      <psa03 value="0.1239879586" flag="0"/>
      <psa10 value="0.0202638560" flag="0"/>
      <psa30 value="0.0011131211" flag="0"/>
    </comp>
    <comp name="--.HHZ">
      <acc value="0.0343374557" flag="0"/>
      <vel value="0.0162263722" flag="0"/>
      <psa03 value="0.0825244804" flag="0"/>
      <psa10 value="0.0110209118" flag="0"/>
      <psa30 value="0.0009999410" flag="0"/>
    </comp>
  </station>
  <station code="ARVD" name="ARVD" netid="IV" insttype="" commtype="DIG" lat="43.4981" lon="12.9415">
    <comp name="--.HHE">
      <acc value="0.0193657944" flag="0"/>
      <vel value="0.0119314979" flag="0"/>
      <psa03 value="0.0516242375" flag="0"/>
      <psa10 value="0.0068129345" flag="0"/>
      <psa30 value="0.0012008292" flag="0"/>
    </comp>
    <comp name="--.HHN">
      <acc value="0.0156032300" flag="0"/>
      <vel value="0.0081107634" flag="0"/>
      <psa03 value="0.0535127506" flag="0"/>
      <psa10 value="0.0064219744" flag="0"/>
      <psa30 value="0.0009998999" flag="0"/>
    </comp>
    <comp name="--.HHZ">
      <acc value="0.0171808184" flag="0"/>
      <vel value="0.0072445159" flag="0"/>
      <psa03 value="0.0513315801" flag="0"/>
      <psa10 value="0.0055464440" flag="0"/>
      <psa30 value="0.0006900247" flag="0"/>
    </comp>
  </station>
  <station code="ATBU" name="ATBU" netid="IV" insttype="" commtype="DIG" lat="43.4757" lon="12.5483">
    <comp name="--.HNZ">
      <acc value="0.0280513165" flag="0"/>
      <vel value="0.0240213280" flag="0"/>
      <psa03 value="0.0715017209" flag="0"/>
      <psa10 value="0.0183026201" flag="0"/>
      <psa30 value="0.0012141648" flag="0"/>
    </comp>
    <comp name="--.HNN">
      <acc value="0.0719331575" flag="0"/>
      <vel value="0.0394534770" flag="0"/>
      <psa03 value="0.3320496493" flag="0"/>
      <psa10 value="0.0380822446" flag="0"/>
      <psa30 value="0.0018304103" flag="0"/>
    </comp>
    <comp name="--.HNE">
      <acc value="0.0728353132" flag="0"/>
      <vel value="0.0500403834" flag="0"/>
      <psa03 value="0.1887350780" flag="0"/>
      <psa10 value="0.0538805368" flag="0"/>
      <psa30 value="0.0021720510" flag="0"/>
    </comp>
  </station>
  <station code="ATCC" name="ATCC" netid="IV" insttype="" commtype="DIG" lat="43.1851" lon="12.6399">
    <comp name="--.HNE">
      <acc value="0.0258594407" flag="0"/>
      <vel value="0.0188109230" flag="0"/>
      <psa03 value="0.0583795403" flag="0"/>
      <psa10 value="0.0213518217" flag="0"/>
      <psa30 value="0.0016446337" flag="0"/>
    </comp>
    <comp name="--.HNN">
      <acc value="0.0250957916" flag="0"/>
      <vel value="0.0165060991" flag="0"/>
      <psa03 value="0.1100791102" flag="0"/>
      <psa10 value="0.0165697678" flag="0"/>
      <psa30 value="0.0012429880" flag="0"/>
    </comp>
    <comp name="--.HNZ">
      <acc value="0.0127034602" flag="0"/>
      <vel value="0.0089909471" flag="0"/>
      <psa03 value="0.0511512420" flag="0"/>
      <psa10 value="0.0108594503" flag="0"/>
      <psa30 value="0.0008123114" flag="0"/>
    </comp>
  </station>
  <station code="ATFO" name="ATFO" netid="IV" insttype="" commtype="DIG" lat="43.3666" lon="12.5715">
    <comp name="--.HHN">
      <acc value="0.0236130861" flag="0"/>
      <vel value="0.0115794428" flag="0"/>
      <psa03 value="0.0853942501" flag="0"/>
      <psa10 value="0.0209745874" flag="0"/>
      <psa30 value="0.0012250534" flag="0"/>
    </comp>
    <comp name="--.HHE">
      <acc value="0.0239414928" flag="0"/>
      <vel value="0.0139085299" flag="0"/>
      <psa03 value="0.0733333597" flag="0"/>
      <psa10 value="0.0225087142" flag="0"/>
      <psa30 value="0.0014441531" flag="0"/>
    </comp>
    <comp name="--.HHZ">
      <acc value="0.0198552844" flag="0"/>
      <vel value="0.0102068818" flag="0"/>
      <psa03 value="0.0439002598" flag="0"/>
      <psa10 value="0.0086275213" flag="0"/>
      <psa30 value="0.0007821446" flag="0"/>
    </comp>
  </station>
  <station code="ATLO" name="ATLO" netid="IV" insttype="" commtype="DIG" lat="43.3152" lon="12.4073">
    <comp name="--.HNN">
      <acc value="0.0111580203" flag="0"/>
      <vel value="0.0080721913" flag="0"/>
      <psa03 value="0.0336185321" flag="0"/>
      <psa10 value="0.0176991202" flag="0"/>
      <psa30 value="0.0011776254" flag="0"/>
    </comp>
    <comp name="--.HNE">
      <acc value="0.0146383220" flag="0"/>
      <vel value="0.0099205606" flag="0"/>
      <psa03 value="0.0382112023" flag="0"/>
      <psa10 value="0.0156589892" flag="0"/>
      <psa30 value="0.0007212392" flag="0"/>
    </comp>
    <comp name="--.HNZ">
      <acc value="0.0019825076" flag="0"/>
      <vel value="0.0018862377" flag="0"/>
      <psa03 value="0.0063255056" flag="0"/>
      <psa10 value="0.0020087053" flag="0"/>
      <psa30 value="0.0003566645" flag="0"/>
    </comp>
  </station>
  <station code="ATMI" name="ATMI" netid="IV" insttype="" commtype="DIG" lat="43.3342" lon="12.268">
    <comp name="--.HHE">
      <acc value="0.0411175831" flag="0"/>
      <vel value="0.0237517832" flag="0"/>
      <psa03 value="0.1837948984" flag="0"/>
      <psa10 value="0.0252818183" flag="0"/>
      <psa30 value="0.0013884477" flag="0"/>
    </comp>
    <comp name="--.HHZ">
      <acc value="0.0143792219" flag="0"/>
      <vel value="0.0101701639" flag="0"/>
      <psa03 value="0.0643955054" flag="0"/>
      <psa10 value="0.0116210333" flag="0"/>
      <psa30 value="0.0005381556" flag="0"/>
    </comp>
    <comp name="--.HHN">
      <acc value="0.0417185318" flag="0"/>
      <vel value="0.0346623288" flag="0"/>
      <psa03 value="0.1163273365" flag="0"/>
      <psa10 value="0.0478152307" flag="0"/>
      <psa30 value="0.0018915341" flag="0"/>
    </comp>
  </station>
  <station code="ATPC" name="ATPC" netid="IV" insttype="" commtype="DIG" lat="43.4807" lon="12.457">
    <comp name="--.HHE">
      <acc value="0.0595973932" flag="0"/>
      <vel value="0.0290387814" flag="0"/>
      <psa03 value="0.1156133564" flag="0"/>
      <psa10 value="0.0299870830" flag="0"/>
      <psa30 value="0.0014842757" flag="0"/>
    </comp>
    <comp name="--.HHN">
      <acc value="0.0307758329" flag="0"/>
      <vel value="0.0258613549" flag="0"/>
      <psa03 value="0.0845278375" flag="0"/>
      <psa10 value="0.0256289470" flag="0"/>
      <psa30 value="0.0015088771" flag="0"/>
    </comp>
    <comp name="--.HHZ">
      <acc value="0.0191720119" flag="0"/>
      <vel value="0.0118986547" flag="0"/>
      <psa03 value="0.0601720038" flag="0"/>
      <psa10 value="0.0191461541" flag="0"/>
      <psa30 value="0.0008601779" flag="0"/>
    </comp>
  </station>
  <station code="ATPI" name="ATPI" netid="IV" insttype="" commtype="DIG" lat="43.4507" lon="12.4022">
    <comp name="--.HNN">
      <acc value="0.0189987893" flag="0"/>
      <vel value="0.0158371179" flag="0"/>
      <psa03 value="0.0488986730" flag="0"/>
      <psa10 value="0.0153681331" flag="0"/>
      <psa30 value="0.0017985171" flag="0"/>
    </comp>
    <comp name="--.HNZ">
      <acc value="0.0126061978" flag="0"/>
      <vel value="0.0070879480" flag="0"/>
      <psa03 value="0.0387074859" flag="0"/>
      <psa10 value="0.0112671952" flag="0"/>
      <psa30 value="0.0010685935" flag="0"/>
    </comp>
    <comp name="--.HNE">
      <acc value="0.0194716521" flag="0"/>
      <vel value="0.0154250574" flag="0"/>
      <psa03 value="0.0635993382" flag="0"/>
      <psa10 value="0.0212347583" flag="0"/>
      <psa30 value="0.0014429266" flag="0"/>
    </comp>
  </station>
  <station code="ATVO" name="ATVO" netid="IV" insttype="" commtype="DIG" lat="43.3821" lon="12.4066">
    <comp name="--.HHE">
      <acc value="0.0208748088" flag="0"/>
      <vel value="0.0167672797" flag="0"/>
      <psa03 value="0.0672227796" flag="0"/>
      <psa10 value="0.0331798993" flag="0"/>
      <psa30 value="0.0017961852" flag="0"/>
    </comp>
    <comp name="--.HHN">
      <acc value="0.0179606061" flag="0"/>
      <vel value="0.0204681125" flag="0"/>
      <psa03 value="0.0636899105" flag="0"/>
      <psa10 value="0.0378884750" flag="0"/>
      <psa30 value="0.0030118119" flag="0"/>
    </comp>
    <comp name="--.HHZ">
      <acc value="0.0106961056" flag="0"/>
      <vel value="0.0096404434" flag="0"/>
      <psa03 value="0.0277137410" flag="0"/>
      <psa10 value="0.0132302107" flag="0"/>
      <psa30 value="0.0014382336" flag="0"/>
    </comp>
  </station>
  <station code="BRSN" name="BRSN" netid="IV" insttype="" commtype="DIG" lat="44.2842" lon="12.0802">
    <comp name="--.HNE">
      <acc value="5.8836931104" flag="0"/>
      <vel value="1.5370384219" flag="0"/>
      <psa03 value="4.3260662218" flag="0"/>
      <psa10 value="0.5888125812" flag="0"/>
      <psa30 value="0.0373874988" flag="0"/>
    </comp>
    <comp name="--.HNN">
      <acc value="5.3055736324" flag="0"/>
      <vel value="1.4402246193" flag="0"/>
      <psa03 value="4.6137145827" flag="0"/>
      <psa10 value="0.6787698741" flag="0"/>
      <psa30 value="0.0494785797" flag="0"/>
    </comp>
    <comp name="--.HNZ">
      <acc value="2.6708023420" flag="0"/>
      <vel value="0.4173697526" flag="0"/>
      <psa03 value="1.6736450569" flag="0"/>
      <psa10 value="0.1008015464" flag="0"/>
      <psa30 value="0.0122379407" flag="0"/>
    </comp>
  </station>
  <station code="CRMI" name="CRMI" netid="IV" insttype="" commtype="DIG" lat="43.7956" lon="10.9795">
    <comp name="--.HHN">
      <acc value="0.0088894514" flag="0"/>
      <vel value="0.0087252124" flag="0"/>
      <psa03 value="0.0180498049" flag="0"/>
      <psa10 value="0.0097929387" flag="0"/>
      <psa30 value="0.0007188077" flag="0"/>
    </comp>
    <comp name="--.HHE">
      <acc value="0.0067051284" flag="0"/>
      <vel value="0.0031667668" flag="0"/>
      <psa03 value="0.0176146450" flag="0"/>
      <psa10 value="0.0051963775" flag="0"/>
      <psa30 value="0.0003607268" flag="0"/>
    </comp>
    <comp name="--.HHZ">
      <acc value="0.0051059234" flag="0"/>
      <vel value="0.0027289564" flag="0"/>
      <psa03 value="0.0088930417" flag="0"/>
      <psa10 value="0.0029974390" flag="0"/>
      <psa30 value="0.0005387508" flag="0"/>
    </comp>
  </station>
  <station code="CRTC" name="CRTC" netid="IV" insttype="" commtype="DIG" lat="43.7685" lon="12.883">
    <comp name="--.HHN">
      <acc value="0.0822695476" flag="0"/>
      <vel value="0.0516315153" flag="0"/>
      <psa03 value="0.2318156133" flag="0"/>
      <psa10 value="0.0472514143" flag="0"/>
      <psa30 value="0.0024787870" flag="0"/>
    </comp>
    <comp name="--.HHE">
      <acc value="0.0693869307" flag="0"/>
      <vel value="0.0400289803" flag="0"/>
      <psa03 value="0.2215764400" flag="0"/>
      <psa10 value="0.0426491725" flag="0"/>
      <psa30 value="0.0022127740" flag="0"/>
    </comp>
    <comp name="--.HHZ">
      <acc value="0.0547597581" flag="0"/>
      <vel value="0.0359024701" flag="0"/>
      <psa03 value="0.1668933690" flag="0"/>
      <psa10 value="0.0352455863" flag="0"/>
      <psa30 value="0.0017044921" flag="0"/>
    </comp>
  </station>
  <station code="FAEN" name="FAEN" netid="IV" insttype="" commtype="DIG" lat="44.2895" lon="11.877">
    <comp name="--.HNE">
      <acc value="0.7106366954" flag="0"/>
      <vel value="0.2241840223" flag="0"/>
      <psa03 value="1.2086731699" flag="0"/>
      <psa10 value="0.2314665942" flag="0"/>
      <psa30 value="0.0219166702" flag="0"/>
    </comp>
    <comp name="--.HNN">
      <acc value="1.3295895094" flag="0"/>
      <vel value="0.5171663086" flag="0"/>
      <psa03 value="1.1147680694" flag="0"/>
      <psa10 value="0.3268943815" flag="0"/>
      <psa30 value="0.0234351559" flag="0"/>
    </comp>
    <comp name="--.HNZ">
      <acc value="0.3541998594" flag="0"/>
      <vel value="0.0459342888" flag="0"/>
      <psa03 value="0.1827970069" flag="0"/>
      <psa10 value="0.0207013506" flag="0"/>
      <psa30 value="0.0018550556" flag="0"/>
    </comp>
  </station>
  <station code="FOSV" name="FOSV" netid="IV" insttype="" commtype="DIG" lat="43.2948" lon="12.7612">
    <comp name="--.HNE">
      <acc value="0.0150982931" flag="0"/>
      <vel value="0.0089859904" flag="0"/>
      <psa03 value="0.0465811313" flag="0"/>
      <psa10 value="0.0082805544" flag="0"/>
      <psa30 value="0.0009851476" flag="0"/>
    </comp>
    <comp name="--.HNN">
      <acc value="0.0180598677" flag="0"/>
      <vel value="0.0147492006" flag="0"/>
      <psa03 value="0.0612297228" flag="0"/>
      <psa10 value="0.0107438585" flag="0"/>
      <psa30 value="0.0006447816" flag="0"/>
    </comp>
    <comp name="--.HNZ">
      <acc value="0.0138604571" flag="0"/>
      <vel value="0.0066780451" flag="0"/>
      <psa03 value="0.0351946968" flag="0"/>
      <psa10 value="0.0078004321" flag="0"/>
      <psa30 value="0.0004624031" flag="0"/>
    </comp>
  </station>
  <station code="IMOL" name="IMOL" netid="IV" insttype="" commtype="DIG" lat="44.3595" lon="11.7425">
    <comp name="--.HNE">
      <acc value="0.5755410431" flag="0"/>
      <vel value="0.1660901421" flag="0"/>
      <psa03 value="0.8459485163" flag="0"/>
      <psa10 value="0.0712830298" flag="0"/>
      <psa30 value="0.0093793124" flag="0"/>
    </comp>
    <comp name="--.HNN">
      <acc value="0.4401967261" flag="0"/>
      <vel value="0.1871360856" flag="0"/>
      <psa03 value="0.7606690856" flag="0"/>
      <psa10 value="0.0727149258" flag="0"/>
      <psa30 value="0.0067239489" flag="0"/>
    </comp>
    <comp name="--.HNZ">
      <acc value="0.4742569255" flag="0"/>
      <vel value="0.0737374448" flag="0"/>
      <psa03 value="0.1210467339" flag="0"/>
      <psa10 value="0.0415332521" flag="0"/>
      <psa30 value="0.0027111732" flag="0"/>
    </comp>
  </station>
  <station code="LMD" name="LMD" netid="IV" insttype="" commtype="DIG" lat="44.0775" lon="11.7073">
    <comp name="--.HHE">
      <acc value="0.2900245788" flag="0"/>
      <vel value="0.0832496863" flag="0"/>
      <psa03 value="0.3423042281" flag="0"/>
      <psa10 value="0.0460978602" flag="0"/>
      <psa30 value="0.0042210600" flag="0"/>
    </comp>
    <comp name="--.HHN">
      <acc value="0.3155424657" flag="0"/>
      <vel value="0.1016801006" flag="0"/>
      <psa03 value="0.3620140009" flag="0"/>
      <psa10 value="0.0434340906" flag="0"/>
      <psa30 value="0.0055142451" flag="0"/>
    </comp>
    <comp name="--.HHZ">
      <acc value="0.0931068367" flag="0"/>
      <vel value="0.0328616293" flag="0"/>
      <psa03 value="0.1392326102" flag="0"/>
      <psa10 value="0.0371206136" flag="0"/>
      <psa30 value="0.0029080578" flag="0"/>
    </comp>
  </station>
  <station code="LOCA" name="LOCA" netid="IV" insttype="" commtype="DIG" lat="43.3064" lon="11.2623">
    <comp name="--.HHE">
      <acc value="0.0042833605" flag="0"/>
      <vel value="0.0044158426" flag="0"/>
      <psa03 value="0.0107474135" flag="0"/>
      <psa10 value="0.0047763724" flag="0"/>
      <psa30 value="0.0006866575" flag="0"/>
    </comp>
    <comp name="--.HHN">
      <acc value="0.0038784042" flag="0"/>
      <vel value="0.0037753199" flag="0"/>
      <psa03 value="0.0094105046" flag="0"/>
      <psa10 value="0.0060145509" flag="0"/>
      <psa30 value="0.0007528911" flag="0"/>
    </comp>
    <comp name="--.HHZ">
      <acc value="0.0043797260" flag="0"/>
      <vel value="0.0029698210" flag="0"/>
      <psa03 value="0.0155829167" flag="0"/>
      <psa10 value="0.0030132743" flag="0"/>
      <psa30 value="0.0003115524" flag="0"/>
    </comp>
  </station>
  <station code="MTRZ" name="MTRZ" netid="IV" insttype="" commtype="DIG" lat="44.3128" lon="11.4248">
    <comp name="--.HNE">
      <acc value="0.0483044062" flag="0"/>
      <vel value="0.0284810244" flag="0"/>
      <psa03 value="0.2046993205" flag="0"/>
      <psa10 value="0.0287859475" flag="0"/>
      <psa30 value="0.0022141072" flag="0"/>
    </comp>
    <comp name="--.HNZ">
      <acc value="0.0247947998" flag="0"/>
      <vel value="0.0147764011" flag="0"/>
      <psa03 value="0.0953085299" flag="0"/>
      <psa10 value="0.0127955760" flag="0"/>
      <psa30 value="0.0011877265" flag="0"/>
    </comp>
    <comp name="--.HNN">
      <acc value="0.0435891995" flag="0"/>
      <vel value="0.0229442969" flag="0"/>
      <psa03 value="0.1602277537" flag="0"/>
      <psa10 value="0.0252845484" flag="0"/>
      <psa30 value="0.0023766604" flag="0"/>
    </comp>
  </station>
  <station code="MURB" name="MURB" netid="IV" insttype="" commtype="DIG" lat="43.263" lon="12.5246">
    <comp name="--.HHE">
      <acc value="0.0538429529" flag="0"/>
      <vel value="0.0334886210" flag="0"/>
      <psa03 value="0.2341336517" flag="0"/>
      <psa10 value="0.0363767419" flag="0"/>
      <psa30 value="0.0018855402" flag="0"/>
    </comp>
    <comp name="--.HHN">
      <acc value="0.0572538641" flag="0"/>
      <vel value="0.0363490943" flag="0"/>
      <psa03 value="0.2984826759" flag="0"/>
      <psa10 value="0.0274594528" flag="0"/>
      <psa30 value="0.0023993560" flag="0"/>
    </comp>
    <comp name="--.HHZ">
      <acc value="0.0181816401" flag="0"/>
      <vel value="0.0135894526" flag="0"/>
      <psa03 value="0.0506220299" flag="0"/>
      <psa10 value="0.0249516339" flag="0"/>
      <psa30 value="0.0022079725" flag="0"/>
    </comp>
  </station>
  <station code="PESA" name="PESA" netid="IV" insttype="" commtype="DIG" lat="43.941" lon="12.8402">
    <comp name="--.HHE">
      <acc value="0.2314294267" flag="0"/>
      <vel value="0.0540413761" flag="0"/>
      <psa03 value="0.3257604352" flag="0"/>
      <psa10 value="0.0240898497" flag="0"/>
      <psa30 value="0.0017149344" flag="0"/>
    </comp>
    <comp name="--.HHZ">
      <acc value="0.0604686447" flag="0"/>
      <vel value="0.0254434868" flag="0"/>
      <psa03 value="0.1069777262" flag="0"/>
      <psa10 value="0.0084104590" flag="0"/>
      <psa30 value="0.0009979478" flag="0"/>
    </comp>
    <comp name="--.HHN">
      <acc value="0.1976205377" flag="0"/>
      <vel value="0.0502279555" flag="0"/>
      <psa03 value="0.2308681710" flag="0"/>
      <psa10 value="0.0480552785" flag="0"/>
      <psa30 value="0.0028632927" flag="0"/>
    </comp>
  </station>
  <station code="PIEI" name="PIEI" netid="IV" insttype="" commtype="DIG" lat="43.5357" lon="12.535">
    <comp name="--.HHZ">
      <acc value="0.0291267439" flag="0"/>
      <vel value="0.0154248171" flag="0"/>
      <psa03 value="0.0777700199" flag="0"/>
      <psa10 value="0.0111588537" flag="0"/>
      <psa30 value="0.0009887856" flag="0"/>
    </comp>
    <comp name="--.HHN">
      <acc value="0.0368101132" flag="0"/>
      <vel value="0.0194859018" flag="0"/>
      <psa03 value="0.0956470319" flag="0"/>
      <psa10 value="0.0126259726" flag="0"/>
      <psa30 value="0.0009387461" flag="0"/>
    </comp>
    <comp name="--.HHE">
      <acc value="0.0693307050" flag="0"/>
      <vel value="0.0297726383" flag="0"/>
      <psa03 value="0.2267106853" flag="0"/>
      <psa10 value="0.0258987584" flag="0"/>
      <psa30 value="0.0012394175" flag="0"/>
    </comp>
  </station>
  <station code="PII" name="PII" netid="IV" insttype="" commtype="DIG" lat="43.7219" lon="10.525">
    <comp name="--.HHE">
      <acc value="0.0094769606" flag="0"/>
      <vel value="0.0057951557" flag="0"/>
      <psa03 value="0.0212902212" flag="0"/>
