<stationlist created="1775181339">
	<station code="MK14" name="MK14" netid="CR" source="Croatian Seismograph Network (CSN)" insttype="" lat="44.873001" lon="13.849577">
		<comp name="--.HNE" depth="0.0">
			<acc value="0.0150189358863357" flag="0"/>
			<vel value="0.00671864135264172" flag="0"/>
			<psa03 value="0.0432585870232548" flag="0"/>
			<psa10 value="0.00528675615914949" flag="0"/>
			<psa30 value="0.00029243567451157" flag="0"/>
		</comp>
		<comp name="--.HNN" depth="0.0">
			<acc value="0.0164960361427861" flag="0"/>
			<vel value="0.00887286050705301" flag="0"/>
			<psa03 value="0.0550475997583244" flag="0"/>
			<psa10 value="0.00979699244016801" flag="0"/>
			<psa30 value="0.000906158778571883" flag="0"/>
		</comp>
		<comp name="--.HNZ" depth="0.0">
			<acc value="0.0124089893357342" flag="0"/>
			<vel value="0.00543232615466126" flag="0"/>
			<psa03 value="0.0244003976565938" flag="0"/>
			<psa10 value="0.00736461693222809" flag="0"/>
			<psa30 value="0.000704345774034113" flag="0"/>
		</comp>
	</station>
	<station code="MK26" name="MK26" netid="CR" source="Croatian Seismograph Network (CSN)" insttype="" lat="45.228525" lon="13.593657">
		<comp name="--.HNE" depth="0.0">
			<acc value="0.0251149564866606" flag="0"/>
			<vel value="0.0111536419637629" flag="0"/>
			<psa03 value="0.0505887106288026" flag="0"/>
			<psa10 value="0.00482149658798627" flag="0"/>
			<psa30 value="0.000996885517939769" flag="0"/>
		</comp>
		<comp name="--.HNN" depth="0.0">
			<acc value="0.0257227646152276" flag="0"/>
			<vel value="0.00965692403017864" flag="0"/>
			<psa03 value="0.041763899465873" flag="0"/>
			<psa10 value="0.00620835205410457" flag="0"/>
			<psa30 value="0.000699491962909614" flag="0"/>
		</comp>
		<comp name="--.HNZ" depth="0.0">
			<acc value="0.0188229459175938" flag="0"/>
			<vel value="0.00675297771022374" flag="0"/>
			<psa03 value="0.0297728238659637" flag="0"/>
			<psa10 value="0.00669814012516052" flag="0"/>
			<psa30 value="0.000628790039670853" flag="0"/>
		</comp>
	</station>
	<station code="0REN" name="0REN" netid="IT" source="Italian Strong Motion Network (RAN)" insttype="" lat="43.5462" lon="12.264">
		<comp name="--.HNE" depth="0.0">
			<acc value="0.0231115895323055" flag="0"/>
			<vel value="0.010897333787156" flag="0"/>
			<psa03 value="0.0399076931679822" flag="0"/>
			<psa10 value="0.00662443883656186" flag="0"/>
			<psa30 value="0.000844659652473268" flag="0"/>
		</comp>
		<comp name="--.HNN" depth="0.0">
			<acc value="0.0219954365479867" flag="0"/>
			<vel value="0.00884992990899594" flag="0"/>
			<psa03 value="0.0559926050686217" flag="0"/>
			<psa10 value="0.010218535365318" flag="0"/>
			<psa30 value="0.000536455902154062" flag="0"/>
		</comp>
		<comp name="--.HNZ" depth="0.0">
			<acc value="0.0151935242569791" flag="0"/>
			<vel value="0.00850344634564563" flag="0"/>
			<psa03 value="0.0598705494634059" flag="0"/>
			<psa10 value="0.00635843371502804" flag="0"/>
			<psa30 value="0.00059888285013299" flag="0"/>
		</comp>
	</station>
	<station code="ALF" name="ALF" netid="IT" source="Italian Strong Motion Network (RAN)" insttype="" lat="44.5022" lon="12.0334">
		<comp name="--.HGE" depth="0.0">
			<acc value="0.401790661314263" flag="0"/>
			<vel value="0.290043315555678" flag="0"/>
			<psa03 value="0.680015339345556" flag="0"/>
			<psa10 value="0.498835065374925" flag="0"/>
			<psa30 value="0.0216848465146579" flag="0"/>
		</comp>
		<comp name="--.HGN" depth="0.0">
			<acc value="0.434387078873385" flag="0"/>
			<vel value="0.270169711942217" flag="0"/>
			<psa03 value="0.918186575354391" flag="0"/>
			<psa10 value="0.263669766828028" flag="0"/>
			<psa30 value="0.0488446757200492" flag="0"/>
		</comp>
		<comp name="--.HGZ" depth="0.0">
			<acc value="0.391671726283551" flag="0"/>
			<vel value="0.091002723750237" flag="0"/>
			<psa03 value="0.331951260975241" flag="0"/>
			<psa10 value="0.0517278667173028" flag="0"/>
			<psa30 value="0.00328045481403179" flag="0"/>
		</comp>
	</station>
	<station code="ANB" name="ANB" netid="IT" source="Italian Strong Motion Network (RAN)" insttype="" lat="43.5922" lon="13.5074">
		<comp name="--.HGE" depth="0.0">
			<acc value="0.0508167511871473" flag="0"/>
			<vel value="0.041100988430245" flag="0"/>
			<psa03 value="0.141272327348358" flag="0"/>
			<psa10 value="0.0385711851517187" flag="0"/>
			<psa30 value="0.00221303847793813" flag="0"/>
		</comp>
		<comp name="--.HGN" depth="0.0">
			<acc value="0.0625003292573625" flag="0"/>
			<vel value="0.0389609538339811" flag="0"/>
			<psa03 value="0.263325423183618" flag="0"/>
			<psa10 value="0.0453024198129799" flag="0"/>
			<psa30 value="0.00180113827490452" flag="0"/>
		</comp>
		<comp name="--.HGZ" depth="0.0">
			<acc value="0.022820046461942" flag="0"/>
			<vel value="0.011405486939862" flag="0"/>
			<psa03 value="0.0608637819268487" flag="0"/>
			<psa10 value="0.0114943183171773" flag="0"/>
			<psa30 value="0.000866798827418288" flag="0"/>
		</comp>
	</station>
	<station code="APNO" name="APNO" netid="IT" source="Italian Strong Motion Network (RAN)" insttype="" lat="43.3638" lon="13.3451">
		<comp name="--.HNE" depth="0.0">
			<acc value="0.0444046055842961" flag="0"/>
			<vel value="0.0211951349054296" flag="0"/>
			<psa03 value="0.0904465541403231" flag="0"/>
			<psa10 value="0.0287935411807918" flag="0"/>
			<psa30 value="0.00156146291842175" flag="0"/>
		</comp>
		<comp name="--.HNN" depth="0.0">
			<acc value="0.032478162430545" flag="0"/>
			<vel value="0.0170039465307966" flag="0"/>
			<psa03 value="0.128154739622549" flag="0"/>
			<psa10 value="0.0198997463855351" flag="0"/>
			<psa30 value="0.00305132609371191" flag="0"/>
		</comp>
		<comp name="--.HNZ" depth="0.0">
			<acc value="0.0397763614116878" flag="0"/>
			<vel value="0.00898004054803632" flag="0"/>
			<psa03 value="0.0400214767472526" flag="0"/>
			<psa10 value="0.0121830055018234" flag="0"/>
			<psa30 value="0.00137357161737851" flag="0"/>
		</comp>
	</station>
	<station code="ARCV" name="ARCV" netid="IT" source="Italian Strong Motion Network (RAN)" insttype="" lat="43.495" lon="12.9396">
		<comp name="--.HNE" depth="0.0">
			<acc value="0.0225467247132774" flag="0"/>
			<vel value="0.0102513596833498" flag="0"/>
			<psa03 value="0.0538917523557732" flag="0"/>
			<psa10 value="0.0108492840243211" flag="0"/>
			<psa30 value="0.00124834707186694" flag="0"/>
		</comp>
		<comp name="--.HNN" depth="0.0">
			<acc value="0.0251502477695243" flag="0"/>
			<vel value="0.00899928531715166" flag="0"/>
			<psa03 value="0.0456176261105168" flag="0"/>
			<psa10 value="0.00855126022902276" flag="0"/>
			<psa30 value="0.00121323985035248" flag="0"/>
		</comp>
		<comp name="--.HNZ" depth="0.0">
			<acc value="0.029379933124379" flag="0"/>
			<vel value="0.00721171871698889" flag="0"/>
			<psa03 value="0.0289360106186929" flag="0"/>
			<psa10 value="0.0066041748379214" flag="0"/>
			<psa30 value="0.000649805754775506" flag="0"/>
		</comp>
	</station>
	<station code="ARG" name="ARG" netid="IT" source="Italian Strong Motion Network (RAN)" insttype="" lat="44.6306" lon="11.8251">
		<comp name="--.HNE" depth="0.0">
			<acc value="0.0847613105213311" flag="0"/>
			<vel value="0.0788780281894242" flag="0"/>
			<psa03 value="0.125850920339162" flag="0"/>
			<psa10 value="0.168740343219604" flag="0"/>
			<psa30 value="0.00993819919025553" flag="0"/>
		</comp>
		<comp name="--.HNN" depth="0.0">
			<acc value="0.0856336193022163" flag="0"/>
			<vel value="0.107194831259108" flag="0"/>
			<psa03 value="0.150840992475462" flag="0"/>
			<psa10 value="0.224053162422415" flag="0"/>
			<psa30 value="0.00918769947333255" flag="0"/>
		</comp>
		<comp name="--.HNZ" depth="0.0">
			<acc value="0.0622674866331074" flag="0"/>
			<vel value="0.0215985739492673" flag="0"/>
			<psa03 value="0.0679450739443583" flag="0"/>
			<psa10 value="0.0225042751727849" flag="0"/>
			<psa30 value="0.00209316220338993" flag="0"/>
		</comp>
	</station>
	<station code="ARO" name="ARO" netid="IT" source="Italian Strong Motion Network (RAN)" insttype="" lat="43.4662" lon="11.8828">
		<comp name="--.HNE" depth="0.0">
			<acc value="0.0214252951430953" flag="0"/>
			<vel value="0.0129935786029204" flag="0"/>
			<psa03 value="0.093261032252352" flag="0"/>
			<psa10 value="0.0169333561267388" flag="0"/>
			<psa30 value="0.000842350749519779" flag="0"/>
		</comp>
		<comp name="--.HNN" depth="0.0">
			<acc value="0.019641795879296" flag="0"/>
			<vel value="0.0121202495939576" flag="0"/>
			<psa03 value="0.0651556235319584" flag="0"/>
			<psa10 value="0.0151451598550118" flag="0"/>
			<psa30 value="0.00119683636786894" flag="0"/>
		</comp>
		<comp name="--.HNZ" depth="0.0">
			<acc value="0.0175958259148421" flag="0"/>
			<vel value="0.00757422917654007" flag="0"/>
			<psa03 value="0.047256161738794" flag="0"/>
			<psa10 value="0.0121797184090696" flag="0"/>
			<psa30 value="0.000727011442190058" flag="0"/>
		</comp>
	</station>
	<station code="ASS" name="ASS" netid="IT" source="Italian Strong Motion Network (RAN)" insttype="" lat="43.075" lon="12.6041">
		<comp name="--.HNE" depth="0.0">
			<acc value="0.0140567709231199" flag="0"/>
			<vel value="0.00674441815126843" flag="0"/>
			<psa03 value="0.0663542081406397" flag="0"/>
			<psa10 value="0.00612943557627522" flag="0"/>
			<psa30 value="0.00061548457491578" flag="0"/>
		</comp>
		<comp name="--.HNN" depth="0.0">
			<acc value="0.0112829780855663" flag="0"/>
			<vel value="0.00566953728759532" flag="0"/>
			<psa03 value="0.0464128871259895" flag="0"/>
			<psa10 value="0.00751143634579369" flag="0"/>
			<psa30 value="0.000641500048313215" flag="0"/>
		</comp>
		<comp name="--.HNZ" depth="0.0">
			<acc value="0.00659999137555157" flag="0"/>
			<vel value="0.00426804862027376" flag="0"/>
			<psa03 value="0.0203297269529708" flag="0"/>
			<psa10 value="0.00415223287755003" flag="0"/>
			<psa30 value="0.000666034590272877" flag="0"/>
		</comp>
	</station>
	<station code="AUL" name="AUL" netid="IT" source="Italian Strong Motion Network (RAN)" insttype="" lat="44.2087" lon="9.9731">
		<comp name="--.HNE" depth="0.0">
			<acc value="0.00472926470363031" flag="0"/>
			<vel value="0.00505925053251273" flag="0"/>
			<psa03 value="0.0136319837811899" flag="0"/>
			<psa10 value="0.00736818763751979" flag="0"/>
			<psa30 value="0.00117063452795897" flag="0"/>
		</comp>
		<comp name="--.HNN" depth="0.0">
			<acc value="0.00301396483932129" flag="0"/>
			<vel value="0.00380559727232682" flag="0"/>
			<psa03 value="0.0110880340070024" flag="0"/>
			<psa10 value="0.00591287841792628" flag="0"/>
			<psa30 value="0.000671690225347611" flag="0"/>
		</comp>
		<comp name="--.HNZ" depth="0.0">
			<acc value="0.00205744260738304" flag="0"/>
			<vel value="0.00384165084825719" flag="0"/>
			<psa03 value="0.00532891421233028" flag="0"/>
			<psa10 value="0.00543153778147142" flag="0"/>
			<psa30 value="0.000969172848778111" flag="0"/>
		</comp>
	</station>
	<station code="BBN" name="BBN" netid="IT" source="Italian Strong Motion Network (RAN)" insttype="" lat="43.7476" lon="11.8214">
		<comp name="--.HNE" depth="0.0">
			<acc value="0.0179440683688047" flag="0"/>
			<vel value="0.012729924426223" flag="0"/>
			<psa03 value="0.0476158157724419" flag="0"/>
			<psa10 value="0.0294411022035315" flag="0"/>
			<psa30 value="0.00155557231986517" flag="0"/>
		</comp>
		<comp name="--.HNN" depth="0.0">
			<acc value="0.0218071875917362" flag="0"/>
			<vel value="0.0174606992809923" flag="0"/>
			<psa03 value="0.0667850127209956" flag="0"/>
			<psa10 value="0.0219447381062003" flag="0"/>
			<psa30 value="0.00150506324472016" flag="0"/>
		</comp>
		<comp name="--.HNZ" depth="0.0">
			<acc value="0.0229808194967736" flag="0"/>
			<vel value="0.0192465171189812" flag="0"/>
			<psa03 value="0.0495449331503339" flag="0"/>
			<psa10 value="0.0336145305476772" flag="0"/>
			<psa30 value="0.00150294466687478" flag="0"/>
		</comp>
	</station>
	<station code="BDT" name="BDT" netid="IT" source="Italian Strong Motion Network (RAN)" insttype="" lat="43.7068" lon="12.188">
		<comp name="--.HNE" depth="0.0">
			<acc value="0.0474801218576675" flag="0"/>
			<vel value="0.0296689332992752" flag="0"/>
			<psa03 value="0.160911222078751" flag="0"/>
			<psa10 value="0.0266431581034665" flag="0"/>
			<psa30 value="0.00122689627585698" flag="0"/>
		</comp>
		<comp name="--.HNN" depth="0.0">
			<acc value="0.0771027578710141" flag="0"/>
			<vel value="0.0443619628143536" flag="0"/>
			<psa03 value="0.323542224751193" flag="0"/>
			<psa10 value="0.0389557431267973" flag="0"/>
			<psa30 value="0.00278745111328949" flag="0"/>
		</comp>
		<comp name="--.HNZ" depth="0.0">
			<acc value="0.0448977585039422" flag="0"/>
			<vel value="0.0265562240655995" flag="0"/>
			<psa03 value="0.194752047200667" flag="0"/>
			<psa10 value="0.018842442594348" flag="0"/>
			<psa30 value="0.00116351020184066" flag="0"/>
		</comp>
	</station>
	<station code="BGL" name="BGL" netid="IT" source="Italian Strong Motion Network (RAN)" insttype="" lat="43.9958" lon="10.5769">
		<comp name="--.HNE" depth="0.0">
			<acc value="0.00962889146371146" flag="0"/>
			<vel value="0.00756037226038059" flag="0"/>
			<psa03 value="0.0265534725789073" flag="0"/>
			<psa10 value="0.00953681239201672" flag="0"/>
			<psa30 value="0.00108937695754372" flag="0"/>
		</comp>
		<comp name="--.HNN" depth="0.0">
			<acc value="0.00735917097277616" flag="0"/>
			<vel value="0.00734053880354924" flag="0"/>
			<psa03 value="0.0305531698308874" flag="0"/>
			<psa10 value="0.0157359111768876" flag="0"/>
			<psa30 value="0.00134943616435653" flag="0"/>
		</comp>
		<comp name="--.HNZ" depth="0.0">
			<acc value="0.00482542899405637" flag="0"/>
			<vel value="0.00456152599603095" flag="0"/>
			<psa03 value="0.0138783529665226" flag="0"/>
			<psa10 value="0.0047046575979766" flag="0"/>
			<psa30 value="0.000561989520714312" flag="0"/>
		</comp>
	</station>
	<station code="BGN" name="BGN" netid="IT" source="Italian Strong Motion Network (RAN)" insttype="" lat="44.3224" lon="9.9917">
		<comp name="--.HGE" depth="0.0">
			<acc value="0.00277268889818678" flag="0"/>
			<vel value="0.00250031821870652" flag="0"/>
			<psa03 value="0.00417629586483401" flag="0"/>
			<psa10 value="0.00414991991182741" flag="0"/>
			<psa30 value="0.000690979836523016" flag="0"/>
		</comp>
		<comp name="--.HGN" depth="0.0">
			<acc value="0.00271423371633382" flag="0"/>
			<vel value="0.00215185943291036" flag="0"/>
			<psa03 value="0.00505143749752637" flag="0"/>
			<psa10 value="0.00319966883735731" flag="0"/>
			<psa30 value="0.000412572356935513" flag="0"/>
		</comp>
		<comp name="--.HGZ" depth="0.0">
			<acc value="0.00213058246009944" flag="0"/>
			<vel value="0.00204585054025743" flag="0"/>
			<psa03 value="0.00357884417721685" flag="0"/>
			<psa10 value="0.00533617833937638" flag="0"/>
			<psa30 value="0.000608755639573504" flag="0"/>
		</comp>
	</station>
	<station code="BOZL" name="BOZL" netid="IT" source="Italian Strong Motion Network (RAN)" insttype="" lat="45.0995" lon="10.4798">
		<comp name="--.HNE" depth="0.0">
			<acc value="0.0177385797525089" flag="0"/>
			<vel value="0.00713112967861335" flag="0"/>
			<psa03 value="0.0320775728984426" flag="0"/>
			<psa10 value="0.0125793214433095" flag="0"/>
			<psa30 value="0.00208557003377929" flag="0"/>
		</comp>
		<comp name="--.HNN" depth="0.0">
			<acc value="0.0272435214355542" flag="0"/>
			<vel value="0.00986539288703515" flag="0"/>
			<psa03 value="0.0327025491958884" flag="0"/>
			<psa10 value="0.0129399284567544" flag="0"/>
			<psa30 value="0.00197561691659157" flag="0"/>
		</comp>
		<comp name="--.HNZ" depth="0.0">
			<acc value="0.024229004775315" flag="0"/>
			<vel value="0.00429754522840331" flag="0"/>
			<psa03 value="0.0153206060607952" flag="0"/>
			<psa10 value="0.0050079692533852" flag="0"/>
			<psa30 value="0.00102434848305976" flag="0"/>
		</comp>
	</station>
	<station code="BRB" name="BRB" netid="IT" source="Italian Strong Motion Network (RAN)" insttype="" lat="43.9542" lon="11.2128">
		<comp name="--.HNE" depth="0.0">
			<acc value="0.0207326115920171" flag="0"/>
			<vel value="0.0170217470747394" flag="0"/>
			<psa03 value="0.0496455596080096" flag="0"/>
			<psa10 value="0.027915549893178" flag="0"/>
			<psa30 value="0.00181594279729814" flag="0"/>
		</comp>
		<comp name="--.HNN" depth="0.0">
			<acc value="0.0256195448566309" flag="0"/>
			<vel value="0.0176787149674479" flag="0"/>
			<psa03 value="0.0447992073109546" flag="0"/>
			<psa10 value="0.0196563908894279" flag="0"/>
			<psa30 value="0.00163390021703728" flag="0"/>
		</comp>
		<comp name="--.HNZ" depth="0.0">
			<acc value="0.0119406816875124" flag="0"/>
			<vel value="0.00893118470068129" flag="0"/>
			<psa03 value="0.0235951672306966" flag="0"/>
			<psa10 value="0.0155150177937851" flag="0"/>
			<psa30 value="0.00133139090644676" flag="0"/>
		</comp>
	</station>
	<station code="BRH" name="BRH" netid="IT" source="Italian Strong Motion Network (RAN)" insttype="" lat="44.2076" lon="11.7639">
		<comp name="--.HGE" depth="0.0">
			<acc value="0.711094049769707" flag="0"/>
			<vel value="0.225513805828213" flag="0"/>
			<psa03 value="0.84974720824887" flag="0"/>
			<psa10 value="0.074542683086918" flag="0"/>
			<psa30 value="0.00658297025613859" flag="0"/>
		</comp>
		<comp name="--.HGN" depth="0.0">
			<acc value="1.03618483801715" flag="0"/>
			<vel value="0.302610545384635" flag="0"/>
			<psa03 value="1.13171680401742" flag="0"/>
			<psa10 value="0.0921860718748359" flag="0"/>
			<psa30 value="0.00922140920643693" flag="0"/>
		</comp>
		<comp name="--.HGZ" depth="0.0">
			<acc value="0.278593946366091" flag="0"/>
			<vel value="0.0830954482232062" flag="0"/>
			<psa03 value="0.272897744802947" flag="0"/>
			<psa10 value="0.0787693930857118" flag="0"/>
			<psa30 value="0.00441282399459929" flag="0"/>
		</comp>
	</station>
	<station code="BRR" name="BRR" netid="IT" source="Italian Strong Motion Network (RAN)" insttype="" lat="44.5063" lon="9.9872">
		<comp name="--.HGE" depth="0.0">
			<acc value="0.00963508450679007" flag="0"/>
			<vel value="0.00243897949944419" flag="0"/>
			<psa03 value="0.00681476264249661" flag="0"/>
			<psa10 value="0.00333729334493051" flag="0"/>
			<psa30 value="0.000390263535335568" flag="0"/>
		</comp>
		<comp name="--.HGN" depth="0.0">
			<acc value="0.00930273909539849" flag="0"/>
			<vel value="0.00288393603580085" flag="0"/>
			<psa03 value="0.00635000008342467" flag="0"/>
			<psa10 value="0.00514841933876406" flag="0"/>
			<psa30 value="0.000364467737948924" flag="0"/>
		</comp>
		<comp name="--.HGZ" depth="0.0">
			<acc value="0.0105870470907932" flag="0"/>
			<vel value="0.00139481153124389" flag="0"/>
			<psa03 value="0.00424773451656492" flag="0"/>
			<psa10 value="0.00241494575955463" flag="0"/>
			<psa30 value="0.00044805160830346" flag="0"/>
		</comp>
	</station>
	<station code="BSG" name="BSG" netid="IT" source="Italian Strong Motion Network (RAN)" insttype="" lat="45.7496" lon="11.7408">
		<comp name="--.HNE" depth="0.0">
			<acc value="0.0672877359469177" flag="0"/>
			<vel value="0.00497279688382057" flag="0"/>
			<psa03 value="0.0281484662602442" flag="0"/>
			<psa10 value="0.00518083132964939" flag="0"/>
			<psa30 value="0.000550850449472177" flag="0"/>
		</comp>
		<comp name="--.HNN" depth="0.0">
			<acc value="0.0509017434979222" flag="0"/>
			<vel value="0.00620281490714626" flag="0"/>
			<psa03 value="0.0299146718043601" flag="0"/>
			<psa10 value="0.00458074142038799" flag="0"/>
			<psa30 value="0.000813688590375736" flag="0"/>
		</comp>
		<comp name="--.HNZ" depth="0.0">
			<acc value="0.018768028433076" flag="0"/>
			<vel value="0.00304098897400723" flag="0"/>
			<psa03 value="0.0179871603110942" flag="0"/>
			<psa10 value="0.00204399977995399" flag="0"/>
			<psa30 value="0.000386141361220097" flag="0"/>
		</comp>
	</station>
	<station code="BSZ" name="BSZ" netid="IT" source="Italian Strong Motion Network (RAN)" insttype="" lat="44.031" lon="11.467">
		<comp name="--.HNE" depth="0.0">
