<?xml version="1.0" encoding="UTF-8" standalone="yes"?>
<!DOCTYPE earthquake SYSTEM "stationlist.dtd">
<stationlist created="" xmlns="ch.ethz.sed.shakemap.usgs.xml">
  <station code="APEC" name="APEC" netid="IV" insttype="" commtype="DIG" lat="43.5585" lon="12.4199">
    <comp name="--.HHE">
      <acc value="0.0512786217" flag="0"/>
      <vel value="0.0364193992" flag="0"/>
      <psa03 value="0.1489068349" flag="0"/>
      <psa10 value="0.0280103557" flag="0"/>
      <psa30 value="0.0014531031" flag="0"/>
    </comp>
    <comp name="--.HHN">
      <acc value="0.0494079893" flag="0"/>
      <vel value="0.0225351000" flag="0"/>
      <psa03 value="0.1239879586" flag="0"/>
      <psa10 value="0.0202638560" flag="0"/>
      <psa30 value="0.0011130640" flag="0"/>
    </comp>
    <comp name="--.HHZ">
      <acc value="0.0343374558" flag="0"/>
      <vel value="0.0162263732" flag="0"/>
      <psa03 value="0.0825244804" flag="0"/>
      <psa10 value="0.0110209118" flag="0"/>
      <psa30 value="0.0009997479" flag="0"/>
    </comp>
  </station>
  <station code="ARVD" name="ARVD" netid="IV" insttype="" commtype="DIG" lat="43.4981" lon="12.9415">
    <comp name="--.HHN">
      <acc value="0.0156032300" flag="0"/>
      <vel value="0.0081107643" flag="0"/>
      <psa03 value="0.0535127506" flag="0"/>
      <psa10 value="0.0064219744" flag="0"/>
      <psa30 value="0.0009999100" flag="0"/>
    </comp>
    <comp name="--.HHE">
      <acc value="0.0193657938" flag="0"/>
      <vel value="0.0119315079" flag="0"/>
      <psa03 value="0.0516242375" flag="0"/>
      <psa10 value="0.0068129345" flag="0"/>
      <psa30 value="0.0012007849" flag="0"/>
    </comp>
    <comp name="--.HHZ">
      <acc value="0.0171808187" flag="0"/>
      <vel value="0.0072445238" flag="0"/>
      <psa03 value="0.0513315801" flag="0"/>
      <psa10 value="0.0055464440" flag="0"/>
      <psa30 value="0.0006899743" flag="0"/>
    </comp>
  </station>
  <station code="ATBU" name="ATBU" netid="IV" insttype="" commtype="DIG" lat="43.4757" lon="12.5483">
    <comp name="--.HNZ">
      <acc value="0.0280513208" flag="0"/>
      <vel value="0.0240213270" flag="0"/>
      <psa03 value="0.0715017209" flag="0"/>
      <psa10 value="0.0183026203" flag="0"/>
      <psa30 value="0.0012141388" flag="0"/>
    </comp>
    <comp name="--.HNE">
      <acc value="0.0728353156" flag="0"/>
      <vel value="0.0500404012" flag="0"/>
      <psa03 value="0.1887350780" flag="0"/>
      <psa10 value="0.0538805370" flag="0"/>
      <psa30 value="0.0021720057" flag="0"/>
    </comp>
    <comp name="--.HNN">
      <acc value="0.0719331567" flag="0"/>
      <vel value="0.0394534704" flag="0"/>
      <psa03 value="0.3320496493" flag="0"/>
      <psa10 value="0.0380822446" flag="0"/>
      <psa30 value="0.0018309760" flag="0"/>
    </comp>
  </station>
  <station code="ATFO" name="ATFO" netid="IV" insttype="" commtype="DIG" lat="43.3666" lon="12.5715">
    <comp name="--.HHE">
      <acc value="0.0239414933" flag="0"/>
      <vel value="0.0139085304" flag="0"/>
      <psa03 value="0.0733333597" flag="0"/>
      <psa10 value="0.0225087142" flag="0"/>
      <psa30 value="0.0014441751" flag="0"/>
    </comp>
    <comp name="--.HHN">
      <acc value="0.0236130858" flag="0"/>
      <vel value="0.0115794422" flag="0"/>
      <psa03 value="0.0853942501" flag="0"/>
      <psa10 value="0.0209745874" flag="0"/>
      <psa30 value="0.0012249902" flag="0"/>
    </comp>
    <comp name="--.HHZ">
      <acc value="0.0198552838" flag="0"/>
      <vel value="0.0102068824" flag="0"/>
      <psa03 value="0.0439002598" flag="0"/>
      <psa10 value="0.0086275213" flag="0"/>
      <psa30 value="0.0007821532" flag="0"/>
    </comp>
  </station>
  <station code="ATLO" name="ATLO" netid="IV" insttype="" commtype="DIG" lat="43.3152" lon="12.4073">
    <comp name="--.HNE">
      <acc value="0.0146383208" flag="0"/>
      <vel value="0.0099205587" flag="0"/>
      <psa03 value="0.0382112023" flag="0"/>
      <psa10 value="0.0156589892" flag="0"/>
      <psa30 value="0.0007209334" flag="0"/>
    </comp>
    <comp name="--.HNN">
      <acc value="0.0111580209" flag="0"/>
      <vel value="0.0080721955" flag="0"/>
      <psa03 value="0.0336185321" flag="0"/>
      <psa10 value="0.0176991203" flag="0"/>
      <psa30 value="0.0011772442" flag="0"/>
    </comp>
    <comp name="--.HNZ">
      <acc value="0.0019825047" flag="0"/>
      <vel value="0.0018862371" flag="0"/>
      <psa03 value="0.0063255056" flag="0"/>
      <psa10 value="0.0020087053" flag="0"/>
      <psa30 value="0.0003566621" flag="0"/>
    </comp>
  </station>
  <station code="ATMI" name="ATMI" netid="IV" insttype="" commtype="DIG" lat="43.3342" lon="12.268">
    <comp name="--.HHE">
      <acc value="0.0411175825" flag="0"/>
      <vel value="0.0237517778" flag="0"/>
      <psa03 value="0.1837948984" flag="0"/>
      <psa10 value="0.0252818183" flag="0"/>
      <psa30 value="0.0013884124" flag="0"/>
    </comp>
    <comp name="--.HHN">
      <acc value="0.0417185321" flag="0"/>
      <vel value="0.0346623287" flag="0"/>
      <psa03 value="0.1163273365" flag="0"/>
      <psa10 value="0.0478152307" flag="0"/>
      <psa30 value="0.0018915452" flag="0"/>
    </comp>
    <comp name="--.HHZ">
      <acc value="0.0143792214" flag="0"/>
      <vel value="0.0101701590" flag="0"/>
      <psa03 value="0.0643955054" flag="0"/>
      <psa10 value="0.0116210333" flag="0"/>
      <psa30 value="0.0005381190" flag="0"/>
    </comp>
  </station>
  <station code="ATPC" name="ATPC" netid="IV" insttype="" commtype="DIG" lat="43.4807" lon="12.457">
    <comp name="--.HHE">
      <acc value="0.0595973930" flag="0"/>
      <vel value="0.0290387789" flag="0"/>
      <psa03 value="0.1156133564" flag="0"/>
      <psa10 value="0.0299870830" flag="0"/>
      <psa30 value="0.0014842109" flag="0"/>
    </comp>
    <comp name="--.HHN">
      <acc value="0.0307758328" flag="0"/>
      <vel value="0.0258613600" flag="0"/>
      <psa03 value="0.0845278375" flag="0"/>
      <psa10 value="0.0256289470" flag="0"/>
      <psa30 value="0.0015088750" flag="0"/>
    </comp>
    <comp name="--.HHZ">
      <acc value="0.0191720119" flag="0"/>
      <vel value="0.0118986529" flag="0"/>
      <psa03 value="0.0601720038" flag="0"/>
      <psa10 value="0.0191461541" flag="0"/>
      <psa30 value="0.0008602077" flag="0"/>
    </comp>
  </station>
  <station code="ATPI" name="ATPI" netid="IV" insttype="" commtype="DIG" lat="43.4507" lon="12.4022">
    <comp name="--.HNE">
      <acc value="0.0194716399" flag="0"/>
      <vel value="0.0154250582" flag="0"/>
      <psa03 value="0.0635993382" flag="0"/>
      <psa10 value="0.0212347582" flag="0"/>
      <psa30 value="0.0014430338" flag="0"/>
    </comp>
    <comp name="--.HNN">
      <acc value="0.0189987871" flag="0"/>
      <vel value="0.0158371188" flag="0"/>
      <psa03 value="0.0488986730" flag="0"/>
      <psa10 value="0.0153681332" flag="0"/>
      <psa30 value="0.0017983150" flag="0"/>
    </comp>
    <comp name="--.HNZ">
      <acc value="0.0126061952" flag="0"/>
      <vel value="0.0070879504" flag="0"/>
      <psa03 value="0.0387074859" flag="0"/>
      <psa10 value="0.0112671952" flag="0"/>
      <psa30 value="0.0010688701" flag="0"/>
    </comp>
  </station>
  <station code="ATVO" name="ATVO" netid="IV" insttype="" commtype="DIG" lat="43.3821" lon="12.4066">
    <comp name="--.HHE">
      <acc value="0.0208748092" flag="0"/>
      <vel value="0.0167672792" flag="0"/>
      <psa03 value="0.0672227796" flag="0"/>
      <psa10 value="0.0331798993" flag="0"/>
      <psa30 value="0.0017961928" flag="0"/>
    </comp>
    <comp name="--.HHN">
      <acc value="0.0179606063" flag="0"/>
      <vel value="0.0204681175" flag="0"/>
      <psa03 value="0.0636899106" flag="0"/>
      <psa10 value="0.0378884750" flag="0"/>
      <psa30 value="0.0030117384" flag="0"/>
    </comp>
    <comp name="--.HHZ">
      <acc value="0.0106961055" flag="0"/>
      <vel value="0.0096404419" flag="0"/>
      <psa03 value="0.0277137410" flag="0"/>
      <psa10 value="0.0132302106" flag="0"/>
      <psa30 value="0.0014382104" flag="0"/>
    </comp>
  </station>
  <station code="BRSN" name="BRSN" netid="IV" insttype="" commtype="DIG" lat="44.2842" lon="12.0802">
    <comp name="--.HNE">
      <acc value="5.8836931099" flag="0"/>
      <vel value="1.5370384156" flag="0"/>
      <psa03 value="4.3260662218" flag="0"/>
      <psa10 value="0.5888125750" flag="0"/>
      <psa30 value="0.0373870506" flag="0"/>
    </comp>
    <comp name="--.HNN">
      <acc value="5.3055736317" flag="0"/>
      <vel value="1.4402246193" flag="0"/>
      <psa03 value="4.6137145827" flag="0"/>
      <psa10 value="0.6787698683" flag="0"/>
      <psa30 value="0.0494795868" flag="0"/>
    </comp>
    <comp name="--.HNZ">
      <acc value="2.6708023412" flag="0"/>
      <vel value="0.4173697506" flag="0"/>
      <psa03 value="1.6736450569" flag="0"/>
      <psa10 value="0.1008017295" flag="0"/>
      <psa30 value="0.0122364812" flag="0"/>
    </comp>
  </station>
  <station code="CRE" name="CRE" netid="IV" insttype="" commtype="DIG" lat="43.6189" lon="11.9517">
    <comp name="--.HHE">
      <acc value="0.0304025626" flag="0"/>
      <vel value="0.0152987381" flag="0"/>
      <psa03 value="0.1035966359" flag="0"/>
      <psa10 value="0.0178515216" flag="0"/>
      <psa30 value="0.0011550307" flag="0"/>
    </comp>
    <comp name="--.HHN">
      <acc value="0.0341134346" flag="0"/>
      <vel value="0.0193681741" flag="0"/>
      <psa03 value="0.1332037217" flag="0"/>
      <psa10 value="0.0110569874" flag="0"/>
      <psa30 value="0.0007601800" flag="0"/>
    </comp>
    <comp name="--.HHZ">
      <acc value="0.0204433454" flag="0"/>
      <vel value="0.0113354443" flag="0"/>
      <psa03 value="0.1033165170" flag="0"/>
      <psa10 value="0.0119047594" flag="0"/>
      <psa30 value="0.0008906694" flag="0"/>
    </comp>
  </station>
  <station code="CRMI" name="CRMI" netid="IV" insttype="" commtype="DIG" lat="43.7956" lon="10.9795">
    <comp name="--.HHE">
      <acc value="0.0067051288" flag="0"/>
      <vel value="0.0031667632" flag="0"/>
      <psa03 value="0.0176146450" flag="0"/>
      <psa10 value="0.0051963775" flag="0"/>
      <psa30 value="0.0003606294" flag="0"/>
    </comp>
    <comp name="--.HHN">
      <acc value="0.0088894509" flag="0"/>
      <vel value="0.0087252138" flag="0"/>
      <psa03 value="0.0180498049" flag="0"/>
      <psa10 value="0.0097929387" flag="0"/>
      <psa30 value="0.0007187614" flag="0"/>
    </comp>
    <comp name="--.HHZ">
      <acc value="0.0051059234" flag="0"/>
      <vel value="0.0027289534" flag="0"/>
      <psa03 value="0.0088930417" flag="0"/>
      <psa10 value="0.0029974390" flag="0"/>
      <psa30 value="0.0005387237" flag="0"/>
    </comp>
  </station>
  <station code="CRTC" name="CRTC" netid="IV" insttype="" commtype="DIG" lat="43.7685" lon="12.883">
    <comp name="--.HHE">
      <acc value="0.0693869294" flag="0"/>
      <vel value="0.0400289809" flag="0"/>
      <psa03 value="0.2215764400" flag="0"/>
      <psa10 value="0.0426491723" flag="0"/>
      <psa30 value="0.0022126362" flag="0"/>
    </comp>
    <comp name="--.HHZ">
      <acc value="0.0547597583" flag="0"/>
      <vel value="0.0359024720" flag="0"/>
      <psa03 value="0.1668933690" flag="0"/>
      <psa10 value="0.0352455863" flag="0"/>
      <psa30 value="0.0017044836" flag="0"/>
    </comp>
    <comp name="--.HHN">
      <acc value="0.0822695472" flag="0"/>
      <vel value="0.0516315158" flag="0"/>
      <psa03 value="0.2318156133" flag="0"/>
      <psa10 value="0.0472514142" flag="0"/>
      <psa30 value="0.0024788970" flag="0"/>
    </comp>
  </station>
  <station code="FAEN" name="FAEN" netid="IV" insttype="" commtype="DIG" lat="44.2895" lon="11.877">
    <comp name="--.HNE">
      <acc value="0.7106367017" flag="0"/>
      <vel value="0.2241840227" flag="0"/>
      <psa03 value="1.2086731699" flag="0"/>
      <psa10 value="0.2314666291" flag="0"/>
      <psa30 value="0.0219155716" flag="0"/>
    </comp>
    <comp name="--.HNN">
      <acc value="1.3295894998" flag="0"/>
      <vel value="0.5171663135" flag="0"/>
      <psa03 value="1.1147680694" flag="0"/>
      <psa10 value="0.3268944134" flag="0"/>
      <psa30 value="0.0234333255" flag="0"/>
    </comp>
    <comp name="--.HNZ">
      <acc value="0.5228676845" flag="0"/>
      <vel value="0.0811630513" flag="0"/>
      <psa03 value="0.1827970069" flag="0"/>
      <psa10 value="0.0207013508" flag="0"/>
      <psa30 value="0.0018552612" flag="0"/>
    </comp>
  </station>
  <station code="IMOL" name="IMOL" netid="IV" insttype="" commtype="DIG" lat="44.3595" lon="11.7425">
    <comp name="--.HNE">
      <acc value="0.5755410422" flag="0"/>
      <vel value="0.1660901433" flag="0"/>
      <psa03 value="0.8459485163" flag="0"/>
      <psa10 value="0.0712830301" flag="0"/>
      <psa30 value="0.0093806205" flag="0"/>
    </comp>
    <comp name="--.HNN">
      <acc value="0.4401967286" flag="0"/>
      <vel value="0.1871360819" flag="0"/>
      <psa03 value="0.7606690856" flag="0"/>
      <psa10 value="0.0727149362" flag="0"/>
      <psa30 value="0.0067220448" flag="0"/>
    </comp>
    <comp name="--.HNZ">
      <acc value="0.4742569258" flag="0"/>
      <vel value="0.0737374383" flag="0"/>
      <psa03 value="0.1210467339" flag="0"/>
      <psa10 value="0.0233689074" flag="0"/>
      <psa30 value="0.0024421739" flag="0"/>
    </comp>
  </station>
  <station code="LMD" name="LMD" netid="IV" insttype="" commtype="DIG" lat="44.0775" lon="11.7073">
    <comp name="--.HHE">
      <acc value="0.2900245791" flag="0"/>
      <vel value="0.0832496866" flag="0"/>
      <psa03 value="0.3423042281" flag="0"/>
      <psa10 value="0.0460978602" flag="0"/>
      <psa30 value="0.0042208482" flag="0"/>
    </comp>
    <comp name="--.HHN">
      <acc value="0.3155424651" flag="0"/>
      <vel value="0.1016800997" flag="0"/>
      <psa03 value="0.3620140009" flag="0"/>
      <psa10 value="0.0434340912" flag="0"/>
      <psa30 value="0.0055137970" flag="0"/>
    </comp>
    <comp name="--.HHZ">
      <acc value="0.0931068367" flag="0"/>
      <vel value="0.0328616294" flag="0"/>
      <psa03 value="0.1392326102" flag="0"/>
      <psa10 value="0.0371206136" flag="0"/>
      <psa30 value="0.0029078924" flag="0"/>
    </comp>
  </station>
  <station code="MTRZ" name="MTRZ" netid="IV" insttype="" commtype="DIG" lat="44.3128" lon="11.4248">
    <comp name="--.HNE">
      <acc value="0.0483043999" flag="0"/>
      <vel value="0.0284810287" flag="0"/>
      <psa03 value="0.2046993205" flag="0"/>
      <psa10 value="0.0287859475" flag="0"/>
      <psa30 value="0.0022140704" flag="0"/>
    </comp>
    <comp name="--.HNN">
      <acc value="0.0435891952" flag="0"/>
      <vel value="0.0229442958" flag="0"/>
      <psa03 value="0.1602277537" flag="0"/>
      <psa10 value="0.0252845484" flag="0"/>
      <psa30 value="0.0023765979" flag="0"/>
    </comp>
    <comp name="--.HNZ">
      <acc value="0.0247948091" flag="0"/>
      <vel value="0.0147764025" flag="0"/>
      <psa03 value="0.0953085299" flag="0"/>
      <psa10 value="0.0127955761" flag="0"/>
      <psa30 value="0.0011877021" flag="0"/>
    </comp>
  </station>
  <station code="MURB" name="MURB" netid="IV" insttype="" commtype="DIG" lat="43.263" lon="12.5246">
    <comp name="--.HHE">
      <acc value="0.0538429533" flag="0"/>
      <vel value="0.0334886331" flag="0"/>
      <psa03 value="0.2341336517" flag="0"/>
      <psa10 value="0.0363767419" flag="0"/>
      <psa30 value="0.0018855293" flag="0"/>
    </comp>
    <comp name="--.HHN">
      <acc value="0.0572538637" flag="0"/>
      <vel value="0.0363490964" flag="0"/>
      <psa03 value="0.2984826759" flag="0"/>
      <psa10 value="0.0274594527" flag="0"/>
      <psa30 value="0.0023993404" flag="0"/>
    </comp>
    <comp name="--.HHZ">
      <acc value="0.0181816405" flag="0"/>
      <vel value="0.0135894495" flag="0"/>
      <psa03 value="0.0506220299" flag="0"/>
      <psa10 value="0.0249516339" flag="0"/>
      <psa30 value="0.0022079313" flag="0"/>
    </comp>
  </station>
  <station code="PESA" name="PESA" netid="IV" insttype="" commtype="DIG" lat="43.941" lon="12.8402">
    <comp name="--.HHE">
      <acc value="0.2314294270" flag="0"/>
      <vel value="0.0540414057" flag="0"/>
      <psa03 value="0.3257604352" flag="0"/>
      <psa10 value="0.0240898497" flag="0"/>
      <psa30 value="0.0017147436" flag="0"/>
    </comp>
    <comp name="--.HHN">
      <acc value="0.1976205369" flag="0"/>
      <vel value="0.0502279557" flag="0"/>
      <psa03 value="0.2308681710" flag="0"/>
      <psa10 value="0.0480552778" flag="0"/>
      <psa30 value="0.0028633734" flag="0"/>
    </comp>
    <comp name="--.HHZ">
      <acc value="0.0604686445" flag="0"/>
      <vel value="0.0254434885" flag="0"/>
      <psa03 value="0.1069777262" flag="0"/>
      <psa10 value="0.0084104590" flag="0"/>
      <psa30 value="0.0009982111" flag="0"/>
    </comp>
  </station>
  <station code="PIEI" name="PIEI" netid="IV" insttype="" commtype="DIG" lat="43.5357" lon="12.535">
    <comp name="--.HHN">
      <acc value="0.0368101127" flag="0"/>
      <vel value="0.0194859039" flag="0"/>
      <psa03 value="0.0956470319" flag="0"/>
      <psa10 value="0.0126259726" flag="0"/>
      <psa30 value="0.0009387486" flag="0"/>
    </comp>
    <comp name="--.HHE">
      <acc value="0.0693307047" flag="0"/>
      <vel value="0.0297726431" flag="0"/>
      <psa03 value="0.2267106853" flag="0"/>
      <psa10 value="0.0258987584" flag="0"/>
      <psa30 value="0.0012393103" flag="0"/>
    </comp>
    <comp name="--.HHZ">
      <acc value="0.0291267445" flag="0"/>
      <vel value="0.0154248172" flag="0"/>
      <psa03 value="0.0777700199" flag="0"/>
      <psa10 value="0.0111588537" flag="0"/>
      <psa30 value="0.0009889415" flag="0"/>
    </comp>
  </station>
  <station code="SERM" name="SERM" netid="IV" insttype="" commtype="DIG" lat="45.01" lon="11.2958">
    <comp name="--.HNE">
      <acc value="0.0794873024" flag="0"/>
      <vel value="0.0372058216" flag="0"/>
      <psa03 value="0.2389703517" flag="0"/>
      <psa10 value="0.0429541309" flag="0"/>
      <psa30 value="0.0039263399" flag="0"/>
    </comp>
    <comp name="--.HNZ">
      <acc value="0.0548500692" flag="0"/>
      <vel value="0.0171650272" flag="0"/>
      <psa03 value="0.0823967206" flag="0"/>
      <psa10 value="0.0084703768" flag="0"/>
      <psa30 value="0.0015215945" flag="0"/>
    </comp>
    <comp name="--.HNN">
      <acc value="0.1025245608" flag="0"/>
      <vel value="0.0421033821" flag="0"/>
      <psa03 value="0.2510958867" flag="0"/>
      <psa10 value="0.0365407601" flag="0"/>
      <psa30 value="0.0046603569" flag="0"/>
    </comp>
  </station>
  <station code="SSFR" name="SSFR" netid="IV" insttype="" commtype="DIG" lat="43.4363" lon="12.7822">
    <comp name="--.HHZ">
      <acc value="0.0271690185" flag="0"/>
      <vel value="0.0116466629" flag="0"/>
      <psa03 value="0.0617602374" flag="0"/>
      <psa10 value="0.0055260182" flag="0"/>
      <psa30 value="0.0009396436" flag="0"/>
    </comp>
    <comp name="--.HHN">
      <acc value="0.0664256733" flag="0"/>
      <vel value="0.0280213128" flag="0"/>
      <psa03 value="0.1841359649" flag="0"/>
      <psa10 value="0.0137719338" flag="0"/>
      <psa30 value="0.0010145114" flag="0"/>
    </comp>
    <comp name="--.HHE">
      <acc value="0.0910188528" flag="0"/>
      <vel value="0.0325970229" flag="0"/>
      <psa03 value="0.2586646963" flag="0"/>
      <psa10 value="0.0094109816" flag="0"/>
      <psa30 value="0.0015285692" flag="0"/>
    </comp>
  </station>
  <station code="TEOL" name="TEOL" netid="IV" insttype="" commtype="DIG" lat="45.3617" lon="11.6739">
    <comp name="--.HHE">
      <acc value="0.0393921989" flag="0"/>
      <vel value="0.0231343269" flag="0"/>
      <psa03 value="0.0656352094" flag="0"/>
