<stationlist created="1770373843">
	<station code="FIVI" name="FIVI" netid="GU" source="Regional Seismic Network of North Western Italy (RSNI)" insttype="" lat="44.2394" lon="10.1271">
		<comp name="--.HNE" depth="0.0">
			<acc value="0.0061030375917804" flag="0"/>
			<vel value="0.00494046807336" flag="0"/>
			<psa03 value="0.00978504144015273" flag="0"/>
			<psa10 value="0.0049558206425526" flag="0"/>
			<psa30 value="0.000967612328736819" flag="0"/>
		</comp>
		<comp name="--.HNN" depth="0.0">
			<acc value="0.0060058677210984" flag="0"/>
			<vel value="0.00416409772406" flag="0"/>
			<psa03 value="0.0108992044406781" flag="0"/>
			<psa10 value="0.00544615062450477" flag="0"/>
			<psa30 value="0.000659267423229299" flag="0"/>
		</comp>
		<comp name="--.HNZ" depth="0.0">
			<acc value="0.006887146386051" flag="0"/>
			<vel value="0.00306030856279" flag="0"/>
			<psa03 value="0.00522732317251" flag="0"/>
			<psa10 value="0.00566130894018645" flag="0"/>
			<psa30 value="0.00116553210661718" flag="0"/>
		</comp>
	</station>
	<station code="ALF" name="ALF" netid="IT" source="Italian Strong Motion Network (RAN)" insttype="" lat="44.5022" lon="12.0334">
		<comp name="--.HGE" depth="0.0">
			<acc value="0.4027192767366" flag="0"/>
			<vel value="0.290229291089" flag="0"/>
			<psa03 value="0.680027298470773" flag="0"/>
			<psa10 value="0.49881751421239" flag="0"/>
			<psa30 value="0.0216686737766369" flag="0"/>
		</comp>
		<comp name="--.HGN" depth="0.0">
			<acc value="0.43531163888916" flag="0"/>
			<vel value="0.271133910586" flag="0"/>
			<psa03 value="0.918258663462649" flag="0"/>
			<psa10 value="0.263630734242493" flag="0"/>
			<psa30 value="0.0485811782645274" flag="0"/>
		</comp>
		<comp name="--.HGZ" depth="0.0">
			<acc value="0.39072222916776" flag="0"/>
			<vel value="0.091272181476" flag="0"/>
			<psa03 value="0.33201916130659" flag="0"/>
			<psa10 value="0.0517339946231984" flag="0"/>
			<psa30 value="0.0032711787828749" flag="0"/>
		</comp>
	</station>
	<station code="BRH" name="BRH" netid="IT" source="Italian Strong Motion Network (RAN)" insttype="" lat="44.2076" lon="11.7639">
		<comp name="--.HGE" depth="0.0">
			<acc value="0.70992794748504" flag="0"/>
			<vel value="0.225957747063" flag="0"/>
			<psa03 value="0.849721456540881" flag="0"/>
			<psa10 value="0.0744832191475677" flag="0"/>
			<psa30 value="0.00655252948959478" flag="0"/>
		</comp>
		<comp name="--.HGN" depth="0.0">
			<acc value="1.0374568736706" flag="0"/>
			<vel value="0.302498523007" flag="0"/>
			<psa03 value="1.13165221640497" flag="0"/>
			<psa10 value="0.0921819916046344" flag="0"/>
			<psa30 value="0.00907466948562898" flag="0"/>
		</comp>
		<comp name="--.HGZ" depth="0.0">
			<acc value="0.27674490962394" flag="0"/>
			<vel value="0.0832980629111" flag="0"/>
			<psa03 value="0.272897932315516" flag="0"/>
			<psa10 value="0.0787700006259012" flag="0"/>
			<psa30 value="0.00431430163464463" flag="0"/>
		</comp>
	</station>
	<station code="BSZ" name="BSZ" netid="IT" source="Italian Strong Motion Network (RAN)" insttype="" lat="44.031" lon="11.467">
		<comp name="--.HNE" depth="0.0">
			<acc value="0.043460154523926" flag="0"/>
			<vel value="0.0119627759555" flag="0"/>
			<psa03 value="0.0295645809042342" flag="0"/>
			<psa10 value="0.0127805700875458" flag="0"/>
			<psa30 value="0.00181829378637148" flag="0"/>
		</comp>
		<comp name="--.HNN" depth="0.0">
			<acc value="0.0382501277142" flag="0"/>
			<vel value="0.0139460463406" flag="0"/>
			<psa03 value="0.0388773098059824" flag="0"/>
			<psa10 value="0.0176916919877822" flag="0"/>
			<psa30 value="0.00180836396190406" flag="0"/>
		</comp>
		<comp name="--.HNZ" depth="0.0">
			<acc value="0.024905294359896" flag="0"/>
			<vel value="0.013526171026" flag="0"/>
			<psa03 value="0.0442159186709566" flag="0"/>
			<psa10 value="0.0153664095117292" flag="0"/>
			<psa30 value="0.00158839022305885" flag="0"/>
		</comp>
	</station>
	<station code="CES" name="CES" netid="IT" source="Italian Strong Motion Network (RAN)" insttype="" lat="44.2103" lon="12.3867">
		<comp name="--.HNE" depth="0.0">
			<acc value="0.23609948434482" flag="0"/>
			<vel value="0.128193413331" flag="0"/>
			<psa03 value="0.562953834595939" flag="0"/>
			<psa10 value="0.0732520125863618" flag="0"/>
			<psa30 value="0.0101395658631296" flag="0"/>
		</comp>
		<comp name="--.HNN" depth="0.0">
			<acc value="0.20979701943678" flag="0"/>
			<vel value="0.115882524882" flag="0"/>
			<psa03 value="0.467269454307778" flag="0"/>
			<psa10 value="0.0937126105003891" flag="0"/>
			<psa30 value="0.0098980648648891" flag="0"/>
		</comp>
		<comp name="--.HNZ" depth="0.0">
			<acc value="0.2490142918689" flag="0"/>
			<vel value="0.045674341387" flag="0"/>
			<psa03 value="0.328400025723482" flag="0"/>
			<psa10 value="0.0159188407950729" flag="0"/>
			<psa30 value="0.00249301598340821" flag="0"/>
		</comp>
	</station>
	<station code="CSN" name="CSN" netid="IT" source="Italian Strong Motion Network (RAN)" insttype="" lat="44.137" lon="12.2414">
		<comp name="--.HNE" depth="0.0">
			<acc value="1.2236884203552" flag="0"/>
			<vel value="0.217227783749" flag="0"/>
			<psa03 value="1.6701083031442" flag="0"/>
			<psa10 value="0.0944178372181526" flag="0"/>
			<psa30 value="0.00633307578520238" flag="0"/>
		</comp>
		<comp name="--.HNN" depth="0.0">
			<acc value="0.86398596947832" flag="0"/>
			<vel value="0.259960374512" flag="0"/>
			<psa03 value="1.48302040948851" flag="0"/>
			<psa10 value="0.0981754586421419" flag="0"/>
			<psa30 value="0.00766155670720925" flag="0"/>
		</comp>
		<comp name="--.HNZ" depth="0.0">
			<acc value="0.56699025548694" flag="0"/>
			<vel value="0.174363594583" flag="0"/>
			<psa03 value="1.08658356415959" flag="0"/>
			<psa10 value="0.0419998385332899" flag="0"/>
			<psa30 value="0.00395501366691384" flag="0"/>
		</comp>
	</station>
	<station code="CSP" name="CSP" netid="IT" source="Italian Strong Motion Network (RAN)" insttype="" lat="44.3784" lon="11.5801">
		<comp name="--.HGE" depth="0.0">
			<acc value="0.055643832946674" flag="0"/>
			<vel value="0.049085070612" flag="0"/>
			<psa03 value="0.16739323481353" flag="0"/>
			<psa10 value="0.0811656443256435" flag="0"/>
			<psa30 value="0.00516918743331986" flag="0"/>
		</comp>
		<comp name="--.HGN" depth="0.0">
			<acc value="0.061686727635426" flag="0"/>
			<vel value="0.0453743633572" flag="0"/>
			<psa03 value="0.177521926623067" flag="0"/>
			<psa10 value="0.0886420796028195" flag="0"/>
			<psa30 value="0.00482113229302246" flag="0"/>
		</comp>
		<comp name="--.HGZ" depth="0.0">
			<acc value="0.037984583130252" flag="0"/>
			<vel value="0.0265260698871" flag="0"/>
			<psa03 value="0.0989718063964834" flag="0"/>
			<psa10 value="0.0506248811499025" flag="0"/>
			<psa30 value="0.00255550866490765" flag="0"/>
		</comp>
	</station>
	<station code="CVT" name="CVT" netid="IT" source="Italian Strong Motion Network (RAN)" insttype="" lat="44.0061" lon="11.9368">
		<comp name="--.HGE" depth="0.0">
			<acc value="0.38313971335512" flag="0"/>
			<vel value="0.128217243407" flag="0"/>
			<psa03 value="0.72270420893888" flag="0"/>
			<psa10 value="0.0786519803077276" flag="0"/>
			<psa30 value="0.00395101340191427" flag="0"/>
		</comp>
		<comp name="--.HGN" depth="0.0">
			<acc value="0.54581359161762" flag="0"/>
			<vel value="0.14424256044" flag="0"/>
			<psa03 value="0.786426680241667" flag="0"/>
			<psa10 value="0.066585368453727" flag="0"/>
			<psa30 value="0.00765786896290773" flag="0"/>
		</comp>
		<comp name="--.HGZ" depth="0.0">
			<acc value="0.14258795326386" flag="0"/>
			<vel value="0.0613668260365" flag="0"/>
			<psa03 value="0.244544804059723" flag="0"/>
			<psa10 value="0.0833315253045576" flag="0"/>
			<psa30 value="0.00285467660831595" flag="0"/>
		</comp>
	</station>
	<station code="FAZ" name="FAZ" netid="IT" source="Italian Strong Motion Network (RAN)" insttype="" lat="44.298" lon="11.8907">
		<comp name="--.HNE" depth="0.0">
			<acc value="1.0978160986458" flag="0"/>
			<vel value="0.52548503611" flag="0"/>
			<psa03 value="2.07383954835902" flag="0"/>
			<psa10 value="0.250083096777942" flag="0"/>
			<psa30 value="0.0348192166022371" flag="0"/>
		</comp>
		<comp name="--.HNN" depth="0.0">
			<acc value="1.4758861816686" flag="0"/>
			<vel value="0.495347448435" flag="0"/>
			<psa03 value="2.20809210859983" flag="0"/>
			<psa10 value="0.157744749815456" flag="0"/>
			<psa30 value="0.0170484710441862" flag="0"/>
		</comp>
		<comp name="--.HNZ" depth="0.0">
			<acc value="2.5779593030178" flag="0"/>
			<vel value="0.426319108539" flag="0"/>
			<psa03 value="0.49927386611206" flag="0"/>
			<psa10 value="0.0764010061918834" flag="0"/>
			<psa30 value="0.00650166070309441" flag="0"/>
		</comp>
	</station>
	<station code="FOR" name="FOR" netid="IT" source="Italian Strong Motion Network (RAN)" insttype="" lat="44.1994" lon="12.0419">
		<comp name="--.HNE" depth="0.0">
			<acc value="5.3995856766336" flag="0"/>
			<vel value="1.0737051998" flag="0"/>
			<psa03 value="3.30313114956011" flag="0"/>
			<psa10 value="0.211197190777349" flag="0"/>
			<psa30 value="0.0203024016011269" flag="0"/>
		</comp>
		<comp name="--.HNN" depth="0.0">
			<acc value="5.9272184389512" flag="0"/>
			<vel value="1.2680637725" flag="0"/>
			<psa03 value="5.60207377656039" flag="0"/>
			<psa10 value="0.425979799070142" flag="0"/>
			<psa30 value="0.0474496433061844" flag="0"/>
		</comp>
		<comp name="--.HNZ" depth="0.0">
			<acc value="6.093474701406" flag="0"/>
			<vel value="1.15725893019" flag="0"/>
			<psa03 value="3.03020073592562" flag="0"/>
			<psa10 value="0.195314543629816" flag="0"/>
			<psa30 value="0.0146542707735322" flag="0"/>
		</comp>
	</station>
	<station code="FRE" name="FRE" netid="IT" source="Italian Strong Motion Network (RAN)" insttype="" lat="44.1214" lon="11.3978">
		<comp name="--.HNE" depth="0.0">
			<acc value="0.022775725377948" flag="0"/>
			<vel value="0.00917400936062" flag="0"/>
			<psa03 value="0.0295114419673415" flag="0"/>
			<psa10 value="0.00697773333434232" flag="0"/>
			<psa30 value="0.0012307402805055" flag="0"/>
		</comp>
		<comp name="--.HNN" depth="0.0">
			<acc value="0.04221023964423" flag="0"/>
			<vel value="0.0115481683514" flag="0"/>
			<psa03 value="0.0428221075878109" flag="0"/>
			<psa10 value="0.0128164571523993" flag="0"/>
			<psa30 value="0.000831496592986861" flag="0"/>
		</comp>
		<comp name="--.HNZ" depth="0.0">
			<acc value="0.025807857382362" flag="0"/>
			<vel value="0.00787898853831" flag="0"/>
			<psa03 value="0.0288679774660001" flag="0"/>
			<psa10 value="0.0109953974536373" flag="0"/>
			<psa30 value="0.00172418432291522" flag="0"/>
		</comp>
	</station>
	<station code="MCS" name="MCS" netid="IT" source="Italian Strong Motion Network (RAN)" insttype="" lat="43.9937" lon="12.1067">
		<comp name="--.HGE" depth="0.0">
			<acc value="0.61794282596328" flag="0"/>
			<vel value="0.224907857472" flag="0"/>
			<psa03 value="1.92709099365618" flag="0"/>
			<psa10 value="0.0684039914285795" flag="0"/>
			<psa30 value="0.00556805593969125" flag="0"/>
		</comp>
		<comp name="--.HGN" depth="0.0">
			<acc value="0.66001172819724" flag="0"/>
			<vel value="0.193772174862" flag="0"/>
			<psa03 value="0.895674667383302" flag="0"/>
			<psa10 value="0.065073380791996" flag="0"/>
			<psa30 value="0.00458955820239308" flag="0"/>
		</comp>
		<comp name="--.HGZ" depth="0.0">
			<acc value="0.28501088439258" flag="0"/>
			<vel value="0.112184588983" flag="0"/>
			<psa03 value="0.438724021646625" flag="0"/>
			<psa10 value="0.0529349929334111" flag="0"/>
			<psa30 value="0.00377102272841665" flag="0"/>
		</comp>
	</station>
	<station code="MDG" name="MDG" netid="IT" source="Italian Strong Motion Network (RAN)" insttype="" lat="44.1592" lon="11.7885">
		<comp name="--.HGE" depth="0.0">
			<acc value="1.1821777731768" flag="0"/>
			<vel value="0.294943799107" flag="0"/>
			<psa03 value="1.20214046924113" flag="0"/>
			<psa10 value="0.0682938766341591" flag="0"/>
			<psa30 value="0.00764965758559099" flag="0"/>
		</comp>
		<comp name="--.HGN" depth="0.0">
			<acc value="2.7325073237352" flag="0"/>
			<vel value="0.647561075199" flag="0"/>
			<psa03 value="1.30139212750658" flag="0"/>
			<psa10 value="0.114659900655617" flag="0"/>
			<psa30 value="0.00932515607916625" flag="0"/>
		</comp>
		<comp name="--.HGZ" depth="0.0">
			<acc value="0.80771990267958" flag="0"/>
			<vel value="0.166035473083" flag="0"/>
			<psa03 value="0.332232592112126" flag="0"/>
			<psa10 value="0.0577523595605815" flag="0"/>
			<psa30 value="0.00357274125990706" flag="0"/>
		</comp>
	</station>
	<station code="MDT" name="MDT" netid="IT" source="Italian Strong Motion Network (RAN)" insttype="" lat="44.135" lon="11.8297">
		<comp name="--.HGE" depth="0.0">
			<acc value="0.46340829165222" flag="0"/>
			<vel value="0.180627713321" flag="0"/>
			<psa03 value="0.636102680345997" flag="0"/>
			<psa10 value="0.13395483885076" flag="0"/>
			<psa30 value="0.00805850383633978" flag="0"/>
		</comp>
		<comp name="--.HGN" depth="0.0">
			<acc value="0.56394929669088" flag="0"/>
			<vel value="0.231651527972" flag="0"/>
			<psa03 value="0.976325176750086" flag="0"/>
			<psa10 value="0.13204378725286" flag="0"/>
			<psa30 value="0.0114381102186651" flag="0"/>
		</comp>
		<comp name="--.HGZ" depth="0.0">
			<acc value="0.43545977993556" flag="0"/>
			<vel value="0.121376122184" flag="0"/>
			<psa03 value="0.542409390291893" flag="0"/>
			<psa10 value="0.103697406944276" flag="0"/>
			<psa30 value="0.0062062861360064" flag="0"/>
		</comp>
	</station>
	<station code="MLD" name="MLD" netid="IT" source="Italian Strong Motion Network (RAN)" insttype="" lat="44.1184" lon="12.071">
		<comp name="--.HGE" depth="0.0">
			<acc value="2.345101117095" flag="0"/>
			<vel value="0.991611790893" flag="0"/>
			<psa03 value="5.50126776533914" flag="0"/>
			<psa10 value="0.217528675207271" flag="0"/>
			<psa30 value="0.0202923692698704" flag="0"/>
		</comp>
		<comp name="--.HGN" depth="0.0">
			<acc value="2.4032604214008" flag="0"/>
			<vel value="0.930358263245" flag="0"/>
			<psa03 value="5.34787960409873" flag="0"/>
			<psa10 value="0.308229438687614" flag="0"/>
			<psa30 value="0.0196550287158691" flag="0"/>
		</comp>
		<comp name="--.HGZ" depth="0.0">
			<acc value="1.2270144650784" flag="0"/>
			<vel value="0.334229716966" flag="0"/>
			<psa03 value="1.54286387382482" flag="0"/>
			<psa10 value="0.122292518779372" flag="0"/>
			<psa30 value="0.00821932949024635" flag="0"/>
		</comp>
	</station>
	<station code="MOG" name="MOG" netid="IT" source="Italian Strong Motion Network (RAN)" insttype="" lat="44.1703" lon="11.7669">
		<comp name="--.HNE" depth="0.0">
			<acc value="1.131415137438" flag="0"/>
			<vel value="0.362621360048" flag="0"/>
			<psa03 value="1.02174035194954" flag="0"/>
			<psa10 value="0.0898430666621569" flag="0"/>
			<psa30 value="0.0101718705031447" flag="0"/>
		</comp>
		<comp name="--.HNN" depth="0.0">
			<acc value="1.337279735076" flag="0"/>
			<vel value="0.364409819324" flag="0"/>
			<psa03 value="0.965929071394287" flag="0"/>
			<psa10 value="0.112078724665317" flag="0"/>
			<psa30 value="0.0102305935599479" flag="0"/>
		</comp>
		<comp name="--.HNZ" depth="0.0">
			<acc value="0.38883029541348" flag="0"/>
			<vel value="0.103389275974" flag="0"/>
			<psa03 value="0.521556758908066" flag="0"/>
			<psa10 value="0.0674900108818727" flag="0"/>
			<psa30 value="0.00468155846359911" flag="0"/>
		</comp>
	</station>
	<station code="MRR" name="MRR" netid="IT" source="Italian Strong Motion Network (RAN)" insttype="" lat="44.0641" lon="11.6033">
		<comp name="--.HGE" depth="0.0">
			<acc value="0.23499262591434" flag="0"/>
			<vel value="0.0727603099124" flag="0"/>
			<psa03 value="0.292951448262524" flag="0"/>
			<psa10 value="0.0355881287888587" flag="0"/>
			<psa30 value="0.00434808262246861" flag="0"/>
		</comp>
		<comp name="--.HGN" depth="0.0">
			<acc value="0.22500652738176" flag="0"/>
			<vel value="0.0677665192075" flag="0"/>
			<psa03 value="0.271907450034197" flag="0"/>
			<psa10 value="0.0204716855236807" flag="0"/>
			<psa30 value="0.00225719119450353" flag="0"/>
		</comp>
		<comp name="--.HGZ" depth="0.0">
			<acc value="0.1165939281336" flag="0"/>
			<vel value="0.0310300569703" flag="0"/>
			<psa03 value="0.0830257292135786" flag="0"/>
			<psa10 value="0.0196451870222379" flag="0"/>
			<psa30 value="0.00282723333200154" flag="0"/>
		</comp>
	</station>
	<station code="PRM" name="PRM" netid="IT" source="Italian Strong Motion Network (RAN)" insttype="" lat="43.9792" lon="11.7814">
		<comp name="--.HGE" depth="0.0">
			<acc value="0.29548298694372" flag="0"/>
			<vel value="0.0567985125655" flag="0"/>
			<psa03 value="0.200721921842195" flag="0"/>
			<psa10 value="0.0258937272073616" flag="0"/>
			<psa30 value="0.00217246391507119" flag="0"/>
		</comp>
		<comp name="--.HGN" depth="0.0">
			<acc value="0.21923513875998" flag="0"/>
			<vel value="0.0417698749878" flag="0"/>
			<psa03 value="0.146447086817487" flag="0"/>
			<psa10 value="0.0364243104318118" flag="0"/>
			<psa30 value="0.00304201964387245" flag="0"/>
		</comp>
		<comp name="--.HGZ" depth="0.0">
			<acc value="0.085482397082388" flag="0"/>
			<vel value="0.035554604061" flag="0"/>
			<psa03 value="0.10964733651438" flag="0"/>
			<psa10 value="0.0299140872864772" flag="0"/>
			<psa30 value="0.00405155297883419" flag="0"/>
		</comp>
	</station>
	<station code="RINI" name="RINI" netid="IT" source="Italian Strong Motion Network (RAN)" insttype="" lat="44.0577" lon="12.5382">
		<comp name="--.HNE" depth="0.0">
			<acc value="0.086896238566632" flag="0"/>
			<vel value="0.0604273726355" flag="0"/>
			<psa03 value="0.374673570285439" flag="0"/>
			<psa10 value="0.129349083741833" flag="0"/>
			<psa30 value="0.00562244745953492" flag="0"/>
		</comp>
		<comp name="--.HNN" depth="0.0">
			<acc value="0.088547773511262" flag="0"/>
			<vel value="0.0613760705514" flag="0"/>
			<psa03 value="0.363495288112391" flag="0"/>
			<psa10 value="0.111188873217266" flag="0"/>
			<psa30 value="0.00598541025404475" flag="0"/>
		</comp>
		<comp name="--.HNZ" depth="0.0">
			<acc value="0.04836563390535" flag="0"/>
			<vel value="0.0219192231696" flag="0"/>
			<psa03 value="0.157878864949946" flag="0"/>
			<psa10 value="0.0333293016526746" flag="0"/>
			<psa30 value="0.00230406867490637" flag="0"/>
		</comp>
	</station>
	<station code="STF" name="STF" netid="IT" source="Italian Strong Motion Network (RAN)" insttype="" lat="43.9081" lon="11.7944">
		<comp name="--.HNE" depth="0.0">
			<acc value="0.11646895529988" flag="0"/>
			<vel value="0.04707249747" flag="0"/>
			<psa03 value="0.234176867234808" flag="0"/>
			<psa10 value="0.0382195881101407" flag="0"/>
			<psa30 value="0.00152651935358386" flag="0"/>
		</comp>
		<comp name="--.HNN" depth="0.0">
			<acc value="0.092538543173802" flag="0"/>
			<vel value="0.0298631061341" flag="0"/>
			<psa03 value="0.154152399339706" flag="0"/>
			<psa10 value="0.0300202980723976" flag="0"/>
			<psa30 value="0.00237915052371225" flag="0"/>
		</comp>
		<comp name="--.HNZ" depth="0.0">
			<acc value="0.060641453514426" flag="0"/>
			<vel value="0.0217448566335" flag="0"/>
			<psa03 value="0.11869191484022" flag="0"/>
			<psa10 value="0.0228035862506863" flag="0"/>
			<psa30 value="0.00167965397716423" flag="0"/>
		</comp>
	</station>
	<station code="STS" name="STS" netid="IT" source="Italian Strong Motion Network (RAN)" insttype="" lat="43.9424" lon="11.905">
		<comp name="--.HGE" depth="0.0">
			<acc value="0.22167441972348" flag="0"/>
			<vel value="0.0676976643687" flag="0"/>
			<psa03 value="0.399133815656323" flag="0"/>
			<psa10 value="0.0525401255253987" flag="0"/>
			<psa30 value="0.00298184253243164" flag="0"/>
		</comp>
		<comp name="--.HGN" depth="0.0">
			<acc value="0.1929449057103" flag="0"/>
			<vel value="0.0578133122772" flag="0"/>
			<psa03 value="0.479067944233635" flag="0"/>
			<psa10 value="0.0443746796046436" flag="0"/>
