<?xml version="1.0" encoding="UTF-8" standalone="yes"?>
<!DOCTYPE earthquake SYSTEM "stationlist.dtd">
<stationlist created="" xmlns="ch.ethz.sed.shakemap.usgs.xml">
  <station code="THERA" name="THERA" netid="GE" insttype="STS-2/N" lat="36.367" lon="25.4753">
    <comp name="--.HHE">
      <acc value="0.2686596838" flag="0"/>
      <vel value="0.1261223908" flag="0"/>
      <psa03 value="0.3918333222" flag="0"/>
      <psa10 value="0.0859323483" flag="0"/>
      <psa30 value="0.0064718087" flag="0"/>
    </comp>
    <comp name="--.HHN">
      <acc value="0.1658755757" flag="0"/>
      <vel value="0.0591421048" flag="0"/>
      <psa03 value="0.2551154179" flag="0"/>
      <psa10 value="0.0352149454" flag="0"/>
      <psa30 value="0.0024199843" flag="0"/>
    </comp>
    <comp name="--.HHZ">
      <acc value="0.3000981847" flag="0"/>
      <vel value="0.1053585318" flag="0"/>
      <psa03 value="0.3655686115" flag="0"/>
      <psa10 value="0.0589501455" flag="0"/>
      <psa30 value="0.0035519644" flag="0"/>
    </comp>
  </station>
  <station code="ZKR" name="ZKR" netid="GE" insttype="STS-2/N" lat="35.1147" lon="26.2169">
    <comp name="--.HHN">
      <acc value="0.0272263495" flag="0"/>
      <vel value="0.0134619041" flag="0"/>
      <psa03 value="0.0826375874" flag="0"/>
      <psa10 value="0.0166203897" flag="0"/>
      <psa30 value="0.0023692631" flag="0"/>
    </comp>
    <comp name="--.HHE">
      <acc value="0.0624407945" flag="0"/>
      <vel value="0.0287032175" flag="0"/>
      <psa03 value="0.1617543705" flag="0"/>
      <psa10 value="0.0278782019" flag="0"/>
      <psa30 value="0.0073407159" flag="0"/>
    </comp>
    <comp name="--.HHZ">
      <acc value="0.0377129315" flag="0"/>
      <vel value="0.0149558949" flag="0"/>
      <psa03 value="0.1385540391" flag="0"/>
      <psa10 value="0.0206421452" flag="0"/>
      <psa30 value="0.0028571242" flag="0"/>
    </comp>
  </station>
</stationlist>
