<?xml version="1.0" encoding="UTF-8" standalone="yes"?>
<!DOCTYPE earthquake SYSTEM "stationlist.dtd">
<stationlist created="" xmlns="ch.ethz.sed.shakemap.usgs.xml">
  <station code="THERA" name="THERA" netid="GE" insttype="STS-2/N" lat="36.367" lon="25.4753">
    <comp name="--.HHE">
      <acc value="0.2686596838" flag="0"/>
      <vel value="0.1261223908" flag="0"/>
      <psa03 value="0.3918333222" flag="0"/>
      <psa10 value="0.0859323483" flag="0"/>
      <psa30 value="0.0064718087" flag="0"/>
    </comp>
    <comp name="--.HHN">
      <acc value="0.1658755757" flag="0"/>
      <vel value="0.0591421048" flag="0"/>
      <psa03 value="0.2551154179" flag="0"/>
      <psa10 value="0.0352149454" flag="0"/>
      <psa30 value="0.0024199843" flag="0"/>
    </comp>
    <comp name="--.HHZ">
      <acc value="0.3000981847" flag="0"/>
      <vel value="0.1053585318" flag="0"/>
      <psa03 value="0.3655686115" flag="0"/>
      <psa10 value="0.0589501455" flag="0"/>
      <psa30 value="0.0035519644" flag="0"/>
    </comp>
  </station>
  <station code="ZKR" name="ZKR" netid="GE" insttype="STS-2/N" lat="35.1147" lon="26.2169">
    <comp name="--.HHN">
      <acc value="0.0272263495" flag="0"/>
      <vel value="0.0134619041" flag="0"/>
      <psa03 value="0.0826375874" flag="0"/>
      <psa10 value="0.0166203897" flag="0"/>
      <psa30 value="0.0023692631" flag="0"/>
    </comp>
    <comp name="--.HHE">
      <acc value="0.0624407945" flag="0"/>
      <vel value="0.0287032175" flag="0"/>
      <psa03 value="0.1617543705" flag="0"/>
      <psa10 value="0.0278782019" flag="0"/>
      <psa30 value="0.0073407159" flag="0"/>
    </comp>
    <comp name="--.HHZ">
      <acc value="0.0377129315" flag="0"/>
      <vel value="0.0149558949" flag="0"/>
      <psa03 value="0.1385540391" flag="0"/>
      <psa10 value="0.0206421452" flag="0"/>
      <psa30 value="0.0028571242" flag="0"/>
    </comp>
  </station>
  <station code="SNT5" name="SNT5" netid="HA" insttype="1s-100Hz," lat="36.4037" lon="25.3953">
    <comp name="--.HHN">
      <acc value="0.3466693374" flag="0"/>
      <vel value="0.0956585427" flag="0"/>
      <psa03 value="0.5527410221" flag="0"/>
      <psa10 value="0.1276012594" flag="0"/>
      <psa30 value="0.0109355344" flag="0"/>
    </comp>
    <comp name="--.HHE">
      <acc value="0.4249092473" flag="0"/>
      <vel value="0.1607515344" flag="0"/>
      <psa03 value="1.3192656571" flag="0"/>
      <psa10 value="0.1336778332" flag="0"/>
      <psa30 value="0.0190018794" flag="0"/>
    </comp>
    <comp name="--.HHZ">
      <acc value="0.1010389885" flag="0"/>
      <vel value="0.0359808168" flag="0"/>
      <psa03 value="0.1954550213" flag="0"/>
      <psa10 value="0.0450075101" flag="0"/>
      <psa30 value="0.0039078751" flag="0"/>
    </comp>
  </station>
  <station code="CHAN" name="CHAN" netid="HC" insttype="120" lat="35.5193" lon="24.0428">
    <comp name="--.HHN">
      <acc value="0.0689804677" flag="0"/>
      <vel value="0.0523740179" flag="0"/>
      <psa03 value="0.1592577454" flag="0"/>
      <psa10 value="0.1128319362" flag="0"/>
      <psa30 value="0.0101090479" flag="0"/>
    </comp>
    <comp name="--.HHE">
      <acc value="0.0652733921" flag="0"/>
      <vel value="0.0646549436" flag="0"/>
      <psa03 value="0.1703241454" flag="0"/>
      <psa10 value="0.0847949950" flag="0"/>
      <psa30 value="0.0094608072" flag="0"/>
    </comp>
    <comp name="--.HHZ">
      <acc value="0.0330737107" flag="0"/>
      <vel value="0.0352380844" flag="0"/>
      <psa03 value="0.0721575110" flag="0"/>
      <psa10 value="0.0611803487" flag="0"/>
      <psa30 value="0.0066944689" flag="0"/>
    </comp>
  </station>
  <station code="DEYA" name="DEYA" netid="HC" insttype="DC" lat="35.4825" lon="24.014">
    <comp name="--.HNE">
      <acc value="0.0057185562" flag="0"/>
      <vel value="0.0057880057" flag="0"/>
      <psa03 value="0.0199845702" flag="0"/>
      <psa10 value="0.0099849978" flag="0"/>
      <psa30 value="0.0007896649" flag="0"/>
    </comp>
    <comp name="--.HNZ">
      <acc value="0.0041557829" flag="0"/>
      <vel value="0.0033414877" flag="0"/>
      <psa03 value="0.0099843352" flag="0"/>
      <psa10 value="0.0041686059" flag="0"/>
      <psa30 value="0.0006215568" flag="0"/>
    </comp>
    <comp name="--.HNN">
      <acc value="0.0062775684" flag="0"/>
      <vel value="0.0065813805" flag="0"/>
      <psa03 value="0.0180717723" flag="0"/>
      <psa10 value="0.0140232480" flag="0"/>
      <psa30 value="0.0008840582" flag="0"/>
    </comp>
  </station>
  <station code="IMOD" name="IMOD" netid="HC" insttype="120" lat="34.9731" lon="24.7995">
    <comp name="--.HHE">
      <acc value="0.0799910652" flag="0"/>
      <vel value="0.0541675734" flag="0"/>
      <psa03 value="0.2395331318" flag="0"/>
      <psa10 value="0.0745755292" flag="0"/>
      <psa30 value="0.0044962326" flag="0"/>
    </comp>
    <comp name="--.HHN">
      <acc value="0.0639348118" flag="0"/>
      <vel value="0.0501280610" flag="0"/>
      <psa03 value="0.1493246879" flag="0"/>
      <psa10 value="0.0862835935" flag="0"/>
      <psa30 value="0.0071176116" flag="0"/>
    </comp>
    <comp name="--.HHZ">
      <acc value="0.0416125582" flag="0"/>
      <vel value="0.0252005669" flag="0"/>
      <psa03 value="0.1070011096" flag="0"/>
      <psa10 value="0.0493511663" flag="0"/>
      <psa30 value="0.0078426078" flag="0"/>
    </comp>
  </station>
  <station code="IPPL" name="IPPL" netid="HC" insttype="60" lat="35.3486" lon="24.4632">
    <comp name="--.HHE">
      <acc value="0.0577588818" flag="0"/>
      <vel value="0.0404832958" flag="0"/>
      <psa03 value="0.1360294314" flag="0"/>
      <psa10 value="0.0666276156" flag="0"/>
      <psa30 value="0.0086511737" flag="0"/>
    </comp>
    <comp name="--.HHN">
      <acc value="0.0452190715" flag="0"/>
      <vel value="0.0493622741" flag="0"/>
      <psa03 value="0.1537967000" flag="0"/>
      <psa10 value="0.1511318396" flag="0"/>
      <psa30 value="0.0082739370" flag="0"/>
    </comp>
    <comp name="--.HHZ">
      <acc value="0.0599607027" flag="0"/>
      <vel value="0.0307758320" flag="0"/>
      <psa03 value="0.1771044006" flag="0"/>
      <psa10 value="0.0467449128" flag="0"/>
      <psa30 value="0.0054599633" flag="0"/>
    </comp>
  </station>
  <station code="KNSS" name="KNSS" netid="HC" insttype="60" lat="35.3042" lon="25.1802">
    <comp name="--.HHE">
      <acc value="0.1029158870" flag="0"/>
      <vel value="0.0540418102" flag="0"/>
      <psa03 value="0.2906179420" flag="0"/>
      <psa10 value="0.0425437669" flag="0"/>
      <psa30 value="0.0178319228" flag="0"/>
    </comp>
    <comp name="--.HHZ">
      <acc value="0.1273887826" flag="0"/>
      <vel value="0.0878473115" flag="0"/>
      <psa03 value="0.2540492433" flag="0"/>
      <psa10 value="0.0821567588" flag="0"/>
      <psa30 value="0.0124183621" flag="0"/>
    </comp>
    <comp name="--.HHN">
      <acc value="0.1061423792" flag="0"/>
      <vel value="0.0541445388" flag="0"/>
      <psa03 value="0.1820616127" flag="0"/>
      <psa10 value="0.0588597731" flag="0"/>
      <psa30 value="0.0126176671" flag="0"/>
    </comp>
  </station>
  <station code="PFKS" name="PFKS" netid="HC" insttype="120" lat="35.0429" lon="25.4733">
    <comp name="--.HHE">
      <acc value="0.0832949203" flag="0"/>
      <vel value="0.0538556868" flag="0"/>
      <psa03 value="0.1148855117" flag="0"/>
      <psa10 value="0.0817578470" flag="0"/>
      <psa30 value="0.0094090010" flag="0"/>
    </comp>
    <comp name="--.HHN">
      <acc value="0.0783896744" flag="0"/>
      <vel value="0.0401186440" flag="0"/>
      <psa03 value="0.1199671735" flag="0"/>
      <psa10 value="0.0655771773" flag="0"/>
      <psa30 value="0.0073643354" flag="0"/>
    </comp>
    <comp name="--.HHZ">
      <acc value="0.0852880174" flag="0"/>
      <vel value="0.0225342077" flag="0"/>
      <psa03 value="0.0791320324" flag="0"/>
      <psa10 value="0.0299389756" flag="0"/>
      <psa30 value="0.0074054677" flag="0"/>
    </comp>
  </station>
  <station code="STIA" name="STIA" netid="HC" insttype="120" lat="35.2021" lon="26.0909">
    <comp name="--.HHE">
      <acc value="0.0841932707" flag="0"/>
      <vel value="0.0412140148" flag="0"/>
      <psa03 value="0.1736953394" flag="0"/>
      <psa10 value="0.0414188290" flag="0"/>
      <psa30 value="0.0043945502" flag="0"/>
    </comp>
    <comp name="--.HHN">
      <acc value="0.0741569705" flag="0"/>
      <vel value="0.0396726383" flag="0"/>
      <psa03 value="0.2178797782" flag="0"/>
      <psa10 value="0.0294231388" flag="0"/>
      <psa30 value="0.0106500379" flag="0"/>
    </comp>
    <comp name="--.HHZ">
      <acc value="0.0726589836" flag="0"/>
      <vel value="0.0363854208" flag="0"/>
      <psa03 value="0.2680926778" flag="0"/>
      <psa10 value="0.0148901745" flag="0"/>
      <psa30 value="0.0031438910" flag="0"/>
    </comp>
  </station>
  <station code="KSS1" name="KSS1" netid="HI" insttype="CMG-5TD,ACCELEROMETER,GURALP" lat="35.4189" lon="26.9207">
    <comp name="--.HNN">
      <acc value="0.0205816376" flag="0"/>
      <vel value="0.0095508432" flag="0"/>
      <psa03 value="0.0871175648" flag="0"/>
      <psa10 value="0.0091870472" flag="0"/>
      <psa30 value="0.0025942927" flag="0"/>
    </comp>
    <comp name="--.HNZ">
      <acc value="0.0167012114" flag="0"/>
      <vel value="0.0055675672" flag="0"/>
      <psa03 value="0.0213801386" flag="0"/>
      <psa10 value="0.0058616619" flag="0"/>
      <psa30 value="0.0020949624" flag="0"/>
    </comp>
    <comp name="--.HNE">
      <acc value="0.0188158707" flag="0"/>
      <vel value="0.0094058724" flag="0"/>
      <psa03 value="0.0588644620" flag="0"/>
      <psa10 value="0.0079960125" flag="0"/>
      <psa30 value="0.0015207998" flag="0"/>
    </comp>
  </station>
  <station code="NAX1" name="NAX1" netid="HI" insttype="CMG-5TD,ACCELEROMETER,GURALP" lat="37.1014" lon="25.3741">
    <comp name="--.HNN">
      <acc value="0.0209909512" flag="0"/>
      <vel value="0.0143430850" flag="0"/>
      <psa03 value="0.0492261056" flag="0"/>
      <psa10 value="0.0259891070" flag="0"/>
      <psa30 value="0.0019081334" flag="0"/>
    </comp>
    <comp name="--.HNE">
      <acc value="0.0469349756" flag="0"/>
      <vel value="0.0585885969" flag="0"/>
      <psa03 value="0.0723639752" flag="0"/>
      <psa10 value="0.1161720259" flag="0"/>
      <psa30 value="0.0069466064" flag="0"/>
    </comp>
    <comp name="--.HNZ">
      <acc value="0.0218563108" flag="0"/>
      <vel value="0.0185069376" flag="0"/>
      <psa03 value="0.0563442827" flag="0"/>
      <psa10 value="0.0311854771" flag="0"/>
      <psa30 value="0.0018425927" flag="0"/>
    </comp>
  </station>
  <station code="IACM" name="IACM" netid="HL" insttype="120" lat="35.3058" lon="25.0709">
    <comp name="--.HHE">
      <acc value="0.2895603934" flag="0"/>
      <vel value="0.2295736410" flag="0"/>
      <psa03 value="0.6957513434" flag="0"/>
      <psa10 value="0.5187128965" flag="0"/>
      <psa30 value="0.0361258639" flag="0"/>
    </comp>
    <comp name="--.HHN">
      <acc value="0.3915018071" flag="0"/>
      <vel value="0.1996686340" flag="0"/>
      <psa03 value="0.8985979947" flag="0"/>
      <psa10 value="0.3396941380" flag="0"/>
      <psa30 value="0.0222590642" flag="0"/>
    </comp>
    <comp name="--.HHZ">
      <acc value="0.2621102577" flag="0"/>
      <vel value="0.1079135222" flag="0"/>
      <psa03 value="0.3847385345" flag="0"/>
      <psa10 value="0.1767928232" flag="0"/>
      <psa30 value="0.0153188549" flag="0"/>
    </comp>
  </station>
  <station code="KSTE" name="KSTE" netid="HL" insttype="60" lat="35.1801" lon="25.3372">
    <comp name="--.HHN">
      <acc value="0.0404526070" flag="0"/>
      <vel value="0.0228065081" flag="0"/>
      <psa03 value="0.0605030616" flag="0"/>
      <psa10 value="0.0333997276" flag="0"/>
      <psa30 value="0.0085433176" flag="0"/>
    </comp>
    <comp name="--.HHE">
      <acc value="0.0475553354" flag="0"/>
      <vel value="0.0220553973" flag="0"/>
      <psa03 value="0.0557657978" flag="0"/>
      <psa10 value="0.0289107503" flag="0"/>
      <psa30 value="0.0101795824" flag="0"/>
    </comp>
    <comp name="--.HHZ">
      <acc value="0.0433814227" flag="0"/>
      <vel value="0.0231744275" flag="0"/>
      <psa03 value="0.0692937316" flag="0"/>
      <psa10 value="0.0350459667" flag="0"/>
      <psa30 value="0.0061775477" flag="0"/>
    </comp>
  </station>
  <station code="MHLO" name="MHLO" netid="HL" insttype="20" lat="36.6898" lon="24.4017">
    <comp name="--.HHE">
      <acc value="0.1083767660" flag="0"/>
      <vel value="0.0695364403" flag="0"/>
      <psa03 value="0.5439752254" flag="0"/>
      <psa10 value="0.1094459407" flag="0"/>
      <psa30 value="0.0071476842" flag="0"/>
    </comp>
    <comp name="--.HHN">
      <acc value="0.0836251740" flag="0"/>
      <vel value="0.0632117869" flag="0"/>
      <psa03 value="0.2060654551" flag="0"/>
      <psa10 value="0.1300110936" flag="0"/>
      <psa30 value="0.0077231120" flag="0"/>
    </comp>
    <comp name="--.HHZ">
      <acc value="0.0643848625" flag="0"/>
      <vel value="0.0518682582" flag="0"/>
      <psa03 value="0.2046295484" flag="0"/>
      <psa10 value="0.0746534007" flag="0"/>
      <psa30 value="0.0045093652" flag="0"/>
    </comp>
  </station>
  <station code="NPS" name="NPS" netid="HL" insttype="CMG3ESPC-120s" lat="35.2613" lon="25.6104">
    <comp name="--.HHE">
      <acc value="0.0393474247" flag="0"/>
      <vel value="0.0201576430" flag="0"/>
      <psa03 value="0.1271461583" flag="0"/>
      <psa10 value="0.0215680695" flag="0"/>
      <psa30 value="0.0073100488" flag="0"/>
    </comp>
    <comp name="--.HHN">
      <acc value="0.1058874817" flag="0"/>
      <vel value="0.0426168674" flag="0"/>
      <psa03 value="0.1770904751" flag="0"/>
      <psa10 value="0.0429044600" flag="0"/>
      <psa30 value="0.0147590130" flag="0"/>
    </comp>
    <comp name="--.HHZ">
      <acc value="0.0771782210" flag="0"/>
      <vel value="0.0271098274" flag="0"/>
      <psa03 value="0.1196743597" flag="0"/>
      <psa10 value="0.0294943704" flag="0"/>
      <psa30 value="0.0065158138" flag="0"/>
    </comp>
  </station>
  <station code="SAP3" name="SAP3" netid="HL" insttype="LE3D20_SMART24" lat="36.4356" lon="25.3454">
    <comp name="--.HHE">
      <acc value="0.4522007595" flag="0"/>
      <vel value="0.2587827158" flag="0"/>
      <psa03 value="1.1070516893" flag="0"/>
      <psa10 value="0.4122494419" flag="0"/>
      <psa30 value="0.0212491905" flag="0"/>
    </comp>
    <comp name="--.HHN">
      <acc value="0.6229149690" flag="0"/>
      <vel value="0.3163741920" flag="0"/>
      <psa03 value="2.1180660097" flag="0"/>
      <psa10 value="0.2675290006" flag="0"/>
      <psa30 value="0.0239607699" flag="0"/>
    </comp>
    <comp name="--.HHZ">
      <acc value="0.6679593281" flag="0"/>
      <vel value="0.2410411372" flag="0"/>
      <psa03 value="1.0625282917" flag="0"/>
      <psa10 value="0.1480545109" flag="0"/>
      <psa30 value="0.0096155384" flag="0"/>
    </comp>
  </station>
  <station code="SIVA" name="SIVA" netid="HL" insttype="60" lat="35.0178" lon="24.812">
    <comp name="--.HHE">
      <acc value="0.0818627321" flag="0"/>
      <vel value="0.0616497255" flag="0"/>
      <psa03 value="0.2002582923" flag="0"/>
      <psa10 value="0.0803241211" flag="0"/>
      <psa30 value="0.0074938953" flag="0"/>
    </comp>
    <comp name="--.HHN">
      <acc value="0.0695152482" flag="0"/>
      <vel value="0.0426245401" flag="0"/>
      <psa03 value="0.1357004673" flag="0"/>
      <psa10 value="0.0517970426" flag="0"/>
      <psa30 value="0.0082499861" flag="0"/>
    </comp>
    <comp name="--.HHZ">
      <acc value="0.0520769760" flag="0"/>
      <vel value="0.0335032841" flag="0"/>
      <psa03 value="0.1052937962" flag="0"/>
      <psa10 value="0.0355790781" flag="0"/>
      <psa30 value="0.0082530356" flag="0"/>
    </comp>
  </station>
  <station code="THERA" name="THERA" netid="HL" insttype="120" lat="36.367" lon="25.4753">
    <comp name="--.HHN">
      <acc value="0.1613765920" flag="0"/>
      <vel value="0.0574042176" flag="0"/>
      <psa03 value="0.2479640042" flag="0"/>
      <psa10 value="0.0348473984" flag="0"/>
      <psa30 value="0.0024204691" flag="0"/>
    </comp>
    <comp name="--.HHZ">
      <acc value="0.2895139328" flag="0"/>
      <vel value="0.1025672392" flag="0"/>
      <psa03 value="0.3542564568" flag="0"/>
      <psa10 value="0.0583123520" flag="0"/>
      <psa30 value="0.0035445324" flag="0"/>
    </comp>
    <comp name="--.HHE">
      <acc value="0.2615334752" flag="0"/>
      <vel value="0.1226325431" flag="0"/>
      <psa03 value="0.3809339244" flag="0"/>
      <psa10 value="0.0851568790" flag="0"/>
      <psa30 value="0.0064346879" flag="0"/>
    </comp>
  </station>
  <station code="THRA" name="THRA" netid="HL" insttype="CMG-5" lat="36.415" lon="25.4324">
    <comp name="00.HNN">
      <acc value="0.4992834367" flag="0"/>
      <vel value="0.2545189387" flag="0"/>
      <psa03 value="1.3393856163" flag="0"/>
      <psa10 value="0.4595052224" flag="0"/>
      <psa30 value="0.0171778364" flag="0"/>
    </comp>
    <comp name="00.HNZ">
      <acc value="0.3752729614" flag="0"/>
      <vel value="0.1270604231" flag="0"/>
      <psa03 value="0.9176895186" flag="0"/>
      <psa10 value="0.1095919559" flag="0"/>
      <psa30 value="0.0081953794" flag="0"/>
    </comp>
    <comp name="00.HNE">
      <acc value="0.5726354569" flag="0"/>
      <vel value="0.4005027521" flag="0"/>
      <psa03 value="1.7618249655" flag="0"/>
      <psa10 value="0.9392898054" flag="0"/>
      <psa30 value="0.0395355847" flag="0"/>
    </comp>
  </station>
  <station code="VAM" name="VAM" netid="HL" insttype="CMG3ESPC-120s" lat="35.407" lon="24.1997">
    <comp name="--.HHE">
      <acc value="0.0299719139" flag="0"/>
      <vel value="0.0188732658" flag="0"/>
      <psa03 value="0.0799784339" flag="0"/>
      <psa10 value="0.0382607263" flag="0"/>
      <psa30 value="0.0043484652" flag="0"/>
    </comp>
    <comp name="--.HHN">
      <acc value="0.0595013142" flag="0"/>
      <vel value="0.0344263146" flag="0"/>
      <psa03 value="0.1271293678" flag="0"/>
      <psa10 value="0.0469882805" flag="0"/>
      <psa30 value="0.0037365126" flag="0"/>
    </comp>
    <comp name="--.HHZ">
      <acc value="0.0238812518" flag="0"/>
      <vel value="0.0165122242" flag="0"/>
      <psa03 value="0.0657530635" flag="0"/>
      <psa10 value="0.0168017193" flag="0"/>
      <psa30 value="0.0053384095" flag="0"/>
    </comp>
  </station>
  <station code="ZKR" name="ZKR" netid="HL" insttype="120" lat="35.1147" lon="26.2169">
    <comp name="--.HHE">
      <acc value="0.0608172729" flag="0"/>
      <vel value="0.0279831072" flag="0"/>
      <psa03 value="0.1573659617" flag="0"/>
      <psa10 value="0.0275753557" flag="0"/>
      <psa30 value="0.0073429660" flag="0"/>
    </comp>
    <comp name="--.HHN">
      <acc value="0.0264401243" flag="0"/>
      <vel value="0.0132662192" flag="0"/>
      <psa03 value="0.0803411874" flag="0"/>
      <psa10 value="0.0164615142" flag="0"/>
      <psa30 value="0.0023693330" flag="0"/>
    </comp>
    <comp name="--.HHZ">
      <acc value="0.0368582680" flag="0"/>
      <vel value="0.0146270326" flag="0"/>
      <psa03 value="0.1346599348" flag="0"/>
      <psa10 value="0.0204395402" flag="0"/>
      <psa30 value="0.0028578965" flag="0"/>
    </comp>
  </station>
</stationlist>
