<?xml version="1.0" encoding="UTF-8" standalone="yes"?>
<!DOCTYPE earthquake SYSTEM "stationlist.dtd">
<stationlist created="" xmlns="ch.ethz.sed.shakemap.usgs.xml">
  <station code="KSP" name="KSP" netid="PL" insttype="STS-2/N" lat="50.8428" lon="16.2931">
    <comp name="--.HHE">
      <acc value="0.0041463823" flag="0"/>
      <vel value="0.0044735932" flag="0"/>
      <psa03 value="0.0066737411" flag="0"/>
      <psa10 value="0.0033401392" flag="0"/>
      <psa30 value="0.0012853786" flag="0"/>
    </comp>
    <comp name="--.HHZ">
      <acc value="0.0051124345" flag="0"/>
      <vel value="0.0111839604" flag="0"/>
      <psa03 value="0.0054248051" flag="0"/>
      <psa10 value="0.0063934929" flag="0"/>
      <psa30 value="0.0031369041" flag="0"/>
    </comp>
    <comp name="--.HHN">
      <acc value="0.0057409327" flag="0"/>
      <vel value="0.0119638011" flag="0"/>
      <psa03 value="0.0060406151" flag="0"/>
      <psa10 value="0.0056390254" flag="0"/>
      <psa30 value="0.0032027393" flag="0"/>
    </comp>
  </station>
</stationlist>
