<?xml version="1.0" encoding="UTF-8" standalone="yes"?>
<!DOCTYPE earthquake SYSTEM "stationlist.dtd">
<stationlist created="" xmlns="ch.ethz.sed.shakemap.usgs.xml">
  <station code="CEYT" name="CEYT" netid="KO" insttype="CMG-3ESP" lat="37.0105" lon="35.7478">
    <comp name="--.HHE">
      <acc value="0.1267596471" flag="0"/>
      <vel value="0.0563579195" flag="0"/>
      <psa03 value="0.5581610131" flag="0"/>
      <psa10 value="0.0260399411" flag="0"/>
      <psa30 value="0.0036131560" flag="0"/>
    </comp>
    <comp name="--.HHZ">
      <acc value="0.0549517403" flag="0"/>
      <vel value="0.0284270076" flag="0"/>
      <psa03 value="0.2019346582" flag="0"/>
      <psa10 value="0.0403235240" flag="0"/>
      <psa30 value="0.0041189608" flag="0"/>
    </comp>
    <comp name="--.HHN">
      <acc value="0.1161281718" flag="0"/>
      <vel value="0.0589407759" flag="0"/>
      <psa03 value="0.2704342091" flag="0"/>
      <psa10 value="0.0372714805" flag="0"/>
      <psa30 value="0.0050592949" flag="0"/>
    </comp>
  </station>
</stationlist>
