<?xml version="1.0" encoding="UTF-8" standalone="yes"?>
<!DOCTYPE earthquake SYSTEM "stationlist.dtd">
<stationlist created="" xmlns="ch.ethz.sed.shakemap.usgs.xml">
  <station code="CEYT" name="CEYT" netid="KO" insttype="CMG-3ESP" lat="37.0105" lon="35.7478">
    <comp name="--.HHE">
      <acc value="0.1267596469" flag="0"/>
      <vel value="0.0563579212" flag="0"/>
      <psa03 value="0.5581610131" flag="0"/>
      <psa10 value="0.0260398418" flag="0"/>
      <psa30 value="0.0036125588" flag="0"/>
    </comp>
    <comp name="--.HHN">
      <acc value="0.1161281721" flag="0"/>
      <vel value="0.0589407644" flag="0"/>
      <psa03 value="0.2704342091" flag="0"/>
      <psa10 value="0.0372714746" flag="0"/>
      <psa30 value="0.0050597464" flag="0"/>
    </comp>
    <comp name="--.HHZ">
      <acc value="0.0549517409" flag="0"/>
      <vel value="0.0284268504" flag="0"/>
      <psa03 value="0.2019346579" flag="0"/>
      <psa10 value="0.0403236063" flag="0"/>
      <psa30 value="0.0041206955" flag="0"/>
    </comp>
  </station>
  <station code="GAZ" name="GAZ" netid="KO" insttype="CMG-3T" lat="37.1721" lon="37.2096">
    <comp name="--.HHE">
      <acc value="0.1182950110" flag="0"/>
      <vel value="0.0423489844" flag="0"/>
      <psa03 value="0.1644770699" flag="0"/>
      <psa10 value="0.0536372825" flag="0"/>
      <psa30 value="0.0051647581" flag="0"/>
    </comp>
    <comp name="--.HHN">
      <acc value="0.1207629561" flag="0"/>
      <vel value="0.0329957405" flag="0"/>
      <psa03 value="0.1290710138" flag="0"/>
      <psa10 value="0.0431838164" flag="0"/>
      <psa30 value="0.0040518947" flag="0"/>
    </comp>
  </station>
  <station code="KRTS" name="KRTS" netid="KO" insttype="CMG-5T" lat="36.573" lon="35.375">
    <comp name="--.HNE">
      <acc value="0.0896650202" flag="0"/>
      <vel value="0.0498641101" flag="0"/>
      <psa03 value="0.3453561479" flag="0"/>
      <psa10 value="0.0659313638" flag="0"/>
      <psa30 value="0.0038643341" flag="0"/>
    </comp>
    <comp name="--.HNZ">
      <acc value="0.0610036603" flag="0"/>
      <vel value="0.0429301996" flag="0"/>
      <psa03 value="0.2840204823" flag="0"/>
      <psa10 value="0.0382311870" flag="0"/>
      <psa30 value="0.0028139318" flag="0"/>
    </comp>
  </station>
  <station code="ANDN" name="ANDN" netid="TU" insttype="T" lat="37.58" lon="36.3452">
    <comp name="--.HHE">
      <acc value="0.2028029488" flag="0"/>
      <vel value="0.0759620358" flag="0"/>
      <psa03 value="0.3552113972" flag="0"/>
      <psa10 value="0.0984679917" flag="0"/>
      <psa30 value="0.0074688055" flag="0"/>
    </comp>
    <comp name="--.HHN">
      <acc value="0.2937454160" flag="0"/>
      <vel value="0.1104873487" flag="0"/>
      <psa03 value="0.4677299201" flag="0"/>
      <psa10 value="0.0535908549" flag="0"/>
      <psa30 value="0.0039416263" flag="0"/>
    </comp>
    <comp name="--.HHZ">
      <acc value="0.1136384294" flag="0"/>
      <vel value="0.0416271376" flag="0"/>
      <psa03 value="0.1499431784" flag="0"/>
      <psa10 value="0.0570142328" flag="0"/>
      <psa30 value="0.0042589430" flag="0"/>
    </comp>
  </station>
</stationlist>
