<?xml version="1.0" encoding="UTF-8" standalone="yes"?>
<!DOCTYPE earthquake SYSTEM "stationlist.dtd">
<stationlist created="" xmlns="ch.ethz.sed.shakemap.usgs.xml">
  <station code="CAYL" name="CAYL" netid="KO" insttype="CMG-6T" lat="40.3745" lon="36.159">
    <comp name="--.HHZ">
      <acc value="0.0073667992" flag="0"/>
      <vel value="0.0043572128" flag="0"/>
      <psa03 value="0.0238483786" flag="0"/>
      <psa10 value="0.0016835430" flag="0"/>
      <psa30 value="0.0001652152" flag="0"/>
    </comp>
    <comp name="--.HHE">
      <acc value="0.0388678629" flag="0"/>
      <vel value="0.0231393930" flag="0"/>
      <psa03 value="0.1188877375" flag="0"/>
      <psa10 value="0.0088041246" flag="0"/>
      <psa30 value="0.0007212286" flag="0"/>
    </comp>
    <comp name="--.HHN">
      <acc value="0.0269700960" flag="0"/>
      <vel value="0.0144513196" flag="0"/>
      <psa03 value="0.0827784393" flag="0"/>
      <psa10 value="0.0047518149" flag="0"/>
      <psa30 value="0.0003916339" flag="0"/>
    </comp>
  </station>
  <station code="DIKM" name="DIKM" netid="KO" insttype="CMG-3T" lat="41.6497" lon="35.2578">
    <comp name="--.HHE">
      <acc value="0.0516288803" flag="0"/>
      <vel value="0.0127568575" flag="0"/>
      <psa03 value="0.0794563855" flag="0"/>
      <psa10 value="0.0045488185" flag="0"/>
      <psa30 value="0.0003907821" flag="0"/>
    </comp>
    <comp name="--.HHN">
      <acc value="0.0846017098" flag="0"/>
      <vel value="0.0259926155" flag="0"/>
      <psa03 value="0.1305500732" flag="0"/>
      <psa10 value="0.0065807315" flag="0"/>
      <psa30 value="0.0005468430" flag="0"/>
    </comp>
    <comp name="--.HHZ">
      <acc value="0.0419639178" flag="0"/>
      <vel value="0.0098185064" flag="0"/>
      <psa03 value="0.0494039452" flag="0"/>
      <psa10 value="0.0035546820" flag="0"/>
      <psa30 value="0.0002599119" flag="0"/>
    </comp>
  </station>
  <station code="ERBG" name="ERBG" netid="KO" insttype="CMG-5T" lat="40.712" lon="36.6768">
    <comp name="--.HNE">
      <acc value="0.0785628284" flag="0"/>
      <vel value="0.0216649868" flag="0"/>
      <psa03 value="0.1024541329" flag="0"/>
      <psa10 value="0.0100788935" flag="0"/>
      <psa30 value="0.0008560445" flag="0"/>
    </comp>
    <comp name="--.HNZ">
      <acc value="0.0660482711" flag="0"/>
      <vel value="0.0196699192" flag="0"/>
      <psa03 value="0.0685450596" flag="0"/>
      <psa10 value="0.0083158595" flag="0"/>
      <psa30 value="0.0006286578" flag="0"/>
    </comp>
    <comp name="--.HNN">
      <acc value="0.0889943454" flag="0"/>
      <vel value="0.0226750490" flag="0"/>
      <psa03 value="0.0912378621" flag="0"/>
      <psa10 value="0.0128347315" flag="0"/>
      <psa30 value="0.0006368585" flag="0"/>
    </comp>
  </station>
  <station code="KVT" name="KVT" netid="KO" insttype="CMG-3T" lat="41.0807" lon="36.0463">
    <comp name="--.HHE">
      <acc value="0.0705416040" flag="0"/>
      <vel value="0.0211792266" flag="0"/>
      <psa03 value="0.1002391795" flag="0"/>
      <psa10 value="0.0087041013" flag="0"/>
      <psa30 value="0.0015490104" flag="0"/>
    </comp>
    <comp name="--.HHN">
      <acc value="0.0449233006" flag="0"/>
      <vel value="0.0300545628" flag="0"/>
      <psa03 value="0.0796581674" flag="0"/>
      <psa10 value="0.0216621671" flag="0"/>
      <psa30 value="0.0010499988" flag="0"/>
    </comp>
    <comp name="--.HHZ">
      <acc value="0.0432042336" flag="0"/>
      <vel value="0.0161882559" flag="0"/>
      <psa03 value="0.0726531557" flag="0"/>
      <psa10 value="0.0133116592" flag="0"/>
      <psa30 value="0.0009169109" flag="0"/>
    </comp>
  </station>
  <station code="SINP" name="SINP" netid="KO" insttype="CMG-5T" lat="41.9824" lon="35.0956">
    <comp name="--.HNE">
      <acc value="0.0717136942" flag="0"/>
      <vel value="0.0239229941" flag="0"/>
      <psa03 value="0.1261205645" flag="0"/>
      <psa10 value="0.0263712425" flag="0"/>
      <psa30 value="0.0011938210" flag="0"/>
    </comp>
    <comp name="--.HNN">
      <acc value="0.1331460663" flag="0"/>
      <vel value="0.0545003453" flag="0"/>
      <psa03 value="0.5175311822" flag="0"/>
      <psa10 value="0.0205143069" flag="0"/>
      <psa30 value="0.0019145780" flag="0"/>
    </comp>
    <comp name="--.HNZ">
      <acc value="0.0527877042" flag="0"/>
      <vel value="0.0174418648" flag="0"/>
      <psa03 value="0.1218329635" flag="0"/>
      <psa10 value="0.0082449670" flag="0"/>
      <psa30 value="0.0007783197" flag="0"/>
    </comp>
  </station>
  <station code="SNOP" name="SNOP" netid="KO" insttype="CMG-3T" lat="42.0195" lon="35.2069">
    <comp name="--.HHZ">
      <acc value="0.0550840239" flag="0"/>
      <vel value="0.0124835983" flag="0"/>
      <psa03 value="0.0985614887" flag="0"/>
      <psa10 value="0.0040756404" flag="0"/>
      <psa30 value="0.0003338601" flag="0"/>
    </comp>
    <comp name="--.HHE">
      <acc value="0.0729023417" flag="0"/>
      <vel value="0.0205200204" flag="0"/>
      <psa03 value="0.1319281844" flag="0"/>
      <psa10 value="0.0064115816" flag="0"/>
      <psa30 value="0.0005698079" flag="0"/>
    </comp>
    <comp name="--.HHN">
      <acc value="0.0887377568" flag="0"/>
      <vel value="0.0246720601" flag="0"/>
      <psa03 value="0.1162732395" flag="0"/>
      <psa10 value="0.0088583129" flag="0"/>
      <psa30 value="0.0007106325" flag="0"/>
    </comp>
  </station>
</stationlist>
