<stationlist created="1778637316">
	<station code="ERCV" name="ERCV" netid="KO" source="Bogazici University Kandilli Observatory And Earthquake Research Institute (KOERI)" insttype="" lat="39.0198" lon="43.3381">
		<comp name="--.HNE" depth="0.0">
			<acc value="0.122203389244316" flag="0"/>
			<vel value="0.215092032352393" flag="0"/>
			<psa03 value="0.320039721894178" flag="0"/>
			<psa10 value="0.194133320379862" flag="0"/>
			<psa30 value="0.125363571388169" flag="0"/>
		</comp>
		<comp name="--.HNN" depth="0.0">
			<acc value="0.13010845531611" flag="0"/>
			<vel value="0.234889396327892" flag="0"/>
			<psa03 value="0.250390545478116" flag="0"/>
			<psa10 value="0.354332052759439" flag="0"/>
			<psa30 value="0.0964030995657507" flag="0"/>
		</comp>
		<comp name="--.HNZ" depth="0.0">
			<acc value="0.0615818615683714" flag="0"/>
			<vel value="0.103949451398976" flag="0"/>
			<psa03 value="0.133758048314453" flag="0"/>
			<psa10 value="0.170663815640165" flag="0"/>
			<psa30 value="0.0412329148115862" flag="0"/>
		</comp>
	</station>
</stationlist>
