<?xml version="1.0" encoding="UTF-8" standalone="yes"?>
<!DOCTYPE earthquake SYSTEM "stationlist.dtd">
<stationlist created="" xmlns="ch.ethz.sed.shakemap.usgs.xml">
  <station code="AKDM" name="AKDM" netid="KO" insttype="CMG-3ESP" lat="38.3285" lon="42.98">
    <comp name="--.HHE">
      <acc value="0.0307935880" flag="0"/>
      <vel value="0.0468479722" flag="0"/>
      <psa03 value="0.0705645489" flag="0"/>
      <psa10 value="0.0788051907" flag="0"/>
      <psa30 value="0.0286595707" flag="0"/>
    </comp>
    <comp name="--.HHN">
      <acc value="0.0484236445" flag="0"/>
      <vel value="0.0643085365" flag="0"/>
      <psa03 value="0.0615049059" flag="0"/>
      <psa10 value="0.0789482142" flag="0"/>
      <psa30 value="0.0369096643" flag="0"/>
    </comp>
    <comp name="--.HHZ">
      <acc value="0.0203535381" flag="0"/>
      <vel value="0.0388137321" flag="0"/>
      <psa03 value="0.0461174452" flag="0"/>
      <psa10 value="0.0316143088" flag="0"/>
      <psa30 value="0.0186818376" flag="0"/>
    </comp>
  </station>
  <station code="CUKT" name="CUKT" netid="KO" insttype="CMG-3ESP" lat="37.2473" lon="43.6077">
    <comp name="--.HHN">
      <acc value="0.0468514119" flag="0"/>
      <vel value="0.0594991811" flag="0"/>
      <psa03 value="0.0879760149" flag="0"/>
      <psa10 value="0.0932459049" flag="0"/>
      <psa30 value="0.0104964234" flag="0"/>
    </comp>
    <comp name="--.HHE">
      <acc value="0.0475473853" flag="0"/>
      <vel value="0.0532049757" flag="0"/>
      <psa03 value="0.1288911660" flag="0"/>
      <psa10 value="0.1057789840" flag="0"/>
      <psa30 value="0.0261183148" flag="0"/>
    </comp>
    <comp name="--.HHZ">
      <acc value="0.0229469627" flag="0"/>
      <vel value="0.0243275755" flag="0"/>
      <psa03 value="0.0680079408" flag="0"/>
      <psa10 value="0.0381009815" flag="0"/>
      <psa30 value="0.0089340408" flag="0"/>
    </comp>
  </station>
  <station code="ERCV" name="ERCV" netid="KO" insttype="CMG-5T" lat="39.0198" lon="43.3381">
    <comp name="--.HNE">
      <acc value="0.1222661186" flag="0"/>
      <vel value="0.2099221852" flag="0"/>
      <psa03 value="0.3202969512" flag="0"/>
      <psa10 value="0.1936743585" flag="0"/>
      <psa30 value="0.1241741783" flag="0"/>
    </comp>
    <comp name="--.HNN">
      <acc value="0.1293995166" flag="0"/>
      <vel value="0.2500497884" flag="0"/>
      <psa03 value="0.2528159313" flag="0"/>
      <psa10 value="0.3530721549" flag="0"/>
      <psa30 value="0.0960954667" flag="0"/>
    </comp>
    <comp name="--.HNZ">
      <acc value="0.0617316497" flag="0"/>
      <vel value="0.1097768019" flag="0"/>
      <psa03 value="0.1332629730" flag="0"/>
      <psa10 value="0.1703180944" flag="0"/>
      <psa30 value="0.0408284010" flag="0"/>
    </comp>
  </station>
  <station code="VANB" name="VANB" netid="KO" insttype="CMG-3T" lat="38.509" lon="43.4056">
    <comp name="--.HHE">
      <acc value="0.0430400938" flag="0"/>
      <vel value="0.0565146484" flag="0"/>
      <psa03 value="0.0763023325" flag="0"/>
      <psa10 value="0.0991223486" flag="0"/>
      <psa30 value="0.0301880223" flag="0"/>
    </comp>
    <comp name="--.HHN">
      <acc value="0.0391760952" flag="0"/>
      <vel value="0.0820671058" flag="0"/>
      <psa03 value="0.0716888084" flag="0"/>
      <psa10 value="0.0848713965" flag="0"/>
      <psa30 value="0.0428521534" flag="0"/>
    </comp>
    <comp name="--.HHZ">
      <acc value="0.0218117555" flag="0"/>
      <vel value="0.0516267841" flag="0"/>
      <psa03 value="0.0420962348" flag="0"/>
      <psa10 value="0.0595187897" flag="0"/>
      <psa30 value="0.0260552392" flag="0"/>
    </comp>
  </station>
</stationlist>
