<?xml version="1.0" encoding="UTF-8" standalone="yes"?>
<!DOCTYPE earthquake SYSTEM "stationlist.dtd">
<stationlist created="" xmlns="ch.ethz.sed.shakemap.usgs.xml">
  <station code="AKDM" name="AKDM" netid="KO" insttype="CMG-3ESP" lat="38.3285" lon="42.98">
    <comp name="--.HHE">
      <acc value="0.0307935876" flag="0"/>
      <vel value="0.0468479467" flag="0"/>
      <psa03 value="0.0705645489" flag="0"/>
      <psa10 value="0.0788051908" flag="0"/>
      <psa30 value="0.0286595708" flag="0"/>
    </comp>
    <comp name="--.HHZ">
      <acc value="0.0203535381" flag="0"/>
      <vel value="0.0388137435" flag="0"/>
      <psa03 value="0.0461174452" flag="0"/>
      <psa10 value="0.0316143087" flag="0"/>
      <psa30 value="0.0186818376" flag="0"/>
    </comp>
    <comp name="--.HHN">
      <acc value="0.0484236446" flag="0"/>
      <vel value="0.0643085974" flag="0"/>
      <psa03 value="0.0615049058" flag="0"/>
      <psa10 value="0.0789482141" flag="0"/>
      <psa30 value="0.0369096642" flag="0"/>
    </comp>
  </station>
  <station code="CUKT" name="CUKT" netid="KO" insttype="CMG-3ESP" lat="37.2473" lon="43.6077">
    <comp name="--.HHN">
      <acc value="0.0468514118" flag="0"/>
      <vel value="0.0594991741" flag="0"/>
      <psa03 value="0.0879760149" flag="0"/>
      <psa10 value="0.0932459049" flag="0"/>
      <psa30 value="0.0104964237" flag="0"/>
    </comp>
    <comp name="--.HHZ">
      <acc value="0.0229469628" flag="0"/>
      <vel value="0.0243275713" flag="0"/>
      <psa03 value="0.0680079408" flag="0"/>
      <psa10 value="0.0381009815" flag="0"/>
      <psa30 value="0.0089340411" flag="0"/>
    </comp>
    <comp name="--.HHE">
      <acc value="0.0475473853" flag="0"/>
      <vel value="0.0532049788" flag="0"/>
      <psa03 value="0.1288911660" flag="0"/>
      <psa10 value="0.1057789839" flag="0"/>
      <psa30 value="0.0261183132" flag="0"/>
    </comp>
  </station>
  <station code="ERCV" name="ERCV" netid="KO" insttype="CMG-5T" lat="39.0198" lon="43.3381">
    <comp name="--.HNE">
      <acc value="0.1222661134" flag="0"/>
      <vel value="0.2099221822" flag="0"/>
      <psa03 value="0.3202969512" flag="0"/>
      <psa10 value="0.1936743585" flag="0"/>
      <psa30 value="0.1241741532" flag="0"/>
    </comp>
    <comp name="--.HNN">
      <acc value="0.1293995582" flag="0"/>
      <vel value="0.2500498121" flag="0"/>
      <psa03 value="0.2528159313" flag="0"/>
      <psa10 value="0.3530721549" flag="0"/>
      <psa30 value="0.0960954831" flag="0"/>
    </comp>
    <comp name="--.HNZ">
      <acc value="0.0617316458" flag="0"/>
      <vel value="0.1097768001" flag="0"/>
      <psa03 value="0.1332629730" flag="0"/>
      <psa10 value="0.1703180945" flag="0"/>
      <psa30 value="0.0408283554" flag="0"/>
    </comp>
  </station>
  <station code="TASB" name="TASB" netid="KO" insttype="CMG-3T" lat="39.9838" lon="44.2384">
    <comp name="--.HHE">
      <acc value="0.0412614866" flag="0"/>
      <vel value="0.1119657965" flag="0"/>
      <psa03 value="0.0530780143" flag="0"/>
      <psa10 value="0.1038191206" flag="0"/>
      <psa30 value="0.0748152783" flag="0"/>
    </comp>
    <comp name="--.HHN">
      <acc value="0.0338366582" flag="0"/>
      <vel value="0.0770260985" flag="0"/>
      <psa03 value="0.0464416642" flag="0"/>
      <psa10 value="0.0784137225" flag="0"/>
      <psa30 value="0.0364891372" flag="0"/>
    </comp>
    <comp name="--.HHZ">
      <acc value="0.0273139403" flag="0"/>
      <vel value="0.0918093749" flag="0"/>
      <psa03 value="0.0377986563" flag="0"/>
      <psa10 value="0.0615836569" flag="0"/>
      <psa30 value="0.0508228159" flag="0"/>
    </comp>
  </station>
  <station code="VANB" name="VANB" netid="KO" insttype="CMG-3T" lat="38.509" lon="43.4056">
    <comp name="--.HHE">
      <acc value="0.0430400937" flag="0"/>
      <vel value="0.0565146475" flag="0"/>
      <psa03 value="0.0763023325" flag="0"/>
      <psa10 value="0.0991223486" flag="0"/>
      <psa30 value="0.0301880239" flag="0"/>
    </comp>
    <comp name="--.HHN">
      <acc value="0.0391760953" flag="0"/>
      <vel value="0.0820671039" flag="0"/>
      <psa03 value="0.0716888084" flag="0"/>
      <psa10 value="0.0848713965" flag="0"/>
      <psa30 value="0.0428521524" flag="0"/>
    </comp>
    <comp name="--.HHZ">
      <acc value="0.0218117555" flag="0"/>
      <vel value="0.0516267772" flag="0"/>
      <psa03 value="0.0420962348" flag="0"/>
      <psa10 value="0.0595187897" flag="0"/>
      <psa30 value="0.0260552409" flag="0"/>
    </comp>
  </station>
</stationlist>
