<stationlist created="1720855908">
	<station code="R21D1" name="R21D1" netid="AM" source="Raspberry Shake (raspishake)" insttype="" lat="38.2972972972973" lon="21.8117890642034">
		<comp name="00.ENE" depth="0.0">
			<acc value="4.492826888523" flag="0"/>
			<vel value="1.23107209137" flag="0"/>
			<psa03 value="4.86246911472519" flag="0"/>
			<psa10 value="0.946348430937809" flag="0"/>
			<psa30 value="0.0693912368289204" flag="0"/>
		</comp>
		<comp name="00.ENN" depth="0.0">
			<acc value="2.2752219124212" flag="0"/>
			<vel value="0.838025389615" flag="0"/>
			<psa03 value="3.81730087744965" flag="0"/>
			<psa10 value="0.821991272887802" flag="0"/>
			<psa30 value="0.0631736316097545" flag="0"/>
		</comp>
		<comp name="00.ENZ" depth="0.0">
			<acc value="1.6970799539178" flag="0"/>
			<vel value="0.624271745209" flag="0"/>
			<psa03 value="3.46788139679099" flag="0"/>
			<psa10 value="0.490646052891975" flag="0"/>
			<psa30 value="0.037934196287667" flag="0"/>
		</comp>
	</station>
	<station code="MALA" name="MALA" netid="CL" source="Corinth Riff Laboratory (CRLNET)" insttype="" lat="38.39341" lon="21.87263">
		<comp name="00.HNE" depth="0.0">
			<acc value="1.234893601173" flag="0"/>
			<vel value="1.26631130381" flag="0"/>
			<psa03 value="3.48438982372565" flag="0"/>
			<psa10 value="1.16839320031406" flag="0"/>
			<psa30 value="0.0605140820944045" flag="0"/>
		</comp>
		<comp name="00.HNN" depth="0.0">
			<acc value="1.8050943412614" flag="0"/>
			<vel value="0.559421356054" flag="0"/>
			<psa03 value="1.48905047562114" flag="0"/>
			<psa10 value="0.463946054148123" flag="0"/>
			<psa30 value="0.0258088647106051" flag="0"/>
		</comp>
		<comp name="00.HNZ" depth="0.0">
			<acc value="0.57698797484076" flag="0"/>
			<vel value="0.219192308146" flag="0"/>
			<psa03 value="0.665495377470743" flag="0"/>
			<psa10 value="0.267353200837303" flag="0"/>
			<psa30 value="0.0102006465761038" flag="0"/>
		</comp>
	</station>
	<station code="ROD3" name="ROD3" netid="CL" source="Corinth Riff Laboratory (CRLNET)" insttype="" lat="38.30811" lon="21.89204">
		<comp name="00.HNE" depth="0.0">
			<acc value="2.6596197574998" flag="0"/>
			<vel value="1.07706885455" flag="0"/>
			<psa03 value="7.05220117370821" flag="0"/>
			<psa10 value="0.394165061501006" flag="0"/>
			<psa30 value="0.0323706777318818" flag="0"/>
		</comp>
		<comp name="00.HNN" depth="0.0">
			<acc value="3.042156431151" flag="0"/>
			<vel value="1.24171523677" flag="0"/>
			<psa03 value="5.77644599453967" flag="0"/>
			<psa10 value="0.323393943261557" flag="0"/>
			<psa30 value="0.0266519538944735" flag="0"/>
		</comp>
		<comp name="00.HNZ" depth="0.0">
			<acc value="1.8374497253676" flag="0"/>
			<vel value="0.579669727866" flag="0"/>
			<psa03 value="1.92849008633629" flag="0"/>
			<psa10 value="0.142140791129807" flag="0"/>
			<psa30 value="0.0129534814379157" flag="0"/>
		</comp>
	</station>
	<station code="TRIZ" name="TRIZ" netid="CL" source="Corinth Riff Laboratory (CRLNET)" insttype="" lat="38.36543" lon="22.07272">
		<comp name="00.HNE" depth="0.0">
			<acc value="0.21036317597232" flag="0"/>
			<vel value="0.0918955906893" flag="0"/>
			<psa03 value="0.309291009844631" flag="0"/>
			<psa10 value="0.0618644507163297" flag="0"/>
			<psa30 value="0.00584055357465896" flag="0"/>
		</comp>
		<comp name="00.HNN" depth="0.0">
			<acc value="0.35835795103794" flag="0"/>
			<vel value="0.108307831398" flag="0"/>
			<psa03 value="0.755436293947022" flag="0"/>
			<psa10 value="0.106343589740924" flag="0"/>
			<psa30 value="0.00872425960603926" flag="0"/>
		</comp>
		<comp name="00.HNZ" depth="0.0">
			<acc value="0.41525898233088" flag="0"/>
			<vel value="0.0767486178327" flag="0"/>
			<psa03 value="0.243282824626603" flag="0"/>
			<psa10 value="0.0417573999727584" flag="0"/>
			<psa30 value="0.00374237458061629" flag="0"/>
		</comp>
	</station>
	<station code="AIGS" name="AIGS" netid="HA" source="Hellenic Seismological Network, University of Athens, Seismological Laboratory (HA)" insttype="" lat="38.25001" lon="22.0878">
		<comp name=".HNE" depth="0.0">
			<acc value="0.80911111004232" flag="0"/>
			<vel value="0.224199208499" flag="0"/>
			<psa03 value="1.42333212210001" flag="0"/>
			<psa10 value="0.157323011877592" flag="0"/>
			<psa30 value="0.0329974859214971" flag="0"/>
		</comp>
		<comp name=".HNN" depth="0.0">
			<acc value="0.80100401148144" flag="0"/>
			<vel value="0.202613184847" flag="0"/>
			<psa03 value="0.898412598758369" flag="0"/>
			<psa10 value="0.085739964851863" flag="0"/>
			<psa30 value="0.0103020374594186" flag="0"/>
		</comp>
		<comp name=".HNZ" depth="0.0">
			<acc value="0.88853338961274" flag="0"/>
			<vel value="0.1838262901" flag="0"/>
			<psa03 value="0.563825517338925" flag="0"/>
			<psa10 value="0.0873424685099919" flag="0"/>
			<psa30 value="0.00514619632691817" flag="0"/>
		</comp>
	</station>
	<station code="KIAS" name="KIAS" netid="HA" source="Hellenic Seismological Network, University of Athens, Seismological Laboratory (HA)" insttype="" lat="37.9875" lon="22.7543">
		<comp name=".HNE" depth="0.0">
			<acc value="0.092463461236248" flag="0"/>
			<vel value="0.0398604430468" flag="0"/>
			<psa03 value="0.131546370551307" flag="0"/>
			<psa10 value="0.0600054975696701" flag="0"/>
			<psa30 value="0.00721131688101357" flag="0"/>
		</comp>
		<comp name=".HNN" depth="0.0">
			<acc value="0.12003439367832" flag="0"/>
			<vel value="0.0482417099909" flag="0"/>
			<psa03 value="0.148987713455006" flag="0"/>
			<psa10 value="0.0415000166724521" flag="0"/>
			<psa30 value="0.01042394886878" flag="0"/>
		</comp>
		<comp name=".HNZ" depth="0.0">
			<acc value="0.059371944986346" flag="0"/>
			<vel value="0.0222137923718" flag="0"/>
			<psa03 value="0.0696524683006473" flag="0"/>
			<psa10 value="0.0394085256214248" flag="0"/>
			<psa30 value="0.00765954824082919" flag="0"/>
		</comp>
	</station>
	<station code="ATHP" name="ATHP" netid="HL" source="National Observatory of Athens Seismic Network" insttype="" lat="38.000799" lon="23.773487">
		<comp name="00.HNE" depth="0.0">
			<acc value="0.0064743431810712" flag="0"/>
			<vel value="0.00458074958064" flag="0"/>
			<psa03 value="0.0158848348444363" flag="0"/>
			<psa10 value="0.0065098368697263" flag="0"/>
			<psa30 value="0.000646273697879419" flag="0"/>
		</comp>
		<comp name="00.HNN" depth="0.0">
			<acc value="0.004747814873841" flag="0"/>
			<vel value="0.00424388016211" flag="0"/>
			<psa03 value="0.0103689753051766" flag="0"/>
			<psa10 value="0.00645269152163287" flag="0"/>
			<psa30 value="0.000985636022717007" flag="0"/>
		</comp>
		<comp name="00.HNZ" depth="0.0">
			<acc value="0.0047376265282794" flag="0"/>
			<vel value="0.00314617667481" flag="0"/>
			<psa03 value="0.00895699700294441" flag="0"/>
			<psa10 value="0.00367997768671014" flag="0"/>
			<psa30 value="0.00106452208186427" flag="0"/>
		</comp>
	</station>
	<station code="DLFA" name="DLFA" netid="HL" source="National Observatory of Athens Seismic Network" insttype="" lat="38.47836" lon="22.49583">
		<comp name="00.HNE" depth="0.0">
			<acc value="0.032557476541266" flag="0"/>
			<vel value="0.0247292984642" flag="0"/>
			<psa03 value="0.0588799109216139" flag="0"/>
			<psa10 value="0.0305818583980469" flag="0"/>
			<psa30 value="0.00212145428593429" flag="0"/>
		</comp>
		<comp name="00.HNN" depth="0.0">
			<acc value="0.034786871361288" flag="0"/>
			<vel value="0.0196231038116" flag="0"/>
			<psa03 value="0.0745781487698544" flag="0"/>
			<psa10 value="0.0273365846645928" flag="0"/>
			<psa30 value="0.00274228874650379" flag="0"/>
		</comp>
		<comp name="00.HNZ" depth="0.0">
			<acc value="0.037557033371754" flag="0"/>
			<vel value="0.0206224371621" flag="0"/>
			<psa03 value="0.0827005983004194" flag="0"/>
			<psa10 value="0.0222416902778441" flag="0"/>
			<psa30 value="0.00366477068973878" flag="0"/>
		</comp>
	</station>
	<station code="GINA" name="GINA" netid="HL" source="National Observatory of Athens Seismic Network" insttype="" lat="39.66886" lon="22.389">
		<comp name="00.HNE" depth="0.0">
			<acc value="0.0086145796062222" flag="0"/>
			<vel value="0.00931072030436" flag="0"/>
			<psa03 value="0.0180583941966477" flag="0"/>
			<psa10 value="0.0104153277768626" flag="0"/>
			<psa30 value="0.0018734407729243" flag="0"/>
		</comp>
		<comp name="00.HNN" depth="0.0">
			<acc value="0.00794509569918" flag="0"/>
			<vel value="0.010453519845" flag="0"/>
			<psa03 value="0.0170794387206701" flag="0"/>
			<psa10 value="0.0126979849291693" flag="0"/>
			<psa30 value="0.00197099827729443" flag="0"/>
		</comp>
		<comp name="00.HNZ" depth="0.0">
			<acc value="0.0081427020786516" flag="0"/>
			<vel value="0.00522467868776" flag="0"/>
			<psa03 value="0.00848784092363857" flag="0"/>
			<psa10 value="0.0108196467485001" flag="0"/>
			<psa30 value="0.000910950137643336" flag="0"/>
		</comp>
	</station>
	<station code="JAN" name="JAN" netid="HL" source="National Observatory of Athens Seismic Network" insttype="" lat="39.65616" lon="20.84874">
		<comp name="00.HNE" depth="0.0">
			<acc value="0.0095740918879404" flag="0"/>
			<vel value="0.0119819218842" flag="0"/>
			<psa03 value="0.0218661177938112" flag="0"/>
			<psa10 value="0.018976371466467" flag="0"/>
			<psa30 value="0.0025701548434767" flag="0"/>
		</comp>
		<comp name="00.HNN" depth="0.0">
			<acc value="0.0088415341339614" flag="0"/>
			<vel value="0.00644645046744" flag="0"/>
			<psa03 value="0.0179711605532693" flag="0"/>
			<psa10 value="0.0124364444784077" flag="0"/>
			<psa30 value="0.00152983342728871" flag="0"/>
		</comp>
		<comp name="00.HNZ" depth="0.0">
			<acc value="0.004732520840076" flag="0"/>
			<vel value="0.00584200284432" flag="0"/>
			<psa03 value="0.0133978940551391" flag="0"/>
			<psa10 value="0.0088546731411463" flag="0"/>
			<psa30 value="0.00123186275069457" flag="0"/>
		</comp>
	</station>
	<station code="NOAC" name="NOAC" netid="HL" source="National Observatory of Athens Seismic Network" insttype="" lat="37.97384" lon="23.71767">
		<comp name="00.HNE" depth="0.0">
			<acc value="0.01039150071396" flag="0"/>
			<vel value="0.00704878294373" flag="0"/>
			<psa03 value="0.0260088297281719" flag="0"/>
			<psa10 value="0.00820819031484195" flag="0"/>
			<psa30 value="0.000823194115902147" flag="0"/>
		</comp>
		<comp name="00.HNN" depth="0.0">
			<acc value="0.0065869176770394" flag="0"/>
			<vel value="0.00543045166864" flag="0"/>
			<psa03 value="0.0180099925527798" flag="0"/>
			<psa10 value="0.00710881201767" flag="0"/>
			<psa30 value="0.00132214998178285" flag="0"/>
		</comp>
		<comp name="00.HNZ" depth="0.0">
			<acc value="0.0051980083359168" flag="0"/>
			<vel value="0.00436740793903" flag="0"/>
			<psa03 value="0.00984466453051316" flag="0"/>
			<psa10 value="0.00405915264892567" flag="0"/>
			<psa30 value="0.000929017792868349" flag="0"/>
		</comp>
	</station>
	<station code="PATC" name="PATC" netid="HL" source="National Observatory of Athens Seismic Network" insttype="" lat="38.26933" lon="21.76001">
		<comp name="00.HNE" depth="0.0">
			<acc value="2.8453689651054" flag="0"/>
			<vel value="1.24668007723" flag="0"/>
			<psa03 value="5.10369242788752" flag="0"/>
			<psa10 value="1.21600815457048" flag="0"/>
			<psa30 value="0.086366621364861" flag="0"/>
		</comp>
		<comp name="00.HNN" depth="0.0">
			<acc value="5.0409052228392" flag="0"/>
			<vel value="2.64570515888" flag="0"/>
			<psa03 value="9.91451145441194" flag="0"/>
			<psa10 value="1.50920065713776" flag="0"/>
			<psa30 value="0.10342307793804" flag="0"/>
		</comp>
		<comp name="00.HNZ" depth="0.0">
			<acc value="1.957687797648" flag="0"/>
			<vel value="0.739904556787" flag="0"/>
			<psa03 value="2.75524668823591" flag="0"/>
			<psa10 value="0.473346276868242" flag="0"/>
			<psa30 value="0.0326902255669975" flag="0"/>
		</comp>
	</station>
	<station code="PATG" name="PATG" netid="HL" source="National Observatory of Athens Seismic Network" insttype="" lat="38.23865" lon="21.72657">
		<comp name="00.HNE" depth="0.0">
			<acc value="7.4447016689484" flag="0"/>
			<vel value="5.13045677448" flag="0"/>
			<psa03 value="28.8241627926625" flag="0"/>
			<psa10 value="2.47245322789168" flag="0"/>
			<psa30 value="0.193746941450717" flag="0"/>
		</comp>
		<comp name="00.HNN" depth="0.0">
			<acc value="4.2241950595998" flag="0"/>
			<vel value="2.10065402042" flag="0"/>
			<psa03 value="10.2854200252697" flag="0"/>
			<psa10 value="1.13170352980596" flag="0"/>
			<psa30 value="0.0978216135353007" flag="0"/>
		</comp>
		<comp name="00.HNZ" depth="0.0">
			<acc value="1.8038517755886" flag="0"/>
			<vel value="0.721902510546" flag="0"/>
			<psa03 value="4.56113948642251" flag="0"/>
			<psa10 value="0.505865011075283" flag="0"/>
			<psa30 value="0.0545462200860956" flag="0"/>
		</comp>
	</station>
	<station code="RIOA" name="RIOA" netid="HL" source="National Observatory of Athens Seismic Network" insttype="" lat="38.29585" lon="21.79118">
		<comp name="00.HNE" depth="0.0">
			<acc value="2.8126100937546" flag="0"/>
			<vel value="1.62011554067" flag="0"/>
			<psa03 value="7.27246443173048" flag="0"/>
			<psa10 value="0.831993815508401" flag="0"/>
			<psa30 value="0.0868371858707558" flag="0"/>
		</comp>
		<comp name="00.HNN" depth="0.0">
			<acc value="2.4956779468224" flag="0"/>
			<vel value="1.09717025593" flag="0"/>
			<psa03 value="3.80227688218472" flag="0"/>
			<psa10 value="0.754833564017328" flag="0"/>
			<psa30 value="0.0437046418846984" flag="0"/>
		</comp>
		<comp name="00.HNZ" depth="0.0">
			<acc value="1.5940671137466" flag="0"/>
			<vel value="0.420663192824" flag="0"/>
			<psa03 value="2.06699392820129" flag="0"/>
			<psa10 value="0.244437157761879" flag="0"/>
			<psa30 value="0.0215243742174988" flag="0"/>
		</comp>
	</station>
	<station code="THVC" name="THVC" netid="HL" source="National Observatory of Athens Seismic Network" insttype="" lat="38.3191" lon="23.3177">
		<comp name=".HNE" depth="0.0">
			<acc value="0.094992904007532" flag="0"/>
			<vel value="0.0600765819895" flag="0"/>
			<psa03 value="0.0995761172625192" flag="0"/>
			<psa10 value="0.0456540768587143" flag="0"/>
			<psa30 value="0.0315338556298336" flag="0"/>
		</comp>
		<comp name=".HNN" depth="0.0">
			<acc value="0.04192270253061" flag="0"/>
			<vel value="0.0324886463007" flag="0"/>
			<psa03 value="0.0559693847802858" flag="0"/>
			<psa10 value="0.0239406409499828" flag="0"/>
			<psa30 value="0.0113495401846795" flag="0"/>
		</comp>
		<comp name=".HNZ" depth="0.0">
			<acc value="0.055952135909712" flag="0"/>
			<vel value="0.0424865119455" flag="0"/>
			<psa03 value="0.0752390727611004" flag="0"/>
			<psa10 value="0.0288641321070746" flag="0"/>
			<psa30 value="0.0174682305178694" flag="0"/>
		</comp>
	</station>
	<station code="TRKA" name="TRKA" netid="HL" source="National Observatory of Athens Seismic Network" insttype="" lat="39.55381" lon="21.76624">
		<comp name="00.HNE" depth="0.0">
			<acc value="0.013396759764714" flag="0"/>
			<vel value="0.0137941367236" flag="0"/>
			<psa03 value="0.0305507660258206" flag="0"/>
			<psa10 value="0.0266013540841731" flag="0"/>
			<psa30 value="0.00244033145164998" flag="0"/>
		</comp>
		<comp name="00.HNN" depth="0.0">
			<acc value="0.01440611487468" flag="0"/>
			<vel value="0.0144766546915" flag="0"/>
			<psa03 value="0.0397429530881139" flag="0"/>
			<psa10 value="0.0333455777308695" flag="0"/>
			<psa30 value="0.0047577855966318" flag="0"/>
		</comp>
		<comp name="00.HNZ" depth="0.0">
			<acc value="0.0121763428812" flag="0"/>
			<vel value="0.00843667081881" flag="0"/>
			<psa03 value="0.0300325337788042" flag="0"/>
			<psa10 value="0.0105156778620544" flag="0"/>
			<psa30 value="0.00307505620738178" flag="0"/>
		</comp>
	</station>
	<station code="FSK" name="FSK" netid="HP" source="University of Patras, Seismological Laboratory (PSLNET)" insttype="" lat="38.4593" lon="20.5623">
		<comp name=".HNE" depth="0.0">
			<acc value="0.256946084571" flag="0"/>
			<vel value="0.0521257845486" flag="0"/>
			<psa03 value="0.147584599671991" flag="0"/>
			<psa10 value="0.0186455920539794" flag="0"/>
			<psa30 value="0.0019762857108946" flag="0"/>
		</comp>
		<comp name=".HNN" depth="0.0">
			<acc value="0.11966141223264" flag="0"/>
			<vel value="0.025127845583" flag="0"/>
			<psa03 value="0.0622420294790636" flag="0"/>
			<psa10 value="0.0159237254936464" flag="0"/>
			<psa30 value="0.00256320938337571" flag="0"/>
		</comp>
		<comp name=".HNZ" depth="0.0">
			<acc value="0.087488225601144" flag="0"/>
			<vel value="0.0179042071071" flag="0"/>
			<psa03 value="0.050808589778096" flag="0"/>
			<psa10 value="0.00798967083898983" flag="0"/>
			<psa30 value="0.00152303912303262" flag="0"/>
		</comp>
	</station>
	<station code="GUR" name="GUR" netid="HP" source="University of Patras, Seismological Laboratory (PSLNET)" insttype="" lat="37.9363" lon="22.3423">
		<comp name=".HNE" depth="0.0">
			<acc value="0.42384779982402" flag="0"/>
			<vel value="0.156445050084" flag="0"/>
			<psa03 value="0.624773554847437" flag="0"/>
			<psa10 value="0.0382868375650951" flag="0"/>
			<psa30 value="0.00500440193372676" flag="0"/>
		</comp>
		<comp name=".HNN" depth="0.0">
			<acc value="0.4118512296519" flag="0"/>
			<vel value="0.15937660042" flag="0"/>
			<psa03 value="0.646149470896661" flag="0"/>
			<psa10 value="0.0689732491393263" flag="0"/>
			<psa30 value="0.00703402513629073" flag="0"/>
		</comp>
		<comp name=".HNZ" depth="0.0">
			<acc value="0.28624494706284" flag="0"/>
			<vel value="0.0785291674494" flag="0"/>
			<psa03 value="0.251395299538123" flag="0"/>
			<psa10 value="0.0235315601003505" flag="0"/>
			<psa30 value="0.00263982341701157" flag="0"/>
		</comp>
	</station>
	<station code="LTHK" name="LTHK" netid="HP" source="University of Patras, Seismological Laboratory (PSLNET)" insttype="" lat="37.7095" lon="20.8367">
		<comp name=".HNE" depth="0.0">
			<acc value="0.051374342520726" flag="0"/>
			<vel value="0.0214585935828" flag="0"/>
			<psa03 value="0.0765383880010083" flag="0"/>
			<psa10 value="0.0252288269109658" flag="0"/>
			<psa30 value="0.00251141157702589" flag="0"/>
		</comp>
		<comp name=".HNN" depth="0.0">
			<acc value="0.051252755977662" flag="0"/>
			<vel value="0.0221029939091" flag="0"/>
			<psa03 value="0.114365492819115" flag="0"/>
			<psa10 value="0.0396518792423805" flag="0"/>
			<psa30 value="0.00233446923046291" flag="0"/>
		</comp>
		<comp name=".HNZ" depth="0.0">
			<acc value="0.020565087526626" flag="0"/>
			<vel value="0.00953778596383" flag="0"/>
			<psa03 value="0.0473942906807901" flag="0"/>
			<psa10 value="0.0113509172550754" flag="0"/>
			<psa30 value="0.00113144245251096" flag="0"/>
		</comp>
	</station>
	<station code="LTK" name="LTK" netid="HP" source="University of Patras, Seismological Laboratory (PSLNET)" insttype="" lat="38.0228" lon="22.9673">
		<comp name=".HNE" depth="0.0">
			<acc value="0.023846451438996" flag="0"/>
			<vel value="0.0145687317003" flag="0"/>
			<psa03 value="0.0664489852523992" flag="0"/>
			<psa10 value="0.018363927770094" flag="0"/>
			<psa30 value="0.00176194984552881" flag="0"/>
		</comp>
		<comp name=".HNN" depth="0.0">
			<acc value="0.028357602936222" flag="0"/>
			<vel value="0.011115855612" flag="0"/>
			<psa03 value="0.0725438994274637" flag="0"/>
			<psa10 value="0.0130578859583511" flag="0"/>
			<psa30 value="0.00196898668570256" flag="0"/>
		</comp>
		<comp name=".HNZ" depth="0.0">
			<acc value="0.026446161987432" flag="0"/>
			<vel value="0.0102496312997" flag="0"/>
			<psa03 value="0.0660276031714972" flag="0"/>
			<psa10 value="0.00792558940638163" flag="0"/>
			<psa30 value="0.0021310951329275" flag="0"/>
		</comp>
	</station>
	<station code="PDO" name="PDO" netid="HP" source="University of Patras, Seismological Laboratory (PSLNET)" insttype="" lat="38.5986" lon="21.1833">
		<comp name=".HNE" depth="0.0">
			<acc value="0.22814197852902" flag="0"/>
			<vel value="0.0780822681205" flag="0"/>
			<psa03 value="0.568616584724336" flag="0"/>
