<?xml version="1.0" encoding="UTF-8" standalone="yes"?>
<!DOCTYPE earthquake SYSTEM "stationlist.dtd">
<stationlist created="" xmlns="ch.ethz.sed.shakemap.usgs.xml">
  <station code="PSAM" name="PSAM" netid="CL" insttype="CMG40-T" lat="38.3218" lon="22.1842">
    <comp name="00.HHZ">
      <acc value="0.1510747505" flag="0"/>
      <vel value="0.0351401750" flag="0"/>
      <psa03 value="0.1556711479" flag="0"/>
      <psa10 value="0.0493725130" flag="0"/>
      <psa30 value="0.0031458714" flag="0"/>
    </comp>
    <comp name="00.HHN">
      <acc value="0.2393416581" flag="0"/>
      <vel value="0.1343944839" flag="0"/>
      <psa03 value="0.5728613542" flag="0"/>
      <psa10 value="0.1746937252" flag="0"/>
      <psa30 value="0.0175783100" flag="0"/>
    </comp>
    <comp name="00.HHE">
      <acc value="0.2646600905" flag="0"/>
      <vel value="0.1515565369" flag="0"/>
      <psa03 value="0.6311615410" flag="0"/>
      <psa10 value="0.1190333451" flag="0"/>
      <psa30 value="0.0152630939" flag="0"/>
    </comp>
  </station>
  <station code="TRIZ" name="TRIZ" netid="CL" insttype="STS-2" lat="38.3654" lon="22.0727">
    <comp name="00.HH3">
      <acc value="0.3369391293" flag="0"/>
      <vel value="0.0921004212" flag="0"/>
      <psa03 value="0.6506848523" flag="0"/>
      <psa10 value="0.1127223735" flag="0"/>
      <psa30 value="0.0087723595" flag="0"/>
    </comp>
    <comp name="00.HHZ">
      <acc value="0.4206338866" flag="0"/>
      <vel value="0.0743386003" flag="0"/>
      <psa03 value="0.2449293312" flag="0"/>
      <psa10 value="0.0412055347" flag="0"/>
      <psa30 value="0.0034512571" flag="0"/>
    </comp>
    <comp name="00.HH2">
      <acc value="0.2594561784" flag="0"/>
      <vel value="0.0921497370" flag="0"/>
      <psa03 value="0.4944437475" flag="0"/>
      <psa10 value="0.0605186221" flag="0"/>
      <psa30 value="0.0047758934" flag="0"/>
    </comp>
  </station>
  <station code="ZIRI" name="ZIRI" netid="CL" insttype="TRILLIUM-40" lat="38.3051" lon="21.9476">
    <comp name="01.HHZ">
      <acc value="1.2533001725" flag="0"/>
      <vel value="0.3024451740" flag="0"/>
      <psa03 value="1.2353378183" flag="0"/>
      <psa10 value="0.1011797369" flag="0"/>
      <psa30 value="0.0085877722" flag="0"/>
    </comp>
    <comp name="01.HHN">
      <acc value="1.7117741855" flag="0"/>
      <vel value="0.4953661257" flag="0"/>
      <psa03 value="3.0383077160" flag="0"/>
      <psa10 value="0.1565132949" flag="0"/>
      <psa30 value="0.0117974652" flag="0"/>
    </comp>
    <comp name="01.HHE">
      <acc value="2.8357555663" flag="0"/>
      <vel value="0.5402411168" flag="0"/>
      <psa03 value="1.9137937542" flag="0"/>
      <psa10 value="0.2665527915" flag="0"/>
      <psa30 value="0.0198021259" flag="0"/>
    </comp>
  </station>
  <station code="KLV" name="KLV" netid="MN" insttype="" lat="38.0437" lon="22.1504">
    <comp name="--.HHE">
      <acc value="0.5272263918" flag="0"/>
      <vel value="0.0795975426" flag="0"/>
      <psa03 value="0.2819069535" flag="0"/>
      <psa10 value="0.0699578338" flag="0"/>
      <psa30 value="0.0053199702" flag="0"/>
    </comp>
    <comp name="--.HHN">
      <acc value="0.5841405970" flag="0"/>
      <vel value="0.1750286317" flag="0"/>
      <psa03 value="0.4136522811" flag="0"/>
      <psa10 value="0.0909031792" flag="0"/>
      <psa30 value="0.0079357572" flag="0"/>
    </comp>
    <comp name="--.HHZ">
      <acc value="0.5265619667" flag="0"/>
      <vel value="0.0953835514" flag="0"/>
      <psa03 value="0.3235178019" flag="0"/>
      <psa10 value="0.0608750502" flag="0"/>
      <psa30 value="0.0040227186" flag="0"/>
    </comp>
  </station>
</stationlist>
