<?xml version="1.0" encoding="UTF-8" standalone="yes"?>
<!DOCTYPE earthquake SYSTEM "stationlist.dtd">
<stationlist created="" xmlns="ch.ethz.sed.shakemap.usgs.xml">
  <station code="PSAM" name="PSAM" netid="CL" insttype="CMG40-T" lat="38.3218" lon="22.1842">
    <comp name="00.HHE">
      <acc value="0.2646600901" flag="0"/>
      <vel value="0.1515565366" flag="0"/>
      <psa03 value="0.6311615410" flag="0"/>
      <psa10 value="0.1190333451" flag="0"/>
      <psa30 value="0.0152630968" flag="0"/>
    </comp>
    <comp name="00.HHZ">
      <acc value="0.1510747489" flag="0"/>
      <vel value="0.0351401756" flag="0"/>
      <psa03 value="0.1556711479" flag="0"/>
      <psa10 value="0.0493725130" flag="0"/>
      <psa30 value="0.0031458688" flag="0"/>
    </comp>
    <comp name="00.HHN">
      <acc value="0.2393416597" flag="0"/>
      <vel value="0.1343944841" flag="0"/>
      <psa03 value="0.5728613542" flag="0"/>
      <psa10 value="0.1746937252" flag="0"/>
      <psa30 value="0.0175783102" flag="0"/>
    </comp>
  </station>
  <station code="ROD3" name="ROD3" netid="CL" insttype="CMG40-T" lat="38.3081" lon="21.892">
    <comp name="00.HHN">
      <acc value="3.7327657266" flag="0"/>
      <vel value="1.4989956069" flag="0"/>
      <psa03 value="7.0380501814" flag="0"/>
      <psa10 value="0.3901789432" flag="0"/>
      <psa30 value="0.0322044053" flag="0"/>
    </comp>
    <comp name="00.HHE">
      <acc value="3.3887484415" flag="0"/>
      <vel value="1.3467203577" flag="0"/>
      <psa03 value="8.6911502346" flag="0"/>
      <psa10 value="0.4873356702" flag="0"/>
      <psa30 value="0.0390788738" flag="0"/>
    </comp>
    <comp name="00.HHZ">
      <acc value="2.1952265893" flag="0"/>
      <vel value="0.7067219911" flag="0"/>
      <psa03 value="2.0026073182" flag="0"/>
      <psa10 value="0.1793535447" flag="0"/>
      <psa30 value="0.0151787927" flag="0"/>
    </comp>
  </station>
  <station code="TRIZ" name="TRIZ" netid="CL" insttype="STS-2" lat="38.3654" lon="22.0727">
    <comp name="00.HH3">
      <acc value="0.3369391297" flag="0"/>
      <vel value="0.0921004211" flag="0"/>
      <psa03 value="0.6506848523" flag="0"/>
      <psa10 value="0.1127223735" flag="0"/>
      <psa30 value="0.0087723589" flag="0"/>
    </comp>
    <comp name="00.HH2">
      <acc value="0.2594561792" flag="0"/>
      <vel value="0.0921497369" flag="0"/>
      <psa03 value="0.4944437475" flag="0"/>
      <psa10 value="0.0605186221" flag="0"/>
      <psa30 value="0.0047758888" flag="0"/>
    </comp>
    <comp name="00.HHZ">
      <acc value="0.4206338869" flag="0"/>
      <vel value="0.0743386003" flag="0"/>
      <psa03 value="0.2449293312" flag="0"/>
      <psa10 value="0.0412055347" flag="0"/>
      <psa30 value="0.0034512538" flag="0"/>
    </comp>
  </station>
  <station code="ZIRI" name="ZIRI" netid="CL" insttype="TRILLIUM-40" lat="38.3051" lon="21.9476">
    <comp name="01.HHE">
      <acc value="2.8357555661" flag="0"/>
      <vel value="0.5402411163" flag="0"/>
      <psa03 value="1.9137937542" flag="0"/>
      <psa10 value="0.2665527917" flag="0"/>
      <psa30 value="0.0198021305" flag="0"/>
    </comp>
    <comp name="01.HHN">
      <acc value="1.7117741847" flag="0"/>
      <vel value="0.4953661237" flag="0"/>
      <psa03 value="3.0383077160" flag="0"/>
      <psa10 value="0.1565132949" flag="0"/>
      <psa30 value="0.0117974747" flag="0"/>
    </comp>
    <comp name="01.HHZ">
      <acc value="1.2533001730" flag="0"/>
      <vel value="0.3024451735" flag="0"/>
      <psa03 value="1.2353378183" flag="0"/>
      <psa10 value="0.1011797369" flag="0"/>
      <psa30 value="0.0085877600" flag="0"/>
    </comp>
  </station>
  <station code="ACOR" name="ACOR" netid="HA" insttype="Horizon,120s,1200" lat="37.8905" lon="22.8694">
    <comp name="--.HHZ">
      <acc value="0.0131252774" flag="0"/>
      <vel value="0.0076453244" flag="0"/>
      <psa03 value="0.0241908698" flag="0"/>
      <psa10 value="0.0090447543" flag="0"/>
      <psa30 value="0.0013335881" flag="0"/>
    </comp>
    <comp name="--.HHE">
      <acc value="0.0117018812" flag="0"/>
      <vel value="0.0067388410" flag="0"/>
      <psa03 value="0.0230985940" flag="0"/>
      <psa10 value="0.0086041507" flag="0"/>
      <psa30 value="0.0018661904" flag="0"/>
    </comp>
    <comp name="--.HHN">
      <acc value="0.0141153589" flag="0"/>
      <vel value="0.0082441900" flag="0"/>
      <psa03 value="0.0244135338" flag="0"/>
      <psa10 value="0.0111357960" flag="0"/>
      <psa30 value="0.0026777239" flag="0"/>
    </comp>
  </station>
  <station code="AIGS" name="AIGS" netid="HA" insttype="DC" lat="38.25" lon="22.0878">
    <comp name="--.HNE">
      <acc value="0.8228348515" flag="0"/>
      <vel value="0.2205041355" flag="0"/>
      <psa03 value="1.3969703370" flag="0"/>
      <psa10 value="0.1551985572" flag="0"/>
      <psa30 value="0.0282457205" flag="0"/>
    </comp>
    <comp name="--.HNZ">
      <acc value="0.8804137119" flag="0"/>
      <vel value="0.1810994444" flag="0"/>
      <psa03 value="0.5541448870" flag="0"/>
      <psa10 value="0.0872921339" flag="0"/>
      <psa30 value="0.0047775059" flag="0"/>
    </comp>
    <comp name="--.HNN">
      <acc value="0.8210941192" flag="0"/>
      <vel value="0.1995727526" flag="0"/>
      <psa03 value="0.8917265333" flag="0"/>
      <psa10 value="0.0856882980" flag="0"/>
      <psa30 value="0.0095421935" flag="0"/>
    </comp>
  </station>
  <station code="AMPE" name="AMPE" netid="HA" insttype="1s-100Hz," lat="38.3015" lon="23.2688">
    <comp name="--.HHE">
      <acc value="0.0143441749" flag="0"/>
      <vel value="0.0121856091" flag="0"/>
      <psa03 value="0.0331605628" flag="0"/>
      <psa10 value="0.0212227630" flag="0"/>
      <psa30 value="0.0019398505" flag="0"/>
    </comp>
    <comp name="--.HHZ">
      <acc value="0.0091508505" flag="0"/>
      <vel value="0.0061119194" flag="0"/>
      <psa03 value="0.0268801322" flag="0"/>
      <psa10 value="0.0123675043" flag="0"/>
      <psa30 value="0.0011510304" flag="0"/>
    </comp>
    <comp name="--.HHN">
      <acc value="0.0160407351" flag="0"/>
      <vel value="0.0098768852" flag="0"/>
      <psa03 value="0.0254459289" flag="0"/>
      <psa10 value="0.0141855677" flag="0"/>
      <psa30 value="0.0020852568" flag="0"/>
    </comp>
  </station>
  <station code="ANTK" name="ANTK" netid="HA" insttype="25" lat="38.3605" lon="22.6385">
    <comp name="--.HHE">
      <acc value="0.0126255285" flag="0"/>
      <vel value="0.0085664077" flag="0"/>
      <psa03 value="0.0212712965" flag="0"/>
      <psa10 value="0.0128074417" flag="0"/>
      <psa30 value="0.0010653763" flag="0"/>
    </comp>
    <comp name="--.HHN">
      <acc value="0.0009649723" flag="0"/>
      <vel value="0.0002852534" flag="0"/>
      <psa03 value="0.0017365521" flag="0"/>
      <psa10 value="0.0002400392" flag="0"/>
      <psa30 value="0.0000124947" flag="0"/>
    </comp>
    <comp name="--.HHZ">
      <acc value="0.0116840512" flag="0"/>
      <vel value="0.0060025729" flag="0"/>
      <psa03 value="0.0183354432" flag="0"/>
      <psa10 value="0.0048476262" flag="0"/>
      <psa30 value="0.0006276879" flag="0"/>
    </comp>
  </station>
  <station code="ATAL" name="ATAL" netid="HA" insttype="120s," lat="38.6926" lon="23.0213">
    <comp name="--.HHE">
      <acc value="0.0069557056" flag="0"/>
      <vel value="0.0056271822" flag="0"/>
      <psa03 value="0.0194857228" flag="0"/>
      <psa10 value="0.0074983403" flag="0"/>
      <psa30 value="0.0015717488" flag="0"/>
    </comp>
    <comp name="--.HHN">
      <acc value="0.0100549393" flag="0"/>
      <vel value="0.0065996842" flag="0"/>
      <psa03 value="0.0266429052" flag="0"/>
      <psa10 value="0.0097096647" flag="0"/>
      <psa30 value="0.0014969188" flag="0"/>
    </comp>
    <comp name="--.HHZ">
      <acc value="0.0074777271" flag="0"/>
      <vel value="0.0057788127" flag="0"/>
      <psa03 value="0.0155529929" flag="0"/>
      <psa10 value="0.0075050588" flag="0"/>
      <psa30 value="0.0010552329" flag="0"/>
    </comp>
  </station>
  <station code="AXAR" name="AXAR" netid="HA" insttype="Horizon,120s,1200" lat="38.7664" lon="22.659">
    <comp name="--.HHE">
      <acc value="0.0667111926" flag="0"/>
      <vel value="0.0421020861" flag="0"/>
      <psa03 value="0.2825911638" flag="0"/>
      <psa10 value="0.0346061936" flag="0"/>
      <psa30 value="0.0074981894" flag="0"/>
    </comp>
    <comp name="--.HHN">
      <acc value="0.0812494940" flag="0"/>
      <vel value="0.0454494196" flag="0"/>
      <psa03 value="0.2237831259" flag="0"/>
      <psa10 value="0.0590250039" flag="0"/>
      <psa30 value="0.0051088200" flag="0"/>
    </comp>
    <comp name="--.HHZ">
      <acc value="0.0470578710" flag="0"/>
      <vel value="0.0230434948" flag="0"/>
      <psa03 value="0.0846599834" flag="0"/>
      <psa10 value="0.0248110816" flag="0"/>
      <psa30 value="0.0031699267" flag="0"/>
    </comp>
  </station>
  <station code="DOMV" name="DOMV" netid="HA" insttype="60" lat="38.2569" lon="22.9795">
    <comp name="--.HHE">
      <acc value="0.0497132747" flag="0"/>
      <vel value="0.0218252670" flag="0"/>
      <psa03 value="0.0848864825" flag="0"/>
      <psa10 value="0.0135556277" flag="0"/>
      <psa30 value="0.0019438958" flag="0"/>
    </comp>
    <comp name="--.HHN">
      <acc value="0.0534507025" flag="0"/>
      <vel value="0.0207630661" flag="0"/>
      <psa03 value="0.0777874254" flag="0"/>
      <psa10 value="0.0169895625" flag="0"/>
      <psa30 value="0.0028198213" flag="0"/>
    </comp>
    <comp name="--.HHZ">
      <acc value="0.0443518679" flag="0"/>
      <vel value="0.0139401315" flag="0"/>
      <psa03 value="0.0734500186" flag="0"/>
      <psa10 value="0.0185607203" flag="0"/>
      <psa30 value="0.0011710930" flag="0"/>
    </comp>
  </station>
  <station code="EPID" name="EPID" netid="HA" insttype="30" lat="37.6144" lon="23.1189">
    <comp name="--.HHN">
      <acc value="0.0237813193" flag="0"/>
      <vel value="0.0086961183" flag="0"/>
      <psa03 value="0.0354266463" flag="0"/>
      <psa10 value="0.0077998512" flag="0"/>
      <psa30 value="0.0007206080" flag="0"/>
    </comp>
    <comp name="--.HHZ">
      <acc value="0.0160542696" flag="0"/>
      <vel value="0.0066179246" flag="0"/>
      <psa03 value="0.0224240734" flag="0"/>
      <psa10 value="0.0060247826" flag="0"/>
      <psa30 value="0.0010052299" flag="0"/>
    </comp>
    <comp name="--.HHE">
      <acc value="0.0222730417" flag="0"/>
      <vel value="0.0060103891" flag="0"/>
      <psa03 value="0.0310391257" flag="0"/>
      <psa10 value="0.0046268963" flag="0"/>
      <psa30 value="0.0007172982" flag="0"/>
    </comp>
  </station>
  <station code="KALE" name="KALE" netid="HA" insttype="40," lat="38.3911" lon="22.1398">
    <comp name="--.HHZ">
      <acc value="0.2846475513" flag="0"/>
      <vel value="0.0768977726" flag="0"/>
      <psa03 value="0.2846847139" flag="0"/>
      <psa10 value="0.0395426810" flag="0"/>
      <psa30 value="0.0042246865" flag="0"/>
    </comp>
    <comp name="--.HHN">
      <acc value="0.3611813650" flag="0"/>
      <vel value="0.1068479186" flag="0"/>
      <psa03 value="0.3649923417" flag="0"/>
      <psa10 value="0.0470148147" flag="0"/>
      <psa30 value="0.0070211153" flag="0"/>
    </comp>
    <comp name="--.HHE">
      <acc value="0.3276220341" flag="0"/>
      <vel value="0.1781983578" flag="0"/>
      <psa03 value="0.5731284554" flag="0"/>
      <psa10 value="0.1291960816" flag="0"/>
      <psa30 value="0.0080865091" flag="0"/>
    </comp>
  </station>
  <station code="KIAS" name="KIAS" netid="HA" insttype="DC" lat="37.9875" lon="22.7543">
    <comp name="--.HNE">
      <acc value="0.0932635626" flag="0"/>
      <vel value="0.0398257792" flag="0"/>
      <psa03 value="0.1298305899" flag="0"/>
      <psa10 value="0.0602487989" flag="0"/>
      <psa30 value="0.0066397791" flag="0"/>
    </comp>
    <comp name="--.HNN">
      <acc value="0.1201139676" flag="0"/>
      <vel value="0.0486702610" flag="0"/>
      <psa03 value="0.1482937731" flag="0"/>
      <psa10 value="0.0413463817" flag="0"/>
      <psa30 value="0.0087074507" flag="0"/>
    </comp>
    <comp name="--.HNZ">
      <acc value="0.0580334220" flag="0"/>
      <vel value="0.0221285093" flag="0"/>
      <psa03 value="0.0695465525" flag="0"/>
      <psa10 value="0.0393768082" flag="0"/>
      <psa30 value="0.0069628739" flag="0"/>
    </comp>
  </station>
  <station code="LAKA" name="LAKA" netid="HA" insttype="120s," lat="38.2401" lon="21.9785">
    <comp name="--.HHN">
      <acc value="0.7206709323" flag="0"/>
      <vel value="0.1088839190" flag="0"/>
      <psa03 value="0.3330430599" flag="0"/>
      <psa10 value="0.1007504449" flag="0"/>
      <psa30 value="0.0078205073" flag="0"/>
    </comp>
    <comp name="--.HHE">
      <acc value="0.4616569902" flag="0"/>
      <vel value="0.0820387701" flag="0"/>
      <psa03 value="0.2494964051" flag="0"/>
      <psa10 value="0.0818572733" flag="0"/>
      <psa30 value="0.0080773255" flag="0"/>
    </comp>
    <comp name="--.HHZ">
      <acc value="0.4457908232" flag="0"/>
      <vel value="0.0693765790" flag="0"/>
      <psa03 value="0.2094874534" flag="0"/>
      <psa10 value="0.0985954282" flag="0"/>
      <psa30 value="0.0067944068" flag="0"/>
    </comp>
  </station>
  <station code="LOUT" name="LOUT" netid="HA" insttype="30" lat="37.9879" lon="22.9743">
    <comp name="--.HHE">
      <acc value="0.0340808420" flag="0"/>
      <vel value="0.0171125616" flag="0"/>
      <psa03 value="0.0619905741" flag="0"/>
      <psa10 value="0.0199637421" flag="0"/>
      <psa30 value="0.0020699674" flag="0"/>
    </comp>
    <comp name="--.HHN">
      <acc value="0.0316898019" flag="0"/>
      <vel value="0.0185000411" flag="0"/>
      <psa03 value="0.0803082529" flag="0"/>
      <psa10 value="0.0240831331" flag="0"/>
      <psa30 value="0.0026148419" flag="0"/>
    </comp>
    <comp name="--.HHZ">
      <acc value="0.0253368807" flag="0"/>
      <vel value="0.0090903206" flag="0"/>
      <psa03 value="0.0468608983" flag="0"/>
      <psa10 value="0.0111370244" flag="0"/>
      <psa30 value="0.0014248984" flag="0"/>
    </comp>
  </station>
  <station code="PRDM" name="PRDM" netid="HA" insttype="25" lat="38.2804" lon="22.847">
    <comp name="--.HHN">
      <acc value="0.0151998207" flag="0"/>
      <vel value="0.0055996184" flag="0"/>
      <psa03 value="0.0145684399" flag="0"/>
      <psa10 value="0.0041217477" flag="0"/>
      <psa30 value="0.0007851458" flag="0"/>
    </comp>
    <comp name="--.HHE">
      <acc value="0.0187316942" flag="0"/>
      <vel value="0.0082219500" flag="0"/>
      <psa03 value="0.0212313645" flag="0"/>
      <psa10 value="0.0104133273" flag="0"/>
      <psa30 value="0.0017039845" flag="0"/>
    </comp>
    <comp name="--.HHZ">
      <acc value="0.0075592784" flag="0"/>
      <vel value="0.0035119338" flag="0"/>
      <psa03 value="0.0158102345" flag="0"/>
      <psa10 value="0.0045748283" flag="0"/>
      <psa30 value="0.0004430118" flag="0"/>
    </comp>
  </station>
  <station code="THAL" name="THAL" netid="HA" insttype="30" lat="38.0357" lon="22.6634">
    <comp name="--.HHE">
      <acc value="0.2342110936" flag="0"/>
      <vel value="0.1108155855" flag="0"/>
      <psa03 value="0.4208863777" flag="0"/>
      <psa10 value="0.1017653204" flag="0"/>
      <psa30 value="0.0060550895" flag="0"/>
    </comp>
    <comp name="--.HHN">
      <acc value="0.2177419338" flag="0"/>
      <vel value="0.0878957072" flag="0"/>
      <psa03 value="0.3931692602" flag="0"/>
      <psa10 value="0.0626429723" flag="0"/>
      <psa30 value="0.0062969604" flag="0"/>
    </comp>
    <comp name="--.HHZ">
      <acc value="0.1529597808" flag="0"/>
      <vel value="0.0486643703" flag="0"/>
      <psa03 value="0.1688383793" flag="0"/>
      <psa10 value="0.0404854467" flag="0"/>
      <psa30 value="0.0038739204" flag="0"/>
    </comp>
  </station>
  <station code="EVR" name="EVR" netid="HL" insttype="DR24" lat="38.9166" lon="21.8105">
    <comp name="--.HHN">
      <acc value="0.0529507749" flag="0"/>
      <vel value="0.0261824301" flag="0"/>
      <psa03 value="0.0989842084" flag="0"/>
      <psa10 value="0.0496480909" flag="0"/>
      <psa30 value="0.0019207448" flag="0"/>
    </comp>
    <comp name="--.HHZ">
      <acc value="0.0330248676" flag="0"/>
      <vel value="0.0165595003" flag="0"/>
      <psa03 value="0.0764134496" flag="0"/>
      <psa10 value="0.0317851873" flag="0"/>
      <psa30 value="0.0023981918" flag="0"/>
    </comp>
    <comp name="--.HHE">
      <acc value="0.0606574136" flag="0"/>
      <vel value="0.0284802239" flag="0"/>
      <psa03 value="0.0822491921" flag="0"/>
      <psa10 value="0.0363297828" flag="0"/>
      <psa30 value="0.0049081810" flag="0"/>
    </comp>
  </station>
  <station code="ITM" name="ITM" netid="HL" insttype="DR24" lat="37.1787" lon="21.9252">
    <comp name="--.HHN">
      <acc value="0.0452852510" flag="0"/>
      <vel value="0.0115703597" flag="0"/>
      <psa03 value="0.0532417873" flag="0"/>
      <psa10 value="0.0071753891" flag="0"/>
      <psa30 value="0.0009395157" flag="0"/>
    </comp>
    <comp name="--.HHZ">
      <acc value="0.0268083301" flag="0"/>
      <vel value="0.0090866399" flag="0"/>
      <psa03 value="0.0377686848" flag="0"/>
      <psa10 value="0.0048962142" flag="0"/>
      <psa30 value="0.0011410106" flag="0"/>
    </comp>
    <comp name="--.HHE">
      <acc value="0.0377944297" flag="0"/>
      <vel value="0.0134310232" flag="0"/>
      <psa03 value="0.0542385310" flag="0"/>
      <psa10 value="0.0087336844" flag="0"/>
      <psa30 value="0.0015814622" flag="0"/>
    </comp>
  </station>
  <station code="KLV" name="KLV" netid="HL" insttype="120" lat="38.0435" lon="22.1504">
    <comp name="--.HHE">
      <acc value="0.4316168825" flag="0"/>
      <vel value="0.0764807826" flag="0"/>
      <psa03 value="0.2746751446" flag="0"/>
      <psa10 value="0.0695049939" flag="0"/>
      <psa30 value="0.0052894026" flag="0"/>
    </comp>
    <comp name="--.HHN">
      <acc value="0.5107399570" flag="0"/>
      <vel value="0.1701784350" flag="0"/>
      <psa03 value="0.3990350392" flag="0"/>
      <psa10 value="0.0902520093" flag="0"/>
      <psa30 value="0.0078860190" flag="0"/>
    </comp>
    <comp name="--.HHZ">
      <acc value="0.4638507289" flag="0"/>
      <vel value="0.0924866196" flag="0"/>
      <psa03 value="0.3130254534" flag="0"/>
      <psa10 value="0.0605490805" flag="0"/>
      <psa30 value="0.0039918009" flag="0"/>
    </comp>
  </station>
  <station code="LKR" name="LKR" netid="HL" insttype="65535" lat="38.6496" lon="22.9988">
    <comp name="--.HHZ">
      <acc value="0.0135262582" flag="0"/>
      <vel value="0.0055262758" flag="0"/>
      <psa03 value="0.0289513699" flag="0"/>
      <psa10 value="0.0078155683" flag="0"/>
      <psa30 value="0.0008279596" flag="0"/>
    </comp>
    <comp name="--.HHE">
      <acc value="0.0305001111" flag="0"/>
      <vel value="0.0130457730" flag="0"/>
      <psa03 value="0.0601286266" flag="0"/>
      <psa10 value="0.0107863654" flag="0"/>
      <psa30 value="0.0016128630" flag="0"/>
    </comp>
    <comp name="--.HHN">
      <acc value="0.0341259568" flag="0"/>
      <vel value="0.0107872698" flag="0"/>
      <psa03 value="0.0664975911" flag="0"/>
      <psa10 value="0.0100991288" flag="0"/>
      <psa30 value="0.0025941486" flag="0"/>
    </comp>
  </station>
  <station code="ORTH" name="ORTH" netid="HL" insttype="30" lat="37.8511" lon="20.6963">
    <comp name="--.HHE">
      <acc value="0.0551038165" flag="0"/>
      <vel value="0.0306077126" flag="0"/>
      <psa03 value="0.0924705192" flag="0"/>
      <psa10 value="0.0313599565" flag="0"/>
      <psa30 value="0.0020445493" flag="0"/>
    </comp>
    <comp name="--.HHZ">
      <acc value="0.0239934246" flag="0"/>
      <vel value="0.0075350592" flag="0"/>
