<?xml version="1.0" encoding="UTF-8" standalone="yes"?>
<!DOCTYPE earthquake SYSTEM "stationlist.dtd">
<stationlist created="" xmlns="ch.ethz.sed.shakemap.usgs.xml">
  <station code="BLY" name="BLY" netid="MN" source="INGV" insttype="" lat="44.7488" lon="17.1839">
    <comp name="--.HHE">
      <acc value="0.3098872023" flag="0"/>
      <vel value="0.0547865100" flag="0"/>
      <psa03 value="0.3373749506" flag="0"/>
      <psa10 value="0.0316767243" flag="0"/>
      <psa30 value="0.0031298048" flag="0"/>
    </comp>
    <comp name="--.HHN">
      <acc value="0.2384651131" flag="0"/>
      <vel value="0.0589133242" flag="0"/>
      <psa03 value="0.1698278119" flag="0"/>
      <psa10 value="0.0218826928" flag="0"/>
      <psa30 value="0.0020634902" flag="0"/>
    </comp>
    <comp name="--.HHZ">
      <acc value="0.2099498896" flag="0"/>
      <vel value="0.0553724186" flag="0"/>
      <psa03 value="0.2672542978" flag="0"/>
      <psa10 value="0.0213471994" flag="0"/>
      <psa30 value="0.0019013109" flag="0"/>
    </comp>
  </station>
</stationlist>
