<stationlist xmlns:esm="https://esm-db.eu/esmws/shakemap/1/" created="1784685203">
	<station code="BLY" name="BLY" netid="MN" source="Mediterranean Very Broadband Seismographic Network (MedNet)" insttype="" lat="44.7488" lon="17.1839" esm:processing="manual (Paolucci et al 2011)" esm:quality="best">
		<comp name="--.HLE" depth="1.0">
			<acc value="0.283336882651016" flag="0"/>
			<vel value="0.0549082269387569" flag="0"/>
			<psa03 value="0.339638090439301" flag="0"/>
			<psa10 value="0.0323472731188119" flag="0"/>
			<psa30 value="0.00322143887651557" flag="0"/>
		</comp>
		<comp name="--.HLN" depth="1.0">
			<acc value="0.225923447786275" flag="0"/>
			<vel value="0.0606480281064664" flag="0"/>
			<psa03 value="0.160714006172832" flag="0"/>
			<psa10 value="0.0217245784235018" flag="0"/>
			<psa30 value="0.00238073281415824" flag="0"/>
		</comp>
		<comp name="--.HLZ" depth="1.0">
			<acc value="0.187043889079249" flag="0"/>
			<vel value="0.0535131875105388" flag="0"/>
			<psa03 value="0.256014906269751" flag="0"/>
			<psa10 value="0.0210239154678597" flag="0"/>
			<psa30 value="0.00204069204385937" flag="0"/>
		</comp>
	</station>
	<station code="BOJS" name="BOJS" netid="SL" source="Seismic Network of the Republic of Slovenia (SNRS)" insttype="" lat="45.5043" lon="15.2518" esm:processing="manual (Paolucci et al 2011)" esm:quality="good">
		<comp name="--.HGE" depth="0.0">
			<acc value="0.0991041259183705" flag="0"/>
			<vel value="0.0382819920428499" flag="0"/>
			<psa03 value="0.259789980644568" flag="0"/>
			<psa10 value="0.0399583457943035" flag="0"/>
			<psa30 value="0.0031860739784313" flag="0"/>
		</comp>
		<comp name="--.HGN" depth="0.0">
			<acc value="0.091958836896162" flag="0"/>
			<vel value="0.0527926183267413" flag="0"/>
			<psa03 value="0.290698173994021" flag="0"/>
			<psa10 value="0.0599837873815288" flag="0"/>
			<psa30 value="0.00420908716470086" flag="0"/>
		</comp>
		<comp name="--.HGZ" depth="0.0">
			<acc value="0.0582160540641632" flag="0"/>
			<vel value="0.0281741465256081" flag="0"/>
			<psa03 value="0.165867310811973" flag="0"/>
			<psa10 value="0.036865804678632" flag="0"/>
			<psa30 value="0.00309356847539571" flag="0"/>
		</comp>
	</station>
	<station code="KOGS" name="KOGS" netid="SL" source="Seismic Network of the Republic of Slovenia (SNRS)" insttype="" lat="46.4481" lon="16.2504" esm:processing="manual (Paolucci et al 2011)" esm:quality="good">
		<comp name="--.HGE" depth="0.0">
			<acc value="0.184555140556488" flag="0"/>
			<vel value="0.0705697052516183" flag="0"/>
			<psa03 value="0.382095478616898" flag="0"/>
			<psa10 value="0.0716473862877144" flag="0"/>
			<psa30 value="0.00510063789222773" flag="0"/>
		</comp>
		<comp name="--.HGN" depth="0.0">
			<acc value="0.165382385236409" flag="0"/>
			<vel value="0.0852005062839503" flag="0"/>
			<psa03 value="0.458742431101336" flag="0"/>
			<psa10 value="0.0450415337805606" flag="0"/>
			<psa30 value="0.00317523951070098" flag="0"/>
		</comp>
		<comp name="--.HGZ" depth="0.0">
			<acc value="0.0993481331807756" flag="0"/>
			<vel value="0.036158358242119" flag="0"/>
			<psa03 value="0.386928173759233" flag="0"/>
			<psa10 value="0.0223012367224841" flag="0"/>
			<psa30 value="0.00247379971042337" flag="0"/>
		</comp>
	</station>
</stationlist>
