<?xml version="1.0" encoding="UTF-8" standalone="yes"?>
<!DOCTYPE earthquake SYSTEM "stationlist.dtd">
<stationlist created="" xmlns="ch.ethz.sed.shakemap.usgs.xml">
  <station code="ANDN" name="ANDN" netid="TU" insttype="T" lat="37.58" lon="36.3452">
    <comp name="--.HHN">
      <acc value="0.1632579650" flag="0"/>
      <vel value="0.0811788403" flag="0"/>
      <psa03 value="0.3491541021" flag="0"/>
      <psa10 value="0.1063554888" flag="0"/>
      <psa30 value="0.0058275815" flag="0"/>
    </comp>
    <comp name="--.HHE">
      <acc value="0.1435071890" flag="0"/>
      <vel value="0.0676182517" flag="0"/>
      <psa03 value="0.3366227924" flag="0"/>
      <psa10 value="0.1015678391" flag="0"/>
      <psa30 value="0.0071956554" flag="0"/>
    </comp>
  </station>
</stationlist>
