<?xml version="1.0" encoding="UTF-8" standalone="yes"?>
<!DOCTYPE earthquake SYSTEM "stationlist.dtd">
<stationlist created="" xmlns="ch.ethz.sed.shakemap.usgs.xml">
  <station code="ZKR" name="ZKR" netid="GE" insttype="STS-2/N" lat="35.1147" lon="26.2169">
    <comp name="--.HHE">
      <acc value="0.0098440750" flag="0"/>
      <vel value="0.0086632183" flag="0"/>
      <psa03 value="0.0260738920" flag="0"/>
      <psa10 value="0.0162993057" flag="0"/>
      <psa30 value="0.0016652605" flag="0"/>
    </comp>
    <comp name="--.HHN">
      <acc value="0.0044803014" flag="0"/>
      <vel value="0.0036963124" flag="0"/>
      <psa03 value="0.0180623259" flag="0"/>
      <psa10 value="0.0062382893" flag="0"/>
      <psa30 value="0.0007956798" flag="0"/>
    </comp>
    <comp name="--.HHZ">
      <acc value="0.0051500656" flag="0"/>
      <vel value="0.0058941952" flag="0"/>
      <psa03 value="0.0123341340" flag="0"/>
      <psa10 value="0.0106835240" flag="0"/>
      <psa30 value="0.0012524921" flag="0"/>
    </comp>
  </station>
  <station code="STIA" name="STIA" netid="HC" insttype="120" lat="35.2021" lon="26.0909">
    <comp name="--.HHE">
      <acc value="0.0074868222" flag="0"/>
      <vel value="0.0083675097" flag="0"/>
      <psa03 value="0.0230205776" flag="0"/>
      <psa10 value="0.0216510086" flag="0"/>
      <psa30 value="0.0018258901" flag="0"/>
    </comp>
    <comp name="--.HHN">
      <acc value="0.0000000000" flag="0"/>
      <vel value="-100.0000000000" flag="0"/>
      <psa03 value="0.0000000000" flag="0"/>
      <psa10 value="0.0000000000" flag="0"/>
      <psa30 value="0.0000000000" flag="0"/>
    </comp>
    <comp name="--.HHZ">
      <acc value="0.0060103305" flag="0"/>
      <vel value="0.0058253531" flag="0"/>
      <psa03 value="0.0163882800" flag="0"/>
      <psa10 value="0.0059819670" flag="0"/>
      <psa30 value="0.0013783841" flag="0"/>
    </comp>
  </station>
  <station code="ZKR" name="ZKR" netid="HL" insttype="120" lat="35.1147" lon="26.2169">
    <comp name="--.HHE">
      <acc value="0.0096778260" flag="0"/>
      <vel value="0.0086329107" flag="0"/>
      <psa03 value="0.0254038038" flag="0"/>
      <psa10 value="0.0162015955" flag="0"/>
      <psa30 value="0.0016631175" flag="0"/>
    </comp>
    <comp name="--.HHZ">
      <acc value="0.0050227495" flag="0"/>
      <vel value="0.0058466185" flag="0"/>
      <psa03 value="0.0120803035" flag="0"/>
      <psa10 value="0.0106317434" flag="0"/>
      <psa30 value="0.0012526958" flag="0"/>
    </comp>
    <comp name="--.HHN">
      <acc value="0.0043778539" flag="0"/>
      <vel value="0.0036516303" flag="0"/>
      <psa03 value="0.0175857679" flag="0"/>
      <psa10 value="0.0061898901" flag="0"/>
      <psa30 value="0.0007957628" flag="0"/>
    </comp>
  </station>
</stationlist>
