<?xml version="1.0" encoding="UTF-8" standalone="yes"?>
<!DOCTYPE earthquake SYSTEM "stationlist.dtd">
<stationlist created="" xmlns="ch.ethz.sed.shakemap.usgs.xml">
  <station code="ARPRA" name="ARPRA" netid="KO" insttype="CMG-5T" lat="39.0929" lon="38.3356">
    <comp name="--.HNZ">
      <acc value="0.0074948203" flag="0"/>
      <vel value="0.0030317599" flag="0"/>
      <psa03 value="0.0150070363" flag="0"/>
      <psa10 value="0.0041411275" flag="0"/>
      <psa30 value="0.0003528160" flag="0"/>
    </comp>
    <comp name="--.HNN">
      <acc value="0.0114700557" flag="0"/>
      <vel value="0.0072112906" flag="0"/>
      <psa03 value="0.0402615308" flag="0"/>
      <psa10 value="0.0084872269" flag="0"/>
      <psa30 value="0.0004917940" flag="0"/>
    </comp>
    <comp name="--.HNE">
      <acc value="0.0164300407" flag="0"/>
      <vel value="0.0110233516" flag="0"/>
      <psa03 value="0.0488763701" flag="0"/>
      <psa10 value="0.0078950398" flag="0"/>
      <psa30 value="0.0004265307" flag="0"/>
    </comp>
  </station>
  <station code="DARE" name="DARE" netid="KO" insttype="CMG-3ESP" lat="38.5712" lon="37.4832">
    <comp name="--.HHE">
      <acc value="0.0090356704" flag="0"/>
      <vel value="0.0031901011" flag="0"/>
      <psa03 value="0.0216139668" flag="0"/>
      <psa10 value="0.0056319009" flag="0"/>
      <psa30 value="0.0005077253" flag="0"/>
    </comp>
    <comp name="--.HHZ">
      <acc value="0.0074727943" flag="0"/>
      <vel value="0.0034181927" flag="0"/>
      <psa03 value="0.0163261989" flag="0"/>
      <psa10 value="0.0039234927" flag="0"/>
      <psa30 value="0.0004368952" flag="0"/>
    </comp>
    <comp name="--.HHN">
      <acc value="0.0085766898" flag="0"/>
      <vel value="0.0041202293" flag="0"/>
      <psa03 value="0.0137484242" flag="0"/>
      <psa10 value="0.0026458373" flag="0"/>
      <psa30 value="0.0005383576" flag="0"/>
    </comp>
  </station>
  <station code="KHMN" name="KHMN" netid="KO" insttype="CMG-5T" lat="37.3916" lon="37.1574">
    <comp name="--.HNN">
      <acc value="0.0590916610" flag="0"/>
      <vel value="0.0182708777" flag="0"/>
      <psa03 value="0.0989995752" flag="0"/>
      <psa10 value="0.0053197884" flag="0"/>
      <psa30 value="0.0003773134" flag="0"/>
    </comp>
    <comp name="--.HNZ">
      <acc value="0.0186503166" flag="0"/>
      <vel value="0.0053576119" flag="0"/>
      <psa03 value="0.0427713446" flag="0"/>
      <psa10 value="0.0024307755" flag="0"/>
      <psa30 value="0.0005503410" flag="0"/>
    </comp>
  </station>
  <station code="SVRC" name="SVRC" netid="KO" insttype="CMG-3T" lat="38.3775" lon="39.306">
    <comp name="--.HHE">
      <acc value="0.0212046026" flag="0"/>
      <vel value="0.0113796957" flag="0"/>
      <psa03 value="0.0621206059" flag="0"/>
      <psa10 value="0.0041848074" flag="0"/>
      <psa30 value="0.0004247488" flag="0"/>
    </comp>
    <comp name="--.HHN">
      <acc value="0.0144291271" flag="0"/>
      <vel value="0.0068300902" flag="0"/>
      <psa03 value="0.0503097187" flag="0"/>
      <psa10 value="0.0038905425" flag="0"/>
      <psa30 value="0.0003327745" flag="0"/>
    </comp>
    <comp name="--.HHZ">
      <acc value="0.0153843092" flag="0"/>
      <vel value="0.0063307061" flag="0"/>
      <psa03 value="0.0474939266" flag="0"/>
      <psa10 value="0.0038732310" flag="0"/>
      <psa30 value="0.0003495377" flag="0"/>
    </comp>
  </station>
  <station code="URFA" name="URFA" netid="KO" insttype="CMG-3ESP" lat="37.4409" lon="38.8213">
    <comp name="--.HHE">
      <acc value="0.0957438220" flag="0"/>
      <vel value="0.0196257137" flag="0"/>
      <psa03 value="0.0550305413" flag="0"/>
      <psa10 value="0.0068188482" flag="0"/>
      <psa30 value="0.0016061360" flag="0"/>
    </comp>
    <comp name="--.HHZ">
      <acc value="0.0348567411" flag="0"/>
      <vel value="0.0082773694" flag="0"/>
      <psa03 value="0.0360355940" flag="0"/>
      <psa10 value="0.0071758705" flag="0"/>
      <psa30 value="0.0011571282" flag="0"/>
    </comp>
  </station>
</stationlist>
