<?xml version="1.0" encoding="UTF-8" standalone="yes"?>
<!DOCTYPE earthquake SYSTEM "stationlist.dtd">
<stationlist created="" xmlns="ch.ethz.sed.shakemap.usgs.xml">
  <station code="GADA" name="GADA" netid="KO" insttype="CMG-3T" lat="40.1908" lon="25.8987">
    <comp name="--.HHE">
      <acc value="0.0152742123" flag="0"/>
      <vel value="0.0121157667" flag="0"/>
      <psa03 value="0.0288737626" flag="0"/>
      <psa10 value="0.0192428817" flag="0"/>
      <psa30 value="0.0012211192" flag="0"/>
    </comp>
    <comp name="--.HHN">
      <acc value="0.0150778528" flag="0"/>
      <vel value="0.0144875559" flag="0"/>
      <psa03 value="0.0292526383" flag="0"/>
      <psa10 value="0.0117974030" flag="0"/>
      <psa30 value="0.0010141494" flag="0"/>
    </comp>
  </station>
</stationlist>
