<?xml version="1.0" encoding="UTF-8" standalone="yes"?>
<!DOCTYPE earthquake SYSTEM "stationlist.dtd">
<stationlist created="" xmlns="ch.ethz.sed.shakemap.usgs.xml">
  <station code="EFSA" name="EFSA" netid="HL" insttype="CMG-5" lat="39.5401" lon="24.9886">
    <comp name="00.HNE">
      <acc value="0.1211829532" flag="0"/>
      <vel value="0.0965740563" flag="0"/>
      <psa03 value="0.2339862635" flag="0"/>
      <psa10 value="0.0917617034" flag="0"/>
      <psa30 value="0.0108947483" flag="0"/>
    </comp>
    <comp name="00.HNN">
      <acc value="0.0682737196" flag="0"/>
      <vel value="0.0374412944" flag="0"/>
      <psa03 value="0.1254816132" flag="0"/>
      <psa10 value="0.0480552707" flag="0"/>
      <psa30 value="0.0062962506" flag="0"/>
    </comp>
    <comp name="00.HNZ">
      <acc value="0.0567380765" flag="0"/>
      <vel value="0.0350531956" flag="0"/>
      <psa03 value="0.1914857975" flag="0"/>
      <psa10 value="0.0305275288" flag="0"/>
      <psa30 value="0.0015607188" flag="0"/>
    </comp>
  </station>
  <station code="LIA" name="LIA" netid="HL" insttype="P6C" lat="39.8972" lon="25.1806">
    <comp name="--.HHN">
      <acc value="0.1112138397" flag="0"/>
      <vel value="0.0489921092" flag="0"/>
      <psa03 value="0.2861437581" flag="0"/>
      <psa10 value="0.0637567022" flag="0"/>
      <psa30 value="0.0042717261" flag="0"/>
    </comp>
    <comp name="--.HHZ">
      <acc value="0.0572473656" flag="0"/>
      <vel value="0.0326188419" flag="0"/>
      <psa03 value="0.1553928392" flag="0"/>
      <psa10 value="0.0304032706" flag="0"/>
      <psa30 value="0.0035290173" flag="0"/>
    </comp>
    <comp name="--.HHE">
      <acc value="0.0919058084" flag="0"/>
      <vel value="0.0390916074" flag="0"/>
      <psa03 value="0.1828115519" flag="0"/>
      <psa10 value="0.0316708222" flag="0"/>
      <psa30 value="0.0027115159" flag="0"/>
    </comp>
  </station>
  <station code="NEO" name="NEO" netid="HL" insttype="120" lat="39.3057" lon="23.2219">
    <comp name="--.HHE">
      <acc value="0.0273405909" flag="0"/>
      <vel value="0.0173515804" flag="0"/>
      <psa03 value="0.0667629334" flag="0"/>
      <psa10 value="0.0200854578" flag="0"/>
      <psa30 value="0.0032875669" flag="0"/>
    </comp>
    <comp name="--.HHZ">
      <acc value="0.0299329487" flag="0"/>
      <vel value="0.0169140894" flag="0"/>
      <psa03 value="0.0611721820" flag="0"/>
      <psa10 value="0.0246010512" flag="0"/>
      <psa30 value="0.0024003429" flag="0"/>
    </comp>
    <comp name="--.HHN">
      <acc value="0.0368792451" flag="0"/>
      <vel value="0.0320827712" flag="0"/>
      <psa03 value="0.0759551323" flag="0"/>
      <psa10 value="0.0455540373" flag="0"/>
      <psa30 value="0.0034245737" flag="0"/>
    </comp>
  </station>
  <station code="PLG" name="PLG" netid="HL" insttype="120" lat="40.3733" lon="23.4444">
    <comp name="--.HHN">
      <acc value="0.1742897877" flag="0"/>
      <vel value="0.0565737047" flag="0"/>
      <psa03 value="0.1880102186" flag="0"/>
      <psa10 value="0.0813300518" flag="0"/>
      <psa30 value="0.0039109419" flag="0"/>
    </comp>
    <comp name="--.HHE">
      <acc value="0.2619528675" flag="0"/>
      <vel value="0.0476070551" flag="0"/>
      <psa03 value="0.1724579646" flag="0"/>
      <psa10 value="0.0386606587" flag="0"/>
      <psa30 value="0.0034184047" flag="0"/>
    </comp>
    <comp name="--.HHZ">
      <acc value="0.1404587896" flag="0"/>
      <vel value="0.0348957442" flag="0"/>
      <psa03 value="0.2271006770" flag="0"/>
      <psa10 value="0.0394691997" flag="0"/>
      <psa30 value="0.0025086233" flag="0"/>
    </comp>
  </station>
  <station code="PRAS" name="PRAS" netid="HL" insttype="120" lat="41.3524" lon="24.55">
    <comp name="--.HHE">
      <acc value="0.0772578272" flag="0"/>
      <vel value="0.0287926281" flag="0"/>
      <psa03 value="0.1167487172" flag="0"/>
      <psa10 value="0.0306811223" flag="0"/>
      <psa30 value="0.0038617273" flag="0"/>
    </comp>
    <comp name="--.HHN">
      <acc value="0.0764946867" flag="0"/>
      <vel value="0.0309646126" flag="0"/>
      <psa03 value="0.1340830305" flag="0"/>
      <psa10 value="0.0336991620" flag="0"/>
      <psa30 value="0.0042094942" flag="0"/>
    </comp>
    <comp name="--.HHZ">
      <acc value="0.0593520323" flag="0"/>
      <vel value="0.0323341413" flag="0"/>
      <psa03 value="0.0801666366" flag="0"/>
      <psa10 value="0.0463780995" flag="0"/>
      <psa30 value="0.0041528800" flag="0"/>
    </comp>
  </station>
  <station code="HORT" name="HORT" netid="HT" insttype="100" lat="40.5978" lon="23.0996">
    <comp name="--.HHN">
      <acc value="0.0000112352" flag="0"/>
      <vel value="0.0000021073" flag="0"/>
      <psa03 value="0.0000111464" flag="0"/>
      <psa10 value="0.0000024685" flag="0"/>
      <psa30 value="0.0000004052" flag="0"/>
    </comp>
    <comp name="--.HHE">
      <acc value="0.0679263575" flag="0"/>
      <vel value="0.0194902761" flag="0"/>
      <psa03 value="0.1046611462" flag="0"/>
      <psa10 value="0.0115977169" flag="0"/>
      <psa30 value="0.0018999925" flag="0"/>
    </comp>
    <comp name="--.HHZ">
      <acc value="0.0607722189" flag="0"/>
      <vel value="0.0185082567" flag="0"/>
      <psa03 value="0.0522157513" flag="0"/>
      <psa10 value="0.0237366353" flag="0"/>
      <psa30 value="0.0014869364" flag="0"/>
    </comp>
  </station>
  <station code="KAVA" name="KAVA" netid="HT" insttype="Compact," lat="40.9967" lon="24.5137">
    <comp name="--.HHE">
      <acc value="0.3443922451" flag="0"/>
      <vel value="0.1132298085" flag="0"/>
      <psa03 value="0.3158394911" flag="0"/>
      <psa10 value="0.1530340233" flag="0"/>
      <psa30 value="0.0109824045" flag="0"/>
    </comp>
    <comp name="--.HHZ">
      <acc value="0.2623348787" flag="0"/>
      <vel value="0.1169278823" flag="0"/>
      <psa03 value="0.3794355798" flag="0"/>
      <psa10 value="0.0806201159" flag="0"/>
      <psa30 value="0.0120322652" flag="0"/>
    </comp>
    <comp name="--.HHN">
      <acc value="0.5517426465" flag="0"/>
      <vel value="0.1469752920" flag="0"/>
      <psa03 value="0.5911684518" flag="0"/>
      <psa10 value="0.0520216416" flag="0"/>
      <psa30 value="0.0077397730" flag="0"/>
    </comp>
  </station>
  <station code="KNT" name="KNT" netid="HT" insttype="100" lat="41.162" lon="22.898">
    <comp name="--.HHN">
      <acc value="0.1126067334" flag="0"/>
      <vel value="0.0511996269" flag="0"/>
      <psa03 value="0.1556516795" flag="0"/>
      <psa10 value="0.0298282711" flag="0"/>
      <psa30 value="0.0054149536" flag="0"/>
    </comp>
    <comp name="--.HHE">
      <acc value="0.1066903555" flag="0"/>
      <vel value="0.0391066491" flag="0"/>
      <psa03 value="0.2065414263" flag="0"/>
      <psa10 value="0.0253207513" flag="0"/>
      <psa30 value="0.0130130347" flag="0"/>
    </comp>
    <comp name="--.HHZ">
      <acc value="0.0809457878" flag="0"/>
      <vel value="0.0346530691" flag="0"/>
      <psa03 value="0.1596070380" flag="0"/>
      <psa10 value="0.0332291399" flag="0"/>
      <psa30 value="0.0059824584" flag="0"/>
    </comp>
  </station>
  <station code="KOKK" name="KOKK" netid="HT" insttype="Compact," lat="40.8178" lon="23.9992">
    <comp name="--.HHE">
      <acc value="0.1778999810" flag="0"/>
      <vel value="0.0671804769" flag="0"/>
      <psa03 value="0.3618783978" flag="0"/>
      <psa10 value="0.0503054758" flag="0"/>
      <psa30 value="0.0027437259" flag="0"/>
    </comp>
    <comp name="--.HHZ">
      <acc value="0.1497149995" flag="0"/>
      <vel value="0.0436793628" flag="0"/>
      <psa03 value="0.1354050913" flag="0"/>
      <psa10 value="0.0267583697" flag="0"/>
      <psa30 value="0.0030638041" flag="0"/>
    </comp>
    <comp name="--.HHN">
      <acc value="0.1814167728" flag="0"/>
      <vel value="0.0592277466" flag="0"/>
      <psa03 value="0.2674229682" flag="0"/>
      <psa10 value="0.0450960844" flag="0"/>
      <psa30 value="0.0035665771" flag="0"/>
    </comp>
  </station>
  <station code="LIT" name="LIT" netid="HT" insttype="100" lat="40.1033" lon="22.4892">
    <comp name="--.HHN">
      <acc value="0.0119784486" flag="0"/>
      <vel value="0.0058678005" flag="0"/>
      <psa03 value="0.0257554072" flag="0"/>
      <psa10 value="0.0079092641" flag="0"/>
      <psa30 value="0.0014927254" flag="0"/>
    </comp>
    <comp name="--.HHZ">
      <acc value="0.0043299994" flag="0"/>
      <vel value="0.0036709167" flag="0"/>
      <psa03 value="0.0120678944" flag="0"/>
      <psa10 value="0.0046042374" flag="0"/>
      <psa30 value="0.0007445324" flag="0"/>
    </comp>
    <comp name="--.HHE">
      <acc value="0.0114731158" flag="0"/>
      <vel value="0.0069536910" flag="0"/>
      <psa03 value="0.0196736083" flag="0"/>
      <psa10 value="0.0054544307" flag="0"/>
      <psa30 value="0.0014955106" flag="0"/>
    </comp>
  </station>
  <station code="NESN" name="NESN" netid="HT" insttype="1s-100Hz," lat="39.7267" lon="22.5399">
    <comp name="--.HHE">
      <acc value="0.0503458320" flag="0"/>
      <vel value="0.0481498533" flag="0"/>
      <psa03 value="0.1018951431" flag="0"/>
      <psa10 value="0.1085191936" flag="0"/>
      <psa30 value="0.0058977181" flag="0"/>
    </comp>
    <comp name="--.HHN">
      <acc value="0.0650835896" flag="0"/>
      <vel value="0.0592805929" flag="0"/>
      <psa03 value="0.1049568747" flag="0"/>
      <psa10 value="0.1096951421" flag="0"/>
      <psa30 value="0.0083710344" flag="0"/>
    </comp>
    <comp name="--.HHZ">
      <acc value="0.0294958979" flag="0"/>
      <vel value="0.0255810511" flag="0"/>
      <psa03 value="0.0682182683" flag="0"/>
      <psa10 value="0.0290741723" flag="0"/>
      <psa30 value="0.0031293449" flag="0"/>
    </comp>
  </station>
  <station code="OUR" name="OUR" netid="HT" insttype="100" lat="40.3325" lon="23.9791">
    <comp name="--.HHE">
      <acc value="3.6547767959" flag="0"/>
      <vel value="0.6612822011" flag="0"/>
      <psa03 value="2.6236342916" flag="0"/>
      <psa10 value="0.2476940788" flag="0"/>
      <psa30 value="0.0227776970" flag="0"/>
    </comp>
    <comp name="--.HHN">
      <acc value="5.1382908606" flag="0"/>
      <vel value="0.8705635784" flag="0"/>
      <psa03 value="2.6915884119" flag="0"/>
      <psa10 value="0.6153909724" flag="0"/>
      <psa30 value="0.0742941967" flag="0"/>
    </comp>
    <comp name="--.HHZ">
      <acc value="1.6378191682" flag="0"/>
      <vel value="0.4114454204" flag="0"/>
      <psa03 value="1.4904210530" flag="0"/>
      <psa10 value="0.1711682144" flag="0"/>
      <psa30 value="0.0183837569" flag="0"/>
    </comp>
  </station>
  <station code="PAIG" name="PAIG" netid="HT" insttype="100" lat="39.9363" lon="23.6768">
    <comp name="--.HHE">
      <acc value="0.3495380203" flag="0"/>
      <vel value="0.0871224599" flag="0"/>
      <psa03 value="0.2789421103" flag="0"/>
      <psa10 value="0.0736833076" flag="0"/>
      <psa30 value="0.0084014241" flag="0"/>
    </comp>
    <comp name="--.HHN">
      <acc value="0.3961033184" flag="0"/>
      <vel value="0.0888240006" flag="0"/>
      <psa03 value="0.3614804255" flag="0"/>
      <psa10 value="0.0835642321" flag="0"/>
      <psa30 value="0.0063328852" flag="0"/>
    </comp>
    <comp name="--.HHZ">
      <acc value="0.2025702941" flag="0"/>
      <vel value="0.0693474927" flag="0"/>
      <psa03 value="0.2233294284" flag="0"/>
      <psa10 value="0.0682928249" flag="0"/>
      <psa30 value="0.0071915384" flag="0"/>
    </comp>
  </station>
  <station code="SRS" name="SRS" netid="HT" insttype="100" lat="41.1087" lon="23.595">
    <comp name="--.HHN">
      <acc value="0.0913159618" flag="0"/>
      <vel value="0.0218163251" flag="0"/>
      <psa03 value="0.0717420861" flag="0"/>
      <psa10 value="0.0185902502" flag="0"/>
      <psa30 value="0.0039995362" flag="0"/>
    </comp>
    <comp name="--.HHE">
      <acc value="0.0822375690" flag="0"/>
      <vel value="0.0211027061" flag="0"/>
      <psa03 value="0.0848102126" flag="0"/>
      <psa10 value="0.0182112632" flag="0"/>
      <psa30 value="0.0045569417" flag="0"/>
    </comp>
    <comp name="--.HHZ">
      <acc value="0.0490008564" flag="0"/>
      <vel value="0.0155056349" flag="0"/>
      <psa03 value="0.0673115252" flag="0"/>
      <psa10 value="0.0145425149" flag="0"/>
      <psa30 value="0.0030586743" flag="0"/>
    </comp>
  </station>
  <station code="THAS" name="THAS" netid="HT" insttype="100" lat="40.6064" lon="24.7194">
    <comp name="--.HHE">
      <acc value="0.7605444475" flag="0"/>
      <vel value="0.3482943869" flag="0"/>
      <psa03 value="1.2421712041" flag="0"/>
      <psa10 value="0.2472992800" flag="0"/>
      <psa30 value="0.0170432546" flag="0"/>
    </comp>
    <comp name="--.HHN">
      <acc value="1.0468830279" flag="0"/>
      <vel value="0.6053203391" flag="0"/>
      <psa03 value="2.9042002882" flag="0"/>
      <psa10 value="0.1658104771" flag="0"/>
      <psa30 value="0.0184765796" flag="0"/>
    </comp>
    <comp name="--.HHZ">
      <acc value="0.7621244454" flag="0"/>
      <vel value="0.4652005909" flag="0"/>
      <psa03 value="1.5608546813" flag="0"/>
      <psa10 value="0.2793690676" flag="0"/>
      <psa30 value="0.0200243520" flag="0"/>
    </comp>
  </station>
  <station code="THE" name="THE" netid="HT" insttype="30s-100Hz," lat="40.6319" lon="22.9628">
    <comp name="--.HHN">
      <acc value="0.0222203180" flag="0"/>
      <vel value="0.0087844892" flag="0"/>
      <psa03 value="0.0304684004" flag="0"/>
      <psa10 value="0.0113162597" flag="0"/>
      <psa30 value="0.0009751289" flag="0"/>
    </comp>
    <comp name="--.HHZ">
      <acc value="0.0185119347" flag="0"/>
      <vel value="0.0074290645" flag="0"/>
      <psa03 value="0.0261714367" flag="0"/>
      <psa10 value="0.0097448411" flag="0"/>
      <psa30 value="0.0010811462" flag="0"/>
    </comp>
    <comp name="--.HHE">
      <acc value="0.0228734302" flag="0"/>
      <vel value="0.0072267052" flag="0"/>
      <psa03 value="0.0311525591" flag="0"/>
      <psa10 value="0.0134213782" flag="0"/>
      <psa30 value="0.0009272407" flag="0"/>
    </comp>
  </station>
  <station code="XOR" name="XOR" netid="HT" insttype="Compact," lat="39.366" lon="23.1918">
    <comp name="--.HHZ">
      <acc value="0.0252063421" flag="0"/>
      <vel value="0.0144114260" flag="0"/>
      <psa03 value="0.0517680821" flag="0"/>
      <psa10 value="0.0165822052" flag="0"/>
      <psa30 value="0.0033251964" flag="0"/>
    </comp>
    <comp name="--.HHE">
      <acc value="0.0271647730" flag="0"/>
      <vel value="0.0174728408" flag="0"/>
      <psa03 value="0.0706462955" flag="0"/>
      <psa10 value="0.0164658579" flag="0"/>
      <psa30 value="0.0034206584" flag="0"/>
    </comp>
    <comp name="--.HHN">
      <acc value="0.0378560791" flag="0"/>
      <vel value="0.0392998613" flag="0"/>
      <psa03 value="0.1049560628" flag="0"/>
      <psa10 value="0.0449986025" flag="0"/>
      <psa30 value="0.0031750479" flag="0"/>
    </comp>
  </station>
</stationlist>
