<?xml version="1.0" encoding="UTF-8" standalone="yes"?>
<!DOCTYPE earthquake SYSTEM "stationlist.dtd">
<stationlist created="" xmlns="ch.ethz.sed.shakemap.usgs.xml">
  <station code="EFSA" name="EFSA" netid="HL" insttype="CMG-5" lat="39.5401" lon="24.9886">
    <comp name="00.HNN">
      <acc value="0.0682737185" flag="0"/>
      <vel value="0.0374412933" flag="0"/>
      <psa03 value="0.1254816132" flag="0"/>
      <psa10 value="0.0480552709" flag="0"/>
      <psa30 value="0.0062966006" flag="0"/>
    </comp>
    <comp name="00.HNE">
      <acc value="0.1211829544" flag="0"/>
      <vel value="0.0965740554" flag="0"/>
      <psa03 value="0.2339862635" flag="0"/>
      <psa10 value="0.0917617039" flag="0"/>
      <psa30 value="0.0108947442" flag="0"/>
    </comp>
    <comp name="00.HNZ">
      <acc value="0.0567380761" flag="0"/>
      <vel value="0.0350531998" flag="0"/>
      <psa03 value="0.1914857975" flag="0"/>
      <psa10 value="0.0305275287" flag="0"/>
      <psa30 value="0.0015608680" flag="0"/>
    </comp>
  </station>
  <station code="LIA" name="LIA" netid="HL" insttype="P6C" lat="39.8972" lon="25.1806">
    <comp name="--.HHZ">
      <acc value="0.0572473657" flag="0"/>
      <vel value="0.0326188420" flag="0"/>
      <psa03 value="0.1553928392" flag="0"/>
      <psa10 value="0.0304032704" flag="0"/>
      <psa30 value="0.0035290193" flag="0"/>
    </comp>
    <comp name="--.HHE">
      <acc value="0.0919058083" flag="0"/>
      <vel value="0.0390916078" flag="0"/>
      <psa03 value="0.1828115519" flag="0"/>
      <psa10 value="0.0316708221" flag="0"/>
      <psa30 value="0.0027116194" flag="0"/>
    </comp>
    <comp name="--.HHN">
      <acc value="0.1112138399" flag="0"/>
      <vel value="0.0489921085" flag="0"/>
      <psa03 value="0.2861437581" flag="0"/>
      <psa10 value="0.0637567022" flag="0"/>
      <psa30 value="0.0042717428" flag="0"/>
    </comp>
  </station>
  <station code="NEO" name="NEO" netid="HL" insttype="120" lat="39.3057" lon="23.2219">
    <comp name="--.HHE">
      <acc value="0.0273405909" flag="0"/>
      <vel value="0.0173515803" flag="0"/>
      <psa03 value="0.0667629334" flag="0"/>
      <psa10 value="0.0200854578" flag="0"/>
      <psa30 value="0.0032875709" flag="0"/>
    </comp>
    <comp name="--.HHN">
      <acc value="0.0368792452" flag="0"/>
      <vel value="0.0320827715" flag="0"/>
      <psa03 value="0.0759551323" flag="0"/>
      <psa10 value="0.0455540373" flag="0"/>
      <psa30 value="0.0034245730" flag="0"/>
    </comp>
    <comp name="--.HHZ">
      <acc value="0.0299329487" flag="0"/>
      <vel value="0.0169140888" flag="0"/>
      <psa03 value="0.0611721820" flag="0"/>
      <psa10 value="0.0246010511" flag="0"/>
      <psa30 value="0.0024003438" flag="0"/>
    </comp>
  </station>
  <station code="PLG" name="PLG" netid="HL" insttype="120" lat="40.3733" lon="23.4444">
    <comp name="--.HHZ">
      <acc value="0.1404587895" flag="0"/>
      <vel value="0.0348957441" flag="0"/>
      <psa03 value="0.2271006770" flag="0"/>
      <psa10 value="0.0394692005" flag="0"/>
      <psa30 value="0.0025088557" flag="0"/>
    </comp>
    <comp name="--.HHE">
      <acc value="0.2619528675" flag="0"/>
      <vel value="0.0476070552" flag="0"/>
      <psa03 value="0.1724579646" flag="0"/>
      <psa10 value="0.0386606581" flag="0"/>
      <psa30 value="0.0034183832" flag="0"/>
    </comp>
    <comp name="--.HHN">
      <acc value="0.1742897877" flag="0"/>
      <vel value="0.0565737037" flag="0"/>
      <psa03 value="0.1880102186" flag="0"/>
      <psa10 value="0.0813300510" flag="0"/>
      <psa30 value="0.0039107774" flag="0"/>
    </comp>
  </station>
  <station code="PRAS" name="PRAS" netid="HL" insttype="120" lat="41.3524" lon="24.55">
    <comp name="--.HHE">
      <acc value="0.0772578273" flag="0"/>
      <vel value="0.0287926282" flag="0"/>
      <psa03 value="0.1167487172" flag="0"/>
      <psa10 value="0.0306811223" flag="0"/>
      <psa30 value="0.0038617259" flag="0"/>
    </comp>
    <comp name="--.HHZ">
      <acc value="0.0593520323" flag="0"/>
      <vel value="0.0323341415" flag="0"/>
      <psa03 value="0.0801666366" flag="0"/>
      <psa10 value="0.0463780994" flag="0"/>
      <psa30 value="0.0041528774" flag="0"/>
    </comp>
    <comp name="--.HHN">
      <acc value="0.0764946867" flag="0"/>
      <vel value="0.0309646129" flag="0"/>
      <psa03 value="0.1340830305" flag="0"/>
      <psa10 value="0.0336991620" flag="0"/>
      <psa30 value="0.0042095153" flag="0"/>
    </comp>
  </station>
  <station code="HORT" name="HORT" netid="HT" insttype="100" lat="40.5978" lon="23.0996">
    <comp name="--.HHE">
      <acc value="0.0679263575" flag="0"/>
      <vel value="0.0194902755" flag="0"/>
      <psa03 value="0.1046611462" flag="0"/>
      <psa10 value="0.0115977169" flag="0"/>
      <psa30 value="0.0018999710" flag="0"/>
    </comp>
    <comp name="--.HHZ">
      <acc value="0.0607722189" flag="0"/>
      <vel value="0.0185082565" flag="0"/>
      <psa03 value="0.0522157513" flag="0"/>
      <psa10 value="0.0237366353" flag="0"/>
      <psa30 value="0.0014869577" flag="0"/>
    </comp>
    <comp name="--.HHN">
      <acc value="0.0000112353" flag="0"/>
      <vel value="0.0000021074" flag="0"/>
      <psa03 value="0.0000111464" flag="0"/>
      <psa10 value="0.0000024143" flag="0"/>
      <psa30 value="0.0000004052" flag="0"/>
    </comp>
  </station>
  <station code="KAVA" name="KAVA" netid="HT" insttype="Compact," lat="40.9967" lon="24.5137">
    <comp name="--.HHE">
      <acc value="0.3443922457" flag="0"/>
      <vel value="0.1132298082" flag="0"/>
      <psa03 value="0.3158394911" flag="0"/>
      <psa10 value="0.1530340235" flag="0"/>
      <psa30 value="0.0109822784" flag="0"/>
    </comp>
    <comp name="--.HHN">
      <acc value="0.5517426467" flag="0"/>
      <vel value="0.1469752917" flag="0"/>
      <psa03 value="0.5911684518" flag="0"/>
      <psa10 value="0.0520216411" flag="0"/>
      <psa30 value="0.0077396728" flag="0"/>
    </comp>
    <comp name="--.HHZ">
      <acc value="0.2623348786" flag="0"/>
      <vel value="0.1169278826" flag="0"/>
      <psa03 value="0.3794355798" flag="0"/>
      <psa10 value="0.0806201157" flag="0"/>
      <psa30 value="0.0120321165" flag="0"/>
    </comp>
  </station>
  <station code="KNT" name="KNT" netid="HT" insttype="100" lat="41.162" lon="22.898">
    <comp name="--.HHZ">
      <acc value="0.0809457878" flag="0"/>
      <vel value="0.0346530688" flag="0"/>
      <psa03 value="0.1596070380" flag="0"/>
      <psa10 value="0.0332291399" flag="0"/>
      <psa30 value="0.0059824577" flag="0"/>
    </comp>
    <comp name="--.HHE">
      <acc value="0.1066903556" flag="0"/>
      <vel value="0.0391066493" flag="0"/>
      <psa03 value="0.2065414263" flag="0"/>
      <psa10 value="0.0253207513" flag="0"/>
      <psa30 value="0.0130130340" flag="0"/>
    </comp>
    <comp name="--.HHN">
      <acc value="0.1126067334" flag="0"/>
      <vel value="0.0511996272" flag="0"/>
      <psa03 value="0.1556516795" flag="0"/>
      <psa10 value="0.0298282711" flag="0"/>
      <psa30 value="0.0054149521" flag="0"/>
    </comp>
  </station>
  <station code="KOKK" name="KOKK" netid="HT" insttype="Compact," lat="40.8178" lon="23.9992">
    <comp name="--.HHN">
      <acc value="0.1814167729" flag="0"/>
      <vel value="0.0592277470" flag="0"/>
      <psa03 value="0.2674229682" flag="0"/>
      <psa10 value="0.0450960841" flag="0"/>
      <psa30 value="0.0035667399" flag="0"/>
    </comp>
    <comp name="--.HHE">
      <acc value="0.1778999807" flag="0"/>
      <vel value="0.0671804768" flag="0"/>
      <psa03 value="0.3618783978" flag="0"/>
      <psa10 value="0.0503054762" flag="0"/>
      <psa30 value="0.0027436809" flag="0"/>
    </comp>
    <comp name="--.HHZ">
      <acc value="0.1497149991" flag="0"/>
      <vel value="0.0436793623" flag="0"/>
      <psa03 value="0.1354050913" flag="0"/>
      <psa10 value="0.0267583694" flag="0"/>
      <psa30 value="0.0030638555" flag="0"/>
    </comp>
  </station>
  <station code="LIT" name="LIT" netid="HT" insttype="100" lat="40.1033" lon="22.4892">
    <comp name="--.HHE">
      <acc value="0.0114731158" flag="0"/>
      <vel value="0.0069536911" flag="0"/>
      <psa03 value="0.0196736083" flag="0"/>
      <psa10 value="0.0054544307" flag="0"/>
      <psa30 value="0.0014955105" flag="0"/>
    </comp>
    <comp name="--.HHN">
      <acc value="0.0119784486" flag="0"/>
      <vel value="0.0058678006" flag="0"/>
      <psa03 value="0.0257554072" flag="0"/>
      <psa10 value="0.0079092641" flag="0"/>
      <psa30 value="0.0014927254" flag="0"/>
    </comp>
    <comp name="--.HHZ">
      <acc value="0.0043299994" flag="0"/>
      <vel value="0.0036709166" flag="0"/>
      <psa03 value="0.0120678944" flag="0"/>
      <psa10 value="0.0046042374" flag="0"/>
      <psa30 value="0.0007445319" flag="0"/>
    </comp>
  </station>
  <station code="NESN" name="NESN" netid="HT" insttype="1s-100Hz," lat="39.7267" lon="22.5399">
    <comp name="--.HHE">
      <acc value="0.0503458309" flag="0"/>
      <vel value="0.0481502971" flag="0"/>
      <psa03 value="0.1018951420" flag="0"/>
      <psa10 value="0.1085191925" flag="0"/>
      <psa30 value="0.0058977220" flag="0"/>
    </comp>
    <comp name="--.HHN">
      <acc value="0.0650835909" flag="0"/>
      <vel value="0.0592811359" flag="0"/>
      <psa03 value="0.1049568760" flag="0"/>
      <psa10 value="0.1096951434" flag="0"/>
      <psa30 value="0.0083710268" flag="0"/>
    </comp>
    <comp name="--.HHZ">
      <acc value="0.0294958979" flag="0"/>
      <vel value="0.0255810473" flag="0"/>
      <psa03 value="0.0682182683" flag="0"/>
      <psa10 value="0.0290741723" flag="0"/>
      <psa30 value="0.0031293635" flag="0"/>
    </comp>
  </station>
  <station code="OUR" name="OUR" netid="HT" insttype="100" lat="40.3325" lon="23.9791">
    <comp name="--.HHE">
      <acc value="3.6547767963" flag="0"/>
      <vel value="0.6612821996" flag="0"/>
      <psa03 value="2.6236342916" flag="0"/>
      <psa10 value="0.2476940925" flag="0"/>
      <psa30 value="0.0227788070" flag="0"/>
    </comp>
    <comp name="--.HHN">
      <acc value="5.1382908602" flag="0"/>
      <vel value="0.8705635802" flag="0"/>
      <psa03 value="2.6915884119" flag="0"/>
      <psa10 value="0.6153909815" flag="0"/>
      <psa30 value="0.0742962130" flag="0"/>
    </comp>
    <comp name="--.HHZ">
      <acc value="1.6378191679" flag="0"/>
      <vel value="0.4114454209" flag="0"/>
      <psa03 value="1.4904210530" flag="0"/>
      <psa10 value="0.1711681972" flag="0"/>
      <psa30 value="0.0183839599" flag="0"/>
    </comp>
  </station>
  <station code="PAIG" name="PAIG" netid="HT" insttype="100" lat="39.9363" lon="23.6768">
    <comp name="--.HHE">
      <acc value="0.3495380202" flag="0"/>
      <vel value="0.0871224601" flag="0"/>
      <psa03 value="0.2789421103" flag="0"/>
      <psa10 value="0.0736833080" flag="0"/>
      <psa30 value="0.0084015144" flag="0"/>
    </comp>
    <comp name="--.HHN">
      <acc value="0.3961033182" flag="0"/>
      <vel value="0.0888240017" flag="0"/>
      <psa03 value="0.3614804255" flag="0"/>
      <psa10 value="0.0835642308" flag="0"/>
      <psa30 value="0.0063328675" flag="0"/>
    </comp>
    <comp name="--.HHZ">
      <acc value="0.2025702941" flag="0"/>
      <vel value="0.0693474931" flag="0"/>
      <psa03 value="0.2233294284" flag="0"/>
      <psa10 value="0.0682928245" flag="0"/>
      <psa30 value="0.0071915726" flag="0"/>
    </comp>
  </station>
  <station code="SRS" name="SRS" netid="HT" insttype="100" lat="41.1087" lon="23.595">
    <comp name="--.HHN">
      <acc value="0.0913159619" flag="0"/>
      <vel value="0.0218163251" flag="0"/>
      <psa03 value="0.0717420861" flag="0"/>
      <psa10 value="0.0185902502" flag="0"/>
      <psa30 value="0.0039995336" flag="0"/>
    </comp>
    <comp name="--.HHE">
      <acc value="0.0822375690" flag="0"/>
      <vel value="0.0211027068" flag="0"/>
      <psa03 value="0.0848102126" flag="0"/>
      <psa10 value="0.0182112632" flag="0"/>
      <psa30 value="0.0045569209" flag="0"/>
    </comp>
    <comp name="--.HHZ">
      <acc value="0.0490008563" flag="0"/>
      <vel value="0.0155056353" flag="0"/>
      <psa03 value="0.0673115252" flag="0"/>
      <psa10 value="0.0145425150" flag="0"/>
      <psa30 value="0.0030586683" flag="0"/>
    </comp>
  </station>
  <station code="THAS" name="THAS" netid="HT" insttype="100" lat="40.6064" lon="24.7194">
    <comp name="--.HHE">
      <acc value="0.7605444476" flag="0"/>
      <vel value="0.3482943877" flag="0"/>
      <psa03 value="1.2421712041" flag="0"/>
      <psa10 value="0.2472992799" flag="0"/>
      <psa30 value="0.0170430425" flag="0"/>
    </comp>
    <comp name="--.HHN">
      <acc value="1.0468830278" flag="0"/>
      <vel value="0.6053203397" flag="0"/>
      <psa03 value="2.9042002882" flag="0"/>
      <psa10 value="0.1658104786" flag="0"/>
      <psa30 value="0.0184764083" flag="0"/>
    </comp>
    <comp name="--.HHZ">
      <acc value="0.7621244457" flag="0"/>
      <vel value="0.4652005914" flag="0"/>
      <psa03 value="1.5608546813" flag="0"/>
      <psa10 value="0.2793690674" flag="0"/>
      <psa30 value="0.0200244463" flag="0"/>
    </comp>
  </station>
  <station code="THE" name="THE" netid="HT" insttype="30s-100Hz," lat="40.6319" lon="22.9628">
    <comp name="--.HHN">
      <acc value="0.0222203178" flag="0"/>
      <vel value="0.0087844880" flag="0"/>
      <psa03 value="0.0304684004" flag="0"/>
      <psa10 value="0.0113162597" flag="0"/>
      <psa30 value="0.0009751302" flag="0"/>
    </comp>
    <comp name="--.HHE">
      <acc value="0.0228734303" flag="0"/>
      <vel value="0.0072267022" flag="0"/>
      <psa03 value="0.0311525591" flag="0"/>
      <psa10 value="0.0134213781" flag="0"/>
      <psa30 value="0.0009272519" flag="0"/>
    </comp>
    <comp name="--.HHZ">
      <acc value="0.0185119348" flag="0"/>
      <vel value="0.0074290650" flag="0"/>
      <psa03 value="0.0261714367" flag="0"/>
      <psa10 value="0.0097448411" flag="0"/>
      <psa30 value="0.0010811435" flag="0"/>
    </comp>
  </station>
  <station code="XOR" name="XOR" netid="HT" insttype="Compact," lat="39.366" lon="23.1918">
    <comp name="--.HHZ">
      <acc value="0.0252063421" flag="0"/>
      <vel value="0.0144114262" flag="0"/>
      <psa03 value="0.0517680821" flag="0"/>
      <psa10 value="0.0165822052" flag="0"/>
      <psa30 value="0.0033251858" flag="0"/>
    </comp>
    <comp name="--.HHE">
      <acc value="0.0271647730" flag="0"/>
      <vel value="0.0174728402" flag="0"/>
      <psa03 value="0.0706462955" flag="0"/>
      <psa10 value="0.0164658579" flag="0"/>
      <psa30 value="0.0034206690" flag="0"/>
    </comp>
    <comp name="--.HHN">
      <acc value="0.0378560791" flag="0"/>
      <vel value="0.0392998609" flag="0"/>
      <psa03 value="0.1049560628" flag="0"/>
      <psa10 value="0.0449986025" flag="0"/>
      <psa30 value="0.0031750397" flag="0"/>
    </comp>
  </station>
  <station code="GADA" name="GADA" netid="KO" insttype="CMG-3T" lat="40.1908" lon="25.8987">
    <comp name="--.HHE">
      <acc value="0.0152742123" flag="0"/>
      <vel value="0.0121157667" flag="0"/>
      <psa03 value="0.0288737626" flag="0"/>
      <psa10 value="0.0192428817" flag="0"/>
      <psa30 value="0.0012211192" flag="0"/>
    </comp>
    <comp name="--.HHN">
      <acc value="0.0150778528" flag="0"/>
      <vel value="0.0144875559" flag="0"/>
      <psa03 value="0.0292526383" flag="0"/>
      <psa10 value="0.0117974030" flag="0"/>
      <psa30 value="0.0010141494" flag="0"/>
    </comp>
  </station>
</stationlist>
