<?xml version="1.0" encoding="UTF-8" standalone="yes"?>
<!DOCTYPE earthquake SYSTEM "stationlist.dtd">
<stationlist created="" xmlns="ch.ethz.sed.shakemap.usgs.xml">
  <station code="BIR" name="BIR" netid="RO" insttype="MBB2/Quanterra" lat="46.2334" lon="27.6436">
    <comp name="--.HHE">
      <acc value="0.2172906495" flag="0"/>
      <vel value="0.0501794481" flag="0"/>
      <psa03 value="0.1245636559" flag="0"/>
      <psa10 value="0.0106373325" flag="0"/>
      <psa30 value="0.0010558517" flag="0"/>
    </comp>
    <comp name="--.HHN">
      <acc value="0.1934772530" flag="0"/>
      <vel value="0.0474617511" flag="0"/>
      <psa03 value="0.0690844117" flag="0"/>
      <psa10 value="0.0121742338" flag="0"/>
      <psa30 value="0.0005881858" flag="0"/>
    </comp>
    <comp name="--.HHZ">
      <acc value="0.1603361052" flag="0"/>
      <vel value="0.0273965477" flag="0"/>
      <psa03 value="0.1158791497" flag="0"/>
      <psa10 value="0.0032898403" flag="0"/>
      <psa30 value="0.0002973901" flag="0"/>
    </comp>
  </station>
  <station code="BISRR" name="BISRR" netid="RO" insttype="CMG40T.1to100/Basalt" lat="45.5481" lon="26.7099">
    <comp name="--.HHZ">
      <acc value="0.0469049209" flag="0"/>
      <vel value="0.0141815192" flag="0"/>
      <psa03 value="0.0909331087" flag="0"/>
      <psa10 value="0.0093423685" flag="0"/>
      <psa30 value="0.0004744405" flag="0"/>
    </comp>
    <comp name="--.HHN">
      <acc value="0.0751857962" flag="0"/>
      <vel value="0.0328355227" flag="0"/>
      <psa03 value="0.1295498156" flag="0"/>
      <psa10 value="0.0172085017" flag="0"/>
      <psa30 value="0.0010267703" flag="0"/>
    </comp>
    <comp name="--.HHE">
      <acc value="0.0730760993" flag="0"/>
      <vel value="0.0301324647" flag="0"/>
      <psa03 value="0.2819552334" flag="0"/>
      <psa10 value="0.0197082069" flag="0"/>
      <psa30 value="0.0008402101" flag="0"/>
    </comp>
  </station>
  <station code="BOSR" name="BOSR" netid="RO" insttype="Seismometer/Basalt" lat="46.0749" lon="25.6611">
    <comp name="--.HHN">
      <acc value="0.0459282639" flag="0"/>
      <vel value="0.0028734097" flag="0"/>
      <psa03 value="0.0145760517" flag="0"/>
      <psa10 value="0.0009819198" flag="0"/>
      <psa30 value="0.0000722292" flag="0"/>
    </comp>
    <comp name="--.HHZ">
      <acc value="0.0352055981" flag="0"/>
      <vel value="0.0043700590" flag="0"/>
      <psa03 value="0.0106958308" flag="0"/>
      <psa10 value="0.0007583074" flag="0"/>
      <psa30 value="0.0000630754" flag="0"/>
    </comp>
    <comp name="--.HHE">
      <acc value="0.0286473132" flag="0"/>
      <vel value="0.0019384694" flag="0"/>
      <psa03 value="0.0128859258" flag="0"/>
      <psa10 value="0.0011235991" flag="0"/>
      <psa30 value="0.0000521291" flag="0"/>
    </comp>
  </station>
  <station code="DOPR" name="DOPR" netid="RO" insttype="330" lat="45.9675" lon="25.3886">
    <comp name="--.HHE">
      <acc value="0.0305453252" flag="0"/>
      <vel value="0.0050298367" flag="0"/>
      <psa03 value="0.0082844973" flag="0"/>
      <psa10 value="0.0006585603" flag="0"/>
      <psa30 value="0.0000498714" flag="0"/>
    </comp>
    <comp name="--.HHZ">
      <acc value="0.0247463410" flag="0"/>
      <vel value="0.0034819154" flag="0"/>
      <psa03 value="0.0074549693" flag="0"/>
      <psa10 value="0.0009548078" flag="0"/>
      <psa30 value="0.0000671795" flag="0"/>
    </comp>
    <comp name="--.HHN">
      <acc value="0.0273793670" flag="0"/>
      <vel value="0.0041865661" flag="0"/>
      <psa03 value="0.0089625688" flag="0"/>
      <psa10 value="0.0004426453" flag="0"/>
      <psa30 value="0.0000498354" flag="0"/>
    </comp>
  </station>
  <station code="ISR" name="ISR" netid="RO" insttype="200" lat="45.1187" lon="26.5432">
    <comp name="--.HNE">
      <acc value="0.0276474406" flag="0"/>
      <vel value="0.0049463801" flag="0"/>
      <psa03 value="0.0267600419" flag="0"/>
      <psa10 value="0.0020458167" flag="0"/>
      <psa30 value="0.0001425770" flag="0"/>
    </comp>
    <comp name="--.HNN">
      <acc value="0.0251144548" flag="0"/>
      <vel value="0.0056049914" flag="0"/>
      <psa03 value="0.0301125462" flag="0"/>
      <psa10 value="0.0026551906" flag="0"/>
      <psa30 value="0.0001627868" flag="0"/>
    </comp>
    <comp name="--.HNZ">
      <acc value="0.0139360977" flag="0"/>
      <vel value="0.0026389682" flag="0"/>
      <psa03 value="0.0125371172" flag="0"/>
      <psa10 value="0.0014338030" flag="0"/>
      <psa30 value="0.0001920309" flag="0"/>
    </comp>
  </station>
  <station code="IZVR" name="IZVR" netid="RO" insttype="CMG40T.1to100/Quanterra" lat="45.5442" lon="27.7655">
    <comp name="--.HHN">
      <acc value="0.0889208855" flag="0"/>
      <vel value="0.0178293880" flag="0"/>
      <psa03 value="0.0585213577" flag="0"/>
      <psa10 value="0.0023342009" flag="0"/>
      <psa30 value="0.0002339182" flag="0"/>
    </comp>
    <comp name="--.HHE">
      <acc value="0.0878723227" flag="0"/>
      <vel value="0.0152681469" flag="0"/>
      <psa03 value="0.0381943201" flag="0"/>
      <psa10 value="0.0024035794" flag="0"/>
      <psa30 value="0.0002433871" flag="0"/>
    </comp>
    <comp name="--.HHZ">
      <acc value="0.0389558973" flag="0"/>
      <vel value="0.0046882237" flag="0"/>
      <psa03 value="0.0089010042" flag="0"/>
      <psa10 value="0.0005952318" flag="0"/>
      <psa30 value="0.0000462531" flag="0"/>
    </comp>
  </station>
  <station code="LEHL" name="LEHL" netid="RO" insttype="Seismometer/Basalt" lat="44.4739" lon="26.8194">
    <comp name="--.HHE">
      <acc value="0.0147682083" flag="0"/>
      <vel value="0.0035926650" flag="0"/>
      <psa03 value="0.0112461924" flag="0"/>
      <psa10 value="0.0009150088" flag="0"/>
      <psa30 value="0.0001131576" flag="0"/>
    </comp>
    <comp name="--.HHN">
      <acc value="0.0365713707" flag="0"/>
      <vel value="0.0029073188" flag="0"/>
      <psa03 value="0.0129184539" flag="0"/>
      <psa10 value="0.0009154141" flag="0"/>
      <psa30 value="0.0000809713" flag="0"/>
    </comp>
    <comp name="--.HHZ">
      <acc value="0.0222698627" flag="0"/>
      <vel value="0.0011722101" flag="0"/>
      <psa03 value="0.0035481543" flag="0"/>
      <psa10 value="0.0001779366" flag="0"/>
      <psa30 value="0.0000432330" flag="0"/>
    </comp>
  </station>
  <station code="MLR" name="MLR" netid="RO" insttype="330HR" lat="45.4909" lon="25.945">
    <comp name="--.HHN">
      <acc value="0.0065535755" flag="0"/>
      <vel value="0.0022256659" flag="0"/>
      <psa03 value="0.0122604742" flag="0"/>
      <psa10 value="0.0025199659" flag="0"/>
      <psa30 value="0.0001758475" flag="0"/>
    </comp>
    <comp name="--.HHZ">
      <acc value="0.0146416645" flag="0"/>
      <vel value="0.0030645102" flag="0"/>
      <psa03 value="0.0128085830" flag="0"/>
      <psa10 value="0.0014925168" flag="0"/>
      <psa30 value="0.0001269322" flag="0"/>
    </comp>
    <comp name="--.HHE">
      <acc value="0.0047691003" flag="0"/>
      <vel value="0.0021311586" flag="0"/>
      <psa03 value="0.0104775091" flag="0"/>
      <psa10 value="0.0009935991" flag="0"/>
      <psa30 value="0.0000906457" flag="0"/>
    </comp>
  </station>
  <station code="MTUR" name="MTUR" netid="RO" insttype="200" lat="45.2349" lon="25.0739">
    <comp name="--.HNN">
      <acc value="0.0223192946" flag="0"/>
      <vel value="0.0054912488" flag="0"/>
      <psa03 value="0.0216700455" flag="0"/>
      <psa10 value="0.0035354568" flag="0"/>
      <psa30 value="0.0004128025" flag="0"/>
    </comp>
    <comp name="--.HNZ">
      <acc value="0.0151649501" flag="0"/>
      <vel value="0.0030830952" flag="0"/>
      <psa03 value="0.0126413702" flag="0"/>
      <psa10 value="0.0015063951" flag="0"/>
      <psa30 value="0.0001100959" flag="0"/>
    </comp>
    <comp name="--.HNE">
      <acc value="0.0236887919" flag="0"/>
      <vel value="0.0059567873" flag="0"/>
      <psa03 value="0.0176750726" flag="0"/>
      <psa10 value="0.0047530253" flag="0"/>
      <psa30 value="0.0002895832" flag="0"/>
    </comp>
  </station>
  <station code="NEGRR" name="NEGRR" netid="RO" insttype="CMG40T.1to100/Quanterra" lat="45.5373" lon="27.8771">
    <comp name="--.HHE">
      <acc value="0.0646142008" flag="0"/>
      <vel value="0.0094573067" flag="0"/>
      <psa03 value="0.0197662115" flag="0"/>
      <psa10 value="0.0012695885" flag="0"/>
      <psa30 value="0.0001160980" flag="0"/>
    </comp>
    <comp name="--.HHN">
      <acc value="0.0684113748" flag="0"/>
      <vel value="0.0104788235" flag="0"/>
      <psa03 value="0.0203233992" flag="0"/>
      <psa10 value="0.0010271433" flag="0"/>
      <psa30 value="0.0001039354" flag="0"/>
    </comp>
    <comp name="--.HHZ">
      <acc value="0.0710199642" flag="0"/>
      <vel value="0.0103632394" flag="0"/>
      <psa03 value="0.0241099609" flag="0"/>
      <psa10 value="0.0010597431" flag="0"/>
      <psa30 value="0.0000963055" flag="0"/>
    </comp>
  </station>
  <station code="NEHR" name="NEHR" netid="RO" insttype="Seismometer/Basalt" lat="45.4272" lon="26.2952">
    <comp name="--.HHE">
      <acc value="0.0251327910" flag="0"/>
      <vel value="0.0110742403" flag="0"/>
      <psa03 value="0.0561269853" flag="0"/>
      <psa10 value="0.0037689344" flag="0"/>
      <psa30 value="0.0002478759" flag="0"/>
    </comp>
    <comp name="--.HHN">
      <acc value="0.0338078333" flag="0"/>
      <vel value="0.0128468859" flag="0"/>
      <psa03 value="0.0747291331" flag="0"/>
      <psa10 value="0.0037813938" flag="0"/>
      <psa30 value="0.0003298407" flag="0"/>
    </comp>
    <comp name="--.HHZ">
      <acc value="0.0464250334" flag="0"/>
      <vel value="0.0057333925" flag="0"/>
      <psa03 value="0.0502450455" flag="0"/>
      <psa10 value="0.0021578796" flag="0"/>
      <psa30 value="0.0001308522" flag="0"/>
    </comp>
  </station>
  <station code="ODBI" name="ODBI" netid="RO" insttype="PBB.1to100/Quanterra" lat="45.7633" lon="27.0558">
    <comp name="--.HHE">
      <acc value="0.3876030611" flag="0"/>
      <vel value="0.0669472583" flag="0"/>
      <psa03 value="0.1583115656" flag="0"/>
      <psa10 value="0.0152523727" flag="0"/>
      <psa30 value="0.0010746100" flag="0"/>
    </comp>
    <comp name="--.HHN">
      <acc value="0.3753321074" flag="0"/>
      <vel value="0.0862688528" flag="0"/>
      <psa03 value="0.2602917495" flag="0"/>
      <psa10 value="0.0147435407" flag="0"/>
      <psa30 value="0.0011180538" flag="0"/>
    </comp>
    <comp name="--.HHZ">
      <acc value="0.1044774828" flag="0"/>
      <vel value="0.0165305370" flag="0"/>
      <psa03 value="0.0346922742" flag="0"/>
      <psa10 value="0.0026193432" flag="0"/>
      <psa30 value="0.0001529063" flag="0"/>
    </comp>
  </station>
  <station code="ODSR" name="ODSR" netid="RO" insttype="CMG40T.1to100/Quanterra" lat="46.2969" lon="25.2919">
    <comp name="--.HHZ">
      <acc value="0.0106601513" flag="0"/>
      <vel value="0.0021183306" flag="0"/>
      <psa03 value="0.0068014167" flag="0"/>
      <psa10 value="0.0006518756" flag="0"/>
      <psa30 value="0.0000626747" flag="0"/>
    </comp>
    <comp name="--.HHN">
      <acc value="0.0099658276" flag="0"/>
      <vel value="0.0021750441" flag="0"/>
      <psa03 value="0.0081347057" flag="0"/>
      <psa10 value="0.0006517447" flag="0"/>
      <psa30 value="0.0001172488" flag="0"/>
    </comp>
    <comp name="--.HHE">
      <acc value="0.0129915272" flag="0"/>
      <vel value="0.0031061435" flag="0"/>
      <psa03 value="0.0085827690" flag="0"/>
      <psa10 value="0.0007514967" flag="0"/>
      <psa30 value="0.0000647193" flag="0"/>
    </comp>
  </station>
  <station code="PANC" name="PANC" netid="RO" insttype="Seismometer/Basalt" lat="45.8723" lon="27.1477">
    <comp name="--.HHE">
      <acc value="0.1355105579" flag="0"/>
      <vel value="0.0323864876" flag="0"/>
      <psa03 value="0.0983235691" flag="0"/>
      <psa10 value="0.0049854286" flag="0"/>
      <psa30 value="0.0004109286" flag="0"/>
    </comp>
    <comp name="--.HHN">
      <acc value="0.3982071541" flag="0"/>
      <vel value="0.0976549360" flag="0"/>
      <psa03 value="0.1619997871" flag="0"/>
      <psa10 value="0.0658687967" flag="0"/>
      <psa30 value="0.0334141685" flag="0"/>
    </comp>
    <comp name="--.HHZ">
      <acc value="0.1299674678" flag="0"/>
      <vel value="0.0175522229" flag="0"/>
      <psa03 value="0.0314845934" flag="0"/>
      <psa10 value="0.0017994908" flag="0"/>
      <psa30 value="0.0001449170" flag="0"/>
    </comp>
  </station>
  <station code="PLAR" name="PLAR" netid="RO" insttype="200" lat="44.9142" lon="26.0274">
    <comp name="--.HNE">
      <acc value="0.0601292826" flag="0"/>
      <vel value="0.0159646680" flag="0"/>
      <psa03 value="0.1053227796" flag="0"/>
      <psa10 value="0.0036934429" flag="0"/>
      <psa30 value="0.0003559561" flag="0"/>
    </comp>
    <comp name="--.HNN">
      <acc value="0.0955528877" flag="0"/>
      <vel value="0.0278687164" flag="0"/>
      <psa03 value="0.1043043444" flag="0"/>
      <psa10 value="0.0057709407" flag="0"/>
      <psa30 value="0.0005919858" flag="0"/>
    </comp>
    <comp name="--.HNZ">
      <acc value="0.0780857072" flag="0"/>
      <vel value="0.0081938437" flag="0"/>
      <psa03 value="0.0165866061" flag="0"/>
      <psa10 value="0.0010254005" flag="0"/>
      <psa30 value="0.0001257438" flag="0"/>
    </comp>
  </station>
  <station code="PLOR" name="PLOR" netid="RO" insttype="330" lat="45.8512" lon="26.6498">
    <comp name="--.HHE">
      <acc value="0.0144200080" flag="0"/>
      <vel value="0.0059505828" flag="0"/>
      <psa03 value="0.0356614373" flag="0"/>
      <psa10 value="0.0022467936" flag="0"/>
      <psa30 value="0.0001758778" flag="0"/>
    </comp>
    <comp name="--.HHZ">
      <acc value="0.0096336619" flag="0"/>
      <vel value="0.0026687069" flag="0"/>
      <psa03 value="0.0211925266" flag="0"/>
      <psa10 value="0.0009244846" flag="0"/>
      <psa30 value="0.0000746465" flag="0"/>
    </comp>
    <comp name="--.HHN">
      <acc value="0.0185697647" flag="0"/>
      <vel value="0.0053133074" flag="0"/>
      <psa03 value="0.0399763622" flag="0"/>
      <psa10 value="0.0021284557" flag="0"/>
      <psa30 value="0.0002036583" flag="0"/>
    </comp>
  </station>
  <station code="PLOR4" name="PLOR4" netid="RO" insttype="330" lat="45.8512" lon="26.6498">
    <comp name="--.HHN">
      <acc value="0.0185697647" flag="0"/>
      <vel value="0.0053133074" flag="0"/>
      <psa03 value="0.0399763622" flag="0"/>
      <psa10 value="0.0021284557" flag="0"/>
      <psa30 value="0.0002036583" flag="0"/>
    </comp>
    <comp name="--.HHZ">
      <acc value="0.0096336619" flag="0"/>
      <vel value="0.0026687069" flag="0"/>
      <psa03 value="0.0211925266" flag="0"/>
      <psa10 value="0.0009244846" flag="0"/>
      <psa30 value="0.0000746465" flag="0"/>
    </comp>
    <comp name="--.HHE">
      <acc value="0.0144200080" flag="0"/>
      <vel value="0.0059505828" flag="0"/>
      <psa03 value="0.0356614373" flag="0"/>
      <psa10 value="0.0022467936" flag="0"/>
      <psa30 value="0.0001758778" flag="0"/>
    </comp>
  </station>
  <station code="SAHR" name="SAHR" netid="RO" insttype="Seismometer/Basalt" lat="45.7266" lon="26.6855">
    <comp name="--.HHE">
      <acc value="0.0437721823" flag="0"/>
      <vel value="0.0172095426" flag="0"/>
      <psa03 value="0.1311027445" flag="0"/>
      <psa10 value="0.0069192515" flag="0"/>
      <psa30 value="0.0004712767" flag="0"/>
    </comp>
    <comp name="--.HHN">
      <acc value="0.0535810176" flag="0"/>
      <vel value="0.0205277822" flag="0"/>
      <psa03 value="0.1282808731" flag="0"/>
      <psa10 value="0.0064591230" flag="0"/>
      <psa30 value="0.0004184188" flag="0"/>
    </comp>
    <comp name="--.HHZ">
      <acc value="0.0252967356" flag="0"/>
      <vel value="0.0101783512" flag="0"/>
      <psa03 value="0.0870794803" flag="0"/>
      <psa10 value="0.0024235575" flag="0"/>
      <psa30 value="0.0002044943" flag="0"/>
    </comp>
  </station>
  <station code="SCHL" name="SCHL" netid="RO" insttype="CMG40T.1to100/Quanterra" lat="45.5007" lon="27.8302">
    <comp name="--.HHE">
      <acc value="0.0360212419" flag="0"/>
      <vel value="0.0082758938" flag="0"/>
      <psa03 value="0.0350688970" flag="0"/>
      <psa10 value="0.0029656111" flag="0"/>
      <psa30 value="0.0002282143" flag="0"/>
    </comp>
    <comp name="--.HHN">
      <acc value="0.0333937171" flag="0"/>
      <vel value="0.0101782337" flag="0"/>
      <psa03 value="0.0382454955" flag="0"/>
      <psa10 value="0.0028179664" flag="0"/>
      <psa30 value="0.0001684536" flag="0"/>
    </comp>
    <comp name="--.HHZ">
      <acc value="0.0656837635" flag="0"/>
      <vel value="0.0082511007" flag="0"/>
      <psa03 value="0.0144492346" flag="0"/>
      <psa10 value="0.0011207439" flag="0"/>
      <psa30 value="0.0000936524" flag="0"/>
    </comp>
  </station>
  <station code="SCHLR" name="SCHLR" netid="RO" insttype="CMG40T.1to100/Quanterra" lat="45.4702" lon="27.8314">
    <comp name="--.HHE">
      <acc value="0.0524610494" flag="0"/>
      <vel value="0.0081282654" flag="0"/>
      <psa03 value="0.0169700955" flag="0"/>
      <psa10 value="0.0013896286" flag="0"/>
      <psa30 value="0.0001173155" flag="0"/>
    </comp>
    <comp name="--.HHN">
      <acc value="0.0491584936" flag="0"/>
      <vel value="0.0078835104" flag="0"/>
      <psa03 value="0.0197207444" flag="0"/>
      <psa10 value="0.0012389807" flag="0"/>
      <psa30 value="0.0001212824" flag="0"/>
    </comp>
    <comp name="--.HHZ">
      <acc value="0.0617437120" flag="0"/>
      <vel value="0.0053067329" flag="0"/>
      <psa03 value="0.0105136963" flag="0"/>
      <psa10 value="0.0005078575" flag="0"/>
      <psa30 value="0.0000421238" flag="0"/>
    </comp>
  </station>
  <station code="SCTR" name="SCTR" netid="RO" insttype="2.5V" lat="45.6741" lon="27.9949">
    <comp name="--.HNE">
      <acc value="0.0800833794" flag="0"/>
      <vel value="0.0101632691" flag="0"/>
      <psa03 value="0.0348410669" flag="0"/>
      <psa10 value="0.0046589400" flag="0"/>
      <psa30 value="0.0003479609" flag="0"/>
    </comp>
    <comp name="--.HNZ">
      <acc value="0.0415212770" flag="0"/>
      <vel value="0.0076710087" flag="0"/>
      <psa03 value="0.0239725106" flag="0"/>
      <psa10 value="0.0029632989" flag="0"/>
      <psa30 value="0.0002018391" flag="0"/>
    </comp>
    <comp name="--.HNN">
      <acc value="0.0783034043" flag="0"/>
      <vel value="0.0191748124" flag="0"/>
      <psa03 value="0.0640379156" flag="0"/>
      <psa10 value="0.0044313663" flag="0"/>
      <psa30 value="0.0003211023" flag="0"/>
    </comp>
  </station>
  <station code="SULR" name="SULR" netid="RO" insttype="330" lat="44.6777" lon="26.2526">
    <comp name="--.HHE">
      <acc value="0.0387395341" flag="0"/>
      <vel value="0.0098878487" flag="0"/>
      <psa03 value="0.0480292711" flag="0"/>
      <psa10 value="0.0029219902" flag="0"/>
      <psa30 value="0.0002636393" flag="0"/>
    </comp>
    <comp name="--.HHZ">
      <acc value="0.0397649162" flag="0"/>
      <vel value="0.0050886512" flag="0"/>
      <psa03 value="0.0117764955" flag="0"/>
      <psa10 value="0.0009342216" flag="0"/>
      <psa30 value="0.0001152768" flag="0"/>
    </comp>
    <comp name="--.HHN">
      <acc value="0.0315376458" flag="0"/>
      <vel value="0.0088293042" flag="0"/>
      <psa03 value="0.0291040488" flag="0"/>
      <psa10 value="0.0032193219" flag="0"/>
      <psa30 value="0.0003674939" flag="0"/>
    </comp>
  </station>
  <station code="TUDR" name="TUDR" netid="RO" insttype="CMG40T.1to100/Quanterra" lat="45.5939" lon="27.6687">
    <comp name="--.HHE">
      <acc value="0.2114389676" flag="0"/>
      <vel value="0.0507352060" flag="0"/>
      <psa03 value="0.1607194374" flag="0"/>
      <psa10 value="0.0070187097" flag="0"/>
