<stationlist created="1778069496">
	<station code="IACM" name="IACM" netid="HL" source="National Observatory of Athens Seismic Network" insttype="" lat="35.3058" lon="25.0709">
		<comp name="--.HNE" depth="0.0">
			<acc value="0.0314165551380471" flag="0"/>
			<vel value="0.0337955453090994" flag="0"/>
			<psa03 value="0.0566883757853503" flag="0"/>
			<psa10 value="0.0740769869654754" flag="0"/>
			<psa30 value="0.00626614603688896" flag="0"/>
		</comp>
		<comp name="--.HNN" depth="0.0">
			<acc value="0.0207989051740981" flag="0"/>
			<vel value="0.0240323812890046" flag="0"/>
			<psa03 value="0.0621469249927795" flag="0"/>
			<psa10 value="0.05173630835684" flag="0"/>
			<psa30 value="0.00669880317488765" flag="0"/>
		</comp>
		<comp name="--.HNZ" depth="0.0">
			<acc value="0.0155931719681244" flag="0"/>
			<vel value="0.0152118848973579" flag="0"/>
			<psa03 value="0.025682026598888" flag="0"/>
			<psa10 value="0.0251513840283953" flag="0"/>
			<psa30 value="0.00215746920313306" flag="0"/>
		</comp>
	</station>
</stationlist>
