<?xml version="1.0" encoding="UTF-8" standalone="yes"?>
<!DOCTYPE earthquake SYSTEM "stationlist.dtd">
<stationlist created="" xmlns="ch.ethz.sed.shakemap.usgs.xml">
  <station code="ZKR" name="ZKR" netid="GE" insttype="STS-2/N" lat="35.1147" lon="26.2169">
    <comp name="--.HHE">
      <acc value="0.0106852095" flag="0"/>
      <vel value="0.0094246581" flag="0"/>
      <psa03 value="0.0204486670" flag="0"/>
      <psa10 value="0.0142807578" flag="0"/>
      <psa30 value="0.0050485880" flag="0"/>
    </comp>
    <comp name="--.HHZ">
      <acc value="0.0064101808" flag="0"/>
      <vel value="0.0057805657" flag="0"/>
      <psa03 value="0.0141793580" flag="0"/>
      <psa10 value="0.0129881663" flag="0"/>
      <psa30 value="0.0033292254" flag="0"/>
    </comp>
    <comp name="--.HHN">
      <acc value="0.0052825374" flag="0"/>
      <vel value="0.0051464069" flag="0"/>
      <psa03 value="0.0168685470" flag="0"/>
      <psa10 value="0.0099172937" flag="0"/>
      <psa30 value="0.0013252645" flag="0"/>
    </comp>
  </station>
  <station code="STIA" name="STIA" netid="HC" insttype="120" lat="35.2021" lon="26.0909">
    <comp name="--.HHE">
      <acc value="0.0094248970" flag="0"/>
      <vel value="0.0112489474" flag="0"/>
      <psa03 value="0.0193556151" flag="0"/>
      <psa10 value="0.0212211197" flag="0"/>
      <psa30 value="0.0022289247" flag="0"/>
    </comp>
    <comp name="--.HHN">
      <acc value="0.0094831594" flag="0"/>
      <vel value="0.0106830304" flag="0"/>
      <psa03 value="0.0337716552" flag="0"/>
      <psa10 value="0.0213777294" flag="0"/>
      <psa30 value="0.0044666423" flag="0"/>
    </comp>
    <comp name="--.HHZ">
      <acc value="0.0068819083" flag="0"/>
      <vel value="0.0056958614" flag="0"/>
      <psa03 value="0.0174603787" flag="0"/>
      <psa10 value="0.0088987511" flag="0"/>
      <psa30 value="0.0011274580" flag="0"/>
    </comp>
  </station>
  <station code="NPS" name="NPS" netid="HL" insttype="CMG3ESPC-120s" lat="35.2613" lon="25.6104">
    <comp name="--.HHE">
      <acc value="0.0033040181" flag="0"/>
      <vel value="0.0026702675" flag="0"/>
      <psa03 value="0.0077476158" flag="0"/>
      <psa10 value="0.0050107471" flag="0"/>
      <psa30 value="0.0006816068" flag="0"/>
    </comp>
    <comp name="--.HHN">
      <acc value="0.0057963604" flag="0"/>
      <vel value="0.0058210108" flag="0"/>
      <psa03 value="0.0114169542" flag="0"/>
      <psa10 value="0.0135566066" flag="0"/>
      <psa30 value="0.0022045238" flag="0"/>
    </comp>
    <comp name="--.HHZ">
      <acc value="0.0070575953" flag="0"/>
      <vel value="0.0056634775" flag="0"/>
      <psa03 value="0.0115296603" flag="0"/>
      <psa10 value="0.0127799572" flag="0"/>
      <psa30 value="0.0026121958" flag="0"/>
    </comp>
  </station>
  <station code="ZKR" name="ZKR" netid="HL" insttype="120" lat="35.1147" lon="26.2169">
    <comp name="--.HHE">
      <acc value="0.0104964227" flag="0"/>
      <vel value="0.0093386151" flag="0"/>
      <psa03 value="0.0199657207" flag="0"/>
      <psa10 value="0.0141944340" flag="0"/>
      <psa30 value="0.0050492949" flag="0"/>
    </comp>
    <comp name="--.HHN">
      <acc value="0.0051595370" flag="0"/>
      <vel value="0.0050899400" flag="0"/>
      <psa03 value="0.0164126930" flag="0"/>
      <psa10 value="0.0098554461" flag="0"/>
      <psa30 value="0.0013261967" flag="0"/>
    </comp>
    <comp name="--.HHZ">
      <acc value="0.0062464699" flag="0"/>
      <vel value="0.0057412816" flag="0"/>
      <psa03 value="0.0138180667" flag="0"/>
      <psa10 value="0.0129148082" flag="0"/>
      <psa30 value="0.0033329836" flag="0"/>
    </comp>
  </station>
</stationlist>
