<?xml version="1.0" encoding="UTF-8" standalone="yes"?>
<!DOCTYPE earthquake SYSTEM "stationlist.dtd">
<stationlist created="" xmlns="ch.ethz.sed.shakemap.usgs.xml">
  <station code="CEYT" name="CEYT" netid="KO" insttype="CMG-3ESP" lat="37.0105" lon="35.7478">
    <comp name="--.HHN">
      <acc value="0.0086847277" flag="0"/>
      <vel value="0.0091228475" flag="0"/>
      <psa03 value="0.0312794147" flag="0"/>
      <psa10 value="0.0177948181" flag="0"/>
      <psa30 value="0.0010902431" flag="0"/>
    </comp>
    <comp name="--.HHZ">
      <acc value="0.0079509046" flag="0"/>
      <vel value="0.0065288787" flag="0"/>
      <psa03 value="0.0184357889" flag="0"/>
      <psa10 value="0.0108473645" flag="0"/>
      <psa30 value="0.0007215801" flag="0"/>
    </comp>
    <comp name="--.HHE">
      <acc value="0.0102510275" flag="0"/>
      <vel value="0.0061689446" flag="0"/>
      <psa03 value="0.0332320554" flag="0"/>
      <psa10 value="0.0093901588" flag="0"/>
      <psa30 value="0.0006518210" flag="0"/>
    </comp>
  </station>
  <station code="GAZ" name="GAZ" netid="KO" insttype="CMG-3T" lat="37.1721" lon="37.2096">
    <comp name="--.HHZ">
      <acc value="0.1671769731" flag="0"/>
      <vel value="0.0768581670" flag="0"/>
      <psa03 value="0.3298391945" flag="0"/>
      <psa10 value="0.0642124284" flag="0"/>
      <psa30 value="0.0039918624" flag="0"/>
    </comp>
    <comp name="--.HHN">
      <acc value="0.2188886636" flag="0"/>
      <vel value="0.1079396235" flag="0"/>
      <psa03 value="0.3301804500" flag="0"/>
      <psa10 value="0.0963152886" flag="0"/>
      <psa30 value="0.0081731768" flag="0"/>
    </comp>
    <comp name="--.HHE">
      <acc value="0.2789759885" flag="0"/>
      <vel value="0.1359407271" flag="0"/>
      <psa03 value="0.4125369074" flag="0"/>
      <psa10 value="0.1022188901" flag="0"/>
      <psa30 value="0.0092946791" flag="0"/>
    </comp>
  </station>
  <station code="KHMN" name="KHMN" netid="KO" insttype="CMG-5T" lat="37.3916" lon="37.1574">
    <comp name="--.HNE">
      <acc value="1.1501293793" flag="0"/>
      <vel value="0.2255080821" flag="0"/>
      <psa03 value="0.6678628891" flag="0"/>
      <psa10 value="0.0660313532" flag="0"/>
      <psa30 value="0.0128401281" flag="0"/>
    </comp>
    <comp name="--.HNZ">
      <acc value="0.3968274426" flag="0"/>
      <vel value="0.0995870310" flag="0"/>
      <psa03 value="0.3228622819" flag="0"/>
      <psa10 value="0.0549259254" flag="0"/>
      <psa30 value="0.0057472396" flag="0"/>
    </comp>
    <comp name="--.HNN">
      <acc value="0.8672306262" flag="0"/>
      <vel value="0.2198029801" flag="0"/>
      <psa03 value="0.7336326306" flag="0"/>
      <psa10 value="0.0754928469" flag="0"/>
      <psa30 value="0.0065600172" flag="0"/>
    </comp>
  </station>
  <station code="KMRS" name="KMRS" netid="KO" insttype="CMG-3T" lat="37.5053" lon="36.9">
    <comp name="--.HHN">
      <acc value="0.1063506961" flag="0"/>
      <vel value="0.0821198672" flag="0"/>
      <psa03 value="0.3018493673" flag="0"/>
      <psa10 value="0.0681314219" flag="0"/>
      <psa30 value="0.0040199526" flag="0"/>
    </comp>
    <comp name="--.HHE">
      <acc value="0.1548653477" flag="0"/>
      <vel value="0.0733659428" flag="0"/>
      <psa03 value="0.2949341973" flag="0"/>
      <psa10 value="0.0533374079" flag="0"/>
      <psa30 value="0.0042774045" flag="0"/>
    </comp>
    <comp name="--.HHZ">
      <acc value="0.0845667963" flag="0"/>
      <vel value="0.0485823899" flag="0"/>
      <psa03 value="0.2623768680" flag="0"/>
      <psa10 value="0.0386243180" flag="0"/>
      <psa30 value="0.0020089692" flag="0"/>
    </comp>
  </station>
  <station code="ANDN" name="ANDN" netid="TU" insttype="T" lat="37.58" lon="36.3452">
    <comp name="--.HHE">
      <acc value="0.1163196033" flag="0"/>
      <vel value="0.0400270734" flag="0"/>
      <psa03 value="0.1948960612" flag="0"/>
      <psa10 value="0.0365355695" flag="0"/>
      <psa30 value="0.0017535537" flag="0"/>
    </comp>
    <comp name="--.HHN">
      <acc value="0.1372963047" flag="0"/>
      <vel value="0.0382487266" flag="0"/>
      <psa03 value="0.2413584142" flag="0"/>
      <psa10 value="0.0247115470" flag="0"/>
      <psa30 value="0.0024904051" flag="0"/>
    </comp>
    <comp name="--.HHZ">
      <acc value="0.0489342554" flag="0"/>
      <vel value="0.0224421492" flag="0"/>
      <psa03 value="0.1050127601" flag="0"/>
      <psa10 value="0.0325438170" flag="0"/>
      <psa30 value="0.0015343755" flag="0"/>
    </comp>
  </station>
</stationlist>
