<?xml version="1.0" encoding="UTF-8" standalone="yes"?>
<!DOCTYPE earthquake SYSTEM "stationlist.dtd">
<stationlist created="" xmlns="ch.ethz.sed.shakemap.usgs.xml">
  <station code="ARPRA" name="ARPRA" netid="KO" insttype="CMG-5T" lat="39.0929" lon="38.3356">
    <comp name="--.HNZ">
      <acc value="0.0097746794" flag="0"/>
      <vel value="0.0078785168" flag="0"/>
      <psa03 value="0.0352683263" flag="0"/>
      <psa10 value="0.0104160149" flag="0"/>
      <psa30 value="0.0011753623" flag="0"/>
    </comp>
    <comp name="--.HNE">
      <acc value="0.0209151488" flag="0"/>
      <vel value="0.0124469533" flag="0"/>
      <psa03 value="0.0674365407" flag="0"/>
      <psa10 value="0.0145212266" flag="0"/>
      <psa30 value="0.0018096010" flag="0"/>
    </comp>
    <comp name="--.HNN">
      <acc value="0.0239836584" flag="0"/>
      <vel value="0.0141455984" flag="0"/>
      <psa03 value="0.0824317384" flag="0"/>
      <psa10 value="0.0138900102" flag="0"/>
      <psa30 value="0.0015348156" flag="0"/>
    </comp>
  </station>
  <station code="SVRC" name="SVRC" netid="KO" insttype="CMG-3T" lat="38.3775" lon="39.306">
    <comp name="--.HHE">
      <acc value="0.0144259312" flag="0"/>
      <vel value="0.0078327474" flag="0"/>
      <psa03 value="0.0601101633" flag="0"/>
      <psa10 value="0.0088004412" flag="0"/>
      <psa30 value="0.0010852059" flag="0"/>
    </comp>
    <comp name="--.HHN">
      <acc value="0.0195187155" flag="0"/>
      <vel value="0.0097867747" flag="0"/>
      <psa03 value="0.0557144470" flag="0"/>
      <psa10 value="0.0071817169" flag="0"/>
      <psa30 value="0.0023271632" flag="0"/>
    </comp>
    <comp name="--.HHZ">
      <acc value="0.0124565596" flag="0"/>
      <vel value="0.0073356487" flag="0"/>
      <psa03 value="0.0340386460" flag="0"/>
      <psa10 value="0.0068416553" flag="0"/>
      <psa30 value="0.0010033317" flag="0"/>
    </comp>
  </station>
  <station code="URFA" name="URFA" netid="KO" insttype="CMG-3ESP" lat="37.4409" lon="38.8213">
    <comp name="--.HHE">
      <acc value="0.0591169767" flag="0"/>
      <vel value="0.0192267345" flag="0"/>
      <psa03 value="0.0358668600" flag="0"/>
      <psa10 value="0.0153119285" flag="0"/>
      <psa30 value="0.0065198165" flag="0"/>
    </comp>
    <comp name="--.HHN">
      <acc value="0.0527246619" flag="0"/>
      <vel value="0.0137334642" flag="0"/>
      <psa03 value="0.0369335897" flag="0"/>
      <psa10 value="0.0120125426" flag="0"/>
      <psa30 value="0.0029918766" flag="0"/>
    </comp>
    <comp name="--.HHZ">
      <acc value="0.0365749260" flag="0"/>
      <vel value="0.0088972743" flag="0"/>
      <psa03 value="0.0197967265" flag="0"/>
      <psa10 value="0.0103732198" flag="0"/>
      <psa30 value="0.0025707885" flag="0"/>
    </comp>
  </station>
</stationlist>
