<?xml version="1.0" encoding="UTF-8" standalone="yes"?>
<!DOCTYPE earthquake SYSTEM "stationlist.dtd">
<stationlist created="" xmlns="ch.ethz.sed.shakemap.usgs.xml">
  <station code="THERA" name="THERA" netid="GE" insttype="STS-2/N" lat="36.367" lon="25.4753">
    <comp name="--.HHN">
      <acc value="0.1386815504" flag="0"/>
      <vel value="0.0420409432" flag="0"/>
      <psa03 value="0.2416347169" flag="0"/>
      <psa10 value="0.0114766721" flag="0"/>
      <psa30 value="0.0008170734" flag="0"/>
    </comp>
    <comp name="--.HHE">
      <acc value="0.2623953393" flag="0"/>
      <vel value="0.0543583870" flag="0"/>
      <psa03 value="0.3646840583" flag="0"/>
      <psa10 value="0.0191000946" flag="0"/>
      <psa30 value="0.0017548349" flag="0"/>
    </comp>
    <comp name="--.HHZ">
      <acc value="0.1700819171" flag="0"/>
      <vel value="0.0407150187" flag="0"/>
      <psa03 value="0.2715850039" flag="0"/>
      <psa10 value="0.0134376207" flag="0"/>
      <psa30 value="0.0011166408" flag="0"/>
    </comp>
  </station>
</stationlist>
