<?xml version="1.0" encoding="UTF-8" standalone="yes"?>
<!DOCTYPE earthquake SYSTEM "stationlist.dtd">
<stationlist created="" xmlns="ch.ethz.sed.shakemap.usgs.xml">
  <station code="AKS" name="AKS" netid="KO" insttype="CMG-5T" commtype="DIG" lat="38.8785" lon="27.8129">
    <comp name="--.HNZ">
      <acc value="0.1135376325" flag="0"/>
      <vel value="0.0306205168" flag="0"/>
      <psa03 value="0.2369352639" flag="0"/>
      <psa10 value="0.0116799047" flag="0"/>
      <psa30 value="0.0010706300" flag="0"/>
    </comp>
    <comp name="--.HNE">
      <acc value="0.1112956103" flag="0"/>
      <vel value="0.0371905592" flag="0"/>
      <psa03 value="0.2620783640" flag="0"/>
      <psa10 value="0.0179852426" flag="0"/>
      <psa30 value="0.0020003296" flag="0"/>
    </comp>
    <comp name="--.HNN">
      <acc value="0.1411938405" flag="0"/>
      <vel value="0.0517736320" flag="0"/>
      <psa03 value="0.2520720303" flag="0"/>
      <psa10 value="0.0221224057" flag="0"/>
      <psa30 value="0.0019853252" flag="0"/>
    </comp>
  </station>
  <station code="BALB" name="BALB" netid="KO" insttype="CMG-5T" commtype="DIG" lat="39.6507" lon="27.8642">
    <comp name="--.HNN">
      <acc value="0.1293175446" flag="0"/>
      <vel value="0.0652079860" flag="0"/>
      <psa03 value="0.2060287714" flag="0"/>
      <psa10 value="0.0346226854" flag="0"/>
      <psa30 value="0.0026943115" flag="0"/>
    </comp>
    <comp name="--.HNE">
      <acc value="0.1742602664" flag="0"/>
      <vel value="0.0491683697" flag="0"/>
      <psa03 value="0.1736026892" flag="0"/>
      <psa10 value="0.0213030042" flag="0"/>
      <psa30 value="0.0020417431" flag="0"/>
    </comp>
    <comp name="--.HNZ">
      <acc value="0.0918673722" flag="0"/>
      <vel value="0.0271714847" flag="0"/>
      <psa03 value="0.0807816713" flag="0"/>
      <psa10 value="0.0096998608" flag="0"/>
      <psa30 value="0.0013712877" flag="0"/>
    </comp>
  </station>
  <station code="DST" name="DST" netid="KO" insttype="CMG-5T" commtype="DIG" lat="39.6041" lon="28.6267">
    <comp name="--.HNE">
      <acc value="0.1380319735" flag="0"/>
      <vel value="0.0357662668" flag="0"/>
      <psa03 value="0.2258533568" flag="0"/>
      <psa10 value="0.0228075386" flag="0"/>
      <psa30 value="0.0011576942" flag="0"/>
    </comp>
    <comp name="--.HNN">
      <acc value="0.0994417154" flag="0"/>
      <vel value="0.0260367668" flag="0"/>
      <psa03 value="0.1324632892" flag="0"/>
      <psa10 value="0.0212557936" flag="0"/>
      <psa30 value="0.0017091298" flag="0"/>
    </comp>
    <comp name="--.HNZ">
      <acc value="0.0786560685" flag="0"/>
      <vel value="0.0254369473" flag="0"/>
      <psa03 value="0.2019036590" flag="0"/>
      <psa10 value="0.0129795113" flag="0"/>
      <psa30 value="0.0011691307" flag="0"/>
    </comp>
  </station>
  <station code="GOMA" name="GOMA" netid="KO" insttype="CMG-5T" commtype="DIG" lat="38.7077" lon="27.9175">
    <comp name="--.HNE">
      <acc value="0.1293280693" flag="0"/>
      <vel value="0.0696567256" flag="0"/>
      <psa03 value="0.4565462232" flag="0"/>
      <psa10 value="0.0198439368" flag="0"/>
      <psa30 value="0.0017511157" flag="0"/>
    </comp>
  </station>
  <station code="GONE" name="GONE" netid="KO" insttype="CMG-5T" commtype="DIG" lat="40.0466" lon="27.686">
    <comp name="--.HNZ">
      <acc value="0.0705060616" flag="0"/>
      <vel value="0.0286886989" flag="0"/>
      <psa03 value="0.0662953391" flag="0"/>
      <psa10 value="0.0103194783" flag="0"/>
      <psa30 value="0.0008280208" flag="0"/>
    </comp>
    <comp name="--.HNN">
      <acc value="0.0845304065" flag="0"/>
      <vel value="0.0432632038" flag="0"/>
      <psa03 value="0.2421876941" flag="0"/>
      <psa10 value="0.0428608904" flag="0"/>
      <psa30 value="0.0015719975" flag="0"/>
    </comp>
    <comp name="--.HNE">
      <acc value="0.0758401766" flag="0"/>
      <vel value="0.0280046685" flag="0"/>
      <psa03 value="0.2175386779" flag="0"/>
      <psa10 value="0.0152122172" flag="0"/>
      <psa30 value="0.0011754067" flag="0"/>
    </comp>
  </station>
  <station code="GORD" name="GORD" netid="KO" insttype="CMG-5T" commtype="DIG" lat="38.9088" lon="28.1769">
    <comp name="--.HNZ">
      <acc value="0.1352582803" flag="0"/>
      <vel value="0.0548380797" flag="0"/>
      <psa03 value="0.2780376445" flag="0"/>
      <psa10 value="0.0479934783" flag="0"/>
      <psa30 value="0.0069235409" flag="0"/>
    </comp>
    <comp name="--.HNN">
      <acc value="0.1634346359" flag="0"/>
      <vel value="0.0778707872" flag="0"/>
      <psa03 value="0.3771611650" flag="0"/>
      <psa10 value="0.0819887737" flag="0"/>
      <psa30 value="0.0079925305" flag="0"/>
    </comp>
    <comp name="--.HNE">
      <acc value="0.1084288698" flag="0"/>
      <vel value="0.0713246435" flag="0"/>
      <psa03 value="0.2675469266" flag="0"/>
      <psa10 value="0.0413950070" flag="0"/>
      <psa30 value="0.0033514158" flag="0"/>
    </comp>
  </station>
  <station code="KCTX" name="KCTX" netid="KO" insttype="CMG-3ESP" commtype="DIG" lat="40.2626" lon="28.3353">
    <comp name="--.HHE">
      <acc value="0.0673247388" flag="0"/>
      <vel value="0.0142077384" flag="0"/>
      <psa03 value="0.0899497755" flag="0"/>
      <psa10 value="0.0105442306" flag="0"/>
      <psa30 value="0.0010644294" flag="0"/>
    </comp>
    <comp name="--.HHN">
      <acc value="0.0805438167" flag="0"/>
      <vel value="0.0259942265" flag="0"/>
      <psa03 value="0.1470840166" flag="0"/>
      <psa10 value="0.0123877571" flag="0"/>
      <psa30 value="0.0010730224" flag="0"/>
    </comp>
    <comp name="--.HHZ">
      <acc value="0.0580934788" flag="0"/>
      <vel value="0.0208743439" flag="0"/>
      <psa03 value="0.0746351484" flag="0"/>
      <psa10 value="0.0079386539" flag="0"/>
      <psa30 value="0.0008609905" flag="0"/>
    </comp>
  </station>
  <station code="KULA" name="KULA" netid="KO" insttype="CMG-3T" commtype="DIG" lat="38.5145" lon="28.6607">
    <comp name="--.HHE">
      <acc value="0.0701810840" flag="0"/>
      <vel value="0.0210219971" flag="0"/>
      <psa03 value="0.1069349160" flag="0"/>
      <psa10 value="0.0260898650" flag="0"/>
      <psa30 value="0.0016643452" flag="0"/>
    </comp>
  </station>
  <station code="ORLT" name="ORLT" netid="KO" insttype="CMG-5T" commtype="DIG" lat="40.0452" lon="28.8914">
    <comp name="--.HNE">
      <acc value="0.1180347072" flag="0"/>
      <vel value="0.0537798295" flag="0"/>
      <psa03 value="0.3744297651" flag="0"/>
      <psa10 value="0.0510975548" flag="0"/>
      <psa30 value="0.0020973895" flag="0"/>
    </comp>
    <comp name="--.HNN">
      <acc value="0.1837925667" flag="0"/>
      <vel value="0.0801561958" flag="0"/>
      <psa03 value="0.7580484715" flag="0"/>
      <psa10 value="0.0772097183" flag="0"/>
      <psa30 value="0.0030464957" flag="0"/>
    </comp>
    <comp name="--.HNZ">
      <acc value="0.0434986214" flag="0"/>
      <vel value="0.0323258145" flag="0"/>
      <psa03 value="0.1381959265" flag="0"/>
      <psa10 value="0.0437621892" flag="0"/>
      <psa30 value="0.0015974574" flag="0"/>
    </comp>
  </station>
  <station code="SHAP" name="SHAP" netid="KO" insttype="CMG-5T" commtype="DIG" lat="39.0231" lon="29.222">
    <comp name="--.HNE">
      <acc value="0.2514014433" flag="0"/>
      <vel value="0.0844946521" flag="0"/>
      <psa03 value="0.5317725538" flag="0"/>
      <psa10 value="0.0195582624" flag="0"/>
      <psa30 value="0.0016099786" flag="0"/>
    </comp>
    <comp name="--.HNZ">
      <acc value="0.1257979896" flag="0"/>
      <vel value="0.0234011482" flag="0"/>
      <psa03 value="0.0735662897" flag="0"/>
      <psa10 value="0.0094732262" flag="0"/>
      <psa30 value="0.0007894588" flag="0"/>
    </comp>
    <comp name="--.HNN">
      <acc value="0.1957415682" flag="0"/>
      <vel value="0.0750138880" flag="0"/>
      <psa03 value="0.4292534837" flag="0"/>
      <psa10 value="0.0311188092" flag="0"/>
      <psa30 value="0.0020122832" flag="0"/>
    </comp>
  </station>
  <station code="SIMA" name="SIMA" netid="KO" insttype="CMG-6T" commtype="DIG" lat="39.0833" lon="28.9825">
    <comp name="--.HHE">
      <acc value="0.2779368409" flag="0"/>
      <vel value="0.0449131977" flag="0"/>
      <psa03 value="0.2349047487" flag="0"/>
      <psa10 value="0.0151831373" flag="0"/>
      <psa30 value="0.0012254707" flag="0"/>
    </comp>
    <comp name="--.HHN">
      <acc value="0.1512665031" flag="0"/>
      <vel value="0.0367351323" flag="0"/>
      <psa03 value="0.2432877249" flag="0"/>
      <psa10 value="0.0166733581" flag="0"/>
      <psa30 value="0.0018545835" flag="0"/>
    </comp>
    <comp name="--.HHZ">
      <acc value="0.1072986622" flag="0"/>
      <vel value="0.0299112654" flag="0"/>
      <psa03 value="0.1514356663" flag="0"/>
      <psa10 value="0.0101921217" flag="0"/>
      <psa30 value="0.0012410135" flag="0"/>
    </comp>
  </station>
  <station code="SOMA" name="SOMA" netid="KO" insttype="CMG-5T" commtype="DIG" lat="39.1564" lon="27.5341">
    <comp name="--.HNN">
      <acc value="0.1406586562" flag="0"/>
      <vel value="0.0673694718" flag="0"/>
      <psa03 value="0.3162427048" flag="0"/>
      <psa10 value="0.0369690143" flag="0"/>
      <psa30 value="0.0020527529" flag="0"/>
    </comp>
    <comp name="--.HNZ">
      <acc value="0.0871747582" flag="0"/>
      <vel value="0.0294267872" flag="0"/>
      <psa03 value="0.1472371928" flag="0"/>
      <psa10 value="0.0214027605" flag="0"/>
      <psa30 value="0.0009142239" flag="0"/>
    </comp>
    <comp name="--.HNE">
      <acc value="0.1349210430" flag="0"/>
      <vel value="0.0484443918" flag="0"/>
      <psa03 value="0.4514567177" flag="0"/>
      <psa10 value="0.0190063989" flag="0"/>
      <psa30 value="0.0013205699" flag="0"/>
    </comp>
  </station>
  <station code="SUSR" name="SUSR" netid="KO" insttype="CMG-5T" commtype="DIG" lat="39.9627" lon="28.0835">
    <comp name="--.HNE">
      <acc value="0.1382148753" flag="0"/>
      <vel value="0.0454825043" flag="0"/>
      <psa03 value="0.2328860003" flag="0"/>
      <psa10 value="0.0180969093" flag="0"/>
      <psa30 value="0.0015595241" flag="0"/>
    </comp>
    <comp name="--.HNN">
      <acc value="0.1670269646" flag="0"/>
      <vel value="0.0495678002" flag="0"/>
      <psa03 value="0.3856757793" flag="0"/>
      <psa10 value="0.0126259795" flag="0"/>
      <psa30 value="0.0009818446" flag="0"/>
    </comp>
    <comp name="--.HNZ">
      <acc value="0.0880780478" flag="0"/>
      <vel value="0.0211847667" flag="0"/>
      <psa03 value="0.1654501737" flag="0"/>
      <psa10 value="0.0094427303" flag="0"/>
      <psa30 value="0.0008606068" flag="0"/>
    </comp>
  </station>
  <station code="TVSB" name="TVSB" netid="KO" insttype="CMG-3T" commtype="DIG" lat="39.4497" lon="29.4615">
    <comp name="--.HHE">
      <acc value="0.0793201392" flag="0"/>
      <vel value="0.0519096864" flag="0"/>
      <psa03 value="0.2731444117" flag="0"/>
      <psa10 value="0.0210777919" flag="0"/>
      <psa30 value="0.0017242551" flag="0"/>
    </comp>
    <comp name="--.HHZ">
      <acc value="0.0315673414" flag="0"/>
      <vel value="0.0150928559" flag="0"/>
      <psa03 value="0.1039575390" flag="0"/>
      <psa10 value="0.0096910867" flag="0"/>
      <psa30 value="0.0007027880" flag="0"/>
    </comp>
    <comp name="--.HHN">
      <acc value="0.0615019345" flag="0"/>
      <vel value="0.0302130839" flag="0"/>
      <psa03 value="0.2769379189" flag="0"/>
      <psa10 value="0.0213284372" flag="0"/>
      <psa30 value="0.0011478960" flag="0"/>
    </comp>
  </station>
  <station code="YAYO" name="YAYO" netid="KO" insttype="CMG-6T" commtype="DIG" lat="39.6113" lon="27.0726">
    <comp name="--.HHE">
      <acc value="0.0343385923" flag="0"/>
      <vel value="0.0227600421" flag="0"/>
      <psa03 value="0.1143263357" flag="0"/>
      <psa10 value="0.0155865215" flag="0"/>
      <psa30 value="0.0009976056" flag="0"/>
    </comp>
    <comp name="--.HHZ">
      <acc value="0.0426954090" flag="0"/>
      <vel value="0.0184416704" flag="0"/>
      <psa03 value="0.1012935042" flag="0"/>
      <psa10 value="0.0075978412" flag="0"/>
      <psa30 value="0.0005770790" flag="0"/>
    </comp>
    <comp name="--.HHN">
      <acc value="0.0396381448" flag="0"/>
      <vel value="0.0201624482" flag="0"/>
      <psa03 value="0.0942307909" flag="0"/>
      <psa10 value="0.0235856705" flag="0"/>
      <psa30 value="0.0016580909" flag="0"/>
    </comp>
  </station>
  <station code="YENI" name="YENI" netid="KO" insttype="CMG-5T" commtype="DIG" lat="39.9364" lon="27.2422">
    <comp name="--.HNE">
      <acc value="0.0561989901" flag="0"/>
      <vel value="0.0211299657" flag="0"/>
      <psa03 value="0.1041849570" flag="0"/>
      <psa10 value="0.0172532201" flag="0"/>
      <psa30 value="0.0014193647" flag="0"/>
    </comp>
    <comp name="--.HNZ">
      <acc value="0.0383882256" flag="0"/>
      <vel value="0.0115681952" flag="0"/>
      <psa03 value="0.0738799544" flag="0"/>
      <psa10 value="0.0046812595" flag="0"/>
      <psa30 value="0.0007268848" flag="0"/>
    </comp>
    <comp name="--.HNN">
      <acc value="0.0657543137" flag="0"/>
      <vel value="0.0261628656" flag="0"/>
      <psa03 value="0.1122707653" flag="0"/>
      <psa10 value="0.0122296720" flag="0"/>
      <psa30 value="0.0008816436" flag="0"/>
    </comp>
  </station>
</stationlist>
