<?xml version="1.0" encoding="UTF-8" standalone="yes"?>
<!DOCTYPE earthquake SYSTEM "stationlist.dtd">
<stationlist created="" xmlns="ch.ethz.sed.shakemap.usgs.xml">
  <station code="ATHR" name="ATHR" netid="HA" insttype="GEOtiny," commtype="DIG" lat="38.3172" lon="20.4165">
    <comp name="--.HHE">
      <acc value="0.0108413261" flag="0"/>
      <vel value="0.0141357020" flag="0"/>
      <psa03 value="0.0303056207" flag="0"/>
      <psa10 value="0.0270840688" flag="0"/>
      <psa30 value="0.0026724551" flag="0"/>
    </comp>
    <comp name="--.HHN">
      <acc value="0.0139846194" flag="0"/>
      <vel value="0.0136244170" flag="0"/>
      <psa03 value="0.0286721345" flag="0"/>
      <psa10 value="0.0253022567" flag="0"/>
      <psa30 value="0.0039848616" flag="0"/>
    </comp>
    <comp name="--.HHZ">
      <acc value="0.0090893308" flag="0"/>
      <vel value="0.0066849952" flag="0"/>
      <psa03 value="0.0174824050" flag="0"/>
      <psa10 value="0.0106361268" flag="0"/>
      <psa30 value="0.0017959102" flag="0"/>
    </comp>
  </station>
  <station code="HAVD" name="HAVD" netid="HA" insttype="GEOtiny," commtype="DIG" lat="38.2036" lon="20.3848">
    <comp name="--.HHN">
      <acc value="0.0154572672" flag="0"/>
      <vel value="0.0095403153" flag="0"/>
      <psa03 value="0.0288401353" flag="0"/>
      <psa10 value="0.0187088837" flag="0"/>
      <psa30 value="0.0021119064" flag="0"/>
    </comp>
    <comp name="--.HHE">
      <acc value="0.0141835981" flag="0"/>
      <vel value="0.0091510444" flag="0"/>
      <psa03 value="0.0232964286" flag="0"/>
      <psa10 value="0.0255745209" flag="0"/>
      <psa30 value="0.0017438610" flag="0"/>
    </comp>
    <comp name="--.HHZ">
      <acc value="0.0110352399" flag="0"/>
      <vel value="0.0062028963" flag="0"/>
      <psa03 value="0.0224874122" flag="0"/>
      <psa10 value="0.0114294989" flag="0"/>
      <psa30 value="0.0012008984" flag="0"/>
    </comp>
  </station>
  <station code="AGR3" name="AGR3" netid="HI" insttype="unknown" commtype="DIG" lat="38.5893" lon="21.4162">
    <comp name="--.HNE">
      <acc value="0.0365669483" flag="0"/>
      <vel value="0.0417922716" flag="0"/>
      <psa03 value="0.0872442600" flag="0"/>
      <psa10 value="0.0887037041" flag="0"/>
      <psa30 value="0.0299103948" flag="0"/>
    </comp>
    <comp name="--.HNZ">
      <acc value="0.0224913350" flag="0"/>
      <vel value="0.0311301107" flag="0"/>
      <psa03 value="0.0554798906" flag="0"/>
      <psa10 value="0.0888034625" flag="0"/>
      <psa30 value="0.0064628646" flag="0"/>
    </comp>
    <comp name="--.HNN">
      <acc value="0.0328568590" flag="0"/>
      <vel value="0.0359751764" flag="0"/>
      <psa03 value="0.0872627207" flag="0"/>
      <psa10 value="0.0818909325" flag="0"/>
      <psa30 value="0.0143207264" flag="0"/>
    </comp>
  </station>
  <station code="ART2" name="ART2" netid="HI" insttype="CMG-5TD,ACCELEROMETER,GURALP" commtype="DIG" lat="39.1474" lon="20.9937">
    <comp name="--.HNE">
      <acc value="0.1038152171" flag="0"/>
      <vel value="0.0308827654" flag="0"/>
      <psa03 value="0.1259548737" flag="0"/>
      <psa10 value="0.0277643157" flag="0"/>
      <psa30 value="0.0059809550" flag="0"/>
    </comp>
    <comp name="--.HNN">
      <acc value="0.0661267601" flag="0"/>
      <vel value="0.0250233903" flag="0"/>
      <psa03 value="0.1087028427" flag="0"/>
      <psa10 value="0.0280992131" flag="0"/>
      <psa30 value="0.0049382482" flag="0"/>
    </comp>
    <comp name="--.HNZ">
      <acc value="0.0503128338" flag="0"/>
      <vel value="0.0227674369" flag="0"/>
      <psa03 value="0.0810693422" flag="0"/>
      <psa10 value="0.0353546382" flag="0"/>
      <psa30 value="0.0028077749" flag="0"/>
    </comp>
  </station>
  <station code="GRE3" name="GRE3" netid="HI" insttype="unknown" commtype="DIG" lat="40.0848" lon="21.4383">
    <comp name="--.HNN">
      <acc value="0.0364222280" flag="0"/>
      <vel value="0.0278763921" flag="0"/>
      <psa03 value="0.1208044609" flag="0"/>
      <psa10 value="0.0690561307" flag="0"/>
      <psa30 value="0.0063154170" flag="0"/>
    </comp>
    <comp name="--.HNZ">
      <acc value="0.2877249419" flag="0"/>
      <vel value="0.0255994441" flag="0"/>
      <psa03 value="0.0554629651" flag="0"/>
      <psa10 value="0.0445723030" flag="0"/>
      <psa30 value="0.0044488184" flag="0"/>
    </comp>
  </station>
  <station code="JAN2" name="JAN2" netid="HI" insttype="unknown" commtype="DIG" lat="39.664" lon="20.8522">
    <comp name="--.HNN">
      <acc value="2.0712484486" flag="0"/>
      <vel value="0.6187120265" flag="0"/>
      <psa03 value="7.2606365855" flag="0"/>
      <psa10 value="0.4259140340" flag="0"/>
      <psa30 value="0.0385381269" flag="0"/>
    </comp>
    <comp name="--.HNE">
      <acc value="2.1581140116" flag="0"/>
      <vel value="0.8568526653" flag="0"/>
      <psa03 value="8.5101704956" flag="0"/>
      <psa10 value="0.4289278857" flag="0"/>
      <psa30 value="0.0424374594" flag="0"/>
    </comp>
    <comp name="--.HNZ">
      <acc value="1.5251445652" flag="0"/>
      <vel value="0.3438628719" flag="0"/>
      <psa03 value="1.9124167160" flag="0"/>
      <psa10 value="0.1830946421" flag="0"/>
      <psa30 value="0.0158557917" flag="0"/>
    </comp>
  </station>
  <station code="JAN3" name="JAN3" netid="HI" insttype="unknown" commtype="DIG" lat="39.684" lon="20.8379">
    <comp name="--.HNE">
      <acc value="3.7818873029" flag="0"/>
      <vel value="1.2498707083" flag="0"/>
      <psa03 value="9.3174608871" flag="0"/>
      <psa10 value="0.3625810540" flag="0"/>
      <psa30 value="0.0470687707" flag="0"/>
    </comp>
    <comp name="--.HNZ">
      <acc value="2.3554514314" flag="0"/>
      <vel value="0.5900442839" flag="0"/>
      <psa03 value="3.7883950207" flag="0"/>
      <psa10 value="0.2215022186" flag="0"/>
      <psa30 value="0.0212742054" flag="0"/>
    </comp>
    <comp name="--.HNN">
      <acc value="2.7859332089" flag="0"/>
      <vel value="0.9131191854" flag="0"/>
      <psa03 value="3.2773794432" flag="0"/>
      <psa10 value="0.5334266360" flag="0"/>
      <psa30 value="0.0528791111" flag="0"/>
    </comp>
  </station>
  <station code="KNS1" name="KNS1" netid="HI" insttype="unknown" commtype="DIG" lat="40.048" lon="20.7524">
    <comp name="--.HNE">
      <acc value="0.2153789390" flag="0"/>
      <vel value="0.1148337279" flag="0"/>
      <psa03 value="0.5353748883" flag="0"/>
      <psa10 value="0.1051732060" flag="0"/>
      <psa30 value="0.0241084839" flag="0"/>
    </comp>
    <comp name="--.HNN">
      <acc value="0.2962590307" flag="0"/>
      <vel value="0.1025840968" flag="0"/>
      <psa03 value="0.5766010608" flag="0"/>
      <psa10 value="0.0963129789" flag="0"/>
      <psa30 value="0.0096510611" flag="0"/>
    </comp>
    <comp name="--.HNZ">
      <acc value="0.1489780388" flag="0"/>
      <vel value="0.0689334012" flag="0"/>
      <psa03 value="0.3533805594" flag="0"/>
      <psa10 value="0.0517940381" flag="0"/>
      <psa30 value="0.0070796966" flag="0"/>
    </comp>
  </station>
  <station code="KRK1" name="KRK1" netid="HI" insttype="CMG-5TD,ACCELEROMETER,GURALP" commtype="DIG" lat="39.6189" lon="19.9202">
    <comp name="--.HNN">
      <acc value="0.1951189045" flag="0"/>
      <vel value="0.0803664831" flag="0"/>
      <psa03 value="0.3724503593" flag="0"/>
      <psa10 value="0.1421715169" flag="0"/>
      <psa30 value="0.0128575453" flag="0"/>
    </comp>
    <comp name="--.HNZ">
      <acc value="0.1263820870" flag="0"/>
      <vel value="0.0366847372" flag="0"/>
      <psa03 value="0.3131249812" flag="0"/>
      <psa10 value="0.0382340916" flag="0"/>
      <psa30 value="0.0087970094" flag="0"/>
    </comp>
    <comp name="--.HNE">
      <acc value="0.2290417258" flag="0"/>
      <vel value="0.0953865073" flag="0"/>
      <psa03 value="0.4254453914" flag="0"/>
      <psa10 value="0.1253960967" flag="0"/>
      <psa30 value="0.0114571303" flag="0"/>
    </comp>
  </station>
  <station code="LEF2" name="LEF2" netid="HI" insttype="unknown" commtype="DIG" lat="38.8301" lon="20.7083">
    <comp name="--.HNE">
      <acc value="0.0736797163" flag="0"/>
      <vel value="0.0928965453" flag="0"/>
      <psa03 value="0.1753394715" flag="0"/>
      <psa10 value="0.2047052740" flag="0"/>
      <psa30 value="0.0241116051" flag="0"/>
    </comp>
    <comp name="--.HNN">
      <acc value="0.0727906922" flag="0"/>
      <vel value="0.0618527963" flag="0"/>
      <psa03 value="0.2422624432" flag="0"/>
      <psa10 value="0.1878761510" flag="0"/>
      <psa30 value="0.0107635087" flag="0"/>
    </comp>
    <comp name="--.HNZ">
      <acc value="0.0528119920" flag="0"/>
      <vel value="0.0466659144" flag="0"/>
      <psa03 value="0.1071757604" flag="0"/>
      <psa10 value="0.1162601835" flag="0"/>
      <psa30 value="0.0064019547" flag="0"/>
    </comp>
  </station>
  <station code="LMS2" name="LMS2" netid="HI" insttype="CMG-5TD,ACCELEROMETER,GURALP" commtype="DIG" lat="40.835" lon="21.1418">
    <comp name="--.HNE">
      <acc value="0.0212152329" flag="0"/>
      <vel value="0.0161803076" flag="0"/>
      <psa03 value="0.0493877326" flag="0"/>
      <psa10 value="0.0213103541" flag="0"/>
      <psa30 value="0.0030894838" flag="0"/>
    </comp>
    <comp name="--.HNN">
      <acc value="0.0258625965" flag="0"/>
      <vel value="0.0195115211" flag="0"/>
      <psa03 value="0.0585783805" flag="0"/>
      <psa10 value="0.0214783201" flag="0"/>
      <psa30 value="0.0018259348" flag="0"/>
    </comp>
    <comp name="--.HNZ">
      <acc value="0.0083402478" flag="0"/>
      <vel value="0.0073545240" flag="0"/>
      <psa03 value="0.0184087211" flag="0"/>
      <psa10 value="0.0177221324" flag="0"/>
      <psa30 value="0.0020012066" flag="0"/>
    </comp>
  </station>
  <station code="PRE2" name="PRE2" netid="HI" insttype="unknown" commtype="DIG" lat="38.9577" lon="20.7548">
    <comp name="--.HNE">
      <acc value="0.1524632308" flag="0"/>
      <vel value="0.1353845819" flag="0"/>
      <psa03 value="0.3151546451" flag="0"/>
      <psa10 value="0.2872639397" flag="0"/>
      <psa30 value="0.0157904349" flag="0"/>
    </comp>
    <comp name="--.HNZ">
      <acc value="0.0614132649" flag="0"/>
      <vel value="0.0484514934" flag="0"/>
      <psa03 value="0.1398518136" flag="0"/>
      <psa10 value="0.0585646065" flag="0"/>
      <psa30 value="0.0048766099" flag="0"/>
    </comp>
    <comp name="--.HNN">
      <acc value="0.1205667435" flag="0"/>
      <vel value="0.0900634069" flag="0"/>
      <psa03 value="0.3975706502" flag="0"/>
      <psa10 value="0.1469439923" flag="0"/>
      <psa30 value="0.0232004363" flag="0"/>
    </comp>
  </station>
  <station code="ARTB" name="ARTB" netid="HL" insttype="CMG-5" commtype="DIG" lat="39.157" lon="20.9785">
    <comp name="00.HNE">
      <acc value="0.2494471646" flag="0"/>
      <vel value="0.0807029981" flag="0"/>
      <psa03 value="0.5314545758" flag="0"/>
      <psa10 value="0.0570844933" flag="0"/>
      <psa30 value="0.0048433867" flag="0"/>
    </comp>
    <comp name="00.HNN">
      <acc value="0.2044483981" flag="0"/>
      <vel value="0.0669434707" flag="0"/>
      <psa03 value="0.4525000277" flag="0"/>
      <psa10 value="0.0376183117" flag="0"/>
      <psa30 value="0.0066530241" flag="0"/>
    </comp>
    <comp name="00.HNZ">
      <acc value="0.1738296139" flag="0"/>
      <vel value="0.0416037004" flag="0"/>
      <psa03 value="0.2003701340" flag="0"/>
      <psa10 value="0.0436567620" flag="0"/>
      <psa30 value="0.0038244961" flag="0"/>
    </comp>
  </station>
  <station code="EVR" name="EVR" netid="HL" insttype="DR24" commtype="DIG" lat="38.9166" lon="21.8105">
    <comp name="--.HHE">
      <acc value="0.0145598346" flag="0"/>
      <vel value="0.0100727157" flag="0"/>
      <psa03 value="0.0442586771" flag="0"/>
      <psa10 value="0.0216363568" flag="0"/>
      <psa30 value="0.0024982218" flag="0"/>
    </comp>
    <comp name="--.HHN">
      <acc value="0.0142243342" flag="0"/>
      <vel value="0.0132059832" flag="0"/>
      <psa03 value="0.0441995060" flag="0"/>
      <psa10 value="0.0233014958" flag="0"/>
      <psa30 value="0.0043751753" flag="0"/>
    </comp>
    <comp name="--.HHZ">
      <acc value="0.0096641667" flag="0"/>
      <vel value="0.0104171243" flag="0"/>
      <psa03 value="0.0243204264" flag="0"/>
      <psa10 value="0.0233744163" flag="0"/>
      <psa30 value="0.0029573385" flag="0"/>
    </comp>
  </station>
  <station code="JAN" name="JAN" netid="HL" insttype="CMG3EPSC60_DR24" commtype="DIG" lat="39.6562" lon="20.8487">
    <comp name="--.HHN">
      <acc value="1.7241362715" flag="0"/>
      <vel value="0.5581322406" flag="0"/>
      <psa03 value="3.5096306439" flag="0"/>
      <psa10 value="0.2976831282" flag="0"/>
      <psa30 value="0.0359226682" flag="0"/>
    </comp>
    <comp name="--.HHE">
      <acc value="1.9970804409" flag="0"/>
      <vel value="0.7226948394" flag="0"/>
      <psa03 value="6.1313142679" flag="0"/>
      <psa10 value="0.3259766327" flag="0"/>
      <psa30 value="0.0392535092" flag="0"/>
    </comp>
    <comp name="--.HHZ">
      <acc value="0.7035938155" flag="0"/>
      <vel value="0.2115361935" flag="0"/>
      <psa03 value="0.8315515843" flag="0"/>
      <psa10 value="0.1397377316" flag="0"/>
      <psa30 value="0.0197003288" flag="0"/>
    </comp>
  </station>
  <station code="KEK" name="KEK" netid="HL" insttype="120" commtype="DIG" lat="39.7127" lon="19.7962">
    <comp name="--.HHN">
      <acc value="0.0607594683" flag="0"/>
      <vel value="0.0787675837" flag="0"/>
      <psa03 value="0.1183849514" flag="0"/>
      <psa10 value="0.0696788775" flag="0"/>
      <psa30 value="0.0246659352" flag="0"/>
    </comp>
    <comp name="--.HHE">
      <acc value="0.0708488821" flag="0"/>
      <vel value="0.0765836872" flag="0"/>
      <psa03 value="0.1222086476" flag="0"/>
      <psa10 value="0.0883576577" flag="0"/>
      <psa30 value="0.0089803125" flag="0"/>
    </comp>
    <comp name="--.HHZ">
      <acc value="0.0527791233" flag="0"/>
      <vel value="0.0343832715" flag="0"/>
      <psa03 value="0.0970198884" flag="0"/>
      <psa10 value="0.0478866369" flag="0"/>
      <psa30 value="0.0059572471" flag="0"/>
    </comp>
  </station>
  <station code="KZN" name="KZN" netid="HL" insttype="120" commtype="DIG" lat="40.3033" lon="21.7821">
    <comp name="--.HHE">
      <acc value="0.0234281377" flag="0"/>
      <vel value="0.0159913319" flag="0"/>
      <psa03 value="0.0617082959" flag="0"/>
      <psa10 value="0.0266495140" flag="0"/>
      <psa30 value="0.0028293246" flag="0"/>
    </comp>
    <comp name="--.HHN">
      <acc value="0.0148027469" flag="0"/>
      <vel value="0.0150174263" flag="0"/>
      <psa03 value="0.0443990085" flag="0"/>
      <psa10 value="0.0171248279" flag="0"/>
      <psa30 value="0.0027760930" flag="0"/>
    </comp>
    <comp name="--.HHZ">
      <acc value="0.0105745967" flag="0"/>
      <vel value="0.0066827100" flag="0"/>
      <psa03 value="0.0288790981" flag="0"/>
      <psa10 value="0.0088947102" flag="0"/>
      <psa30 value="0.0013651357" flag="0"/>
    </comp>
  </station>
  <station code="PENT" name="PENT" netid="HL" insttype="Horizon,120s,1200" commtype="DIG" lat="40.1961" lon="21.1381">
    <comp name="--.HHE">
      <acc value="0.0489119435" flag="0"/>
      <vel value="0.0262320261" flag="0"/>
      <psa03 value="0.1134939085" flag="0"/>
      <psa10 value="0.0504733753" flag="0"/>
      <psa30 value="0.0080805301" flag="0"/>
    </comp>
    <comp name="--.HHZ">
      <acc value="0.0224522447" flag="0"/>
      <vel value="0.0164810054" flag="0"/>
      <psa03 value="0.0808414389" flag="0"/>
      <psa10 value="0.0245422180" flag="0"/>
      <psa30 value="0.0038835849" flag="0"/>
    </comp>
    <comp name="--.HHN">
      <acc value="0.0393872095" flag="0"/>
      <vel value="0.0284417881" flag="0"/>
      <psa03 value="0.1306874970" flag="0"/>
      <psa10 value="0.0347538108" flag="0"/>
      <psa30 value="0.0054668900" flag="0"/>
    </comp>
  </station>
  <station code="PRGA" name="PRGA" netid="HL" insttype="CMG-5" commtype="DIG" lat="39.2856" lon="20.4016">
    <comp name="00.HNE">
      <acc value="0.6833380138" flag="0"/>
      <vel value="0.2766461065" flag="0"/>
      <psa03 value="1.7939878433" flag="0"/>
      <psa10 value="0.2360225558" flag="0"/>
      <psa30 value="0.0142930024" flag="0"/>
    </comp>
    <comp name="00.HNZ">
      <acc value="0.2193635176" flag="0"/>
      <vel value="0.0846172533" flag="0"/>
      <psa03 value="0.3375480098" flag="0"/>
      <psa10 value="0.1277970563" flag="0"/>
      <psa30 value="0.0079898057" flag="0"/>
    </comp>
    <comp name="00.HNN">
      <acc value="0.5327481147" flag="0"/>
      <vel value="0.2910667684" flag="0"/>
      <psa03 value="2.2085557382" flag="0"/>
      <psa10 value="0.3404235504" flag="0"/>
      <psa30 value="0.0237768699" flag="0"/>
    </comp>
  </station>
  <station code="TETR" name="TETR" netid="HL" insttype="60" commtype="DIG" lat="39.3445" lon="21.2747">
    <comp name="--.HHN">
      <acc value="0.2972708485" flag="0"/>
      <vel value="0.1023170437" flag="0"/>
      <psa03 value="0.5680903210" flag="0"/>
      <psa10 value="0.1020825223" flag="0"/>
      <psa30 value="0.0212631396" flag="0"/>
    </comp>
    <comp name="--.HHE">
      <acc value="0.2394430995" flag="0"/>
      <vel value="0.0910206138" flag="0"/>
      <psa03 value="0.5671223692" flag="0"/>
      <psa10 value="0.0963765527" flag="0"/>
      <psa30 value="0.0161142789" flag="0"/>
    </comp>
    <comp name="--.HHZ">
      <acc value="0.1126355528" flag="0"/>
      <vel value="0.0532446081" flag="0"/>
      <psa03 value="0.2751103876" flag="0"/>
      <psa10 value="0.1047567853" flag="0"/>
      <psa30 value="0.0081960745" flag="0"/>
    </comp>
  </station>
  <station code="THL" name="THL" netid="HL" insttype="120" commtype="DIG" lat="39.5647" lon="22.0144">
    <comp name="--.HHN">
      <acc value="0.0126887976" flag="0"/>
      <vel value="0.0088412531" flag="0"/>
      <psa03 value="0.0200264784" flag="0"/>
      <psa10 value="0.0112682387" flag="0"/>
      <psa30 value="0.0051463541" flag="0"/>
    </comp>
    <comp name="--.HHE">
      <acc value="0.0096975522" flag="0"/>
      <vel value="0.0051301216" flag="0"/>
      <psa03 value="0.0303908131" flag="0"/>
      <psa10 value="0.0090653109" flag="0"/>
      <psa30 value="0.0023627402" flag="0"/>
    </comp>
    <comp name="--.HHZ">
      <acc value="0.0055535492" flag="0"/>
      <vel value="0.0057628444" flag="0"/>
      <psa03 value="0.0135982996" flag="0"/>
      <psa10 value="0.0080776271" flag="0"/>
      <psa30 value="0.0024878309" flag="0"/>
    </comp>
  </station>
  <station code="AMPL" name="AMPL" netid="HP" insttype="Compact," commtype="DIG" lat="38.9224" lon="21.2135">
    <comp name="--.HHN">
      <acc value="0.0363303814" flag="0"/>
      <vel value="0.0205702068" flag="0"/>
      <psa03 value="0.0712443115" flag="0"/>
      <psa10 value="0.0425601548" flag="0"/>
      <psa30 value="0.0029927026" flag="0"/>
    </comp>
    <comp name="--.HHE">
      <acc value="0.0579422410" flag="0"/>
      <vel value="0.0196304640" flag="0"/>
      <psa03 value="0.1054566395" flag="0"/>
      <psa10 value="0.0373989844" flag="0"/>
      <psa30 value="0.0045293550" flag="0"/>
    </comp>
    <comp name="--.HHZ">
      <acc value="0.0217038912" flag="0"/>
      <vel value="0.0132680071" flag="0"/>
      <psa03 value="0.0469745845" flag="0"/>
      <psa10 value="0.0213710306" flag="0"/>
      <psa30 value="0.0017064458" flag="0"/>
    </comp>
  </station>
  <station code="ANX" name="ANX" netid="HP" insttype="120" commtype="DIG" lat="38.5933" lon="21.9209">
    <comp name="--.HHE">
      <acc value="0.0152855327" flag="0"/>
      <vel value="0.0123582291" flag="0"/>
      <psa03 value="0.0391463946" flag="0"/>
      <psa10 value="0.0164492102" flag="0"/>
