<?xml version="1.0" encoding="UTF-8" standalone="yes"?>
<!DOCTYPE earthquake SYSTEM "stationlist.dtd">
<stationlist created="" xmlns="ch.ethz.sed.shakemap.usgs.xml">
  <station code="ATHR" name="ATHR" netid="HA" insttype="GEOtiny," commtype="DIG" lat="38.3172" lon="20.4165">
    <comp name="--.HHN">
      <acc value="0.0141339365" flag="0"/>
      <vel value="0.0138094319" flag="0"/>
      <psa03 value="0.0286659440" flag="0"/>
      <psa10 value="0.0252917907" flag="0"/>
      <psa30 value="0.0034482129" flag="0"/>
    </comp>
    <comp name="--.HHE">
      <acc value="0.0109296499" flag="0"/>
      <vel value="0.0117189756" flag="0"/>
      <psa03 value="0.0300870260" flag="0"/>
      <psa10 value="0.0270390611" flag="0"/>
      <psa30 value="0.0021756472" flag="0"/>
    </comp>
    <comp name="--.HHZ">
      <acc value="0.0091409850" flag="0"/>
      <vel value="0.0070315447" flag="0"/>
      <psa03 value="0.0174891512" flag="0"/>
      <psa10 value="0.0106410043" flag="0"/>
      <psa30 value="0.0015426543" flag="0"/>
    </comp>
  </station>
  <station code="AGR3" name="AGR3" netid="HI" insttype="unknown" commtype="DIG" lat="38.5893" lon="21.4162">
    <comp name="--.HNE">
      <acc value="0.0366247705" flag="0"/>
      <vel value="0.0392673266" flag="0"/>
      <psa03 value="0.0873328493" flag="0"/>
      <psa10 value="0.0887501792" flag="0"/>
      <psa30 value="0.0261053316" flag="0"/>
    </comp>
    <comp name="--.HNN">
      <acc value="0.0323848292" flag="0"/>
      <vel value="0.0363887029" flag="0"/>
      <psa03 value="0.0867687750" flag="0"/>
      <psa10 value="0.0819506135" flag="0"/>
      <psa30 value="0.0118071870" flag="0"/>
    </comp>
    <comp name="--.HNZ">
      <acc value="0.0225399856" flag="0"/>
      <vel value="0.0311719155" flag="0"/>
      <psa03 value="0.0554377227" flag="0"/>
      <psa10 value="0.0887395070" flag="0"/>
      <psa30 value="0.0057746141" flag="0"/>
    </comp>
  </station>
  <station code="ART2" name="ART2" netid="HI" insttype="CMG-5TD,ACCELEROMETER,GURALP" commtype="DIG" lat="39.1474" lon="20.9937">
    <comp name="--.HNN">
      <acc value="0.0662397888" flag="0"/>
      <vel value="0.0234685400" flag="0"/>
      <psa03 value="0.1086634056" flag="0"/>
      <psa10 value="0.0281077407" flag="0"/>
      <psa30 value="0.0035206708" flag="0"/>
    </comp>
    <comp name="--.HNZ">
      <acc value="0.0503874678" flag="0"/>
      <vel value="0.0215471140" flag="0"/>
      <psa03 value="0.0808769443" flag="0"/>
      <psa10 value="0.0355029669" flag="0"/>
      <psa30 value="0.0024678316" flag="0"/>
    </comp>
    <comp name="--.HNE">
      <acc value="0.1038769815" flag="0"/>
      <vel value="0.0325794013" flag="0"/>
      <psa03 value="0.1257885019" flag="0"/>
      <psa10 value="0.0275388395" flag="0"/>
      <psa30 value="0.0049252929" flag="0"/>
    </comp>
  </station>
  <station code="GRE3" name="GRE3" netid="HI" insttype="unknown" commtype="DIG" lat="40.0848" lon="21.4383">
    <comp name="--.HNE">
      <acc value="0.0403066698" flag="0"/>
      <vel value="0.0432251638" flag="0"/>
      <psa03 value="0.1242332586" flag="0"/>
      <psa10 value="0.0515111160" flag="0"/>
      <psa30 value="0.0079565793" flag="0"/>
    </comp>
    <comp name="--.HNN">
      <acc value="0.0364076269" flag="0"/>
      <vel value="0.0284413385" flag="0"/>
      <psa03 value="0.1209445778" flag="0"/>
      <psa10 value="0.0688260082" flag="0"/>
      <psa30 value="0.0052341001" flag="0"/>
    </comp>
    <comp name="--.HNZ">
      <acc value="0.2876474850" flag="0"/>
      <vel value="0.0251098954" flag="0"/>
      <psa03 value="0.0554510304" flag="0"/>
      <psa10 value="0.0443620020" flag="0"/>
      <psa30 value="0.0044231470" flag="0"/>
    </comp>
  </station>
  <station code="JAN2" name="JAN2" netid="HI" insttype="unknown" commtype="DIG" lat="39.664" lon="20.8522">
    <comp name="--.HNE">
      <acc value="2.1581119298" flag="0"/>
      <vel value="0.8506347228" flag="0"/>
      <psa03 value="8.5097202287" flag="0"/>
      <psa10 value="0.4289363167" flag="0"/>
      <psa30 value="0.0400267075" flag="0"/>
    </comp>
    <comp name="--.HNZ">
      <acc value="1.5247476662" flag="0"/>
      <vel value="0.3415941782" flag="0"/>
      <psa03 value="1.9122237811" flag="0"/>
      <psa10 value="0.1830495319" flag="0"/>
      <psa30 value="0.0143478604" flag="0"/>
    </comp>
    <comp name="--.HNN">
      <acc value="2.0720341102" flag="0"/>
      <vel value="0.6130614807" flag="0"/>
      <psa03 value="7.2610105700" flag="0"/>
      <psa10 value="0.4262404450" flag="0"/>
      <psa30 value="0.0391367002" flag="0"/>
    </comp>
  </station>
  <station code="JAN3" name="JAN3" netid="HI" insttype="unknown" commtype="DIG" lat="39.684" lon="20.8379">
    <comp name="--.HNE">
      <acc value="3.7832351447" flag="0"/>
      <vel value="1.2570618348" flag="0"/>
      <psa03 value="9.3180941222" flag="0"/>
      <psa10 value="0.3640356347" flag="0"/>
      <psa30 value="0.0421569869" flag="0"/>
    </comp>
    <comp name="--.HNN">
      <acc value="2.7843683600" flag="0"/>
      <vel value="0.9143596265" flag="0"/>
      <psa03 value="3.2783800115" flag="0"/>
      <psa10 value="0.5315906794" flag="0"/>
      <psa30 value="0.0526878869" flag="0"/>
    </comp>
    <comp name="--.HNZ">
      <acc value="2.3557907478" flag="0"/>
      <vel value="0.5930473707" flag="0"/>
      <psa03 value="3.7884746786" flag="0"/>
      <psa10 value="0.2219557067" flag="0"/>
      <psa30 value="0.0194566350" flag="0"/>
    </comp>
  </station>
  <station code="KNS1" name="KNS1" netid="HI" insttype="unknown" commtype="DIG" lat="40.048" lon="20.7524">
    <comp name="--.HNZ">
      <acc value="0.1491176699" flag="0"/>
      <vel value="0.0697624425" flag="0"/>
      <psa03 value="0.3535915599" flag="0"/>
      <psa10 value="0.0518551463" flag="0"/>
      <psa30 value="0.0061935092" flag="0"/>
    </comp>
    <comp name="--.HNE">
      <acc value="0.2142168440" flag="0"/>
      <vel value="0.1107790081" flag="0"/>
      <psa03 value="0.5350009268" flag="0"/>
      <psa10 value="0.1037050587" flag="0"/>
      <psa30 value="0.0217251450" flag="0"/>
    </comp>
    <comp name="--.HNN">
      <acc value="0.2966049760" flag="0"/>
      <vel value="0.1027389290" flag="0"/>
      <psa03 value="0.5765186594" flag="0"/>
      <psa10 value="0.0962474425" flag="0"/>
      <psa30 value="0.0090334055" flag="0"/>
    </comp>
  </station>
  <station code="KRK1" name="KRK1" netid="HI" insttype="CMG-5TD,ACCELEROMETER,GURALP" commtype="DIG" lat="39.6189" lon="19.9202">
    <comp name="--.HNE">
      <acc value="0.2291784685" flag="0"/>
      <vel value="0.0942552650" flag="0"/>
      <psa03 value="0.4248878732" flag="0"/>
      <psa10 value="0.1252482090" flag="0"/>
      <psa30 value="0.0100927930" flag="0"/>
    </comp>
    <comp name="--.HNZ">
      <acc value="0.1262288311" flag="0"/>
      <vel value="0.0373596992" flag="0"/>
      <psa03 value="0.3132822115" flag="0"/>
      <psa10 value="0.0382646403" flag="0"/>
      <psa30 value="0.0074591523" flag="0"/>
    </comp>
    <comp name="--.HNN">
      <acc value="0.1953567162" flag="0"/>
      <vel value="0.0816476417" flag="0"/>
      <psa03 value="0.3725723554" flag="0"/>
      <psa10 value="0.1421962772" flag="0"/>
      <psa30 value="0.0124589022" flag="0"/>
    </comp>
  </station>
  <station code="LEF2" name="LEF2" netid="HI" insttype="unknown" commtype="DIG" lat="38.8301" lon="20.7083">
    <comp name="--.HNE">
      <acc value="0.0735366199" flag="0"/>
      <vel value="0.0946284457" flag="0"/>
      <psa03 value="0.1751480931" flag="0"/>
      <psa10 value="0.2043468784" flag="0"/>
      <psa30 value="0.0207640528" flag="0"/>
    </comp>
    <comp name="--.HNZ">
      <acc value="0.0529135024" flag="0"/>
      <vel value="0.0461436172" flag="0"/>
      <psa03 value="0.1072328212" flag="0"/>
      <psa10 value="0.1162351329" flag="0"/>
      <psa30 value="0.0057700090" flag="0"/>
    </comp>
    <comp name="--.HNN">
      <acc value="0.0727558250" flag="0"/>
      <vel value="0.0604048725" flag="0"/>
      <psa03 value="0.2422458842" flag="0"/>
      <psa10 value="0.1873452072" flag="0"/>
      <psa30 value="0.0098423117" flag="0"/>
    </comp>
  </station>
  <station code="LMS2" name="LMS2" netid="HI" insttype="CMG-5TD,ACCELEROMETER,GURALP" commtype="DIG" lat="40.835" lon="21.1418">
    <comp name="--.HNN">
      <acc value="0.0258544963" flag="0"/>
      <vel value="0.0196258121" flag="0"/>
      <psa03 value="0.0585684999" flag="0"/>
      <psa10 value="0.0214639914" flag="0"/>
      <psa30 value="0.0017579073" flag="0"/>
    </comp>
    <comp name="--.HNE">
      <acc value="0.0212682966" flag="0"/>
      <vel value="0.0160109730" flag="0"/>
      <psa03 value="0.0494467212" flag="0"/>
      <psa10 value="0.0213863116" flag="0"/>
      <psa30 value="0.0025611068" flag="0"/>
    </comp>
    <comp name="--.HNZ">
      <acc value="0.0083203043" flag="0"/>
      <vel value="0.0068526966" flag="0"/>
      <psa03 value="0.0183395803" flag="0"/>
      <psa10 value="0.0176852549" flag="0"/>
      <psa30 value="0.0017201600" flag="0"/>
    </comp>
  </station>
  <station code="PRE2" name="PRE2" netid="HI" insttype="unknown" commtype="DIG" lat="38.9577" lon="20.7548">
    <comp name="--.HNN">
      <acc value="0.1200960395" flag="0"/>
      <vel value="0.0898268775" flag="0"/>
      <psa03 value="0.3973556707" flag="0"/>
      <psa10 value="0.1471724926" flag="0"/>
      <psa30 value="0.0210819244" flag="0"/>
    </comp>
    <comp name="--.HNE">
      <acc value="0.1525877831" flag="0"/>
      <vel value="0.1357260733" flag="0"/>
      <psa03 value="0.3147611153" flag="0"/>
      <psa10 value="0.2878088947" flag="0"/>
      <psa30 value="0.0146815246" flag="0"/>
    </comp>
    <comp name="--.HNZ">
      <acc value="0.0611950167" flag="0"/>
      <vel value="0.0457652842" flag="0"/>
      <psa03 value="0.1401804724" flag="0"/>
      <psa10 value="0.0559917483" flag="0"/>
      <psa30 value="0.0045065396" flag="0"/>
    </comp>
  </station>
  <station code="ARTB" name="ARTB" netid="HL" insttype="CMG-5" commtype="DIG" lat="39.157" lon="20.9785">
    <comp name="00.HNN">
      <acc value="0.2045933151" flag="0"/>
      <vel value="0.0675114813" flag="0"/>
      <psa03 value="0.4524615266" flag="0"/>
      <psa10 value="0.0376097233" flag="0"/>
      <psa30 value="0.0050248639" flag="0"/>
    </comp>
    <comp name="00.HNZ">
      <acc value="0.1738715666" flag="0"/>
      <vel value="0.0400685717" flag="0"/>
      <psa03 value="0.2004407617" flag="0"/>
      <psa10 value="0.0433206273" flag="0"/>
      <psa30 value="0.0029350355" flag="0"/>
    </comp>
    <comp name="00.HNE">
      <acc value="0.2493579116" flag="0"/>
      <vel value="0.0820043236" flag="0"/>
      <psa03 value="0.5315139202" flag="0"/>
      <psa10 value="0.0569688274" flag="0"/>
      <psa30 value="0.0040449198" flag="0"/>
    </comp>
  </station>
  <station code="EVR" name="EVR" netid="HL" insttype="DR24" commtype="DIG" lat="38.9166" lon="21.8105">
    <comp name="--.HHN">
      <acc value="0.0142364888" flag="0"/>
      <vel value="0.0123570984" flag="0"/>
      <psa03 value="0.0443872622" flag="0"/>
      <psa10 value="0.0232976735" flag="0"/>
      <psa30 value="0.0035366695" flag="0"/>
    </comp>
    <comp name="--.HHZ">
      <acc value="0.0096474965" flag="0"/>
      <vel value="0.0098843949" flag="0"/>
      <psa03 value="0.0242804753" flag="0"/>
      <psa10 value="0.0234714484" flag="0"/>
      <psa30 value="0.0027565331" flag="0"/>
    </comp>
    <comp name="--.HHE">
      <acc value="0.0146226164" flag="0"/>
      <vel value="0.0102601216" flag="0"/>
      <psa03 value="0.0442835559" flag="0"/>
      <psa10 value="0.0217515231" flag="0"/>
      <psa30 value="0.0021971693" flag="0"/>
    </comp>
  </station>
  <station code="JAN" name="JAN" netid="HL" insttype="CMG3EPSC60_DR24" commtype="DIG" lat="39.6562" lon="20.8487">
    <comp name="--.HHZ">
      <acc value="0.7041073052" flag="0"/>
      <vel value="0.2133100069" flag="0"/>
      <psa03 value="0.8318171474" flag="0"/>
      <psa10 value="0.1391867605" flag="0"/>
      <psa30 value="0.0178070280" flag="0"/>
    </comp>
    <comp name="--.HHN">
      <acc value="1.7233496874" flag="0"/>
      <vel value="0.5514564221" flag="0"/>
      <psa03 value="3.5100540491" flag="0"/>
      <psa10 value="0.2966613413" flag="0"/>
      <psa30 value="0.0358526692" flag="0"/>
    </comp>
    <comp name="--.HHE">
      <acc value="1.9971101316" flag="0"/>
      <vel value="0.7157717841" flag="0"/>
      <psa03 value="6.1302022814" flag="0"/>
      <psa10 value="0.3260156541" flag="0"/>
      <psa30 value="0.0387184967" flag="0"/>
    </comp>
  </station>
  <station code="KEK" name="KEK" netid="HL" insttype="120" commtype="DIG" lat="39.7127" lon="19.7962">
    <comp name="--.HHE">
      <acc value="0.0708612529" flag="0"/>
      <vel value="0.0741077752" flag="0"/>
      <psa03 value="0.1222448864" flag="0"/>
      <psa10 value="0.0880942479" flag="0"/>
      <psa30 value="0.0082423484" flag="0"/>
    </comp>
    <comp name="--.HHN">
      <acc value="0.0604059930" flag="0"/>
      <vel value="0.0746085844" flag="0"/>
      <psa03 value="0.1177444393" flag="0"/>
      <psa10 value="0.0689688632" flag="0"/>
      <psa30 value="0.0226900975" flag="0"/>
    </comp>
    <comp name="--.HHZ">
      <acc value="0.0527727175" flag="0"/>
      <vel value="0.0343025793" flag="0"/>
      <psa03 value="0.0968298475" flag="0"/>
      <psa10 value="0.0478550458" flag="0"/>
      <psa30 value="0.0051870158" flag="0"/>
    </comp>
  </station>
  <station code="KZN" name="KZN" netid="HL" insttype="120" commtype="DIG" lat="40.3033" lon="21.7821">
    <comp name="--.HHE">
      <acc value="0.0233482263" flag="0"/>
      <vel value="0.0157449476" flag="0"/>
      <psa03 value="0.0616354660" flag="0"/>
      <psa10 value="0.0266717578" flag="0"/>
      <psa30 value="0.0021613043" flag="0"/>
    </comp>
    <comp name="--.HHZ">
      <acc value="0.0105333194" flag="0"/>
      <vel value="0.0066255849" flag="0"/>
      <psa03 value="0.0288489469" flag="0"/>
      <psa10 value="0.0089238383" flag="0"/>
      <psa30 value="0.0012597477" flag="0"/>
    </comp>
    <comp name="--.HHN">
      <acc value="0.0149077804" flag="0"/>
      <vel value="0.0142710663" flag="0"/>
      <psa03 value="0.0444005825" flag="0"/>
      <psa10 value="0.0172264882" flag="0"/>
      <psa30 value="0.0021961234" flag="0"/>
    </comp>
  </station>
  <station code="PENT" name="PENT" netid="HL" insttype="Horizon,120s,1200" commtype="DIG" lat="40.1961" lon="21.1381">
    <comp name="--.HHZ">
      <acc value="0.0225367058" flag="0"/>
      <vel value="0.0162716224" flag="0"/>
      <psa03 value="0.0808169715" flag="0"/>
      <psa10 value="0.0244169072" flag="0"/>
      <psa30 value="0.0031061141" flag="0"/>
    </comp>
    <comp name="--.HHE">
      <acc value="0.0489707149" flag="0"/>
      <vel value="0.0256582675" flag="0"/>
      <psa03 value="0.1135440022" flag="0"/>
      <psa10 value="0.0503503136" flag="0"/>
      <psa30 value="0.0072634906" flag="0"/>
    </comp>
    <comp name="--.HHN">
      <acc value="0.0393283650" flag="0"/>
      <vel value="0.0262264486" flag="0"/>
      <psa03 value="0.1304764859" flag="0"/>
      <psa10 value="0.0351180293" flag="0"/>
      <psa30 value="0.0050231906" flag="0"/>
    </comp>
  </station>
  <station code="PRGA" name="PRGA" netid="HL" insttype="CMG-5" commtype="DIG" lat="39.2856" lon="20.4016">
    <comp name="00.HNE">
      <acc value="0.6837622275" flag="0"/>
      <vel value="0.2798263248" flag="0"/>
      <psa03 value="1.7935971491" flag="0"/>
      <psa10 value="0.2355707233" flag="0"/>
      <psa30 value="0.0126134415" flag="0"/>
    </comp>
    <comp name="00.HNZ">
      <acc value="0.2196472497" flag="0"/>
      <vel value="0.0836919380" flag="0"/>
      <psa03 value="0.3376180953" flag="0"/>
      <psa10 value="0.1275662150" flag="0"/>
      <psa30 value="0.0065250879" flag="0"/>
    </comp>
    <comp name="00.HNN">
      <acc value="0.5320036434" flag="0"/>
      <vel value="0.2988335701" flag="0"/>
      <psa03 value="2.2095560747" flag="0"/>
      <psa10 value="0.3406008926" flag="0"/>
      <psa30 value="0.0210282517" flag="0"/>
    </comp>
  </station>
  <station code="TETR" name="TETR" netid="HL" insttype="60" commtype="DIG" lat="39.3445" lon="21.2747">
    <comp name="--.HHE">
      <acc value="0.2398320537" flag="0"/>
      <vel value="0.0923449479" flag="0"/>
      <psa03 value="0.5672631992" flag="0"/>
      <psa10 value="0.0964422705" flag="0"/>
      <psa30 value="0.0150653835" flag="0"/>
    </comp>
    <comp name="--.HHN">
      <acc value="0.2979638813" flag="0"/>
      <vel value="0.0983273722" flag="0"/>
      <psa03 value="0.5676604604" flag="0"/>
      <psa10 value="0.1019536040" flag="0"/>
      <psa30 value="0.0186321107" flag="0"/>
    </comp>
    <comp name="--.HHZ">
      <acc value="0.1126399669" flag="0"/>
      <vel value="0.0529271147" flag="0"/>
      <psa03 value="0.2750685939" flag="0"/>
      <psa10 value="0.1046380981" flag="0"/>
      <psa30 value="0.0071193699" flag="0"/>
    </comp>
  </station>
  <station code="THL" name="THL" netid="HL" insttype="120" commtype="DIG" lat="39.5647" lon="22.0144">
    <comp name="--.HHE">
      <acc value="0.0096797082" flag="0"/>
      <vel value="0.0053430784" flag="0"/>
      <psa03 value="0.0303091650" flag="0"/>
      <psa10 value="0.0090871705" flag="0"/>
      <psa30 value="0.0019801307" flag="0"/>
    </comp>
    <comp name="--.HHN">
      <acc value="0.0127352186" flag="0"/>
      <vel value="0.0095398070" flag="0"/>
      <psa03 value="0.0200099460" flag="0"/>
      <psa10 value="0.0113168970" flag="0"/>
      <psa30 value="0.0045211971" flag="0"/>
    </comp>
    <comp name="--.HHZ">
      <acc value="0.0055019672" flag="0"/>
      <vel value="0.0052819865" flag="0"/>
      <psa03 value="0.0136756098" flag="0"/>
      <psa10 value="0.0080731812" flag="0"/>
      <psa30 value="0.0021582978" flag="0"/>
    </comp>
  </station>
  <station code="AMPL" name="AMPL" netid="HP" insttype="Compact," commtype="DIG" lat="38.9224" lon="21.2135">
    <comp name="--.HHN">
      <acc value="0.0363496935" flag="0"/>
      <vel value="0.0204490200" flag="0"/>
      <psa03 value="0.0711895139" flag="0"/>
      <psa10 value="0.0424836093" flag="0"/>
      <psa30 value="0.0027243400" flag="0"/>
    </comp>
    <comp name="--.HHE">
      <acc value="0.0578600290" flag="0"/>
      <vel value="0.0195524710" flag="0"/>
      <psa03 value="0.1053804245" flag="0"/>
      <psa10 value="0.0374654745" flag="0"/>
      <psa30 value="0.0041060963" flag="0"/>
    </comp>
    <comp name="--.HHZ">
      <acc value="0.0217074128" flag="0"/>
      <vel value="0.0122680505" flag="0"/>
      <psa03 value="0.0469088030" flag="0"/>
      <psa10 value="0.0214294193" flag="0"/>
      <psa30 value="0.0014688747" flag="0"/>
    </comp>
  </station>
  <station code="FSK" name="FSK" netid="HP" insttype="40," commtype="DIG" lat="38.4593" lon="20.5623">
    <comp name="--.HHE">
      <acc value="0.0343365417" flag="0"/>
      <vel value="0.0195079022" flag="0"/>
      <psa03 value="0.0731181030" flag="0"/>
      <psa10 value="0.0213069555" flag="0"/>
      <psa30 value="0.0044478240" flag="0"/>
    </comp>
    <comp name="--.HHN">
      <acc value="0.0169969192" flag="0"/>
      <vel value="0.0148009987" flag="0"/>
      <psa03 value="0.0394931604" flag="0"/>
      <psa10 value="0.0253035509" flag="0"/>
      <psa30 value="0.0026812168" flag="0"/>
    </comp>
    <comp name="--.HHZ">
      <acc value="0.0137363712" flag="0"/>
      <vel value="0.0084081976" flag="0"/>
      <psa03 value="0.0390402821" flag="0"/>
      <psa10 value="0.0128765867" flag="0"/>
      <psa30 value="0.0016920931" flag="0"/>
    </comp>
  </station>
