<stationlist xmlns:esm="https://esm-db.eu/esmws/shakemap/1/" created="1782266069">
	<station code="SRN" name="SRN" netid="AC" source="Albanian Seismological Network (AC)" insttype="" lat="39.880001" lon="20.0005" esm:processing="automatic (Paolucci et al 2011)" esm:quality="best">
		<comp name="01.HNE" depth="0.0">
			<acc value="0.162086727745265" flag="0"/>
			<vel value="0.151907218004637" flag="0"/>
			<psa03 value="0.299767545628715" flag="0"/>
			<psa10 value="0.178794294244517" flag="0"/>
			<psa30 value="0.0580275907097665" flag="0"/>
		</comp>
		<comp name="01.HNN" depth="0.0">
			<acc value="0.141211817227681" flag="0"/>
			<vel value="0.161908174192224" flag="0"/>
			<psa03 value="0.267859411038062" flag="0"/>
			<psa10 value="0.138539667573059" flag="0"/>
			<psa30 value="0.0768730991322105" flag="0"/>
		</comp>
		<comp name="01.HNZ" depth="0.0">
			<acc value="0.149780493059982" flag="0"/>
			<vel value="0.11364368846998" flag="0"/>
			<psa03 value="0.295230140881252" flag="0"/>
			<psa10 value="0.175712670102041" flag="0"/>
			<psa30 value="0.0310978267450683" flag="0"/>
		</comp>
	</station>
	<station code="AGR3" name="AGR3" netid="HI" source="ITSAK Strong Motion Network" insttype="" lat="38.5893" lon="21.4162" esm:processing="manual (Paolucci et al 2011)" esm:quality="good">
		<comp name="--.HNE" depth="0.0">
			<acc value="0.0362895126736875" flag="0"/>
			<vel value="0.0423117513202147" flag="0"/>
			<psa03 value="0.0861786307863468" flag="0"/>
			<psa10 value="0.088871114775197" flag="0"/>
			<psa30 value="0.0299761524396505" flag="0"/>
		</comp>
		<comp name="--.HNN" depth="0.0">
			<acc value="0.0329035973011139" flag="0"/>
			<vel value="0.0384135008738826" flag="0"/>
			<psa03 value="0.0877394893939026" flag="0"/>
			<psa10 value="0.0820117153736509" flag="0"/>
			<psa30 value="0.0144639431652493" flag="0"/>
		</comp>
		<comp name="--.HNZ" depth="0.0">
			<acc value="0.0219344303262755" flag="0"/>
			<vel value="0.0309256514332628" flag="0"/>
			<psa03 value="0.055198010763982" flag="0"/>
			<psa10 value="0.0889551803441284" flag="0"/>
			<psa30 value="0.00651126050571956" flag="0"/>
		</comp>
	</station>
	<station code="AIA1" name="AIA1" netid="HI" source="ITSAK Strong Motion Network" insttype="" lat="40.1641" lon="21.8202" esm:processing="manual (Paolucci et al 2011)" esm:quality="good">
		<comp name="--.HNE" depth="0.0">
			<acc value="0.0191859617519161" flag="0"/>
			<vel value="0.0112244636501598" flag="0"/>
			<psa03 value="0.0612246079131328" flag="0"/>
			<psa10 value="0.0154669152322264" flag="0"/>
			<psa30 value="0.00317503283034276" flag="0"/>
		</comp>
		<comp name="--.HNN" depth="0.0">
			<acc value="0.0130394191276488" flag="0"/>
			<vel value="0.0123157637994151" flag="0"/>
			<psa03 value="0.0346056075558317" flag="0"/>
			<psa10 value="0.0231793180160604" flag="0"/>
			<psa30 value="0.00490607667016829" flag="0"/>
		</comp>
		<comp name="--.HNZ" depth="0.0">
			<acc value="0.00693255755057128" flag="0"/>
			<vel value="0.00530336751519646" flag="0"/>
			<psa03 value="0.0190225361913316" flag="0"/>
			<psa10 value="0.00855399228500806" flag="0"/>
			<psa30 value="0.00153370618384097" flag="0"/>
		</comp>
	</station>
	<station code="ARG2" name="ARG2" netid="HI" source="ITSAK Strong Motion Network" insttype="" lat="38.1783" lon="20.4878" esm:processing="automatic (Paolucci et al 2011)" esm:quality="best">
		<comp name="--.HNE" depth="0.0">
			<acc value="0.0330233653113544" flag="0"/>
			<vel value="0.0147414492314665" flag="0"/>
			<psa03 value="0.0740565777598257" flag="0"/>
			<psa10 value="0.0118806229704647" flag="0"/>
			<psa30 value="0.00304923928880466" flag="0"/>
		</comp>
		<comp name="--.HNN" depth="0.0">
			<acc value="0.0346738624064166" flag="0"/>
			<vel value="0.0222478380495431" flag="0"/>
			<psa03 value="0.0600250128208452" flag="0"/>
			<psa10 value="0.0248962736309435" flag="0"/>
			<psa30 value="0.00292322302417892" flag="0"/>
		</comp>
		<comp name="--.HNZ" depth="0.0">
			<acc value="0.0169787440941248" flag="0"/>
			<vel value="0.0135995117074431" flag="0"/>
			<psa03 value="0.0633932984532377" flag="0"/>
			<psa10 value="0.0136720735202717" flag="0"/>
			<psa30 value="0.00268738177585366" flag="0"/>
		</comp>
	</station>
	<station code="ART2" name="ART2" netid="HI" source="ITSAK Strong Motion Network" insttype="" lat="39.1474" lon="20.9937" esm:processing="automatic (Paolucci et al 2011)" esm:quality="best">
		<comp name="--.HNE" depth="0.0">
			<acc value="0.102124070106182" flag="0"/>
			<vel value="0.0325995419028851" flag="0"/>
			<psa03 value="0.126342275805716" flag="0"/>
			<psa10 value="0.0276705442877591" flag="0"/>
			<psa30 value="0.00595022375645501" flag="0"/>
		</comp>
		<comp name="--.HNN" depth="0.0">
			<acc value="0.0635327005180248" flag="0"/>
			<vel value="0.0267941850994529" flag="0"/>
			<psa03 value="0.11020508179581" flag="0"/>
			<psa10 value="0.0280663323817779" flag="0"/>
			<psa30 value="0.00526805898305333" flag="0"/>
		</comp>
		<comp name="--.HNZ" depth="0.0">
			<acc value="0.0489165501604646" flag="0"/>
			<vel value="0.024765970082255" flag="0"/>
			<psa03 value="0.0818039816123087" flag="0"/>
			<psa10 value="0.0351007952554199" flag="0"/>
			<psa30 value="0.00305338435506162" flag="0"/>
		</comp>
	</station>
	<station code="AST1" name="AST1" netid="HI" source="ITSAK Strong Motion Network" insttype="" lat="38.5416" lon="21.0895" esm:processing="automatic (Paolucci et al 2011)" esm:quality="best">
		<comp name="--.HNE" depth="0.0">
			<acc value="0.0195975685408057" flag="0"/>
			<vel value="0.0160070779608793" flag="0"/>
			<psa03 value="0.062457991702089" flag="0"/>
			<psa10 value="0.0302544335827438" flag="0"/>
			<psa30 value="0.0052786913540624" flag="0"/>
		</comp>
		<comp name="--.HNN" depth="0.0">
			<acc value="0.0190473032729506" flag="0"/>
			<vel value="0.0172682445238435" flag="0"/>
			<psa03 value="0.0413668210780452" flag="0"/>
			<psa10 value="0.0407980639215083" flag="0"/>
			<psa30 value="0.0030454607051587" flag="0"/>
		</comp>
		<comp name="--.HNZ" depth="0.0">
			<acc value="0.0156829417382467" flag="0"/>
			<vel value="0.0150756602582453" flag="0"/>
			<psa03 value="0.0295917441619886" flag="0"/>
			<psa10 value="0.026785275643056" flag="0"/>
			<psa30 value="0.00204153461664902" flag="0"/>
		</comp>
	</station>
	<station code="FRS1" name="FRS1" netid="HI" source="ITSAK Strong Motion Network" insttype="" lat="39.2934" lon="22.3844" esm:processing="automatic (Paolucci et al 2011)" esm:quality="best">
		<comp name="--.HNE" depth="0.0">
			<acc value="0.00649077369780511" flag="0"/>
			<vel value="0.00663209818779855" flag="0"/>
			<psa03 value="0.0203238945353518" flag="0"/>
			<psa10 value="0.0103951317514619" flag="0"/>
			<psa30 value="0.00200618581663117" flag="0"/>
		</comp>
		<comp name="--.HNN" depth="0.0">
			<acc value="0.00765092759116802" flag="0"/>
			<vel value="0.012765214017432" flag="0"/>
			<psa03 value="0.0207170911556148" flag="0"/>
			<psa10 value="0.0156888174321582" flag="0"/>
			<psa30 value="0.00365342160458457" flag="0"/>
		</comp>
		<comp name="--.HNZ" depth="0.0">
			<acc value="0.00639682409714761" flag="0"/>
			<vel value="0.00949544595150307" flag="0"/>
			<psa03 value="0.0138976667459657" flag="0"/>
			<psa10 value="0.0114476802276328" flag="0"/>
			<psa30 value="0.00286755016945885" flag="0"/>
		</comp>
	</station>
	<station code="GRE3" name="GRE3" netid="HI" source="ITSAK Strong Motion Network" insttype="" lat="40.08481" lon="21.43829" esm:processing="manual (Paolucci et al 2011)" esm:quality="good">
		<comp name="--.HNE" depth="0.0">
			<acc value="0.0402221727182222" flag="0"/>
			<vel value="0.0419331275975874" flag="0"/>
			<psa03 value="0.123104644661876" flag="0"/>
			<psa10 value="0.0512909440233186" flag="0"/>
			<psa30 value="0.00967601515518327" flag="0"/>
		</comp>
		<comp name="--.HNN" depth="0.0">
			<acc value="0.0366903646613928" flag="0"/>
			<vel value="0.028099892295472" flag="0"/>
			<psa03 value="0.119856012789291" flag="0"/>
			<psa10 value="0.0692955604907975" flag="0"/>
			<psa30 value="0.00649819214000447" flag="0"/>
		</comp>
		<comp name="--.HNZ" depth="0.0">
			<acc value="0.0281849005752267" flag="0"/>
			<vel value="0.0214951965548238" flag="0"/>
			<psa03 value="0.055525641842933" flag="0"/>
			<psa10 value="0.0446868502845197" flag="0"/>
			<psa30 value="0.00445099568995344" flag="0"/>
		</comp>
	</station>
	<station code="JAN2" name="JAN2" netid="HI" source="ITSAK Strong Motion Network" insttype="" lat="39.664" lon="20.85222" esm:processing="manual (Paolucci et al 2011)" esm:quality="good">
		<comp name="--.HNE" depth="0.0">
			<acc value="2.15570242093974" flag="0"/>
			<vel value="0.850776096435541" flag="0"/>
			<psa03 value="8.58895097584976" flag="0"/>
			<psa10 value="0.430467316347084" flag="0"/>
			<psa30 value="0.0364484311963538" flag="0"/>
		</comp>
		<comp name="--.HNN" depth="0.0">
			<acc value="2.10156613380767" flag="0"/>
			<vel value="0.618254390411023" flag="0"/>
			<psa03 value="7.28878751306789" flag="0"/>
			<psa10 value="0.426546566616656" flag="0"/>
			<psa30 value="0.0366428340745904" flag="0"/>
		</comp>
		<comp name="--.HNZ" depth="0.0">
			<acc value="1.52901648591045" flag="0"/>
			<vel value="0.348793022058512" flag="0"/>
			<psa03 value="1.96711764522322" flag="0"/>
			<psa10 value="0.182111899019551" flag="0"/>
			<psa30 value="0.0124653566020314" flag="0"/>
		</comp>
	</station>
	<station code="JAN3" name="JAN3" netid="HI" source="ITSAK Strong Motion Network" insttype="" lat="39.684" lon="20.8379" esm:processing="automatic (Paolucci et al 2011)" esm:quality="best">
		<comp name="--.HNE" depth="0.0">
			<acc value="3.80551573027642" flag="0"/>
			<vel value="1.25026808522328" flag="0"/>
			<psa03 value="9.5554723364798" flag="0"/>
			<psa10 value="0.364256470203473" flag="0"/>
			<psa30 value="0.0479572269309223" flag="0"/>
		</comp>
		<comp name="--.HNN" depth="0.0">
			<acc value="2.79090496873739" flag="0"/>
			<vel value="0.930329448425532" flag="0"/>
			<psa03 value="3.36281710346259" flag="0"/>
			<psa10 value="0.535188413605833" flag="0"/>
			<psa30 value="0.0529594683048636" flag="0"/>
		</comp>
		<comp name="--.HNZ" depth="0.0">
			<acc value="2.33697951370113" flag="0"/>
			<vel value="0.588050344104333" flag="0"/>
			<psa03 value="3.86944599847381" flag="0"/>
			<psa10 value="0.222088932301809" flag="0"/>
			<psa30 value="0.0221400900056383" flag="0"/>
		</comp>
	</station>
	<station code="KAR2" name="KAR2" netid="HI" source="ITSAK Strong Motion Network" insttype="" lat="39.365759" lon="21.91933" esm:processing="manual (Paolucci et al 2011)" esm:quality="good">
		<comp name="--.HNE" depth="0.0">
			<acc value="0.0291229215807567" flag="0"/>
			<vel value="0.0467782216763254" flag="0"/>
			<psa03 value="0.10944836500037" flag="0"/>
			<psa10 value="0.0724481468341707" flag="0"/>
			<psa30 value="0.0335537494378937" flag="0"/>
		</comp>
		<comp name="--.HNN" depth="0.0">
			<acc value="0.0390012202872723" flag="0"/>
			<vel value="0.0566624977268337" flag="0"/>
			<psa03 value="0.10601491880141" flag="0"/>
			<psa10 value="0.116915547581235" flag="0"/>
			<psa30 value="0.0307660380990322" flag="0"/>
		</comp>
		<comp name="--.HNZ" depth="0.0">
			<acc value="0.018729017921457" flag="0"/>
			<vel value="0.0247867158903396" flag="0"/>
			<psa03 value="0.0569452671361416" flag="0"/>
			<psa10 value="0.0382590932271604" flag="0"/>
			<psa30 value="0.00698392265060028" flag="0"/>
		</comp>
	</station>
	<station code="KNS1" name="KNS1" netid="HI" source="ITSAK Strong Motion Network" insttype="" lat="40.048" lon="20.7524" esm:processing="automatic (Paolucci et al 2011)" esm:quality="best">
		<comp name="--.HNE" depth="0.0">
			<acc value="0.214982545695092" flag="0"/>
			<vel value="0.124292365177106" flag="0"/>
			<psa03 value="0.542073284694753" flag="0"/>
			<psa10 value="0.106080929840984" flag="0"/>
			<psa30 value="0.0242343087373514" flag="0"/>
		</comp>
		<comp name="--.HNN" depth="0.0">
			<acc value="0.295106327547027" flag="0"/>
			<vel value="0.104574552039429" flag="0"/>
			<psa03 value="0.590426612865439" flag="0"/>
			<psa10 value="0.0965954489744286" flag="0"/>
			<psa30 value="0.00968799594885206" flag="0"/>
		</comp>
		<comp name="--.HNZ" depth="0.0">
			<acc value="0.149241641891834" flag="0"/>
			<vel value="0.0678400584578082" flag="0"/>
			<psa03 value="0.355326205283916" flag="0"/>
			<psa10 value="0.0518261157258174" flag="0"/>
			<psa30 value="0.00713712113258119" flag="0"/>
		</comp>
	</station>
	<station code="KRI1" name="KRI1" netid="HI" source="ITSAK Strong Motion Network" insttype="" lat="37.6621" lon="20.8172" esm:processing="automatic (Paolucci et al 2011)" esm:quality="best">
		<comp name="--.HNE" depth="0.0">
			<acc value="0.00602037459250145" flag="0"/>
			<vel value="0.00648974125304607" flag="0"/>
			<psa03 value="0.016010916113365" flag="0"/>
			<psa10 value="0.0108964302725286" flag="0"/>
			<psa30 value="0.00327295827575625" flag="0"/>
		</comp>
		<comp name="--.HNN" depth="0.0">
			<acc value="0.00722077691846399" flag="0"/>
			<vel value="0.00773648364752689" flag="0"/>
			<psa03 value="0.0177650492431593" flag="0"/>
			<psa10 value="0.0129022337721665" flag="0"/>
			<psa30 value="0.00190277250767364" flag="0"/>
		</comp>
		<comp name="--.HNZ" depth="0.0">
			<acc value="0.00363979521804184" flag="0"/>
			<vel value="0.00369994184459166" flag="0"/>
			<psa03 value="0.00916680907902979" flag="0"/>
			<psa10 value="0.00735487425557358" flag="0"/>
			<psa30 value="0.00136610195588343" flag="0"/>
		</comp>
	</station>
	<station code="KRK1" name="KRK1" netid="HI" source="ITSAK Strong Motion Network" insttype="" lat="39.618861" lon="19.9202" esm:processing="automatic (Paolucci et al 2011)" esm:quality="best">
		<comp name="--.HNE" depth="0.0">
			<acc value="0.228516402694704" flag="0"/>
			<vel value="0.096635054203278" flag="0"/>
			<psa03 value="0.442195709962268" flag="0"/>
			<psa10 value="0.125698741924755" flag="0"/>
			<psa30 value="0.0115539145568024" flag="0"/>
		</comp>
		<comp name="--.HNN" depth="0.0">
			<acc value="0.193682068830806" flag="0"/>
			<vel value="0.0830469594794814" flag="0"/>
			<psa03 value="0.383415857752202" flag="0"/>
			<psa10 value="0.142136110819774" flag="0"/>
			<psa30 value="0.013213108636934" flag="0"/>
		</comp>
		<comp name="--.HNZ" depth="0.0">
			<acc value="0.127379244123105" flag="0"/>
			<vel value="0.0374906436265777" flag="0"/>
			<psa03 value="0.316102440235315" flag="0"/>
			<psa10 value="0.0382585306898951" flag="0"/>
			<psa30 value="0.00903179831231242" flag="0"/>
		</comp>
	</station>
	<station code="LAM2" name="LAM2" netid="HI" source="ITSAK Strong Motion Network" insttype="" lat="38.90203" lon="22.431301" esm:processing="manual (Paolucci et al 2011)" esm:quality="good">
		<comp name="--.HNE" depth="0.0">
			<acc value="0.0130515453266009" flag="0"/>
			<vel value="0.0130206131093452" flag="0"/>
			<psa03 value="0.0310103980366788" flag="0"/>
			<psa10 value="0.015868229317315" flag="0"/>
			<psa30 value="0.00589027436843561" flag="0"/>
		</comp>
		<comp name="--.HNN" depth="0.0">
			<acc value="0.0171206544320842" flag="0"/>
			<vel value="0.017748069978551" flag="0"/>
			<psa03 value="0.0278699738531557" flag="0"/>
			<psa10 value="0.0165124807458104" flag="0"/>
			<psa30 value="0.0114486334157768" flag="0"/>
		</comp>
		<comp name="--.HNZ" depth="0.0">
			<acc value="0.00606981620827029" flag="0"/>
			<vel value="0.00666704258608919" flag="0"/>
			<psa03 value="0.0159151727916732" flag="0"/>
			<psa10 value="0.0101457449183081" flag="0"/>
			<psa30 value="0.00279058257073317" flag="0"/>
		</comp>
	</station>
	<station code="LAR4" name="LAR4" netid="HI" source="ITSAK Strong Motion Network" insttype="" lat="39.6422" lon="22.4219" esm:processing="manual (Paolucci et al 2011)" esm:quality="good">
		<comp name="--.HNE" depth="0.0">
			<acc value="0.0305442188269394" flag="0"/>
			<vel value="0.0498582559226433" flag="0"/>
			<psa03 value="0.0653738254867671" flag="0"/>
			<psa10 value="0.0969561928719414" flag="0"/>
			<psa30 value="0.0216099582203426" flag="0"/>
		</comp>
		<comp name="--.HNN" depth="0.0">
			<acc value="0.0511362690548871" flag="0"/>
			<vel value="0.0633705004335648" flag="0"/>
			<psa03 value="0.0797750919999958" flag="0"/>
			<psa10 value="0.097722893662106" flag="0"/>
			<psa30 value="0.0144684917999074" flag="0"/>
		</comp>
		<comp name="--.HNZ" depth="0.0">
			<acc value="0.0152183121322255" flag="0"/>
			<vel value="0.016751409804206" flag="0"/>
			<psa03 value="0.0348011960334418" flag="0"/>
			<psa10 value="0.0259079762762785" flag="0"/>
			<psa30 value="0.00566424897869614" flag="0"/>
		</comp>
	</station>
	<station code="LEF2" name="LEF2" netid="HI" source="ITSAK Strong Motion Network" insttype="" lat="38.830093" lon="20.708346" esm:processing="manual (Paolucci et al 2011)" esm:quality="good">
		<comp name="--.HNE" depth="0.0">
			<acc value="0.07370647765888" flag="0"/>
			<vel value="0.0934750828912031" flag="0"/>
			<psa03 value="0.176836589556189" flag="0"/>
			<psa10 value="0.205176736951868" flag="0"/>
			<psa30 value="0.024324524713717" flag="0"/>
		</comp>
		<comp name="--.HNN" depth="0.0">
			<acc value="0.0726354289821828" flag="0"/>
			<vel value="0.0629382267446798" flag="0"/>
			<psa03 value="0.240437094444169" flag="0"/>
			<psa10 value="0.188124327313418" flag="0"/>
			<psa30 value="0.0107875987921439" flag="0"/>
		</comp>
		<comp name="--.HNZ" depth="0.0">
			<acc value="0.0526990800951476" flag="0"/>
			<vel value="0.0466838957796985" flag="0"/>
			<psa03 value="0.108121058322817" flag="0"/>
			<psa10 value="0.116194022283726" flag="0"/>
			<psa30 value="0.00650259659844489" flag="0"/>
		</comp>
	</station>
	<station code="LMS2" name="LMS2" netid="HI" source="ITSAK Strong Motion Network" insttype="" lat="40.834985" lon="21.141815" esm:processing="manual (Paolucci et al 2011)" esm:quality="good">
		<comp name="--.HNE" depth="0.0">
			<acc value="0.0211586179675884" flag="0"/>
			<vel value="0.0158397144074627" flag="0"/>
			<psa03 value="0.0495039929382458" flag="0"/>
			<psa10 value="0.0213230837996535" flag="0"/>
			<psa30 value="0.00300046772459455" flag="0"/>
		</comp>
		<comp name="--.HNN" depth="0.0">
			<acc value="0.0259486235928066" flag="0"/>
			<vel value="0.0195404857830884" flag="0"/>
			<psa03 value="0.0595193230713811" flag="0"/>
			<psa10 value="0.0215227414009897" flag="0"/>
			<psa30 value="0.00181463521067694" flag="0"/>
		</comp>
		<comp name="--.HNZ" depth="0.0">
			<acc value="0.00822476082988329" flag="0"/>
			<vel value="0.00727330000359976" flag="0"/>
			<psa03 value="0.0183725973027366" flag="0"/>
			<psa10 value="0.0177613772290731" flag="0"/>
			<psa30 value="0.00194546596090539" flag="0"/>
		</comp>
	</station>
	<station code="MSL1" name="MSL1" netid="HI" source="ITSAK Strong Motion Network" insttype="" lat="38.3727" lon="21.4243" esm:processing="manual (Paolucci et al 2011)" esm:quality="good">
		<comp name="--.HNE" depth="0.0">
			<acc value="0.0369736904301832" flag="0"/>
			<vel value="0.0445395536040705" flag="0"/>
			<psa03 value="0.0860850047924175" flag="0"/>
			<psa10 value="0.108230857263124" flag="0"/>
			<psa30 value="0.0119480623338249" flag="0"/>
		</comp>
		<comp name="--.HNN" depth="0.0">
			<acc value="0.0480121716654144" flag="0"/>
			<vel value="0.0647022017487708" flag="0"/>
			<psa03 value="0.108572650738598" flag="0"/>
			<psa10 value="0.141417653225484" flag="0"/>
			<psa30 value="0.00661395147515897" flag="0"/>
		</comp>
		<comp name="--.HNZ" depth="0.0">
			<acc value="0.0212215212159814" flag="0"/>
			<vel value="0.0251844812488202" flag="0"/>
			<psa03 value="0.0430531671651974" flag="0"/>
			<psa10 value="0.0643441524843173" flag="0"/>
			<psa30 value="0.0037797983097544" flag="0"/>
		</comp>
	</station>
