<stationlist created="1774005947">
	<station code="SRN" name="SRN" netid="AC" source="Albanian Seismological Network (AC)" insttype="" lat="39.880001" lon="20.0005">
		<comp name="01.HNE" depth="0.0">
			<acc value="0.162086727745265" flag="0"/>
			<vel value="0.151907218004637" flag="0"/>
			<psa03 value="0.299767545628715" flag="0"/>
			<psa10 value="0.178794294244517" flag="0"/>
			<psa30 value="0.0580275907097665" flag="0"/>
		</comp>
		<comp name="01.HNN" depth="0.0">
			<acc value="0.141211817227681" flag="0"/>
			<vel value="0.161908174192224" flag="0"/>
			<psa03 value="0.267859411038062" flag="0"/>
			<psa10 value="0.138539667573059" flag="0"/>
			<psa30 value="0.0768730991322105" flag="0"/>
		</comp>
		<comp name="01.HNZ" depth="0.0">
			<acc value="0.149780493059982" flag="0"/>
			<vel value="0.11364368846998" flag="0"/>
			<psa03 value="0.295230140881252" flag="0"/>
			<psa10 value="0.175712670102041" flag="0"/>
			<psa30 value="0.0310978267450683" flag="0"/>
		</comp>
	</station>
	<station code="AGRP" name="AGRP" netid="CL" source="Corinth Riff Laboratory (CRLNET)" insttype="" lat="38.3959" lon="21.72277">
		<comp name="00.HNE" depth="0.0">
			<acc value="0.00957557250480842" flag="0"/>
			<vel value="0.00852392816001622" flag="0"/>
			<psa03 value="0.0244425566994235" flag="0"/>
			<psa10 value="0.0187742893295286" flag="0"/>
			<psa30 value="0.00297684053440916" flag="0"/>
		</comp>
		<comp name="00.HNN" depth="0.0">
			<acc value="0.00721836489745643" flag="0"/>
			<vel value="0.0101920128009617" flag="0"/>
			<psa03 value="0.0127261360128042" flag="0"/>
			<psa10 value="0.017742993511242" flag="0"/>
			<psa30 value="0.00263050571642719" flag="0"/>
		</comp>
		<comp name="00.HNZ" depth="0.0">
			<acc value="0.00506074348567472" flag="0"/>
			<vel value="0.00830491418770912" flag="0"/>
			<psa03 value="0.00935553251853144" flag="0"/>
			<psa10 value="0.0142445367556515" flag="0"/>
			<psa30 value="0.00411637560634846" flag="0"/>
		</comp>
	</station>
	<station code="MALA" name="MALA" netid="CL" source="Corinth Riff Laboratory (CRLNET)" insttype="" lat="38.39341" lon="21.87263">
		<comp name="01.HNE" depth="0.0">
			<acc value="0.0231710502064118" flag="0"/>
			<vel value="0.0363501866486077" flag="0"/>
			<psa03 value="0.0399287752937363" flag="0"/>
			<psa10 value="0.0806778420110869" flag="0"/>
			<psa30 value="0.0119246666173068" flag="0"/>
		</comp>
		<comp name="01.HNN" depth="0.0">
			<acc value="0.0204698776025568" flag="0"/>
			<vel value="0.0294520456347855" flag="0"/>
			<psa03 value="0.0338856848644866" flag="0"/>
			<psa10 value="0.0637659466810206" flag="0"/>
			<psa30 value="0.00685486326771623" flag="0"/>
		</comp>
		<comp name="01.HNZ" depth="0.0">
			<acc value="0.00882570126057507" flag="0"/>
			<vel value="0.0114867751725074" flag="0"/>
			<psa03 value="0.0128429067691271" flag="0"/>
			<psa10 value="0.0294629867782772" flag="0"/>
			<psa30 value="0.00309818586460842" flag="0"/>
		</comp>
	</station>
	<station code="ROD3" name="ROD3" netid="CL" source="Corinth Riff Laboratory (CRLNET)" insttype="" lat="38.30811" lon="21.89204">
		<comp name="00.HNE" depth="0.0">
			<acc value="0.0181892405795077" flag="0"/>
			<vel value="0.013800030040517" flag="0"/>
			<psa03 value="0.0662521753398008" flag="0"/>
			<psa10 value="0.01964986545715" flag="0"/>
			<psa30 value="0.00676942885810588" flag="0"/>
		</comp>
		<comp name="00.HNN" depth="0.0">
			<acc value="0.0146595564486061" flag="0"/>
			<vel value="0.00936899416840277" flag="0"/>
			<psa03 value="0.0478491333119172" flag="0"/>
			<psa10 value="0.0211966704253878" flag="0"/>
			<psa30 value="0.00268886437406852" flag="0"/>
		</comp>
		<comp name="00.HNZ" depth="0.0">
			<acc value="0.00795174181193186" flag="0"/>
			<vel value="0.0053308459101622" flag="0"/>
			<psa03 value="0.0121374225342588" flag="0"/>
			<psa10 value="0.00916583312896121" flag="0"/>
			<psa30 value="0.00163111888695448" flag="0"/>
		</comp>
	</station>
	<station code="AGR3" name="AGR3" netid="HI" source="ITSAK Strong Motion Network" insttype="" lat="38.5893" lon="21.4162">
		<comp name="--.HNE" depth="0.0">
			<acc value="0.0362895126736875" flag="0"/>
			<vel value="0.0423117513202147" flag="0"/>
			<psa03 value="0.0861786307863468" flag="0"/>
			<psa10 value="0.088871114775197" flag="0"/>
			<psa30 value="0.0299761524396505" flag="0"/>
		</comp>
		<comp name="--.HNN" depth="0.0">
			<acc value="0.0329035973011139" flag="0"/>
			<vel value="0.0384135008738826" flag="0"/>
			<psa03 value="0.0877394893939026" flag="0"/>
			<psa10 value="0.0820117153736509" flag="0"/>
			<psa30 value="0.0144639431652493" flag="0"/>
		</comp>
		<comp name="--.HNZ" depth="0.0">
			<acc value="0.0219344303262755" flag="0"/>
			<vel value="0.0309256514332628" flag="0"/>
			<psa03 value="0.055198010763982" flag="0"/>
			<psa10 value="0.0889551803441284" flag="0"/>
			<psa30 value="0.00651126050571956" flag="0"/>
		</comp>
	</station>
	<station code="AIA1" name="AIA1" netid="HI" source="ITSAK Strong Motion Network" insttype="" lat="40.1641" lon="21.8202">
		<comp name="--.HNE" depth="0.0">
			<acc value="0.0192036310498831" flag="0"/>
			<vel value="0.0118650468874367" flag="0"/>
			<psa03 value="0.0612210139250487" flag="0"/>
			<psa10 value="0.0154699473080866" flag="0"/>
			<psa30 value="0.00319679635540281" flag="0"/>
		</comp>
		<comp name="--.HNN" depth="0.0">
			<acc value="0.0130278929653172" flag="0"/>
			<vel value="0.0124841348162324" flag="0"/>
			<psa03 value="0.0345914868287362" flag="0"/>
			<psa10 value="0.0231802930806536" flag="0"/>
			<psa30 value="0.00496445512078747" flag="0"/>
		</comp>
		<comp name="--.HNZ" depth="0.0">
			<acc value="0.00692377658557119" flag="0"/>
			<vel value="0.00559703404390678" flag="0"/>
			<psa03 value="0.0190063723601404" flag="0"/>
			<psa10 value="0.00854212649895797" flag="0"/>
			<psa30 value="0.00156212369136138" flag="0"/>
		</comp>
	</station>
	<station code="AIG2" name="AIG2" netid="HI" source="ITSAK Strong Motion Network" insttype="" lat="38.2417" lon="22.0726">
		<comp name="--.HNE" depth="0.0">
			<acc value="0.0168733667218973" flag="0"/>
			<vel value="0.00781349271577994" flag="0"/>
			<psa03 value="0.0120188274383324" flag="0"/>
			<psa10 value="0.0111362839741592" flag="0"/>
			<psa30 value="0.00332293554483839" flag="0"/>
		</comp>
		<comp name="--.HNN" depth="0.0">
			<acc value="0.00685160135616919" flag="0"/>
			<vel value="0.00870635338007493" flag="0"/>
			<psa03 value="0.00976968625626734" flag="0"/>
			<psa10 value="0.0109181038957998" flag="0"/>
			<psa30 value="0.00550301121415222" flag="0"/>
		</comp>
		<comp name="--.HNZ" depth="0.0">
			<acc value="0.0162527059830211" flag="0"/>
			<vel value="0.00608881222268592" flag="0"/>
			<psa03 value="0.00650476163770145" flag="0"/>
			<psa10 value="0.0133350274426231" flag="0"/>
			<psa30 value="0.00368617419094934" flag="0"/>
		</comp>
	</station>
	<station code="AKR1" name="AKR1" netid="HI" source="ITSAK Strong Motion Network" insttype="" lat="38.153583" lon="22.31326">
		<comp name="--.HNE" depth="0.0">
			<acc value="0.00491270190623571" flag="0"/>
			<vel value="0.00711739396472288" flag="0"/>
			<psa03 value="0.0158224895685312" flag="0"/>
			<psa10 value="0.0111468137342042" flag="0"/>
			<psa30 value="0.00235418991186123" flag="0"/>
		</comp>
		<comp name="--.HNN" depth="0.0">
			<acc value="0.00426320375453114" flag="0"/>
			<vel value="0.00457675248153526" flag="0"/>
			<psa03 value="0.0141561903823045" flag="0"/>
			<psa10 value="0.00826340428497919" flag="0"/>
			<psa30 value="0.00197113849491811" flag="0"/>
		</comp>
		<comp name="--.HNZ" depth="0.0">
			<acc value="0.00335615495161196" flag="0"/>
			<vel value="0.00401564288509541" flag="0"/>
			<psa03 value="0.00668705040614606" flag="0"/>
			<psa10 value="0.0100135917888118" flag="0"/>
			<psa30 value="0.000908518726573523" flag="0"/>
		</comp>
	</station>
	<station code="ARG2" name="ARG2" netid="HI" source="ITSAK Strong Motion Network" insttype="" lat="38.1783" lon="20.4878">
		<comp name="--.HNE" depth="0.0">
			<acc value="0.0330233653113544" flag="0"/>
			<vel value="0.0147414492314665" flag="0"/>
			<psa03 value="0.0740565777598257" flag="0"/>
			<psa10 value="0.0118806229704647" flag="0"/>
			<psa30 value="0.00304923928880466" flag="0"/>
		</comp>
		<comp name="--.HNN" depth="0.0">
			<acc value="0.0346738624064166" flag="0"/>
			<vel value="0.0222478380495431" flag="0"/>
			<psa03 value="0.0600250128208452" flag="0"/>
			<psa10 value="0.0248962736309435" flag="0"/>
			<psa30 value="0.00292322302417892" flag="0"/>
		</comp>
		<comp name="--.HNZ" depth="0.0">
			<acc value="0.0169787440941248" flag="0"/>
			<vel value="0.0135995117074431" flag="0"/>
			<psa03 value="0.0633932984532377" flag="0"/>
			<psa10 value="0.0136720735202717" flag="0"/>
			<psa30 value="0.00268738177585366" flag="0"/>
		</comp>
	</station>
	<station code="ART2" name="ART2" netid="HI" source="ITSAK Strong Motion Network" insttype="" lat="39.1474" lon="20.9937">
		<comp name="--.HNE" depth="0.0">
			<acc value="0.102124070106182" flag="0"/>
			<vel value="0.0325995419028851" flag="0"/>
			<psa03 value="0.126342275805716" flag="0"/>
			<psa10 value="0.0276705442877591" flag="0"/>
			<psa30 value="0.00595022375645501" flag="0"/>
		</comp>
		<comp name="--.HNN" depth="0.0">
			<acc value="0.0635327005180248" flag="0"/>
			<vel value="0.0267941850994529" flag="0"/>
			<psa03 value="0.11020508179581" flag="0"/>
			<psa10 value="0.0280663323817779" flag="0"/>
			<psa30 value="0.00526805898305333" flag="0"/>
		</comp>
		<comp name="--.HNZ" depth="0.0">
			<acc value="0.0489165501604646" flag="0"/>
			<vel value="0.024765970082255" flag="0"/>
			<psa03 value="0.0818039816123087" flag="0"/>
			<psa10 value="0.0351007952554199" flag="0"/>
			<psa30 value="0.00305338435506162" flag="0"/>
		</comp>
	</station>
	<station code="AST1" name="AST1" netid="HI" source="ITSAK Strong Motion Network" insttype="" lat="38.5416" lon="21.0895">
		<comp name="--.HNE" depth="0.0">
			<acc value="0.0195975685408057" flag="0"/>
			<vel value="0.0160070779608793" flag="0"/>
			<psa03 value="0.062457991702089" flag="0"/>
			<psa10 value="0.0302544335827438" flag="0"/>
			<psa30 value="0.0052786913540624" flag="0"/>
		</comp>
		<comp name="--.HNN" depth="0.0">
			<acc value="0.0190473032729506" flag="0"/>
			<vel value="0.0172682445238435" flag="0"/>
			<psa03 value="0.0413668210780452" flag="0"/>
			<psa10 value="0.0407980639215083" flag="0"/>
			<psa30 value="0.0030454607051587" flag="0"/>
		</comp>
		<comp name="--.HNZ" depth="0.0">
			<acc value="0.0156829417382467" flag="0"/>
			<vel value="0.0150756602582453" flag="0"/>
			<psa03 value="0.0295917441619886" flag="0"/>
			<psa10 value="0.026785275643056" flag="0"/>
			<psa30 value="0.00204153461664902" flag="0"/>
		</comp>
	</station>
	<station code="FRS1" name="FRS1" netid="HI" source="ITSAK Strong Motion Network" insttype="" lat="39.2934" lon="22.3844">
		<comp name="--.HNE" depth="0.0">
			<acc value="0.00649077369780511" flag="0"/>
			<vel value="0.00663209818779855" flag="0"/>
			<psa03 value="0.0203238945353518" flag="0"/>
			<psa10 value="0.0103951317514619" flag="0"/>
			<psa30 value="0.00200618581663117" flag="0"/>
		</comp>
		<comp name="--.HNN" depth="0.0">
			<acc value="0.00765092759116802" flag="0"/>
			<vel value="0.012765214017432" flag="0"/>
			<psa03 value="0.0207170911556148" flag="0"/>
			<psa10 value="0.0156888174321582" flag="0"/>
			<psa30 value="0.00365342160458457" flag="0"/>
		</comp>
		<comp name="--.HNZ" depth="0.0">
			<acc value="0.00639682409714761" flag="0"/>
			<vel value="0.00949544595150307" flag="0"/>
			<psa03 value="0.0138976667459657" flag="0"/>
			<psa10 value="0.0114476802276328" flag="0"/>
			<psa30 value="0.00286755016945885" flag="0"/>
		</comp>
	</station>
	<station code="GRE3" name="GRE3" netid="HI" source="ITSAK Strong Motion Network" insttype="" lat="40.08481" lon="21.43829">
		<comp name="--.HNE" depth="0.0">
			<acc value="0.0401390188629998" flag="0"/>
			<vel value="0.0412198840029476" flag="0"/>
			<psa03 value="0.123010909285701" flag="0"/>
			<psa10 value="0.0512628621630332" flag="0"/>
			<psa30 value="0.00976637864132075" flag="0"/>
		</comp>
		<comp name="--.HNN" depth="0.0">
			<acc value="0.0367336895276232" flag="0"/>
			<vel value="0.0285819437838911" flag="0"/>
			<psa03 value="0.119786779036228" flag="0"/>
			<psa10 value="0.0693370682404822" flag="0"/>
			<psa30 value="0.00656470696295171" flag="0"/>
		</comp>
		<comp name="--.HNZ" depth="0.0">
			<acc value="0.036462984093946" flag="0"/>
			<vel value="0.02123220490521" flag="0"/>
			<psa03 value="0.0555572585207161" flag="0"/>
			<psa10 value="0.0446992448555992" flag="0"/>
			<psa30 value="0.00445418590128928" flag="0"/>
		</comp>
	</station>
	<station code="JAN2" name="JAN2" netid="HI" source="ITSAK Strong Motion Network" insttype="" lat="39.664" lon="20.85222">
		<comp name="--.HNE" depth="0.0">
			<acc value="2.15524200214772" flag="0"/>
			<vel value="0.857959683250554" flag="0"/>
			<psa03 value="8.58890563951312" flag="0"/>
			<psa10 value="0.430650988514464" flag="0"/>
			<psa30 value="0.0430156495756745" flag="0"/>
		</comp>
		<comp name="--.HNN" depth="0.0">
			<acc value="2.09961525903649" flag="0"/>
			<vel value="0.625036061614474" flag="0"/>
			<psa03 value="7.28801612863413" flag="0"/>
			<psa10 value="0.427197069709294" flag="0"/>
			<psa30 value="0.0387195049771792" flag="0"/>
		</comp>
		<comp name="--.HNZ" depth="0.0">
			<acc value="1.52767282336531" flag="0"/>
			<vel value="0.353678251156361" flag="0"/>
			<psa03 value="1.96704747390804" flag="0"/>
			<psa10 value="0.183362261849952" flag="0"/>
			<psa30 value="0.0162952444799739" flag="0"/>
		</comp>
	</station>
	<station code="JAN3" name="JAN3" netid="HI" source="ITSAK Strong Motion Network" insttype="" lat="39.684" lon="20.8379">
		<comp name="--.HNE" depth="0.0">
			<acc value="3.80551573027642" flag="0"/>
			<vel value="1.25026808522328" flag="0"/>
			<psa03 value="9.5554723364798" flag="0"/>
			<psa10 value="0.364256470203473" flag="0"/>
			<psa30 value="0.0479572269309223" flag="0"/>
		</comp>
		<comp name="--.HNN" depth="0.0">
			<acc value="2.79090496873739" flag="0"/>
			<vel value="0.930329448425532" flag="0"/>
			<psa03 value="3.36281710346259" flag="0"/>
			<psa10 value="0.535188413605833" flag="0"/>
			<psa30 value="0.0529594683048636" flag="0"/>
		</comp>
		<comp name="--.HNZ" depth="0.0">
			<acc value="2.33697951370113" flag="0"/>
			<vel value="0.588050344104333" flag="0"/>
			<psa03 value="3.86944599847381" flag="0"/>
			<psa10 value="0.222088932301809" flag="0"/>
			<psa30 value="0.0221400900056383" flag="0"/>
		</comp>
	</station>
	<station code="KAR2" name="KAR2" netid="HI" source="ITSAK Strong Motion Network" insttype="" lat="39.365759" lon="21.91933">
		<comp name="--.HNE" depth="0.0">
			<acc value="0.0291229215807567" flag="0"/>
			<vel value="0.0467782216763254" flag="0"/>
			<psa03 value="0.10944836500037" flag="0"/>
			<psa10 value="0.0724481468341707" flag="0"/>
			<psa30 value="0.0335537494378937" flag="0"/>
		</comp>
		<comp name="--.HNN" depth="0.0">
			<acc value="0.0390012202872723" flag="0"/>
			<vel value="0.0566624977268337" flag="0"/>
			<psa03 value="0.10601491880141" flag="0"/>
			<psa10 value="0.116915547581235" flag="0"/>
			<psa30 value="0.0307660380990322" flag="0"/>
		</comp>
		<comp name="--.HNZ" depth="0.0">
			<acc value="0.018729017921457" flag="0"/>
			<vel value="0.0247867158903396" flag="0"/>
			<psa03 value="0.0569452671361416" flag="0"/>
			<psa10 value="0.0382590932271604" flag="0"/>
			<psa30 value="0.00698392265060028" flag="0"/>
		</comp>
	</station>
	<station code="KAS2" name="KAS2" netid="HI" source="ITSAK Strong Motion Network" insttype="" lat="40.504878" lon="21.280507">
		<comp name="--.HNE" depth="0.0">
			<acc value="0.0112533785815875" flag="0"/>
			<vel value="0.0165928001323258" flag="0"/>
			<psa03 value="0.0245249892435083" flag="0"/>
			<psa10 value="0.0276527568594292" flag="0"/>
			<psa30 value="0.00363215769595498" flag="0"/>
		</comp>
		<comp name="--.HNN" depth="0.0">
			<acc value="0.00942821486003435" flag="0"/>
			<vel value="0.0140187010024408" flag="0"/>
			<psa03 value="0.0262830119538849" flag="0"/>
			<psa10 value="0.0226711931052788" flag="0"/>
			<psa30 value="0.0031834617220488" flag="0"/>
		</comp>
		<comp name="--.HNZ" depth="0.0">
			<acc value="0.0101574657833283" flag="0"/>
			<vel value="0.00918657038087146" flag="0"/>
			<psa03 value="0.0153544494485869" flag="0"/>
			<psa10 value="0.0133945382599227" flag="0"/>
			<psa30 value="0.00280695511366712" flag="0"/>
		</comp>
	</station>
	<station code="KLV1" name="KLV1" netid="HI" source="ITSAK Strong Motion Network" insttype="" lat="38.03256" lon="22.10797">
		<comp name="--.HNE" depth="0.0">
			<acc value="0.00818637831271404" flag="0"/>
			<vel value="0.00748388839015019" flag="0"/>
			<psa03 value="0.0181954944247068" flag="0"/>
			<psa10 value="0.0172844262584121" flag="0"/>
			<psa30 value="0.00171917815794901" flag="0"/>
		</comp>
		<comp name="--.HNN" depth="0.0">
			<acc value="0.00606587047674235" flag="0"/>
			<vel value="0.00702346896649458" flag="0"/>
			<psa03 value="0.0147005402448947" flag="0"/>
			<psa10 value="0.00860202921721907" flag="0"/>
			<psa30 value="0.00228847805877346" flag="0"/>
		</comp>
		<comp name="--.HNZ" depth="0.0">
			<acc value="0.00590383610051008" flag="0"/>
			<vel value="0.004457771559645" flag="0"/>
			<psa03 value="0.00730858897585929" flag="0"/>
			<psa10 value="0.0106061122903871" flag="0"/>
			<psa30 value="0.00233904995057976" flag="0"/>
		</comp>
	</station>
	<station code="KMV1" name="KMV1" netid="HI" source="ITSAK Strong Motion Network" insttype="" lat="38.7794" lon="22.7846">
		<comp name="--.HNE" depth="0.0">
			<acc value="0.00825976948599989" flag="0"/>
			<vel value="0.0122935326637158" flag="0"/>
			<psa03 value="0.0194674315488822" flag="0"/>
			<psa10 value="0.0249631780630337" flag="0"/>
			<psa30 value="0.00364155498514594" flag="0"/>
		</comp>
		<comp name="--.HNN" depth="0.0">
			<acc value="0.00992107339063341" flag="0"/>
			<vel value="0.0110492581275425" flag="0"/>
			<psa03 value="0.0270758743729624" flag="0"/>
			<psa10 value="0.0217219489725136" flag="0"/>
			<psa30 value="0.00743489835886102" flag="0"/>
		</comp>
		<comp name="--.HNZ" depth="0.0">
			<acc value="0.0182984481627283" flag="0"/>
			<vel value="0.00535380771367767" flag="0"/>
			<psa03 value="0.0111566062579108" flag="0"/>
			<psa10 value="0.0106714069283365" flag="0"/>
			<psa30 value="0.00290174847659553" flag="0"/>
		</comp>
	</station>
	<station code="KNS1" name="KNS1" netid="HI" source="ITSAK Strong Motion Network" insttype="" lat="40.048" lon="20.7524">
		<comp name="--.HNE" depth="0.0">
			<acc value="0.214982545695092" flag="0"/>
			<vel value="0.124292365177106" flag="0"/>
			<psa03 value="0.542073284694753" flag="0"/>
			<psa10 value="0.106080929840984" flag="0"/>
			<psa30 value="0.0242343087373514" flag="0"/>
		</comp>
		<comp name="--.HNN" depth="0.0">
			<acc value="0.295106327547027" flag="0"/>
			<vel value="0.104574552039429" flag="0"/>
			<psa03 value="0.590426612865439" flag="0"/>
			<psa10 value="0.0965954489744286" flag="0"/>
			<psa30 value="0.00968799594885206" flag="0"/>
		</comp>
		<comp name="--.HNZ" depth="0.0">
			<acc value="0.149241641891834" flag="0"/>
			<vel value="0.0678400584578082" flag="0"/>
			<psa03 value="0.355326205283916" flag="0"/>
			<psa10 value="0.0518261157258174" flag="0"/>
			<psa30 value="0.00713712113258119" flag="0"/>
		</comp>
	</station>
	<station code="KOZ2" name="KOZ2" netid="HI" source="ITSAK Strong Motion Network" insttype="" lat="40.295728" lon="21.788123">
		<comp name="--.HNE" depth="0.0">
			<acc value="0.020801791708212" flag="0"/>
			<vel value="0.0150584384287506" flag="0"/>
			<psa03 value="0.0610197193402704" flag="0"/>
			<psa10 value="0.0211579472351665" flag="0"/>
