<?xml version="1.0" encoding="UTF-8" standalone="yes"?>
<!DOCTYPE earthquake SYSTEM "stationlist.dtd">
<stationlist created="" xmlns="ch.ethz.sed.shakemap.usgs.xml">
  <station code="THERA" name="THERA" netid="GE" insttype="STS-2/N" commtype="DIG" lat="36.367" lon="25.4753">
    <comp name="--.HHZ">
      <acc value="0.0047550139" flag="0"/>
      <vel value="0.0020295622" flag="0"/>
      <psa03 value="0.0147095778" flag="0"/>
      <psa10 value="0.0005002628" flag="0"/>
      <psa30 value="0.0000799705" flag="0"/>
    </comp>
    <comp name="--.HHN">
      <acc value="0.0018092180" flag="0"/>
      <vel value="0.0008631052" flag="0"/>
      <psa03 value="0.0038210158" flag="0"/>
      <psa10 value="0.0008143595" flag="0"/>
      <psa30 value="0.0000775206" flag="0"/>
    </comp>
    <comp name="--.HHE">
      <acc value="0.0033402009" flag="0"/>
      <vel value="0.0011089563" flag="0"/>
      <psa03 value="0.0046648234" flag="0"/>
      <psa10 value="0.0010611377" flag="0"/>
      <psa30 value="0.0000896252" flag="0"/>
    </comp>
  </station>
  <station code="SNT5" name="SNT5" netid="HA" insttype="1s-100Hz," commtype="DIG" lat="36.4037" lon="25.3953">
    <comp name="--.HHE">
      <acc value="0.0042723774" flag="0"/>
      <vel value="0.0012428051" flag="0"/>
      <psa03 value="0.0068450676" flag="0"/>
      <psa10 value="0.0012334703" flag="0"/>
      <psa30 value="0.0001939054" flag="0"/>
    </comp>
    <comp name="--.HHZ">
      <acc value="0.0018464184" flag="0"/>
      <vel value="0.0003993025" flag="0"/>
      <psa03 value="0.0022893368" flag="0"/>
      <psa10 value="0.0005534988" flag="0"/>
      <psa30 value="0.0000532074" flag="0"/>
    </comp>
    <comp name="--.HHN">
      <acc value="0.0027928272" flag="0"/>
      <vel value="0.0008020746" flag="0"/>
      <psa03 value="0.0026734095" flag="0"/>
      <psa10 value="0.0007689865" flag="0"/>
      <psa30 value="0.0002215878" flag="0"/>
    </comp>
  </station>
  <station code="KOSP" name="KOSP" netid="HC" insttype="60" commtype="DIG" lat="36.881" lon="27.281">
    <comp name="--.HHN">
      <acc value="0.0042158614" flag="0"/>
      <vel value="0.0061197380" flag="0"/>
      <psa03 value="0.0056436362" flag="0"/>
      <psa10 value="0.0069424775" flag="0"/>
      <psa30 value="0.0009177365" flag="0"/>
    </comp>
    <comp name="--.HHE">
      <acc value="0.0045915374" flag="0"/>
      <vel value="0.0052653663" flag="0"/>
      <psa03 value="0.0095322723" flag="0"/>
      <psa10 value="0.0094421440" flag="0"/>
      <psa30 value="0.0006746129" flag="0"/>
    </comp>
    <comp name="--.HHZ">
      <acc value="0.0070964969" flag="0"/>
      <vel value="0.0027602543" flag="0"/>
      <psa03 value="0.0070892900" flag="0"/>
      <psa10 value="0.0033471598" flag="0"/>
      <psa30 value="0.0006072104" flag="0"/>
    </comp>
  </station>
  <station code="NISR2" name="NISR2" netid="HL" insttype="120" commtype="DIG" lat="36.5744" lon="27.1767">
    <comp name="--.HHN">
      <acc value="0.0077674973" flag="0"/>
      <vel value="0.0085158169" flag="0"/>
      <psa03 value="0.0278856183" flag="0"/>
      <psa10 value="0.0164982753" flag="0"/>
      <psa30 value="0.0010158082" flag="0"/>
    </comp>
    <comp name="--.HHE">
      <acc value="0.0068037165" flag="0"/>
      <vel value="0.0082203432" flag="0"/>
      <psa03 value="0.0225447839" flag="0"/>
      <psa10 value="0.0174791290" flag="0"/>
      <psa30 value="0.0006567906" flag="0"/>
    </comp>
    <comp name="--.HHZ">
      <acc value="0.0055209669" flag="0"/>
      <vel value="0.0019421407" flag="0"/>
      <psa03 value="0.0130905016" flag="0"/>
      <psa10 value="0.0026655325" flag="0"/>
      <psa30 value="0.0003063219" flag="0"/>
    </comp>
  </station>
  <station code="THERA" name="THERA" netid="HL" insttype="120" commtype="DIG" lat="36.367" lon="25.4753">
    <comp name="--.HHE">
      <acc value="0.0032576932" flag="0"/>
      <vel value="0.0010717725" flag="0"/>
      <psa03 value="0.0045320776" flag="0"/>
      <psa10 value="0.0010541388" flag="0"/>
      <psa30 value="0.0000892585" flag="0"/>
    </comp>
    <comp name="--.HHN">
      <acc value="0.0035434554" flag="0"/>
      <vel value="0.0017063499" flag="0"/>
      <psa03 value="0.0074245984" flag="0"/>
      <psa10 value="0.0016181999" flag="0"/>
      <psa30 value="0.0001542851" flag="0"/>
    </comp>
    <comp name="--.HHZ">
      <acc value="0.0046317696" flag="0"/>
      <vel value="0.0019696907" flag="0"/>
      <psa03 value="0.0142818361" flag="0"/>
      <psa10 value="0.0004974220" flag="0"/>
      <psa30 value="0.0000798170" flag="0"/>
    </comp>
  </station>
  <station code="BODT" name="BODT" netid="KO" insttype="CMG-3ESP" commtype="DIG" lat="37.0622" lon="27.3103">
    <comp name="--.HHN">
      <acc value="0.0046219149" flag="0"/>
      <vel value="0.0051855577" flag="0"/>
      <psa03 value="0.0061681221" flag="0"/>
      <psa10 value="0.0078249614" flag="0"/>
      <psa30 value="0.0006129568" flag="0"/>
    </comp>
    <comp name="--.HHZ">
      <acc value="0.0041824078" flag="0"/>
      <vel value="0.0023116992" flag="0"/>
      <psa03 value="0.0048026741" flag="0"/>
      <psa10 value="0.0015867091" flag="0"/>
      <psa30 value="0.0001374830" flag="0"/>
    </comp>
    <comp name="--.HHE">
      <acc value="0.0039298430" flag="0"/>
      <vel value="0.0035320197" flag="0"/>
      <psa03 value="0.0059706988" flag="0"/>
      <psa10 value="0.0028796472" flag="0"/>
      <psa30 value="0.0002034635" flag="0"/>
    </comp>
  </station>
  <station code="DAT" name="DAT" netid="KO" insttype="CMG-3T" commtype="DIG" lat="36.7308" lon="27.5767">
    <comp name="--.HHN">
      <acc value="0.0069421975" flag="0"/>
      <vel value="0.0037868863" flag="0"/>
      <psa03 value="0.0140683950" flag="0"/>
      <psa10 value="0.0041136818" flag="0"/>
      <psa30 value="0.0006505066" flag="0"/>
    </comp>
    <comp name="--.HHZ">
      <acc value="0.0000262024" flag="0"/>
      <vel value="0.0000030013" flag="0"/>
      <psa03 value="0.0000101884" flag="0"/>
      <psa10 value="0.0000025802" flag="0"/>
      <psa30 value="0.0000007701" flag="0"/>
    </comp>
    <comp name="--.HHE">
      <acc value="0.0067816975" flag="0"/>
      <vel value="0.0036953262" flag="0"/>
      <psa03 value="0.0096016964" flag="0"/>
      <psa10 value="0.0039618142" flag="0"/>
      <psa30 value="0.0004232566" flag="0"/>
    </comp>
  </station>
</stationlist>
