<?xml version="1.0" encoding="UTF-8" standalone="yes"?>
<!DOCTYPE earthquake SYSTEM "stationlist.dtd">
<stationlist created="" xmlns="ch.ethz.sed.shakemap.usgs.xml">
  <station code="THERA" name="THERA" netid="GE" source="GFZ" insttype="STS-2/N" lat="36.367" lon="25.4753">
    <comp name="--.HHE">
      <acc value="0.0154438328" flag="0"/>
      <vel value="0.0217029290" flag="0"/>
      <psa03 value="0.0383111728" flag="0"/>
      <psa10 value="0.0257135326" flag="0"/>
      <psa30 value="0.0060972502" flag="0"/>
    </comp>
    <comp name="--.HHN">
      <acc value="0.0122187122" flag="0"/>
      <vel value="0.0105845371" flag="0"/>
      <psa03 value="0.0301571578" flag="0"/>
      <psa10 value="0.0110794790" flag="0"/>
      <psa30 value="0.0019473786" flag="0"/>
    </comp>
    <comp name="--.HHZ">
      <acc value="0.0150221634" flag="0"/>
      <vel value="0.0125454687" flag="0"/>
      <psa03 value="0.0354663894" flag="0"/>
      <psa10 value="0.0137584807" flag="0"/>
      <psa30 value="0.0021004489" flag="0"/>
    </comp>
  </station>
  <station code="ZKR" name="ZKR" netid="GE" source="GFZ" insttype="STS-2/N" lat="35.1147" lon="26.2169">
    <comp name="--.HHE">
      <acc value="4.1677233640" flag="0"/>
      <vel value="1.1726456611" flag="0"/>
      <psa03 value="4.3057014131" flag="0"/>
      <psa10 value="1.2689659548" flag="0"/>
      <psa30 value="0.0987753249" flag="0"/>
    </comp>
    <comp name="--.HHN">
      <acc value="1.1056790513" flag="0"/>
      <vel value="0.3334781825" flag="0"/>
      <psa03 value="1.3590731119" flag="0"/>
      <psa10 value="0.2223911708" flag="0"/>
      <psa30 value="0.0211439218" flag="0"/>
    </comp>
    <comp name="--.HHZ">
      <acc value="1.4614908498" flag="0"/>
      <vel value="0.4508882454" flag="0"/>
      <psa03 value="1.6441004930" flag="0"/>
      <psa10 value="0.3221233659" flag="0"/>
      <psa30 value="0.0192326762" flag="0"/>
    </comp>
  </station>
  <station code="STIA" name="STIA" netid="HC" source="NOA" insttype="120" lat="35.2021" lon="26.0909">
    <comp name="--.HHE">
      <acc value="0.6479883495" flag="0"/>
      <vel value="0.2991934511" flag="0"/>
      <psa03 value="1.2198469949" flag="0"/>
      <psa10 value="0.3492685054" flag="0"/>
      <psa30 value="0.0421237436" flag="0"/>
    </comp>
    <comp name="--.HHN">
      <acc value="0.5647748761" flag="0"/>
      <vel value="0.2783327815" flag="0"/>
      <psa03 value="1.0260484664" flag="0"/>
      <psa10 value="0.2720060654" flag="0"/>
      <psa30 value="0.0239297697" flag="0"/>
    </comp>
    <comp name="--.HHZ">
      <acc value="0.6663340806" flag="0"/>
      <vel value="0.1654602950" flag="0"/>
      <psa03 value="0.9045800667" flag="0"/>
      <psa10 value="0.1135500540" flag="0"/>
      <psa30 value="0.0073380449" flag="0"/>
    </comp>
  </station>
  <station code="KSS1" name="KSS1" netid="HI" source="NOA" insttype="CMG-5TD,ACCELEROMETER,GURALP" lat="35.4189" lon="26.9207">
    <comp name="--.HNE">
      <acc value="0.1486776631" flag="0"/>
      <vel value="0.0683167347" flag="0"/>
      <psa03 value="0.6211395728" flag="0"/>
      <psa10 value="0.0939987877" flag="0"/>
      <psa30 value="0.0034030066" flag="0"/>
    </comp>
    <comp name="--.HNN">
      <acc value="0.2054265906" flag="0"/>
      <vel value="0.0965321956" flag="0"/>
      <psa03 value="0.7123670729" flag="0"/>
      <psa10 value="0.0876684008" flag="0"/>
      <psa30 value="0.0055177893" flag="0"/>
    </comp>
    <comp name="--.HNZ">
      <acc value="0.1021073555" flag="0"/>
      <vel value="0.0428871114" flag="0"/>
      <psa03 value="0.3451459390" flag="0"/>
      <psa10 value="0.0392815502" flag="0"/>
      <psa30 value="0.0045325119" flag="0"/>
    </comp>
  </station>
  <station code="SIT2" name="SIT2" netid="HI" source="NOA" insttype="CMG-5TD,ACCELEROMETER,GURALP" lat="35.2059" lon="26.107">
    <comp name="--.HNN">
      <acc value="1.5550681117" flag="0"/>
      <vel value="1.2412669138" flag="0"/>
      <psa03 value="4.3796630899" flag="0"/>
      <psa10 value="0.9074888300" flag="0"/>
      <psa30 value="0.0519265151" flag="0"/>
    </comp>
    <comp name="--.HNE">
      <acc value="1.4713790945" flag="0"/>
      <vel value="0.9348619347" flag="0"/>
      <psa03 value="5.4760204909" flag="0"/>
      <psa10 value="0.8254957468" flag="0"/>
      <psa30 value="0.0669456779" flag="0"/>
    </comp>
    <comp name="--.HNZ">
      <acc value="1.5687906230" flag="0"/>
      <vel value="0.6541284102" flag="0"/>
      <psa03 value="3.1380051694" flag="0"/>
      <psa10 value="0.1922493790" flag="0"/>
      <psa30 value="0.0184306991" flag="0"/>
    </comp>
  </station>
  <station code="IACM" name="IACM" netid="HL" source="NOA" insttype="120" lat="35.3058" lon="25.0709">
    <comp name="--.HHE">
      <acc value="0.2255166050" flag="0"/>
      <vel value="0.2030960829" flag="0"/>
      <psa03 value="0.8196858306" flag="0"/>
      <psa10 value="0.4762510003" flag="0"/>
      <psa30 value="0.0209719757" flag="0"/>
    </comp>
    <comp name="--.HHN">
      <acc value="0.1647542634" flag="0"/>
      <vel value="0.1487014877" flag="0"/>
      <psa03 value="0.7061148322" flag="0"/>
      <psa10 value="0.3246064294" flag="0"/>
      <psa30 value="0.0187147954" flag="0"/>
    </comp>
    <comp name="--.HHZ">
      <acc value="0.1401694851" flag="0"/>
      <vel value="0.0988294898" flag="0"/>
      <psa03 value="0.3671891566" flag="0"/>
      <psa10 value="0.1092849435" flag="0"/>
      <psa30 value="0.0056634717" flag="0"/>
    </comp>
  </station>
  <station code="IDI" name="IDI" netid="HL" source="NOA" insttype="120" lat="35.288" lon="24.89">
    <comp name="--.HHE">
      <acc value="0.0230927798" flag="0"/>
      <vel value="0.0130851749" flag="0"/>
      <psa03 value="0.0610417064" flag="0"/>
      <psa10 value="0.0173224462" flag="0"/>
      <psa30 value="0.0029055607" flag="0"/>
    </comp>
    <comp name="--.HHN">
      <acc value="0.0222564748" flag="0"/>
      <vel value="0.0192827302" flag="0"/>
      <psa03 value="0.0658238123" flag="0"/>
      <psa10 value="0.0292207313" flag="0"/>
      <psa30 value="0.0049265033" flag="0"/>
    </comp>
    <comp name="--.HHZ">
      <acc value="0.0167351458" flag="0"/>
      <vel value="0.0144078990" flag="0"/>
      <psa03 value="0.0417019206" flag="0"/>
      <psa10 value="0.0169422689" flag="0"/>
      <psa30 value="0.0044146032" flag="0"/>
    </comp>
  </station>
  <station code="NPS" name="NPS" netid="HL" source="NOA" insttype="CMG3ESPC-120s" lat="35.2613" lon="25.6104">
    <comp name="--.HHZ">
      <acc value="0.1517617886" flag="0"/>
      <vel value="0.0737145042" flag="0"/>
      <psa03 value="0.3246983152" flag="0"/>
      <psa10 value="0.0706255271" flag="0"/>
      <psa30 value="0.0037767331" flag="0"/>
    </comp>
    <comp name="--.HHE">
      <acc value="0.1301520060" flag="0"/>
      <vel value="0.0584251542" flag="0"/>
      <psa03 value="0.2890089583" flag="0"/>
      <psa10 value="0.0694713264" flag="0"/>
      <psa30 value="0.0042219483" flag="0"/>
    </comp>
    <comp name="--.HHN">
      <acc value="0.1954543547" flag="0"/>
      <vel value="0.1116762526" flag="0"/>
      <psa03 value="0.4624947634" flag="0"/>
      <psa10 value="0.1810599552" flag="0"/>
      <psa30 value="0.0072198987" flag="0"/>
    </comp>
  </station>
  <station code="THERA" name="THERA" netid="HL" source="NOA" insttype="120" lat="36.367" lon="25.4753">
    <comp name="--.HHE">
      <acc value="0.0151115634" flag="0"/>
      <vel value="0.0216808215" flag="0"/>
      <psa03 value="0.0373611519" flag="0"/>
      <psa10 value="0.0255488357" flag="0"/>
      <psa30 value="0.0060946167" flag="0"/>
    </comp>
    <comp name="--.HHN">
      <acc value="0.0119125595" flag="0"/>
      <vel value="0.0104225489" flag="0"/>
      <psa03 value="0.0294091868" flag="0"/>
      <psa10 value="0.0109976352" flag="0"/>
      <psa30 value="0.0019475920" flag="0"/>
    </comp>
    <comp name="--.HHZ">
      <acc value="0.0146261227" flag="0"/>
      <vel value="0.0123421099" flag="0"/>
      <psa03 value="0.0345808772" flag="0"/>
      <psa10 value="0.0136787147" flag="0"/>
      <psa30 value="0.0021003797" flag="0"/>
    </comp>
  </station>
  <station code="ZKR" name="ZKR" netid="HL" source="NOA" insttype="120" lat="35.1147" lon="26.2169">
    <comp name="--.HHN">
      <acc value="1.0725226418" flag="0"/>
      <vel value="0.3279553054" flag="0"/>
      <psa03 value="1.3195166818" flag="0"/>
      <psa10 value="0.2208719210" flag="0"/>
      <psa30 value="0.0210202101" flag="0"/>
    </comp>
    <comp name="--.HHE">
      <acc value="4.0658730434" flag="0"/>
      <vel value="1.1673220969" flag="0"/>
      <psa03 value="4.2010684634" flag="0"/>
      <psa10 value="1.2570830985" flag="0"/>
      <psa30 value="0.0980650424" flag="0"/>
    </comp>
    <comp name="--.HHZ">
      <acc value="1.4128762827" flag="0"/>
      <vel value="0.4348328403" flag="0"/>
      <psa03 value="1.5967093893" flag="0"/>
      <psa10 value="0.3195780266" flag="0"/>
      <psa30 value="0.0189662216" flag="0"/>
    </comp>
  </station>
  <station code="IDI" name="IDI" netid="MN" source="INGV" insttype="" lat="35.288" lon="24.89">
    <comp name="--.HHE">
      <acc value="0.0235978865" flag="0"/>
      <vel value="0.0131018696" flag="0"/>
      <psa03 value="0.0614643118" flag="0"/>
      <psa10 value="0.0172036437" flag="0"/>
      <psa30 value="0.0028728582" flag="0"/>
    </comp>
    <comp name="--.HHN">
      <acc value="0.0225812085" flag="0"/>
      <vel value="0.0191218072" flag="0"/>
      <psa03 value="0.0668065931" flag="0"/>
      <psa10 value="0.0289990980" flag="0"/>
      <psa30 value="0.0048673346" flag="0"/>
    </comp>
    <comp name="--.HHZ">
      <acc value="0.0172287327" flag="0"/>
      <vel value="0.0143399055" flag="0"/>
      <psa03 value="0.0421717995" flag="0"/>
      <psa10 value="0.0168122797" flag="0"/>
      <psa30 value="0.0043603883" flag="0"/>
    </comp>
  </station>
</stationlist>
