<stationlist xmlns:esm="https://esm-db.eu/esmws/shakemap/1/" created="1783994268">
	<station code="AGN1" name="AGN1" netid="HI" source="ITSAK Strong Motion Network" insttype="" lat="35.1879" lon="25.7155" esm:processing="manual (Paolucci et al 2011)" esm:quality="good">
		<comp name="--.HNE" depth="0.0">
			<acc value="0.8005883606185" flag="0"/>
			<vel value="0.419664173864816" flag="0"/>
			<psa03 value="2.73260318821696" flag="0"/>
			<psa10 value="0.327443341514367" flag="0"/>
			<psa30 value="0.0165410490966567" flag="0"/>
		</comp>
		<comp name="--.HNN" depth="0.0">
			<acc value="0.631931930659237" flag="0"/>
			<vel value="0.260861602509193" flag="0"/>
			<psa03 value="2.54287861989543" flag="0"/>
			<psa10 value="0.142907881945823" flag="0"/>
			<psa30 value="0.00785916563115228" flag="0"/>
		</comp>
		<comp name="--.HNZ" depth="0.0">
			<acc value="0.330774127737878" flag="0"/>
			<vel value="0.108103523755022" flag="0"/>
			<psa03 value="0.66245234254988" flag="0"/>
			<psa10 value="0.0893341879515223" flag="0"/>
			<psa30 value="0.00774034776005144" flag="0"/>
		</comp>
	</station>
	<station code="ARK1" name="ARK1" netid="HI" source="ITSAK Strong Motion Network" insttype="" lat="35.148777" lon="25.264194" esm:processing="automatic (Paolucci et al 2011)" esm:quality="best">
		<comp name="--.HNE" depth="0.0">
			<acc value="0.0844869268293089" flag="0"/>
			<vel value="0.0651316585989598" flag="0"/>
			<psa03 value="0.140134991588779" flag="0"/>
			<psa10 value="0.102151404529217" flag="0"/>
			<psa30 value="0.00998780497639541" flag="0"/>
		</comp>
		<comp name="--.HNN" depth="0.0">
			<acc value="0.123719301076515" flag="0"/>
			<vel value="0.0727575737955106" flag="0"/>
			<psa03 value="0.207550290854832" flag="0"/>
			<psa10 value="0.113906970777788" flag="0"/>
			<psa30 value="0.0175970990547836" flag="0"/>
		</comp>
		<comp name="--.HNZ" depth="0.0">
			<acc value="0.0679144196685265" flag="0"/>
			<vel value="0.0622614152694096" flag="0"/>
			<psa03 value="0.213915212499653" flag="0"/>
			<psa10 value="0.10370586750476" flag="0"/>
			<psa30 value="0.00834434110497963" flag="0"/>
		</comp>
	</station>
	<station code="CH01" name="CH01" netid="HI" source="ITSAK Strong Motion Network" insttype="" lat="35.517" lon="24.0208" esm:processing="manual (Paolucci et al 2011)" esm:quality="best">
		<comp name="--.HNE" depth="0.0">
			<acc value="0.0128113820050141" flag="0"/>
			<vel value="0.0211967354419703" flag="0"/>
			<psa03 value="0.0320860239791035" flag="0"/>
			<psa10 value="0.033963746181519" flag="0"/>
			<psa30 value="0.00651513826260412" flag="0"/>
		</comp>
		<comp name="--.HNN" depth="0.0">
			<acc value="0.0170539795101931" flag="0"/>
			<vel value="0.0243083884554193" flag="0"/>
			<psa03 value="0.0423357133874237" flag="0"/>
			<psa10 value="0.049959354562179" flag="0"/>
			<psa30 value="0.00836603920905835" flag="0"/>
		</comp>
		<comp name="--.HNZ" depth="0.0">
			<acc value="0.0092716149653308" flag="0"/>
			<vel value="0.0141839854959422" flag="0"/>
			<psa03 value="0.0165973898602132" flag="0"/>
			<psa10 value="0.0300556329131654" flag="0"/>
			<psa30 value="0.00375152060316196" flag="0"/>
		</comp>
	</station>
	<station code="CH02" name="CH02" netid="HI" source="ITSAK Strong Motion Network" insttype="" lat="35.5145" lon="24.0315" esm:processing="automatic (Paolucci et al 2011)" esm:quality="good">
		<comp name="--.HNE" depth="0.0">
			<acc value="0.017097253574357" flag="0"/>
			<vel value="0.0279748735885778" flag="0"/>
			<psa03 value="0.0299047935458073" flag="0"/>
			<psa10 value="0.0665958616489987" flag="0"/>
			<psa30 value="0.00496082196344196" flag="0"/>
		</comp>
		<comp name="--.HNN" depth="0.0">
			<acc value="0.0177127085346688" flag="0"/>
			<vel value="0.0220364233873929" flag="0"/>
			<psa03 value="0.041664765294554" flag="0"/>
			<psa10 value="0.0482712589840046" flag="0"/>
			<psa30 value="0.0079485882216267" flag="0"/>
		</comp>
		<comp name="--.HNZ" depth="0.0">
			<acc value="0.0102572078169103" flag="0"/>
			<vel value="0.0137438135141092" flag="0"/>
			<psa03 value="0.0192652801365099" flag="0"/>
			<psa10 value="0.0250944386334023" flag="0"/>
			<psa30 value="0.00309020221073053" flag="0"/>
		</comp>
	</station>
	<station code="CH03" name="CH03" netid="HI" source="ITSAK Strong Motion Network" insttype="" lat="35.53303" lon="24.0705" esm:processing="automatic (Paolucci et al 2011)" esm:quality="best">
		<comp name="--.HNE" depth="0.0">
			<acc value="0.0109258446066068" flag="0"/>
			<vel value="0.0196539327006442" flag="0"/>
			<psa03 value="0.0268608783596983" flag="0"/>
			<psa10 value="0.0242117801616104" flag="0"/>
			<psa30 value="0.00413169412112489" flag="0"/>
		</comp>
		<comp name="--.HNN" depth="0.0">
			<acc value="0.0146510917114459" flag="0"/>
			<vel value="0.014783574350473" flag="0"/>
			<psa03 value="0.0310826944926308" flag="0"/>
			<psa10 value="0.0333044412557835" flag="0"/>
			<psa30 value="0.00462370088082474" flag="0"/>
		</comp>
		<comp name="--.HNZ" depth="0.0">
			<acc value="0.00803206796918691" flag="0"/>
			<vel value="0.0105759444422488" flag="0"/>
			<psa03 value="0.0203431861779118" flag="0"/>
			<psa10 value="0.0180789988949497" flag="0"/>
			<psa30 value="0.0017802683507078" flag="0"/>
		</comp>
	</station>
	<station code="GOR1" name="GOR1" netid="HI" source="ITSAK Strong Motion Network" insttype="" lat="35.0582" lon="24.9628" esm:processing="automatic (Paolucci et al 2011)" esm:quality="best">
		<comp name="--.HNE" depth="0.0">
			<acc value="0.0461014625450919" flag="0"/>
			<vel value="0.0441908999470799" flag="0"/>
			<psa03 value="0.156823774222058" flag="0"/>
			<psa10 value="0.0966630134502436" flag="0"/>
			<psa30 value="0.0122348263305323" flag="0"/>
		</comp>
		<comp name="--.HNN" depth="0.0">
			<acc value="0.035129591445052" flag="0"/>
			<vel value="0.0512504590282075" flag="0"/>
			<psa03 value="0.116510624507069" flag="0"/>
			<psa10 value="0.109888594580086" flag="0"/>
			<psa30 value="0.0180916418158144" flag="0"/>
		</comp>
		<comp name="--.HNZ" depth="0.0">
			<acc value="0.0330691691299963" flag="0"/>
			<vel value="0.0306952104575994" flag="0"/>
			<psa03 value="0.0782854047738614" flag="0"/>
			<psa10 value="0.0830889742367636" flag="0"/>
			<psa30 value="0.0101813227960012" flag="0"/>
		</comp>
	</station>
	<station code="HER1" name="HER1" netid="HI" source="ITSAK Strong Motion Network" insttype="" lat="35.317672" lon="25.10217" esm:processing="manual (Paolucci et al 2011)" esm:quality="good">
		<comp name="--.HNE" depth="0.0">
			<acc value="0.131389254944991" flag="0"/>
			<vel value="0.228923401431486" flag="0"/>
			<psa03 value="0.280340717029996" flag="0"/>
			<psa10 value="0.58111683613842" flag="0"/>
			<psa30 value="0.0280064386224436" flag="0"/>
		</comp>
		<comp name="--.HNN" depth="0.0">
			<acc value="0.154885746861218" flag="0"/>
			<vel value="0.21212135804162" flag="0"/>
			<psa03 value="0.341278295512171" flag="0"/>
			<psa10 value="0.488854994244193" flag="0"/>
			<psa30 value="0.0238283785131329" flag="0"/>
		</comp>
		<comp name="--.HNZ" depth="0.0">
			<acc value="0.107296101157012" flag="0"/>
			<vel value="0.103560048794453" flag="0"/>
			<psa03 value="0.215615700148615" flag="0"/>
			<psa10 value="0.197603365253161" flag="0"/>
			<psa30 value="0.00705893761997385" flag="0"/>
		</comp>
	</station>
	<station code="HER2" name="HER2" netid="HI" source="ITSAK Strong Motion Network" insttype="" lat="35.337866" lon="25.135624" esm:processing="automatic (Paolucci et al 2011)" esm:quality="best">
		<comp name="--.HNE" depth="0.0">
			<acc value="0.0886998173692048" flag="0"/>
			<vel value="0.0596525132115599" flag="0"/>
			<psa03 value="0.259566382498955" flag="0"/>
			<psa10 value="0.0885054280502462" flag="0"/>
			<psa30 value="0.0103550134688225" flag="0"/>
		</comp>
		<comp name="--.HNN" depth="0.0">
			<acc value="0.124661529964563" flag="0"/>
			<vel value="0.0750925001436342" flag="0"/>
			<psa03 value="0.304988641500693" flag="0"/>
			<psa10 value="0.116570179702308" flag="0"/>
			<psa30 value="0.00964899169834522" flag="0"/>
		</comp>
		<comp name="--.HNZ" depth="0.0">
			<acc value="0.0837540075766182" flag="0"/>
			<vel value="0.0455218875296557" flag="0"/>
			<psa03 value="0.208714201291519" flag="0"/>
			<psa10 value="0.0622839122535132" flag="0"/>
			<psa30 value="0.00364246754559859" flag="0"/>
		</comp>
	</station>
	<station code="KOS2" name="KOS2" netid="HI" source="ITSAK Strong Motion Network" insttype="" lat="36.8941" lon="27.2888" esm:processing="automatic (Paolucci et al 2011)" esm:quality="good">
		<comp name="--.HNE" depth="0.0">
			<acc value="0.0222886742770392" flag="0"/>
			<vel value="0.0208682762359241" flag="0"/>
			<psa03 value="0.0460118813946611" flag="0"/>
			<psa10 value="0.0194124672306826" flag="0"/>
			<psa30 value="0.00559567401927496" flag="0"/>
		</comp>
		<comp name="--.HNN" depth="0.0">
			<acc value="0.0128940012561706" flag="0"/>
			<vel value="0.0153261672199732" flag="0"/>
			<psa03 value="0.0437427206572321" flag="0"/>
			<psa10 value="0.032924361077337" flag="0"/>
			<psa30 value="0.00584457675785984" flag="0"/>
		</comp>
		<comp name="--.HNZ" depth="0.0">
			<acc value="0.0112588070707888" flag="0"/>
			<vel value="0.0106927684230987" flag="0"/>
			<psa03 value="0.0288300270353006" flag="0"/>
			<psa10 value="0.0174084544746727" flag="0"/>
			<psa30 value="0.00323530328129767" flag="0"/>
		</comp>
	</station>
	<station code="KSS1" name="KSS1" netid="HI" source="ITSAK Strong Motion Network" insttype="" lat="35.4189" lon="26.9207" esm:processing="manual (Paolucci et al 2011)" esm:quality="best">
		<comp name="--.HNE" depth="0.0">
			<acc value="0.148580167437708" flag="0"/>
			<vel value="0.0678514902727584" flag="0"/>
			<psa03 value="0.620951384979843" flag="0"/>
			<psa10 value="0.0940777571895652" flag="0"/>
			<psa30 value="0.0036628576463424" flag="0"/>
		</comp>
		<comp name="--.HNN" depth="0.0">
			<acc value="0.206168136801972" flag="0"/>
			<vel value="0.094075403413783" flag="0"/>
			<psa03 value="0.701401381064906" flag="0"/>
			<psa10 value="0.0883448874150861" flag="0"/>
			<psa30 value="0.00586732368138783" flag="0"/>
		</comp>
		<comp name="--.HNZ" depth="0.0">
			<acc value="0.100703257020969" flag="0"/>
			<vel value="0.0465590588495305" flag="0"/>
			<psa03 value="0.346933545144646" flag="0"/>
			<psa10 value="0.0394131946807054" flag="0"/>
			<psa30 value="0.00578534908431259" flag="0"/>
		</comp>
	</station>
	<station code="RGE1" name="RGE1" netid="HI" source="ITSAK Strong Motion Network" insttype="" lat="36.0269" lon="27.9306" esm:processing="manual (Paolucci et al 2011)" esm:quality="good">
		<comp name="--.HNE" depth="0.0">
			<acc value="0.0206397088228084" flag="0"/>
			<vel value="0.0200527690444196" flag="0"/>
			<psa03 value="0.0611178542405592" flag="0"/>
			<psa10 value="0.0266332459115924" flag="0"/>
			<psa30 value="0.0032205440323832" flag="0"/>
		</comp>
		<comp name="--.HNN" depth="0.0">
			<acc value="0.0171580992010369" flag="0"/>
			<vel value="0.0246308605426372" flag="0"/>
			<psa03 value="0.0565988913721138" flag="0"/>
			<psa10 value="0.0513859768790189" flag="0"/>
			<psa30 value="0.00402456148531354" flag="0"/>
		</comp>
		<comp name="--.HNZ" depth="0.0">
			<acc value="0.0160201345901514" flag="0"/>
			<vel value="0.0123579789397391" flag="0"/>
			<psa03 value="0.061744245133215" flag="0"/>
			<psa10 value="0.0235889861732852" flag="0"/>
			<psa30 value="0.00324425740189088" flag="0"/>
		</comp>
	</station>
	<station code="RKL1" name="RKL1" netid="HI" source="ITSAK Strong Motion Network" insttype="" lat="36.336699" lon="28.171224" esm:processing="automatic (Paolucci et al 2011)" esm:quality="best">
		<comp name="--.HNE" depth="0.0">
			<acc value="0.021717754027566" flag="0"/>
			<vel value="0.0201639375581384" flag="0"/>
			<psa03 value="0.0764529917188229" flag="0"/>
			<psa10 value="0.0432081160756356" flag="0"/>
			<psa30 value="0.00302649632386151" flag="0"/>
		</comp>
		<comp name="--.HNN" depth="0.0">
			<acc value="0.0232084617369723" flag="0"/>
			<vel value="0.0240230949570305" flag="0"/>
			<psa03 value="0.0618039952530339" flag="0"/>
			<psa10 value="0.0494431853683761" flag="0"/>
			<psa30 value="0.0045474929157544" flag="0"/>
		</comp>
		<comp name="--.HNZ" depth="0.0">
			<acc value="0.0147541067039372" flag="0"/>
			<vel value="0.0160862272984091" flag="0"/>
			<psa03 value="0.0512365035419039" flag="0"/>
			<psa10 value="0.0161059519402721" flag="0"/>
			<psa30 value="0.00273509285314505" flag="0"/>
		</comp>
	</station>
	<station code="RKT1" name="RKT1" netid="HI" source="ITSAK Strong Motion Network" insttype="" lat="35.954336" lon="27.767327" esm:processing="automatic (Paolucci et al 2011)" esm:quality="best">
		<comp name="--.HNE" depth="0.0">
			<acc value="0.0345572104554236" flag="0"/>
			<vel value="0.0290778208152368" flag="0"/>
			<psa03 value="0.0909794436083017" flag="0"/>
			<psa10 value="0.0584872469930727" flag="0"/>
			<psa30 value="0.00521594636418142" flag="0"/>
		</comp>
		<comp name="--.HNN" depth="0.0">
			<acc value="0.0262474482989476" flag="0"/>
			<vel value="0.0236578753972444" flag="0"/>
			<psa03 value="0.120650252903801" flag="0"/>
			<psa10 value="0.03903417207233" flag="0"/>
			<psa30 value="0.00354853590642182" flag="0"/>
		</comp>
		<comp name="--.HNZ" depth="0.0">
			<acc value="0.0165562874696561" flag="0"/>
			<vel value="0.0150833246726492" flag="0"/>
			<psa03 value="0.0336402467304148" flag="0"/>
			<psa10 value="0.0255845961039292" flag="0"/>
			<psa30 value="0.00277460609570345" flag="0"/>
		</comp>
	</station>
	<station code="RLN1" name="RLN1" netid="HI" source="ITSAK Strong Motion Network" insttype="" lat="36.089085" lon="28.086909" esm:processing="automatic (Paolucci et al 2011)" esm:quality="best">
		<comp name="--.HNE" depth="0.0">
			<acc value="0.00911064405708924" flag="0"/>
			<vel value="0.0132899167233357" flag="0"/>
			<psa03 value="0.0236839751971219" flag="0"/>
			<psa10 value="0.0238848653801106" flag="0"/>
			<psa30 value="0.00377438878473325" flag="0"/>
		</comp>
		<comp name="--.HNN" depth="0.0">
			<acc value="0.00907439527309746" flag="0"/>
			<vel value="0.012632187030011" flag="0"/>
			<psa03 value="0.0273790481025674" flag="0"/>
			<psa10 value="0.0197920936290684" flag="0"/>
			<psa30 value="0.00394463214585374" flag="0"/>
		</comp>
		<comp name="--.HNZ" depth="0.0">
			<acc value="0.00858628611385311" flag="0"/>
			<vel value="0.00767279217623723" flag="0"/>
			<psa03 value="0.0354687168159176" flag="0"/>
			<psa10 value="0.0125856349865508" flag="0"/>
			<psa30 value="0.00189712796708386" flag="0"/>
		</comp>
	</station>
	<station code="RSO1" name="RSO1" netid="HI" source="ITSAK Strong Motion Network" insttype="" lat="36.3632" lon="28.0016" esm:processing="automatic (Paolucci et al 2011)" esm:quality="good">
		<comp name="--.HNE" depth="0.0">
			<acc value="0.0242167431305107" flag="0"/>
			<vel value="0.0207705037093932" flag="0"/>
			<psa03 value="0.0705334016583665" flag="0"/>
			<psa10 value="0.0353421612447321" flag="0"/>
			<psa30 value="0.00680395364520359" flag="0"/>
		</comp>
		<comp name="--.HNN" depth="0.0">
			<acc value="0.0198168359879698" flag="0"/>
			<vel value="0.019913676818834" flag="0"/>
			<psa03 value="0.0520164614602882" flag="0"/>
			<psa10 value="0.0423896056033338" flag="0"/>
			<psa30 value="0.00459158833685963" flag="0"/>
		</comp>
		<comp name="--.HNZ" depth="0.0">
			<acc value="0.015598382518684" flag="0"/>
			<vel value="0.0168996780501669" flag="0"/>
			<psa03 value="0.0490148042818982" flag="0"/>
			<psa10 value="0.0360705907496119" flag="0"/>
			<psa30 value="0.00448551047638865" flag="0"/>
		</comp>
	</station>
	<station code="RTH1" name="RTH1" netid="HI" source="ITSAK Strong Motion Network" insttype="" lat="35.365393" lon="24.471773" esm:processing="automatic (Paolucci et al 2011)" esm:quality="best">
		<comp name="--.HNE" depth="0.0">
			<acc value="0.0240660650217142" flag="0"/>
			<vel value="0.0216867667554634" flag="0"/>
			<psa03 value="0.0770812625053457" flag="0"/>
			<psa10 value="0.0304211921296791" flag="0"/>
			<psa30 value="0.00567725484027064" flag="0"/>
		</comp>
		<comp name="--.HNN" depth="0.0">
			<acc value="0.0269036297636768" flag="0"/>
			<vel value="0.0217029568244249" flag="0"/>
			<psa03 value="0.0737441403957171" flag="0"/>
			<psa10 value="0.0268462209303822" flag="0"/>
			<psa30 value="0.00785744968414587" flag="0"/>
		</comp>
		<comp name="--.HNZ" depth="0.0">
			<acc value="0.014483635756719" flag="0"/>
			<vel value="0.012806378272462" flag="0"/>
			<psa03 value="0.042626560779618" flag="0"/>
			<psa10 value="0.0227833949130979" flag="0"/>
			<psa30 value="0.00282215091198085" flag="0"/>
		</comp>
	</station>
	<station code="SFK2" name="SFK2" netid="HI" source="ITSAK Strong Motion Network" insttype="" lat="35.211556" lon="24.188889" esm:processing="automatic (Paolucci et al 2011)" esm:quality="best">
		<comp name="--.HNE" depth="0.0">
			<acc value="0.0156796590087362" flag="0"/>
			<vel value="0.0143869194538637" flag="0"/>
			<psa03 value="0.0481018635957248" flag="0"/>
			<psa10 value="0.0213303499059973" flag="0"/>
			<psa30 value="0.00321640911298508" flag="0"/>
		</comp>
		<comp name="--.HNN" depth="0.0">
			<acc value="0.0138707691160666" flag="0"/>
			<vel value="0.0134966210171859" flag="0"/>
			<psa03 value="0.0351824738953956" flag="0"/>
			<psa10 value="0.0179288520734596" flag="0"/>
			<psa30 value="0.00519829727834943" flag="0"/>
		</comp>
		<comp name="--.HNZ" depth="0.0">
			<acc value="0.00852206262932483" flag="0"/>
			<vel value="0.00989880158120274" flag="0"/>
			<psa03 value="0.0225169812228317" flag="0"/>
			<psa10 value="0.00976346428159205" flag="0"/>
			<psa30 value="0.00285530477492823" flag="0"/>
		</comp>
	</station>
	<station code="SIT2" name="SIT2" netid="HI" source="ITSAK Strong Motion Network" insttype="" lat="35.2059" lon="26.107" esm:processing="manual (Paolucci et al 2011)" esm:quality="good">
		<comp name="--.HNE" depth="0.0">
			<acc value="1.47674225919352" flag="0"/>
			<vel value="0.932031451880514" flag="0"/>
			<psa03 value="5.49496936361643" flag="0"/>
			<psa10 value="0.827184967517284" flag="0"/>
			<psa30 value="0.0690828618627439" flag="0"/>
		</comp>
		<comp name="--.HNN" depth="0.0">
			<acc value="1.55394685348757" flag="0"/>
			<vel value="1.24466384308561" flag="0"/>
			<psa03 value="4.30428976109098" flag="0"/>
			<psa10 value="0.909790713908335" flag="0"/>
			<psa30 value="0.05146203863027" flag="0"/>
		</comp>
		<comp name="--.HNZ" depth="0.0">
			<acc value="1.56767001672195" flag="0"/>
			<vel value="0.66060737331236" flag="0"/>
			<psa03 value="3.18537665798124" flag="0"/>
			<psa10 value="0.193612503277181" flag="0"/>
			<psa30 value="0.0183729397257271" flag="0"/>
		</comp>
	</station>
	<station code="ASTA" name="ASTA" netid="HL" source="National Observatory of Athens Seismic Network" insttype="" lat="36.54552" lon="26.35295" esm:processing="manual (Paolucci et al 2011)" esm:quality="best">
		<comp name="00.HNE" depth="0.0">
			<acc value="0.0154456115251371" flag="0"/>
			<vel value="0.0143629410522206" flag="0"/>
			<psa03 value="0.043623651452815" flag="0"/>
			<psa10 value="0.0150239855603495" flag="0"/>
			<psa30 value="0.00414268091078578" flag="0"/>
		</comp>
		<comp name="00.HNN" depth="0.0">
			<acc value="0.0165211476868127" flag="0"/>
			<vel value="0.0126190373733627" flag="0"/>
			<psa03 value="0.0382098444520041" flag="0"/>
			<psa10 value="0.0141179558763295" flag="0"/>
			<psa30 value="0.00221115985107499" flag="0"/>
		</comp>
		<comp name="00.HNZ" depth="0.0">
			<acc value="0.00864169062764032" flag="0"/>
			<vel value="0.00710190422009687" flag="0"/>
			<psa03 value="0.0251003779128505" flag="0"/>
			<psa10 value="0.0115246975807344" flag="0"/>
			<psa30 value="0.00181250679010619" flag="0"/>
		</comp>
	</station>
