<?xml version="1.0" encoding="UTF-8" standalone="yes"?>
<!DOCTYPE earthquake SYSTEM "stationlist.dtd">
<stationlist created="" xmlns="ch.ethz.sed.shakemap.usgs.xml">
  <station code="ARPRA" name="ARPRA" netid="KO" insttype="CMG-5T" lat="39.0929" lon="38.3356">
    <comp name="--.HNE">
      <acc value="0.0662641711" flag="0"/>
      <vel value="0.0273936291" flag="0"/>
      <psa03 value="0.2068882798" flag="0"/>
      <psa10 value="0.0203588490" flag="0"/>
      <psa30 value="0.0016753453" flag="0"/>
    </comp>
    <comp name="--.HNN">
      <acc value="0.0836528485" flag="0"/>
      <vel value="0.0371500684" flag="0"/>
      <psa03 value="0.2183230711" flag="0"/>
      <psa10 value="0.0226003527" flag="0"/>
      <psa30 value="0.0013982691" flag="0"/>
    </comp>
    <comp name="--.HNZ">
      <acc value="0.0267838507" flag="0"/>
      <vel value="0.0148602132" flag="0"/>
      <psa03 value="0.0724880448" flag="0"/>
      <psa10 value="0.0154656279" flag="0"/>
      <psa30 value="0.0011380400" flag="0"/>
    </comp>
  </station>
</stationlist>
