<?xml version="1.0" encoding="UTF-8" standalone="yes"?>
<!DOCTYPE earthquake SYSTEM "stationlist.dtd">
<stationlist created="" xmlns="ch.ethz.sed.shakemap.usgs.xml">
  <station code="CEYT" name="CEYT" netid="KO" insttype="CMG-3ESP" lat="37.0105" lon="35.7478">
    <comp name="--.HHE">
      <acc value="0.0052175087" flag="0"/>
      <vel value="0.0034142301" flag="0"/>
      <psa03 value="0.0141461675" flag="0"/>
      <psa10 value="0.0025805772" flag="0"/>
      <psa30 value="0.0004505407" flag="0"/>
    </comp>
    <comp name="--.HHZ">
      <acc value="0.0036942397" flag="0"/>
      <vel value="0.0020665169" flag="0"/>
      <psa03 value="0.0068330480" flag="0"/>
      <psa10 value="0.0054017350" flag="0"/>
      <psa30 value="0.0001680705" flag="0"/>
    </comp>
    <comp name="--.HHN">
      <acc value="0.0042102182" flag="0"/>
      <vel value="0.0019804042" flag="0"/>
      <psa03 value="0.0104233832" flag="0"/>
      <psa10 value="0.0021539822" flag="0"/>
      <psa30 value="0.0002218950" flag="0"/>
    </comp>
  </station>
  <station code="GAZ" name="GAZ" netid="KO" insttype="CMG-3T" lat="37.1721" lon="37.2096">
    <comp name="--.HHN">
      <acc value="0.0166854898" flag="0"/>
      <vel value="0.0052952820" flag="0"/>
      <psa03 value="0.0458852405" flag="0"/>
      <psa10 value="0.0031753174" flag="0"/>
      <psa30 value="0.0002628986" flag="0"/>
    </comp>
    <comp name="--.HHE">
      <acc value="0.0312456120" flag="0"/>
      <vel value="0.0093441306" flag="0"/>
      <psa03 value="0.0405115948" flag="0"/>
      <psa10 value="0.0057712501" flag="0"/>
      <psa30 value="0.0004320506" flag="0"/>
    </comp>
    <comp name="--.HHZ">
      <acc value="0.0156333149" flag="0"/>
      <vel value="0.0056402662" flag="0"/>
      <psa03 value="0.0250800790" flag="0"/>
      <psa10 value="0.0035971488" flag="0"/>
      <psa30 value="0.0002571575" flag="0"/>
    </comp>
  </station>
  <station code="KMRS" name="KMRS" netid="KO" insttype="CMG-3T" lat="37.5053" lon="36.9">
    <comp name="--.HHN">
      <acc value="0.1752237471" flag="0"/>
      <vel value="0.0719404664" flag="0"/>
      <psa03 value="0.3155314414" flag="0"/>
      <psa10 value="0.0177933153" flag="0"/>
      <psa30 value="0.0017356874" flag="0"/>
    </comp>
    <comp name="--.HHZ">
      <acc value="0.0704295003" flag="0"/>
      <vel value="0.0314123394" flag="0"/>
      <psa03 value="0.1540871679" flag="0"/>
      <psa10 value="0.0087090964" flag="0"/>
      <psa30 value="0.0008844212" flag="0"/>
    </comp>
    <comp name="--.HHE">
      <acc value="0.0842228970" flag="0"/>
      <vel value="0.0412459074" flag="0"/>
      <psa03 value="0.1926620798" flag="0"/>
      <psa10 value="0.0197950884" flag="0"/>
      <psa30 value="0.0017912992" flag="0"/>
    </comp>
  </station>
  <station code="SARI" name="SARI" netid="KO" insttype="CMG-3T" lat="38.4072" lon="36.4181">
    <comp name="--.HHN">
      <acc value="0.0369531459" flag="0"/>
      <vel value="0.0151847380" flag="0"/>
      <psa03 value="0.0791325691" flag="0"/>
      <psa10 value="0.0114014271" flag="0"/>
      <psa30 value="0.0006633377" flag="0"/>
    </comp>
    <comp name="--.HHZ">
      <acc value="0.0300265918" flag="0"/>
      <vel value="0.0117351524" flag="0"/>
      <psa03 value="0.0650935535" flag="0"/>
      <psa10 value="0.0060768954" flag="0"/>
      <psa30 value="0.0004851657" flag="0"/>
    </comp>
  </station>
  <station code="ANDN" name="ANDN" netid="TU" insttype="T" lat="37.58" lon="36.3452">
    <comp name="--.HHN">
      <acc value="0.2500410052" flag="0"/>
      <vel value="0.0598800381" flag="0"/>
      <psa03 value="0.2288690766" flag="0"/>
      <psa10 value="0.0245094730" flag="0"/>
      <psa30 value="0.0021885301" flag="0"/>
    </comp>
    <comp name="--.HHZ">
      <acc value="0.1403128475" flag="0"/>
      <vel value="0.0290658049" flag="0"/>
      <psa03 value="0.1891529289" flag="0"/>
      <psa10 value="0.0271334991" flag="0"/>
      <psa30 value="0.0015735610" flag="0"/>
    </comp>
    <comp name="--.HHE">
      <acc value="0.1249979852" flag="0"/>
      <vel value="0.0713111196" flag="0"/>
      <psa03 value="0.2742353670" flag="0"/>
      <psa10 value="0.0560951263" flag="0"/>
      <psa30 value="0.0029047638" flag="0"/>
    </comp>
  </station>
</stationlist>
