<stationlist created="1778136687">
	<station code="ROD3" name="ROD3" netid="CL" source="Corinth Riff Laboratory (CRLNET)" insttype="" lat="38.30811" lon="21.89204">
		<comp name="00.HNE" depth="0.0">
			<acc value="0.884107746317439" flag="0"/>
			<vel value="0.316819342800005" flag="0"/>
			<psa03 value="2.27439233399455" flag="0"/>
			<psa10 value="0.178997407699956" flag="0"/>
			<psa30 value="0.0132610351451851" flag="0"/>
		</comp>
		<comp name="00.HNN" depth="0.0">
			<acc value="0.682414294587859" flag="0"/>
			<vel value="0.223507740351435" flag="0"/>
			<psa03 value="1.5567522938681" flag="0"/>
			<psa10 value="0.12987773376227" flag="0"/>
			<psa30 value="0.00877567634546718" flag="0"/>
		</comp>
		<comp name="00.HNZ" depth="0.0">
			<acc value="0.336346282285712" flag="0"/>
			<vel value="0.115042593452126" flag="0"/>
			<psa03 value="0.362250247301077" flag="0"/>
			<psa10 value="0.0854573611308852" flag="0"/>
			<psa30 value="0.00362333752832929" flag="0"/>
		</comp>
	</station>
	<station code="AIGS" name="AIGS" netid="HA" source="Hellenic Seismological Network, University of Athens, Seismological Laboratory (HA)" insttype="" lat="38.25001" lon="22.0878">
		<comp name="--.HNE" depth="0.0">
			<acc value="0.418760330687079" flag="0"/>
			<vel value="0.138984841681744" flag="0"/>
			<psa03 value="0.752999965885248" flag="0"/>
			<psa10 value="0.0770410910940035" flag="0"/>
			<psa30 value="0.00558274982977899" flag="0"/>
		</comp>
		<comp name="--.HNN" depth="0.0">
			<acc value="0.390822429678257" flag="0"/>
			<vel value="0.191057943233252" flag="0"/>
			<psa03 value="0.443549424639421" flag="0"/>
			<psa10 value="0.163890551944895" flag="0"/>
			<psa30 value="0.0103324519742215" flag="0"/>
		</comp>
		<comp name="--.HNZ" depth="0.0">
			<acc value="0.862581739056632" flag="0"/>
			<vel value="0.239700496668329" flag="0"/>
			<psa03 value="0.284198222570622" flag="0"/>
			<psa10 value="0.111803673944828" flag="0"/>
			<psa30 value="0.00469348883724602" flag="0"/>
		</comp>
	</station>
	<station code="KIAS" name="KIAS" netid="HA" source="Hellenic Seismological Network, University of Athens, Seismological Laboratory (HA)" insttype="" lat="37.9875" lon="22.7543">
		<comp name="--.HNE" depth="0.0">
			<acc value="0.414322533925716" flag="0"/>
			<vel value="0.098109278764028" flag="0"/>
			<psa03 value="0.271267678485776" flag="0"/>
			<psa10 value="0.118463155102619" flag="0"/>
			<psa30 value="0.00770057095837138" flag="0"/>
		</comp>
		<comp name="--.HNN" depth="0.0">
			<acc value="0.457732648991068" flag="0"/>
			<vel value="0.0977068781734023" flag="0"/>
			<psa03 value="0.225718827764723" flag="0"/>
			<psa10 value="0.0977931058134348" flag="0"/>
			<psa30 value="0.00812814594979003" flag="0"/>
		</comp>
		<comp name="--.HNZ" depth="0.0">
			<acc value="0.230973732032582" flag="0"/>
			<vel value="0.0457489217975848" flag="0"/>
			<psa03 value="0.238202508913766" flag="0"/>
			<psa10 value="0.0393568959511914" flag="0"/>
			<psa30 value="0.00309799022664725" flag="0"/>
		</comp>
	</station>
	<station code="LTRS" name="LTRS" netid="HA" source="Hellenic Seismological Network, University of Athens, Seismological Laboratory (HA)" insttype="" lat="37.97528" lon="22.9765">
		<comp name="--.HNE" depth="0.0">
			<acc value="0.096658040535498" flag="0"/>
			<vel value="0.0704356009900868" flag="0"/>
			<psa03 value="0.17576820628088" flag="0"/>
			<psa10 value="0.133066690015301" flag="0"/>
			<psa30 value="0.00522223386404495" flag="0"/>
		</comp>
		<comp name="--.HNN" depth="0.0">
			<acc value="0.0919139611754597" flag="0"/>
			<vel value="0.0624168765808096" flag="0"/>
			<psa03 value="0.247021134771403" flag="0"/>
			<psa10 value="0.0752212905414983" flag="0"/>
			<psa30 value="0.00421738521440491" flag="0"/>
		</comp>
		<comp name="--.HNZ" depth="0.0">
			<acc value="0.0960229366748331" flag="0"/>
			<vel value="0.0534688367746405" flag="0"/>
			<psa03 value="0.11378239169188" flag="0"/>
			<psa10 value="0.0513106440785362" flag="0"/>
			<psa30 value="0.00320572340510937" flag="0"/>
		</comp>
	</station>
	<station code="XLKS" name="XLKS" netid="HA" source="Hellenic Seismological Network, University of Athens, Seismological Laboratory (HA)" insttype="" lat="38.0772" lon="22.6361">
		<comp name="--.HNE" depth="0.0">
			<acc value="0.584117955799016" flag="0"/>
			<vel value="0.14845329535648" flag="0"/>
			<psa03 value="0.468588875046142" flag="0"/>
			<psa10 value="0.172129592740932" flag="0"/>
			<psa30 value="0.0103471896171762" flag="0"/>
		</comp>
		<comp name="--.HNN" depth="0.0">
			<acc value="0.596520918037235" flag="0"/>
			<vel value="0.136543127739677" flag="0"/>
			<psa03 value="0.582685183365187" flag="0"/>
			<psa10 value="0.179042140663013" flag="0"/>
			<psa30 value="0.00838889072281787" flag="0"/>
		</comp>
		<comp name="--.HNZ" depth="0.0">
			<acc value="0.342433893636182" flag="0"/>
			<vel value="0.0724171326378378" flag="0"/>
			<psa03 value="0.37856536976466" flag="0"/>
			<psa10 value="0.0532228245008328" flag="0"/>
			<psa30 value="0.00423957460100916" flag="0"/>
		</comp>
	</station>
	<station code="ARS1" name="ARS1" netid="HI" source="ITSAK Strong Motion Network" insttype="" lat="37.6349" lon="22.7293">
		<comp name="--.HNE" depth="0.0">
			<acc value="0.138354415856425" flag="0"/>
			<vel value="0.0801148062322513" flag="0"/>
			<psa03 value="0.286920986273665" flag="0"/>
			<psa10 value="0.0699012706160978" flag="0"/>
			<psa30 value="0.00514813062172624" flag="0"/>
		</comp>
		<comp name="--.HNN" depth="0.0">
			<acc value="0.113315695259371" flag="0"/>
			<vel value="0.0787763023501003" flag="0"/>
			<psa03 value="0.349329433027397" flag="0"/>
			<psa10 value="0.0752806194716263" flag="0"/>
			<psa30 value="0.00566161463750113" flag="0"/>
		</comp>
		<comp name="--.HNZ" depth="0.0">
			<acc value="0.0658884393996124" flag="0"/>
			<vel value="0.0293697494537554" flag="0"/>
			<psa03 value="0.20246309968661" flag="0"/>
			<psa10 value="0.0169796848207865" flag="0"/>
			<psa30 value="0.00220630803207714" flag="0"/>
		</comp>
	</station>
	<station code="ART2" name="ART2" netid="HI" source="ITSAK Strong Motion Network" insttype="" lat="39.1474" lon="20.9937">
		<comp name="--.HNE" depth="0.0">
			<acc value="0.0147300941460093" flag="0"/>
			<vel value="0.00593962484010312" flag="0"/>
			<psa03 value="0.0264118772614277" flag="0"/>
			<psa10 value="0.00554411227024311" flag="0"/>
			<psa30 value="0.000810988203156474" flag="0"/>
		</comp>
		<comp name="--.HNN" depth="0.0">
			<acc value="0.0129628055326198" flag="0"/>
			<vel value="0.00551881351228368" flag="0"/>
			<psa03 value="0.025659475856022" flag="0"/>
			<psa10 value="0.00823801885330464" flag="0"/>
			<psa30 value="0.00126948399291761" flag="0"/>
		</comp>
		<comp name="--.HNZ" depth="0.0">
			<acc value="0.00868221246631396" flag="0"/>
			<vel value="0.00492146409876793" flag="0"/>
			<psa03 value="0.0205712182109987" flag="0"/>
			<psa10 value="0.0101331834611757" flag="0"/>
			<psa30 value="0.000666760002911877" flag="0"/>
		</comp>
	</station>
	<station code="ATH5" name="ATH5" netid="HI" source="ITSAK Strong Motion Network" insttype="" lat="37.975421" lon="23.737098">
		<comp name="--.HNE" depth="0.0">
			<acc value="0.0227193499302112" flag="0"/>
			<vel value="0.0146150496251074" flag="0"/>
			<psa03 value="0.0657256456681581" flag="0"/>
			<psa10 value="0.014827414430951" flag="0"/>
			<psa30 value="0.000993965011970748" flag="0"/>
		</comp>
		<comp name="--.HNN" depth="0.0">
			<acc value="0.0259685522322831" flag="0"/>
			<vel value="0.0150553668559562" flag="0"/>
			<psa03 value="0.0489487374050733" flag="0"/>
			<psa10 value="0.0134846801688642" flag="0"/>
			<psa30 value="0.00110896242165107" flag="0"/>
		</comp>
		<comp name="--.HNZ" depth="0.0">
			<acc value="0.0160741481730775" flag="0"/>
			<vel value="0.00693813911817952" flag="0"/>
			<psa03 value="0.0339470691392209" flag="0"/>
			<psa10 value="0.0087473147791556" flag="0"/>
			<psa30 value="0.00110250209785129" flag="0"/>
		</comp>
	</station>
	<station code="KLV1" name="KLV1" netid="HI" source="ITSAK Strong Motion Network" insttype="" lat="38.03256" lon="22.10797">
		<comp name="--.HNE" depth="0.0">
			<acc value="0.516349253063796" flag="0"/>
			<vel value="0.257648170882884" flag="0"/>
			<psa03 value="1.23587353722224" flag="0"/>
			<psa10 value="0.188051482487608" flag="0"/>
			<psa30 value="0.013383524092766" flag="0"/>
		</comp>
		<comp name="--.HNN" depth="0.0">
			<acc value="0.678112488213778" flag="0"/>
			<vel value="0.263353577314626" flag="0"/>
			<psa03 value="0.768535911733222" flag="0"/>
			<psa10 value="0.187227327891803" flag="0"/>
			<psa30 value="0.0104801734267176" flag="0"/>
		</comp>
		<comp name="--.HNZ" depth="0.0">
			<acc value="0.413511465882779" flag="0"/>
			<vel value="0.13061934008282" flag="0"/>
			<psa03 value="0.429948356968538" flag="0"/>
			<psa10 value="0.0974824127316098" flag="0"/>
			<psa30 value="0.00406034939488686" flag="0"/>
		</comp>
	</station>
	<station code="LAM2" name="LAM2" netid="HI" source="ITSAK Strong Motion Network" insttype="" lat="38.90203" lon="22.431301">
		<comp name="--.HNE" depth="0.0">
			<acc value="0.0399043092879407" flag="0"/>
			<vel value="0.0259238508630938" flag="0"/>
			<psa03 value="0.0712584236460144" flag="0"/>
			<psa10 value="0.0279188707381865" flag="0"/>
			<psa30 value="0.00142477032154026" flag="0"/>
		</comp>
		<comp name="--.HNN" depth="0.0">
			<acc value="0.0439739772632959" flag="0"/>
			<vel value="0.0313927536053802" flag="0"/>
			<psa03 value="0.110533124360149" flag="0"/>
			<psa10 value="0.0265968425352942" flag="0"/>
			<psa30 value="0.00172726431861637" flag="0"/>
		</comp>
		<comp name="--.HNZ" depth="0.0">
			<acc value="0.0285351466687483" flag="0"/>
			<vel value="0.0141453387570505" flag="0"/>
			<psa03 value="0.0503071138494225" flag="0"/>
			<psa10 value="0.0199679952816852" flag="0"/>
			<psa30 value="0.00141975821867887" flag="0"/>
		</comp>
	</station>
	<station code="MSL1" name="MSL1" netid="HI" source="ITSAK Strong Motion Network" insttype="" lat="38.3727" lon="21.4243">
		<comp name="--.HNE" depth="0.0">
			<acc value="0.17823654614081" flag="0"/>
			<vel value="0.105864376951964" flag="0"/>
			<psa03 value="0.440021815952623" flag="0"/>
			<psa10 value="0.165209934347421" flag="0"/>
			<psa30 value="0.0105443318435584" flag="0"/>
		</comp>
		<comp name="--.HNN" depth="0.0">
			<acc value="0.221658078055825" flag="0"/>
			<vel value="0.107686147137037" flag="0"/>
			<psa03 value="0.490540162543775" flag="0"/>
			<psa10 value="0.177854256971807" flag="0"/>
			<psa30 value="0.012607661029006" flag="0"/>
		</comp>
		<comp name="--.HNZ" depth="0.0">
			<acc value="0.104243480631998" flag="0"/>
			<vel value="0.0616722133160662" flag="0"/>
			<psa03 value="0.140879738841248" flag="0"/>
			<psa10 value="0.114960093041859" flag="0"/>
			<psa30 value="0.00507189973844654" flag="0"/>
		</comp>
	</station>
	<station code="NPS1" name="NPS1" netid="HI" source="ITSAK Strong Motion Network" insttype="" lat="36.51263" lon="23.06248">
		<comp name="--.HNE" depth="0.0">
			<acc value="0.0176110349202248" flag="0"/>
			<vel value="0.00907592180233436" flag="0"/>
			<psa03 value="0.0592678220355893" flag="0"/>
			<psa10 value="0.00905194558447263" flag="0"/>
			<psa30 value="0.00058567765243783" flag="0"/>
		</comp>
		<comp name="--.HNN" depth="0.0">
			<acc value="0.0218164295897148" flag="0"/>
			<vel value="0.010488205353271" flag="0"/>
			<psa03 value="0.0453594006711635" flag="0"/>
			<psa10 value="0.0112669370042719" flag="0"/>
			<psa30 value="0.000642924205156574" flag="0"/>
		</comp>
		<comp name="--.HNZ" depth="0.0">
			<acc value="0.0151330097884198" flag="0"/>
			<vel value="0.00506115713823494" flag="0"/>
			<psa03 value="0.0355546548005758" flag="0"/>
			<psa10 value="0.00393124081603705" flag="0"/>
			<psa30 value="0.000584237244517786" flag="0"/>
		</comp>
	</station>
	<station code="PYL1" name="PYL1" netid="HI" source="ITSAK Strong Motion Network" insttype="" lat="36.914188" lon="21.695161">
		<comp name="--.HNE" depth="0.0">
			<acc value="0.0106230979491223" flag="0"/>
			<vel value="0.00717348571364723" flag="0"/>
			<psa03 value="0.0313197570718745" flag="0"/>
			<psa10 value="0.0144138042188089" flag="0"/>
			<psa30 value="0.00185516081196473" flag="0"/>
		</comp>
		<comp name="--.HNN" depth="0.0">
			<acc value="0.00930060054987217" flag="0"/>
			<vel value="0.00488888582353848" flag="0"/>
			<psa03 value="0.017248047546426" flag="0"/>
			<psa10 value="0.00758392817925938" flag="0"/>
			<psa30 value="0.00135392229487574" flag="0"/>
		</comp>
		<comp name="--.HNZ" depth="0.0">
			<acc value="0.00921295863827863" flag="0"/>
			<vel value="0.00538644903383706" flag="0"/>
			<psa03 value="0.0118265751192359" flag="0"/>
			<psa10 value="0.00739495175425205" flag="0"/>
			<psa30 value="0.00132069248939572" flag="0"/>
		</comp>
	</station>
	<station code="SKO1" name="SKO1" netid="HI" source="ITSAK Strong Motion Network" insttype="" lat="39.123383" lon="23.728705">
		<comp name="--.HNE" depth="0.0">
			<acc value="0.0155346121129436" flag="0"/>
			<vel value="0.00693884312502117" flag="0"/>
			<psa03 value="0.0265393987299044" flag="0"/>
			<psa10 value="0.00922395072895021" flag="0"/>
			<psa30 value="0.000372524782105277" flag="0"/>
		</comp>
		<comp name="--.HNN" depth="0.0">
			<acc value="0.0157441456377974" flag="0"/>
			<vel value="0.00545445301276097" flag="0"/>
			<psa03 value="0.022483291491057" flag="0"/>
			<psa10 value="0.00664445156853743" flag="0"/>
			<psa30 value="0.000433384334585298" flag="0"/>
		</comp>
		<comp name="--.HNZ" depth="0.0">
			<acc value="0.00880385420699958" flag="0"/>
			<vel value="0.00334471353274694" flag="0"/>
			<psa03 value="0.01264177755989" flag="0"/>
			<psa10 value="0.00390817444425109" flag="0"/>
			<psa30 value="0.000333442193075711" flag="0"/>
		</comp>
	</station>
	<station code="VAS2" name="VAS2" netid="HI" source="ITSAK Strong Motion Network" insttype="" lat="38.630558" lon="20.608081">
		<comp name="--.HNE" depth="0.0">
			<acc value="0.130888448032632" flag="0"/>
			<vel value="0.0884416270481211" flag="0"/>
			<psa03 value="0.342794729301907" flag="0"/>
			<psa10 value="0.117019984499502" flag="0"/>
			<psa30 value="0.00636502831854784" flag="0"/>
		</comp>
		<comp name="--.HNN" depth="0.0">
			<acc value="0.178646442055868" flag="0"/>
			<vel value="0.145211617754031" flag="0"/>
			<psa03 value="0.274051217047961" flag="0"/>
			<psa10 value="0.25369164582638" flag="0"/>
			<psa30 value="0.00981073074608492" flag="0"/>
		</comp>
		<comp name="--.HNZ" depth="0.0">
			<acc value="0.0815034745947234" flag="0"/>
			<vel value="0.0533199433807347" flag="0"/>
			<psa03 value="0.145539516278537" flag="0"/>
			<psa10 value="0.0629450022976542" flag="0"/>
			<psa30 value="0.00338885595341075" flag="0"/>
		</comp>
	</station>
	<station code="ATHP" name="ATHP" netid="HL" source="National Observatory of Athens Seismic Network" insttype="" lat="38.000799" lon="23.773487">
		<comp name="00.HNE" depth="0.0">
			<acc value="0.044158822432355" flag="0"/>
			<vel value="0.0307753344105643" flag="0"/>
			<psa03 value="0.152143089149819" flag="0"/>
			<psa10 value="0.0175041495640226" flag="0"/>
			<psa30 value="0.00106896060505945" flag="0"/>
		</comp>
		<comp name="00.HNN" depth="0.0">
			<acc value="0.0354190947819825" flag="0"/>
			<vel value="0.0233970679665556" flag="0"/>
			<psa03 value="0.0777082207047899" flag="0"/>
			<psa10 value="0.0159320829222949" flag="0"/>
			<psa30 value="0.00107763367960895" flag="0"/>
		</comp>
		<comp name="00.HNZ" depth="0.0">
			<acc value="0.0277648295177302" flag="0"/>
			<vel value="0.0107237675716016" flag="0"/>
			<psa03 value="0.0436435057513873" flag="0"/>
			<psa10 value="0.00919950473453365" flag="0"/>
			<psa30 value="0.00117560902416265" flag="0"/>
		</comp>
	</station>
	<station code="DLFA" name="DLFA" netid="HL" source="National Observatory of Athens Seismic Network" insttype="" lat="38.47836" lon="22.49583">
		<comp name="00.HNE" depth="0.0">
			<acc value="0.115331874772688" flag="0"/>
			<vel value="0.038049855405349" flag="0"/>
			<psa03 value="0.113712543314575" flag="0"/>
			<psa10 value="0.0188127162501216" flag="0"/>
			<psa30 value="0.00187179483055525" flag="0"/>
		</comp>
		<comp name="00.HNN" depth="0.0">
			<acc value="0.114856057101548" flag="0"/>
			<vel value="0.0267724327392183" flag="0"/>
			<psa03 value="0.122627040106365" flag="0"/>
			<psa10 value="0.0247533704143053" flag="0"/>
			<psa30 value="0.00162400497819415" flag="0"/>
		</comp>
		<comp name="00.HNZ" depth="0.0">
			<acc value="0.113491163947788" flag="0"/>
			<vel value="0.0380531525484771" flag="0"/>
			<psa03 value="0.0861246376262197" flag="0"/>
			<psa10 value="0.0284703897735832" flag="0"/>
			<psa30 value="0.00215141939597825" flag="0"/>
		</comp>
	</station>
	<station code="ITM" name="ITM" netid="HL" source="National Observatory of Athens Seismic Network" insttype="" lat="37.17872" lon="21.92522">
		<comp name="--.HNE" depth="0.0">
			<acc value="0.0319786668677447" flag="0"/>
			<vel value="0.0143477643570055" flag="0"/>
			<psa03 value="0.0740610832667022" flag="0"/>
			<psa10 value="0.0130711346485301" flag="0"/>
			<psa30 value="0.00181040743060899" flag="0"/>
		</comp>
		<comp name="--.HNN" depth="0.0">
			<acc value="0.0242761370760633" flag="0"/>
			<vel value="0.0109171838444694" flag="0"/>
			<psa03 value="0.056130379820312" flag="0"/>
			<psa10 value="0.0175998446533266" flag="0"/>
			<psa30 value="0.00137991068314396" flag="0"/>
		</comp>
		<comp name="--.HNZ" depth="0.0">
			<acc value="0.0174565519168109" flag="0"/>
			<vel value="0.00877728395315296" flag="0"/>
			<psa03 value="0.0400870800514823" flag="0"/>
			<psa10 value="0.0139992311303448" flag="0"/>
			<psa30 value="0.0020988032020794" flag="0"/>
		</comp>
	</station>
	<station code="MNVA" name="MNVA" netid="HL" source="National Observatory of Athens Seismic Network" insttype="" lat="36.68709" lon="23.03734">
		<comp name="00.HNE" depth="0.0">
			<acc value="0.00855035908694515" flag="0"/>
			<vel value="0.00443724465236507" flag="0"/>
			<psa03 value="0.0178389669002689" flag="0"/>
			<psa10 value="0.00324443860000899" flag="0"/>
			<psa30 value="0.000557289834383711" flag="0"/>
		</comp>
		<comp name="00.HNN" depth="0.0">
			<acc value="0.0115426293556672" flag="0"/>
			<vel value="0.00295212740750027" flag="0"/>
			<psa03 value="0.0214133026407883" flag="0"/>
			<psa10 value="0.0033868561594721" flag="0"/>
			<psa30 value="0.000586934871137752" flag="0"/>
		</comp>
		<comp name="00.HNZ" depth="0.0">
			<acc value="0.0108380200634229" flag="0"/>
			<vel value="0.0026853410744383" flag="0"/>
			<psa03 value="0.0185357031597702" flag="0"/>
			<psa10 value="0.00234020424579676" flag="0"/>
			<psa30 value="0.00059957800035071" flag="0"/>
		</comp>
	</station>
	<station code="NOAC" name="NOAC" netid="HL" source="National Observatory of Athens Seismic Network" insttype="" lat="37.97384" lon="23.71767">
		<comp name="00.HNE" depth="0.0">
			<acc value="0.0531811549815157" flag="0"/>
			<vel value="0.0279452494146839" flag="0"/>
			<psa03 value="0.0927542174281344" flag="0"/>
			<psa10 value="0.0172663388101931" flag="0"/>
			<psa30 value="0.00148576509131268" flag="0"/>
		</comp>
		<comp name="00.HNN" depth="0.0">
			<acc value="0.0454468915395648" flag="0"/>
			<vel value="0.0220914947051464" flag="0"/>
			<psa03 value="0.0708408803605352" flag="0"/>
			<psa10 value="0.0145859124951152" flag="0"/>
			<psa30 value="0.000787847711878002" flag="0"/>
		</comp>
		<comp name="00.HNZ" depth="0.0">
			<acc value="0.0393954781652452" flag="0"/>
			<vel value="0.0110219715401508" flag="0"/>
			<psa03 value="0.0421025104388655" flag="0"/>
			<psa10 value="0.00725113300821293" flag="0"/>
			<psa30 value="0.00130034666241792" flag="0"/>
		</comp>
	</station>
