<?xml version="1.0" encoding="UTF-8" standalone="yes"?>
<!DOCTYPE earthquake SYSTEM "stationlist.dtd">
<stationlist created="" xmlns="ch.ethz.sed.shakemap.usgs.xml">
  <station code="ACOR" name="ACOR" netid="HA" insttype="30" lat="37.8902" lon="22.8692">
    <comp name="--.HHE">
      <acc value="0.0443924535" flag="0"/>
      <vel value="0.0153155875" flag="0"/>
      <psa03 value="0.0712193964" flag="0"/>
      <psa10 value="0.0154608087" flag="0"/>
      <psa30 value="0.0016854534" flag="0"/>
    </comp>
    <comp name="--.HHZ">
      <acc value="0.0355970138" flag="0"/>
      <vel value="0.0147293626" flag="0"/>
      <psa03 value="0.0469133586" flag="0"/>
      <psa10 value="0.0195202007" flag="0"/>
      <psa30 value="0.0017963525" flag="0"/>
    </comp>
    <comp name="--.HHN">
      <acc value="0.1928472251" flag="0"/>
      <vel value="0.0711867800" flag="0"/>
      <psa03 value="0.2808962602" flag="0"/>
      <psa10 value="0.0707563812" flag="0"/>
      <psa30 value="0.0050395920" flag="0"/>
    </comp>
  </station>
  <station code="ATAL" name="ATAL" netid="HA" insttype="120" lat="38.6926" lon="23.0213">
    <comp name="--.HHN">
      <acc value="0.0431636413" flag="0"/>
      <vel value="0.0147311001" flag="0"/>
      <psa03 value="0.0625934263" flag="0"/>
      <psa10 value="0.0145449031" flag="0"/>
      <psa30 value="0.0015548902" flag="0"/>
    </comp>
    <comp name="--.HHE">
      <acc value="0.0301308275" flag="0"/>
      <vel value="0.0109058359" flag="0"/>
      <psa03 value="0.0517948165" flag="0"/>
      <psa10 value="0.0077968039" flag="0"/>
      <psa30 value="0.0010110789" flag="0"/>
    </comp>
    <comp name="--.HHZ">
      <acc value="0.0307899333" flag="0"/>
      <vel value="0.0125098851" flag="0"/>
      <psa03 value="0.0365591910" flag="0"/>
      <psa10 value="0.0107667469" flag="0"/>
      <psa30 value="0.0014983238" flag="0"/>
    </comp>
  </station>
  <station code="AXAR" name="AXAR" netid="HA" insttype="30" lat="38.7664" lon="22.659">
    <comp name="--.HHZ">
      <acc value="0.0075224699" flag="0"/>
      <vel value="0.0037395274" flag="0"/>
      <psa03 value="0.0117354768" flag="0"/>
      <psa10 value="0.0034302837" flag="0"/>
      <psa30 value="0.0005957395" flag="0"/>
    </comp>
    <comp name="--.HHE">
      <acc value="0.0126549593" flag="0"/>
      <vel value="0.0073915018" flag="0"/>
      <psa03 value="0.0381807408" flag="0"/>
      <psa10 value="0.0041314440" flag="0"/>
      <psa30 value="0.0003546011" flag="0"/>
    </comp>
    <comp name="--.HHN">
      <acc value="0.0152255523" flag="0"/>
      <vel value="0.0061139186" flag="0"/>
      <psa03 value="0.0286340659" flag="0"/>
      <psa10 value="0.0058102706" flag="0"/>
      <psa30 value="0.0008695391" flag="0"/>
    </comp>
  </station>
  <station code="EPID" name="EPID" netid="HA" insttype="30" lat="37.6144" lon="23.1189">
    <comp name="--.HHN">
      <acc value="0.1144876498" flag="0"/>
      <vel value="0.0292823440" flag="0"/>
      <psa03 value="0.1048811157" flag="0"/>
      <psa10 value="0.0165934394" flag="0"/>
      <psa30 value="0.0013308546" flag="0"/>
    </comp>
    <comp name="--.HHE">
      <acc value="0.0704910419" flag="0"/>
      <vel value="0.0235277869" flag="0"/>
      <psa03 value="0.0941562422" flag="0"/>
      <psa10 value="0.0332658280" flag="0"/>
      <psa30 value="0.0012019538" flag="0"/>
    </comp>
    <comp name="--.HHZ">
      <acc value="0.0954507706" flag="0"/>
      <vel value="0.0249366893" flag="0"/>
      <psa03 value="0.0990721425" flag="0"/>
      <psa10 value="0.0131798841" flag="0"/>
      <psa30 value="0.0015522173" flag="0"/>
    </comp>
  </station>
  <station code="KALE" name="KALE" netid="HA" insttype="40," lat="38.3911" lon="22.1398">
    <comp name="--.HHZ">
      <acc value="0.7560798459" flag="0"/>
      <vel value="0.1835508806" flag="0"/>
      <psa03 value="0.2776464126" flag="0"/>
      <psa10 value="0.0510253298" flag="0"/>
      <psa30 value="0.0040142414" flag="0"/>
    </comp>
    <comp name="--.HHN">
      <acc value="0.4774822018" flag="0"/>
      <vel value="0.1286984554" flag="0"/>
      <psa03 value="0.4217682399" flag="0"/>
      <psa10 value="0.0702199932" flag="0"/>
      <psa30 value="0.0046955346" flag="0"/>
    </comp>
    <comp name="--.HHE">
      <acc value="0.3994701921" flag="0"/>
      <vel value="0.1139847494" flag="0"/>
      <psa03 value="0.4557980086" flag="0"/>
      <psa10 value="0.0377787050" flag="0"/>
      <psa30 value="0.0039005876" flag="0"/>
    </comp>
  </station>
  <station code="LOUT" name="LOUT" netid="HA" insttype="30" lat="37.9879" lon="22.9743">
    <comp name="--.HHZ">
      <acc value="0.0750208552" flag="0"/>
      <vel value="0.0191715514" flag="0"/>
      <psa03 value="0.0817769288" flag="0"/>
      <psa10 value="0.0220710076" flag="0"/>
      <psa30 value="0.0012801742" flag="0"/>
    </comp>
    <comp name="--.HHN">
      <acc value="0.1065095128" flag="0"/>
      <vel value="0.0360450398" flag="0"/>
      <psa03 value="0.1384192534" flag="0"/>
      <psa10 value="0.0481285022" flag="0"/>
      <psa30 value="0.0019290894" flag="0"/>
    </comp>
    <comp name="--.HHE">
      <acc value="0.1266535089" flag="0"/>
      <vel value="0.0404967198" flag="0"/>
      <psa03 value="0.1351671574" flag="0"/>
      <psa10 value="0.0781136460" flag="0"/>
      <psa30 value="0.0026003064" flag="0"/>
    </comp>
  </station>
  <station code="LTRS" name="LTRS" netid="HA" insttype="DC" lat="37.9753" lon="22.9765">
    <comp name="--.HNN">
      <acc value="0.0924497068" flag="0"/>
      <vel value="0.0621578690" flag="0"/>
      <psa03 value="0.2417680947" flag="0"/>
      <psa10 value="0.0752504356" flag="0"/>
      <psa30 value="0.0040987232" flag="0"/>
    </comp>
    <comp name="--.HNZ">
      <acc value="0.0970924422" flag="0"/>
      <vel value="0.0528332433" flag="0"/>
      <psa03 value="0.1137972960" flag="0"/>
      <psa10 value="0.0512328282" flag="0"/>
      <psa30 value="0.0029897867" flag="0"/>
    </comp>
    <comp name="--.HNE">
      <acc value="0.0952888421" flag="0"/>
      <vel value="0.0702200581" flag="0"/>
      <psa03 value="0.1733314032" flag="0"/>
      <psa10 value="0.1331645966" flag="0"/>
      <psa30 value="0.0051398685" flag="0"/>
    </comp>
  </station>
  <station code="MDRA" name="MDRA" netid="HA" insttype="30" lat="38.0606" lon="23.4662">
    <comp name="--.HHN">
      <acc value="0.0513347252" flag="0"/>
      <vel value="0.0178108711" flag="0"/>
      <psa03 value="0.0809061019" flag="0"/>
      <psa10 value="0.0162848519" flag="0"/>
      <psa30 value="0.0011927771" flag="0"/>
    </comp>
    <comp name="--.HHZ">
      <acc value="0.0315474099" flag="0"/>
      <vel value="0.0150622788" flag="0"/>
      <psa03 value="0.0486528381" flag="0"/>
      <psa10 value="0.0117295201" flag="0"/>
      <psa30 value="0.0009732105" flag="0"/>
    </comp>
    <comp name="--.HHE">
      <acc value="0.0498699160" flag="0"/>
      <vel value="0.0329398151" flag="0"/>
      <psa03 value="0.1289818254" flag="0"/>
      <psa10 value="0.0188973831" flag="0"/>
      <psa30 value="0.0015351423" flag="0"/>
    </comp>
  </station>
  <station code="MRKA" name="MRKA" netid="HA" insttype="30" lat="38.7047" lon="23.5863">
    <comp name="--.HHE">
      <acc value="0.0511233760" flag="0"/>
      <vel value="0.0156811518" flag="0"/>
      <psa03 value="0.0815761707" flag="0"/>
      <psa10 value="0.0124150717" flag="0"/>
      <psa30 value="0.0006302496" flag="0"/>
    </comp>
    <comp name="--.HHZ">
      <acc value="0.0250931491" flag="0"/>
      <vel value="0.0115447933" flag="0"/>
      <psa03 value="0.0638960370" flag="0"/>
      <psa10 value="0.0074867929" flag="0"/>
      <psa30 value="0.0005782550" flag="0"/>
    </comp>
    <comp name="--.HHN">
      <acc value="0.0330507934" flag="0"/>
      <vel value="0.0172180654" flag="0"/>
      <psa03 value="0.0905359241" flag="0"/>
      <psa10 value="0.0138064917" flag="0"/>
      <psa30 value="0.0006642764" flag="0"/>
    </comp>
  </station>
  <station code="STFN" name="STFN" netid="HA" insttype="1s-100Hz," lat="38.1766" lon="23.544">
    <comp name="--.HHZ">
      <acc value="0.0235008346" flag="0"/>
      <vel value="0.0103479823" flag="0"/>
      <psa03 value="0.0324586363" flag="0"/>
      <psa10 value="0.0142499284" flag="0"/>
      <psa30 value="0.0014972163" flag="0"/>
    </comp>
    <comp name="--.HHN">
      <acc value="0.0347439241" flag="0"/>
      <vel value="0.0183854599" flag="0"/>
      <psa03 value="0.0474064811" flag="0"/>
      <psa10 value="0.0167962940" flag="0"/>
      <psa30 value="0.0013419146" flag="0"/>
    </comp>
    <comp name="--.HHE">
      <acc value="0.0330182196" flag="0"/>
      <vel value="0.0123476980" flag="0"/>
      <psa03 value="0.0477391766" flag="0"/>
      <psa10 value="0.0183587735" flag="0"/>
      <psa30 value="0.0012278456" flag="0"/>
    </comp>
  </station>
  <station code="THAL" name="THAL" netid="HA" insttype="30" lat="38.0357" lon="22.6634">
    <comp name="--.HHZ">
      <acc value="0.4384206744" flag="0"/>
      <vel value="0.1061591690" flag="0"/>
      <psa03 value="0.5016608240" flag="0"/>
      <psa10 value="0.0552672868" flag="0"/>
      <psa30 value="0.0039367910" flag="0"/>
    </comp>
    <comp name="--.HHE">
      <acc value="0.5904771444" flag="0"/>
      <vel value="0.2109975081" flag="0"/>
      <psa03 value="0.8168634875" flag="0"/>
      <psa10 value="0.1751235907" flag="0"/>
      <psa30 value="0.0083779848" flag="0"/>
    </comp>
    <comp name="--.HHN">
      <acc value="0.7112236129" flag="0"/>
      <vel value="0.1638614958" flag="0"/>
      <psa03 value="0.6420574801" flag="0"/>
      <psa10 value="0.0953322275" flag="0"/>
      <psa30 value="0.0050964148" flag="0"/>
    </comp>
  </station>
  <station code="XLKS" name="XLKS" netid="HA" insttype="DC" lat="38.0772" lon="22.6361">
    <comp name="--.HNN">
      <acc value="0.6096075813" flag="0"/>
      <vel value="0.1366178663" flag="0"/>
      <psa03 value="0.5777690622" flag="0"/>
      <psa10 value="0.1787763368" flag="0"/>
      <psa30 value="0.0082086790" flag="0"/>
    </comp>
    <comp name="--.HNE">
      <acc value="0.5764983089" flag="0"/>
      <vel value="0.1462362777" flag="0"/>
      <psa03 value="0.4661062261" flag="0"/>
      <psa10 value="0.1720594489" flag="0"/>
      <psa30 value="0.0099215527" flag="0"/>
    </comp>
    <comp name="--.HNZ">
      <acc value="0.3477593754" flag="0"/>
      <vel value="0.0715160398" flag="0"/>
      <psa03 value="0.3794571738" flag="0"/>
      <psa10 value="0.0531553670" flag="0"/>
      <psa30 value="0.0041650201" flag="0"/>
    </comp>
  </station>
  <station code="STPG" name="STPG" netid="HC" insttype="60" lat="36.9347" lon="22.1902">
    <comp name="--.HHN">
      <acc value="0.0430705858" flag="0"/>
      <vel value="0.0205524113" flag="0"/>
      <psa03 value="0.1145989207" flag="0"/>
      <psa10 value="0.0264494055" flag="0"/>
      <psa30 value="0.0014962779" flag="0"/>
    </comp>
    <comp name="--.HHZ">
      <acc value="0.0333473985" flag="0"/>
      <vel value="0.0137368447" flag="0"/>
      <psa03 value="0.0736425484" flag="0"/>
      <psa10 value="0.0137161990" flag="0"/>
      <psa30 value="0.0012611432" flag="0"/>
    </comp>
    <comp name="--.HHE">
      <acc value="0.0586669515" flag="0"/>
      <vel value="0.0289296862" flag="0"/>
      <psa03 value="0.1676097225" flag="0"/>
      <psa10 value="0.0393604810" flag="0"/>
      <psa30 value="0.0025234742" flag="0"/>
    </comp>
  </station>
  <station code="KLV1" name="KLV1" netid="HI" insttype="CMG-5TD,ACCELEROMETER,GURALP" lat="38.0326" lon="22.108">
    <comp name="--.HNN">
      <acc value="0.6705085884" flag="0"/>
      <vel value="0.2586788639" flag="0"/>
      <psa03 value="0.7498557630" flag="0"/>
      <psa10 value="0.1870689635" flag="0"/>
      <psa30 value="0.0102984975" flag="0"/>
    </comp>
    <comp name="--.HNE">
      <acc value="0.5162590536" flag="0"/>
      <vel value="0.2568709750" flag="0"/>
      <psa03 value="1.2417933669" flag="0"/>
      <psa10 value="0.1877120381" flag="0"/>
      <psa30 value="0.0131530039" flag="0"/>
    </comp>
    <comp name="--.HNZ">
      <acc value="0.4109350255" flag="0"/>
      <vel value="0.1277964012" flag="0"/>
      <psa03 value="0.4288701929" flag="0"/>
      <psa10 value="0.0973627719" flag="0"/>
      <psa30 value="0.0040468843" flag="0"/>
    </comp>
  </station>
  <station code="MSL1" name="MSL1" netid="HI" insttype="CMG-5TD,ACCELEROMETER,GURALP" lat="38.3727" lon="21.4243">
    <comp name="--.HNE">
      <acc value="0.1774945620" flag="0"/>
      <vel value="0.1062470750" flag="0"/>
      <psa03 value="0.4356815435" flag="0"/>
      <psa10 value="0.1649375725" flag="0"/>
      <psa30 value="0.0102781385" flag="0"/>
    </comp>
    <comp name="--.HNN">
      <acc value="0.2231334984" flag="0"/>
      <vel value="0.1062529816" flag="0"/>
      <psa03 value="0.4928893258" flag="0"/>
      <psa10 value="0.1773699458" flag="0"/>
      <psa30 value="0.0118599085" flag="0"/>
    </comp>
    <comp name="--.HNZ">
      <acc value="0.1082315829" flag="0"/>
      <vel value="0.0612705800" flag="0"/>
      <psa03 value="0.1407400612" flag="0"/>
      <psa10 value="0.1146658767" flag="0"/>
      <psa30 value="0.0049287230" flag="0"/>
    </comp>
  </station>
  <station code="PYL1" name="PYL1" netid="HI" insttype="CMG-5TD,ACCELEROMETER,GURALP" lat="36.9142" lon="21.6952">
    <comp name="--.HNN">
      <acc value="0.0094623558" flag="0"/>
      <vel value="0.0047599754" flag="0"/>
      <psa03 value="0.0166404111" flag="0"/>
      <psa10 value="0.0075980392" flag="0"/>
      <psa30 value="0.0012007915" flag="0"/>
    </comp>
    <comp name="--.HNE">
      <acc value="0.0107176077" flag="0"/>
      <vel value="0.0071466793" flag="0"/>
      <psa03 value="0.0312693902" flag="0"/>
      <psa10 value="0.0144457430" flag="0"/>
      <psa30 value="0.0016224461" flag="0"/>
    </comp>
    <comp name="--.HNZ">
      <acc value="0.0096363928" flag="0"/>
      <vel value="0.0054785541" flag="0"/>
      <psa03 value="0.0118265396" flag="0"/>
      <psa10 value="0.0073704679" flag="0"/>
      <psa30 value="0.0012495151" flag="0"/>
    </comp>
  </station>
  <station code="ATH" name="ATH" netid="HL" insttype="DR24" lat="37.9738" lon="23.7177">
    <comp name="--.HHN">
      <acc value="0.0481111010" flag="0"/>
      <vel value="0.0229072376" flag="0"/>
      <psa03 value="0.0714457160" flag="0"/>
      <psa10 value="0.0146400977" flag="0"/>
      <psa30 value="0.0007360763" flag="0"/>
    </comp>
    <comp name="--.HHZ">
      <acc value="0.0391604674" flag="0"/>
      <vel value="0.0105397619" flag="0"/>
      <psa03 value="0.0412253765" flag="0"/>
      <psa10 value="0.0074102168" flag="0"/>
      <psa30 value="0.0012219272" flag="0"/>
    </comp>
    <comp name="--.HHE">
      <acc value="0.0508572021" flag="0"/>
      <vel value="0.0273391332" flag="0"/>
      <psa03 value="0.0905200531" flag="0"/>
      <psa10 value="0.0167611074" flag="0"/>
      <psa30 value="0.0014015506" flag="0"/>
    </comp>
  </station>
  <station code="DLFA" name="DLFA" netid="HL" insttype="CMG-5" lat="38.4784" lon="22.4958">
    <comp name="00.HNE">
      <acc value="0.1153746678" flag="0"/>
      <vel value="0.0379855662" flag="0"/>
      <psa03 value="0.1132575179" flag="0"/>
      <psa10 value="0.0187767113" flag="0"/>
      <psa30 value="0.0018572208" flag="0"/>
    </comp>
    <comp name="00.HNN">
      <acc value="0.1139900828" flag="0"/>
      <vel value="0.0267354421" flag="0"/>
      <psa03 value="0.1229037637" flag="0"/>
      <psa10 value="0.0247610330" flag="0"/>
      <psa30 value="0.0015596108" flag="0"/>
    </comp>
    <comp name="00.HNZ">
      <acc value="0.1128672923" flag="0"/>
      <vel value="0.0369092094" flag="0"/>
      <psa03 value="0.0856647161" flag="0"/>
      <psa10 value="0.0284718882" flag="0"/>
      <psa30 value="0.0018751706" flag="0"/>
    </comp>
  </station>
  <station code="EVR" name="EVR" netid="HL" insttype="DR24" lat="38.9166" lon="21.8105">
    <comp name="--.HHZ">
      <acc value="0.0303808821" flag="0"/>
      <vel value="0.0129890992" flag="0"/>
      <psa03 value="0.0659767613" flag="0"/>
      <psa10 value="0.0164013844" flag="0"/>
      <psa30 value="0.0025140786" flag="0"/>
    </comp>
    <comp name="--.HHE">
      <acc value="0.0449311944" flag="0"/>
      <vel value="0.0366115223" flag="0"/>
      <psa03 value="0.1092079799" flag="0"/>
      <psa10 value="0.0217696552" flag="0"/>
      <psa30 value="0.0036310588" flag="0"/>
    </comp>
    <comp name="--.HHN">
      <acc value="0.0432549510" flag="0"/>
      <vel value="0.0273241119" flag="0"/>
      <psa03 value="0.1118924526" flag="0"/>
      <psa10 value="0.0215664507" flag="0"/>
      <psa30 value="0.0030073360" flag="0"/>
    </comp>
  </station>
  <station code="ITM" name="ITM" netid="HL" insttype="DR24" lat="37.1787" lon="21.9252">
    <comp name="--.HHN">
      <acc value="0.0245262375" flag="0"/>
      <vel value="0.0111799238" flag="0"/>
      <psa03 value="0.0568063036" flag="0"/>
      <psa10 value="0.0180312991" flag="0"/>
      <psa30 value="0.0012807947" flag="0"/>
    </comp>
    <comp name="--.HHE">
      <acc value="0.0319535279" flag="0"/>
      <vel value="0.0149598634" flag="0"/>
      <psa03 value="0.0738752392" flag="0"/>
      <psa10 value="0.0133585150" flag="0"/>
      <psa30 value="0.0017742201" flag="0"/>
    </comp>
    <comp name="--.HHZ">
      <acc value="0.0170370171" flag="0"/>
      <vel value="0.0095653610" flag="0"/>
      <psa03 value="0.0433210822" flag="0"/>
      <psa10 value="0.0150476031" flag="0"/>
      <psa30 value="0.0020473460" flag="0"/>
    </comp>
  </station>
  <station code="KLV" name="KLV" netid="HL" insttype="120" lat="38.0435" lon="22.1504">
    <comp name="--.HHE">
      <acc value="0.1641611054" flag="0"/>
      <vel value="0.0607467661" flag="0"/>
      <psa03 value="0.1553248065" flag="0"/>
      <psa10 value="0.0598019472" flag="0"/>
      <psa30 value="0.0052947435" flag="0"/>
    </comp>
    <comp name="--.HHN">
      <acc value="0.2521384903" flag="0"/>
      <vel value="0.1174724444" flag="0"/>
      <psa03 value="0.1899116426" flag="0"/>
      <psa10 value="0.0854020309" flag="0"/>
      <psa30 value="0.0057300571" flag="0"/>
    </comp>
    <comp name="--.HHZ">
      <acc value="0.2661491018" flag="0"/>
      <vel value="0.0761314391" flag="0"/>
      <psa03 value="0.1528398660" flag="0"/>
      <psa10 value="0.0541608254" flag="0"/>
      <psa30 value="0.0028441504" flag="0"/>
    </comp>
  </station>
  <station code="LKR" name="LKR" netid="HL" insttype="30" lat="38.6496" lon="22.9989">
    <comp name="--.HHZ">
      <acc value="0.0692698493" flag="0"/>
      <vel value="0.0201892440" flag="0"/>
      <psa03 value="0.0768282728" flag="0"/>
      <psa10 value="0.0079747192" flag="0"/>
      <psa30 value="0.0016006233" flag="0"/>
    </comp>
    <comp name="--.HHE">
      <acc value="0.1883416142" flag="0"/>
      <vel value="0.0457457933" flag="0"/>
      <psa03 value="0.1220785090" flag="0"/>
      <psa10 value="0.0135020743" flag="0"/>
      <psa30 value="0.0015752088" flag="0"/>
    </comp>
    <comp name="--.HHN">
      <acc value="0.1804023092" flag="0"/>
      <vel value="0.0599623571" flag="0"/>
      <psa03 value="0.1306836625" flag="0"/>
      <psa10 value="0.0154276729" flag="0"/>
      <psa30 value="0.0016157023" flag="0"/>
    </comp>
  </station>
  <station code="PATC" name="PATC" netid="HL" insttype="CMG-5" lat="38.2693" lon="21.76">
    <comp name="00.HNE">
      <acc value="0.5658154350" flag="0"/>
      <vel value="0.2903663120" flag="0"/>
      <psa03 value="1.1120969180" flag="0"/>
      <psa10 value="0.2433964389" flag="0"/>
      <psa30 value="0.0245244259" flag="0"/>
    </comp>
    <comp name="00.HNN">
      <acc value="0.5426190980" flag="0"/>
      <vel value="0.3062165631" flag="0"/>
