<stationlist created="1778550978">
	<station code="3502" name="3502" netid="TK" source="Turkish National Strong Motion Network (TNSMN)" insttype="" lat="38.45514" lon="27.22673">
		<comp name="00.HNE" depth="None">
			<acc value="0.489755069472131" flag="0"/>
			<vel value="0.372097202560634" flag="0"/>
			<psa03 value="1.28208793064658" flag="0"/>
			<psa10 value="0.348229488954141" flag="0"/>
			<psa30 value="0.0183487789341532" flag="0"/>
		</comp>
		<comp name="00.HNN" depth="None">
			<acc value="0.626658583251357" flag="0"/>
			<vel value="0.462011986232021" flag="0"/>
			<psa03 value="1.83004573510055" flag="0"/>
			<psa10 value="0.28045444179085" flag="0"/>
			<psa30 value="0.0219813986894907" flag="0"/>
		</comp>
		<comp name="00.HNZ" depth="None">
			<acc value="0.259752826720687" flag="0"/>
			<vel value="0.124282743988041" flag="0"/>
			<psa03 value="0.757888237906905" flag="0"/>
			<psa10 value="0.147409016190757" flag="0"/>
			<psa30 value="0.00761422872229748" flag="0"/>
		</comp>
	</station>
</stationlist>
