<?xml version="1.0" encoding="UTF-8" standalone="yes"?>
<!DOCTYPE earthquake SYSTEM "stationlist.dtd">
<stationlist created="" xmlns="ch.ethz.sed.shakemap.usgs.xml">
  <station code="AMOE" name="AMOE" netid="ZZ" source="GFZ" insttype="L4-3D" lat="36.915" lon="25.979">
    <comp name="--.HHE">
      <acc value="0.0233998740" flag="0"/>
      <vel value="0.0107129363" flag="0"/>
      <psa03 value="0.0840996983" flag="0"/>
      <psa10 value="0.0076955137" flag="0"/>
      <psa30 value="0.0029291274" flag="0"/>
    </comp>
    <comp name="--.HHN">
      <acc value="0.0269538308" flag="0"/>
      <vel value="0.0125233510" flag="0"/>
      <psa03 value="0.0639931648" flag="0"/>
      <psa10 value="0.0079264529" flag="0"/>
      <psa30 value="0.0014105980" flag="0"/>
    </comp>
    <comp name="--.HHZ">
      <acc value="0.0208483778" flag="0"/>
      <vel value="0.0071129835" flag="0"/>
      <psa03 value="0.0469444162" flag="0"/>
      <psa10 value="0.0070456324" flag="0"/>
      <psa30 value="0.0010510119" flag="0"/>
    </comp>
  </station>
</stationlist>
