<stationlist created="1778138940">
	<station code="AGRP" name="AGRP" netid="CL" source="Corinth Riff Laboratory (CRLNET)" insttype="" lat="38.3959" lon="21.72277">
		<comp name="00.HNE" depth="0.0">
			<acc value="0.0559138732507232" flag="0"/>
			<vel value="0.0204947962115507" flag="0"/>
			<psa03 value="0.108703992772758" flag="0"/>
			<psa10 value="0.025427355687508" flag="0"/>
			<psa30 value="0.00149700260657496" flag="0"/>
		</comp>
		<comp name="00.HNN" depth="0.0">
			<acc value="0.0472994471233872" flag="0"/>
			<vel value="0.0187316001358416" flag="0"/>
			<psa03 value="0.0752015077726497" flag="0"/>
			<psa10 value="0.0227602146275108" flag="0"/>
			<psa30 value="0.00312305355363723" flag="0"/>
		</comp>
		<comp name="00.HNZ" depth="0.0">
			<acc value="0.0255702746318983" flag="0"/>
			<vel value="0.0107925393767213" flag="0"/>
			<psa03 value="0.0749760761721864" flag="0"/>
			<psa10 value="0.02481403630813" flag="0"/>
			<psa30 value="0.00133926371965061" flag="0"/>
		</comp>
	</station>
	<station code="ROD3" name="ROD3" netid="CL" source="Corinth Riff Laboratory (CRLNET)" insttype="" lat="38.30811" lon="21.89204">
		<comp name="00.HNE" depth="0.0">
			<acc value="0.0548592612133046" flag="0"/>
			<vel value="0.0258288014063045" flag="0"/>
			<psa03 value="0.263860750313113" flag="0"/>
			<psa10 value="0.0241110616144874" flag="0"/>
			<psa30 value="0.00162662098482354" flag="0"/>
		</comp>
		<comp name="00.HNN" depth="0.0">
			<acc value="0.0748970524857138" flag="0"/>
			<vel value="0.0311193674911903" flag="0"/>
			<psa03 value="0.209855631072203" flag="0"/>
			<psa10 value="0.0103891360417932" flag="0"/>
			<psa30 value="0.00209509483141929" flag="0"/>
		</comp>
		<comp name="00.HNZ" depth="0.0">
			<acc value="0.0241742398605982" flag="0"/>
			<vel value="0.00743280228342624" flag="0"/>
			<psa03 value="0.0359271586437592" flag="0"/>
			<psa10 value="0.0089982017116894" flag="0"/>
			<psa30 value="0.000902489577170487" flag="0"/>
		</comp>
	</station>
	<station code="AIGS" name="AIGS" netid="HA" source="Hellenic Seismological Network, University of Athens, Seismological Laboratory (HA)" insttype="" lat="38.25001" lon="22.0878">
		<comp name="--.HNE" depth="0.0">
			<acc value="0.0308768326522313" flag="0"/>
			<vel value="0.0169375400707275" flag="0"/>
			<psa03 value="0.0686763255113191" flag="0"/>
			<psa10 value="0.0112321412617163" flag="0"/>
			<psa30 value="0.00216258055201625" flag="0"/>
		</comp>
		<comp name="--.HNN" depth="0.0">
			<acc value="0.0511587370673182" flag="0"/>
			<vel value="0.0163342174739073" flag="0"/>
			<psa03 value="0.116378376162786" flag="0"/>
			<psa10 value="0.00970939413720988" flag="0"/>
			<psa30 value="0.00164625238947624" flag="0"/>
		</comp>
		<comp name="--.HNZ" depth="0.0">
			<acc value="0.0148240084097056" flag="0"/>
			<vel value="0.00569411093488727" flag="0"/>
			<psa03 value="0.0195597501645492" flag="0"/>
			<psa10 value="0.00983525997520697" flag="0"/>
			<psa30 value="0.00172834845293562" flag="0"/>
		</comp>
	</station>
	<station code="DRES" name="DRES" netid="HA" source="Hellenic Seismological Network, University of Athens, Seismological Laboratory (HA)" insttype="" lat="38.319719" lon="21.853176">
		<comp name="--.HNE" depth="0.0">
			<acc value="0.0240559314056933" flag="0"/>
			<vel value="0.0167953756136634" flag="0"/>
			<psa03 value="0.0690398391756352" flag="0"/>
			<psa10 value="0.021856082233192" flag="0"/>
			<psa30 value="0.00165815536548796" flag="0"/>
		</comp>
		<comp name="--.HNN" depth="0.0">
			<acc value="0.0195900142150963" flag="0"/>
			<vel value="0.0109250935555897" flag="0"/>
			<psa03 value="0.0509393484402539" flag="0"/>
			<psa10 value="0.0142447805218101" flag="0"/>
			<psa30 value="0.00138251971014573" flag="0"/>
		</comp>
		<comp name="--.HNZ" depth="0.0">
			<acc value="0.0134522706693647" flag="0"/>
			<vel value="0.00734274006982372" flag="0"/>
			<psa03 value="0.0302070713827261" flag="0"/>
			<psa10 value="0.0109713921134018" flag="0"/>
			<psa30 value="0.00111390462404941" flag="0"/>
		</comp>
	</station>
	<station code="KIAS" name="KIAS" netid="HA" source="Hellenic Seismological Network, University of Athens, Seismological Laboratory (HA)" insttype="" lat="37.9875" lon="22.7543">
		<comp name="--.HNE" depth="0.0">
			<acc value="0.00538308614368527" flag="0"/>
			<vel value="0.00657583622026963" flag="0"/>
			<psa03 value="0.0125499798120676" flag="0"/>
			<psa10 value="0.0131896603127733" flag="0"/>
			<psa30 value="0.00202539479746447" flag="0"/>
		</comp>
		<comp name="--.HNN" depth="0.0">
			<acc value="0.00556374958277444" flag="0"/>
			<vel value="0.00585412816013684" flag="0"/>
			<psa03 value="0.012107381481703" flag="0"/>
			<psa10 value="0.00764162715779793" flag="0"/>
			<psa30 value="0.00196863228722527" flag="0"/>
		</comp>
		<comp name="--.HNZ" depth="0.0">
			<acc value="0.00474792001351469" flag="0"/>
			<vel value="0.00351813907361614" flag="0"/>
			<psa03 value="0.00971142588636492" flag="0"/>
			<psa10 value="0.00656004660214512" flag="0"/>
			<psa30 value="0.00135099001729232" flag="0"/>
		</comp>
	</station>
	<station code="LTRS" name="LTRS" netid="HA" source="Hellenic Seismological Network, University of Athens, Seismological Laboratory (HA)" insttype="" lat="37.97528" lon="22.9765">
		<comp name="--.HNE" depth="0.0">
			<acc value="0.00588498423373917" flag="0"/>
			<vel value="0.00782047904847548" flag="0"/>
			<psa03 value="0.0132085742219825" flag="0"/>
			<psa10 value="0.011390139228312" flag="0"/>
			<psa30 value="0.00154094239237042" flag="0"/>
		</comp>
		<comp name="--.HNN" depth="0.0">
			<acc value="0.0048153810379756" flag="0"/>
			<vel value="0.0053394385022202" flag="0"/>
			<psa03 value="0.0119450803654358" flag="0"/>
			<psa10 value="0.00959196354550262" flag="0"/>
			<psa30 value="0.000939454005048676" flag="0"/>
		</comp>
		<comp name="--.HNZ" depth="0.0">
			<acc value="0.00689931896113979" flag="0"/>
			<vel value="0.0038398096632933" flag="0"/>
			<psa03 value="0.00979340202002176" flag="0"/>
			<psa10 value="0.00586361093545445" flag="0"/>
			<psa30 value="0.000765180012338018" flag="0"/>
		</comp>
	</station>
	<station code="ARG2" name="ARG2" netid="HI" source="ITSAK Strong Motion Network" insttype="" lat="38.1783" lon="20.4878">
		<comp name="--.HNE" depth="0.0">
			<acc value="0.0475661449719972" flag="0"/>
			<vel value="0.0246622231712826" flag="0"/>
			<psa03 value="0.153084703610523" flag="0"/>
			<psa10 value="0.0124436890208089" flag="0"/>
			<psa30 value="0.00211222700800677" flag="0"/>
		</comp>
		<comp name="--.HNN" depth="0.0">
			<acc value="0.0419444500124233" flag="0"/>
			<vel value="0.0235505792313568" flag="0"/>
			<psa03 value="0.134745009529075" flag="0"/>
			<psa10 value="0.0166588998203742" flag="0"/>
			<psa30 value="0.0029634731905565" flag="0"/>
		</comp>
		<comp name="--.HNZ" depth="0.0">
			<acc value="0.0323729970348835" flag="0"/>
			<vel value="0.0150327528200604" flag="0"/>
			<psa03 value="0.119997220060264" flag="0"/>
			<psa10 value="0.0163661873045768" flag="0"/>
			<psa30 value="0.00117160188370872" flag="0"/>
		</comp>
	</station>
	<station code="ARS1" name="ARS1" netid="HI" source="ITSAK Strong Motion Network" insttype="" lat="37.6349" lon="22.7293">
		<comp name="--.HNE" depth="0.0">
			<acc value="0.00541533161357837" flag="0"/>
			<vel value="0.00651511786838252" flag="0"/>
			<psa03 value="0.0110360579076084" flag="0"/>
			<psa10 value="0.0107204367388219" flag="0"/>
			<psa30 value="0.00113191550468041" flag="0"/>
		</comp>
		<comp name="--.HNN" depth="0.0">
			<acc value="0.0043741784184983" flag="0"/>
			<vel value="0.00485385052960343" flag="0"/>
			<psa03 value="0.0156575424436978" flag="0"/>
			<psa10 value="0.0100303553993348" flag="0"/>
			<psa30 value="0.000848567619689158" flag="0"/>
		</comp>
		<comp name="--.HNZ" depth="0.0">
			<acc value="0.00265458832691439" flag="0"/>
			<vel value="0.00273574236345502" flag="0"/>
			<psa03 value="0.00689686118010175" flag="0"/>
			<psa10 value="0.00423474396850207" flag="0"/>
			<psa30 value="0.000945922141866804" flag="0"/>
		</comp>
	</station>
	<station code="ART2" name="ART2" netid="HI" source="ITSAK Strong Motion Network" insttype="" lat="39.1474" lon="20.9937">
		<comp name="--.HNE" depth="0.0">
			<acc value="0.0979615026500952" flag="0"/>
			<vel value="0.0397265936916357" flag="0"/>
			<psa03 value="0.124601650081046" flag="0"/>
			<psa10 value="0.0253925552571549" flag="0"/>
			<psa30 value="0.00296891459268908" flag="0"/>
		</comp>
		<comp name="--.HNN" depth="0.0">
			<acc value="0.111352640111835" flag="0"/>
			<vel value="0.0459119571606461" flag="0"/>
			<psa03 value="0.117133988718553" flag="0"/>
			<psa10 value="0.0734977138628715" flag="0"/>
			<psa30 value="0.00282881822865869" flag="0"/>
		</comp>
		<comp name="--.HNZ" depth="0.0">
			<acc value="0.064336551540293" flag="0"/>
			<vel value="0.022371287187543" flag="0"/>
			<psa03 value="0.0757943387114989" flag="0"/>
			<psa10 value="0.0243966055303655" flag="0"/>
			<psa30 value="0.00151984776578679" flag="0"/>
		</comp>
	</station>
	<station code="KLV1" name="KLV1" netid="HI" source="ITSAK Strong Motion Network" insttype="" lat="38.03256" lon="22.10797">
		<comp name="--.HNE" depth="0.0">
			<acc value="0.0148443866744563" flag="0"/>
			<vel value="0.0108588608352823" flag="0"/>
			<psa03 value="0.0705962808238169" flag="0"/>
			<psa10 value="0.00927928939490138" flag="0"/>
			<psa30 value="0.001288396391603" flag="0"/>
		</comp>
		<comp name="--.HNN" depth="0.0">
			<acc value="0.017112535730903" flag="0"/>
			<vel value="0.00852215155471401" flag="0"/>
			<psa03 value="0.0507607689018505" flag="0"/>
			<psa10 value="0.00746144740926081" flag="0"/>
			<psa30 value="0.00119884170904419" flag="0"/>
		</comp>
		<comp name="--.HNZ" depth="0.0">
			<acc value="0.00716483668064872" flag="0"/>
			<vel value="0.0061684771275734" flag="0"/>
			<psa03 value="0.0215415767633358" flag="0"/>
			<psa10 value="0.00927876342252241" flag="0"/>
			<psa30 value="0.000743108446039693" flag="0"/>
		</comp>
	</station>
	<station code="KRI1" name="KRI1" netid="HI" source="ITSAK Strong Motion Network" insttype="" lat="37.6621" lon="20.8172">
		<comp name="--.HNE" depth="0.0">
			<acc value="0.0161035825816239" flag="0"/>
			<vel value="0.00879462405257047" flag="0"/>
			<psa03 value="0.0529641231966844" flag="0"/>
			<psa10 value="0.0136814960194574" flag="0"/>
			<psa30 value="0.00116802091731864" flag="0"/>
		</comp>
		<comp name="--.HNN" depth="0.0">
			<acc value="0.0170949301299526" flag="0"/>
			<vel value="0.0115633801980514" flag="0"/>
			<psa03 value="0.0320960246416024" flag="0"/>
			<psa10 value="0.0194587415461333" flag="0"/>
			<psa30 value="0.00365804691098989" flag="0"/>
		</comp>
		<comp name="--.HNZ" depth="0.0">
			<acc value="0.00794003782134186" flag="0"/>
			<vel value="0.00467907645038108" flag="0"/>
			<psa03 value="0.0234933375683017" flag="0"/>
			<psa10 value="0.00575386694668887" flag="0"/>
			<psa30 value="0.00169512833559745" flag="0"/>
		</comp>
	</station>
	<station code="KRK1" name="KRK1" netid="HI" source="ITSAK Strong Motion Network" insttype="" lat="39.618861" lon="19.9202">
		<comp name="--.HNE" depth="0.0">
			<acc value="0.0252351609690723" flag="0"/>
			<vel value="0.00908094402121423" flag="0"/>
			<psa03 value="0.0486933142346201" flag="0"/>
			<psa10 value="0.00593788554327906" flag="0"/>
			<psa30 value="0.000930764471076249" flag="0"/>
		</comp>
		<comp name="--.HNN" depth="0.0">
			<acc value="0.024950530220268" flag="0"/>
			<vel value="0.00949479989850468" flag="0"/>
			<psa03 value="0.0431891345057152" flag="0"/>
			<psa10 value="0.00759024453520187" flag="0"/>
			<psa30 value="0.00114701317149186" flag="0"/>
		</comp>
		<comp name="--.HNZ" depth="0.0">
			<acc value="0.0108357409299017" flag="0"/>
			<vel value="0.00450209534234597" flag="0"/>
			<psa03 value="0.0223284452957535" flag="0"/>
			<psa10 value="0.00282589727995232" flag="0"/>
			<psa30 value="0.000697068469029685" flag="0"/>
		</comp>
	</station>
	<station code="LAM2" name="LAM2" netid="HI" source="ITSAK Strong Motion Network" insttype="" lat="38.90203" lon="22.431301">
		<comp name="--.HNE" depth="0.0">
			<acc value="0.0124680686986195" flag="0"/>
			<vel value="0.00717705589726374" flag="0"/>
			<psa03 value="0.0431112439291622" flag="0"/>
			<psa10 value="0.00660238409427414" flag="0"/>
			<psa30 value="0.00108027562545657" flag="0"/>
		</comp>
		<comp name="--.HNN" depth="0.0">
			<acc value="0.0219806143757017" flag="0"/>
			<vel value="0.00880162962247452" flag="0"/>
			<psa03 value="0.0352008240693161" flag="0"/>
			<psa10 value="0.00879024574815015" flag="0"/>
			<psa30 value="0.00185665820282535" flag="0"/>
		</comp>
		<comp name="--.HNZ" depth="0.0">
			<acc value="0.0105418722541183" flag="0"/>
			<vel value="0.00398449490268328" flag="0"/>
			<psa03 value="0.014465773390678" flag="0"/>
			<psa10 value="0.00460222378099926" flag="0"/>
			<psa30 value="0.000768905259118649" flag="0"/>
		</comp>
	</station>
	<station code="MSL1" name="MSL1" netid="HI" source="ITSAK Strong Motion Network" insttype="" lat="38.3727" lon="21.4243">
		<comp name="--.HNE" depth="0.0">
			<acc value="0.258716033679389" flag="0"/>
			<vel value="0.15392972512369" flag="0"/>
			<psa03 value="0.524492078357516" flag="0"/>
			<psa10 value="0.169500788595491" flag="0"/>
			<psa30 value="0.0265539890714479" flag="0"/>
		</comp>
		<comp name="--.HNN" depth="0.0">
			<acc value="0.401589446710159" flag="0"/>
			<vel value="0.206103631767937" flag="0"/>
			<psa03 value="0.911180361226745" flag="0"/>
			<psa10 value="0.166098848233539" flag="0"/>
			<psa30 value="0.0188358477824532" flag="0"/>
		</comp>
		<comp name="--.HNZ" depth="0.0">
			<acc value="0.146404749810823" flag="0"/>
			<vel value="0.0577082854607033" flag="0"/>
			<psa03 value="0.30682390891148" flag="0"/>
			<psa10 value="0.0937760872054176" flag="0"/>
			<psa30 value="0.00409223484047467" flag="0"/>
		</comp>
	</station>
	<station code="VAS2" name="VAS2" netid="HI" source="ITSAK Strong Motion Network" insttype="" lat="38.630558" lon="20.608081">
		<comp name="--.HNE" depth="0.0">
			<acc value="0.374063423877129" flag="0"/>
			<vel value="0.191032184686218" flag="0"/>
			<psa03 value="0.945206448621425" flag="0"/>
			<psa10 value="0.25578146426676" flag="0"/>
			<psa30 value="0.0184272973846688" flag="0"/>
		</comp>
		<comp name="--.HNN" depth="0.0">
			<acc value="0.395906853110545" flag="0"/>
			<vel value="0.229684153658422" flag="0"/>
			<psa03 value="1.38627125033284" flag="0"/>
			<psa10 value="0.314997137014208" flag="0"/>
			<psa30 value="0.0197924178172132" flag="0"/>
		</comp>
		<comp name="--.HNZ" depth="0.0">
			<acc value="0.112838680052933" flag="0"/>
			<vel value="0.0934861300840967" flag="0"/>
			<psa03 value="0.384649606148582" flag="0"/>
			<psa10 value="0.126483008878576" flag="0"/>
			<psa30 value="0.00441494038479973" flag="0"/>
		</comp>
	</station>
	<station code="LKR" name="LKR" netid="HL" source="National Observatory of Athens Seismic Network" insttype="" lat="38.64957" lon="22.998812">
		<comp name="--.HNE" depth="0.0">
			<acc value="0.0044009231997879" flag="0"/>
			<vel value="0.00254581898003828" flag="0"/>
			<psa03 value="0.0113324264988782" flag="0"/>
			<psa10 value="0.00200974360439864" flag="0"/>
			<psa30 value="0.00058950108280524" flag="0"/>
		</comp>
		<comp name="--.HNN" depth="0.0">
			<acc value="0.00586616301736448" flag="0"/>
			<vel value="0.00387856691303188" flag="0"/>
			<psa03 value="0.00959693848445812" flag="0"/>
			<psa10 value="0.00307656646367823" flag="0"/>
			<psa30 value="0.000767251712077805" flag="0"/>
		</comp>
		<comp name="--.HNZ" depth="0.0">
			<acc value="0.00255514546027369" flag="0"/>
			<vel value="0.00143960041800493" flag="0"/>
			<psa03 value="0.00787785129606865" flag="0"/>
			<psa10 value="0.00215628010859972" flag="0"/>
			<psa30 value="0.000617032073262741" flag="0"/>
		</comp>
	</station>
	<station code="PATC" name="PATC" netid="HL" source="National Observatory of Athens Seismic Network" insttype="" lat="38.26933" lon="21.76001">
		<comp name="00.HNE" depth="0.0">
			<acc value="0.0602287620350173" flag="0"/>
			<vel value="0.0399276005068966" flag="0"/>
			<psa03 value="0.222896890825165" flag="0"/>
			<psa10 value="0.0444011038552786" flag="0"/>
			<psa30 value="0.010586162947988" flag="0"/>
		</comp>
		<comp name="00.HNN" depth="0.0">
			<acc value="0.0523052847633687" flag="0"/>
			<vel value="0.0381699333914352" flag="0"/>
			<psa03 value="0.130382658044484" flag="0"/>
			<psa10 value="0.034197780435104" flag="0"/>
			<psa30 value="0.00714825270333589" flag="0"/>
		</comp>
		<comp name="00.HNZ" depth="0.0">
			<acc value="0.0414079716822541" flag="0"/>
			<vel value="0.0184677505392688" flag="0"/>
			<psa03 value="0.0697191029235494" flag="0"/>
			<psa10 value="0.0164431892806068" flag="0"/>
			<psa30 value="0.00208942841437624" flag="0"/>
		</comp>
	</station>
	<station code="RIOA" name="RIOA" netid="HL" source="National Observatory of Athens Seismic Network" insttype="" lat="38.29585" lon="21.79118">
		<comp name="00.HNE" depth="0.0">
			<acc value="0.0919522956781853" flag="0"/>
			<vel value="0.0298247705898328" flag="0"/>
			<psa03 value="0.197655177018912" flag="0"/>
			<psa10 value="0.0203787956201831" flag="0"/>
			<psa30 value="0.00324800349762258" flag="0"/>
		</comp>
		<comp name="00.HNN" depth="0.0">
			<acc value="0.0702316595472146" flag="0"/>
			<vel value="0.0355797156157494" flag="0"/>
			<psa03 value="0.119394148859835" flag="0"/>
			<psa10 value="0.0208789643789281" flag="0"/>
			<psa30 value="0.00361594120502558" flag="0"/>
		</comp>
		<comp name="00.HNZ" depth="0.0">
			<acc value="0.0414371058876488" flag="0"/>
			<vel value="0.0148512537231982" flag="0"/>
			<psa03 value="0.0594051123802794" flag="0"/>
			<psa10 value="0.0113652357036029" flag="0"/>
			<psa30 value="0.00149997999131376" flag="0"/>
		</comp>
	</station>
	<station code="ANX" name="ANX" netid="HP" source="University of Patras, Seismological Laboratory (PSLNET)" insttype="" lat="38.5933" lon="21.9209">
		<comp name="--.HNE" depth="0.0">
			<acc value="0.0606288984131196" flag="0"/>
			<vel value="0.0304033697243096" flag="0"/>
			<psa03 value="0.159984566942175" flag="0"/>
			<psa10 value="0.0239084900701133" flag="0"/>
			<psa30 value="0.0023506486356037" flag="0"/>
		</comp>
		<comp name="--.HNN" depth="0.0">
			<acc value="0.0823776674936669" flag="0"/>
			<vel value="0.054713639208387" flag="0"/>
			<psa03 value="0.209220797351108" flag="0"/>
			<psa10 value="0.0321610617625092" flag="0"/>
			<psa30 value="0.0023434166981872" flag="0"/>
		</comp>
		<comp name="--.HNZ" depth="0.0">
			<acc value="0.0406076944145903" flag="0"/>
			<vel value="0.0211566444546924" flag="0"/>
			<psa03 value="0.124340809885285" flag="0"/>
			<psa10 value="0.0156697286676175" flag="0"/>
			<psa30 value="0.00136025063076329" flag="0"/>
		</comp>
	</station>
	<station code="DSF" name="DSF" netid="HP" source="University of Patras, Seismological Laboratory (PSLNET)" insttype="" lat="38.4112" lon="22.5271">
		<comp name="--.HNE" depth="1.0">
			<acc value="0.00680456320692749" flag="0"/>
			<vel value="0.00327677534983173" flag="0"/>
			<psa03 value="0.0147072490226377" flag="0"/>
			<psa10 value="0.0043871601590704" flag="0"/>
			<psa30 value="0.000496496484204573" flag="0"/>
		</comp>
		<comp name="--.HNN" depth="1.0">
			<acc value="0.011787709855927" flag="0"/>
			<vel value="0.00490200075818167" flag="0"/>
			<psa03 value="0.0208641360528717" flag="0"/>
			<psa10 value="0.00315043463833276" flag="0"/>
			<psa30 value="0.000699038443282236" flag="0"/>
		</comp>
		<comp name="--.HNZ" depth="1.0">
			<acc value="0.00471133929644301" flag="0"/>
			<vel value="0.00260432494870599" flag="0"/>
			<psa03 value="0.0106535221498079" flag="0"/>
			<psa10 value="0.00272889897929152" flag="0"/>
