<?xml version="1.0" encoding="UTF-8" standalone="yes"?>
<!DOCTYPE earthquake SYSTEM "stationlist.dtd">
<stationlist created="" xmlns="ch.ethz.sed.shakemap.usgs.xml">
  <station code="KLV" name="KLV" netid="MN" insttype="" lat="38.0437" lon="22.1504">
    <comp name="--.HHE">
      <acc value="0.0042305910" flag="0"/>
      <vel value="0.0045160377" flag="0"/>
      <psa03 value="0.0095566687" flag="0"/>
      <psa10 value="0.0056251719" flag="0"/>
      <psa30 value="0.0009972264" flag="0"/>
    </comp>
    <comp name="--.HHN">
      <acc value="0.0050265865" flag="0"/>
      <vel value="0.0033356927" flag="0"/>
      <psa03 value="0.0107004372" flag="0"/>
      <psa10 value="0.0045208178" flag="0"/>
      <psa30 value="0.0008432781" flag="0"/>
    </comp>
    <comp name="--.HHZ">
      <acc value="0.0040337821" flag="0"/>
      <vel value="0.0051015635" flag="0"/>
      <psa03 value="0.0084104348" flag="0"/>
      <psa10 value="0.0109301072" flag="0"/>
      <psa30 value="0.0005609994" flag="0"/>
    </comp>
  </station>
</stationlist>
