<?xml version="1.0" encoding="UTF-8" standalone="yes"?>
<!DOCTYPE earthquake SYSTEM "stationlist.dtd">
<stationlist created="" xmlns="ch.ethz.sed.shakemap.usgs.xml">
  <station code="AXAR" name="AXAR" netid="HA" insttype="30" lat="38.7664" lon="22.659">
    <comp name="--.HHN">
      <acc value="0.0023433347" flag="0"/>
      <vel value="0.0016869901" flag="0"/>
      <psa03 value="0.0071879590" flag="0"/>
      <psa10 value="0.0015140701" flag="0"/>
      <psa30 value="0.0002934312" flag="0"/>
    </comp>
    <comp name="--.HHZ">
      <acc value="0.0017217369" flag="0"/>
      <vel value="0.0010342127" flag="0"/>
      <psa03 value="0.0055955571" flag="0"/>
      <psa10 value="0.0009637308" flag="0"/>
      <psa30 value="0.0001586240" flag="0"/>
    </comp>
    <comp name="--.HHE">
      <acc value="0.0028235859" flag="0"/>
      <vel value="0.0024919554" flag="0"/>
      <psa03 value="0.0091232232" flag="0"/>
      <psa10 value="0.0018282343" flag="0"/>
      <psa30 value="0.0001995778" flag="0"/>
    </comp>
  </station>
  <station code="KALE" name="KALE" netid="HA" insttype="40," lat="38.3911" lon="22.1398">
    <comp name="--.HHN">
      <acc value="0.0184292656" flag="0"/>
      <vel value="0.0085128723" flag="0"/>
      <psa03 value="0.0559445780" flag="0"/>
      <psa10 value="0.0081440424" flag="0"/>
      <psa30 value="0.0009068728" flag="0"/>
    </comp>
    <comp name="--.HHE">
      <acc value="0.0189932740" flag="0"/>
      <vel value="0.0083976843" flag="0"/>
      <psa03 value="0.0645532751" flag="0"/>
      <psa10 value="0.0112325723" flag="0"/>
      <psa30 value="0.0008976072" flag="0"/>
    </comp>
    <comp name="--.HHZ">
      <acc value="0.0106738950" flag="0"/>
      <vel value="0.0050386583" flag="0"/>
      <psa03 value="0.0371660229" flag="0"/>
      <psa10 value="0.0048991125" flag="0"/>
      <psa30 value="0.0007242738" flag="0"/>
    </comp>
  </station>
  <station code="LAKA" name="LAKA" netid="HA" insttype="120s" lat="38.2401" lon="21.9785">
    <comp name="--.HHZ">
      <acc value="0.0055616533" flag="0"/>
      <vel value="0.0038327689" flag="0"/>
      <psa03 value="0.0164945463" flag="0"/>
      <psa10 value="0.0068415224" flag="0"/>
      <psa30 value="0.0006013836" flag="0"/>
    </comp>
    <comp name="--.HHE">
      <acc value="0.0000344481" flag="0"/>
      <vel value="0.0000032278" flag="0"/>
      <psa03 value="0.0000100966" flag="0"/>
      <psa10 value="0.0000023146" flag="0"/>
      <psa30 value="0.0000005282" flag="0"/>
    </comp>
    <comp name="--.HHN">
      <acc value="0.0000344450" flag="0"/>
      <vel value="0.0000029826" flag="0"/>
      <psa03 value="0.0000099650" flag="0"/>
      <psa10 value="0.0000024516" flag="0"/>
      <psa30 value="0.0000005485" flag="0"/>
    </comp>
  </station>
  <station code="ARG2" name="ARG2" netid="HI" insttype="CMG-5TD,ACCELEROMETER,GURALP" lat="38.1783" lon="20.4878">
    <comp name="--.HNZ">
      <acc value="0.0332100250" flag="0"/>
      <vel value="0.0151212888" flag="0"/>
      <psa03 value="0.1179357319" flag="0"/>
      <psa10 value="0.0163676333" flag="0"/>
      <psa30 value="0.0011593908" flag="0"/>
    </comp>
    <comp name="--.HNN">
      <acc value="0.0422241429" flag="0"/>
      <vel value="0.0232468383" flag="0"/>
      <psa03 value="0.1364192455" flag="0"/>
      <psa10 value="0.0167098773" flag="0"/>
      <psa30 value="0.0028195332" flag="0"/>
    </comp>
    <comp name="--.HNE">
      <acc value="0.0484965614" flag="0"/>
      <vel value="0.0243538278" flag="0"/>
      <psa03 value="0.1506350145" flag="0"/>
      <psa10 value="0.0124179774" flag="0"/>
      <psa30 value="0.0020199834" flag="0"/>
    </comp>
  </station>
  <station code="ART2" name="ART2" netid="HI" insttype="CMG-5TD,ACCELEROMETER,GURALP" lat="39.1474" lon="20.9937">
    <comp name="--.HNE">
      <acc value="0.0976996441" flag="0"/>
      <vel value="0.0393079950" flag="0"/>
      <psa03 value="0.1232521354" flag="0"/>
      <psa10 value="0.0252832724" flag="0"/>
      <psa30 value="0.0029070697" flag="0"/>
    </comp>
    <comp name="--.HNN">
      <acc value="0.1110499837" flag="0"/>
      <vel value="0.0461389333" flag="0"/>
      <psa03 value="0.1169124504" flag="0"/>
      <psa10 value="0.0733533288" flag="0"/>
      <psa30 value="0.0027444743" flag="0"/>
    </comp>
    <comp name="--.HNZ">
      <acc value="0.0649956855" flag="0"/>
      <vel value="0.0227517350" flag="0"/>
      <psa03 value="0.0762005524" flag="0"/>
      <psa10 value="0.0243660724" flag="0"/>
      <psa30 value="0.0013432517" flag="0"/>
    </comp>
  </station>
  <station code="KLV1" name="KLV1" netid="HI" insttype="CMG-5TD,ACCELEROMETER,GURALP" lat="38.0326" lon="22.108">
    <comp name="--.HNE">
      <acc value="0.0148370325" flag="0"/>
      <vel value="0.0105813673" flag="0"/>
      <psa03 value="0.0705638708" flag="0"/>
      <psa10 value="0.0092240843" flag="0"/>
      <psa30 value="0.0012233096" flag="0"/>
    </comp>
    <comp name="--.HNN">
      <acc value="0.0170814998" flag="0"/>
      <vel value="0.0084200157" flag="0"/>
      <psa03 value="0.0494011359" flag="0"/>
      <psa10 value="0.0074768777" flag="0"/>
      <psa30 value="0.0010962230" flag="0"/>
    </comp>
    <comp name="--.HNZ">
      <acc value="0.0071853072" flag="0"/>
      <vel value="0.0061790727" flag="0"/>
      <psa03 value="0.0217795482" flag="0"/>
      <psa10 value="0.0092875644" flag="0"/>
      <psa30 value="0.0006569900" flag="0"/>
    </comp>
  </station>
  <station code="MSL1" name="MSL1" netid="HI" insttype="CMG-5TD,ACCELEROMETER,GURALP" lat="38.3727" lon="21.4243">
    <comp name="--.HNE">
      <acc value="0.2589990201" flag="0"/>
      <vel value="0.1497240829" flag="0"/>
      <psa03 value="0.5227490257" flag="0"/>
      <psa10 value="0.1695174871" flag="0"/>
      <psa30 value="0.0245272644" flag="0"/>
    </comp>
    <comp name="--.HNN">
      <acc value="0.3997048170" flag="0"/>
      <vel value="0.2034989519" flag="0"/>
      <psa03 value="0.9018532288" flag="0"/>
      <psa10 value="0.1663100310" flag="0"/>
      <psa30 value="0.0172241946" flag="0"/>
    </comp>
    <comp name="--.HNZ">
      <acc value="0.1467303830" flag="0"/>
      <vel value="0.0571819954" flag="0"/>
      <psa03 value="0.3050791596" flag="0"/>
      <psa10 value="0.0937315662" flag="0"/>
      <psa30 value="0.0041251831" flag="0"/>
    </comp>
  </station>
  <station code="EVR" name="EVR" netid="HL" insttype="DR24" lat="38.9166" lon="21.8105">
    <comp name="--.HHN">
      <acc value="0.0613258159" flag="0"/>
      <vel value="0.0216883561" flag="0"/>
      <psa03 value="0.1161268235" flag="0"/>
      <psa10 value="0.0223818057" flag="0"/>
      <psa30 value="0.0024024086" flag="0"/>
    </comp>
    <comp name="--.HHE">
      <acc value="0.0499707736" flag="0"/>
      <vel value="0.0184102855" flag="0"/>
      <psa03 value="0.0858494516" flag="0"/>
      <psa10 value="0.0155265138" flag="0"/>
      <psa30 value="0.0024187995" flag="0"/>
    </comp>
    <comp name="--.HHZ">
      <acc value="0.0384699240" flag="0"/>
      <vel value="0.0167818139" flag="0"/>
      <psa03 value="0.0571463149" flag="0"/>
      <psa10 value="0.0275109303" flag="0"/>
      <psa30 value="0.0023892190" flag="0"/>
    </comp>
  </station>
  <station code="JAN" name="JAN" netid="HL" insttype="CMG3EPSC60_DR24" lat="39.6562" lon="20.8487">
    <comp name="--.HHE">
      <acc value="0.0155073890" flag="0"/>
      <vel value="0.0176435299" flag="0"/>
      <psa03 value="0.0516055979" flag="0"/>
      <psa10 value="0.0264125399" flag="0"/>
      <psa30 value="0.0018124181" flag="0"/>
    </comp>
    <comp name="--.HHN">
      <acc value="0.0233485202" flag="0"/>
      <vel value="0.0144022212" flag="0"/>
      <psa03 value="0.0672322050" flag="0"/>
      <psa10 value="0.0180279233" flag="0"/>
      <psa30 value="0.0017985653" flag="0"/>
    </comp>
    <comp name="--.HHZ">
      <acc value="0.0120610223" flag="0"/>
      <vel value="0.0078704394" flag="0"/>
      <psa03 value="0.0320356101" flag="0"/>
      <psa10 value="0.0135131793" flag="0"/>
      <psa30 value="0.0010634451" flag="0"/>
    </comp>
  </station>
  <station code="KLV" name="KLV" netid="HL" insttype="120" lat="38.0435" lon="22.1504">
    <comp name="--.HHN">
      <acc value="0.0047497913" flag="0"/>
      <vel value="0.0033045730" flag="0"/>
      <psa03 value="0.0104505148" flag="0"/>
      <psa10 value="0.0044935079" flag="0"/>
      <psa30 value="0.0008417775" flag="0"/>
    </comp>
    <comp name="--.HHE">
      <acc value="0.0041612132" flag="0"/>
      <vel value="0.0044940745" flag="0"/>
      <psa03 value="0.0092876521" flag="0"/>
      <psa10 value="0.0055994930" flag="0"/>
      <psa30 value="0.0009946190" flag="0"/>
    </comp>
    <comp name="--.HHZ">
      <acc value="0.0039793850" flag="0"/>
      <vel value="0.0050657377" flag="0"/>
      <psa03 value="0.0082238087" flag="0"/>
      <psa10 value="0.0108663865" flag="0"/>
      <psa30 value="0.0005590945" flag="0"/>
    </comp>
  </station>
  <station code="PATC" name="PATC" netid="HL" insttype="CMG-5" lat="38.2693" lon="21.76">
    <comp name="00.HNZ">
      <acc value="0.0419700867" flag="0"/>
      <vel value="0.0183645924" flag="0"/>
      <psa03 value="0.0696941749" flag="0"/>
      <psa10 value="0.0164291068" flag="0"/>
      <psa30 value="0.0019285755" flag="0"/>
    </comp>
    <comp name="00.HNE">
      <acc value="0.0603696201" flag="0"/>
      <vel value="0.0391281662" flag="0"/>
      <psa03 value="0.2234473644" flag="0"/>
      <psa10 value="0.0443353508" flag="0"/>
      <psa30 value="0.0093772933" flag="0"/>
    </comp>
    <comp name="00.HNN">
      <acc value="0.0524416965" flag="0"/>
      <vel value="0.0378245344" flag="0"/>
      <psa03 value="0.1309396821" flag="0"/>
      <psa10 value="0.0342773298" flag="0"/>
      <psa30 value="0.0064605904" flag="0"/>
    </comp>
  </station>
  <station code="PATG" name="PATG" netid="HL" insttype="CMG-5" lat="38.2386" lon="21.7266">
    <comp name="00.HNE">
      <acc value="0.0889846964" flag="0"/>
      <vel value="0.0651049384" flag="0"/>
      <psa03 value="0.2182580608" flag="0"/>
      <psa10 value="0.0623249754" flag="0"/>
      <psa30 value="0.0078767793" flag="0"/>
    </comp>
    <comp name="00.HNN">
      <acc value="0.0936956911" flag="0"/>
      <vel value="0.0439008843" flag="0"/>
      <psa03 value="0.2841318659" flag="0"/>
      <psa10 value="0.0484897091" flag="0"/>
      <psa30 value="0.0075396619" flag="0"/>
    </comp>
    <comp name="00.HNZ">
      <acc value="0.0388611211" flag="0"/>
      <vel value="0.0261229943" flag="0"/>
      <psa03 value="0.0919210423" flag="0"/>
      <psa10 value="0.0284531763" flag="0"/>
      <psa30 value="0.0035950834" flag="0"/>
    </comp>
  </station>
  <station code="RIOA" name="RIOA" netid="HL" insttype="CMG-5" lat="38.2959" lon="21.7912">
    <comp name="00.HNN">
      <acc value="0.0704310924" flag="0"/>
      <vel value="0.0361092961" flag="0"/>
      <psa03 value="0.1192242384" flag="0"/>
      <psa10 value="0.0208942257" flag="0"/>
      <psa30 value="0.0030903677" flag="0"/>
    </comp>
    <comp name="00.HNE">
      <acc value="0.0924390176" flag="0"/>
      <vel value="0.0299296258" flag="0"/>
      <psa03 value="0.1971575949" flag="0"/>
      <psa10 value="0.0204083839" flag="0"/>
      <psa30 value="0.0030096834" flag="0"/>
    </comp>
    <comp name="00.HNZ">
      <acc value="0.0428983762" flag="0"/>
      <vel value="0.0149837471" flag="0"/>
      <psa03 value="0.0591009463" flag="0"/>
      <psa10 value="0.0113422936" flag="0"/>
      <psa30 value="0.0014621762" flag="0"/>
    </comp>
  </station>
  <station code="RLS" name="RLS" netid="HL" insttype="CMG3ESPC-120s" lat="38.0559" lon="21.4647">
    <comp name="--.HHZ">
      <acc value="0.0110392797" flag="0"/>
      <vel value="0.0049993973" flag="0"/>
      <psa03 value="0.0202020322" flag="0"/>
      <psa10 value="0.0057163921" flag="0"/>
      <psa30 value="0.0011000292" flag="0"/>
    </comp>
    <comp name="--.HHE">
      <acc value="0.0131993168" flag="0"/>
      <vel value="0.0082378535" flag="0"/>
      <psa03 value="0.0260188305" flag="0"/>
      <psa10 value="0.0102162112" flag="0"/>
      <psa30 value="0.0012513092" flag="0"/>
    </comp>
    <comp name="--.HHN">
      <acc value="0.0207292471" flag="0"/>
      <vel value="0.0101705580" flag="0"/>
      <psa03 value="0.0419907705" flag="0"/>
      <psa10 value="0.0131286508" flag="0"/>
      <psa30 value="0.0011871407" flag="0"/>
    </comp>
  </station>
  <station code="SOFA" name="SOFA" netid="HL" insttype="CMG-5" lat="39.3377" lon="22.0969">
    <comp name="00.HNZ">
      <acc value="0.0183424132" flag="0"/>
      <vel value="0.0114263597" flag="0"/>
      <psa03 value="0.0323224712" flag="0"/>
      <psa10 value="0.0158859937" flag="0"/>
      <psa30 value="0.0012158961" flag="0"/>
    </comp>
    <comp name="00.HNN">
      <acc value="0.0353538871" flag="0"/>
      <vel value="0.0366378449" flag="0"/>
      <psa03 value="0.1116596561" flag="0"/>
      <psa10 value="0.0323068861" flag="0"/>
      <psa30 value="0.0073155355" flag="0"/>
    </comp>
    <comp name="00.HNE">
      <acc value="0.0318779738" flag="0"/>
      <vel value="0.0324451069" flag="0"/>
      <psa03 value="0.0876401832" flag="0"/>
      <psa10 value="0.0198903540" flag="0"/>
      <psa30 value="0.0037620089" flag="0"/>
    </comp>
  </station>
  <station code="TETR" name="TETR" netid="HL" insttype="60" lat="39.3445" lon="21.2747">
    <comp name="--.HHE">
      <acc value="0.1130687089" flag="0"/>
      <vel value="0.0801566414" flag="0"/>
      <psa03 value="0.4467848928" flag="0"/>
      <psa10 value="0.0452803018" flag="0"/>
      <psa30 value="0.0031059008" flag="0"/>
    </comp>
    <comp name="--.HHN">
      <acc value="0.0793753460" flag="0"/>
      <vel value="0.0282806840" flag="0"/>
      <psa03 value="0.1611374150" flag="0"/>
      <psa10 value="0.0402436178" flag="0"/>
      <psa30 value="0.0029707336" flag="0"/>
    </comp>
    <comp name="--.HHZ">
      <acc value="0.0474229540" flag="0"/>
      <vel value="0.0269492369" flag="0"/>
      <psa03 value="0.1174128295" flag="0"/>
      <psa10 value="0.0483711633" flag="0"/>
      <psa30 value="0.0020425723" flag="0"/>
    </comp>
  </station>
  <station code="THL" name="THL" netid="HL" insttype="120" lat="39.5647" lon="22.0144">
    <comp name="--.HHE">
      <acc value="0.0077191842" flag="0"/>
      <vel value="0.0052944771" flag="0"/>
      <psa03 value="0.0192484349" flag="0"/>
      <psa10 value="0.0068935788" flag="0"/>
      <psa30 value="0.0014218046" flag="0"/>
    </comp>
    <comp name="--.HHN">
      <acc value="0.0075226941" flag="0"/>
      <vel value="0.0040657242" flag="0"/>
      <psa03 value="0.0245331230" flag="0"/>
      <psa10 value="0.0043340088" flag="0"/>
      <psa30 value="0.0007786895" flag="0"/>
    </comp>
    <comp name="--.HHZ">
      <acc value="0.0043342071" flag="0"/>
      <vel value="0.0038628063" flag="0"/>
      <psa03 value="0.0141991854" flag="0"/>
      <psa10 value="0.0036262989" flag="0"/>
      <psa30 value="0.0006283334" flag="0"/>
    </comp>
  </station>
  <station code="VLS" name="VLS" netid="HL" insttype="120P," lat="38.1768" lon="20.5886">
    <comp name="--.HHN">
      <acc value="0.0478349649" flag="0"/>
      <vel value="0.0133048306" flag="0"/>
      <psa03 value="0.0523111467" flag="0"/>
      <psa10 value="0.0143098653" flag="0"/>
      <psa30 value="0.0013113385" flag="0"/>
    </comp>
    <comp name="--.HHE">
      <acc value="0.0547532488" flag="0"/>
      <vel value="0.0105322101" flag="0"/>
      <psa03 value="0.0639832210" flag="0"/>
      <psa10 value="0.0106049600" flag="0"/>
      <psa30 value="0.0014480766" flag="0"/>
    </comp>
    <comp name="--.HHZ">
      <acc value="0.0211721056" flag="0"/>
      <vel value="0.0096207530" flag="0"/>
      <psa03 value="0.0370000120" flag="0"/>
      <psa10 value="0.0072173088" flag="0"/>
      <psa30 value="0.0015387763" flag="0"/>
    </comp>
  </station>
  <station code="AMPL" name="AMPL" netid="HP" insttype="Compact," lat="38.9224" lon="21.2135">
    <comp name="--.HHE">
      <acc value="0.5695917734" flag="0"/>
      <vel value="0.2063170125" flag="0"/>
      <psa03 value="0.7006509381" flag="0"/>
      <psa10 value="0.1145734731" flag="0"/>
      <psa30 value="0.0106098956" flag="0"/>
    </comp>
    <comp name="--.HHZ">
      <acc value="0.3712093979" flag="0"/>
      <vel value="0.1333993588" flag="0"/>
      <psa03 value="0.8286939500" flag="0"/>
      <psa10 value="0.1286234612" flag="0"/>
      <psa30 value="0.0091391981" flag="0"/>
    </comp>
    <comp name="--.HHN">
      <acc value="0.7451778168" flag="0"/>
      <vel value="0.2699266655" flag="0"/>
      <psa03 value="0.5879669429" flag="0"/>
      <psa10 value="0.1248250228" flag="0"/>
      <psa30 value="0.0113125748" flag="0"/>
    </comp>
  </station>
  <station code="ANX" name="ANX" netid="HP" insttype="120" lat="38.5933" lon="21.9209">
    <comp name="--.HHE">
      <acc value="0.0496041259" flag="0"/>
      <vel value="0.0251477919" flag="0"/>
      <psa03 value="0.1289908967" flag="0"/>
      <psa10 value="0.0190492794" flag="0"/>
      <psa30 value="0.0018489001" flag="0"/>
    </comp>
    <comp name="--.HHN">
      <acc value="0.0657377877" flag="0"/>
      <vel value="0.0433460693" flag="0"/>
      <psa03 value="0.1695845933" flag="0"/>
      <psa10 value="0.0258489604" flag="0"/>
      <psa30 value="0.0017058899" flag="0"/>
    </comp>
    <comp name="--.HHZ">
      <acc value="0.0341557289" flag="0"/>
      <vel value="0.0179230651" flag="0"/>
      <psa03 value="0.1049347174" flag="0"/>
      <psa10 value="0.0127428068" flag="0"/>
      <psa30 value="0.0011016011" flag="0"/>
    </comp>
  </station>
  <station code="AXS" name="AXS" netid="HP" insttype="40," lat="38.1962" lon="21.3763">
    <comp name="--.HHN">
      <acc value="0.0181160858" flag="0"/>
      <vel value="0.0086520738" flag="0"/>
      <psa03 value="0.0487589313" flag="0"/>
      <psa10 value="0.0054733336" flag="0"/>
      <psa30 value="0.0005476673" flag="0"/>
    </comp>
    <comp name="--.HHE">
      <acc value="0.0253266783" flag="0"/>
      <vel value="0.0138657204" flag="0"/>
      <psa03 value="0.0569196492" flag="0"/>
      <psa10 value="0.0109771890" flag="0"/>
      <psa30 value="0.0009947732" flag="0"/>
    </comp>
    <comp name="--.HHZ">
      <acc value="0.0123328050" flag="0"/>
      <vel value="0.0054113911" flag="0"/>
      <psa03 value="0.0218382354" flag="0"/>
      <psa10 value="0.0055286883" flag="0"/>
      <psa30 value="0.0004532169" flag="0"/>
    </comp>
  </station>
  <station code="DRO" name="DRO" netid="HP" insttype="120P," lat="37.952" lon="21.71">
    <comp name="--.HHE">
      <acc value="0.0373695611" flag="0"/>
      <vel value="0.0191446617" flag="0"/>
      <psa03 value="0.0958002987" flag="0"/>
      <psa10 value="0.0234240877" flag="0"/>
      <psa30 value="0.0021310697" flag="0"/>
    </comp>
    <comp name="--.HHN">
      <acc value="0.0395200557" flag="0"/>
      <vel value="0.0220813160" flag="0"/>
      <psa03 value="0.0960611391" flag="0"/>
      <psa10 value="0.0220934569" flag="0"/>
      <psa30 value="0.0014509897" flag="0"/>
    </comp>
    <comp name="--.HHZ">
      <acc value="0.0174419891" flag="0"/>
      <vel value="0.0090763728" flag="0"/>
      <psa03 value="0.0516960078" flag="0"/>
      <psa10 value="0.0106919766" flag="0"/>
      <psa30 value="0.0011655400" flag="0"/>
    </comp>
  </station>
  <station code="DSF" name="DSF" netid="HP" insttype="120P," lat="38.4112" lon="22.5271">
    <comp name="--.HHE">
      <acc value="0.0075917860" flag="0"/>
      <vel value="0.0034770697" flag="0"/>
      <psa03 value="0.0147486055" flag="0"/>
      <psa10 value="0.0042847931" flag="0"/>
      <psa30 value="0.0005057818" flag="0"/>
    </comp>
    <comp name="--.HHN">
      <acc value="0.0138764989" flag="0"/>
