<?xml version="1.0" encoding="UTF-8" standalone="yes"?>
<!DOCTYPE earthquake SYSTEM "stationlist.dtd">
<stationlist created="" xmlns="ch.ethz.sed.shakemap.usgs.xml">
  <station code="AXAR" name="AXAR" netid="HA" insttype="30" lat="38.7664" lon="22.659">
    <comp name="--.HHN">
      <acc value="0.0023433347" flag="0"/>
      <vel value="0.0016869902" flag="0"/>
      <psa03 value="0.0071879590" flag="0"/>
      <psa10 value="0.0015140701" flag="0"/>
      <psa30 value="0.0002934313" flag="0"/>
    </comp>
    <comp name="--.HHE">
      <acc value="0.0028235859" flag="0"/>
      <vel value="0.0024919552" flag="0"/>
      <psa03 value="0.0091232232" flag="0"/>
      <psa10 value="0.0018282343" flag="0"/>
      <psa30 value="0.0001995778" flag="0"/>
    </comp>
    <comp name="--.HHZ">
      <acc value="0.0017217369" flag="0"/>
      <vel value="0.0010342132" flag="0"/>
      <psa03 value="0.0055955571" flag="0"/>
      <psa10 value="0.0009637308" flag="0"/>
      <psa30 value="0.0001586240" flag="0"/>
    </comp>
  </station>
  <station code="KALE" name="KALE" netid="HA" insttype="40," lat="38.3911" lon="22.1398">
    <comp name="--.HHN">
      <acc value="0.0184292655" flag="0"/>
      <vel value="0.0085128720" flag="0"/>
      <psa03 value="0.0559445780" flag="0"/>
      <psa10 value="0.0081440424" flag="0"/>
      <psa30 value="0.0009068793" flag="0"/>
    </comp>
    <comp name="--.HHZ">
      <acc value="0.0106738950" flag="0"/>
      <vel value="0.0050386580" flag="0"/>
      <psa03 value="0.0371660229" flag="0"/>
      <psa10 value="0.0048991125" flag="0"/>
      <psa30 value="0.0007242679" flag="0"/>
    </comp>
    <comp name="--.HHE">
      <acc value="0.0189932740" flag="0"/>
      <vel value="0.0083976853" flag="0"/>
      <psa03 value="0.0645532751" flag="0"/>
      <psa10 value="0.0112325723" flag="0"/>
      <psa30 value="0.0008976144" flag="0"/>
    </comp>
  </station>
  <station code="LAKA" name="LAKA" netid="HA" insttype="120s" lat="38.2401" lon="21.9785">
    <comp name="--.HHE">
      <acc value="0.0000344475" flag="0"/>
      <vel value="0.0000032278" flag="0"/>
      <psa03 value="0.0000100966" flag="0"/>
      <psa10 value="0.0000023146" flag="0"/>
      <psa30 value="0.0000005283" flag="0"/>
    </comp>
    <comp name="--.HHN">
      <acc value="0.0000344451" flag="0"/>
      <vel value="0.0000029827" flag="0"/>
      <psa03 value="0.0000099650" flag="0"/>
      <psa10 value="0.0000023968" flag="0"/>
      <psa30 value="0.0000005485" flag="0"/>
    </comp>
    <comp name="--.HHZ">
      <acc value="0.0055616532" flag="0"/>
      <vel value="0.0038327686" flag="0"/>
      <psa03 value="0.0164945463" flag="0"/>
      <psa10 value="0.0068415224" flag="0"/>
      <psa30 value="0.0006013883" flag="0"/>
    </comp>
  </station>
  <station code="ARG2" name="ARG2" netid="HI" insttype="CMG-5TD,ACCELEROMETER,GURALP" lat="38.1783" lon="20.4878">
    <comp name="--.HNN">
      <acc value="0.0422241435" flag="0"/>
      <vel value="0.0232468384" flag="0"/>
      <psa03 value="0.1364192455" flag="0"/>
      <psa10 value="0.0167098773" flag="0"/>
      <psa30 value="0.0028195380" flag="0"/>
    </comp>
    <comp name="--.HNZ">
      <acc value="0.0332100254" flag="0"/>
      <vel value="0.0151212900" flag="0"/>
      <psa03 value="0.1179357319" flag="0"/>
      <psa10 value="0.0163676333" flag="0"/>
      <psa30 value="0.0011594547" flag="0"/>
    </comp>
    <comp name="--.HNE">
      <acc value="0.0484965604" flag="0"/>
      <vel value="0.0243538285" flag="0"/>
      <psa03 value="0.1506350145" flag="0"/>
      <psa10 value="0.0124179774" flag="0"/>
      <psa30 value="0.0020199927" flag="0"/>
    </comp>
  </station>
  <station code="ART2" name="ART2" netid="HI" insttype="CMG-5TD,ACCELEROMETER,GURALP" lat="39.1474" lon="20.9937">
    <comp name="--.HNN">
      <acc value="0.1110499837" flag="0"/>
      <vel value="0.0461389333" flag="0"/>
      <psa03 value="0.1169124504" flag="0"/>
      <psa10 value="0.0733533288" flag="0"/>
      <psa30 value="0.0027444502" flag="0"/>
    </comp>
    <comp name="--.HNE">
      <acc value="0.0976996442" flag="0"/>
      <vel value="0.0393079950" flag="0"/>
      <psa03 value="0.1232521354" flag="0"/>
      <psa10 value="0.0252832723" flag="0"/>
      <psa30 value="0.0029070959" flag="0"/>
    </comp>
    <comp name="--.HNZ">
      <acc value="0.0649956856" flag="0"/>
      <vel value="0.0227517351" flag="0"/>
      <psa03 value="0.0762005524" flag="0"/>
      <psa10 value="0.0243660724" flag="0"/>
      <psa30 value="0.0013432729" flag="0"/>
    </comp>
  </station>
  <station code="KLV1" name="KLV1" netid="HI" insttype="CMG-5TD,ACCELEROMETER,GURALP" lat="38.0326" lon="22.108">
    <comp name="--.HNE">
      <acc value="0.0148370331" flag="0"/>
      <vel value="0.0105813657" flag="0"/>
      <psa03 value="0.0705638708" flag="0"/>
      <psa10 value="0.0092240843" flag="0"/>
      <psa30 value="0.0012233641" flag="0"/>
    </comp>
    <comp name="--.HNN">
      <acc value="0.0170815024" flag="0"/>
      <vel value="0.0084200161" flag="0"/>
      <psa03 value="0.0494011359" flag="0"/>
      <psa10 value="0.0074768777" flag="0"/>
      <psa30 value="0.0010962195" flag="0"/>
    </comp>
    <comp name="--.HNZ">
      <acc value="0.0071853081" flag="0"/>
      <vel value="0.0061790735" flag="0"/>
      <psa03 value="0.0217795482" flag="0"/>
      <psa10 value="0.0092875645" flag="0"/>
      <psa30 value="0.0006570081" flag="0"/>
    </comp>
  </station>
  <station code="KRI1" name="KRI1" netid="HI" insttype="CMG-5TD,ACCELEROMETER,GURALP" lat="37.6621" lon="20.8172">
    <comp name="--.HNN">
      <acc value="0.0171245506" flag="0"/>
      <vel value="0.0111791847" flag="0"/>
      <psa03 value="0.0322704931" flag="0"/>
      <psa10 value="0.0193943185" flag="0"/>
      <psa30 value="0.0031152184" flag="0"/>
    </comp>
    <comp name="--.HNE">
      <acc value="0.0161311704" flag="0"/>
      <vel value="0.0087063463" flag="0"/>
      <psa03 value="0.0530520856" flag="0"/>
      <psa10 value="0.0136082031" flag="0"/>
      <psa30 value="0.0009817175" flag="0"/>
    </comp>
    <comp name="--.HNZ">
      <acc value="0.0079610511" flag="0"/>
      <vel value="0.0043215606" flag="0"/>
      <psa03 value="0.0236629699" flag="0"/>
      <psa10 value="0.0057405048" flag="0"/>
      <psa30 value="0.0014416467" flag="0"/>
    </comp>
  </station>
  <station code="MSL1" name="MSL1" netid="HI" insttype="CMG-5TD,ACCELEROMETER,GURALP" lat="38.3727" lon="21.4243">
    <comp name="--.HNZ">
      <acc value="0.1467303795" flag="0"/>
      <vel value="0.0571819935" flag="0"/>
      <psa03 value="0.3050791596" flag="0"/>
      <psa10 value="0.0937315666" flag="0"/>
      <psa30 value="0.0041253604" flag="0"/>
    </comp>
    <comp name="--.HNN">
      <acc value="0.3997048151" flag="0"/>
      <vel value="0.2034989496" flag="0"/>
      <psa03 value="0.9018532288" flag="0"/>
      <psa10 value="0.1663100310" flag="0"/>
      <psa30 value="0.0172241698" flag="0"/>
    </comp>
    <comp name="--.HNE">
      <acc value="0.2589990235" flag="0"/>
      <vel value="0.1497240840" flag="0"/>
      <psa03 value="0.5227490257" flag="0"/>
      <psa10 value="0.1695174872" flag="0"/>
      <psa30 value="0.0245276466" flag="0"/>
    </comp>
  </station>
  <station code="EVR" name="EVR" netid="HL" insttype="DR24" lat="38.9166" lon="21.8105">
    <comp name="--.HHZ">
      <acc value="0.0384699241" flag="0"/>
      <vel value="0.0167818137" flag="0"/>
      <psa03 value="0.0571463149" flag="0"/>
      <psa10 value="0.0275109303" flag="0"/>
      <psa30 value="0.0023892299" flag="0"/>
    </comp>
    <comp name="--.HHN">
      <acc value="0.0613258160" flag="0"/>
      <vel value="0.0216883566" flag="0"/>
      <psa03 value="0.1161268235" flag="0"/>
      <psa10 value="0.0223818056" flag="0"/>
      <psa30 value="0.0024024159" flag="0"/>
    </comp>
    <comp name="--.HHE">
      <acc value="0.0499707740" flag="0"/>
      <vel value="0.0184102855" flag="0"/>
      <psa03 value="0.0858494516" flag="0"/>
      <psa10 value="0.0155265139" flag="0"/>
      <psa30 value="0.0024187947" flag="0"/>
    </comp>
  </station>
  <station code="JAN" name="JAN" netid="HL" insttype="CMG3EPSC60_DR24" lat="39.6562" lon="20.8487">
    <comp name="--.HHE">
      <acc value="0.0155073891" flag="0"/>
      <vel value="0.0176435299" flag="0"/>
      <psa03 value="0.0516055979" flag="0"/>
      <psa10 value="0.0264125399" flag="0"/>
      <psa30 value="0.0018124190" flag="0"/>
    </comp>
    <comp name="--.HHN">
      <acc value="0.0233485202" flag="0"/>
      <vel value="0.0144022208" flag="0"/>
      <psa03 value="0.0672322050" flag="0"/>
      <psa10 value="0.0180279233" flag="0"/>
      <psa30 value="0.0017985654" flag="0"/>
    </comp>
    <comp name="--.HHZ">
      <acc value="0.0120610224" flag="0"/>
      <vel value="0.0078704392" flag="0"/>
      <psa03 value="0.0320356101" flag="0"/>
      <psa10 value="0.0135131793" flag="0"/>
      <psa30 value="0.0010634465" flag="0"/>
    </comp>
  </station>
  <station code="KLV" name="KLV" netid="HL" insttype="120" lat="38.0435" lon="22.1504">
    <comp name="--.HHZ">
      <acc value="0.0039793849" flag="0"/>
      <vel value="0.0050657379" flag="0"/>
      <psa03 value="0.0082238087" flag="0"/>
      <psa10 value="0.0108663865" flag="0"/>
      <psa30 value="0.0005591040" flag="0"/>
    </comp>
    <comp name="--.HHE">
      <acc value="0.0041612133" flag="0"/>
      <vel value="0.0044940745" flag="0"/>
      <psa03 value="0.0092876521" flag="0"/>
      <psa10 value="0.0055994930" flag="0"/>
      <psa30 value="0.0009946189" flag="0"/>
    </comp>
    <comp name="--.HHN">
      <acc value="0.0047497914" flag="0"/>
      <vel value="0.0033045730" flag="0"/>
      <psa03 value="0.0104505148" flag="0"/>
      <psa10 value="0.0044935079" flag="0"/>
      <psa30 value="0.0008417745" flag="0"/>
    </comp>
  </station>
  <station code="PATC" name="PATC" netid="HL" insttype="CMG-5" lat="38.2693" lon="21.76">
    <comp name="00.HNE">
      <acc value="0.0603696259" flag="0"/>
      <vel value="0.0391281660" flag="0"/>
      <psa03 value="0.2234473644" flag="0"/>
      <psa10 value="0.0443353508" flag="0"/>
      <psa30 value="0.0093772658" flag="0"/>
    </comp>
    <comp name="00.HNN">
      <acc value="0.0524416959" flag="0"/>
      <vel value="0.0378245322" flag="0"/>
      <psa03 value="0.1309396821" flag="0"/>
      <psa10 value="0.0342773297" flag="0"/>
      <psa30 value="0.0064605923" flag="0"/>
    </comp>
    <comp name="00.HNZ">
      <acc value="0.0419700877" flag="0"/>
      <vel value="0.0183645875" flag="0"/>
      <psa03 value="0.0696941749" flag="0"/>
      <psa10 value="0.0164291068" flag="0"/>
      <psa30 value="0.0019285768" flag="0"/>
    </comp>
  </station>
  <station code="PATG" name="PATG" netid="HL" insttype="CMG-5" lat="38.2386" lon="21.7266">
    <comp name="00.HNE">
      <acc value="0.0889846967" flag="0"/>
      <vel value="0.0651049467" flag="0"/>
      <psa03 value="0.2182580608" flag="0"/>
      <psa10 value="0.0623249763" flag="0"/>
      <psa30 value="0.0078764486" flag="0"/>
    </comp>
    <comp name="00.HNZ">
      <acc value="0.0388611250" flag="0"/>
      <vel value="0.0261229893" flag="0"/>
      <psa03 value="0.0919210423" flag="0"/>
      <psa10 value="0.0284531765" flag="0"/>
      <psa30 value="0.0035950820" flag="0"/>
    </comp>
    <comp name="00.HNN">
      <acc value="0.0936956892" flag="0"/>
      <vel value="0.0439008859" flag="0"/>
      <psa03 value="0.2841318659" flag="0"/>
      <psa10 value="0.0484897087" flag="0"/>
      <psa30 value="0.0075396465" flag="0"/>
    </comp>
  </station>
  <station code="RIOA" name="RIOA" netid="HL" insttype="CMG-5" lat="38.2959" lon="21.7912">
    <comp name="00.HNZ">
      <acc value="0.0428983798" flag="0"/>
      <vel value="0.0149837470" flag="0"/>
      <psa03 value="0.0591009463" flag="0"/>
      <psa10 value="0.0113422935" flag="0"/>
      <psa30 value="0.0014621144" flag="0"/>
    </comp>
    <comp name="00.HNN">
      <acc value="0.0704310961" flag="0"/>
      <vel value="0.0361092926" flag="0"/>
      <psa03 value="0.1192242384" flag="0"/>
      <psa10 value="0.0208942252" flag="0"/>
      <psa30 value="0.0030901363" flag="0"/>
    </comp>
    <comp name="00.HNE">
      <acc value="0.0924390182" flag="0"/>
      <vel value="0.0299296277" flag="0"/>
      <psa03 value="0.1971575949" flag="0"/>
      <psa10 value="0.0204083834" flag="0"/>
      <psa30 value="0.0030096402" flag="0"/>
    </comp>
  </station>
  <station code="RLS" name="RLS" netid="HL" insttype="CMG3ESPC-120s" lat="38.0559" lon="21.4647">
    <comp name="--.HHE">
      <acc value="0.0131993168" flag="0"/>
      <vel value="0.0082378534" flag="0"/>
      <psa03 value="0.0260188305" flag="0"/>
      <psa10 value="0.0102162112" flag="0"/>
      <psa30 value="0.0012513146" flag="0"/>
    </comp>
    <comp name="--.HHZ">
      <acc value="0.0110392799" flag="0"/>
      <vel value="0.0049993973" flag="0"/>
      <psa03 value="0.0202020322" flag="0"/>
      <psa10 value="0.0057163921" flag="0"/>
      <psa30 value="0.0011000401" flag="0"/>
    </comp>
    <comp name="--.HHN">
      <acc value="0.0207292470" flag="0"/>
      <vel value="0.0101705577" flag="0"/>
      <psa03 value="0.0419907705" flag="0"/>
      <psa10 value="0.0131286508" flag="0"/>
      <psa30 value="0.0011871396" flag="0"/>
    </comp>
  </station>
  <station code="SOFA" name="SOFA" netid="HL" insttype="CMG-5" lat="39.3377" lon="22.0969">
    <comp name="00.HNN">
      <acc value="0.0353538872" flag="0"/>
      <vel value="0.0366378449" flag="0"/>
      <psa03 value="0.1116596561" flag="0"/>
      <psa10 value="0.0323068861" flag="0"/>
      <psa30 value="0.0073155356" flag="0"/>
    </comp>
    <comp name="00.HNZ">
      <acc value="0.0183424132" flag="0"/>
      <vel value="0.0114263591" flag="0"/>
      <psa03 value="0.0323224712" flag="0"/>
      <psa10 value="0.0158859937" flag="0"/>
      <psa30 value="0.0012158985" flag="0"/>
    </comp>
    <comp name="00.HNE">
      <acc value="0.0318779737" flag="0"/>
      <vel value="0.0324451069" flag="0"/>
      <psa03 value="0.0876401832" flag="0"/>
      <psa10 value="0.0198903540" flag="0"/>
      <psa30 value="0.0037620132" flag="0"/>
    </comp>
  </station>
  <station code="TETR" name="TETR" netid="HL" insttype="60" lat="39.3445" lon="21.2747">
    <comp name="--.HHZ">
      <acc value="0.0474229540" flag="0"/>
      <vel value="0.0269492373" flag="0"/>
      <psa03 value="0.1174128295" flag="0"/>
      <psa10 value="0.0483711633" flag="0"/>
      <psa30 value="0.0020425718" flag="0"/>
    </comp>
    <comp name="--.HHN">
      <acc value="0.0793753459" flag="0"/>
      <vel value="0.0282806840" flag="0"/>
      <psa03 value="0.1611374150" flag="0"/>
      <psa10 value="0.0402436178" flag="0"/>
      <psa30 value="0.0029707346" flag="0"/>
    </comp>
    <comp name="--.HHE">
      <acc value="0.1130687089" flag="0"/>
      <vel value="0.0801566415" flag="0"/>
      <psa03 value="0.4467848928" flag="0"/>
      <psa10 value="0.0452803019" flag="0"/>
      <psa30 value="0.0031059005" flag="0"/>
    </comp>
  </station>
  <station code="THL" name="THL" netid="HL" insttype="120" lat="39.5647" lon="22.0144">
    <comp name="--.HHE">
      <acc value="0.0077191844" flag="0"/>
      <vel value="0.0052944772" flag="0"/>
      <psa03 value="0.0192484349" flag="0"/>
      <psa10 value="0.0068935788" flag="0"/>
      <psa30 value="0.0014218015" flag="0"/>
    </comp>
    <comp name="--.HHN">
      <acc value="0.0075226940" flag="0"/>
      <vel value="0.0040657244" flag="0"/>
      <psa03 value="0.0245331230" flag="0"/>
      <psa10 value="0.0043340088" flag="0"/>
      <psa30 value="0.0007786843" flag="0"/>
    </comp>
    <comp name="--.HHZ">
      <acc value="0.0043342072" flag="0"/>
      <vel value="0.0038628062" flag="0"/>
      <psa03 value="0.0141991854" flag="0"/>
      <psa10 value="0.0036262989" flag="0"/>
      <psa30 value="0.0006283331" flag="0"/>
    </comp>
  </station>
  <station code="VLS" name="VLS" netid="HL" insttype="120P," lat="38.1768" lon="20.5886">
    <comp name="--.HHZ">
      <acc value="0.0211721058" flag="0"/>
      <vel value="0.0096207535" flag="0"/>
      <psa03 value="0.0370000120" flag="0"/>
      <psa10 value="0.0072173088" flag="0"/>
      <psa30 value="0.0015387835" flag="0"/>
    </comp>
    <comp name="--.HHE">
      <acc value="0.0547532488" flag="0"/>
      <vel value="0.0105322097" flag="0"/>
      <psa03 value="0.0639832210" flag="0"/>
      <psa10 value="0.0106049600" flag="0"/>
      <psa30 value="0.0014480795" flag="0"/>
    </comp>
    <comp name="--.HHN">
      <acc value="0.0478349647" flag="0"/>
      <vel value="0.0133048307" flag="0"/>
      <psa03 value="0.0523111467" flag="0"/>
      <psa10 value="0.0143098653" flag="0"/>
      <psa30 value="0.0013113388" flag="0"/>
    </comp>
  </station>
  <station code="AMPL" name="AMPL" netid="HP" insttype="Compact," lat="38.9224" lon="21.2135">
    <comp name="--.HHE">
      <acc value="0.5695917732" flag="0"/>
      <vel value="0.2063170123" flag="0"/>
      <psa03 value="0.7006509381" flag="0"/>
      <psa10 value="0.1145734732" flag="0"/>
      <psa30 value="0.0106099219" flag="0"/>
    </comp>
    <comp name="--.HHN">
      <acc value="0.7451778168" flag="0"/>
      <vel value="0.2699266656" flag="0"/>
      <psa03 value="0.5879669429" flag="0"/>
      <psa10 value="0.1248250228" flag="0"/>
      <psa30 value="0.0113125577" flag="0"/>
    </comp>
    <comp name="--.HHZ">
      <acc value="0.3712093973" flag="0"/>
      <vel value="0.1333993587" flag="0"/>
      <psa03 value="0.8286939500" flag="0"/>
      <psa10 value="0.1286234615" flag="0"/>
      <psa30 value="0.0091391938" flag="0"/>
    </comp>
  </station>
  <station code="ANX" name="ANX" netid="HP" insttype="120" lat="38.5933" lon="21.9209">
    <comp name="--.HHZ">
      <acc value="0.0341557291" flag="0"/>
      <vel value="0.0179230649" flag="0"/>
      <psa03 value="0.1049347174" flag="0"/>
      <psa10 value="0.0127428067" flag="0"/>
      <psa30 value="0.0011015898" flag="0"/>
    </comp>
    <comp name="--.HHE">
      <acc value="0.0496041256" flag="0"/>
      <vel value="0.0251477918" flag="0"/>
      <psa03 value="0.1289908967" flag="0"/>
      <psa10 value="0.0190492793" flag="0"/>
      <psa30 value="0.0018489049" flag="0"/>
    </comp>
    <comp name="--.HHN">
      <acc value="0.0657377878" flag="0"/>
      <vel value="0.0433460692" flag="0"/>
      <psa03 value="0.1695845933" flag="0"/>
      <psa10 value="0.0258489603" flag="0"/>
      <psa30 value="0.0017058944" flag="0"/>
    </comp>
  </station>
  <station code="AXS" name="AXS" netid="HP" insttype="40," lat="38.1962" lon="21.3763">
    <comp name="--.HHN">
      <acc value="0.0181160859" flag="0"/>
      <vel value="0.0086520741" flag="0"/>
      <psa03 value="0.0487589313" flag="0"/>
      <psa10 value="0.0054733336" flag="0"/>
      <psa30 value="0.0005476673" flag="0"/>
    </comp>
    <comp name="--.HHE">
      <acc value="0.0253266784" flag="0"/>
      <vel value="0.0138657207" flag="0"/>
      <psa03 value="0.0569196492" flag="0"/>
      <psa10 value="0.0109771890" flag="0"/>
      <psa30 value="0.0009947436" flag="0"/>
    </comp>
    <comp name="--.HHZ">
      <acc value="0.0123328051" flag="0"/>
      <vel value="0.0054113912" flag="0"/>
      <psa03 value="0.0218382354" flag="0"/>
      <psa10 value="0.0055286867" flag="0"/>
      <psa30 value="0.0004532357" flag="0"/>
    </comp>
  </station>
  <station code="DRO" name="DRO" netid="HP" insttype="120P," lat="37.952" lon="21.71">
    <comp name="--.HHE">
      <acc value="0.0373695612" flag="0"/>
      <vel value="0.0191446614" flag="0"/>
      <psa03 value="0.0958002987" flag="0"/>
      <psa10 value="0.0234240876" flag="0"/>
      <psa30 value="0.0021310832" flag="0"/>
    </comp>
    <comp name="--.HHN">
