<?xml version="1.0" encoding="UTF-8" standalone="yes"?>
<!DOCTYPE earthquake SYSTEM "stationlist.dtd">
<stationlist created="" xmlns="ch.ethz.sed.shakemap.usgs.xml">
  <station code="BAYT" name="BAYT" netid="KO" insttype="CMG-3ESPC" lat="40.3937" lon="40.141">
    <comp name="--.HHE">
      <acc value="0.0286164832" flag="0"/>
      <vel value="0.0106029043" flag="0"/>
      <psa03 value="0.0303748931" flag="0"/>
      <psa10 value="0.0071529484" flag="0"/>
      <psa30 value="0.0005172385" flag="0"/>
    </comp>
    <comp name="--.HHN">
      <acc value="0.0284877525" flag="0"/>
      <vel value="0.0092767717" flag="0"/>
      <psa03 value="0.0506775274" flag="0"/>
      <psa10 value="0.0066931452" flag="0"/>
      <psa30 value="0.0004966049" flag="0"/>
    </comp>
    <comp name="--.HHZ">
      <acc value="0.0021189007" flag="0"/>
      <vel value="0.0008903272" flag="0"/>
      <psa03 value="0.0079877887" flag="0"/>
      <psa10 value="0.0002597144" flag="0"/>
      <psa30 value="0.0000248470" flag="0"/>
    </comp>
  </station>
  <station code="ERZN" name="ERZN" netid="KO" insttype="CMG-3ESP" lat="39.5867" lon="39.722">
    <comp name="--.HHZ">
      <acc value="0.0151675328" flag="0"/>
      <vel value="0.0024890945" flag="0"/>
      <psa03 value="0.0087078886" flag="0"/>
      <psa10 value="0.0025612483" flag="0"/>
      <psa30 value="0.0005261434" flag="0"/>
    </comp>
    <comp name="--.HHN">
      <acc value="0.0207368635" flag="0"/>
      <vel value="0.0054145647" flag="0"/>
      <psa03 value="0.0182783230" flag="0"/>
      <psa10 value="0.0027200365" flag="0"/>
      <psa30 value="0.0003474933" flag="0"/>
    </comp>
  </station>
  <station code="KTUT" name="KTUT" netid="KO" insttype="CMG-3T" lat="40.987" lon="39.7667">
    <comp name="--.HHE">
      <acc value="0.0314867808" flag="0"/>
      <vel value="0.0097214750" flag="0"/>
      <psa03 value="0.0286561261" flag="0"/>
      <psa10 value="0.0089402385" flag="0"/>
      <psa30 value="0.0008712509" flag="0"/>
    </comp>
    <comp name="--.HHN">
      <acc value="0.0182036490" flag="0"/>
      <vel value="0.0051622417" flag="0"/>
      <psa03 value="0.0323653140" flag="0"/>
      <psa10 value="0.0036837387" flag="0"/>
      <psa30 value="0.0002935927" flag="0"/>
    </comp>
    <comp name="--.HHZ">
      <acc value="0.0144188610" flag="0"/>
      <vel value="0.0054088821" flag="0"/>
      <psa03 value="0.0413684905" flag="0"/>
      <psa10 value="0.0067383176" flag="0"/>
      <psa30 value="0.0003722565" flag="0"/>
    </comp>
  </station>
  <station code="SINE" name="SINE" netid="KO" insttype="CMG-6T" lat="39.1636" lon="39.3871">
    <comp name="--.HHE">
      <acc value="0.0198557135" flag="0"/>
      <vel value="0.0051411194" flag="0"/>
      <psa03 value="0.0249469976" flag="0"/>
      <psa10 value="0.0038188467" flag="0"/>
      <psa30 value="0.0002009773" flag="0"/>
    </comp>
    <comp name="--.HHN">
      <acc value="0.0162922430" flag="0"/>
      <vel value="0.0045180082" flag="0"/>
      <psa03 value="0.0174099441" flag="0"/>
      <psa10 value="0.0027763135" flag="0"/>
      <psa30 value="0.0001288831" flag="0"/>
    </comp>
    <comp name="--.HHZ">
      <acc value="0.0143416687" flag="0"/>
      <vel value="0.0051678383" flag="0"/>
      <psa03 value="0.0233851607" flag="0"/>
      <psa10 value="0.0048584754" flag="0"/>
      <psa30 value="0.0002520909" flag="0"/>
    </comp>
  </station>
  <station code="YEDI" name="YEDI" netid="KO" insttype="CMG-3T" lat="39.4377" lon="40.5443">
    <comp name="--.HHZ">
      <acc value="0.0000274333" flag="0"/>
      <vel value="0.0000026248" flag="0"/>
      <psa03 value="0.0000119099" flag="0"/>
      <psa10 value="0.0000033375" flag="0"/>
      <psa30 value="0.0000004419" flag="0"/>
    </comp>
    <comp name="--.HHN">
      <acc value="0.0018362664" flag="0"/>
      <vel value="0.0016745870" flag="0"/>
      <psa03 value="0.0053646560" flag="0"/>
      <psa10 value="0.0018120238" flag="0"/>
      <psa30 value="0.0003276391" flag="0"/>
    </comp>
    <comp name="--.HHE">
      <acc value="0.0027081633" flag="0"/>
      <vel value="0.0015301780" flag="0"/>
      <psa03 value="0.0070928701" flag="0"/>
      <psa10 value="0.0020940753" flag="0"/>
      <psa30 value="0.0002308789" flag="0"/>
    </comp>
  </station>
</stationlist>
