<stationlist created="1775066133">
	<station code="KTHA" name="KTHA" netid="GE" source="GEOFON" insttype="" lat="36.2566" lon="23.0621">
		<comp name="--.HNE" depth="0.0">
			<acc value="0.0164905437500737" flag="0"/>
			<vel value="0.00528257941128197" flag="0"/>
			<psa03 value="0.03737264762949" flag="0"/>
			<psa10 value="0.00115694800931511" flag="0"/>
			<psa30 value="0.000107064253939713" flag="0"/>
		</comp>
		<comp name="--.HNN" depth="0.0">
			<acc value="0.0120521064573513" flag="0"/>
			<vel value="0.00354500226382393" flag="0"/>
			<psa03 value="0.0282479025349094" flag="0"/>
			<psa10 value="0.000619715428105706" flag="0"/>
			<psa30 value="6.29926104512907e-05" flag="0"/>
		</comp>
		<comp name="--.HNZ" depth="0.0">
			<acc value="0.0136171711959262" flag="0"/>
			<vel value="0.00418481965732666" flag="0"/>
			<psa03 value="0.0157187444146739" flag="0"/>
			<psa10 value="0.000632193090627111" flag="0"/>
			<psa30 value="6.70185802770332e-05" flag="0"/>
		</comp>
	</station>
	<station code="ATEI" name="ATEI" netid="HC" source="Seismological Network of Crete (HC)" insttype="" lat="35.5193" lon="24.0432">
		<comp name="--.HNE" depth="0.0">
			<acc value="0.0166040733356186" flag="0"/>
			<vel value="0.0110088635457163" flag="0"/>
			<psa03 value="0.0518513932336616" flag="0"/>
			<psa10 value="0.0280741910273746" flag="0"/>
			<psa30 value="0.00166297037195904" flag="0"/>
		</comp>
		<comp name="--.HNN" depth="0.0">
			<acc value="0.0171240784356842" flag="0"/>
			<vel value="0.0161630326975481" flag="0"/>
			<psa03 value="0.0803599119914501" flag="0"/>
			<psa10 value="0.0227276137178675" flag="0"/>
			<psa30 value="0.00200122590472801" flag="0"/>
		</comp>
		<comp name="--.HNZ" depth="0.0">
			<acc value="0.0141223439498334" flag="0"/>
			<vel value="0.00952692138029459" flag="0"/>
			<psa03 value="0.0307650328241043" flag="0"/>
			<psa10 value="0.0149687444183549" flag="0"/>
			<psa30 value="0.00100278247108397" flag="0"/>
		</comp>
	</station>
	<station code="G0LD" name="G0LD" netid="HC" source="Seismological Network of Crete (HC)" insttype="" lat="35.4955" lon="24.0306">
		<comp name="--.HNE" depth="0.0">
			<acc value="0.00394638855295689" flag="0"/>
			<vel value="0.00339360630386045" flag="0"/>
			<psa03 value="0.00232975459522476" flag="0"/>
			<psa10 value="0.0025040535375076" flag="0"/>
			<psa30 value="0.00203457353051123" flag="0"/>
		</comp>
		<comp name="--.HNN" depth="0.0">
			<acc value="0.00394967258443056" flag="0"/>
			<vel value="0.00263827093525896" flag="0"/>
			<psa03 value="0.00175343109761107" flag="0"/>
			<psa10 value="0.00183377057986374" flag="0"/>
			<psa30 value="0.00165053673579166" flag="0"/>
		</comp>
		<comp name="--.HNZ" depth="0.0">
			<acc value="0.00394452228901037" flag="0"/>
			<vel value="0.00354324033332377" flag="0"/>
			<psa03 value="0.00209939574784208" flag="0"/>
			<psa10 value="0.00208200971980096" flag="0"/>
			<psa30 value="0.00201759990609191" flag="0"/>
		</comp>
	</station>
	<station code="MULT" name="MULT" netid="HC" source="Seismological Network of Crete (HC)" insttype="" lat="35.5091" lon="24.0118">
		<comp name="--.HNE" depth="0.0">
			<acc value="0.0134703210984233" flag="0"/>
			<vel value="0.0030542935317639" flag="0"/>
			<psa03 value="0.00169491729297327" flag="0"/>
			<psa10 value="0.00116448038329792" flag="0"/>
			<psa30 value="0.00103379921329092" flag="0"/>
		</comp>
		<comp name="--.HNN" depth="0.0">
			<acc value="0.00375859015051174" flag="0"/>
			<vel value="0.00294513151767852" flag="0"/>
			<psa03 value="0.00161726712949978" flag="0"/>
			<psa10 value="0.00138371252353878" flag="0"/>
			<psa30 value="0.00130941726330074" flag="0"/>
		</comp>
		<comp name="--.HNZ" depth="0.0">
			<acc value="0.0149709410328367" flag="0"/>
			<vel value="0.00640167287052316" flag="0"/>
			<psa03 value="0.00353894765405966" flag="0"/>
			<psa10 value="0.00254151922255036" flag="0"/>
			<psa30 value="0.00245840764910818" flag="0"/>
		</comp>
	</station>
	<station code="ARE2" name="ARE2" netid="HI" source="ITSAK Strong Motion Network" insttype="" lat="36.66629" lon="22.382635">
		<comp name="--.HNE" depth="0.0">
			<acc value="0.0157220235387016" flag="0"/>
			<vel value="0.00919710276991714" flag="0"/>
			<psa03 value="0.0714204500042994" flag="0"/>
			<psa10 value="0.0132592442973617" flag="0"/>
			<psa30 value="0.0018467427543108" flag="0"/>
		</comp>
		<comp name="--.HNN" depth="0.0">
			<acc value="0.0171469095604164" flag="0"/>
			<vel value="0.0102084434200074" flag="0"/>
			<psa03 value="0.0512266383050471" flag="0"/>
			<psa10 value="0.0107542724177684" flag="0"/>
			<psa30 value="0.000696739488905053" flag="0"/>
		</comp>
		<comp name="--.HNZ" depth="0.0">
			<acc value="0.0075376285153075" flag="0"/>
			<vel value="0.00425165544468913" flag="0"/>
			<psa03 value="0.0183126519253996" flag="0"/>
			<psa10 value="0.00816787983195299" flag="0"/>
			<psa30 value="0.000953776828867351" flag="0"/>
		</comp>
	</station>
	<station code="CH01" name="CH01" netid="HI" source="ITSAK Strong Motion Network" insttype="" lat="35.517" lon="24.0208">
		<comp name="--.HNE" depth="0.0">
			<acc value="0.0206790406835094" flag="0"/>
			<vel value="0.0200821873797286" flag="0"/>
			<psa03 value="0.0531219878209839" flag="0"/>
			<psa10 value="0.0318227893536165" flag="0"/>
			<psa30 value="0.00254720394809386" flag="0"/>
		</comp>
		<comp name="--.HNN" depth="0.0">
			<acc value="0.0209426672537198" flag="0"/>
			<vel value="0.0147654382613063" flag="0"/>
			<psa03 value="0.0501875903065499" flag="0"/>
			<psa10 value="0.0312999915958308" flag="0"/>
			<psa30 value="0.00407879186661016" flag="0"/>
		</comp>
		<comp name="--.HNZ" depth="0.0">
			<acc value="0.0107775671605942" flag="0"/>
			<vel value="0.010472576188669" flag="0"/>
			<psa03 value="0.0244478252776076" flag="0"/>
			<psa10 value="0.0179659701573505" flag="0"/>
			<psa30 value="0.00132289576035169" flag="0"/>
		</comp>
	</station>
	<station code="CH02" name="CH02" netid="HI" source="ITSAK Strong Motion Network" insttype="" lat="35.5145" lon="24.0315">
		<comp name="--.HNE" depth="0.0">
			<acc value="0.0200997479200458" flag="0"/>
			<vel value="0.0162238877577303" flag="0"/>
			<psa03 value="0.0455473974998827" flag="0"/>
			<psa10 value="0.0288074189751276" flag="0"/>
			<psa30 value="0.00206941271343611" flag="0"/>
		</comp>
		<comp name="--.HNN" depth="0.0">
			<acc value="0.019281409013105" flag="0"/>
			<vel value="0.0138142516062502" flag="0"/>
			<psa03 value="0.0746167711198866" flag="0"/>
			<psa10 value="0.0225926028990633" flag="0"/>
			<psa30 value="0.00312147949103019" flag="0"/>
		</comp>
		<comp name="--.HNZ" depth="0.0">
			<acc value="0.0119455428990834" flag="0"/>
			<vel value="0.00785741038189574" flag="0"/>
			<psa03 value="0.03156782037984" flag="0"/>
			<psa10 value="0.0179494015597622" flag="0"/>
			<psa30 value="0.00129194704348442" flag="0"/>
		</comp>
	</station>
	<station code="CH03" name="CH03" netid="HI" source="ITSAK Strong Motion Network" insttype="" lat="35.53303" lon="24.0705">
		<comp name="--.HNE" depth="0.0">
			<acc value="0.0321882423472927" flag="0"/>
			<vel value="0.0138884644955012" flag="0"/>
			<psa03 value="0.0402595966881967" flag="0"/>
			<psa10 value="0.0167299970301967" flag="0"/>
			<psa30 value="0.00269878878151181" flag="0"/>
		</comp>
		<comp name="--.HNN" depth="0.0">
			<acc value="0.0339124894867377" flag="0"/>
			<vel value="0.0122543881684953" flag="0"/>
			<psa03 value="0.0353029323960134" flag="0"/>
			<psa10 value="0.0165327095858717" flag="0"/>
			<psa30 value="0.00343315867991347" flag="0"/>
		</comp>
		<comp name="--.HNZ" depth="0.0">
			<acc value="0.0176403176595992" flag="0"/>
			<vel value="0.00616609478409366" flag="0"/>
			<psa03 value="0.0274330829321097" flag="0"/>
			<psa10 value="0.0139981623095536" flag="0"/>
			<psa30 value="0.00129954733863334" flag="0"/>
		</comp>
	</station>
	<station code="GTH2" name="GTH2" netid="HI" source="ITSAK Strong Motion Network" insttype="" lat="36.7603" lon="22.5659">
		<comp name="--.HNE" depth="0.0">
			<acc value="0.0190617231312582" flag="0"/>
			<vel value="0.0162370638522543" flag="0"/>
			<psa03 value="0.0509154874844989" flag="0"/>
			<psa10 value="0.0323302729719156" flag="0"/>
			<psa30 value="0.00315564654609657" flag="0"/>
		</comp>
		<comp name="--.HNN" depth="0.0">
			<acc value="0.0238981194654441" flag="0"/>
			<vel value="0.0163637301239027" flag="0"/>
			<psa03 value="0.0601677722779586" flag="0"/>
			<psa10 value="0.0251986280354389" flag="0"/>
			<psa30 value="0.00299533800977612" flag="0"/>
		</comp>
		<comp name="--.HNZ" depth="0.0">
			<acc value="0.0138502803558877" flag="0"/>
			<vel value="0.00686171992363076" flag="0"/>
			<psa03 value="0.0308625470964463" flag="0"/>
			<psa10 value="0.0116114563894997" flag="0"/>
			<psa30 value="0.00118389071861654" flag="0"/>
		</comp>
	</station>
	<station code="KAL3" name="KAL3" netid="HI" source="ITSAK Strong Motion Network" insttype="" lat="37.0246" lon="22.103">
		<comp name="--.HNE" depth="0.0">
			<acc value="0.0205649069395005" flag="0"/>
			<vel value="0.0220531924404737" flag="0"/>
			<psa03 value="0.0548606394564553" flag="0"/>
			<psa10 value="0.0292604883637511" flag="0"/>
			<psa30 value="0.00273753072297529" flag="0"/>
		</comp>
		<comp name="--.HNN" depth="0.0">
			<acc value="0.0180187900205587" flag="0"/>
			<vel value="0.0159858390205052" flag="0"/>
			<psa03 value="0.0578472643890328" flag="0"/>
			<psa10 value="0.020931974140558" flag="0"/>
			<psa30 value="0.00329344588295968" flag="0"/>
		</comp>
		<comp name="--.HNZ" depth="0.0">
			<acc value="0.00901358466517073" flag="0"/>
			<vel value="0.00739141592210862" flag="0"/>
			<psa03 value="0.0221411464297879" flag="0"/>
			<psa10 value="0.0179589628181487" flag="0"/>
			<psa30 value="0.00134273926238631" flag="0"/>
		</comp>
	</station>
	<station code="KIS1" name="KIS1" netid="HI" source="ITSAK Strong Motion Network" insttype="" lat="35.493933" lon="23.658993">
		<comp name="--.HNE" depth="0.0">
			<acc value="0.026814843491961" flag="0"/>
			<vel value="0.0213049575569533" flag="0"/>
			<psa03 value="0.0597751889795751" flag="0"/>
			<psa10 value="0.0241902237336029" flag="0"/>
			<psa30 value="0.00292229233752549" flag="0"/>
		</comp>
		<comp name="--.HNN" depth="0.0">
			<acc value="0.0327189318325852" flag="0"/>
			<vel value="0.02132820071301" flag="0"/>
			<psa03 value="0.084338633895583" flag="0"/>
			<psa10 value="0.0360701632212902" flag="0"/>
			<psa30 value="0.00274413720228879" flag="0"/>
		</comp>
		<comp name="--.HNZ" depth="0.0">
			<acc value="0.0201036746947129" flag="0"/>
			<vel value="0.0128574022973575" flag="0"/>
			<psa03 value="0.0513212174871204" flag="0"/>
			<psa10 value="0.0250481230652233" flag="0"/>
			<psa30 value="0.00133118474695637" flag="0"/>
		</comp>
	</station>
	<station code="KYP2" name="KYP2" netid="HI" source="ITSAK Strong Motion Network" insttype="" lat="37.2497" lon="21.667">
		<comp name="--.HNE" depth="0.0">
			<acc value="0.0233545795183332" flag="0"/>
			<vel value="0.00354322633617621" flag="0"/>
			<psa03 value="0.0116421110764723" flag="0"/>
			<psa10 value="0.00672489674140503" flag="0"/>
			<psa30 value="0.000726104350849708" flag="0"/>
		</comp>
		<comp name="--.HNN" depth="0.0">
			<acc value="0.0169162161038213" flag="0"/>
			<vel value="0.00285630799473623" flag="0"/>
			<psa03 value="0.0146953953728222" flag="0"/>
			<psa10 value="0.00501005439151536" flag="0"/>
			<psa30 value="0.000902852205360969" flag="0"/>
		</comp>
		<comp name="--.HNZ" depth="0.0">
			<acc value="0.0228810663764699" flag="0"/>
			<vel value="0.00211436490819154" flag="0"/>
			<psa03 value="0.00635004240393653" flag="0"/>
			<psa10 value="0.00296554176508781" flag="0"/>
			<psa30 value="0.00100362461020489" flag="0"/>
		</comp>
	</station>
	<station code="LEO1" name="LEO1" netid="HI" source="ITSAK Strong Motion Network" insttype="" lat="37.1689" lon="22.8637">
		<comp name="--.HNE" depth="0.0">
			<acc value="0.00595927789443235" flag="0"/>
			<vel value="0.00481816771748253" flag="0"/>
			<psa03 value="0.0170853570814727" flag="0"/>
			<psa10 value="0.00809592944059268" flag="0"/>
			<psa30 value="0.000631663563361028" flag="0"/>
		</comp>
		<comp name="--.HNN" depth="0.0">
			<acc value="0.00584013537488883" flag="0"/>
			<vel value="0.00381546668657173" flag="0"/>
			<psa03 value="0.0122580477125849" flag="0"/>
			<psa10 value="0.00662739918892068" flag="0"/>
			<psa30 value="0.000633119284795429" flag="0"/>
		</comp>
		<comp name="--.HNZ" depth="0.0">
			<acc value="0.00479894790087258" flag="0"/>
			<vel value="0.00348883375791782" flag="0"/>
			<psa03 value="0.00837957789236887" flag="0"/>
			<psa10 value="0.00666772279766186" flag="0"/>
			<psa30 value="0.000904845045710195" flag="0"/>
		</comp>
	</station>
	<station code="PET1" name="PET1" netid="HI" source="ITSAK Strong Motion Network" insttype="" lat="36.963862" lon="21.92538">
		<comp name="--.HNE" depth="0.0">
			<acc value="0.0135294001695458" flag="0"/>
			<vel value="0.00931138063080975" flag="0"/>
			<psa03 value="0.0562049889296768" flag="0"/>
			<psa10 value="0.0208571173066601" flag="0"/>
			<psa30 value="0.00137824911473976" flag="0"/>
		</comp>
		<comp name="--.HNN" depth="0.0">
			<acc value="0.0158865034079338" flag="0"/>
			<vel value="0.00952217102250982" flag="0"/>
			<psa03 value="0.0321586902512358" flag="0"/>
			<psa10 value="0.0172327497100943" flag="0"/>
			<psa30 value="0.00108683501831939" flag="0"/>
		</comp>
		<comp name="--.HNZ" depth="0.0">
			<acc value="0.00747598006519926" flag="0"/>
			<vel value="0.00416403202528557" flag="0"/>
			<psa03 value="0.0263205743380419" flag="0"/>
			<psa10 value="0.00808256355516836" flag="0"/>
			<psa30 value="0.000993457582522538" flag="0"/>
		</comp>
	</station>
	<station code="PYL1" name="PYL1" netid="HI" source="ITSAK Strong Motion Network" insttype="" lat="36.914188" lon="21.695161">
		<comp name="--.HNE" depth="0.0">
			<acc value="0.00597547958036895" flag="0"/>
			<vel value="0.00352090684067974" flag="0"/>
			<psa03 value="0.0135173056114073" flag="0"/>
			<psa10 value="0.00604537844540283" flag="0"/>
			<psa30 value="0.00074723465687878" flag="0"/>
		</comp>
		<comp name="--.HNN" depth="0.0">
			<acc value="0.00506245228796499" flag="0"/>
			<vel value="0.00361067515583734" flag="0"/>
			<psa03 value="0.0103544932260257" flag="0"/>
			<psa10 value="0.00632368953839686" flag="0"/>
			<psa30 value="0.00070344149538009" flag="0"/>
		</comp>
		<comp name="--.HNZ" depth="0.0">
			<acc value="0.00385535806575829" flag="0"/>
			<vel value="0.00209322806639914" flag="0"/>
			<psa03 value="0.00758149833080635" flag="0"/>
			<psa10 value="0.00393438750886349" flag="0"/>
			<psa30 value="0.000628862492387157" flag="0"/>
		</comp>
	</station>
	<station code="RTH1" name="RTH1" netid="HI" source="ITSAK Strong Motion Network" insttype="" lat="35.365393" lon="24.471773">
		<comp name="--.HNE" depth="0.0">
			<acc value="0.0121508946305947" flag="0"/>
			<vel value="0.00600598101449555" flag="0"/>
			<psa03 value="0.0406057498274767" flag="0"/>
			<psa10 value="0.00568392762605995" flag="0"/>
			<psa30 value="0.00192815877272245" flag="0"/>
		</comp>
		<comp name="--.HNN" depth="0.0">
			<acc value="0.0115089551786037" flag="0"/>
			<vel value="0.00528568308160346" flag="0"/>
			<psa03 value="0.039878482899612" flag="0"/>
			<psa10 value="0.00570767748062126" flag="0"/>
			<psa30 value="0.00118464774793268" flag="0"/>
		</comp>
		<comp name="--.HNZ" depth="0.0">
			<acc value="0.0097397942657791" flag="0"/>
			<vel value="0.00332098332099708" flag="0"/>
			<psa03 value="0.0210211021802699" flag="0"/>
			<psa10 value="0.00408101612853993" flag="0"/>
			<psa30 value="0.000740061994225081" flag="0"/>
		</comp>
	</station>
	<station code="CHNB" name="CHNB" netid="HL" source="National Observatory of Athens Seismic Network" insttype="" lat="35.48765" lon="24.06605">
		<comp name="00.HNE" depth="0.0">
			<acc value="0.0535405174927287" flag="0"/>
			<vel value="0.0372310087032923" flag="0"/>
			<psa03 value="0.174004901970784" flag="0"/>
			<psa10 value="0.0387388100060427" flag="0"/>
			<psa30 value="0.00333743004669467" flag="0"/>
		</comp>
		<comp name="00.HNN" depth="0.0">
			<acc value="0.0468009867063381" flag="0"/>
			<vel value="0.041068296113881" flag="0"/>
			<psa03 value="0.0996559454673012" flag="0"/>
			<psa10 value="0.0563549719903185" flag="0"/>
			<psa30 value="0.00304804441798366" flag="0"/>
		</comp>
		<comp name="00.HNZ" depth="0.0">
			<acc value="0.0271367180189058" flag="0"/>
			<vel value="0.0148237640645046" flag="0"/>
			<psa03 value="0.105308559508573" flag="0"/>
			<psa10 value="0.0102964636526846" flag="0"/>
			<psa30 value="0.00108974104416267" flag="0"/>
		</comp>
	</station>
	<station code="IMMV" name="IMMV" netid="HL" source="National Observatory of Athens Seismic Network" insttype="" lat="35.4606" lon="23.9811">
		<comp name="--.HNE" depth="0.0">
			<acc value="0.0228360751280587" flag="0"/>
			<vel value="0.0125922621238518" flag="0"/>
			<psa03 value="0.0664653040418646" flag="0"/>
			<psa10 value="0.0144663264481301" flag="0"/>
			<psa30 value="0.00133715930940848" flag="0"/>
		</comp>
		<comp name="--.HNN" depth="0.0">
			<acc value="0.0176017895902017" flag="0"/>
			<vel value="0.0116859188698962" flag="0"/>
			<psa03 value="0.070416581419599" flag="0"/>
			<psa10 value="0.0241652658302643" flag="0"/>
			<psa30 value="0.00209110873402433" flag="0"/>
		</comp>
		<comp name="--.HNZ" depth="0.0">
			<acc value="0.012530226589252" flag="0"/>
			<vel value="0.00707634022205085" flag="0"/>
			<psa03 value="0.0437218599003093" flag="0"/>
			<psa10 value="0.00710556758398012" flag="0"/>
			<psa30 value="0.00111502376068523" flag="0"/>
		</comp>
	</station>
	<station code="KTHA" name="KTHA" netid="HL" source="National Observatory of Athens Seismic Network" insttype="" lat="36.2566" lon="23.0621">
		<comp name="--.HNE" depth="0.0">
			<acc value="0.135884571559988" flag="0"/>
			<vel value="0.0427999306472125" flag="0"/>
			<psa03 value="0.299712937844551" flag="0"/>
			<psa10 value="0.0102557153283081" flag="0"/>
			<psa30 value="0.000937757746848452" flag="0"/>
		</comp>
		<comp name="--.HNN" depth="0.0">
			<acc value="0.0955256788104222" flag="0"/>
			<vel value="0.0302326244228661" flag="0"/>
			<psa03 value="0.237708580360169" flag="0"/>
			<psa10 value="0.00539947034466111" flag="0"/>
			<psa30 value="0.000541398937939257" flag="0"/>
		</comp>
		<comp name="--.HNZ" depth="0.0">
			<acc value="0.11763597111768" flag="0"/>
			<vel value="0.0351997469550151" flag="0"/>
			<psa03 value="0.129697685585147" flag="0"/>
			<psa10 value="0.00481962943304642" flag="0"/>
			<psa30 value="0.000508374146042204" flag="0"/>
		</comp>
	</station>
	<station code="MNVA" name="MNVA" netid="HL" source="National Observatory of Athens Seismic Network" insttype="" lat="36.68709" lon="23.03734">
		<comp name="00.HNE" depth="0.0">
			<acc value="0.00554449282886845" flag="0"/>
			<vel value="0.00493897879683632" flag="0"/>
			<psa03 value="0.0155891290574592" flag="0"/>
			<psa10 value="0.00982695317491965" flag="0"/>
			<psa30 value="0.00150569036959744" flag="0"/>
		</comp>
		<comp name="00.HNN" depth="0.0">
			<acc value="0.00465415118037591" flag="0"/>
			<vel value="0.00548625711995973" flag="0"/>
			<psa03 value="0.014269226516227" flag="0"/>
			<psa10 value="0.00691823329900313" flag="0"/>
			<psa30 value="0.00168943379169739" flag="0"/>
		</comp>
		<comp name="00.HNZ" depth="0.0">
			<acc value="0.00647853239325581" flag="0"/>
			<vel value="0.00444518302872934" flag="0"/>
			<psa03 value="0.0142430190509443" flag="0"/>
			<psa10 value="0.00627640734368351" flag="0"/>
			<psa30 value="0.00141760838876516" flag="0"/>
		</comp>
	</station>
	<station code="VALY" name="VALY" netid="HP" source="University of Patras, Seismological Laboratory (PSLNET)" insttype="" lat="37.1641" lon="21.9836">
