<?xml version="1.0" encoding="UTF-8" standalone="yes"?>
<!DOCTYPE earthquake SYSTEM "stationlist.dtd">
<stationlist created="" xmlns="ch.ethz.sed.shakemap.usgs.xml">
  <station code="KTHA" name="KTHA" netid="GE" insttype="FBA-EST/10.0" commtype="DIG" lat="36.2566" lon="23.0621">
    <comp name="--.HNE">
      <acc value="0.0243539934" flag="0"/>
      <vel value="0.0215867677" flag="0"/>
      <psa03 value="0.0637970595" flag="0"/>
      <psa10 value="0.0315467789" flag="0"/>
      <psa30 value="0.0026305240" flag="0"/>
    </comp>
    <comp name="--.HNN">
      <acc value="0.0137733881" flag="0"/>
      <vel value="0.0078835544" flag="0"/>
      <psa03 value="0.0380978164" flag="0"/>
      <psa10 value="0.0104332332" flag="0"/>
      <psa30 value="0.0025156047" flag="0"/>
    </comp>
    <comp name="--.HNZ">
      <acc value="0.0170774428" flag="0"/>
      <vel value="0.0119447144" flag="0"/>
      <psa03 value="0.0206152569" flag="0"/>
      <psa10 value="0.0097336151" flag="0"/>
      <psa30 value="0.0051181982" flag="0"/>
    </comp>
  </station>
</stationlist>
