<?xml version="1.0" encoding="UTF-8" standalone="yes"?>
<!DOCTYPE earthquake SYSTEM "stationlist.dtd">
<stationlist created="" xmlns="ch.ethz.sed.shakemap.usgs.xml">
  <station code="RDI1" name="RDI1" netid="HI" insttype="CMG-5TD,ACCELEROMETER,GURALP" lat="36.4514" lon="28.224">
    <comp name="--.HNE">
      <acc value="0.0120293270" flag="0"/>
      <vel value="0.0093386890" flag="0"/>
      <psa03 value="0.0422872462" flag="0"/>
      <psa10 value="0.0185190478" flag="0"/>
      <psa30 value="0.0023015812" flag="0"/>
    </comp>
    <comp name="--.HNN">
      <acc value="0.0127404055" flag="0"/>
      <vel value="0.0117622872" flag="0"/>
      <psa03 value="0.0362453526" flag="0"/>
      <psa10 value="0.0201597086" flag="0"/>
      <psa30 value="0.0018445158" flag="0"/>
    </comp>
    <comp name="--.HNZ">
      <acc value="0.0111636476" flag="0"/>
      <vel value="0.0062056738" flag="0"/>
      <psa03 value="0.0292343122" flag="0"/>
      <psa10 value="0.0137902694" flag="0"/>
      <psa30 value="0.0008950829" flag="0"/>
    </comp>
  </station>
  <station code="KSL" name="KSL" netid="HL" insttype="60" lat="36.1503" lon="29.5856">
    <comp name="--.HHE">
      <acc value="0.0103420088" flag="0"/>
      <vel value="0.0075952540" flag="0"/>
      <psa03 value="0.0208296135" flag="0"/>
      <psa10 value="0.0124412738" flag="0"/>
      <psa30 value="0.0013763577" flag="0"/>
    </comp>
    <comp name="--.HHN">
      <acc value="0.0069242048" flag="0"/>
      <vel value="0.0056070077" flag="0"/>
      <psa03 value="0.0171312120" flag="0"/>
      <psa10 value="0.0062114149" flag="0"/>
      <psa30 value="0.0009305535" flag="0"/>
    </comp>
    <comp name="--.HHZ">
      <acc value="0.0058279419" flag="0"/>
      <vel value="0.0067560949" flag="0"/>
      <psa03 value="0.0176294619" flag="0"/>
      <psa10 value="0.0133343456" flag="0"/>
      <psa30 value="0.0006356654" flag="0"/>
    </comp>
  </station>
  <station code="FETI" name="FETI" netid="KO" insttype="100" lat="36.6903" lon="29.0968">
    <comp name="--.HNN">
      <acc value="0.0016664277" flag="0"/>
      <vel value="0.0074212256" flag="0"/>
      <psa03 value="0.0014548879" flag="0"/>
      <psa10 value="0.0016699632" flag="0"/>
      <psa30 value="0.0021631329" flag="0"/>
    </comp>
    <comp name="--.HNZ">
      <acc value="0.0598324403" flag="0"/>
      <vel value="0.0322871685" flag="0"/>
      <psa03 value="0.1639342001" flag="0"/>
      <psa10 value="0.0259487088" flag="0"/>
      <psa30 value="0.0014423280" flag="0"/>
    </comp>
    <comp name="--.HNE">
      <acc value="0.1023079040" flag="0"/>
      <vel value="0.0634068782" flag="0"/>
      <psa03 value="0.1203609389" flag="0"/>
      <psa10 value="0.0668973209" flag="0"/>
      <psa30 value="0.0044360639" flag="0"/>
    </comp>
  </station>
  <station code="AYDN" name="AYDN" netid="TU" source="ODC" insttype="T" lat="37.6608" lon="27.8792">
    <comp name="--.HHE">
      <acc value="0.0164023094" flag="0"/>
      <vel value="0.0077999202" flag="0"/>
      <psa03 value="0.0398887865" flag="0"/>
      <psa10 value="0.0060400837" flag="0"/>
      <psa30 value="0.0006310925" flag="0"/>
    </comp>
    <comp name="--.HHN">
      <acc value="0.0161948580" flag="0"/>
      <vel value="0.0098874082" flag="0"/>
      <psa03 value="0.0323878386" flag="0"/>
      <psa10 value="0.0074499302" flag="0"/>
      <psa30 value="0.0009406813" flag="0"/>
    </comp>
    <comp name="--.HHZ">
      <acc value="0.0111933497" flag="0"/>
      <vel value="0.0038029072" flag="0"/>
      <psa03 value="0.0224460274" flag="0"/>
      <psa10 value="0.0059044013" flag="0"/>
      <psa30 value="0.0004972291" flag="0"/>
    </comp>
  </station>
</stationlist>
