<stationlist created="1778136066">
	<station code="BASM" name="BASM" netid="KO" source="Bogazici University Kandilli Observatory And Earthquake Research Institute (KOERI)" insttype="" lat="37.9194" lon="30.035">
		<comp name="--.HNE" depth="0.0">
			<acc value="0.0326852037391499" flag="0"/>
			<vel value="0.0280462540090084" flag="0"/>
			<psa03 value="0.0896633820630166" flag="0"/>
			<psa10 value="0.0338130278076265" flag="0"/>
			<psa30 value="0.00292703515696734" flag="0"/>
		</comp>
		<comp name="--.HNN" depth="0.0">
			<acc value="0.03047806647019" flag="0"/>
			<vel value="0.0275256968628717" flag="0"/>
			<psa03 value="0.0843390594754423" flag="0"/>
			<psa10 value="0.0423216532402233" flag="0"/>
			<psa30 value="0.00244784612408565" flag="0"/>
		</comp>
		<comp name="--.HNZ" depth="0.0">
			<acc value="0.0250205351975122" flag="0"/>
			<vel value="0.0167561976266829" flag="0"/>
			<psa03 value="0.054003843388254" flag="0"/>
			<psa10 value="0.0199366798470357" flag="0"/>
			<psa30 value="0.0023404648282018" flag="0"/>
		</comp>
	</station>
	<station code="NAZL" name="NAZL" netid="KO" source="Bogazici University Kandilli Observatory And Earthquake Research Institute (KOERI)" insttype="" lat="37.9641" lon="28.2922">
		<comp name="--.HNE" depth="0.0">
			<acc value="0.0348252332261229" flag="0"/>
			<vel value="0.0215285657949919" flag="0"/>
			<psa03 value="0.11391365805012" flag="0"/>
			<psa10 value="0.0245513910376443" flag="0"/>
			<psa30 value="0.00244023994896054" flag="0"/>
		</comp>
		<comp name="--.HNN" depth="0.0">
			<acc value="0.0371642166461233" flag="0"/>
			<vel value="0.0243131132135764" flag="0"/>
			<psa03 value="0.127604773275311" flag="0"/>
			<psa10 value="0.0379888179513098" flag="0"/>
			<psa30 value="0.00236641530804039" flag="0"/>
		</comp>
		<comp name="--.HNZ" depth="0.0">
			<acc value="0.0229474347476664" flag="0"/>
			<vel value="0.0134613295433703" flag="0"/>
			<psa03 value="0.0492164272800989" flag="0"/>
			<psa10 value="0.0114401348102259" flag="0"/>
			<psa30 value="0.00167201626132481" flag="0"/>
		</comp>
	</station>
	<station code="ODEM" name="ODEM" netid="KO" source="Bogazici University Kandilli Observatory And Earthquake Research Institute (KOERI)" insttype="" lat="38.2762" lon="28.0747">
		<comp name="--.HNE" depth="0.0">
			<acc value="0.00683265984636226" flag="0"/>
			<vel value="0.00619150782587526" flag="0"/>
			<psa03 value="0.0131094665391536" flag="0"/>
			<psa10 value="0.00862137579327478" flag="0"/>
			<psa30 value="0.00144248874137308" flag="0"/>
		</comp>
		<comp name="--.HNN" depth="0.0">
			<acc value="0.00906676502159464" flag="0"/>
			<vel value="0.00800127293412432" flag="0"/>
			<psa03 value="0.0255925421856514" flag="0"/>
			<psa10 value="0.0145971449092112" flag="0"/>
			<psa30 value="0.00147246601980732" flag="0"/>
		</comp>
		<comp name="--.HNZ" depth="0.0">
			<acc value="0.00603081736141695" flag="0"/>
			<vel value="0.00538799126184586" flag="0"/>
			<psa03 value="0.00953009000969188" flag="0"/>
			<psa10 value="0.00839184827332305" flag="0"/>
			<psa30 value="0.00103757177147772" flag="0"/>
		</comp>
	</station>
</stationlist>
