<?xml version="1.0" encoding="UTF-8" standalone="yes"?>
<!DOCTYPE earthquake SYSTEM "stationlist.dtd">
<stationlist created="" xmlns="ch.ethz.sed.shakemap.usgs.xml">
  <station code="BALB" name="BALB" netid="KO" insttype="CMG-5T" lat="39.6507" lon="27.8642">
    <comp name="--.HNN">
      <acc value="0.0255191399" flag="0"/>
      <vel value="0.0102651934" flag="0"/>
      <psa03 value="0.0537995227" flag="0"/>
      <psa10 value="0.0092941590" flag="0"/>
      <psa30 value="0.0007468223" flag="0"/>
    </comp>
    <comp name="--.HNE">
      <acc value="0.0263209850" flag="0"/>
      <vel value="0.0103801994" flag="0"/>
      <psa03 value="0.0466390950" flag="0"/>
      <psa10 value="0.0089062650" flag="0"/>
      <psa30 value="0.0011973211" flag="0"/>
    </comp>
    <comp name="--.HNZ">
      <acc value="0.0139967699" flag="0"/>
      <vel value="0.0050530936" flag="0"/>
      <psa03 value="0.0217267794" flag="0"/>
      <psa10 value="0.0049174612" flag="0"/>
      <psa30 value="0.0003375429" flag="0"/>
    </comp>
  </station>
  <station code="BLCB" name="BLCB" netid="KO" insttype="CMG-3T" lat="38.3853" lon="27.042">
    <comp name="--.HHE">
      <acc value="0.0257968445" flag="0"/>
      <vel value="0.0133924407" flag="0"/>
      <psa03 value="0.1055848035" flag="0"/>
      <psa10 value="0.0070326136" flag="0"/>
      <psa30 value="0.0004219816" flag="0"/>
    </comp>
    <comp name="--.HHN">
      <acc value="0.0000230458" flag="0"/>
      <vel value="0.0000066740" flag="0"/>
      <psa03 value="0.0000426214" flag="0"/>
      <psa10 value="0.0000036300" flag="0"/>
      <psa30 value="0.0000002659" flag="0"/>
    </comp>
    <comp name="--.HHZ">
      <acc value="0.0204107849" flag="0"/>
      <vel value="0.0076588940" flag="0"/>
      <psa03 value="0.0547391493" flag="0"/>
      <psa10 value="0.0024765717" flag="0"/>
      <psa30 value="0.0002264841" flag="0"/>
    </comp>
  </station>
  <station code="DKL" name="DKL" netid="KO" insttype="CMG-3ESPC" lat="39.0713" lon="26.9053">
    <comp name="--.HHN">
      <acc value="0.0102223362" flag="0"/>
      <vel value="0.0090240952" flag="0"/>
      <psa03 value="0.0209918000" flag="0"/>
      <psa10 value="0.0135906789" flag="0"/>
      <psa30 value="0.0011988123" flag="0"/>
    </comp>
    <comp name="--.HHZ">
      <acc value="0.0066624175" flag="0"/>
      <vel value="0.0036657830" flag="0"/>
      <psa03 value="0.0110669040" flag="0"/>
      <psa10 value="0.0037821207" flag="0"/>
      <psa30 value="0.0005249258" flag="0"/>
    </comp>
    <comp name="--.HHE">
      <acc value="0.0083246875" flag="0"/>
      <vel value="0.0045577192" flag="0"/>
      <psa03 value="0.0166490077" flag="0"/>
      <psa10 value="0.0040071458" flag="0"/>
      <psa30 value="0.0006099300" flag="0"/>
    </comp>
  </station>
  <station code="DST" name="DST" netid="KO" insttype="CMG-5T" lat="39.6041" lon="28.6267">
    <comp name="--.HNE">
      <acc value="0.0499069596" flag="0"/>
      <vel value="0.0166892087" flag="0"/>
      <psa03 value="0.0909363919" flag="0"/>
      <psa10 value="0.0072536504" flag="0"/>
      <psa30 value="0.0007118185" flag="0"/>
    </comp>
    <comp name="--.HNN">
      <acc value="0.0588387706" flag="0"/>
      <vel value="0.0204571369" flag="0"/>
      <psa03 value="0.1197164045" flag="0"/>
      <psa10 value="0.0057201839" flag="0"/>
      <psa30 value="0.0006911384" flag="0"/>
    </comp>
    <comp name="--.HNZ">
      <acc value="0.0444958251" flag="0"/>
      <vel value="0.0133529926" flag="0"/>
      <psa03 value="0.0777333775" flag="0"/>
      <psa10 value="0.0058610107" flag="0"/>
      <psa30 value="0.0005712888" flag="0"/>
    </comp>
  </station>
  <station code="GOMA" name="GOMA" netid="KO" insttype="CMG-5T" lat="38.7077" lon="27.9175">
    <comp name="--.HNE">
      <acc value="0.0560019547" flag="0"/>
      <vel value="0.0261132516" flag="0"/>
      <psa03 value="0.1040798100" flag="0"/>
      <psa10 value="0.0165461259" flag="0"/>
      <psa30 value="0.0009638926" flag="0"/>
    </comp>
    <comp name="--.HNZ">
      <acc value="0.0510835494" flag="0"/>
      <vel value="0.0168709465" flag="0"/>
      <psa03 value="0.0579130940" flag="0"/>
      <psa10 value="0.0112113517" flag="0"/>
      <psa30 value="0.0010399879" flag="0"/>
    </comp>
    <comp name="--.HNN">
      <acc value="0.0549720372" flag="0"/>
      <vel value="0.0231326192" flag="0"/>
      <psa03 value="0.0966910569" flag="0"/>
      <psa10 value="0.0153946276" flag="0"/>
      <psa30 value="0.0014997882" flag="0"/>
    </comp>
  </station>
  <station code="GONE" name="GONE" netid="KO" insttype="CMG-5T" lat="40.0466" lon="27.686">
    <comp name="--.HNE">
      <acc value="0.0116768433" flag="0"/>
      <vel value="0.0098907422" flag="0"/>
      <psa03 value="0.0352342887" flag="0"/>
      <psa10 value="0.0113830786" flag="0"/>
      <psa30 value="0.0007547107" flag="0"/>
    </comp>
    <comp name="--.HNZ">
      <acc value="0.0073665667" flag="0"/>
      <vel value="0.0038836094" flag="0"/>
      <psa03 value="0.0121491466" flag="0"/>
      <psa10 value="0.0038065900" flag="0"/>
      <psa30 value="0.0002855668" flag="0"/>
    </comp>
    <comp name="--.HNN">
      <acc value="0.0144555695" flag="0"/>
      <vel value="0.0075510088" flag="0"/>
      <psa03 value="0.0471086520" flag="0"/>
      <psa10 value="0.0069636025" flag="0"/>
      <psa30 value="0.0006533293" flag="0"/>
    </comp>
  </station>
  <station code="GORD" name="GORD" netid="KO" insttype="CMG-5T" lat="38.9088" lon="28.1769">
    <comp name="--.HNZ">
      <acc value="0.0400271319" flag="0"/>
      <vel value="0.0163450741" flag="0"/>
      <psa03 value="0.0739216083" flag="0"/>
      <psa10 value="0.0285188146" flag="0"/>
      <psa30 value="0.0010046495" flag="0"/>
    </comp>
    <comp name="--.HNE">
      <acc value="0.0407292101" flag="0"/>
      <vel value="0.0239927781" flag="0"/>
      <psa03 value="0.1012770976" flag="0"/>
      <psa10 value="0.0296918418" flag="0"/>
      <psa30 value="0.0018797085" flag="0"/>
    </comp>
    <comp name="--.HNN">
      <acc value="0.0541240023" flag="0"/>
      <vel value="0.0273227225" flag="0"/>
      <psa03 value="0.0931477261" flag="0"/>
      <psa10 value="0.0440628925" flag="0"/>
      <psa30 value="0.0020579622" flag="0"/>
    </comp>
  </station>
  <station code="KULA" name="KULA" netid="KO" insttype="CMG-3T" lat="38.5145" lon="28.6607">
    <comp name="--.HHZ">
      <acc value="0.0195649495" flag="0"/>
      <vel value="0.0082032284" flag="0"/>
      <psa03 value="0.0434376500" flag="0"/>
      <psa10 value="0.0030704276" flag="0"/>
      <psa30 value="0.0002449401" flag="0"/>
    </comp>
    <comp name="--.HHE">
      <acc value="0.0292255395" flag="0"/>
      <vel value="0.0103502172" flag="0"/>
      <psa03 value="0.0700930605" flag="0"/>
      <psa10 value="0.0051203090" flag="0"/>
      <psa30 value="0.0002947228" flag="0"/>
    </comp>
  </station>
  <station code="NAZL" name="NAZL" netid="KO" insttype="CMG-5T" lat="37.9641" lon="28.2922">
    <comp name="--.HNN">
      <acc value="0.0383837500" flag="0"/>
      <vel value="0.0169222780" flag="0"/>
      <psa03 value="0.0995180259" flag="0"/>
      <psa10 value="0.0129691666" flag="0"/>
      <psa30 value="0.0005134067" flag="0"/>
    </comp>
    <comp name="--.HNZ">
      <acc value="0.0256299543" flag="0"/>
      <vel value="0.0095856486" flag="0"/>
      <psa03 value="0.0280480411" flag="0"/>
      <psa10 value="0.0068822028" flag="0"/>
      <psa30 value="0.0003353111" flag="0"/>
    </comp>
    <comp name="--.HNE">
      <acc value="0.0558409627" flag="0"/>
      <vel value="0.0258006539" flag="0"/>
      <psa03 value="0.1361567774" flag="0"/>
      <psa10 value="0.0150094612" flag="0"/>
      <psa30 value="0.0009051139" flag="0"/>
    </comp>
  </station>
  <station code="ODEM" name="ODEM" netid="KO" insttype="CMG-5T" lat="38.2762" lon="28.0747">
    <comp name="--.HNE">
      <acc value="0.0677915509" flag="0"/>
      <vel value="0.0306102712" flag="0"/>
      <psa03 value="0.2132474531" flag="0"/>
      <psa10 value="0.0129717455" flag="0"/>
      <psa30 value="0.0009794946" flag="0"/>
    </comp>
    <comp name="--.HNN">
      <acc value="0.0585435842" flag="0"/>
      <vel value="0.0200914074" flag="0"/>
      <psa03 value="0.1515055915" flag="0"/>
      <psa10 value="0.0058691671" flag="0"/>
      <psa30 value="0.0008095308" flag="0"/>
    </comp>
    <comp name="--.HNZ">
      <acc value="0.0486001481" flag="0"/>
      <vel value="0.0134690211" flag="0"/>
      <psa03 value="0.0769298099" flag="0"/>
      <psa10 value="0.0060760550" flag="0"/>
      <psa30 value="0.0006247697" flag="0"/>
    </comp>
  </station>
  <station code="SIMA" name="SIMA" netid="KO" insttype="CMG-6T" lat="39.0833" lon="28.9825">
    <comp name="--.HHE">
      <acc value="0.0650867124" flag="0"/>
      <vel value="0.0295739122" flag="0"/>
      <psa03 value="0.1583003605" flag="0"/>
      <psa10 value="0.0207323250" flag="0"/>
      <psa30 value="0.0009446867" flag="0"/>
    </comp>
    <comp name="--.HHZ">
      <acc value="0.0259285477" flag="0"/>
      <vel value="0.0105561784" flag="0"/>
      <psa03 value="0.0517100325" flag="0"/>
      <psa10 value="0.0068598127" flag="0"/>
      <psa30 value="0.0003523230" flag="0"/>
    </comp>
    <comp name="--.HHN">
      <acc value="0.0448566198" flag="0"/>
      <vel value="0.0198124186" flag="0"/>
      <psa03 value="0.1277459948" flag="0"/>
      <psa10 value="0.0230133345" flag="0"/>
      <psa30 value="0.0010160234" flag="0"/>
    </comp>
  </station>
  <station code="SMAA" name="SMAA" netid="KO" insttype="CMG-5T" lat="39.1005" lon="28.9805">
    <comp name="--.HNZ">
      <acc value="0.0245649940" flag="0"/>
      <vel value="0.0163067561" flag="0"/>
      <psa03 value="0.0700459761" flag="0"/>
      <psa10 value="0.0453526024" flag="0"/>
      <psa30 value="0.0012225262" flag="0"/>
    </comp>
    <comp name="--.HNE">
      <acc value="0.0807983774" flag="0"/>
      <vel value="0.0572128217" flag="0"/>
      <psa03 value="0.2485658484" flag="0"/>
      <psa10 value="0.1225274026" flag="0"/>
      <psa30 value="0.0043170258" flag="0"/>
    </comp>
    <comp name="--.HNN">
      <acc value="0.0680107179" flag="0"/>
      <vel value="0.0429436066" flag="0"/>
      <psa03 value="0.1670920846" flag="0"/>
      <psa10 value="0.0863521235" flag="0"/>
      <psa30 value="0.0038232705" flag="0"/>
    </comp>
  </station>
  <station code="SOMA" name="SOMA" netid="KO" insttype="CMG-5T" lat="39.1564" lon="27.5341">
    <comp name="--.HNN">
      <acc value="0.2262050241" flag="0"/>
      <vel value="0.1070137328" flag="0"/>
      <psa03 value="0.4636727256" flag="0"/>
      <psa10 value="0.0427550294" flag="0"/>
      <psa30 value="0.0043358354" flag="0"/>
    </comp>
    <comp name="--.HNE">
      <acc value="0.1912843800" flag="0"/>
      <vel value="0.0588530978" flag="0"/>
      <psa03 value="0.1886810849" flag="0"/>
      <psa10 value="0.0368620313" flag="0"/>
      <psa30 value="0.0018634529" flag="0"/>
    </comp>
    <comp name="--.HNZ">
      <acc value="0.2203264941" flag="0"/>
      <vel value="0.0494754480" flag="0"/>
      <psa03 value="0.1123921513" flag="0"/>
      <psa10 value="0.0205110605" flag="0"/>
      <psa30 value="0.0010592910" flag="0"/>
    </comp>
  </station>
  <station code="SUSR" name="SUSR" netid="KO" insttype="CMG-5T" lat="39.9627" lon="28.0835">
    <comp name="--.HNE">
      <acc value="0.0215927684" flag="0"/>
      <vel value="0.0106291483" flag="0"/>
      <psa03 value="0.0547312965" flag="0"/>
      <psa10 value="0.0103073304" flag="0"/>
      <psa30 value="0.0005358139" flag="0"/>
    </comp>
    <comp name="--.HNN">
      <acc value="0.0203918694" flag="0"/>
      <vel value="0.0112112573" flag="0"/>
      <psa03 value="0.0594617353" flag="0"/>
      <psa10 value="0.0042665322" flag="0"/>
      <psa30 value="0.0003491486" flag="0"/>
    </comp>
    <comp name="--.HNZ">
      <acc value="0.0168617895" flag="0"/>
      <vel value="0.0073597847" flag="0"/>
      <psa03 value="0.0321142692" flag="0"/>
      <psa10 value="0.0057804324" flag="0"/>
      <psa30 value="0.0004667390" flag="0"/>
    </comp>
  </station>
  <station code="YAYO" name="YAYO" netid="KO" insttype="CMG-6T" lat="39.6113" lon="27.0726">
    <comp name="--.HHE">
      <acc value="0.0172485294" flag="0"/>
      <vel value="0.0107122707" flag="0"/>
      <psa03 value="0.0548822065" flag="0"/>
      <psa10 value="0.0062067061" flag="0"/>
      <psa30 value="0.0003916613" flag="0"/>
    </comp>
    <comp name="--.HHN">
      <acc value="0.0202759909" flag="0"/>
      <vel value="0.0129559351" flag="0"/>
      <psa03 value="0.0596934097" flag="0"/>
      <psa10 value="0.0079568373" flag="0"/>
      <psa30 value="0.0005579803" flag="0"/>
    </comp>
    <comp name="--.HHZ">
      <acc value="0.0117917412" flag="0"/>
      <vel value="0.0071020266" flag="0"/>
      <psa03 value="0.0182965265" flag="0"/>
      <psa10 value="0.0040454071" flag="0"/>
      <psa30 value="0.0002985372" flag="0"/>
    </comp>
  </station>
</stationlist>
