<?xml version="1.0" encoding="UTF-8" standalone="yes"?>
<!DOCTYPE earthquake SYSTEM "stationlist.dtd">
<stationlist created="" xmlns="ch.ethz.sed.shakemap.usgs.xml">
  <station code="BAYT" name="BAYT" netid="KO" insttype="CMG-3ESPC" lat="40.3937" lon="40.141">
    <comp name="--.HHN">
      <acc value="0.0711966830" flag="0"/>
      <vel value="0.0285209486" flag="0"/>
      <psa03 value="0.2492669063" flag="0"/>
      <psa10 value="0.0194717401" flag="0"/>
      <psa30 value="0.0007773658" flag="0"/>
    </comp>
    <comp name="--.HHE">
      <acc value="0.0601391385" flag="0"/>
      <vel value="0.0241468952" flag="0"/>
      <psa03 value="0.1333852856" flag="0"/>
      <psa10 value="0.0194039984" flag="0"/>
      <psa30 value="0.0009820839" flag="0"/>
    </comp>
    <comp name="--.HHZ">
      <acc value="0.0041028101" flag="0"/>
      <vel value="0.0017396106" flag="0"/>
      <psa03 value="0.0172287799" flag="0"/>
      <psa10 value="0.0005458593" flag="0"/>
      <psa30 value="0.0000692353" flag="0"/>
    </comp>
  </station>
  <station code="BNGB" name="BNGB" netid="KO" insttype="CMG-3ESPC" lat="38.9913" lon="40.6792">
    <comp name="--.HHE">
      <acc value="0.0045185898" flag="0"/>
      <vel value="0.0023678972" flag="0"/>
      <psa03 value="0.0108074539" flag="0"/>
      <psa10 value="0.0030044916" flag="0"/>
      <psa30 value="0.0002872195" flag="0"/>
    </comp>
    <comp name="--.HHN">
      <acc value="0.0033381542" flag="0"/>
      <vel value="0.0018172593" flag="0"/>
      <psa03 value="0.0071875273" flag="0"/>
      <psa10 value="0.0022636000" flag="0"/>
      <psa30 value="0.0001744138" flag="0"/>
    </comp>
    <comp name="--.HHZ">
      <acc value="0.0023250514" flag="0"/>
      <vel value="0.0011206507" flag="0"/>
      <psa03 value="0.0045039276" flag="0"/>
      <psa10 value="0.0016487350" flag="0"/>
      <psa30 value="0.0001658611" flag="0"/>
    </comp>
  </station>
  <station code="ERZN" name="ERZN" netid="KO" insttype="CMG-3ESP" lat="39.5867" lon="39.722">
    <comp name="--.HHE">
      <acc value="0.0828764859" flag="0"/>
      <vel value="0.0191118119" flag="0"/>
      <psa03 value="0.0829850339" flag="0"/>
      <psa10 value="0.0075096920" flag="0"/>
      <psa30 value="0.0005502534" flag="0"/>
    </comp>
    <comp name="--.HHZ">
      <acc value="0.0477136494" flag="0"/>
      <vel value="0.0097256824" flag="0"/>
      <psa03 value="0.0334606414" flag="0"/>
      <psa10 value="0.0062566823" flag="0"/>
      <psa30 value="0.0005980683" flag="0"/>
    </comp>
    <comp name="--.HHN">
      <acc value="0.0998177095" flag="0"/>
      <vel value="0.0253752025" flag="0"/>
      <psa03 value="0.0739858192" flag="0"/>
      <psa10 value="0.0073609209" flag="0"/>
      <psa30 value="0.0004627663" flag="0"/>
    </comp>
  </station>
  <station code="GUMT" name="GUMT" netid="KO" insttype="CMG-5T" lat="40.4665" lon="39.478">
    <comp name="--.HNE">
      <acc value="0.0165845774" flag="0"/>
      <vel value="0.0075105112" flag="0"/>
      <psa03 value="0.0230054299" flag="0"/>
      <psa10 value="0.0037511623" flag="0"/>
      <psa30 value="0.0020283863" flag="0"/>
    </comp>
    <comp name="--.HNZ">
      <acc value="0.0108849438" flag="0"/>
      <vel value="0.0030968483" flag="0"/>
      <psa03 value="0.0175188495" flag="0"/>
      <psa10 value="0.0025670876" flag="0"/>
      <psa30 value="0.0002755505" flag="0"/>
    </comp>
    <comp name="--.HNN">
      <acc value="0.0149346646" flag="0"/>
      <vel value="0.0046149614" flag="0"/>
      <psa03 value="0.0204522588" flag="0"/>
      <psa10 value="0.0030533944" flag="0"/>
      <psa30 value="0.0004808836" flag="0"/>
    </comp>
  </station>
  <station code="KARO" name="KARO" netid="KO" insttype="CMG-3T" lat="39.3089" lon="41.0493">
    <comp name="--.HHN">
      <acc value="0.0138326159" flag="0"/>
      <vel value="0.0076856987" flag="0"/>
      <psa03 value="0.0307775668" flag="0"/>
      <psa10 value="0.0107505033" flag="0"/>
      <psa30 value="0.0008682302" flag="0"/>
    </comp>
    <comp name="--.HHZ">
      <acc value="0.0061841169" flag="0"/>
      <vel value="0.0043932723" flag="0"/>
      <psa03 value="0.0158480061" flag="0"/>
      <psa10 value="0.0059079267" flag="0"/>
      <psa30 value="0.0007943884" flag="0"/>
    </comp>
    <comp name="--.HHE">
      <acc value="0.0123387527" flag="0"/>
      <vel value="0.0101942496" flag="0"/>
      <psa03 value="0.0423131354" flag="0"/>
      <psa10 value="0.0150474204" flag="0"/>
      <psa30 value="0.0015007841" flag="0"/>
    </comp>
  </station>
  <station code="SINE" name="SINE" netid="KO" insttype="CMG-6T" lat="39.1636" lon="39.3871">
    <comp name="--.HHN">
      <acc value="0.0079973862" flag="0"/>
      <vel value="0.0031115171" flag="0"/>
      <psa03 value="0.0168947702" flag="0"/>
      <psa10 value="0.0014069143" flag="0"/>
      <psa30 value="0.0001210793" flag="0"/>
    </comp>
    <comp name="--.HHE">
      <acc value="0.0087093112" flag="0"/>
      <vel value="0.0033774409" flag="0"/>
      <psa03 value="0.0149310627" flag="0"/>
      <psa10 value="0.0019832318" flag="0"/>
      <psa30 value="0.0001171110" flag="0"/>
    </comp>
    <comp name="--.HHZ">
      <acc value="0.0077770766" flag="0"/>
      <vel value="0.0020549611" flag="0"/>
      <psa03 value="0.0115424269" flag="0"/>
      <psa10 value="0.0017599869" flag="0"/>
      <psa30 value="0.0000802972" flag="0"/>
    </comp>
  </station>
  <station code="YEDI" name="YEDI" netid="KO" insttype="CMG-3T" lat="39.4377" lon="40.5443">
    <comp name="--.HHN">
      <acc value="0.0350937540" flag="0"/>
      <vel value="0.0117210238" flag="0"/>
      <psa03 value="0.0563447501" flag="0"/>
      <psa10 value="0.0159221920" flag="0"/>
      <psa30 value="0.0011318602" flag="0"/>
    </comp>
    <comp name="--.HHZ">
      <acc value="0.0000304750" flag="0"/>
      <vel value="0.0000027790" flag="0"/>
      <psa03 value="0.0000105069" flag="0"/>
      <psa10 value="0.0000037438" flag="0"/>
      <psa30 value="0.0000007460" flag="0"/>
    </comp>
    <comp name="--.HHE">
      <acc value="0.0411091651" flag="0"/>
      <vel value="0.0131785880" flag="0"/>
      <psa03 value="0.0734974539" flag="0"/>
      <psa10 value="0.0135228070" flag="0"/>
      <psa30 value="0.0009714547" flag="0"/>
    </comp>
  </station>
</stationlist>
