<?xml version="1.0" encoding="UTF-8" standalone="yes"?>
<!DOCTYPE earthquake SYSTEM "stationlist.dtd">
<stationlist created="" xmlns="ch.ethz.sed.shakemap.usgs.xml">
  <station code="BAYT" name="BAYT" netid="KO" insttype="CMG-3ESPC" lat="40.3937" lon="40.141">
    <comp name="--.HHE">
      <acc value="0.0601391388" flag="0"/>
      <vel value="0.0241468955" flag="0"/>
      <psa03 value="0.1333852856" flag="0"/>
      <psa10 value="0.0194039985" flag="0"/>
      <psa30 value="0.0009820911" flag="0"/>
    </comp>
    <comp name="--.HHN">
      <acc value="0.0711966831" flag="0"/>
      <vel value="0.0285209487" flag="0"/>
      <psa03 value="0.2492669063" flag="0"/>
      <psa10 value="0.0194717401" flag="0"/>
      <psa30 value="0.0007773848" flag="0"/>
    </comp>
    <comp name="--.HHZ">
      <acc value="0.0041028099" flag="0"/>
      <vel value="0.0017396107" flag="0"/>
      <psa03 value="0.0172287799" flag="0"/>
      <psa10 value="0.0005458593" flag="0"/>
      <psa30 value="0.0000692291" flag="0"/>
    </comp>
  </station>
  <station code="BNGB" name="BNGB" netid="KO" insttype="CMG-3ESPC" lat="38.9913" lon="40.6792">
    <comp name="--.HHZ">
      <acc value="0.0023250514" flag="0"/>
      <vel value="0.0011206512" flag="0"/>
      <psa03 value="0.0045039276" flag="0"/>
      <psa10 value="0.0016487350" flag="0"/>
      <psa30 value="0.0001658768" flag="0"/>
    </comp>
    <comp name="--.HHN">
      <acc value="0.0033381543" flag="0"/>
      <vel value="0.0018172583" flag="0"/>
      <psa03 value="0.0071875273" flag="0"/>
      <psa10 value="0.0022636000" flag="0"/>
      <psa30 value="0.0001745231" flag="0"/>
    </comp>
    <comp name="--.HHE">
      <acc value="0.0045185902" flag="0"/>
      <vel value="0.0023678974" flag="0"/>
      <psa03 value="0.0108074539" flag="0"/>
      <psa10 value="0.0030044916" flag="0"/>
      <psa30 value="0.0002872298" flag="0"/>
    </comp>
  </station>
  <station code="ERZN" name="ERZN" netid="KO" insttype="CMG-3ESP" lat="39.5867" lon="39.722">
    <comp name="--.HHN">
      <acc value="0.0998177095" flag="0"/>
      <vel value="0.0253751992" flag="0"/>
      <psa03 value="0.0739858192" flag="0"/>
      <psa10 value="0.0073609213" flag="0"/>
      <psa30 value="0.0004627855" flag="0"/>
    </comp>
    <comp name="--.HHE">
      <acc value="0.0828764860" flag="0"/>
      <vel value="0.0191118122" flag="0"/>
      <psa03 value="0.0829850339" flag="0"/>
      <psa10 value="0.0075096920" flag="0"/>
      <psa30 value="0.0005501614" flag="0"/>
    </comp>
    <comp name="--.HHZ">
      <acc value="0.0477136495" flag="0"/>
      <vel value="0.0097256820" flag="0"/>
      <psa03 value="0.0334606414" flag="0"/>
      <psa10 value="0.0062566822" flag="0"/>
      <psa30 value="0.0005981071" flag="0"/>
    </comp>
  </station>
  <station code="KARO" name="KARO" netid="KO" insttype="CMG-3T" lat="39.3089" lon="41.0493">
    <comp name="--.HHE">
      <acc value="0.0123387526" flag="0"/>
      <vel value="0.0101942502" flag="0"/>
      <psa03 value="0.0423131354" flag="0"/>
      <psa10 value="0.0150474204" flag="0"/>
      <psa30 value="0.0015007790" flag="0"/>
    </comp>
    <comp name="--.HHN">
      <acc value="0.0138326159" flag="0"/>
      <vel value="0.0076856989" flag="0"/>
      <psa03 value="0.0307775668" flag="0"/>
      <psa10 value="0.0107505033" flag="0"/>
      <psa30 value="0.0008682320" flag="0"/>
    </comp>
    <comp name="--.HHZ">
      <acc value="0.0061841175" flag="0"/>
      <vel value="0.0043932724" flag="0"/>
      <psa03 value="0.0158480061" flag="0"/>
      <psa10 value="0.0059079267" flag="0"/>
      <psa30 value="0.0007943887" flag="0"/>
    </comp>
  </station>
  <station code="RFHY" name="RFHY" netid="KO" insttype="CMG-5T" lat="39.927" lon="38.833">
    <comp name="--.HNN">
      <acc value="0.0145744647" flag="0"/>
      <vel value="0.0136792473" flag="0"/>
      <psa03 value="0.0479709896" flag="0"/>
      <psa10 value="0.0300258136" flag="0"/>
      <psa30 value="0.0021288050" flag="0"/>
    </comp>
    <comp name="--.HNE">
      <acc value="0.0017704930" flag="0"/>
      <vel value="0.0067193831" flag="0"/>
      <psa03 value="0.0028786815" flag="0"/>
      <psa10 value="0.0014407431" flag="0"/>
      <psa30 value="0.0023614606" flag="0"/>
    </comp>
    <comp name="--.HNZ">
      <acc value="0.0090956620" flag="0"/>
      <vel value="0.0070996994" flag="0"/>
      <psa03 value="0.0231933241" flag="0"/>
      <psa10 value="0.0089150333" flag="0"/>
      <psa30 value="0.0011254402" flag="0"/>
    </comp>
  </station>
  <station code="SINE" name="SINE" netid="KO" insttype="CMG-6T" lat="39.1636" lon="39.3871">
    <comp name="--.HHZ">
      <acc value="0.0077770755" flag="0"/>
      <vel value="0.0020549612" flag="0"/>
      <psa03 value="0.0115424269" flag="0"/>
      <psa10 value="0.0017599869" flag="0"/>
      <psa30 value="0.0000802949" flag="0"/>
    </comp>
    <comp name="--.HHN">
      <acc value="0.0079973870" flag="0"/>
      <vel value="0.0031115172" flag="0"/>
      <psa03 value="0.0168947702" flag="0"/>
      <psa10 value="0.0014069143" flag="0"/>
      <psa30 value="0.0001210776" flag="0"/>
    </comp>
    <comp name="--.HHE">
      <acc value="0.0087093107" flag="0"/>
      <vel value="0.0033774410" flag="0"/>
      <psa03 value="0.0149310627" flag="0"/>
      <psa10 value="0.0019832318" flag="0"/>
      <psa30 value="0.0001171113" flag="0"/>
    </comp>
  </station>
  <station code="YEDI" name="YEDI" netid="KO" insttype="CMG-3T" lat="39.4377" lon="40.5443">
    <comp name="--.HHN">
      <acc value="0.0350937546" flag="0"/>
      <vel value="0.0117210234" flag="0"/>
      <psa03 value="0.0563447501" flag="0"/>
      <psa10 value="0.0159221919" flag="0"/>
      <psa30 value="0.0011318335" flag="0"/>
    </comp>
    <comp name="--.HHE">
      <acc value="0.0411091657" flag="0"/>
      <vel value="0.0131785879" flag="0"/>
      <psa03 value="0.0734974539" flag="0"/>
      <psa10 value="0.0135228070" flag="0"/>
      <psa30 value="0.0009714385" flag="0"/>
    </comp>
    <comp name="--.HHZ">
      <acc value="0.0000320964" flag="0"/>
      <vel value="0.0000027790" flag="0"/>
      <psa03 value="0.0000105069" flag="0"/>
      <psa10 value="0.0000037438" flag="0"/>
      <psa30 value="0.0000007490" flag="0"/>
    </comp>
  </station>
</stationlist>
