<?xml version="1.0" encoding="UTF-8" standalone="yes"?>
<!DOCTYPE earthquake SYSTEM "stationlist.dtd">
<stationlist created="" xmlns="ch.ethz.sed.shakemap.usgs.xml">
  <station code="SNT1" name="SNT1" netid="HA" insttype="30" lat="36.4159" lon="25.4282">
    <comp name="--.HHN">
      <acc value="0.2384971460" flag="0"/>
      <vel value="0.1102290886" flag="0"/>
      <psa03 value="0.2446748644" flag="0"/>
      <psa10 value="0.1283669119" flag="0"/>
      <psa30 value="0.0260286282" flag="0"/>
    </comp>
    <comp name="--.HHE">
      <acc value="0.2793122975" flag="0"/>
      <vel value="0.0920516443" flag="0"/>
      <psa03 value="0.3174505841" flag="0"/>
      <psa10 value="0.1423886440" flag="0"/>
      <psa30 value="0.0245303785" flag="0"/>
    </comp>
    <comp name="--.HHZ">
      <acc value="0.2860448997" flag="0"/>
      <vel value="0.0635779674" flag="0"/>
      <psa03 value="0.3408485513" flag="0"/>
      <psa10 value="0.0574834137" flag="0"/>
      <psa30 value="0.0166815386" flag="0"/>
    </comp>
  </station>
  <station code="IPPL" name="IPPL" netid="HC" insttype="60" lat="35.3486" lon="24.4632">
    <comp name="--.HHE">
      <acc value="0.0000000000" flag="0"/>
      <vel value="-100.0000000000" flag="0"/>
      <psa03 value="0.0000000000" flag="0"/>
      <psa10 value="0.0000000000" flag="0"/>
      <psa30 value="0.0000000000" flag="0"/>
    </comp>
    <comp name="--.HHZ">
      <acc value="0.0176647101" flag="0"/>
      <vel value="0.0075684207" flag="0"/>
      <psa03 value="0.0415740607" flag="0"/>
      <psa10 value="0.0078990929" flag="0"/>
      <psa30 value="0.0022341127" flag="0"/>
    </comp>
    <comp name="--.HHN">
      <acc value="0.0000000000" flag="0"/>
      <vel value="-100.0000000000" flag="0"/>
      <psa03 value="0.0000000000" flag="0"/>
      <psa10 value="0.0000000000" flag="0"/>
      <psa30 value="0.0000000000" flag="0"/>
    </comp>
  </station>
  <station code="KNSS" name="KNSS" netid="HC" insttype="60" lat="35.3042" lon="25.1802">
    <comp name="--.HHZ">
      <acc value="0.0349057289" flag="0"/>
      <vel value="0.0113844374" flag="0"/>
      <psa03 value="0.0736811750" flag="0"/>
      <psa10 value="0.0125543854" flag="0"/>
      <psa30 value="0.0043460356" flag="0"/>
    </comp>
    <comp name="--.HHE">
      <acc value="0.0358434375" flag="0"/>
      <vel value="0.0159769423" flag="0"/>
      <psa03 value="0.0836536533" flag="0"/>
      <psa10 value="0.0177143027" flag="0"/>
      <psa30 value="0.0051897412" flag="0"/>
    </comp>
    <comp name="--.HHN">
      <acc value="0.0306769152" flag="0"/>
      <vel value="0.0143556471" flag="0"/>
      <psa03 value="0.0728479882" flag="0"/>
      <psa10 value="0.0128249374" flag="0"/>
      <psa30 value="0.0039875926" flag="0"/>
    </comp>
  </station>
  <station code="PFKS" name="PFKS" netid="HC" insttype="120" lat="35.0429" lon="25.4733">
    <comp name="--.HHE">
      <acc value="0.0372288555" flag="0"/>
      <vel value="0.0158543950" flag="0"/>
      <psa03 value="0.0881451190" flag="0"/>
      <psa10 value="0.0156676231" flag="0"/>
      <psa30 value="0.0034971533" flag="0"/>
    </comp>
  </station>
  <station code="BODM" name="BODM" netid="KO" insttype="ACEBOX" lat="37.031" lon="27.4247">
    <comp name="--.HNE">
      <acc value="0.0719439734" flag="0"/>
      <vel value="0.0496343022" flag="0"/>
      <psa03 value="0.2163179472" flag="0"/>
      <psa10 value="0.0403742003" flag="0"/>
      <psa30 value="0.0048232973" flag="0"/>
    </comp>
    <comp name="--.HNN">
      <acc value="0.1099618626" flag="0"/>
      <vel value="0.0758516769" flag="0"/>
      <psa03 value="0.2204594283" flag="0"/>
      <psa10 value="0.0864439351" flag="0"/>
      <psa30 value="0.0072384946" flag="0"/>
    </comp>
    <comp name="--.HNZ">
      <acc value="0.0186633726" flag="0"/>
      <vel value="0.0185258452" flag="0"/>
      <psa03 value="0.0472394146" flag="0"/>
      <psa10 value="0.0234307518" flag="0"/>
      <psa30 value="0.0050759314" flag="0"/>
    </comp>
  </station>
  <station code="BODT" name="BODT" netid="KO" insttype="CMG-3ESP" lat="37.0622" lon="27.3103">
    <comp name="--.HHE">
      <acc value="0.1203167995" flag="0"/>
      <vel value="0.0755674942" flag="0"/>
      <psa03 value="0.3643866933" flag="0"/>
      <psa10 value="0.0970488490" flag="0"/>
      <psa30 value="0.0107820437" flag="0"/>
    </comp>
    <comp name="--.HHN">
      <acc value="0.1275937964" flag="0"/>
      <vel value="0.0728378216" flag="0"/>
      <psa03 value="0.1725653792" flag="0"/>
      <psa10 value="0.0869368949" flag="0"/>
      <psa30 value="0.0099887330" flag="0"/>
    </comp>
    <comp name="--.HHZ">
      <acc value="0.0752678766" flag="0"/>
      <vel value="0.0462656956" flag="0"/>
      <psa03 value="0.1979546044" flag="0"/>
      <psa10 value="0.0953422764" flag="0"/>
      <psa30 value="0.0109660415" flag="0"/>
    </comp>
  </station>
  <station code="DAT" name="DAT" netid="KO" insttype="CMG-3T" lat="36.7308" lon="27.5767">
    <comp name="--.HHE">
      <acc value="0.0211011124" flag="0"/>
      <vel value="0.0245772194" flag="0"/>
      <psa03 value="0.0624840982" flag="0"/>
      <psa10 value="0.0289193338" flag="0"/>
      <psa30 value="0.0143842854" flag="0"/>
    </comp>
    <comp name="--.HHN">
      <acc value="0.0313865586" flag="0"/>
      <vel value="0.0386197695" flag="0"/>
      <psa03 value="0.0693886042" flag="0"/>
      <psa10 value="0.0288862763" flag="0"/>
      <psa30 value="0.0155160771" flag="0"/>
    </comp>
    <comp name="--.HHZ">
      <acc value="0.0000291008" flag="0"/>
      <vel value="0.0000030355" flag="0"/>
      <psa03 value="0.0000134521" flag="0"/>
      <psa10 value="0.0000035700" flag="0"/>
      <psa30 value="0.0000006024" flag="0"/>
    </comp>
  </station>
  <station code="YKAV" name="YKAV" netid="KO" insttype="CMG-5T" lat="37.1246" lon="27.2801">
    <comp name="--.HNE">
      <acc value="0.1019843428" flag="0"/>
      <vel value="0.0710516595" flag="0"/>
      <psa03 value="0.3251568712" flag="0"/>
      <psa10 value="0.0963190587" flag="0"/>
      <psa30 value="0.0117274052" flag="0"/>
    </comp>
    <comp name="--.HNN">
      <acc value="0.0634035252" flag="0"/>
      <vel value="0.0463485823" flag="0"/>
      <psa03 value="0.2188275081" flag="0"/>
      <psa10 value="0.0495724988" flag="0"/>
      <psa30 value="0.0108980777" flag="0"/>
    </comp>
    <comp name="--.HNZ">
      <acc value="0.0439884926" flag="0"/>
      <vel value="0.0359135954" flag="0"/>
      <psa03 value="0.1727681717" flag="0"/>
      <psa10 value="0.0586212047" flag="0"/>
      <psa30 value="0.0105977506" flag="0"/>
    </comp>
  </station>
</stationlist>
