<?xml version="1.0" encoding="UTF-8" standalone="yes"?>
<!DOCTYPE earthquake SYSTEM "stationlist.dtd">
<stationlist created="" xmlns="ch.ethz.sed.shakemap.usgs.xml">
  <station code="PSAM" name="PSAM" netid="CL" insttype="CMG40-T" lat="38.3218" lon="22.1842">
    <comp name="00.HHE">
      <acc value="0.0225157624" flag="0"/>
      <vel value="0.0169550290" flag="0"/>
      <psa03 value="0.0543859569" flag="0"/>
      <psa10 value="0.0199283135" flag="0"/>
      <psa30 value="0.0028523838" flag="0"/>
    </comp>
    <comp name="00.HHZ">
      <acc value="0.0081415612" flag="0"/>
      <vel value="0.0075628309" flag="0"/>
      <psa03 value="0.0231091972" flag="0"/>
      <psa10 value="0.0092873407" flag="0"/>
      <psa30 value="0.0013602931" flag="0"/>
    </comp>
    <comp name="00.HHN">
      <acc value="0.0149534514" flag="0"/>
      <vel value="0.0165707240" flag="0"/>
      <psa03 value="0.0373721086" flag="0"/>
      <psa10 value="0.0235453563" flag="0"/>
      <psa30 value="0.0026568838" flag="0"/>
    </comp>
  </station>
  <station code="TRIZ" name="TRIZ" netid="CL" insttype="STS-2" lat="38.3654" lon="22.0727">
    <comp name="00.HH2">
      <acc value="0.0152781978" flag="0"/>
      <vel value="0.0101817207" flag="0"/>
      <psa03 value="0.0421984172" flag="0"/>
      <psa10 value="0.0133934442" flag="0"/>
      <psa30 value="0.0014152368" flag="0"/>
    </comp>
    <comp name="00.HHZ">
      <acc value="0.0153501657" flag="0"/>
      <vel value="0.0071220317" flag="0"/>
      <psa03 value="0.0360839212" flag="0"/>
      <psa10 value="0.0064799599" flag="0"/>
      <psa30 value="0.0009765935" flag="0"/>
    </comp>
    <comp name="00.HH3">
      <acc value="0.0205028846" flag="0"/>
      <vel value="0.0184037974" flag="0"/>
      <psa03 value="0.0759063278" flag="0"/>
      <psa10 value="0.0145285871" flag="0"/>
      <psa30 value="0.0015348477" flag="0"/>
    </comp>
  </station>
  <station code="ACOR" name="ACOR" netid="HA" insttype="Horizon,120s,1200" lat="37.8905" lon="22.8694">
    <comp name="--.HHE">
      <acc value="0.0148154027" flag="0"/>
      <vel value="0.0194923186" flag="0"/>
      <psa03 value="0.0275082138" flag="0"/>
      <psa10 value="0.0349046417" flag="0"/>
      <psa30 value="0.0049145356" flag="0"/>
    </comp>
    <comp name="--.HHN">
      <acc value="0.0165885511" flag="0"/>
      <vel value="0.0180170423" flag="0"/>
      <psa03 value="0.0289952102" flag="0"/>
      <psa10 value="0.0310538810" flag="0"/>
      <psa30 value="0.0036758460" flag="0"/>
    </comp>
    <comp name="--.HHZ">
      <acc value="0.0106983576" flag="0"/>
      <vel value="0.0104489636" flag="0"/>
      <psa03 value="0.0296817826" flag="0"/>
      <psa10 value="0.0150428439" flag="0"/>
      <psa30 value="0.0016155112" flag="0"/>
    </comp>
  </station>
  <station code="AMPE" name="AMPE" netid="HA" insttype="1s-100Hz," lat="38.3015" lon="23.2688">
    <comp name="--.HHE">
      <acc value="0.1132345625" flag="0"/>
      <vel value="0.1108364008" flag="0"/>
      <psa03 value="0.2391572951" flag="0"/>
      <psa10 value="0.0724534145" flag="0"/>
      <psa30 value="0.0053194264" flag="0"/>
    </comp>
    <comp name="--.HHN">
      <acc value="0.0944360753" flag="0"/>
      <vel value="0.0923656190" flag="0"/>
      <psa03 value="0.1645377092" flag="0"/>
      <psa10 value="0.1462926672" flag="0"/>
      <psa30 value="0.0055189499" flag="0"/>
    </comp>
    <comp name="--.HHZ">
      <acc value="0.0533097985" flag="0"/>
      <vel value="0.0322281539" flag="0"/>
      <psa03 value="0.1248776825" flag="0"/>
      <psa10 value="0.0451626193" flag="0"/>
      <psa30 value="0.0026038636" flag="0"/>
    </comp>
  </station>
  <station code="ANTK" name="ANTK" netid="HA" insttype="25" lat="38.3605" lon="22.6385">
    <comp name="--.HHZ">
      <acc value="0.0135178990" flag="0"/>
      <vel value="0.0078253254" flag="0"/>
      <psa03 value="0.0341808572" flag="0"/>
      <psa10 value="0.0114095319" flag="0"/>
      <psa30 value="0.0008022091" flag="0"/>
    </comp>
    <comp name="--.HHN">
      <acc value="0.0010569308" flag="0"/>
      <vel value="0.0004944488" flag="0"/>
      <psa03 value="0.0016556219" flag="0"/>
      <psa10 value="0.0006037962" flag="0"/>
      <psa30 value="0.0000292793" flag="0"/>
    </comp>
    <comp name="--.HHE">
      <acc value="0.0247643372" flag="0"/>
      <vel value="0.0160618103" flag="0"/>
      <psa03 value="0.0633790158" flag="0"/>
      <psa10 value="0.0305163315" flag="0"/>
      <psa30 value="0.0029470999" flag="0"/>
    </comp>
  </station>
  <station code="ATAL" name="ATAL" netid="HA" insttype="120s," lat="38.6926" lon="23.0213">
    <comp name="--.HHE">
      <acc value="0.1929225959" flag="0"/>
      <vel value="0.0787934031" flag="0"/>
      <psa03 value="0.2098673452" flag="0"/>
      <psa10 value="0.0478089679" flag="0"/>
      <psa30 value="0.0051244036" flag="0"/>
    </comp>
    <comp name="--.HHZ">
      <acc value="0.1834298035" flag="0"/>
      <vel value="0.0657795421" flag="0"/>
      <psa03 value="0.5021553273" flag="0"/>
      <psa10 value="0.0301188646" flag="0"/>
      <psa30 value="0.0041307066" flag="0"/>
    </comp>
    <comp name="--.HHN">
      <acc value="0.2575641289" flag="0"/>
      <vel value="0.0804338788" flag="0"/>
      <psa03 value="0.4806272582" flag="0"/>
      <psa10 value="0.0384976747" flag="0"/>
      <psa30 value="0.0050923637" flag="0"/>
    </comp>
  </station>
  <station code="ATHU" name="ATHU" netid="HA" insttype="60s," lat="37.9665" lon="23.7845">
    <comp name="--.HHE">
      <acc value="0.0377992081" flag="0"/>
      <vel value="0.0179207906" flag="0"/>
      <psa03 value="0.0705986893" flag="0"/>
      <psa10 value="0.0171189821" flag="0"/>
      <psa30 value="0.0022135614" flag="0"/>
    </comp>
    <comp name="--.HHZ">
      <acc value="0.0393328894" flag="0"/>
      <vel value="0.0188194403" flag="0"/>
      <psa03 value="0.0405326841" flag="0"/>
      <psa10 value="0.0120271761" flag="0"/>
      <psa30 value="0.0017249996" flag="0"/>
    </comp>
    <comp name="--.HHN">
      <acc value="0.0293042602" flag="0"/>
      <vel value="0.0155565367" flag="0"/>
      <psa03 value="0.0527517537" flag="0"/>
      <psa10 value="0.0110373056" flag="0"/>
      <psa30 value="0.0017039710" flag="0"/>
    </comp>
  </station>
  <station code="AXAR" name="AXAR" netid="HA" insttype="Horizon,120s,1200" lat="38.7664" lon="22.659">
    <comp name="--.HHN">
      <acc value="0.1463988201" flag="0"/>
      <vel value="0.0801051928" flag="0"/>
      <psa03 value="0.2796993263" flag="0"/>
      <psa10 value="0.0353398287" flag="0"/>
      <psa30 value="0.0035348546" flag="0"/>
    </comp>
    <comp name="--.HHZ">
      <acc value="0.0963548799" flag="0"/>
      <vel value="0.0302790285" flag="0"/>
      <psa03 value="0.1700048027" flag="0"/>
      <psa10 value="0.0257615406" flag="0"/>
      <psa30 value="0.0017087291" flag="0"/>
    </comp>
    <comp name="--.HHE">
      <acc value="0.1441290597" flag="0"/>
      <vel value="0.0520090382" flag="0"/>
      <psa03 value="0.2764854990" flag="0"/>
      <psa10 value="0.0514194202" flag="0"/>
      <psa30 value="0.0033528700" flag="0"/>
    </comp>
  </station>
  <station code="DOMV" name="DOMV" netid="HA" insttype="60" lat="38.2569" lon="22.9795">
    <comp name="--.HHZ">
      <acc value="0.1844381870" flag="0"/>
      <vel value="0.0552646647" flag="0"/>
      <psa03 value="0.2549733454" flag="0"/>
      <psa10 value="0.0366356998" flag="0"/>
      <psa30 value="0.0018004778" flag="0"/>
    </comp>
    <comp name="--.HHN">
      <acc value="0.2539989275" flag="0"/>
      <vel value="0.0933868073" flag="0"/>
      <psa03 value="0.6149267376" flag="0"/>
      <psa10 value="0.0432078278" flag="0"/>
      <psa30 value="0.0037793185" flag="0"/>
    </comp>
    <comp name="--.HHE">
      <acc value="0.3085316550" flag="0"/>
      <vel value="0.0824834166" flag="0"/>
      <psa03 value="0.5791529025" flag="0"/>
      <psa10 value="0.0955595296" flag="0"/>
      <psa30 value="0.0065732184" flag="0"/>
    </comp>
  </station>
  <station code="ERTR" name="ERTR" netid="HA" insttype="Horizon,120s,1200" lat="38.4066" lon="23.7865">
    <comp name="--.HHN">
      <acc value="0.0976742289" flag="0"/>
      <vel value="0.0328841443" flag="0"/>
      <psa03 value="0.1334056604" flag="0"/>
      <psa10 value="0.0248587329" flag="0"/>
      <psa30 value="0.0029759247" flag="0"/>
    </comp>
    <comp name="--.HHE">
      <acc value="0.0906100345" flag="0"/>
      <vel value="0.0517573989" flag="0"/>
      <psa03 value="0.1098888191" flag="0"/>
      <psa10 value="0.0390028434" flag="0"/>
      <psa30 value="0.0034573306" flag="0"/>
    </comp>
    <comp name="--.HHZ">
      <acc value="0.0795796425" flag="0"/>
      <vel value="0.0301312163" flag="0"/>
      <psa03 value="0.1347817094" flag="0"/>
      <psa10 value="0.0216927242" flag="0"/>
      <psa30 value="0.0015770828" flag="0"/>
    </comp>
  </station>
  <station code="KALE" name="KALE" netid="HA" insttype="40," lat="38.3911" lon="22.1398">
    <comp name="--.HHZ">
      <acc value="0.0212833668" flag="0"/>
      <vel value="0.0133267366" flag="0"/>
      <psa03 value="0.0547330688" flag="0"/>
      <psa10 value="0.0096377003" flag="0"/>
      <psa30 value="0.0010386018" flag="0"/>
    </comp>
    <comp name="--.HHN">
      <acc value="0.0228336689" flag="0"/>
      <vel value="0.0143498611" flag="0"/>
      <psa03 value="0.0649824297" flag="0"/>
      <psa10 value="0.0074629341" flag="0"/>
      <psa30 value="0.0010865789" flag="0"/>
    </comp>
    <comp name="--.HHE">
      <acc value="0.0257014057" flag="0"/>
      <vel value="0.0145398200" flag="0"/>
      <psa03 value="0.0767952072" flag="0"/>
      <psa10 value="0.0159951543" flag="0"/>
      <psa30 value="0.0021062746" flag="0"/>
    </comp>
  </station>
  <station code="KARY" name="KARY" netid="HA" insttype="60" lat="38.0321" lon="24.437">
    <comp name="--.HHZ">
      <acc value="0.0419590393" flag="0"/>
      <vel value="0.0189744180" flag="0"/>
      <psa03 value="0.0574080947" flag="0"/>
      <psa10 value="0.0203577430" flag="0"/>
      <psa30 value="0.0015138984" flag="0"/>
    </comp>
    <comp name="--.HHN">
      <acc value="0.0761553537" flag="0"/>
      <vel value="0.0178870657" flag="0"/>
      <psa03 value="0.0848561711" flag="0"/>
      <psa10 value="0.0110894456" flag="0"/>
      <psa30 value="0.0015572157" flag="0"/>
    </comp>
    <comp name="--.HHE">
      <acc value="0.0375460813" flag="0"/>
      <vel value="0.0175795779" flag="0"/>
      <psa03 value="0.0752049325" flag="0"/>
      <psa10 value="0.0089816899" flag="0"/>
      <psa30 value="0.0012629885" flag="0"/>
    </comp>
  </station>
  <station code="KIAS" name="KIAS" netid="HA" insttype="DC" lat="37.9875" lon="22.7543">
    <comp name="--.HNN">
      <acc value="0.0780004154" flag="0"/>
      <vel value="0.0647145599" flag="0"/>
      <psa03 value="0.1699108127" flag="0"/>
      <psa10 value="0.0751021341" flag="0"/>
      <psa30 value="0.0128146431" flag="0"/>
    </comp>
    <comp name="--.HNE">
      <acc value="0.0768560111" flag="0"/>
      <vel value="0.0767385969" flag="0"/>
      <psa03 value="0.1888586632" flag="0"/>
      <psa10 value="0.0636692290" flag="0"/>
      <psa30 value="0.0107121417" flag="0"/>
    </comp>
    <comp name="--.HNZ">
      <acc value="0.0224736649" flag="0"/>
      <vel value="0.0167543036" flag="0"/>
      <psa03 value="0.0500046175" flag="0"/>
      <psa10 value="0.0141307558" flag="0"/>
      <psa30 value="0.0050893545" flag="0"/>
    </comp>
  </station>
  <station code="LAKA" name="LAKA" netid="HA" insttype="120s," lat="38.2401" lon="21.9785">
    <comp name="--.HHN">
      <acc value="0.0030275314" flag="0"/>
      <vel value="0.0032926714" flag="0"/>
      <psa03 value="0.0079948860" flag="0"/>
      <psa10 value="0.0046125309" flag="0"/>
      <psa30 value="0.0007566315" flag="0"/>
    </comp>
    <comp name="--.HHE">
      <acc value="0.0039271783" flag="0"/>
      <vel value="0.0036051815" flag="0"/>
      <psa03 value="0.0097264177" flag="0"/>
      <psa10 value="0.0048839034" flag="0"/>
      <psa30 value="0.0006831564" flag="0"/>
    </comp>
    <comp name="--.HHZ">
      <acc value="0.0025287719" flag="0"/>
      <vel value="0.0029469765" flag="0"/>
      <psa03 value="0.0103734913" flag="0"/>
      <psa10 value="0.0053083072" flag="0"/>
      <psa30 value="0.0006951389" flag="0"/>
    </comp>
  </station>
  <station code="LOUT" name="LOUT" netid="HA" insttype="30" lat="37.9879" lon="22.9743">
    <comp name="--.HHZ">
      <acc value="0.0638113223" flag="0"/>
      <vel value="0.0226400404" flag="0"/>
      <psa03 value="0.1072490204" flag="0"/>
      <psa10 value="0.0390196485" flag="0"/>
      <psa30 value="0.0020799465" flag="0"/>
    </comp>
    <comp name="--.HHN">
      <acc value="0.0865750789" flag="0"/>
      <vel value="0.0501608670" flag="0"/>
      <psa03 value="0.1608456234" flag="0"/>
      <psa10 value="0.0718636789" flag="0"/>
      <psa30 value="0.0055763136" flag="0"/>
    </comp>
    <comp name="--.HHE">
      <acc value="0.0988732488" flag="0"/>
      <vel value="0.0438295300" flag="0"/>
      <psa03 value="0.2539862045" flag="0"/>
      <psa10 value="0.0596484372" flag="0"/>
      <psa30 value="0.0047761306" flag="0"/>
    </comp>
  </station>
  <station code="MDRA" name="MDRA" netid="HA" insttype="60" lat="38.0606" lon="23.4662">
    <comp name="--.HHE">
      <acc value="0.0435051783" flag="0"/>
      <vel value="0.0370299108" flag="0"/>
      <psa03 value="0.0636836253" flag="0"/>
      <psa10 value="0.0373979371" flag="0"/>
      <psa30 value="0.0029932229" flag="0"/>
    </comp>
    <comp name="--.HHZ">
      <acc value="0.0444166005" flag="0"/>
      <vel value="0.0286896257" flag="0"/>
      <psa03 value="0.0727634580" flag="0"/>
      <psa10 value="0.0353539473" flag="0"/>
      <psa30 value="0.0034432270" flag="0"/>
    </comp>
    <comp name="--.HHN">
      <acc value="0.0636995848" flag="0"/>
      <vel value="0.0451727000" flag="0"/>
      <psa03 value="0.0869366609" flag="0"/>
      <psa10 value="0.0410317690" flag="0"/>
      <psa30 value="0.0035685081" flag="0"/>
    </comp>
  </station>
  <station code="MRKA" name="MRKA" netid="HA" insttype="Horizon,120s,1200" lat="38.7047" lon="23.5863">
    <comp name="--.HHN">
      <acc value="0.6845769834" flag="0"/>
      <vel value="0.1603830746" flag="0"/>
      <psa03 value="0.7875977877" flag="0"/>
      <psa10 value="0.1179622903" flag="0"/>
      <psa30 value="0.0107757409" flag="0"/>
    </comp>
    <comp name="--.HHZ">
      <acc value="0.4342518349" flag="0"/>
      <vel value="0.0867404364" flag="0"/>
      <psa03 value="0.3765940697" flag="0"/>
      <psa10 value="0.0526996935" flag="0"/>
      <psa30 value="0.0055536490" flag="0"/>
    </comp>
    <comp name="--.HHE">
      <acc value="1.4902826567" flag="0"/>
      <vel value="0.2857129470" flag="0"/>
      <psa03 value="0.7931002896" flag="0"/>
      <psa10 value="0.1787590956" flag="0"/>
      <psa30 value="0.0130314626" flag="0"/>
    </comp>
  </station>
  <station code="MRTH" name="MRTH" netid="HA" insttype="S100," lat="38.1225" lon="23.9409">
    <comp name="--.HHE">
      <acc value="0.1033230007" flag="0"/>
      <vel value="0.0553150106" flag="0"/>
      <psa03 value="0.2406085388" flag="0"/>
      <psa10 value="0.0719369239" flag="0"/>
      <psa30 value="0.0026722167" flag="0"/>
    </comp>
    <comp name="--.HHN">
      <acc value="0.0908941441" flag="0"/>
      <vel value="0.0986833591" flag="0"/>
      <psa03 value="0.2070746537" flag="0"/>
      <psa10 value="0.1347986303" flag="0"/>
      <psa30 value="0.0061774969" flag="0"/>
    </comp>
    <comp name="--.HHZ">
      <acc value="0.1069324646" flag="0"/>
      <vel value="0.0381163843" flag="0"/>
      <psa03 value="0.2065221786" flag="0"/>
      <psa10 value="0.0515250781" flag="0"/>
      <psa30 value="0.0022804503" flag="0"/>
    </comp>
  </station>
  <station code="PRDM" name="PRDM" netid="HA" insttype="25" lat="38.2804" lon="22.847">
    <comp name="--.HHN">
      <acc value="0.0406271023" flag="0"/>
      <vel value="0.0160994530" flag="0"/>
      <psa03 value="0.0786695588" flag="0"/>
      <psa10 value="0.0189228779" flag="0"/>
      <psa30 value="0.0012559110" flag="0"/>
    </comp>
    <comp name="--.HHZ">
      <acc value="0.0258291341" flag="0"/>
      <vel value="0.0090930863" flag="0"/>
      <psa03 value="0.0540466072" flag="0"/>
      <psa10 value="0.0077851561" flag="0"/>
      <psa30 value="0.0007039496" flag="0"/>
    </comp>
    <comp name="--.HHE">
      <acc value="0.0486010681" flag="0"/>
      <vel value="0.0278391653" flag="0"/>
      <psa03 value="0.0750123306" flag="0"/>
      <psa10 value="0.0166298818" flag="0"/>
      <psa30 value="0.0019343595" flag="0"/>
    </comp>
  </station>
  <station code="PSAH" name="PSAH" netid="HA" insttype="25" lat="38.5694" lon="23.6473">
    <comp name="--.HHE">
      <acc value="0.0999956454" flag="0"/>
      <vel value="0.0497823367" flag="0"/>
      <psa03 value="0.1340299416" flag="0"/>
      <psa10 value="0.0578790698" flag="0"/>
      <psa30 value="0.0035704326" flag="0"/>
    </comp>
    <comp name="--.HHN">
      <acc value="0.0821363846" flag="0"/>
      <vel value="0.0341292327" flag="0"/>
      <psa03 value="0.0933330426" flag="0"/>
      <psa10 value="0.0425892374" flag="0"/>
      <psa30 value="0.0031618565" flag="0"/>
    </comp>
    <comp name="--.HHZ">
      <acc value="0.0646317461" flag="0"/>
      <vel value="0.0212198035" flag="0"/>
      <psa03 value="0.0596297445" flag="0"/>
      <psa10 value="0.0252008069" flag="0"/>
      <psa30 value="0.0013356017" flag="0"/>
    </comp>
  </station>
  <station code="STFN" name="STFN" netid="HA" insttype="1s-100Hz," lat="38.1766" lon="23.544">
    <comp name="--.HHZ">
      <acc value="0.0881812442" flag="0"/>
      <vel value="0.0525040432" flag="0"/>
      <psa03 value="0.1524676873" flag="0"/>
      <psa10 value="0.0334244110" flag="0"/>
      <psa30 value="0.0028148117" flag="0"/>
    </comp>
    <comp name="--.HHN">
      <acc value="0.0532500304" flag="0"/>
      <vel value="0.0341230793" flag="0"/>
      <psa03 value="0.0980350957" flag="0"/>
      <psa10 value="0.0405239927" flag="0"/>
      <psa30 value="0.0024798646" flag="0"/>
    </comp>
    <comp name="--.HHE">
      <acc value="0.0585226769" flag="0"/>
      <vel value="0.0422303417" flag="0"/>
      <psa03 value="0.0814621224" flag="0"/>
      <psa10 value="0.0750782751" flag="0"/>
      <psa30 value="0.0039170507" flag="0"/>
    </comp>
  </station>
  <station code="THAL" name="THAL" netid="HA" insttype="30" lat="38.0357" lon="22.6634">
    <comp name="--.HHN">
      <acc value="0.1124392856" flag="0"/>
      <vel value="0.0517334571" flag="0"/>
      <psa03 value="0.2526989103" flag="0"/>
      <psa10 value="0.0524409192" flag="0"/>
      <psa30 value="0.0047845634" flag="0"/>
    </comp>
    <comp name="--.HHE">
      <acc value="0.0874350796" flag="0"/>
      <vel value="0.0508495335" flag="0"/>
      <psa03 value="0.1713461065" flag="0"/>
      <psa10 value="0.0624830205" flag="0"/>
      <psa30 value="0.0047028316" flag="0"/>
    </comp>
    <comp name="--.HHZ">
      <acc value="0.0432889521" flag="0"/>
      <vel value="0.0213610160" flag="0"/>
      <psa03 value="0.0948396126" flag="0"/>
      <psa10 value="0.0268780664" flag="0"/>
      <psa30 value="0.0020384335" flag="0"/>
    </comp>
  </station>
  <station code="THIV" name="THIV" netid="HA" insttype="25" lat="38.299" lon="23.332">
    <comp name="--.HHE">
      <acc value="0.1519667512" flag="0"/>
      <vel value="0.0781210808" flag="0"/>
      <psa03 value="0.1574545828" flag="0"/>
      <psa10 value="0.0843451818" flag="0"/>
      <psa30 value="0.0066970897" flag="0"/>
    </comp>
    <comp name="--.HHZ">
      <acc value="0.0789575193" flag="0"/>
      <vel value="0.0411146188" flag="0"/>
