<?xml version="1.0" encoding="UTF-8" standalone="yes"?>
<!DOCTYPE earthquake SYSTEM "stationlist.dtd">
<stationlist created="" xmlns="ch.ethz.sed.shakemap.usgs.xml">
  <station code="PSAM" name="PSAM" netid="CL" insttype="CMG40-T" lat="38.3218" lon="22.1842">
    <comp name="00.HHZ">
      <acc value="0.0081415613" flag="0"/>
      <vel value="0.0075628312" flag="0"/>
      <psa03 value="0.0231091972" flag="0"/>
      <psa10 value="0.0092873407" flag="0"/>
      <psa30 value="0.0013602888" flag="0"/>
    </comp>
    <comp name="00.HHE">
      <acc value="0.0225157622" flag="0"/>
      <vel value="0.0169550290" flag="0"/>
      <psa03 value="0.0543859569" flag="0"/>
      <psa10 value="0.0199283135" flag="0"/>
      <psa30 value="0.0028524006" flag="0"/>
    </comp>
    <comp name="00.HHN">
      <acc value="0.0149534513" flag="0"/>
      <vel value="0.0165707232" flag="0"/>
      <psa03 value="0.0373721086" flag="0"/>
      <psa10 value="0.0235453563" flag="0"/>
      <psa30 value="0.0026568831" flag="0"/>
    </comp>
  </station>
  <station code="ROD3" name="ROD3" netid="CL" insttype="CMG40-T" lat="38.3081" lon="21.892">
    <comp name="00.HHZ">
      <acc value="0.0115362626" flag="0"/>
      <vel value="0.0065469937" flag="0"/>
      <psa03 value="0.0292764897" flag="0"/>
      <psa10 value="0.0124976563" flag="0"/>
      <psa30 value="0.0007875088" flag="0"/>
    </comp>
    <comp name="00.HHN">
      <acc value="0.0269854524" flag="0"/>
      <vel value="0.0159566156" flag="0"/>
      <psa03 value="0.1290656685" flag="0"/>
      <psa10 value="0.0145661511" flag="0"/>
      <psa30 value="0.0011569218" flag="0"/>
    </comp>
    <comp name="00.HHE">
      <acc value="0.0278651349" flag="0"/>
      <vel value="0.0136876069" flag="0"/>
      <psa03 value="0.1144225461" flag="0"/>
      <psa10 value="0.0152403784" flag="0"/>
      <psa30 value="0.0011627737" flag="0"/>
    </comp>
  </station>
  <station code="TRIZ" name="TRIZ" netid="CL" insttype="STS-2" lat="38.3654" lon="22.0727">
    <comp name="00.HHZ">
      <acc value="0.0153501656" flag="0"/>
      <vel value="0.0071220315" flag="0"/>
      <psa03 value="0.0360839212" flag="0"/>
      <psa10 value="0.0064799599" flag="0"/>
      <psa30 value="0.0009765930" flag="0"/>
    </comp>
    <comp name="00.HH2">
      <acc value="0.0152781977" flag="0"/>
      <vel value="0.0101817208" flag="0"/>
      <psa03 value="0.0421984172" flag="0"/>
      <psa10 value="0.0133934442" flag="0"/>
      <psa30 value="0.0014152413" flag="0"/>
    </comp>
    <comp name="00.HH3">
      <acc value="0.0205028847" flag="0"/>
      <vel value="0.0184037975" flag="0"/>
      <psa03 value="0.0759063278" flag="0"/>
      <psa10 value="0.0145285871" flag="0"/>
      <psa30 value="0.0015348517" flag="0"/>
    </comp>
  </station>
  <station code="ZIRI" name="ZIRI" netid="CL" insttype="TRILLIUM-40" lat="38.3051" lon="21.9476">
    <comp name="01.HHZ">
      <acc value="0.0130055842" flag="0"/>
      <vel value="0.0064581422" flag="0"/>
      <psa03 value="0.0435412698" flag="0"/>
      <psa10 value="0.0053452980" flag="0"/>
      <psa30 value="0.0007359847" flag="0"/>
    </comp>
    <comp name="01.HHE">
      <acc value="0.0289423161" flag="0"/>
      <vel value="0.0196994513" flag="0"/>
      <psa03 value="0.0638392213" flag="0"/>
      <psa10 value="0.0142471998" flag="0"/>
      <psa30 value="0.0009649207" flag="0"/>
    </comp>
    <comp name="01.HHN">
      <acc value="0.0225691398" flag="0"/>
      <vel value="0.0137950793" flag="0"/>
      <psa03 value="0.0640899463" flag="0"/>
      <psa10 value="0.0194973740" flag="0"/>
      <psa30 value="0.0013035728" flag="0"/>
    </comp>
  </station>
  <station code="ACOR" name="ACOR" netid="HA" insttype="Horizon,120s,1200" lat="37.8905" lon="22.8694">
    <comp name="--.HHE">
      <acc value="0.0148154027" flag="0"/>
      <vel value="0.0194923185" flag="0"/>
      <psa03 value="0.0275082138" flag="0"/>
      <psa10 value="0.0349046417" flag="0"/>
      <psa30 value="0.0049145699" flag="0"/>
    </comp>
    <comp name="--.HHZ">
      <acc value="0.0106983576" flag="0"/>
      <vel value="0.0104489634" flag="0"/>
      <psa03 value="0.0296817826" flag="0"/>
      <psa10 value="0.0150428439" flag="0"/>
      <psa30 value="0.0016155114" flag="0"/>
    </comp>
    <comp name="--.HHN">
      <acc value="0.0165885512" flag="0"/>
      <vel value="0.0180170421" flag="0"/>
      <psa03 value="0.0289952102" flag="0"/>
      <psa10 value="0.0310538809" flag="0"/>
      <psa30 value="0.0036758497" flag="0"/>
    </comp>
  </station>
  <station code="AMPE" name="AMPE" netid="HA" insttype="1s-100Hz," lat="38.3015" lon="23.2688">
    <comp name="--.HHE">
      <acc value="0.1132345625" flag="0"/>
      <vel value="0.1108364323" flag="0"/>
      <psa03 value="0.2391572951" flag="0"/>
      <psa10 value="0.0724534145" flag="0"/>
      <psa30 value="0.0053193426" flag="0"/>
    </comp>
    <comp name="--.HHN">
      <acc value="0.0944360755" flag="0"/>
      <vel value="0.0923657016" flag="0"/>
      <psa03 value="0.1645377091" flag="0"/>
      <psa10 value="0.1462926673" flag="0"/>
      <psa30 value="0.0055188706" flag="0"/>
    </comp>
    <comp name="--.HHZ">
      <acc value="0.0533097992" flag="0"/>
      <vel value="0.0322283991" flag="0"/>
      <psa03 value="0.1248776818" flag="0"/>
      <psa10 value="0.0451626186" flag="0"/>
      <psa30 value="0.0026038947" flag="0"/>
    </comp>
  </station>
  <station code="ANTK" name="ANTK" netid="HA" insttype="25" lat="38.3605" lon="22.6385">
    <comp name="--.HHN">
      <acc value="0.0010569308" flag="0"/>
      <vel value="0.0004944508" flag="0"/>
      <psa03 value="0.0016556219" flag="0"/>
      <psa10 value="0.0006037962" flag="0"/>
      <psa30 value="0.0000292900" flag="0"/>
    </comp>
    <comp name="--.HHZ">
      <acc value="0.0135178990" flag="0"/>
      <vel value="0.0078253250" flag="0"/>
      <psa03 value="0.0341808572" flag="0"/>
      <psa10 value="0.0114095319" flag="0"/>
      <psa30 value="0.0008022087" flag="0"/>
    </comp>
    <comp name="--.HHE">
      <acc value="0.0247643370" flag="0"/>
      <vel value="0.0160618238" flag="0"/>
      <psa03 value="0.0633790157" flag="0"/>
      <psa10 value="0.0305163314" flag="0"/>
      <psa30 value="0.0029471295" flag="0"/>
    </comp>
  </station>
  <station code="ATAL" name="ATAL" netid="HA" insttype="120s," lat="38.6926" lon="23.0213">
    <comp name="--.HHE">
      <acc value="0.1929225957" flag="0"/>
      <vel value="0.0787934031" flag="0"/>
      <psa03 value="0.2098673452" flag="0"/>
      <psa10 value="0.0478089685" flag="0"/>
      <psa30 value="0.0051243844" flag="0"/>
    </comp>
    <comp name="--.HHN">
      <acc value="0.2575641288" flag="0"/>
      <vel value="0.0804338798" flag="0"/>
      <psa03 value="0.4806272582" flag="0"/>
      <psa10 value="0.0384976748" flag="0"/>
      <psa30 value="0.0050923329" flag="0"/>
    </comp>
    <comp name="--.HHZ">
      <acc value="0.1834298036" flag="0"/>
      <vel value="0.0657795424" flag="0"/>
      <psa03 value="0.5021553273" flag="0"/>
      <psa10 value="0.0301188645" flag="0"/>
      <psa30 value="0.0041306908" flag="0"/>
    </comp>
  </station>
  <station code="ATHU" name="ATHU" netid="HA" insttype="60s," lat="37.9665" lon="23.7845">
    <comp name="--.HHE">
      <acc value="0.0377992081" flag="0"/>
      <vel value="0.0179207908" flag="0"/>
      <psa03 value="0.0705986893" flag="0"/>
      <psa10 value="0.0171189822" flag="0"/>
      <psa30 value="0.0022135877" flag="0"/>
    </comp>
    <comp name="--.HHZ">
      <acc value="0.0393328892" flag="0"/>
      <vel value="0.0188194405" flag="0"/>
      <psa03 value="0.0405326841" flag="0"/>
      <psa10 value="0.0120271761" flag="0"/>
      <psa30 value="0.0017249951" flag="0"/>
    </comp>
    <comp name="--.HHN">
      <acc value="0.0293042602" flag="0"/>
      <vel value="0.0155565366" flag="0"/>
      <psa03 value="0.0527517537" flag="0"/>
      <psa10 value="0.0110373056" flag="0"/>
      <psa30 value="0.0017039557" flag="0"/>
    </comp>
  </station>
  <station code="AXAR" name="AXAR" netid="HA" insttype="Horizon,120s,1200" lat="38.7664" lon="22.659">
    <comp name="--.HHE">
      <acc value="0.1441290597" flag="0"/>
      <vel value="0.0520090379" flag="0"/>
      <psa03 value="0.2764854990" flag="0"/>
      <psa10 value="0.0514194202" flag="0"/>
      <psa30 value="0.0033528733" flag="0"/>
    </comp>
    <comp name="--.HHN">
      <acc value="0.1463988204" flag="0"/>
      <vel value="0.0801051929" flag="0"/>
      <psa03 value="0.2796993263" flag="0"/>
      <psa10 value="0.0353398288" flag="0"/>
      <psa30 value="0.0035348173" flag="0"/>
    </comp>
    <comp name="--.HHZ">
      <acc value="0.0963548798" flag="0"/>
      <vel value="0.0302790283" flag="0"/>
      <psa03 value="0.1700048027" flag="0"/>
      <psa10 value="0.0257615406" flag="0"/>
      <psa30 value="0.0017087143" flag="0"/>
    </comp>
  </station>
  <station code="DOMV" name="DOMV" netid="HA" insttype="60" lat="38.2569" lon="22.9795">
    <comp name="--.HHN">
      <acc value="0.2539989277" flag="0"/>
      <vel value="0.0933868075" flag="0"/>
      <psa03 value="0.6149267376" flag="0"/>
      <psa10 value="0.0432078278" flag="0"/>
      <psa30 value="0.0037793279" flag="0"/>
    </comp>
    <comp name="--.HHZ">
      <acc value="0.1844381868" flag="0"/>
      <vel value="0.0552646637" flag="0"/>
      <psa03 value="0.2549733454" flag="0"/>
      <psa10 value="0.0366356997" flag="0"/>
      <psa30 value="0.0018005170" flag="0"/>
    </comp>
    <comp name="--.HHE">
      <acc value="0.3085316551" flag="0"/>
      <vel value="0.0824834164" flag="0"/>
      <psa03 value="0.5791529025" flag="0"/>
      <psa10 value="0.0955595295" flag="0"/>
      <psa30 value="0.0065732289" flag="0"/>
    </comp>
  </station>
  <station code="ERTR" name="ERTR" netid="HA" insttype="Horizon,120s,1200" lat="38.4066" lon="23.7865">
    <comp name="--.HHE">
      <acc value="0.0906100344" flag="0"/>
      <vel value="0.0517573987" flag="0"/>
      <psa03 value="0.1098888191" flag="0"/>
      <psa10 value="0.0390028433" flag="0"/>
      <psa30 value="0.0034573493" flag="0"/>
    </comp>
    <comp name="--.HHN">
      <acc value="0.0976742290" flag="0"/>
      <vel value="0.0328841443" flag="0"/>
      <psa03 value="0.1334056604" flag="0"/>
      <psa10 value="0.0248587328" flag="0"/>
      <psa30 value="0.0029759365" flag="0"/>
    </comp>
    <comp name="--.HHZ">
      <acc value="0.0795796425" flag="0"/>
      <vel value="0.0301312162" flag="0"/>
      <psa03 value="0.1347817094" flag="0"/>
      <psa10 value="0.0216927242" flag="0"/>
      <psa30 value="0.0015771021" flag="0"/>
    </comp>
  </station>
  <station code="KALE" name="KALE" netid="HA" insttype="40," lat="38.3911" lon="22.1398">
    <comp name="--.HHN">
      <acc value="0.0228336689" flag="0"/>
      <vel value="0.0143498618" flag="0"/>
      <psa03 value="0.0649824297" flag="0"/>
      <psa10 value="0.0074629341" flag="0"/>
      <psa30 value="0.0010865798" flag="0"/>
    </comp>
    <comp name="--.HHE">
      <acc value="0.0257014057" flag="0"/>
      <vel value="0.0145398200" flag="0"/>
      <psa03 value="0.0767952072" flag="0"/>
      <psa10 value="0.0159951543" flag="0"/>
      <psa30 value="0.0021062596" flag="0"/>
    </comp>
    <comp name="--.HHZ">
      <acc value="0.0212833669" flag="0"/>
      <vel value="0.0133267363" flag="0"/>
      <psa03 value="0.0547330688" flag="0"/>
      <psa10 value="0.0096377003" flag="0"/>
      <psa30 value="0.0010385880" flag="0"/>
    </comp>
  </station>
  <station code="KARY" name="KARY" netid="HA" insttype="60" lat="38.0321" lon="24.437">
    <comp name="--.HHE">
      <acc value="0.0375460810" flag="0"/>
      <vel value="0.0175795785" flag="0"/>
      <psa03 value="0.0752049325" flag="0"/>
      <psa10 value="0.0089816898" flag="0"/>
      <psa30 value="0.0012630945" flag="0"/>
    </comp>
    <comp name="--.HHN">
      <acc value="0.0761553538" flag="0"/>
      <vel value="0.0178870640" flag="0"/>
      <psa03 value="0.0848561711" flag="0"/>
      <psa10 value="0.0110894457" flag="0"/>
      <psa30 value="0.0015572276" flag="0"/>
    </comp>
    <comp name="--.HHZ">
      <acc value="0.0419590387" flag="0"/>
      <vel value="0.0189744181" flag="0"/>
      <psa03 value="0.0574080947" flag="0"/>
      <psa10 value="0.0203577429" flag="0"/>
      <psa30 value="0.0015138906" flag="0"/>
    </comp>
  </station>
  <station code="KIAS" name="KIAS" netid="HA" insttype="DC" lat="37.9875" lon="22.7543">
    <comp name="--.HNE">
      <acc value="0.0768560130" flag="0"/>
      <vel value="0.0767386056" flag="0"/>
      <psa03 value="0.1888586632" flag="0"/>
      <psa10 value="0.0636692291" flag="0"/>
      <psa30 value="0.0107117371" flag="0"/>
    </comp>
    <comp name="--.HNZ">
      <acc value="0.0224736710" flag="0"/>
      <vel value="0.0167543114" flag="0"/>
      <psa03 value="0.0500046175" flag="0"/>
      <psa10 value="0.0141307562" flag="0"/>
      <psa30 value="0.0050889821" flag="0"/>
    </comp>
    <comp name="--.HNN">
      <acc value="0.0780004119" flag="0"/>
      <vel value="0.0647145483" flag="0"/>
      <psa03 value="0.1699108127" flag="0"/>
      <psa10 value="0.0751021314" flag="0"/>
      <psa30 value="0.0128145944" flag="0"/>
    </comp>
  </station>
  <station code="LAKA" name="LAKA" netid="HA" insttype="120s," lat="38.2401" lon="21.9785">
    <comp name="--.HHE">
      <acc value="0.0039271784" flag="0"/>
      <vel value="0.0036051820" flag="0"/>
      <psa03 value="0.0097264177" flag="0"/>
      <psa10 value="0.0048839034" flag="0"/>
      <psa30 value="0.0006831581" flag="0"/>
    </comp>
    <comp name="--.HHN">
      <acc value="0.0030275313" flag="0"/>
      <vel value="0.0032926713" flag="0"/>
      <psa03 value="0.0079948860" flag="0"/>
      <psa10 value="0.0046125309" flag="0"/>
      <psa30 value="0.0007566330" flag="0"/>
    </comp>
    <comp name="--.HHZ">
      <acc value="0.0025287720" flag="0"/>
      <vel value="0.0029469763" flag="0"/>
      <psa03 value="0.0103734913" flag="0"/>
      <psa10 value="0.0053083072" flag="0"/>
      <psa30 value="0.0006951385" flag="0"/>
    </comp>
  </station>
  <station code="LOUT" name="LOUT" netid="HA" insttype="30" lat="37.9879" lon="22.9743">
    <comp name="--.HHN">
      <acc value="0.0865750789" flag="0"/>
      <vel value="0.0501608692" flag="0"/>
      <psa03 value="0.1608456234" flag="0"/>
      <psa10 value="0.0718636789" flag="0"/>
      <psa30 value="0.0055763176" flag="0"/>
    </comp>
    <comp name="--.HHZ">
      <acc value="0.0638113222" flag="0"/>
      <vel value="0.0226400408" flag="0"/>
      <psa03 value="0.1072490204" flag="0"/>
      <psa10 value="0.0390196485" flag="0"/>
      <psa30 value="0.0020799499" flag="0"/>
    </comp>
    <comp name="--.HHE">
      <acc value="0.0988732487" flag="0"/>
      <vel value="0.0438295370" flag="0"/>
      <psa03 value="0.2539862045" flag="0"/>
      <psa10 value="0.0596484372" flag="0"/>
      <psa30 value="0.0047761000" flag="0"/>
    </comp>
  </station>
  <station code="MDRA" name="MDRA" netid="HA" insttype="60" lat="38.0606" lon="23.4662">
    <comp name="--.HHE">
      <acc value="0.0435051780" flag="0"/>
      <vel value="0.0370299110" flag="0"/>
      <psa03 value="0.0636836253" flag="0"/>
      <psa10 value="0.0373979371" flag="0"/>
      <psa30 value="0.0029932152" flag="0"/>
    </comp>
    <comp name="--.HHN">
      <acc value="0.0636995848" flag="0"/>
      <vel value="0.0451726989" flag="0"/>
      <psa03 value="0.0869366609" flag="0"/>
      <psa10 value="0.0410317690" flag="0"/>
      <psa30 value="0.0035685412" flag="0"/>
    </comp>
    <comp name="--.HHZ">
      <acc value="0.0444166006" flag="0"/>
      <vel value="0.0286896253" flag="0"/>
      <psa03 value="0.0727634580" flag="0"/>
      <psa10 value="0.0353539473" flag="0"/>
      <psa30 value="0.0034432257" flag="0"/>
    </comp>
  </station>
  <station code="MRKA" name="MRKA" netid="HA" insttype="Horizon,120s,1200" lat="38.7047" lon="23.5863">
    <comp name="--.HHZ">
      <acc value="0.4342518349" flag="0"/>
      <vel value="0.0867404366" flag="0"/>
      <psa03 value="0.3765940697" flag="0"/>
      <psa10 value="0.0526996934" flag="0"/>
      <psa30 value="0.0055536425" flag="0"/>
    </comp>
    <comp name="--.HHN">
      <acc value="0.6845769835" flag="0"/>
      <vel value="0.1603830750" flag="0"/>
      <psa03 value="0.7875977877" flag="0"/>
      <psa10 value="0.1179622887" flag="0"/>
      <psa30 value="0.0107756635" flag="0"/>
    </comp>
    <comp name="--.HHE">
      <acc value="1.4902826566" flag="0"/>
      <vel value="0.2857129470" flag="0"/>
      <psa03 value="0.7931002896" flag="0"/>
      <psa10 value="0.1787590959" flag="0"/>
      <psa30 value="0.0130314409" flag="0"/>
    </comp>
  </station>
  <station code="MRTH" name="MRTH" netid="HA" insttype="S100," lat="38.1225" lon="23.9409">
    <comp name="--.HHN">
      <acc value="0.0908941433" flag="0"/>
      <vel value="0.0986829153" flag="0"/>
      <psa03 value="0.2070746539" flag="0"/>
      <psa10 value="0.1347986304" flag="0"/>
      <psa30 value="0.0061774577" flag="0"/>
    </comp>
    <comp name="--.HHE">
      <acc value="0.1033230016" flag="0"/>
      <vel value="0.0553155165" flag="0"/>
      <psa03 value="0.2406085389" flag="0"/>
      <psa10 value="0.0719369241" flag="0"/>
      <psa30 value="0.0026722132" flag="0"/>
    </comp>
    <comp name="--.HHZ">
      <acc value="0.1069324651" flag="0"/>
      <vel value="0.0381163866" flag="0"/>
      <psa03 value="0.2065221786" flag="0"/>
      <psa10 value="0.0515250782" flag="0"/>
      <psa30 value="0.0022804268" flag="0"/>
    </comp>
  </station>
  <station code="PRDM" name="PRDM" netid="HA" insttype="25" lat="38.2804" lon="22.847">
    <comp name="--.HHZ">
      <acc value="0.0258291342" flag="0"/>
      <vel value="0.0090930858" flag="0"/>
      <psa03 value="0.0540466072" flag="0"/>
      <psa10 value="0.0077851561" flag="0"/>
      <psa30 value="0.0007039506" flag="0"/>
    </comp>
    <comp name="--.HHN">
      <acc value="0.0406271023" flag="0"/>
      <vel value="0.0160994515" flag="0"/>
      <psa03 value="0.0786695588" flag="0"/>
      <psa10 value="0.0189228779" flag="0"/>
      <psa30 value="0.0012559230" flag="0"/>
    </comp>
    <comp name="--.HHE">
      <acc value="0.0486010680" flag="0"/>
      <vel value="0.0278391651" flag="0"/>
      <psa03 value="0.0750123306" flag="0"/>
      <psa10 value="0.0166298818" flag="0"/>
      <psa30 value="0.0019343458" flag="0"/>
    </comp>
  </station>
  <station code="PSAH" name="PSAH" netid="HA" insttype="25" lat="38.5694" lon="23.6473">
    <comp name="--.HHZ">
      <acc value="0.0646317462" flag="0"/>
      <vel value="0.0212198037" flag="0"/>
      <psa03 value="0.0596297445" flag="0"/>
      <psa10 value="0.0252008068" flag="0"/>
      <psa30 value="0.0013355957" flag="0"/>
    </comp>
    <comp name="--.HHN">
      <acc value="0.0821363846" flag="0"/>
      <vel value="0.0341292363" flag="0"/>
      <psa03 value="0.0933330426" flag="0"/>
      <psa10 value="0.0425892374" flag="0"/>
      <psa30 value="0.0031618523" flag="0"/>
    </comp>
    <comp name="--.HHE">
      <acc value="0.0999956454" flag="0"/>
      <vel value="0.0497823352" flag="0"/>
      <psa03 value="0.1340299416" flag="0"/>
      <psa10 value="0.0578790698" flag="0"/>
      <psa30 value="0.0035704341" flag="0"/>
    </comp>
  </station>
  <station code="STFN" name="STFN" netid="HA" insttype="1s-100Hz," lat="38.1766" lon="23.544">
    <comp name="--.HHE">
      <acc value="0.0585226770" flag="0"/>
      <vel value="0.0422303366" flag="0"/>
      <psa03 value="0.0814621223" flag="0"/>
      <psa10 value="0.0750782752" flag="0"/>
      <psa30 value="0.0039169954" flag="0"/>
    </comp>
    <comp name="--.HHN">
      <acc value="0.0532500300" flag="0"/>
      <vel value="0.0341232026" flag="0"/>
