<?xml version="1.0" encoding="UTF-8" standalone="yes"?>
<!DOCTYPE earthquake SYSTEM "stationlist.dtd">
<stationlist created="" xmlns="ch.ethz.sed.shakemap.usgs.xml">
  <station code="PSAM" name="PSAM" netid="CL" insttype="CMG40-T" lat="38.3218" lon="22.1842">
    <comp name="00.HHE">
      <acc value="0.0225157624" flag="0"/>
      <vel value="0.0169550290" flag="0"/>
      <psa03 value="0.0543859569" flag="0"/>
      <psa10 value="0.0199283135" flag="0"/>
      <psa30 value="0.0028523838" flag="0"/>
    </comp>
    <comp name="00.HHZ">
      <acc value="0.0081415612" flag="0"/>
      <vel value="0.0075628309" flag="0"/>
      <psa03 value="0.0231091972" flag="0"/>
      <psa10 value="0.0092873407" flag="0"/>
      <psa30 value="0.0013602931" flag="0"/>
    </comp>
    <comp name="00.HHN">
      <acc value="0.0149534514" flag="0"/>
      <vel value="0.0165707240" flag="0"/>
      <psa03 value="0.0373721086" flag="0"/>
      <psa10 value="0.0235453563" flag="0"/>
      <psa30 value="0.0026568838" flag="0"/>
    </comp>
  </station>
  <station code="TRIZ" name="TRIZ" netid="CL" insttype="STS-2" lat="38.3654" lon="22.0727">
    <comp name="00.HH2">
      <acc value="0.0152781978" flag="0"/>
      <vel value="0.0101817207" flag="0"/>
      <psa03 value="0.0421984172" flag="0"/>
      <psa10 value="0.0133934442" flag="0"/>
      <psa30 value="0.0014152368" flag="0"/>
    </comp>
    <comp name="00.HHZ">
      <acc value="0.0153501657" flag="0"/>
      <vel value="0.0071220317" flag="0"/>
      <psa03 value="0.0360839212" flag="0"/>
      <psa10 value="0.0064799599" flag="0"/>
      <psa30 value="0.0009765935" flag="0"/>
    </comp>
    <comp name="00.HH3">
      <acc value="0.0205028846" flag="0"/>
      <vel value="0.0184037974" flag="0"/>
      <psa03 value="0.0759063278" flag="0"/>
      <psa10 value="0.0145285871" flag="0"/>
      <psa30 value="0.0015348477" flag="0"/>
    </comp>
  </station>
</stationlist>
