<?xml version="1.0" encoding="UTF-8" standalone="yes"?>
<!DOCTYPE earthquake SYSTEM "stationlist.dtd">
<stationlist created="" xmlns="ch.ethz.sed.shakemap.usgs.xml">
  <station code="AMPE" name="AMPE" netid="HA" insttype="1s-100Hz," lat="38.3015" lon="23.2688">
    <comp name="--.HHE">
      <acc value="0.1132345626" flag="0"/>
      <vel value="0.1108365719" flag="0"/>
      <psa03 value="0.2391572948" flag="0"/>
      <psa10 value="0.0724534149" flag="0"/>
      <psa30 value="0.0053194260" flag="0"/>
    </comp>
    <comp name="--.HHZ">
      <acc value="0.0533097982" flag="0"/>
      <vel value="0.0322281056" flag="0"/>
      <psa03 value="0.1248776827" flag="0"/>
      <psa10 value="0.0451626195" flag="0"/>
      <psa30 value="0.0026038634" flag="0"/>
    </comp>
    <comp name="--.HHN">
      <acc value="0.0944360744" flag="0"/>
      <vel value="0.0923653380" flag="0"/>
      <psa03 value="0.1645377102" flag="0"/>
      <psa10 value="0.1462926663" flag="0"/>
      <psa30 value="0.0055189491" flag="0"/>
    </comp>
  </station>
  <station code="ANTK" name="ANTK" netid="HA" insttype="25" lat="38.3605" lon="22.6385">
    <comp name="--.HHN">
      <acc value="0.0010569309" flag="0"/>
      <vel value="0.0004944493" flag="0"/>
      <psa03 value="0.0016556219" flag="0"/>
      <psa10 value="0.0006037962" flag="0"/>
      <psa30 value="0.0000292793" flag="0"/>
    </comp>
    <comp name="--.HHZ">
      <acc value="0.0135178990" flag="0"/>
      <vel value="0.0078253249" flag="0"/>
      <psa03 value="0.0341808572" flag="0"/>
      <psa10 value="0.0114095319" flag="0"/>
      <psa30 value="0.0008022091" flag="0"/>
    </comp>
    <comp name="--.HHE">
      <acc value="0.0247643380" flag="0"/>
      <vel value="0.0160618122" flag="0"/>
      <psa03 value="0.0633790158" flag="0"/>
      <psa10 value="0.0305163315" flag="0"/>
      <psa30 value="0.0029471000" flag="0"/>
    </comp>
  </station>
  <station code="ATAL" name="ATAL" netid="HA" insttype="120s," lat="38.6926" lon="23.0213">
    <comp name="--.HHE">
      <acc value="0.1929225953" flag="0"/>
      <vel value="0.0787934031" flag="0"/>
      <psa03 value="0.2098673452" flag="0"/>
      <psa10 value="0.0478089679" flag="0"/>
      <psa30 value="0.0051244036" flag="0"/>
    </comp>
    <comp name="--.HHN">
      <acc value="0.2575641304" flag="0"/>
      <vel value="0.0804338788" flag="0"/>
      <psa03 value="0.4806272582" flag="0"/>
      <psa10 value="0.0384976747" flag="0"/>
      <psa30 value="0.0050923637" flag="0"/>
    </comp>
    <comp name="--.HHZ">
      <acc value="0.1834298018" flag="0"/>
      <vel value="0.0657795421" flag="0"/>
      <psa03 value="0.5021553273" flag="0"/>
      <psa10 value="0.0301188646" flag="0"/>
      <psa30 value="0.0041307066" flag="0"/>
    </comp>
  </station>
  <station code="ATHU" name="ATHU" netid="HA" insttype="60s," lat="37.9665" lon="23.7845">
    <comp name="--.HHN">
      <acc value="0.0293042606" flag="0"/>
      <vel value="0.0155565367" flag="0"/>
      <psa03 value="0.0527517537" flag="0"/>
      <psa10 value="0.0110373056" flag="0"/>
      <psa30 value="0.0017039710" flag="0"/>
    </comp>
    <comp name="--.HHE">
      <acc value="0.0377992083" flag="0"/>
      <vel value="0.0179207906" flag="0"/>
      <psa03 value="0.0705986893" flag="0"/>
      <psa10 value="0.0171189821" flag="0"/>
      <psa30 value="0.0022135614" flag="0"/>
    </comp>
    <comp name="--.HHZ">
      <acc value="0.0393328891" flag="0"/>
      <vel value="0.0188194403" flag="0"/>
      <psa03 value="0.0405326841" flag="0"/>
      <psa10 value="0.0120271761" flag="0"/>
      <psa30 value="0.0017249996" flag="0"/>
    </comp>
  </station>
  <station code="AXAR" name="AXAR" netid="HA" insttype="Horizon,120s,1200" lat="38.7664" lon="22.659">
    <comp name="--.HHZ">
      <acc value="0.0963548802" flag="0"/>
      <vel value="0.0302790285" flag="0"/>
      <psa03 value="0.1700048027" flag="0"/>
      <psa10 value="0.0257615406" flag="0"/>
      <psa30 value="0.0017087291" flag="0"/>
    </comp>
    <comp name="--.HHN">
      <acc value="0.1463988205" flag="0"/>
      <vel value="0.0801051928" flag="0"/>
      <psa03 value="0.2796993263" flag="0"/>
      <psa10 value="0.0353398287" flag="0"/>
      <psa30 value="0.0035348546" flag="0"/>
    </comp>
    <comp name="--.HHE">
      <acc value="0.1441290578" flag="0"/>
      <vel value="0.0520090382" flag="0"/>
      <psa03 value="0.2764854990" flag="0"/>
      <psa10 value="0.0514194202" flag="0"/>
      <psa30 value="0.0033528700" flag="0"/>
    </comp>
  </station>
  <station code="DOMV" name="DOMV" netid="HA" insttype="60" lat="38.2569" lon="22.9795">
    <comp name="--.HHE">
      <acc value="0.3085316530" flag="0"/>
      <vel value="0.0824834166" flag="0"/>
      <psa03 value="0.5791529025" flag="0"/>
      <psa10 value="0.0955595296" flag="0"/>
      <psa30 value="0.0065732184" flag="0"/>
    </comp>
    <comp name="--.HHN">
      <acc value="0.2539989256" flag="0"/>
      <vel value="0.0933868073" flag="0"/>
      <psa03 value="0.6149267376" flag="0"/>
      <psa10 value="0.0432078278" flag="0"/>
      <psa30 value="0.0037793185" flag="0"/>
    </comp>
    <comp name="--.HHZ">
      <acc value="0.1844381876" flag="0"/>
      <vel value="0.0552646648" flag="0"/>
      <psa03 value="0.2549733454" flag="0"/>
      <psa10 value="0.0366356998" flag="0"/>
      <psa30 value="0.0018004778" flag="0"/>
    </comp>
  </station>
  <station code="ERTR" name="ERTR" netid="HA" insttype="Horizon,120s,1200" lat="38.4066" lon="23.7865">
    <comp name="--.HHE">
      <acc value="0.0906100346" flag="0"/>
      <vel value="0.0517573988" flag="0"/>
      <psa03 value="0.1098888191" flag="0"/>
      <psa10 value="0.0390028434" flag="0"/>
      <psa30 value="0.0034573306" flag="0"/>
    </comp>
    <comp name="--.HHN">
      <acc value="0.0976742314" flag="0"/>
      <vel value="0.0328841443" flag="0"/>
      <psa03 value="0.1334056604" flag="0"/>
      <psa10 value="0.0248587329" flag="0"/>
      <psa30 value="0.0029759247" flag="0"/>
    </comp>
    <comp name="--.HHZ">
      <acc value="0.0795796422" flag="0"/>
      <vel value="0.0301312163" flag="0"/>
      <psa03 value="0.1347817094" flag="0"/>
      <psa10 value="0.0216927242" flag="0"/>
      <psa30 value="0.0015770828" flag="0"/>
    </comp>
  </station>
  <station code="KIAS" name="KIAS" netid="HA" insttype="DC" lat="37.9875" lon="22.7543">
    <comp name="--.HNE">
      <acc value="0.0768560082" flag="0"/>
      <vel value="0.0767385970" flag="0"/>
      <psa03 value="0.1888586632" flag="0"/>
      <psa10 value="0.0636692290" flag="0"/>
      <psa30 value="0.0107121417" flag="0"/>
    </comp>
    <comp name="--.HNZ">
      <acc value="0.0224736662" flag="0"/>
      <vel value="0.0167543041" flag="0"/>
      <psa03 value="0.0500046175" flag="0"/>
      <psa10 value="0.0141307558" flag="0"/>
      <psa30 value="0.0050893544" flag="0"/>
    </comp>
    <comp name="--.HNN">
      <acc value="0.0780004222" flag="0"/>
      <vel value="0.0647145606" flag="0"/>
      <psa03 value="0.1699108127" flag="0"/>
      <psa10 value="0.0751021341" flag="0"/>
      <psa30 value="0.0128146431" flag="0"/>
    </comp>
  </station>
  <station code="LOUT" name="LOUT" netid="HA" insttype="30" lat="37.9879" lon="22.9743">
    <comp name="--.HHN">
      <acc value="0.0865750794" flag="0"/>
      <vel value="0.0501608681" flag="0"/>
      <psa03 value="0.1608456234" flag="0"/>
      <psa10 value="0.0718636789" flag="0"/>
      <psa30 value="0.0055763136" flag="0"/>
    </comp>
    <comp name="--.HHZ">
      <acc value="0.0638113254" flag="0"/>
      <vel value="0.0226400397" flag="0"/>
      <psa03 value="0.1072490204" flag="0"/>
      <psa10 value="0.0390196485" flag="0"/>
      <psa30 value="0.0020799465" flag="0"/>
    </comp>
    <comp name="--.HHE">
      <acc value="0.0988732490" flag="0"/>
      <vel value="0.0438295305" flag="0"/>
      <psa03 value="0.2539862045" flag="0"/>
      <psa10 value="0.0596484372" flag="0"/>
      <psa30 value="0.0047761306" flag="0"/>
    </comp>
  </station>
  <station code="MDRA" name="MDRA" netid="HA" insttype="60" lat="38.0606" lon="23.4662">
    <comp name="--.HHE">
      <acc value="0.0435051787" flag="0"/>
      <vel value="0.0370299105" flag="0"/>
      <psa03 value="0.0636836253" flag="0"/>
      <psa10 value="0.0373979371" flag="0"/>
      <psa30 value="0.0029932229" flag="0"/>
    </comp>
    <comp name="--.HHN">
      <acc value="0.0636995853" flag="0"/>
      <vel value="0.0451726993" flag="0"/>
      <psa03 value="0.0869366609" flag="0"/>
      <psa10 value="0.0410317690" flag="0"/>
      <psa30 value="0.0035685081" flag="0"/>
    </comp>
    <comp name="--.HHZ">
      <acc value="0.0444166009" flag="0"/>
      <vel value="0.0286896257" flag="0"/>
      <psa03 value="0.0727634580" flag="0"/>
      <psa10 value="0.0353539473" flag="0"/>
      <psa30 value="0.0034432270" flag="0"/>
    </comp>
  </station>
  <station code="MRKA" name="MRKA" netid="HA" insttype="Horizon,120s,1200" lat="38.7047" lon="23.5863">
    <comp name="--.HHN">
      <acc value="0.6845769840" flag="0"/>
      <vel value="0.1603830746" flag="0"/>
      <psa03 value="0.7875977877" flag="0"/>
      <psa10 value="0.1179622903" flag="0"/>
      <psa30 value="0.0107757409" flag="0"/>
    </comp>
    <comp name="--.HHE">
      <acc value="1.4902826567" flag="0"/>
      <vel value="0.2857129470" flag="0"/>
      <psa03 value="0.7931002896" flag="0"/>
      <psa10 value="0.1787590956" flag="0"/>
      <psa30 value="0.0130314626" flag="0"/>
    </comp>
    <comp name="--.HHZ">
      <acc value="0.4342518349" flag="0"/>
      <vel value="0.0867404364" flag="0"/>
      <psa03 value="0.3765940697" flag="0"/>
      <psa10 value="0.0526996935" flag="0"/>
      <psa30 value="0.0055536490" flag="0"/>
    </comp>
  </station>
  <station code="MRTH" name="MRTH" netid="HA" insttype="S100," lat="38.1225" lon="23.9409">
    <comp name="--.HHE">
      <acc value="0.1033230013" flag="0"/>
      <vel value="0.0553150187" flag="0"/>
      <psa03 value="0.2406085388" flag="0"/>
      <psa10 value="0.0719369239" flag="0"/>
      <psa30 value="0.0026722166" flag="0"/>
    </comp>
    <comp name="--.HHN">
      <acc value="0.0908941416" flag="0"/>
      <vel value="0.0986833828" flag="0"/>
      <psa03 value="0.2070746541" flag="0"/>
      <psa10 value="0.1347986307" flag="0"/>
      <psa30 value="0.0061774965" flag="0"/>
    </comp>
    <comp name="--.HHZ">
      <acc value="0.1069324670" flag="0"/>
      <vel value="0.0381163295" flag="0"/>
      <psa03 value="0.2065221788" flag="0"/>
      <psa10 value="0.0515250785" flag="0"/>
      <psa30 value="0.0022804500" flag="0"/>
    </comp>
  </station>
  <station code="PRDM" name="PRDM" netid="HA" insttype="25" lat="38.2804" lon="22.847">
    <comp name="--.HHN">
      <acc value="0.0406271016" flag="0"/>
      <vel value="0.0160994536" flag="0"/>
      <psa03 value="0.0786695588" flag="0"/>
      <psa10 value="0.0189228779" flag="0"/>
      <psa30 value="0.0012559110" flag="0"/>
    </comp>
    <comp name="--.HHZ">
      <acc value="0.0258291346" flag="0"/>
      <vel value="0.0090930856" flag="0"/>
      <psa03 value="0.0540466072" flag="0"/>
      <psa10 value="0.0077851561" flag="0"/>
      <psa30 value="0.0007039496" flag="0"/>
    </comp>
    <comp name="--.HHE">
      <acc value="0.0486010681" flag="0"/>
      <vel value="0.0278391651" flag="0"/>
      <psa03 value="0.0750123306" flag="0"/>
      <psa10 value="0.0166298818" flag="0"/>
      <psa30 value="0.0019343595" flag="0"/>
    </comp>
  </station>
  <station code="PSAH" name="PSAH" netid="HA" insttype="25" lat="38.5694" lon="23.6473">
    <comp name="--.HHE">
      <acc value="0.0999956456" flag="0"/>
      <vel value="0.0497823368" flag="0"/>
      <psa03 value="0.1340299416" flag="0"/>
      <psa10 value="0.0578790698" flag="0"/>
      <psa30 value="0.0035704326" flag="0"/>
    </comp>
    <comp name="--.HHZ">
      <acc value="0.0646317461" flag="0"/>
      <vel value="0.0212198044" flag="0"/>
      <psa03 value="0.0596297445" flag="0"/>
      <psa10 value="0.0252008069" flag="0"/>
      <psa30 value="0.0013356017" flag="0"/>
    </comp>
    <comp name="--.HHN">
      <acc value="0.0821363846" flag="0"/>
      <vel value="0.0341292325" flag="0"/>
      <psa03 value="0.0933330426" flag="0"/>
      <psa10 value="0.0425892374" flag="0"/>
      <psa30 value="0.0031618565" flag="0"/>
    </comp>
  </station>
  <station code="STFN" name="STFN" netid="HA" insttype="1s-100Hz," lat="38.1766" lon="23.544">
    <comp name="--.HHE">
      <acc value="0.0585226774" flag="0"/>
      <vel value="0.0422302997" flag="0"/>
      <psa03 value="0.0814621225" flag="0"/>
      <psa10 value="0.0750782750" flag="0"/>
      <psa30 value="0.0039170505" flag="0"/>
    </comp>
    <comp name="--.HHN">
      <acc value="0.0532500305" flag="0"/>
      <vel value="0.0341231337" flag="0"/>
      <psa03 value="0.0980350955" flag="0"/>
      <psa10 value="0.0405239929" flag="0"/>
      <psa30 value="0.0024798648" flag="0"/>
    </comp>
    <comp name="--.HHZ">
      <acc value="0.0881812444" flag="0"/>
      <vel value="0.0525040041" flag="0"/>
      <psa03 value="0.1524676874" flag="0"/>
      <psa10 value="0.0334244109" flag="0"/>
      <psa30 value="0.0028148116" flag="0"/>
    </comp>
  </station>
  <station code="THAL" name="THAL" netid="HA" insttype="30" lat="38.0357" lon="22.6634">
    <comp name="--.HHE">
      <acc value="0.0874350850" flag="0"/>
      <vel value="0.0508495333" flag="0"/>
      <psa03 value="0.1713461065" flag="0"/>
      <psa10 value="0.0624830205" flag="0"/>
      <psa30 value="0.0047028316" flag="0"/>
    </comp>
    <comp name="--.HHN">
      <acc value="0.1124392845" flag="0"/>
      <vel value="0.0517334590" flag="0"/>
      <psa03 value="0.2526989103" flag="0"/>
      <psa10 value="0.0524409192" flag="0"/>
      <psa30 value="0.0047845634" flag="0"/>
    </comp>
    <comp name="--.HHZ">
      <acc value="0.0432889529" flag="0"/>
      <vel value="0.0213610158" flag="0"/>
      <psa03 value="0.0948396126" flag="0"/>
      <psa10 value="0.0268780664" flag="0"/>
      <psa30 value="0.0020384335" flag="0"/>
    </comp>
  </station>
  <station code="THIV" name="THIV" netid="HA" insttype="25" lat="38.299" lon="23.332">
    <comp name="--.HHZ">
      <acc value="0.0789575197" flag="0"/>
      <vel value="0.0411146245" flag="0"/>
      <psa03 value="0.0999366064" flag="0"/>
      <psa10 value="0.0409867588" flag="0"/>
      <psa30 value="0.0034682955" flag="0"/>
    </comp>
    <comp name="--.HHE">
      <acc value="0.1519667520" flag="0"/>
      <vel value="0.0781210811" flag="0"/>
      <psa03 value="0.1574545828" flag="0"/>
      <psa10 value="0.0843451819" flag="0"/>
      <psa30 value="0.0066970897" flag="0"/>
    </comp>
    <comp name="--.HHN">
      <acc value="0.1330268428" flag="0"/>
      <vel value="0.0694392064" flag="0"/>
      <psa03 value="0.2320610255" flag="0"/>
      <psa10 value="0.0649790521" flag="0"/>
      <psa30 value="0.0053906694" flag="0"/>
    </comp>
  </station>
  <station code="VILL" name="VILL" netid="HA" insttype="Horizon,120s,1200" lat="38.1642" lon="23.3122">
    <comp name="--.HHE">
      <acc value="0.1176775678" flag="0"/>
      <vel value="0.0788177161" flag="0"/>
      <psa03 value="0.2006215712" flag="0"/>
      <psa10 value="0.0676435603" flag="0"/>
      <psa30 value="0.0054941764" flag="0"/>
    </comp>
    <comp name="--.HHN">
      <acc value="0.1261029552" flag="0"/>
      <vel value="0.0736377606" flag="0"/>
      <psa03 value="0.2283856909" flag="0"/>
      <psa10 value="0.0738936132" flag="0"/>
      <psa30 value="0.0037680623" flag="0"/>
    </comp>
    <comp name="--.HHZ">
      <acc value="0.0616812700" flag="0"/>
      <vel value="0.0359464487" flag="0"/>
      <psa03 value="0.1510595383" flag="0"/>
      <psa10 value="0.0501996582" flag="0"/>
      <psa30 value="0.0030691123" flag="0"/>
    </comp>
  </station>
  <station code="LAM2" name="LAM2" netid="HI" insttype="CMG-5TD,ACCELEROMETER,GURALP" lat="38.902" lon="22.4313">
    <comp name="--.HNZ">
      <acc value="0.0453642628" flag="0"/>
      <vel value="0.0152724358" flag="0"/>
      <psa03 value="0.0781257203" flag="0"/>
      <psa10 value="0.0103427133" flag="0"/>
      <psa30 value="0.0010609074" flag="0"/>
    </comp>
    <comp name="--.HNN">
      <acc value="0.0802429642" flag="0"/>
      <vel value="0.0302558627" flag="0"/>
      <psa03 value="0.1033308373" flag="0"/>
      <psa10 value="0.0228477750" flag="0"/>
      <psa30 value="0.0025037051" flag="0"/>
    </comp>
    <comp name="--.HNE">
      <acc value="0.0563733498" flag="0"/>
      <vel value="0.0292721297" flag="0"/>
      <psa03 value="0.1552137178" flag="0"/>
      <psa10 value="0.0200017523" flag="0"/>
      <psa30 value="0.0019263758" flag="0"/>
    </comp>
  </station>
  <station code="PLN1" name="PLN1" netid="HI" insttype="CMG-5TD,ACCELEROMETER,GURALP" lat="39.998" lon="23.575">
    <comp name="--.HNZ">
      <acc value="0.0249373674" flag="0"/>
      <vel value="0.0119111909" flag="0"/>
      <psa03 value="0.0467348380" flag="0"/>
      <psa10 value="0.0301100346" flag="0"/>
      <psa30 value="0.0014397968" flag="0"/>
    </comp>
    <comp name="--.HNN">
      <acc value="0.0283241974" flag="0"/>
      <vel value="0.0264858200" flag="0"/>
      <psa03 value="0.0522661789" flag="0"/>
      <psa10 value="0.0481433026" flag="0"/>
      <psa30 value="0.0031661906" flag="0"/>
    </comp>
    <comp name="--.HNE">
      <acc value="0.0281767326" flag="0"/>
      <vel value="0.0263719034" flag="0"/>
      <psa03 value="0.0835249776" flag="0"/>
      <psa10 value="0.0410140412" flag="0"/>
      <psa30 value="0.0073407576" flag="0"/>
    </comp>
  </station>
  <station code="SKY1" name="SKY1" netid="HI" insttype="CMG-5TD,ACCELEROMETER,GURALP" lat="38.9045" lon="24.5646">
    <comp name="--.HNZ">
      <acc value="0.0836284749" flag="0"/>
      <vel value="0.0375777789" flag="0"/>
      <psa03 value="0.1591572663" flag="0"/>
      <psa10 value="0.0299534309" flag="0"/>
      <psa30 value="0.0032484959" flag="0"/>
    </comp>
    <comp name="--.HNE">
      <acc value="0.0837323418" flag="0"/>
      <vel value="0.0354245452" flag="0"/>
      <psa03 value="0.1747181249" flag="0"/>
      <psa10 value="0.0235113148" flag="0"/>
      <psa30 value="0.0021364653" flag="0"/>
    </comp>
    <comp name="--.HNN">
      <acc value="0.1777184921" flag="0"/>
      <vel value="0.0819753244" flag="0"/>
      <psa03 value="0.3166949139" flag="0"/>
      <psa10 value="0.0516088136" flag="0"/>
      <psa30 value="0.0039571620" flag="0"/>
    </comp>
  </station>
  <station code="VOL2" name="VOL2" netid="HI" insttype="CMG-5TD,ACCELEROMETER,GURALP" lat="39.366" lon="22.9506">
    <comp name="--.HNE">
      <acc value="0.5595489570" flag="0"/>
      <vel value="0.1917880105" flag="0"/>
      <psa03 value="1.2675268884" flag="0"/>
      <psa10 value="0.0423758720" flag="0"/>
      <psa30 value="0.0048519741" flag="0"/>
    </comp>
    <comp name="--.HNZ">
      <acc value="0.3578688346" flag="0"/>
      <vel value="0.1147031879" flag="0"/>
      <psa03 value="0.2154241553" flag="0"/>
      <psa10 value="0.0244386325" flag="0"/>
      <psa30 value="0.0030039209" flag="0"/>
    </comp>
    <comp name="--.HNN">
      <acc value="0.5936978300" flag="0"/>
      <vel value="0.1945472800" flag="0"/>
      <psa03 value="1.4965546633" flag="0"/>
      <psa10 value="0.0547163809" flag="0"/>
      <psa30 value="0.0043482955" flag="0"/>
    </comp>
  </station>
  <station code="ALNA" name="ALNA" netid="HL" insttype="CMG-5" lat="39.148" lon="23.8667">
    <comp name="00.HNZ">
      <acc value="0.1254484623" flag="0"/>
      <vel value="0.0517564734" flag="0"/>
      <psa03 value="0.2191950920" flag="0"/>
      <psa10 value="0.0412292738" flag="0"/>
      <psa30 value="0.0029084487" flag="0"/>
    </comp>
    <comp name="00.HNN">
