<?xml version="1.0" encoding="UTF-8" standalone="yes"?>
<!DOCTYPE earthquake SYSTEM "stationlist.dtd">
<stationlist created="" xmlns="ch.ethz.sed.shakemap.usgs.xml">
  <station code="BNN" name="BNN" netid="KO" insttype="CMG-3T" lat="38.8521" lon="35.8472">
    <comp name="--.HHN">
      <acc value="0.0425115393" flag="0"/>
      <vel value="0.0360293679" flag="0"/>
      <psa03 value="0.0908451118" flag="0"/>
      <psa10 value="0.0607137911" flag="0"/>
      <psa30 value="0.0046627125" flag="0"/>
    </comp>
    <comp name="--.HHZ">
      <acc value="0.0250045808" flag="0"/>
      <vel value="0.0159168704" flag="0"/>
      <psa03 value="0.0523045128" flag="0"/>
      <psa10 value="0.0262954271" flag="0"/>
      <psa30 value="0.0017797212" flag="0"/>
    </comp>
  </station>
  <station code="CEYT" name="CEYT" netid="KO" insttype="CMG-3ESP" lat="37.0105" lon="35.7478">
    <comp name="--.HHZ">
      <acc value="0.0198531259" flag="0"/>
      <vel value="0.0217411763" flag="0"/>
      <psa03 value="0.0565887600" flag="0"/>
      <psa10 value="0.0288337549" flag="0"/>
      <psa30 value="0.0037646989" flag="0"/>
    </comp>
    <comp name="--.HHN">
      <acc value="0.0270378143" flag="0"/>
      <vel value="0.0199204462" flag="0"/>
      <psa03 value="0.0749253918" flag="0"/>
      <psa10 value="0.0279691574" flag="0"/>
      <psa30 value="0.0040888330" flag="0"/>
    </comp>
    <comp name="--.HHE">
      <acc value="0.0410510332" flag="0"/>
      <vel value="0.0329529358" flag="0"/>
      <psa03 value="0.1232143917" flag="0"/>
      <psa10 value="0.0345732552" flag="0"/>
      <psa30 value="0.0056661264" flag="0"/>
    </comp>
  </station>
  <station code="CMRD" name="CMRD" netid="KO" insttype="CMG-5T" lat="37.6623" lon="34.9902">
    <comp name="--.HNE">
      <acc value="0.0316180609" flag="0"/>
      <vel value="0.0181791942" flag="0"/>
      <psa03 value="0.0885819998" flag="0"/>
      <psa10 value="0.0216415015" flag="0"/>
      <psa30 value="0.0018566912" flag="0"/>
    </comp>
    <comp name="--.HNN">
      <acc value="0.0326737707" flag="0"/>
      <vel value="0.0245654530" flag="0"/>
      <psa03 value="0.0790743993" flag="0"/>
      <psa10 value="0.0244944172" flag="0"/>
      <psa30 value="0.0015421992" flag="0"/>
    </comp>
    <comp name="--.HNZ">
      <acc value="0.0273717393" flag="0"/>
      <vel value="0.0150155079" flag="0"/>
      <psa03 value="0.0590033240" flag="0"/>
      <psa10 value="0.0164524855" flag="0"/>
      <psa30 value="0.0018392760" flag="0"/>
    </comp>
  </station>
  <station code="GAZ" name="GAZ" netid="KO" insttype="CMG-3T" lat="37.1721" lon="37.2096">
    <comp name="--.HHN">
      <acc value="0.0302337948" flag="0"/>
      <vel value="0.0510507480" flag="0"/>
      <psa03 value="0.0664573473" flag="0"/>
      <psa10 value="0.0881991698" flag="0"/>
      <psa30 value="0.0058272065" flag="0"/>
    </comp>
    <comp name="--.HHZ">
      <acc value="0.0228059579" flag="0"/>
      <vel value="0.0217453924" flag="0"/>
      <psa03 value="0.0437119322" flag="0"/>
      <psa10 value="0.0247229360" flag="0"/>
      <psa30 value="0.0047326979" flag="0"/>
    </comp>
  </station>
  <station code="KHMN" name="KHMN" netid="KO" insttype="CMG-5T" lat="37.3916" lon="37.1574">
    <comp name="--.HNE">
      <acc value="0.0654483727" flag="0"/>
      <vel value="0.0352073853" flag="0"/>
      <psa03 value="0.0874413644" flag="0"/>
      <psa10 value="0.0419413182" flag="0"/>
      <psa30 value="0.0068970499" flag="0"/>
    </comp>
    <comp name="--.HNN">
      <acc value="0.0536779605" flag="0"/>
      <vel value="0.0235359600" flag="0"/>
      <psa03 value="0.0836445692" flag="0"/>
      <psa10 value="0.0157571417" flag="0"/>
      <psa30 value="0.0052576543" flag="0"/>
    </comp>
    <comp name="--.HNZ">
      <acc value="0.0390562825" flag="0"/>
      <vel value="0.0151028040" flag="0"/>
      <psa03 value="0.0458650029" flag="0"/>
      <psa10 value="0.0154129085" flag="0"/>
      <psa30 value="0.0030054238" flag="0"/>
    </comp>
  </station>
  <station code="KMRS" name="KMRS" netid="KO" insttype="CMG-3T" lat="37.5053" lon="36.9">
    <comp name="--.HHZ">
      <acc value="0.0332290878" flag="0"/>
      <vel value="0.0223701686" flag="0"/>
      <psa03 value="0.0967489530" flag="0"/>
      <psa10 value="0.0384849821" flag="0"/>
      <psa30 value="0.0029400705" flag="0"/>
    </comp>
    <comp name="--.HHE">
      <acc value="0.0601950260" flag="0"/>
      <vel value="0.0539074863" flag="0"/>
      <psa03 value="0.1171738983" flag="0"/>
      <psa10 value="0.0983207605" flag="0"/>
      <psa30 value="0.0119707580" flag="0"/>
    </comp>
  </station>
  <station code="ANDN" name="ANDN" netid="TU" insttype="T" lat="37.58" lon="36.3452">
    <comp name="--.HHZ">
      <acc value="0.2881278547" flag="0"/>
      <vel value="0.1561919592" flag="0"/>
      <psa03 value="0.7802722787" flag="0"/>
      <psa10 value="0.3413226478" flag="0"/>
      <psa30 value="0.0133142197" flag="0"/>
    </comp>
    <comp name="--.HHN">
      <acc value="0.6131684574" flag="0"/>
      <vel value="0.2953284233" flag="0"/>
      <psa03 value="1.2143998241" flag="0"/>
      <psa10 value="0.4048654643" flag="0"/>
      <psa30 value="0.0210214504" flag="0"/>
    </comp>
    <comp name="--.HHE">
      <acc value="0.5739922475" flag="0"/>
      <vel value="0.3703277216" flag="0"/>
      <psa03 value="1.0058557936" flag="0"/>
      <psa10 value="0.5810312714" flag="0"/>
      <psa30 value="0.0609117611" flag="0"/>
    </comp>
  </station>
</stationlist>
