<?xml version="1.0" encoding="UTF-8" standalone="yes"?>
<!DOCTYPE earthquake SYSTEM "stationlist.dtd">
<stationlist created="" xmlns="ch.ethz.sed.shakemap.usgs.xml">
  <station code="ACOR" name="ACOR" netid="HA" insttype="30" lat="37.8902" lon="22.8692">
    <comp name="--.HHE">
      <acc value="0.0216602172" flag="0"/>
      <vel value="0.0111654187" flag="0"/>
      <psa03 value="0.0558997199" flag="0"/>
      <psa10 value="0.0174510349" flag="0"/>
      <psa30 value="0.0017908908" flag="0"/>
    </comp>
    <comp name="--.HHN">
      <acc value="0.0860511883" flag="0"/>
      <vel value="0.0475092818" flag="0"/>
      <psa03 value="0.1503709590" flag="0"/>
      <psa10 value="0.0646472921" flag="0"/>
      <psa30 value="0.0069103317" flag="0"/>
    </comp>
    <comp name="--.HHZ">
      <acc value="0.0222140699" flag="0"/>
      <vel value="0.0084310836" flag="0"/>
      <psa03 value="0.0605138199" flag="0"/>
      <psa10 value="0.0096115233" flag="0"/>
      <psa30 value="0.0016815181" flag="0"/>
    </comp>
  </station>
  <station code="ATHU" name="ATHU" netid="HA" insttype="60" lat="37.9665" lon="23.7845">
    <comp name="--.HHN">
      <acc value="0.0397060537" flag="0"/>
      <vel value="0.0086861348" flag="0"/>
      <psa03 value="0.0260843987" flag="0"/>
      <psa10 value="0.0033176171" flag="0"/>
      <psa30 value="0.0007801420" flag="0"/>
    </comp>
    <comp name="--.HHE">
      <acc value="0.0351699420" flag="0"/>
      <vel value="0.0086112827" flag="0"/>
      <psa03 value="0.0359982981" flag="0"/>
      <psa10 value="0.0035092550" flag="0"/>
      <psa30 value="0.0005935520" flag="0"/>
    </comp>
    <comp name="--.HHZ">
      <acc value="0.0308308659" flag="0"/>
      <vel value="0.0071044857" flag="0"/>
      <psa03 value="0.0239803148" flag="0"/>
      <psa10 value="0.0042626031" flag="0"/>
      <psa30 value="0.0015143745" flag="0"/>
    </comp>
  </station>
  <station code="AXAR" name="AXAR" netid="HA" insttype="30" lat="38.7664" lon="22.659">
    <comp name="--.HHN">
      <acc value="0.0172555514" flag="0"/>
      <vel value="0.0086085890" flag="0"/>
      <psa03 value="0.0497588257" flag="0"/>
      <psa10 value="0.0070757284" flag="0"/>
      <psa30 value="0.0004904924" flag="0"/>
    </comp>
    <comp name="--.HHZ">
      <acc value="0.0092025265" flag="0"/>
      <vel value="0.0044999974" flag="0"/>
      <psa03 value="0.0274045906" flag="0"/>
      <psa10 value="0.0045094017" flag="0"/>
      <psa30 value="0.0002571880" flag="0"/>
    </comp>
    <comp name="--.HHE">
      <acc value="0.0180977887" flag="0"/>
      <vel value="0.0105207334" flag="0"/>
      <psa03 value="0.0464925151" flag="0"/>
      <psa10 value="0.0096667734" flag="0"/>
      <psa30 value="0.0006317393" flag="0"/>
    </comp>
  </station>
  <station code="EPID" name="EPID" netid="HA" insttype="30" lat="37.6144" lon="23.1189">
    <comp name="--.HHN">
      <acc value="0.0897101374" flag="0"/>
      <vel value="0.0223695462" flag="0"/>
      <psa03 value="0.1033340793" flag="0"/>
      <psa10 value="0.0068573538" flag="0"/>
      <psa30 value="0.0013826452" flag="0"/>
    </comp>
    <comp name="--.HHZ">
      <acc value="0.0361065942" flag="0"/>
      <vel value="0.0127406271" flag="0"/>
      <psa03 value="0.0915819804" flag="0"/>
      <psa10 value="0.0071022974" flag="0"/>
      <psa30 value="0.0010747332" flag="0"/>
    </comp>
    <comp name="--.HHE">
      <acc value="0.0559491823" flag="0"/>
      <vel value="0.0178783865" flag="0"/>
      <psa03 value="0.0777636288" flag="0"/>
      <psa10 value="0.0051888027" flag="0"/>
      <psa30 value="0.0008701777" flag="0"/>
    </comp>
  </station>
  <station code="KALE" name="KALE" netid="HA" insttype="40," lat="38.3911" lon="22.1398">
    <comp name="--.HHZ">
      <acc value="0.0128854599" flag="0"/>
      <vel value="0.0125577108" flag="0"/>
      <psa03 value="0.0380953415" flag="0"/>
      <psa10 value="0.0154574724" flag="0"/>
      <psa30 value="0.0010844318" flag="0"/>
    </comp>
    <comp name="--.HHN">
      <acc value="0.0237996555" flag="0"/>
      <vel value="0.0169072845" flag="0"/>
      <psa03 value="0.0632232489" flag="0"/>
      <psa10 value="0.0206380428" flag="0"/>
      <psa30 value="0.0017105036" flag="0"/>
    </comp>
    <comp name="--.HHE">
      <acc value="0.0229297063" flag="0"/>
      <vel value="0.0150576830" flag="0"/>
      <psa03 value="0.0712770702" flag="0"/>
      <psa10 value="0.0263588381" flag="0"/>
      <psa30 value="0.0019208361" flag="0"/>
    </comp>
  </station>
  <station code="KIAS" name="KIAS" netid="HA" insttype="DC" lat="37.9875" lon="22.7543">
    <comp name="--.HNE">
      <acc value="0.1172063576" flag="0"/>
      <vel value="0.0411932889" flag="0"/>
      <psa03 value="0.1530389577" flag="0"/>
      <psa10 value="0.0360267395" flag="0"/>
      <psa30 value="0.0053955223" flag="0"/>
    </comp>
    <comp name="--.HNN">
      <acc value="0.1489709977" flag="0"/>
      <vel value="0.0484220869" flag="0"/>
      <psa03 value="0.1404849874" flag="0"/>
      <psa10 value="0.0579567888" flag="0"/>
      <psa30 value="0.0047846715" flag="0"/>
    </comp>
    <comp name="--.HNZ">
      <acc value="0.0552161967" flag="0"/>
      <vel value="0.0155089296" flag="0"/>
      <psa03 value="0.0715393502" flag="0"/>
      <psa10 value="0.0209553132" flag="0"/>
      <psa30 value="0.0038215870" flag="0"/>
    </comp>
  </station>
  <station code="LOUT" name="LOUT" netid="HA" insttype="30" lat="37.9879" lon="22.9743">
    <comp name="--.HHE">
      <acc value="0.2274622300" flag="0"/>
      <vel value="0.0630125527" flag="0"/>
      <psa03 value="0.2626368591" flag="0"/>
      <psa10 value="0.0689815056" flag="0"/>
      <psa30 value="0.0038142863" flag="0"/>
    </comp>
    <comp name="--.HHN">
      <acc value="0.1963402742" flag="0"/>
      <vel value="0.0617735361" flag="0"/>
      <psa03 value="0.2998828091" flag="0"/>
      <psa10 value="0.0667806413" flag="0"/>
      <psa30 value="0.0035457020" flag="0"/>
    </comp>
    <comp name="--.HHZ">
      <acc value="0.1114228020" flag="0"/>
      <vel value="0.0376776174" flag="0"/>
      <psa03 value="0.1172203801" flag="0"/>
      <psa10 value="0.0190517104" flag="0"/>
      <psa30 value="0.0035546594" flag="0"/>
    </comp>
  </station>
  <station code="MDRA" name="MDRA" netid="HA" insttype="30" lat="38.0606" lon="23.4662">
    <comp name="--.HHE">
      <acc value="0.1011695912" flag="0"/>
      <vel value="0.0256860662" flag="0"/>
      <psa03 value="0.1978843644" flag="0"/>
      <psa10 value="0.0072904647" flag="0"/>
      <psa30 value="0.0014093886" flag="0"/>
    </comp>
    <comp name="--.HHN">
      <acc value="0.0954011725" flag="0"/>
      <vel value="0.0292920560" flag="0"/>
      <psa03 value="0.1147523983" flag="0"/>
      <psa10 value="0.0066353484" flag="0"/>
      <psa30 value="0.0015873409" flag="0"/>
    </comp>
    <comp name="--.HHZ">
      <acc value="0.0685195996" flag="0"/>
      <vel value="0.0141524796" flag="0"/>
      <psa03 value="0.0815386017" flag="0"/>
      <psa10 value="0.0054999410" flag="0"/>
      <psa30 value="0.0019711831" flag="0"/>
    </comp>
  </station>
  <station code="MRKA" name="MRKA" netid="HA" insttype="30" lat="38.7047" lon="23.5863">
    <comp name="--.HHN">
      <acc value="0.0707112104" flag="0"/>
      <vel value="0.0229910702" flag="0"/>
      <psa03 value="0.1022027437" flag="0"/>
      <psa10 value="0.0290742369" flag="0"/>
      <psa30 value="0.0017644463" flag="0"/>
    </comp>
    <comp name="--.HHE">
      <acc value="0.0811008119" flag="0"/>
      <vel value="0.0198508388" flag="0"/>
      <psa03 value="0.0944711397" flag="0"/>
      <psa10 value="0.0165967740" flag="0"/>
      <psa30 value="0.0010963809" flag="0"/>
    </comp>
    <comp name="--.HHZ">
      <acc value="0.0443211405" flag="0"/>
      <vel value="0.0166010146" flag="0"/>
      <psa03 value="0.0691494275" flag="0"/>
      <psa10 value="0.0135913323" flag="0"/>
      <psa30 value="0.0019428047" flag="0"/>
    </comp>
  </station>
  <station code="MRTH" name="MRTH" netid="HA" insttype="S100," lat="38.1225" lon="23.9409">
    <comp name="--.HHZ">
      <acc value="0.0805110952" flag="0"/>
      <vel value="0.0155239061" flag="0"/>
      <psa03 value="0.0810825399" flag="0"/>
      <psa10 value="0.0054541900" flag="0"/>
      <psa30 value="0.0007913250" flag="0"/>
    </comp>
    <comp name="--.HHE">
      <acc value="0.0628272524" flag="0"/>
      <vel value="0.0218893356" flag="0"/>
      <psa03 value="0.1325119825" flag="0"/>
      <psa10 value="0.0182603691" flag="0"/>
      <psa30 value="0.0010577790" flag="0"/>
    </comp>
    <comp name="--.HHN">
      <acc value="0.0627383778" flag="0"/>
      <vel value="0.0148508827" flag="0"/>
      <psa03 value="0.0737518087" flag="0"/>
      <psa10 value="0.0072982751" flag="0"/>
      <psa30 value="0.0012303494" flag="0"/>
    </comp>
  </station>
  <station code="STFN" name="STFN" netid="HA" insttype="1s-100Hz," lat="38.1766" lon="23.544">
    <comp name="--.HHN">
      <acc value="0.3158753757" flag="0"/>
      <vel value="0.0766801191" flag="0"/>
      <psa03 value="0.3365701635" flag="0"/>
      <psa10 value="0.0389813663" flag="0"/>
      <psa30 value="0.0031982916" flag="0"/>
    </comp>
    <comp name="--.HHZ">
      <acc value="0.1960195809" flag="0"/>
      <vel value="0.0250312030" flag="0"/>
      <psa03 value="0.1134176805" flag="0"/>
      <psa10 value="0.0135835552" flag="0"/>
      <psa30 value="0.0021685271" flag="0"/>
    </comp>
    <comp name="--.HHE">
      <acc value="0.1903404818" flag="0"/>
      <vel value="0.0507397498" flag="0"/>
      <psa03 value="0.3384805714" flag="0"/>
      <psa10 value="0.0233693686" flag="0"/>
      <psa30 value="0.0039975323" flag="0"/>
    </comp>
  </station>
  <station code="THAL" name="THAL" netid="HA" insttype="30" lat="38.0357" lon="22.6634">
    <comp name="--.HHE">
      <acc value="0.1590618155" flag="0"/>
      <vel value="0.0674509909" flag="0"/>
      <psa03 value="0.2928061451" flag="0"/>
      <psa10 value="0.0369539788" flag="0"/>
      <psa30 value="0.0027996165" flag="0"/>
    </comp>
    <comp name="--.HHN">
      <acc value="0.1436030604" flag="0"/>
      <vel value="0.0541576465" flag="0"/>
      <psa03 value="0.3586442546" flag="0"/>
      <psa10 value="0.0368481595" flag="0"/>
      <psa30 value="0.0025780211" flag="0"/>
    </comp>
    <comp name="--.HHZ">
      <acc value="0.1039070976" flag="0"/>
      <vel value="0.0381514806" flag="0"/>
      <psa03 value="0.1508153364" flag="0"/>
      <psa10 value="0.0165212728" flag="0"/>
      <psa30 value="0.0015890323" flag="0"/>
    </comp>
  </station>
  <station code="VILL" name="VILL" netid="HA" insttype="30" lat="38.1642" lon="23.3122">
    <comp name="--.HHN">
      <acc value="0.6089582177" flag="0"/>
      <vel value="0.1902529079" flag="0"/>
      <psa03 value="1.1461809255" flag="0"/>
      <psa10 value="0.0889447840" flag="0"/>
      <psa30 value="0.0132881628" flag="0"/>
    </comp>
    <comp name="--.HHE">
      <acc value="0.6310205811" flag="0"/>
      <vel value="0.2024059885" flag="0"/>
      <psa03 value="0.8151037824" flag="0"/>
      <psa10 value="0.1432298956" flag="0"/>
      <psa30 value="0.0107813066" flag="0"/>
    </comp>
    <comp name="--.HHZ">
      <acc value="0.3271068311" flag="0"/>
      <vel value="0.1395491459" flag="0"/>
      <psa03 value="0.6093318554" flag="0"/>
      <psa10 value="0.0644099953" flag="0"/>
      <psa30 value="0.0072482557" flag="0"/>
    </comp>
  </station>
  <station code="ATH5" name="ATH5" netid="HI" insttype="CMG-5TD,ACCELEROMETER,GURALP" lat="37.9754" lon="23.7371">
    <comp name="--.HNZ">
      <acc value="0.0507195423" flag="0"/>
      <vel value="0.0113803901" flag="0"/>
      <psa03 value="0.0552943211" flag="0"/>
      <psa10 value="0.0068439989" flag="0"/>
      <psa30 value="0.0015576567" flag="0"/>
    </comp>
    <comp name="--.HNE">
      <acc value="0.0918984547" flag="0"/>
      <vel value="0.0269720980" flag="0"/>
      <psa03 value="0.1390152458" flag="0"/>
      <psa10 value="0.0143748765" flag="0"/>
      <psa30 value="0.0018641987" flag="0"/>
    </comp>
    <comp name="--.HNN">
      <acc value="0.0809129521" flag="0"/>
      <vel value="0.0171237183" flag="0"/>
      <psa03 value="0.0895182889" flag="0"/>
      <psa10 value="0.0095182322" flag="0"/>
      <psa30 value="0.0022945449" flag="0"/>
    </comp>
  </station>
  <station code="KLV1" name="KLV1" netid="HI" insttype="CMG-5TD,ACCELEROMETER,GURALP" lat="38.0326" lon="22.108">
    <comp name="--.HNE">
      <acc value="0.0362016958" flag="0"/>
      <vel value="0.0217796027" flag="0"/>
      <psa03 value="0.0983195477" flag="0"/>
      <psa10 value="0.0207398797" flag="0"/>
      <psa30 value="0.0010888451" flag="0"/>
    </comp>
    <comp name="--.HNN">
      <acc value="0.0445260240" flag="0"/>
      <vel value="0.0237759378" flag="0"/>
      <psa03 value="0.1743516132" flag="0"/>
      <psa10 value="0.0240814446" flag="0"/>
      <psa30 value="0.0015877730" flag="0"/>
    </comp>
    <comp name="--.HNZ">
      <acc value="0.0173737557" flag="0"/>
      <vel value="0.0129212505" flag="0"/>
      <psa03 value="0.0393052516" flag="0"/>
      <psa10 value="0.0194199691" flag="0"/>
      <psa30 value="0.0010473647" flag="0"/>
    </comp>
  </station>
  <station code="ATH" name="ATH" netid="HL" insttype="DR24" lat="37.9738" lon="23.7177">
    <comp name="--.HHN">
      <acc value="0.0918493366" flag="0"/>
      <vel value="0.0321644312" flag="0"/>
      <psa03 value="0.2621443908" flag="0"/>
      <psa10 value="0.0133499580" flag="0"/>
      <psa30 value="0.0021933941" flag="0"/>
    </comp>
    <comp name="--.HHZ">
      <acc value="0.0764084166" flag="0"/>
      <vel value="0.0235080290" flag="0"/>
      <psa03 value="0.1573134883" flag="0"/>
      <psa10 value="0.0101071578" flag="0"/>
      <psa30 value="0.0017822170" flag="0"/>
    </comp>
    <comp name="--.HHE">
      <acc value="0.0828977447" flag="0"/>
      <vel value="0.0327958463" flag="0"/>
      <psa03 value="0.3017687883" flag="0"/>
      <psa10 value="0.0118181461" flag="0"/>
      <psa30 value="0.0019399169" flag="0"/>
    </comp>
  </station>
  <station code="ATHP" name="ATHP" netid="HL" insttype="CMG-5" lat="38.0008" lon="23.7735">
    <comp name="00.HNN">
      <acc value="0.0840014606" flag="0"/>
      <vel value="0.0176977220" flag="0"/>
      <psa03 value="0.1341827829" flag="0"/>
      <psa10 value="0.0112774223" flag="0"/>
      <psa30 value="0.0013656380" flag="0"/>
    </comp>
    <comp name="00.HNZ">
      <acc value="0.0685666979" flag="0"/>
      <vel value="0.0147019764" flag="0"/>
      <psa03 value="0.0386684171" flag="0"/>
      <psa10 value="0.0098425281" flag="0"/>
      <psa30 value="0.0017173224" flag="0"/>
    </comp>
    <comp name="00.HNE">
      <acc value="0.0718954532" flag="0"/>
      <vel value="0.0218089686" flag="0"/>
      <psa03 value="0.0998967984" flag="0"/>
      <psa10 value="0.0141017054" flag="0"/>
      <psa30 value="0.0018987640" flag="0"/>
    </comp>
  </station>
  <station code="KLV" name="KLV" netid="HL" insttype="120" lat="38.0435" lon="22.1504">
    <comp name="--.HHZ">
      <acc value="0.0097025292" flag="0"/>
      <vel value="0.0087211025" flag="0"/>
      <psa03 value="0.0191233288" flag="0"/>
      <psa10 value="0.0156393369" flag="0"/>
      <psa30 value="0.0010242303" flag="0"/>
    </comp>
    <comp name="--.HHE">
      <acc value="0.0117941509" flag="0"/>
      <vel value="0.0065069211" flag="0"/>
      <psa03 value="0.0226296390" flag="0"/>
      <psa10 value="0.0090182064" flag="0"/>
      <psa30 value="0.0009134525" flag="0"/>
    </comp>
    <comp name="--.HHN">
      <acc value="0.0110139539" flag="0"/>
      <vel value="0.0094525189" flag="0"/>
      <psa03 value="0.0242244065" flag="0"/>
      <psa10 value="0.0177055832" flag="0"/>
      <psa30 value="0.0009578689" flag="0"/>
    </comp>
  </station>
  <station code="LKR" name="LKR" netid="HL" insttype="30" lat="38.6496" lon="22.9989">
    <comp name="--.HHE">
      <acc value="1.0312294368" flag="0"/>
      <vel value="0.2054314270" flag="0"/>
      <psa03 value="0.4082869232" flag="0"/>
      <psa10 value="0.0619569210" flag="0"/>
      <psa30 value="0.0046475058" flag="0"/>
    </comp>
    <comp name="--.HHN">
      <acc value="0.7687764229" flag="0"/>
      <vel value="0.1456688950" flag="0"/>
      <psa03 value="0.3245147541" flag="0"/>
      <psa10 value="0.0884607783" flag="0"/>
      <psa30 value="0.0038442942" flag="0"/>
    </comp>
    <comp name="--.HHZ">
      <acc value="0.8429278289" flag="0"/>
      <vel value="0.1461930539" flag="0"/>
      <psa03 value="0.2123993215" flag="0"/>
      <psa10 value="0.0390320118" flag="0"/>
      <psa30 value="0.0030441358" flag="0"/>
    </comp>
  </station>
  <station code="NEO" name="NEO" netid="HL" insttype="120" lat="39.3057" lon="23.2219">
    <comp name="--.HHZ">
      <acc value="0.0172551021" flag="0"/>
      <vel value="0.0088992478" flag="0"/>
      <psa03 value="0.0452197308" flag="0"/>
      <psa10 value="0.0147502282" flag="0"/>
      <psa30 value="0.0012077793" flag="0"/>
    </comp>
    <comp name="--.HHN">
      <acc value="0.0387408904" flag="0"/>
      <vel value="0.0184838854" flag="0"/>
      <psa03 value="0.1226819511" flag="0"/>
      <psa10 value="0.0252019652" flag="0"/>
      <psa30 value="0.0017911257" flag="0"/>
    </comp>
    <comp name="--.HHE">
      <acc value="0.0329872742" flag="0"/>
      <vel value="0.0179479168" flag="0"/>
      <psa03 value="0.0803613650" flag="0"/>
      <psa10 value="0.0189615390" flag="0"/>
      <psa30 value="0.0029444809" flag="0"/>
    </comp>
  </station>
  <station code="NOAC" name="NOAC" netid="HL" insttype="CMG-5" lat="37.9738" lon="23.7177">
    <comp name="00.HNN">
      <acc value="0.0830582162" flag="0"/>
      <vel value="0.0286726401" flag="0"/>
      <psa03 value="0.2610635881" flag="0"/>
      <psa10 value="0.0130501441" flag="0"/>
      <psa30 value="0.0022138739" flag="0"/>
    </comp>
    <comp name="00.HNE">
      <acc value="0.0847216742" flag="0"/>
      <vel value="0.0335502490" flag="0"/>
      <psa03 value="0.3213841138" flag="0"/>
      <psa10 value="0.0122822192" flag="0"/>
      <psa30 value="0.0019531185" flag="0"/>
    </comp>
    <comp name="00.HNZ">
      <acc value="0.0724678246" flag="0"/>
      <vel value="0.0231129700" flag="0"/>
      <psa03 value="0.1627905247" flag="0"/>
      <psa10 value="0.0102272482" flag="0"/>
      <psa30 value="0.0018430364" flag="0"/>
    </comp>
  </station>
  <station code="PTL" name="PTL" netid="HL" insttype="120" lat="38.0473" lon="23.8638">
    <comp name="--.HHN">
      <acc value="0.0021760176" flag="0"/>
      <vel value="0.0006800106" flag="0"/>
      <psa03 value="0.0005528363" flag="0"/>
      <psa10 value="0.0003385580" flag="0"/>
      <psa30 value="0.0002843218" flag="0"/>
    </comp>
    <comp name="--.HHZ">
      <acc value="0.0507357246" flag="0"/>
      <vel value="0.0119517193" flag="0"/>
      <psa03 value="0.0195263018" flag="0"/>
      <psa10 value="0.0061854535" flag="0"/>
      <psa30 value="0.0010036645" flag="0"/>
    </comp>
    <comp name="--.HHE">
      <acc value="0.0393427959" flag="0"/>
      <vel value="0.0063358645" flag="0"/>
      <psa03 value="0.0330712735" flag="0"/>
      <psa10 value="0.0059714314" flag="0"/>
      <psa30 value="0.0009729944" flag="0"/>
    </comp>
  </station>
  <station code="SKY" name="SKY" netid="HL" insttype="120" lat="38.8831" lon="24.5482">
    <comp name="--.HHN">
      <acc value="0.0697934748" flag="0"/>
      <vel value="0.0165476058" flag="0"/>
      <psa03 value="0.0945795313" flag="0"/>
      <psa10 value="0.0082818988" flag="0"/>
      <psa30 value="0.0010232674" flag="0"/>
    </comp>
    <comp name="--.HHZ">
      <acc value="0.0204426556" flag="0"/>
      <vel value="0.0071114717" flag="0"/>
