<stationlist created="1778136793">
	<station code="ROD3" name="ROD3" netid="CL" source="Corinth Riff Laboratory (CRLNET)" insttype="" lat="38.30811" lon="21.89204">
		<comp name="00.HNE" depth="0.0">
			<acc value="0.0173688691145164" flag="0"/>
			<vel value="0.00957245042844899" flag="0"/>
			<psa03 value="0.0642828834257295" flag="0"/>
			<psa10 value="0.0175172548071525" flag="0"/>
			<psa30 value="0.00085277336704887" flag="0"/>
		</comp>
		<comp name="00.HNN" depth="0.0">
			<acc value="0.0212417056127116" flag="0"/>
			<vel value="0.0120784245275245" flag="0"/>
			<psa03 value="0.10545195442463" flag="0"/>
			<psa10 value="0.0129339271216868" flag="0"/>
			<psa30 value="0.00188372603760629" flag="0"/>
		</comp>
		<comp name="00.HNZ" depth="0.0">
			<acc value="0.00891796376128559" flag="0"/>
			<vel value="0.00575268970215781" flag="0"/>
			<psa03 value="0.0155452446399253" flag="0"/>
			<psa10 value="0.011656812831644" flag="0"/>
			<psa30 value="0.00068021657142743" flag="0"/>
		</comp>
	</station>
	<station code="AIGS" name="AIGS" netid="HA" source="Hellenic Seismological Network, University of Athens, Seismological Laboratory (HA)" insttype="" lat="38.25001" lon="22.0878">
		<comp name="--.HNE" depth="0.0">
			<acc value="0.0211539314756118" flag="0"/>
			<vel value="0.0123757761530551" flag="0"/>
			<psa03 value="0.0674821839049423" flag="0"/>
			<psa10 value="0.0108185554262022" flag="0"/>
			<psa30 value="0.00186630175833278" flag="0"/>
		</comp>
		<comp name="--.HNN" depth="0.0">
			<acc value="0.0155246699106642" flag="0"/>
			<vel value="0.00854940888129519" flag="0"/>
			<psa03 value="0.0456864379607096" flag="0"/>
			<psa10 value="0.0106462980774897" flag="0"/>
			<psa30 value="0.00151510057630937" flag="0"/>
		</comp>
		<comp name="--.HNZ" depth="0.0">
			<acc value="0.0122162892909955" flag="0"/>
			<vel value="0.0071387925538153" flag="0"/>
			<psa03 value="0.0271462514309438" flag="0"/>
			<psa10 value="0.00901839961221634" flag="0"/>
			<psa30 value="0.00118786150249409" flag="0"/>
		</comp>
	</station>
	<station code="KIAS" name="KIAS" netid="HA" source="Hellenic Seismological Network, University of Athens, Seismological Laboratory (HA)" insttype="" lat="37.9875" lon="22.7543">
		<comp name="--.HNE" depth="0.0">
			<acc value="0.118386345956624" flag="0"/>
			<vel value="0.0417424508436163" flag="0"/>
			<psa03 value="0.15384837920006" flag="0"/>
			<psa10 value="0.0361952715091052" flag="0"/>
			<psa30 value="0.00568622043421192" flag="0"/>
		</comp>
		<comp name="--.HNN" depth="0.0">
			<acc value="0.146365915076395" flag="0"/>
			<vel value="0.0473187659377147" flag="0"/>
			<psa03 value="0.143560520596701" flag="0"/>
			<psa10 value="0.0578274845371833" flag="0"/>
			<psa30 value="0.00560103437438524" flag="0"/>
		</comp>
		<comp name="--.HNZ" depth="0.0">
			<acc value="0.0540943065524207" flag="0"/>
			<vel value="0.0156622931373069" flag="0"/>
			<psa03 value="0.0718372119878385" flag="0"/>
			<psa10 value="0.0210679431478543" flag="0"/>
			<psa30 value="0.00427219092834947" flag="0"/>
		</comp>
	</station>
	<station code="LTRS" name="LTRS" netid="HA" source="Hellenic Seismological Network, University of Athens, Seismological Laboratory (HA)" insttype="" lat="37.97528" lon="22.9765">
		<comp name="--.HNE" depth="0.0">
			<acc value="0.0863522094233475" flag="0"/>
			<vel value="0.0612175911983876" flag="0"/>
			<psa03 value="0.268987548271748" flag="0"/>
			<psa10 value="0.0770398610125346" flag="0"/>
			<psa30 value="0.00671263926273691" flag="0"/>
		</comp>
		<comp name="--.HNN" depth="0.0">
			<acc value="0.106047063734501" flag="0"/>
			<vel value="0.0443427022868138" flag="0"/>
			<psa03 value="0.252892773738262" flag="0"/>
			<psa10 value="0.0504629529230599" flag="0"/>
			<psa30 value="0.00564609819295107" flag="0"/>
		</comp>
		<comp name="--.HNZ" depth="0.0">
			<acc value="0.0866630388257417" flag="0"/>
			<vel value="0.0494003550867264" flag="0"/>
			<psa03 value="0.18863372522514" flag="0"/>
			<psa10 value="0.0583933257710637" flag="0"/>
			<psa30 value="0.00467122152883171" flag="0"/>
		</comp>
	</station>
	<station code="XLKS" name="XLKS" netid="HA" source="Hellenic Seismological Network, University of Athens, Seismological Laboratory (HA)" insttype="" lat="38.0772" lon="22.6361">
		<comp name="--.HNE" depth="0.0">
			<acc value="0.12527736193163" flag="0"/>
			<vel value="0.0685789438534439" flag="0"/>
			<psa03 value="0.284313376032533" flag="0"/>
			<psa10 value="0.064892153786579" flag="0"/>
			<psa30 value="0.00990634458006523" flag="0"/>
		</comp>
		<comp name="--.HNN" depth="0.0">
			<acc value="0.127311083727626" flag="0"/>
			<vel value="0.0497510857849125" flag="0"/>
			<psa03 value="0.232561385217288" flag="0"/>
			<psa10 value="0.0741346485565582" flag="0"/>
			<psa30 value="0.00746164263052382" flag="0"/>
		</comp>
		<comp name="--.HNZ" depth="0.0">
			<acc value="0.103951342983381" flag="0"/>
			<vel value="0.0388598283481671" flag="0"/>
			<psa03 value="0.197368637203469" flag="0"/>
			<psa10 value="0.0381746713846127" flag="0"/>
			<psa30 value="0.00380751097891805" flag="0"/>
		</comp>
	</station>
	<station code="ATH5" name="ATH5" netid="HI" source="ITSAK Strong Motion Network" insttype="" lat="37.975421" lon="23.737098">
		<comp name="--.HNE" depth="0.0">
			<acc value="0.0911288664496815" flag="0"/>
			<vel value="0.0278179914828937" flag="0"/>
			<psa03 value="0.138223364952782" flag="0"/>
			<psa10 value="0.0145900771460065" flag="0"/>
			<psa30 value="0.00210457441772815" flag="0"/>
		</comp>
		<comp name="--.HNN" depth="0.0">
			<acc value="0.0742093710291247" flag="0"/>
			<vel value="0.0163793027508493" flag="0"/>
			<psa03 value="0.0902366444013877" flag="0"/>
			<psa10 value="0.00973531304169475" flag="0"/>
			<psa30 value="0.00270602363578488" flag="0"/>
		</comp>
		<comp name="--.HNZ" depth="0.0">
			<acc value="0.0418403822098987" flag="0"/>
			<vel value="0.0109351337510799" flag="0"/>
			<psa03 value="0.0567605048966373" flag="0"/>
			<psa10 value="0.00670775013677445" flag="0"/>
			<psa30 value="0.0019047355543833" flag="0"/>
		</comp>
	</station>
	<station code="KLV1" name="KLV1" netid="HI" source="ITSAK Strong Motion Network" insttype="" lat="38.03256" lon="22.10797">
		<comp name="--.HNE" depth="0.0">
			<acc value="0.0360775476613963" flag="0"/>
			<vel value="0.0217365550030627" flag="0"/>
			<psa03 value="0.100038179121882" flag="0"/>
			<psa10 value="0.0207756169076652" flag="0"/>
			<psa30 value="0.00108777164286633" flag="0"/>
		</comp>
		<comp name="--.HNN" depth="0.0">
			<acc value="0.044438935339647" flag="0"/>
			<vel value="0.0242379087456193" flag="0"/>
			<psa03 value="0.176396685414912" flag="0"/>
			<psa10 value="0.0241351944631797" flag="0"/>
			<psa30 value="0.00178663981445091" flag="0"/>
		</comp>
		<comp name="--.HNZ" depth="0.0">
			<acc value="0.016451582144571" flag="0"/>
			<vel value="0.0129648220772219" flag="0"/>
			<psa03 value="0.0396234972580748" flag="0"/>
			<psa10 value="0.0194317716344903" flag="0"/>
			<psa30 value="0.00111379169990106" flag="0"/>
		</comp>
	</station>
	<station code="SKO1" name="SKO1" netid="HI" source="ITSAK Strong Motion Network" insttype="" lat="39.123383" lon="23.728705">
		<comp name="--.HNE" depth="0.0">
			<acc value="0.0166368908999356" flag="0"/>
			<vel value="0.0123167266626263" flag="0"/>
			<psa03 value="0.052215235044688" flag="0"/>
			<psa10 value="0.00842038124643759" flag="0"/>
			<psa30 value="0.00136023240038566" flag="0"/>
		</comp>
		<comp name="--.HNN" depth="0.0">
			<acc value="0.0152880159468655" flag="0"/>
			<vel value="0.0117221704965696" flag="0"/>
			<psa03 value="0.0474541331866185" flag="0"/>
			<psa10 value="0.00835208922240098" flag="0"/>
			<psa30 value="0.00162339410439091" flag="0"/>
		</comp>
		<comp name="--.HNZ" depth="0.0">
			<acc value="0.00823531385139067" flag="0"/>
			<vel value="0.00699171538776277" flag="0"/>
			<psa03 value="0.0296581235592785" flag="0"/>
			<psa10 value="0.00620691055236284" flag="0"/>
			<psa30 value="0.00138806945278893" flag="0"/>
		</comp>
	</station>
	<station code="SKY1" name="SKY1" netid="HI" source="ITSAK Strong Motion Network" insttype="" lat="38.904483" lon="24.564572">
		<comp name="--.HNE" depth="0.0">
			<acc value="0.0248728774530599" flag="0"/>
			<vel value="0.0116927834080118" flag="0"/>
			<psa03 value="0.0383735082024198" flag="0"/>
			<psa10 value="0.0170317007665879" flag="0"/>
			<psa30 value="0.00171877198520821" flag="0"/>
		</comp>
		<comp name="--.HNN" depth="0.0">
			<acc value="0.0344460340545605" flag="0"/>
			<vel value="0.0218779692658266" flag="0"/>
			<psa03 value="0.13800378790719" flag="0"/>
			<psa10 value="0.0148989176051521" flag="0"/>
			<psa30 value="0.00159143125784602" flag="0"/>
		</comp>
		<comp name="--.HNZ" depth="0.0">
			<acc value="0.0164004508457724" flag="0"/>
			<vel value="0.00738055876264685" flag="0"/>
			<psa03 value="0.0448174793545792" flag="0"/>
			<psa10 value="0.00601711141660419" flag="0"/>
			<psa30 value="0.00112404987945427" flag="0"/>
		</comp>
	</station>
	<station code="VOL2" name="VOL2" netid="HI" source="ITSAK Strong Motion Network" insttype="" lat="39.366" lon="22.9506">
		<comp name="--.HNE" depth="0.0">
			<acc value="0.0202826443332407" flag="0"/>
			<vel value="0.0144261449534497" flag="0"/>
			<psa03 value="0.0579509795928317" flag="0"/>
			<psa10 value="0.0165688207280401" flag="0"/>
			<psa30 value="0.00319314653028572" flag="0"/>
		</comp>
		<comp name="--.HNN" depth="0.0">
			<acc value="0.021758849538846" flag="0"/>
			<vel value="0.0150161851683761" flag="0"/>
			<psa03 value="0.0519371020366278" flag="0"/>
			<psa10 value="0.017426885070603" flag="0"/>
			<psa30 value="0.0019162329826987" flag="0"/>
		</comp>
		<comp name="--.HNZ" depth="0.0">
			<acc value="0.0105843293145969" flag="0"/>
			<vel value="0.00491119487713671" flag="0"/>
			<psa03 value="0.0138473209628673" flag="0"/>
			<psa10 value="0.00448439613172917" flag="0"/>
			<psa30 value="0.000984721691313415" flag="0"/>
		</comp>
	</station>
	<station code="ATHP" name="ATHP" netid="HL" source="National Observatory of Athens Seismic Network" insttype="" lat="38.000799" lon="23.773487">
		<comp name="00.HNE" depth="0.0">
			<acc value="0.072896552106407" flag="0"/>
			<vel value="0.0231585163671163" flag="0"/>
			<psa03 value="0.100570662312931" flag="0"/>
			<psa10 value="0.0142050916426052" flag="0"/>
			<psa30 value="0.00207208414040522" flag="0"/>
		</comp>
		<comp name="00.HNN" depth="0.0">
			<acc value="0.0840139045988898" flag="0"/>
			<vel value="0.0183930919966553" flag="0"/>
			<psa03 value="0.134473512376827" flag="0"/>
			<psa10 value="0.0112777986613165" flag="0"/>
			<psa30 value="0.00147744162325618" flag="0"/>
		</comp>
		<comp name="00.HNZ" depth="0.0">
			<acc value="0.0702374698730499" flag="0"/>
			<vel value="0.0144783852333188" flag="0"/>
			<psa03 value="0.0387808685214001" flag="0"/>
			<psa10 value="0.00993843305991649" flag="0"/>
			<psa30 value="0.00189331250599539" flag="0"/>
		</comp>
	</station>
	<station code="DLFA" name="DLFA" netid="HL" source="National Observatory of Athens Seismic Network" insttype="" lat="38.47836" lon="22.49583">
		<comp name="00.HNE" depth="0.0">
			<acc value="0.0393208058975861" flag="0"/>
			<vel value="0.0148079884875386" flag="0"/>
			<psa03 value="0.0716527518514669" flag="0"/>
			<psa10 value="0.0178987169521439" flag="0"/>
			<psa30 value="0.00160679321299729" flag="0"/>
		</comp>
		<comp name="00.HNN" depth="0.0">
			<acc value="0.0376332315979799" flag="0"/>
			<vel value="0.0137276894451773" flag="0"/>
			<psa03 value="0.0784646041450637" flag="0"/>
			<psa10 value="0.0123262753052535" flag="0"/>
			<psa30 value="0.00081908061423885" flag="0"/>
		</comp>
		<comp name="00.HNZ" depth="0.0">
			<acc value="0.0389078328338373" flag="0"/>
			<vel value="0.0110304314955638" flag="0"/>
			<psa03 value="0.046654522924708" flag="0"/>
			<psa10 value="0.00869321182011092" flag="0"/>
			<psa30 value="0.0010127089619976" flag="0"/>
		</comp>
	</station>
	<station code="ITM" name="ITM" netid="HL" source="National Observatory of Athens Seismic Network" insttype="" lat="37.17872" lon="21.92522">
		<comp name="--.HNE" depth="0.0">
			<acc value="0.00270735536508048" flag="0"/>
			<vel value="0.00204273459946444" flag="0"/>
			<psa03 value="0.00817551033745327" flag="0"/>
			<psa10 value="0.00234357009376881" flag="0"/>
			<psa30 value="0.000722318631313527" flag="0"/>
		</comp>
		<comp name="--.HNN" depth="0.0">
			<acc value="0.00193329658131204" flag="0"/>
			<vel value="0.00175941160873991" flag="0"/>
			<psa03 value="0.00556379109989435" flag="0"/>
			<psa10 value="0.0023895999398918" flag="0"/>
			<psa30 value="0.000611375240192737" flag="0"/>
		</comp>
		<comp name="--.HNZ" depth="0.0">
			<acc value="0.00173126703985622" flag="0"/>
			<vel value="0.00244573097378741" flag="0"/>
			<psa03 value="0.00342066865980357" flag="0"/>
			<psa10 value="0.00317728969860072" flag="0"/>
			<psa30 value="0.00116334612847193" flag="0"/>
		</comp>
	</station>
	<station code="MNVA" name="MNVA" netid="HL" source="National Observatory of Athens Seismic Network" insttype="" lat="36.68709" lon="23.03734">
		<comp name="00.HNE" depth="0.0">
			<acc value="0.00152184381461192" flag="0"/>
			<vel value="0.00163186523469952" flag="0"/>
			<psa03 value="0.00364761305573505" flag="0"/>
			<psa10 value="0.00199539093485623" flag="0"/>
			<psa30 value="0.000846427477916712" flag="0"/>
		</comp>
		<comp name="00.HNN" depth="0.0">
			<acc value="0.0015894058959982" flag="0"/>
			<vel value="0.00138049401205592" flag="0"/>
			<psa03 value="0.00418446046819781" flag="0"/>
			<psa10 value="0.00138292063514436" flag="0"/>
			<psa30 value="0.000582422593054748" flag="0"/>
		</comp>
		<comp name="00.HNZ" depth="0.0">
			<acc value="0.00140642312487105" flag="0"/>
			<vel value="0.00163392863974166" flag="0"/>
			<psa03 value="0.00391070112205022" flag="0"/>
			<psa10 value="0.00123359816513518" flag="0"/>
			<psa30 value="0.000577150368798147" flag="0"/>
		</comp>
	</station>
	<station code="NOAC" name="NOAC" netid="HL" source="National Observatory of Athens Seismic Network" insttype="" lat="37.97384" lon="23.71767">
		<comp name="00.HNE" depth="0.0">
			<acc value="0.08441715988706" flag="0"/>
			<vel value="0.0327284031962889" flag="0"/>
			<psa03 value="0.323089715608005" flag="0"/>
			<psa10 value="0.0124428405271104" flag="0"/>
			<psa30 value="0.00233019040534394" flag="0"/>
		</comp>
		<comp name="00.HNN" depth="0.0">
			<acc value="0.0824879374702361" flag="0"/>
			<vel value="0.0295608304176159" flag="0"/>
			<psa03 value="0.262640877835966" flag="0"/>
			<psa10 value="0.0131904825547248" flag="0"/>
			<psa30 value="0.00235868520965158" flag="0"/>
		</comp>
		<comp name="00.HNZ" depth="0.0">
			<acc value="0.0723980561134692" flag="0"/>
			<vel value="0.0237894616702186" flag="0"/>
			<psa03 value="0.163490601283246" flag="0"/>
			<psa10 value="0.0101103406979627" flag="0"/>
			<psa30 value="0.00223730966911731" flag="0"/>
		</comp>
	</station>
	<station code="PATC" name="PATC" netid="HL" source="National Observatory of Athens Seismic Network" insttype="" lat="38.26933" lon="21.76001">
		<comp name="00.HNE" depth="0.0">
			<acc value="0.0137379901975109" flag="0"/>
			<vel value="0.0129789459987188" flag="0"/>
			<psa03 value="0.0373690119719737" flag="0"/>
			<psa10 value="0.0183747622378321" flag="0"/>
			<psa30 value="0.00386412972962863" flag="0"/>
		</comp>
		<comp name="00.HNN" depth="0.0">
			<acc value="0.01477873896512" flag="0"/>
			<vel value="0.015214823697249" flag="0"/>
			<psa03 value="0.0358513228908524" flag="0"/>
			<psa10 value="0.0226260419892401" flag="0"/>
			<psa30 value="0.00334146823087023" flag="0"/>
		</comp>
		<comp name="00.HNZ" depth="0.0">
			<acc value="0.00920639401570281" flag="0"/>
			<vel value="0.00765906931060898" flag="0"/>
			<psa03 value="0.0159869627036606" flag="0"/>
			<psa10 value="0.0122030580802207" flag="0"/>
			<psa30 value="0.00107511497109122" flag="0"/>
		</comp>
	</station>
	<station code="PATG" name="PATG" netid="HL" source="National Observatory of Athens Seismic Network" insttype="" lat="38.23865" lon="21.72657">
		<comp name="00.HNE" depth="0.0">
			<acc value="0.0108845055640511" flag="0"/>
			<vel value="0.0119139106986053" flag="0"/>
			<psa03 value="0.028823432848483" flag="0"/>
			<psa10 value="0.0235064559373409" flag="0"/>
			<psa30 value="0.00389931872739767" flag="0"/>
		</comp>
		<comp name="00.HNN" depth="0.0">
			<acc value="0.0155029428355924" flag="0"/>
			<vel value="0.019354398983105" flag="0"/>
			<psa03 value="0.0343015978333335" flag="0"/>
			<psa10 value="0.028266443763172" flag="0"/>
			<psa30 value="0.00552801995420126" flag="0"/>
		</comp>
		<comp name="00.HNZ" depth="0.0">
			<acc value="0.0191338677753078" flag="0"/>
			<vel value="0.00914385866548637" flag="0"/>
			<psa03 value="0.0190878634356221" flag="0"/>
			<psa10 value="0.0158708263643638" flag="0"/>
			<psa30 value="0.00305599161111421" flag="0"/>
		</comp>
	</station>
	<station code="RIOA" name="RIOA" netid="HL" source="National Observatory of Athens Seismic Network" insttype="" lat="38.29585" lon="21.79118">
		<comp name="00.HNE" depth="0.0">
			<acc value="0.0109484372981983" flag="0"/>
			<vel value="0.0101860140533732" flag="0"/>
			<psa03 value="0.0446295450299795" flag="0"/>
			<psa10 value="0.0115074929399376" flag="0"/>
			<psa30 value="0.00176440084123131" flag="0"/>
		</comp>
		<comp name="00.HNN" depth="0.0">
			<acc value="0.014439926768769" flag="0"/>
			<vel value="0.00899125686383851" flag="0"/>
			<psa03 value="0.0417252276332111" flag="0"/>
			<psa10 value="0.0106389485281407" flag="0"/>
			<psa30 value="0.00232785754247167" flag="0"/>
		</comp>
		<comp name="00.HNZ" depth="0.0">
			<acc value="0.00936683859089811" flag="0"/>
			<vel value="0.00639355293776084" flag="0"/>
			<psa03 value="0.027006182256211" flag="0"/>
			<psa10 value="0.00698830387833143" flag="0"/>
			<psa30 value="0.00120912478608282" flag="0"/>
		</comp>
	</station>
	<station code="TNSA" name="TNSA" netid="HL" source="National Observatory of Athens Seismic Network" insttype="" lat="37.53942" lon="25.1631">
		<comp name="00.HNE" depth="0.0">
			<acc value="0.00529489842558794" flag="0"/>
			<vel value="0.00226989283572286" flag="0"/>
			<psa03 value="0.010670891790024" flag="0"/>
			<psa10 value="0.0017265857840832" flag="0"/>
			<psa30 value="0.000325930862153576" flag="0"/>
		</comp>
		<comp name="00.HNN" depth="0.0">
			<acc value="0.00686633552418997" flag="0"/>
			<vel value="0.00194869026356739" flag="0"/>
			<psa03 value="0.0134606169602488" flag="0"/>
			<psa10 value="0.00118399187114873" flag="0"/>
			<psa30 value="0.000245478449242609" flag="0"/>
		</comp>
		<comp name="00.HNZ" depth="0.0">
			<acc value="0.00499144767251364" flag="0"/>
			<vel value="0.00153329322878353" flag="0"/>
			<psa03 value="0.00749643214871358" flag="0"/>
			<psa10 value="0.00161571871312362" flag="0"/>
			<psa30 value="0.000364732338810783" flag="0"/>
		</comp>
	</station>
	<station code="YDRA" name="YDRA" netid="HL" source="National Observatory of Athens Seismic Network" insttype="" lat="37.34923" lon="23.46525">
		<comp name="00.HNE" depth="0.0">
			<acc value="0.0168552515332971" flag="0"/>
			<vel value="0.0122135276560739" flag="0"/>
			<psa03 value="0.0400108171869207" flag="0"/>
			<psa10 value="0.0121144425223598" flag="0"/>
			<psa30 value="0.00179298502645899" flag="0"/>
		</comp>
		<comp name="00.HNN" depth="0.0">
			<acc value="0.0308829033101955" flag="0"/>
			<vel value="0.00909764218089467" flag="0"/>
			<psa03 value="0.037172298419823" flag="0"/>
			<psa10 value="0.00537060280731245" flag="0"/>
			<psa30 value="0.000877052892117098" flag="0"/>
		</comp>
		<comp name="00.HNZ" depth="0.0">
			<acc value="0.0147040634087145" flag="0"/>
			<vel value="0.00424473145691404" flag="0"/>
