<?xml version="1.0" encoding="UTF-8" standalone="yes"?>
<!DOCTYPE earthquake SYSTEM "stationlist.dtd">
<stationlist created="" xmlns="ch.ethz.sed.shakemap.usgs.xml">
  <station code="ADVT" name="ADVT" netid="KO" insttype="CMG-3ESP" commtype="DIG" lat="40.4332" lon="29.7383">
    <comp name="--.HHE">
      <acc value="0.0216576851" flag="0"/>
      <vel value="0.0099389123" flag="0"/>
      <psa03 value="0.0334635339" flag="0"/>
      <psa10 value="0.0154594967" flag="0"/>
      <psa30 value="0.0016508392" flag="0"/>
    </comp>
    <comp name="--.HHN">
      <acc value="0.0266673636" flag="0"/>
      <vel value="0.0173074953" flag="0"/>
      <psa03 value="0.0533077256" flag="0"/>
      <psa10 value="0.0177995072" flag="0"/>
      <psa30 value="0.0027340737" flag="0"/>
    </comp>
    <comp name="--.HHZ">
      <acc value="0.0132317782" flag="0"/>
      <vel value="0.0094489225" flag="0"/>
      <psa03 value="0.0224466329" flag="0"/>
      <psa10 value="0.0143711415" flag="0"/>
      <psa30 value="0.0023210151" flag="0"/>
    </comp>
  </station>
  <station code="AKS" name="AKS" netid="KO" insttype="CMG-5T" commtype="DIG" lat="38.8785" lon="27.8129">
    <comp name="--.HNZ">
      <acc value="0.0747934161" flag="0"/>
      <vel value="0.0254463744" flag="0"/>
      <psa03 value="0.1268283146" flag="0"/>
      <psa10 value="0.0228472528" flag="0"/>
      <psa30 value="0.0045142033" flag="0"/>
    </comp>
    <comp name="--.HNE">
      <acc value="0.1121510852" flag="0"/>
      <vel value="0.0528651399" flag="0"/>
      <psa03 value="0.2308862437" flag="0"/>
      <psa10 value="0.0803678944" flag="0"/>
      <psa30 value="0.0067546127" flag="0"/>
    </comp>
    <comp name="--.HNN">
      <acc value="0.1299779334" flag="0"/>
      <vel value="0.0706201451" flag="0"/>
      <psa03 value="0.2775166626" flag="0"/>
      <psa10 value="0.0399962190" flag="0"/>
      <psa30 value="0.0062281456" flag="0"/>
    </comp>
  </station>
  <station code="ALT" name="ALT" netid="KO" insttype="CMG-5T" commtype="DIG" lat="39.0541" lon="30.1104">
    <comp name="--.HNZ">
      <acc value="0.0383932186" flag="0"/>
      <vel value="0.0202512208" flag="0"/>
      <psa03 value="0.0795624481" flag="0"/>
      <psa10 value="0.0224818503" flag="0"/>
      <psa30 value="0.0023076447" flag="0"/>
    </comp>
    <comp name="--.HNN">
      <acc value="0.0704598151" flag="0"/>
      <vel value="0.0216296127" flag="0"/>
      <psa03 value="0.1056038677" flag="0"/>
      <psa10 value="0.0100889924" flag="0"/>
      <psa30 value="0.0028215349" flag="0"/>
    </comp>
    <comp name="--.HNE">
      <acc value="0.0697803820" flag="0"/>
      <vel value="0.0206455556" flag="0"/>
      <psa03 value="0.0794242663" flag="0"/>
      <psa10 value="0.0116015843" flag="0"/>
      <psa30 value="0.0023796119" flag="0"/>
    </comp>
  </station>
  <station code="ARMT" name="ARMT" netid="KO" insttype="CMG-3ESP" commtype="DIG" lat="40.5683" lon="28.866">
    <comp name="--.HHN">
      <acc value="0.1136712759" flag="0"/>
      <vel value="0.0517550508" flag="0"/>
      <psa03 value="0.2281993676" flag="0"/>
      <psa10 value="0.0227451514" flag="0"/>
      <psa30 value="0.0021553335" flag="0"/>
    </comp>
  </station>
  <station code="DST" name="DST" netid="KO" insttype="CMG-5T" commtype="DIG" lat="39.6041" lon="28.6267">
    <comp name="--.HNN">
      <acc value="0.1642260878" flag="0"/>
      <vel value="0.0882137827" flag="0"/>
      <psa03 value="0.4485999669" flag="0"/>
      <psa10 value="0.0613888530" flag="0"/>
      <psa30 value="0.0058264793" flag="0"/>
    </comp>
    <comp name="--.HNZ">
      <acc value="0.2026880657" flag="0"/>
      <vel value="0.0650967453" flag="0"/>
      <psa03 value="0.3425405143" flag="0"/>
      <psa10 value="0.0340743759" flag="0"/>
      <psa30 value="0.0039949998" flag="0"/>
    </comp>
    <comp name="--.HNE">
      <acc value="0.2206182573" flag="0"/>
      <vel value="0.0998519863" flag="0"/>
      <psa03 value="0.6180322830" flag="0"/>
      <psa10 value="0.0814492520" flag="0"/>
      <psa30 value="0.0047865606" flag="0"/>
    </comp>
  </station>
  <station code="GEML" name="GEML" netid="KO" insttype="CMG-3T" commtype="DIG" lat="40.4646" lon="29.2116">
    <comp name="--.HHE">
      <acc value="0.1107930477" flag="0"/>
      <vel value="0.0396027295" flag="0"/>
      <psa03 value="0.1285211859" flag="0"/>
      <psa10 value="0.0147426296" flag="0"/>
      <psa30 value="0.0030602912" flag="0"/>
    </comp>
    <comp name="--.HHN">
      <acc value="0.1216526642" flag="0"/>
      <vel value="0.0374919701" flag="0"/>
      <psa03 value="0.2340647982" flag="0"/>
      <psa10 value="0.0211914868" flag="0"/>
      <psa30 value="0.0019653850" flag="0"/>
    </comp>
    <comp name="--.HHZ">
      <acc value="0.0621207175" flag="0"/>
      <vel value="0.0162671207" flag="0"/>
      <psa03 value="0.0701443784" flag="0"/>
      <psa10 value="0.0104624237" flag="0"/>
      <psa30 value="0.0018433857" flag="0"/>
    </comp>
  </station>
  <station code="GOMA" name="GOMA" netid="KO" insttype="CMG-5T" commtype="DIG" lat="38.7077" lon="27.9175">
    <comp name="--.HNZ">
      <acc value="0.0720678502" flag="0"/>
      <vel value="0.0381393515" flag="0"/>
      <psa03 value="0.1407851248" flag="0"/>
      <psa10 value="0.0539332796" flag="0"/>
      <psa30 value="0.0064974868" flag="0"/>
    </comp>
    <comp name="--.HNE">
      <acc value="0.1800901985" flag="0"/>
      <vel value="0.0720842967" flag="0"/>
      <psa03 value="0.6098930519" flag="0"/>
      <psa10 value="0.0415633005" flag="0"/>
      <psa30 value="0.0059871122" flag="0"/>
    </comp>
    <comp name="--.HNN">
      <acc value="0.1873903046" flag="0"/>
      <vel value="0.0835858658" flag="0"/>
      <psa03 value="0.2949049384" flag="0"/>
      <psa10 value="0.0477973033" flag="0"/>
      <psa30 value="0.0050234311" flag="0"/>
    </comp>
  </station>
  <station code="GONE" name="GONE" netid="KO" insttype="CMG-5T" commtype="DIG" lat="40.0466" lon="27.686">
    <comp name="--.HNZ">
      <acc value="0.1066782394" flag="0"/>
      <vel value="0.0356696542" flag="0"/>
      <psa03 value="0.1372554973" flag="0"/>
      <psa10 value="0.0255099114" flag="0"/>
      <psa30 value="0.0036731898" flag="0"/>
    </comp>
    <comp name="--.HNN">
      <acc value="0.2666644350" flag="0"/>
      <vel value="0.1620075214" flag="0"/>
      <psa03 value="0.5788533094" flag="0"/>
      <psa10 value="0.1422090212" flag="0"/>
      <psa30 value="0.0111898372" flag="0"/>
    </comp>
    <comp name="--.HNE">
      <acc value="0.1885384700" flag="0"/>
      <vel value="0.1184609535" flag="0"/>
      <psa03 value="0.3699256865" flag="0"/>
      <psa10 value="0.0745027005" flag="0"/>
      <psa30 value="0.0052676848" flag="0"/>
    </comp>
  </station>
  <station code="GORD" name="GORD" netid="KO" insttype="CMG-5T" commtype="DIG" lat="38.9088" lon="28.1769">
    <comp name="--.HNE">
      <acc value="0.1643025914" flag="0"/>
      <vel value="0.1275907290" flag="0"/>
      <psa03 value="0.2658125073" flag="0"/>
      <psa10 value="0.1794331562" flag="0"/>
      <psa30 value="0.0106430617" flag="0"/>
    </comp>
    <comp name="--.HNZ">
      <acc value="0.1347197467" flag="0"/>
      <vel value="0.0651339310" flag="0"/>
      <psa03 value="0.2149576759" flag="0"/>
      <psa10 value="0.0617315824" flag="0"/>
      <psa30 value="0.0043544366" flag="0"/>
    </comp>
    <comp name="--.HNN">
      <acc value="0.1905494830" flag="0"/>
      <vel value="0.1041511149" flag="0"/>
      <psa03 value="0.2181356832" flag="0"/>
      <psa10 value="0.1704543987" flag="0"/>
      <psa30 value="0.0132596749" flag="0"/>
    </comp>
  </station>
  <station code="IZI" name="IZI" netid="KO" insttype="CMG-5T" commtype="DIG" lat="40.3483" lon="29.4612">
    <comp name="--.HNN">
      <acc value="0.0810762050" flag="0"/>
      <vel value="0.0378763741" flag="0"/>
      <psa03 value="0.1974916961" flag="0"/>
      <psa10 value="0.0539862805" flag="0"/>
      <psa30 value="0.0030809240" flag="0"/>
    </comp>
    <comp name="--.HNE">
      <acc value="0.0707021148" flag="0"/>
      <vel value="0.0390027457" flag="0"/>
      <psa03 value="0.2681704796" flag="0"/>
      <psa10 value="0.0334075788" flag="0"/>
      <psa30 value="0.0033270463" flag="0"/>
    </comp>
    <comp name="--.HNZ">
      <acc value="0.0602466628" flag="0"/>
      <vel value="0.0306747951" flag="0"/>
      <psa03 value="0.1529427608" flag="0"/>
      <psa10 value="0.0424924370" flag="0"/>
      <psa30 value="0.0044102968" flag="0"/>
    </comp>
  </station>
  <station code="KCTX" name="KCTX" netid="KO" insttype="CMG-3ESP" commtype="DIG" lat="40.2626" lon="28.3353">
    <comp name="--.HHN">
      <acc value="0.1301680949" flag="0"/>
      <vel value="0.0982207407" flag="0"/>
      <psa03 value="0.4112360617" flag="0"/>
      <psa10 value="0.0783867997" flag="0"/>
      <psa30 value="0.0076660997" flag="0"/>
    </comp>
  </station>
  <station code="MDNY" name="MDNY" netid="KO" insttype="CMG-5T" commtype="DIG" lat="40.3709" lon="28.8846">
    <comp name="--.HNN">
      <acc value="0.4038604153" flag="0"/>
      <vel value="0.1436672043" flag="0"/>
      <psa03 value="1.0532605690" flag="0"/>
      <psa10 value="0.0688694632" flag="0"/>
      <psa30 value="0.0048770394" flag="0"/>
    </comp>
    <comp name="--.HNE">
      <acc value="0.4108952977" flag="0"/>
      <vel value="0.1428056855" flag="0"/>
      <psa03 value="1.0886265514" flag="0"/>
      <psa10 value="0.0631788661" flag="0"/>
      <psa30 value="0.0083217360" flag="0"/>
    </comp>
    <comp name="--.HNZ">
      <acc value="0.1510512585" flag="0"/>
      <vel value="0.0429873803" flag="0"/>
      <psa03 value="0.2069063435" flag="0"/>
      <psa10 value="0.0265877629" flag="0"/>
      <psa30 value="0.0027418842" flag="0"/>
    </comp>
  </station>
  <station code="ODEM" name="ODEM" netid="KO" insttype="CMG-5T" commtype="DIG" lat="38.2762" lon="28.0747">
    <comp name="--.HNN">
      <acc value="0.0226341919" flag="0"/>
      <vel value="0.0188901539" flag="0"/>
      <psa03 value="0.0334788339" flag="0"/>
      <psa10 value="0.0269479585" flag="0"/>
      <psa30 value="0.0038172431" flag="0"/>
    </comp>
    <comp name="--.HNE">
      <acc value="0.0329515975" flag="0"/>
      <vel value="0.0187403061" flag="0"/>
      <psa03 value="0.0611421100" flag="0"/>
      <psa10 value="0.0333327602" flag="0"/>
      <psa30 value="0.0069683290" flag="0"/>
    </comp>
    <comp name="--.HNZ">
      <acc value="0.0156960283" flag="0"/>
      <vel value="0.0144848764" flag="0"/>
      <psa03 value="0.0296468891" flag="0"/>
      <psa10 value="0.0152116134" flag="0"/>
      <psa30 value="0.0032325726" flag="0"/>
    </comp>
  </station>
  <station code="ORLT" name="ORLT" netid="KO" insttype="CMG-5T" commtype="DIG" lat="40.0452" lon="28.8914">
    <comp name="--.HNN">
      <acc value="0.1816049551" flag="0"/>
      <vel value="0.0704528839" flag="0"/>
      <psa03 value="0.4890103914" flag="0"/>
      <psa10 value="0.0658321646" flag="0"/>
      <psa30 value="0.0035881493" flag="0"/>
    </comp>
    <comp name="--.HNZ">
      <acc value="0.0711627355" flag="0"/>
      <vel value="0.0244203888" flag="0"/>
      <psa03 value="0.1008553008" flag="0"/>
      <psa10 value="0.0279910408" flag="0"/>
      <psa30 value="0.0036927287" flag="0"/>
    </comp>
    <comp name="--.HNE">
      <acc value="0.2659778764" flag="0"/>
      <vel value="0.1210229800" flag="0"/>
      <psa03 value="0.6764134082" flag="0"/>
      <psa10 value="0.0558681381" flag="0"/>
      <psa30 value="0.0053568044" flag="0"/>
    </comp>
  </station>
  <station code="SHAP" name="SHAP" netid="KO" insttype="CMG-5T" commtype="DIG" lat="39.0231" lon="29.222">
    <comp name="--.HNZ">
      <acc value="0.7731368156" flag="0"/>
      <vel value="0.1583739303" flag="0"/>
      <psa03 value="0.3804477693" flag="0"/>
      <psa10 value="0.0596881991" flag="0"/>
      <psa30 value="0.0062533361" flag="0"/>
    </comp>
    <comp name="--.HNN">
      <acc value="2.0371827378" flag="0"/>
      <vel value="0.5366520055" flag="0"/>
      <psa03 value="2.4244464780" flag="0"/>
      <psa10 value="0.1624712391" flag="0"/>
      <psa30 value="0.0092272332" flag="0"/>
    </comp>
    <comp name="--.HNE">
      <acc value="1.8789649085" flag="0"/>
      <vel value="0.4591625607" flag="0"/>
      <psa03 value="1.9911441480" flag="0"/>
      <psa10 value="0.1066484434" flag="0"/>
      <psa30 value="0.0097613446" flag="0"/>
    </comp>
  </station>
  <station code="SMAA" name="SMAA" netid="KO" insttype="CMG-5T" commtype="DIG" lat="39.1005" lon="28.9805">
    <comp name="--.HNN">
      <acc value="3.1785350209" flag="0"/>
      <vel value="1.2542224017" flag="0"/>
      <psa03 value="8.7968399402" flag="0"/>
      <psa10 value="1.3656376938" flag="0"/>
      <psa30 value="0.1149667392" flag="0"/>
    </comp>
    <comp name="--.HNE">
      <acc value="3.1953547147" flag="0"/>
      <vel value="1.5134957980" flag="0"/>
      <psa03 value="8.9128212643" flag="0"/>
      <psa10 value="1.3263616268" flag="0"/>
      <psa30 value="0.1338682899" flag="0"/>
    </comp>
    <comp name="--.HNZ">
      <acc value="2.8222653683" flag="0"/>
      <vel value="0.4361586253" flag="0"/>
      <psa03 value="1.8362234474" flag="0"/>
      <psa10 value="0.7985703294" flag="0"/>
      <psa30 value="0.0272655412" flag="0"/>
    </comp>
  </station>
  <station code="SOMA" name="SOMA" netid="KO" insttype="CMG-5T" commtype="DIG" lat="39.1564" lon="27.5341">
    <comp name="--.HNE">
      <acc value="0.1340038983" flag="0"/>
      <vel value="0.0815559028" flag="0"/>
      <psa03 value="0.2575391184" flag="0"/>
      <psa10 value="0.0489911650" flag="0"/>
      <psa30 value="0.0055345823" flag="0"/>
    </comp>
    <comp name="--.HNZ">
      <acc value="0.0784285865" flag="0"/>
      <vel value="0.0597317159" flag="0"/>
      <psa03 value="0.1519820588" flag="0"/>
      <psa10 value="0.0408563185" flag="0"/>
      <psa30 value="0.0043921597" flag="0"/>
    </comp>
    <comp name="--.HNN">
      <acc value="0.1144826825" flag="0"/>
      <vel value="0.0557404213" flag="0"/>
      <psa03 value="0.2600102580" flag="0"/>
      <psa10 value="0.0530386687" flag="0"/>
      <psa30 value="0.0045616246" flag="0"/>
    </comp>
  </station>
  <station code="SUSR" name="SUSR" netid="KO" insttype="CMG-5T" commtype="DIG" lat="39.9627" lon="28.0835">
    <comp name="--.HNN">
      <acc value="0.1968663326" flag="0"/>
      <vel value="0.0762640143" flag="0"/>
      <psa03 value="0.4857942263" flag="0"/>
      <psa10 value="0.0644703554" flag="0"/>
      <psa30 value="0.0064053223" flag="0"/>
    </comp>
    <comp name="--.HNZ">
      <acc value="0.1030708886" flag="0"/>
      <vel value="0.0329982329" flag="0"/>
      <psa03 value="0.2194229317" flag="0"/>
      <psa10 value="0.0181918402" flag="0"/>
      <psa30 value="0.0015789579" flag="0"/>
    </comp>
    <comp name="--.HNE">
      <acc value="0.1839028287" flag="0"/>
      <vel value="0.0603964477" flag="0"/>
      <psa03 value="0.3807861042" flag="0"/>
      <psa10 value="0.0286738670" flag="0"/>
      <psa30 value="0.0028641173" flag="0"/>
    </comp>
  </station>
  <station code="TVSB" name="TVSB" netid="KO" insttype="CMG-3T" commtype="DIG" lat="39.4497" lon="29.4615">
    <comp name="--.HHZ">
      <acc value="0.2076268715" flag="0"/>
      <vel value="0.0812123739" flag="0"/>
      <psa03 value="0.2176043248" flag="0"/>
      <psa10 value="0.1162400340" flag="0"/>
      <psa30 value="0.0103971415" flag="0"/>
    </comp>
    <comp name="--.HHE">
      <acc value="0.3906290283" flag="0"/>
      <vel value="0.1268824175" flag="0"/>
      <psa03 value="0.5928494578" flag="0"/>
      <psa10 value="0.0851701712" flag="0"/>
      <psa30 value="0.0092513618" flag="0"/>
    </comp>
    <comp name="--.HHN">
      <acc value="0.5158626058" flag="0"/>
      <vel value="0.1464479558" flag="0"/>
      <psa03 value="0.4381953444" flag="0"/>
      <psa10 value="0.0870711115" flag="0"/>
      <psa30 value="0.0097495875" flag="0"/>
    </comp>
  </station>
  <station code="YLV" name="YLV" netid="KO" insttype="CMG-3ESPC" commtype="DIG" lat="40.5658" lon="29.3708">
    <comp name="--.HHZ">
      <acc value="0.0232596960" flag="0"/>
      <vel value="0.0128819344" flag="0"/>
      <psa03 value="0.0416003525" flag="0"/>
      <psa10 value="0.0141988711" flag="0"/>
      <psa30 value="0.0020532457" flag="0"/>
    </comp>
    <comp name="--.HHE">
      <acc value="0.0461591473" flag="0"/>
      <vel value="0.0200245556" flag="0"/>
      <psa03 value="0.0590953211" flag="0"/>
      <psa10 value="0.0271168089" flag="0"/>
      <psa30 value="0.0021856455" flag="0"/>
    </comp>
    <comp name="--.HHN">
      <acc value="0.0551240398" flag="0"/>
      <vel value="0.0193589735" flag="0"/>
      <psa03 value="0.1042060648" flag="0"/>
      <psa10 value="0.0139016193" flag="0"/>
      <psa30 value="0.0027853995" flag="0"/>
    </comp>
  </station>
  <station code="BORA" name="BORA" netid="TU" insttype="T" commtype="DIG" lat="39.8801" lon="30.4534">
    <comp name="--.HHN">
      <acc value="0.0346978024" flag="0"/>
      <vel value="0.0157792690" flag="0"/>
      <psa03 value="0.0452679006" flag="0"/>
      <psa10 value="0.0176440002" flag="0"/>
      <psa30 value="0.0047240059" flag="0"/>
    </comp>
    <comp name="--.HHE">
      <acc value="0.0386546638" flag="0"/>
      <vel value="0.0206432400" flag="0"/>
      <psa03 value="0.1211795021" flag="0"/>
      <psa10 value="0.0152122178" flag="0"/>
      <psa30 value="0.0034826793" flag="0"/>
    </comp>
    <comp name="--.HHZ">
      <acc value="0.0303723825" flag="0"/>
      <vel value="0.0105416596" flag="0"/>
      <psa03 value="0.0526889085" flag="0"/>
      <psa10 value="0.0114588481" flag="0"/>
      <psa30 value="0.0019764052" flag="0"/>
    </comp>
  </station>
</stationlist>
