<?xml version="1.0" encoding="UTF-8" standalone="yes"?>
<!DOCTYPE earthquake SYSTEM "stationlist.dtd">
<stationlist created="" xmlns="ch.ethz.sed.shakemap.usgs.xml">
  <station code="ADVT" name="ADVT" netid="KO" insttype="120s," lat="40.4332" lon="29.7383">
    <comp name="--.HHN">
      <acc value="0.0145811068" flag="0"/>
      <vel value="0.0175325646" flag="0"/>
      <psa03 value="0.0325143352" flag="0"/>
      <psa10 value="0.0192163460" flag="0"/>
      <psa30 value="0.0064577217" flag="0"/>
    </comp>
  </station>
  <station code="ALT" name="ALT" netid="KO" insttype="CMG-5T" lat="39.0541" lon="30.1104">
    <comp name="--.HNZ">
      <acc value="7.4954199130" flag="0"/>
      <vel value="1.0481933461" flag="0"/>
      <psa03 value="2.8667072307" flag="0"/>
      <psa10 value="0.2001490353" flag="0"/>
      <psa30 value="0.0472483576" flag="0"/>
    </comp>
    <comp name="--.HNN">
      <acc value="8.6290483822" flag="0"/>
      <vel value="2.4518956057" flag="0"/>
      <psa03 value="10.4411838126" flag="0"/>
      <psa10 value="0.4484918014" flag="0"/>
      <psa30 value="0.0753129286" flag="0"/>
    </comp>
    <comp name="--.HNE">
      <acc value="16.0465346037" flag="0"/>
      <vel value="1.8867823063" flag="0"/>
      <psa03 value="4.3335679660" flag="0"/>
      <psa10 value="0.3919579109" flag="0"/>
      <psa30 value="0.0395041171" flag="0"/>
    </comp>
  </station>
  <station code="CAVI" name="CAVI" netid="KO" insttype="120s," lat="40.2018" lon="29.8377">
    <comp name="--.HHZ">
      <acc value="0.0298547373" flag="0"/>
      <vel value="0.0225486511" flag="0"/>
      <psa03 value="0.0689089683" flag="0"/>
      <psa10 value="0.0273021315" flag="0"/>
      <psa30 value="0.0084988463" flag="0"/>
    </comp>
    <comp name="--.HHN">
      <acc value="0.0376948113" flag="0"/>
      <vel value="0.0375737703" flag="0"/>
      <psa03 value="0.0729446569" flag="0"/>
      <psa10 value="0.0418782822" flag="0"/>
      <psa30 value="0.0083794080" flag="0"/>
    </comp>
  </station>
  <station code="ORLT" name="ORLT" netid="KO" insttype="CMG-5T" lat="40.0452" lon="28.8914">
    <comp name="--.HNN">
      <acc value="0.0738852738" flag="0"/>
      <vel value="0.0293350956" flag="0"/>
      <psa03 value="0.2207817637" flag="0"/>
      <psa10 value="0.0416394975" flag="0"/>
      <psa30 value="0.0074049985" flag="0"/>
    </comp>
    <comp name="--.HNZ">
      <acc value="0.0277949811" flag="0"/>
      <vel value="0.0189425515" flag="0"/>
      <psa03 value="0.0578431020" flag="0"/>
      <psa10 value="0.0163628960" flag="0"/>
      <psa30 value="0.0053425777" flag="0"/>
    </comp>
    <comp name="--.HNE">
      <acc value="0.0726808017" flag="0"/>
      <vel value="0.0387691992" flag="0"/>
      <psa03 value="0.2201516020" flag="0"/>
      <psa10 value="0.0180477916" flag="0"/>
      <psa30 value="0.0048582042" flag="0"/>
    </comp>
  </station>
  <station code="SDAG" name="SDAG" netid="KO" insttype="30s," lat="38.4396" lon="30.9175">
    <comp name="--.HHN">
      <acc value="0.1346363377" flag="0"/>
      <vel value="0.0935980794" flag="0"/>
      <psa03 value="0.3208829550" flag="0"/>
      <psa10 value="0.0888124086" flag="0"/>
      <psa30 value="0.0090162779" flag="0"/>
    </comp>
    <comp name="--.HHE">
      <acc value="0.1256842183" flag="0"/>
      <vel value="0.1233726564" flag="0"/>
      <psa03 value="0.4016350591" flag="0"/>
      <psa10 value="0.1268831506" flag="0"/>
      <psa30 value="0.0084730032" flag="0"/>
    </comp>
    <comp name="--.HHZ">
      <acc value="0.0694316473" flag="0"/>
      <vel value="0.0461109765" flag="0"/>
      <psa03 value="0.1127480778" flag="0"/>
      <psa10 value="0.0640300553" flag="0"/>
      <psa30 value="0.0077110107" flag="0"/>
    </comp>
  </station>
  <station code="BORA" name="BORA" netid="TU" source="ODC" insttype="T" lat="39.8801" lon="30.4534">
    <comp name="--.HHE">
      <acc value="0.1581108032" flag="0"/>
      <vel value="0.0424497490" flag="0"/>
      <psa03 value="0.2969896091" flag="0"/>
      <psa10 value="0.0289292411" flag="0"/>
      <psa30 value="0.0023880830" flag="0"/>
    </comp>
    <comp name="--.HHN">
      <acc value="0.0843746154" flag="0"/>
      <vel value="0.0341378558" flag="0"/>
      <psa03 value="0.1481870841" flag="0"/>
      <psa10 value="0.0449254448" flag="0"/>
      <psa30 value="0.0027154154" flag="0"/>
    </comp>
    <comp name="--.HHZ">
      <acc value="0.1957690923" flag="0"/>
      <vel value="0.0331731457" flag="0"/>
      <psa03 value="0.0976606578" flag="0"/>
      <psa10 value="0.0390167579" flag="0"/>
      <psa30 value="0.0029769992" flag="0"/>
    </comp>
  </station>
</stationlist>
