<stationlist created="1778138373">
	<station code="ALT" name="ALT" netid="KO" source="Bogazici University Kandilli Observatory And Earthquake Research Institute (KOERI)" insttype="" lat="39.0541" lon="30.1104">
		<comp name="--.HNE" depth="0.0">
			<acc value="16.7369002233995" flag="0"/>
			<vel value="1.95043073519977" flag="0"/>
			<psa03 value="4.35358573702119" flag="0"/>
			<psa10 value="0.402554967290981" flag="0"/>
			<psa30 value="0.040868990703385" flag="0"/>
		</comp>
		<comp name="--.HNN" depth="0.0">
			<acc value="9.23065550011117" flag="0"/>
			<vel value="2.51215653468413" flag="0"/>
			<psa03 value="10.5654299078692" flag="0"/>
			<psa10 value="0.45387489698547" flag="0"/>
			<psa30 value="0.0757865604878244" flag="0"/>
		</comp>
		<comp name="--.HNZ" depth="0.0">
			<acc value="7.74531717102067" flag="0"/>
			<vel value="1.08168013584117" flag="0"/>
			<psa03 value="2.92578615230569" flag="0"/>
			<psa10 value="0.200858025858373" flag="0"/>
			<psa30 value="0.0470950231473684" flag="0"/>
		</comp>
	</station>
	<station code="BASM" name="BASM" netid="KO" source="Bogazici University Kandilli Observatory And Earthquake Research Institute (KOERI)" insttype="" lat="37.9194" lon="30.035">
		<comp name="--.HNE" depth="0.0">
			<acc value="0.0542209251140968" flag="0"/>
			<vel value="0.071911237031391" flag="0"/>
			<psa03 value="0.157976652677815" flag="0"/>
			<psa10 value="0.14417471586731" flag="0"/>
			<psa30 value="0.0204708710947297" flag="0"/>
		</comp>
		<comp name="--.HNN" depth="0.0">
			<acc value="0.0756545854728924" flag="0"/>
			<vel value="0.0907192000978121" flag="0"/>
			<psa03 value="0.133887244372941" flag="0"/>
			<psa10 value="0.145307950938544" flag="0"/>
			<psa30 value="0.0106332177318408" flag="0"/>
		</comp>
		<comp name="--.HNZ" depth="0.0">
			<acc value="0.0422494079816318" flag="0"/>
			<vel value="0.0427676006390035" flag="0"/>
			<psa03 value="0.105602912341196" flag="0"/>
			<psa10 value="0.0522347352947789" flag="0"/>
			<psa30 value="0.00645857326546692" flag="0"/>
		</comp>
	</station>
	<station code="GORD" name="GORD" netid="KO" source="Bogazici University Kandilli Observatory And Earthquake Research Institute (KOERI)" insttype="" lat="38.9088" lon="28.1769">
		<comp name="--.HNE" depth="0.0">
			<acc value="0.0088970604559876" flag="0"/>
			<vel value="0.0143050105373112" flag="0"/>
			<psa03 value="0.0299745247276643" flag="0"/>
			<psa10 value="0.0193252683291952" flag="0"/>
			<psa30 value="0.00290297897477543" flag="0"/>
		</comp>
		<comp name="--.HNN" depth="0.0">
			<acc value="0.0127617712240554" flag="0"/>
			<vel value="0.0187673459418018" flag="0"/>
			<psa03 value="0.0272483597575999" flag="0"/>
			<psa10 value="0.0170456854430011" flag="0"/>
			<psa30 value="0.00556538117917105" flag="0"/>
		</comp>
		<comp name="--.HNZ" depth="0.0">
			<acc value="0.00648511701828719" flag="0"/>
			<vel value="0.0106740217929831" flag="0"/>
			<psa03 value="0.0203633099068534" flag="0"/>
			<psa10 value="0.0154470164140081" flag="0"/>
			<psa30 value="0.00330247148085935" flag="0"/>
		</comp>
	</station>
	<station code="KCTX" name="KCTX" netid="KO" source="Bogazici University Kandilli Observatory And Earthquake Research Institute (KOERI)" insttype="" lat="40.2626" lon="28.3353">
		<comp name="--.HNE" depth="0.0">
			<acc value="0.0135583761486906" flag="0"/>
			<vel value="0.014146577290852" flag="0"/>
			<psa03 value="0.0406366893770903" flag="0"/>
			<psa10 value="0.0159934163603481" flag="0"/>
			<psa30 value="0.00432513610237379" flag="0"/>
		</comp>
		<comp name="--.HNN" depth="0.0">
			<acc value="0.0174699905583356" flag="0"/>
			<vel value="0.0121682040171439" flag="0"/>
			<psa03 value="0.0479612292796136" flag="0"/>
			<psa10 value="0.0246423293083842" flag="0"/>
			<psa30 value="0.00359260965942424" flag="0"/>
		</comp>
		<comp name="--.HNZ" depth="0.0">
			<acc value="0.0121034984008426" flag="0"/>
			<vel value="0.0116230072389598" flag="0"/>
			<psa03 value="0.0349157348710655" flag="0"/>
			<psa10 value="0.00804286248768735" flag="0"/>
			<psa30 value="0.00281270028592293" flag="0"/>
		</comp>
	</station>
	<station code="LAFA" name="LAFA" netid="KO" source="Bogazici University Kandilli Observatory And Earthquake Research Institute (KOERI)" insttype="" lat="40.7598" lon="29.3554">
		<comp name="--.HNE" depth="0.0">
			<acc value="0.00111436151497256" flag="0"/>
			<vel value="0.00140322100689412" flag="0"/>
			<psa03 value="0.00180890547564062" flag="0"/>
			<psa10 value="0.000860677972722545" flag="0"/>
			<psa30 value="0.000469608505089859" flag="0"/>
		</comp>
		<comp name="--.HNN" depth="0.0">
			<acc value="0.0369791830882733" flag="0"/>
			<vel value="0.0135026511887732" flag="0"/>
			<psa03 value="0.0812333708954761" flag="0"/>
			<psa10 value="0.0120586603895893" flag="0"/>
			<psa30 value="0.0032253594975686" flag="0"/>
		</comp>
		<comp name="--.HNZ" depth="0.0">
			<acc value="0.0499909926052798" flag="0"/>
			<vel value="0.00696514211894045" flag="0"/>
			<psa03 value="0.0216580154663845" flag="0"/>
			<psa10 value="0.00596262124439174" flag="0"/>
			<psa30 value="0.0016051493540983" flag="0"/>
		</comp>
	</station>
	<station code="ORLT" name="ORLT" netid="KO" source="Bogazici University Kandilli Observatory And Earthquake Research Institute (KOERI)" insttype="" lat="40.0452" lon="28.8914">
		<comp name="--.HNE" depth="0.0">
			<acc value="0.0726746346585867" flag="0"/>
			<vel value="0.0416192610355233" flag="0"/>
			<psa03 value="0.22427771146414" flag="0"/>
			<psa10 value="0.018101967291501" flag="0"/>
			<psa30 value="0.00496844371836224" flag="0"/>
		</comp>
		<comp name="--.HNN" depth="0.0">
			<acc value="0.0743407768231367" flag="0"/>
			<vel value="0.0304108956268073" flag="0"/>
			<psa03 value="0.221118314669994" flag="0"/>
			<psa10 value="0.0415354940228302" flag="0"/>
			<psa30 value="0.00735172368227195" flag="0"/>
		</comp>
		<comp name="--.HNZ" depth="0.0">
			<acc value="0.0279924239895084" flag="0"/>
			<vel value="0.0202528101744706" flag="0"/>
			<psa03 value="0.0572594077381442" flag="0"/>
			<psa10 value="0.0162824930102715" flag="0"/>
			<psa30 value="0.00554175794758127" flag="0"/>
		</comp>
	</station>
	<station code="OSMT" name="OSMT" netid="KO" source="Bogazici University Kandilli Observatory And Earthquake Research Institute (KOERI)" insttype="" lat="40.6009" lon="29.7">
		<comp name="--.HNE" depth="0.0">
			<acc value="0.0225773601484857" flag="0"/>
			<vel value="0.0178258221173443" flag="0"/>
			<psa03 value="0.071532009478113" flag="0"/>
			<psa10 value="0.0239857226864288" flag="0"/>
			<psa30 value="0.00536112473151391" flag="0"/>
		</comp>
		<comp name="--.HNN" depth="0.0">
			<acc value="0.0186476664790313" flag="0"/>
			<vel value="0.0156148331376621" flag="0"/>
			<psa03 value="0.0519603900375029" flag="0"/>
			<psa10 value="0.0142832374443869" flag="0"/>
			<psa30 value="0.00456205971406147" flag="0"/>
		</comp>
		<comp name="--.HNZ" depth="0.0">
			<acc value="0.0172383239706766" flag="0"/>
			<vel value="0.0160268944604618" flag="0"/>
			<psa03 value="0.0382199068812535" flag="0"/>
			<psa10 value="0.014509595877025" flag="0"/>
			<psa30 value="0.00791983381680536" flag="0"/>
		</comp>
	</station>
	<station code="YLVH" name="YLVH" netid="KO" source="Bogazici University Kandilli Observatory And Earthquake Research Institute (KOERI)" insttype="" lat="40.6953" lon="29.3703">
		<comp name="--.HNE" depth="0.0">
			<acc value="0.00390353842859991" flag="0"/>
			<vel value="0.00446028643884132" flag="0"/>
			<psa03 value="0.0136389269494521" flag="0"/>
			<psa10 value="0.00540878643054505" flag="0"/>
			<psa30 value="0.0015425645831646" flag="0"/>
		</comp>
		<comp name="--.HNN" depth="0.0">
			<acc value="0.00783569380916949" flag="0"/>
			<vel value="0.0082526195084399" flag="0"/>
			<psa03 value="0.0394275103165408" flag="0"/>
			<psa10 value="0.0221718362753434" flag="0"/>
			<psa30 value="0.00387440332687198" flag="0"/>
		</comp>
		<comp name="--.HNZ" depth="0.0">
			<acc value="0.00729139035514165" flag="0"/>
			<vel value="0.0108555611740845" flag="0"/>
			<psa03 value="0.0488799099290414" flag="0"/>
			<psa10 value="0.0520369809444515" flag="0"/>
			<psa30 value="0.01419356692081" flag="0"/>
		</comp>
	</station>
	<station code="YUVA" name="YUVA" netid="KO" source="Bogazici University Kandilli Observatory And Earthquake Research Institute (KOERI)" insttype="" lat="40.391" lon="31.6872">
		<comp name="--.HNE" depth="0.0">
			<acc value="0.0331148807100819" flag="0"/>
			<vel value="0.0402621473487161" flag="0"/>
			<psa03 value="0.0573547942654287" flag="0"/>
			<psa10 value="0.0682749453798819" flag="0"/>
			<psa30 value="0.0104897582283476" flag="0"/>
		</comp>
		<comp name="--.HNN" depth="0.0">
			<acc value="0.0237126355663059" flag="0"/>
			<vel value="0.0323289243506499" flag="0"/>
			<psa03 value="0.0627398228722337" flag="0"/>
			<psa10 value="0.0469010344632957" flag="0"/>
			<psa30 value="0.00929310145569352" flag="0"/>
		</comp>
		<comp name="--.HNZ" depth="0.0">
			<acc value="0.0344529757173559" flag="0"/>
			<vel value="0.051701737391802" flag="0"/>
			<psa03 value="0.0768017231537524" flag="0"/>
			<psa10 value="0.0796013556993333" flag="0"/>
			<psa30 value="0.0138232073863123" flag="0"/>
		</comp>
	</station>
</stationlist>
