<?xml version="1.0" encoding="UTF-8" standalone="yes"?>
<!DOCTYPE earthquake SYSTEM "stationlist.dtd">
<stationlist created="" xmlns="ch.ethz.sed.shakemap.usgs.xml">
  <station code="AMGA" name="AMGA" netid="HL" insttype="SMART24" lat="36.8316" lon="25.8938">
    <comp name="--.HHN">
      <acc value="2.6561272937" flag="0"/>
      <vel value="0.7182732047" flag="0"/>
      <psa03 value="2.1223888281" flag="0"/>
      <psa10 value="0.1440928614" flag="0"/>
      <psa30 value="0.0353214801" flag="0"/>
    </comp>
    <comp name="--.HHZ">
      <acc value="2.6022921458" flag="0"/>
      <vel value="0.7883081455" flag="0"/>
      <psa03 value="2.0714626872" flag="0"/>
      <psa10 value="0.1044055807" flag="0"/>
      <psa30 value="0.0176761066" flag="0"/>
    </comp>
    <comp name="--.HHE">
      <acc value="2.6680214038" flag="0"/>
      <vel value="0.5435272339" flag="0"/>
      <psa03 value="1.9365667058" flag="0"/>
      <psa10 value="0.1020798950" flag="0"/>
      <psa30 value="0.0113699636" flag="0"/>
    </comp>
  </station>
  <station code="TNSA" name="TNSA" netid="HL" insttype="CMG-5" lat="37.5394" lon="25.1631">
    <comp name="00.HNE">
      <acc value="0.0908972316" flag="0"/>
      <vel value="0.0246712549" flag="0"/>
      <psa03 value="0.1577911549" flag="0"/>
      <psa10 value="0.0104943664" flag="0"/>
      <psa30 value="0.0015940417" flag="0"/>
    </comp>
    <comp name="00.HNN">
      <acc value="0.1187399152" flag="0"/>
      <vel value="0.0390051216" flag="0"/>
      <psa03 value="0.2234118771" flag="0"/>
      <psa10 value="0.0157392790" flag="0"/>
      <psa30 value="0.0021892403" flag="0"/>
    </comp>
    <comp name="00.HNZ">
      <acc value="0.0851284829" flag="0"/>
      <vel value="0.0420166834" flag="0"/>
      <psa03 value="0.1377018227" flag="0"/>
      <psa10 value="0.0228233130" flag="0"/>
      <psa30 value="0.0032318167" flag="0"/>
    </comp>
  </station>
</stationlist>
