<?xml version="1.0" encoding="UTF-8" standalone="yes"?>
<!DOCTYPE earthquake SYSTEM "stationlist.dtd">
<stationlist created="" xmlns="ch.ethz.sed.shakemap.usgs.xml">
  <station code="IMMV" name="IMMV" netid="GE" insttype="STS-2/N" commtype="DIG" lat="35.4606" lon="23.9811">
    <comp name="--.HHE">
      <acc value="0.1187668867" flag="0"/>
      <vel value="0.0340987399" flag="0"/>
      <psa03 value="0.2488591592" flag="0"/>
      <psa10 value="0.0167298514" flag="0"/>
      <psa30 value="0.0017362916" flag="0"/>
    </comp>
    <comp name="--.HHZ">
      <acc value="0.0504224816" flag="0"/>
      <vel value="0.0209928908" flag="0"/>
      <psa03 value="0.1306469155" flag="0"/>
      <psa10 value="0.0107558330" flag="0"/>
      <psa30 value="0.0014255245" flag="0"/>
    </comp>
    <comp name="--.HHN">
      <acc value="0.0779942366" flag="0"/>
      <vel value="0.0238123069" flag="0"/>
      <psa03 value="0.1592803258" flag="0"/>
      <psa10 value="0.0182571581" flag="0"/>
      <psa30 value="0.0013639709" flag="0"/>
    </comp>
  </station>
  <station code="KTHA" name="KTHA" netid="GE" insttype="STS-2/N" commtype="DIG" lat="36.2566" lon="23.0621">
    <comp name="--.HHE">
      <acc value="0.0693563524" flag="0"/>
      <vel value="0.0246214712" flag="0"/>
      <psa03 value="0.2261355400" flag="0"/>
      <psa10 value="0.0104670822" flag="0"/>
      <psa30 value="0.0007572766" flag="0"/>
    </comp>
    <comp name="--.HHN">
      <acc value="0.0468242617" flag="0"/>
      <vel value="0.0128888188" flag="0"/>
      <psa03 value="0.0990735217" flag="0"/>
      <psa10 value="0.0044263351" flag="0"/>
      <psa30 value="0.0004177470" flag="0"/>
    </comp>
    <comp name="--.HHZ">
      <acc value="0.0274087335" flag="0"/>
      <vel value="0.0096579229" flag="0"/>
      <psa03 value="0.0396760297" flag="0"/>
      <psa10 value="0.0054301502" flag="0"/>
      <psa30 value="0.0004506053" flag="0"/>
    </comp>
  </station>
</stationlist>
