<?xml version="1.0" encoding="UTF-8" standalone="yes"?>
<!DOCTYPE earthquake SYSTEM "stationlist.dtd">
<stationlist created="" xmlns="ch.ethz.sed.shakemap.usgs.xml">
  <station code="IMMV" name="IMMV" netid="GE" insttype="STS-2/N" commtype="DIG" lat="35.4606" lon="23.9811">
    <comp name="--.HHE">
      <acc value="0.1187668867" flag="0"/>
      <vel value="0.0340987399" flag="0"/>
      <psa03 value="0.2488591592" flag="0"/>
      <psa10 value="0.0167298514" flag="0"/>
      <psa30 value="0.0017362916" flag="0"/>
    </comp>
    <comp name="--.HHZ">
      <acc value="0.0504224816" flag="0"/>
      <vel value="0.0209928908" flag="0"/>
      <psa03 value="0.1306469155" flag="0"/>
      <psa10 value="0.0107558330" flag="0"/>
      <psa30 value="0.0014255245" flag="0"/>
    </comp>
    <comp name="--.HHN">
      <acc value="0.0779942366" flag="0"/>
      <vel value="0.0238123069" flag="0"/>
      <psa03 value="0.1592803258" flag="0"/>
      <psa10 value="0.0182571581" flag="0"/>
      <psa30 value="0.0013639709" flag="0"/>
    </comp>
  </station>
  <station code="KTHA" name="KTHA" netid="GE" insttype="STS-2/N" commtype="DIG" lat="36.2566" lon="23.0621">
    <comp name="--.HHE">
      <acc value="0.0693563524" flag="0"/>
      <vel value="0.0246214712" flag="0"/>
      <psa03 value="0.2261355400" flag="0"/>
      <psa10 value="0.0104670822" flag="0"/>
      <psa30 value="0.0007572766" flag="0"/>
    </comp>
    <comp name="--.HHN">
      <acc value="0.0468242617" flag="0"/>
      <vel value="0.0128888188" flag="0"/>
      <psa03 value="0.0990735217" flag="0"/>
      <psa10 value="0.0044263351" flag="0"/>
      <psa30 value="0.0004177470" flag="0"/>
    </comp>
    <comp name="--.HHZ">
      <acc value="0.0274087335" flag="0"/>
      <vel value="0.0096579229" flag="0"/>
      <psa03 value="0.0396760297" flag="0"/>
      <psa10 value="0.0054301502" flag="0"/>
      <psa30 value="0.0004506053" flag="0"/>
    </comp>
  </station>
  <station code="ATEI" name="ATEI" netid="HC" insttype="DC" commtype="DIG" lat="35.5193" lon="24.0432">
    <comp name="--.HNE">
      <acc value="0.0489039823" flag="0"/>
      <vel value="0.0212402030" flag="0"/>
      <psa03 value="0.1161668598" flag="0"/>
      <psa10 value="0.0153618253" flag="0"/>
      <psa30 value="0.0025091941" flag="0"/>
    </comp>
    <comp name="--.HNZ">
      <acc value="0.0542815786" flag="0"/>
      <vel value="0.0171755216" flag="0"/>
      <psa03 value="0.0970827235" flag="0"/>
      <psa10 value="0.0137059874" flag="0"/>
      <psa30 value="0.0007831381" flag="0"/>
    </comp>
    <comp name="--.HNN">
      <acc value="0.0504535492" flag="0"/>
      <vel value="0.0270415332" flag="0"/>
      <psa03 value="0.1314523990" flag="0"/>
      <psa10 value="0.0200763162" flag="0"/>
      <psa30 value="0.0018953930" flag="0"/>
    </comp>
  </station>
  <station code="CHAN" name="CHAN" netid="HC" insttype="120" commtype="DIG" lat="35.5193" lon="24.0428">
    <comp name="--.HHE">
      <acc value="0.0991622616" flag="0"/>
      <vel value="0.0464229614" flag="0"/>
      <psa03 value="0.2380412019" flag="0"/>
      <psa10 value="0.0337820060" flag="0"/>
      <psa30 value="0.0051277554" flag="0"/>
    </comp>
    <comp name="--.HHZ">
      <acc value="0.1035879229" flag="0"/>
      <vel value="0.0322696186" flag="0"/>
      <psa03 value="0.1849701783" flag="0"/>
      <psa10 value="0.0255236169" flag="0"/>
      <psa30 value="0.0017597986" flag="0"/>
    </comp>
    <comp name="--.HHN">
      <acc value="0.0974598494" flag="0"/>
      <vel value="0.0511055468" flag="0"/>
      <psa03 value="0.2158936553" flag="0"/>
      <psa10 value="0.0349766933" flag="0"/>
      <psa30 value="0.0039841457" flag="0"/>
    </comp>
  </station>
  <station code="IMOD" name="IMOD" netid="HC" insttype="120" commtype="DIG" lat="34.9731" lon="24.7995">
    <comp name="--.HHZ">
      <acc value="0.0054502744" flag="0"/>
      <vel value="0.0035607060" flag="0"/>
      <psa03 value="0.0182877433" flag="0"/>
      <psa10 value="0.0042371398" flag="0"/>
      <psa30 value="0.0006043635" flag="0"/>
    </comp>
    <comp name="--.HHE">
      <acc value="0.0086680771" flag="0"/>
      <vel value="0.0072796696" flag="0"/>
      <psa03 value="0.0278330261" flag="0"/>
      <psa10 value="0.0104179136" flag="0"/>
      <psa30 value="0.0012167112" flag="0"/>
    </comp>
    <comp name="--.HHN">
      <acc value="0.0112165174" flag="0"/>
      <vel value="0.0098035914" flag="0"/>
      <psa03 value="0.0381572948" flag="0"/>
      <psa10 value="0.0108279192" flag="0"/>
      <psa30 value="0.0008958490" flag="0"/>
    </comp>
  </station>
  <station code="IPPL" name="IPPL" netid="HC" insttype="60" commtype="DIG" lat="35.3486" lon="24.4632">
    <comp name="--.HHN">
      <acc value="0.0000000000" flag="0"/>
      <vel value="-100.0000000000" flag="0"/>
      <psa03 value="0.0000000000" flag="0"/>
      <psa10 value="0.0000000000" flag="0"/>
      <psa30 value="0.0000000000" flag="0"/>
    </comp>
    <comp name="--.HHE">
      <acc value="0.0000000000" flag="0"/>
      <vel value="-100.0000000000" flag="0"/>
      <psa03 value="0.0000000000" flag="0"/>
      <psa10 value="0.0000000000" flag="0"/>
      <psa30 value="0.0000000000" flag="0"/>
    </comp>
    <comp name="--.HHZ">
      <acc value="0.0159222346" flag="0"/>
      <vel value="0.0067037494" flag="0"/>
      <psa03 value="0.0488058344" flag="0"/>
      <psa10 value="0.0064114831" flag="0"/>
      <psa30 value="0.0004764388" flag="0"/>
    </comp>
  </station>
  <station code="KNDR" name="KNDR" netid="HC" insttype="120" commtype="DIG" lat="35.2348" lon="23.6248">
    <comp name="--.HHZ">
      <acc value="0.5070189623" flag="0"/>
      <vel value="0.1547744368" flag="0"/>
      <psa03 value="0.9499916100" flag="0"/>
      <psa10 value="0.0839773779" flag="0"/>
      <psa30 value="0.0044733376" flag="0"/>
    </comp>
    <comp name="--.HHN">
      <acc value="0.5801979000" flag="0"/>
      <vel value="0.2366994459" flag="0"/>
      <psa03 value="1.3458378200" flag="0"/>
      <psa10 value="0.1285683256" flag="0"/>
      <psa30 value="0.0092482705" flag="0"/>
    </comp>
    <comp name="--.HHE">
      <acc value="0.7805088246" flag="0"/>
      <vel value="0.3052076840" flag="0"/>
      <psa03 value="2.4089964765" flag="0"/>
      <psa10 value="0.1357810084" flag="0"/>
      <psa30 value="0.0088767683" flag="0"/>
    </comp>
  </station>
  <station code="CH01" name="CH01" netid="HI" insttype="CMG-5TD,ACCELEROMETER,GURALP" commtype="DIG" lat="35.517" lon="24.0208">
    <comp name="--.HNZ">
      <acc value="0.0686383329" flag="0"/>
      <vel value="0.0290847183" flag="0"/>
      <psa03 value="0.1164473941" flag="0"/>
      <psa10 value="0.0159003057" flag="0"/>
      <psa30 value="0.0017652045" flag="0"/>
    </comp>
    <comp name="--.HNE">
      <acc value="0.0789367405" flag="0"/>
      <vel value="0.0261415827" flag="0"/>
      <psa03 value="0.1069422014" flag="0"/>
      <psa10 value="0.0167518903" flag="0"/>
      <psa30 value="0.0034312920" flag="0"/>
    </comp>
    <comp name="--.HNN">
      <acc value="0.1018243620" flag="0"/>
      <vel value="0.0294114682" flag="0"/>
      <psa03 value="0.1415139550" flag="0"/>
      <psa10 value="0.0215892839" flag="0"/>
      <psa30 value="0.0021575732" flag="0"/>
    </comp>
  </station>
  <station code="CH02" name="CH02" netid="HI" insttype="unknown" commtype="DIG" lat="35.5145" lon="24.0315">
    <comp name="--.HNE">
      <acc value="0.0783542714" flag="0"/>
      <vel value="0.0301979072" flag="0"/>
      <psa03 value="0.2349843586" flag="0"/>
      <psa10 value="0.0162069804" flag="0"/>
      <psa30 value="0.0028182209" flag="0"/>
    </comp>
    <comp name="--.HNN">
      <acc value="0.0843877109" flag="0"/>
      <vel value="0.0286152392" flag="0"/>
      <psa03 value="0.1508148206" flag="0"/>
      <psa10 value="0.0205997685" flag="0"/>
      <psa30 value="0.0023742716" flag="0"/>
    </comp>
    <comp name="--.HNZ">
      <acc value="0.0417134930" flag="0"/>
      <vel value="0.0162752809" flag="0"/>
      <psa03 value="0.0878342213" flag="0"/>
      <psa10 value="0.0116704293" flag="0"/>
      <psa30 value="0.0011925648" flag="0"/>
    </comp>
  </station>
  <station code="CH03" name="CH03" netid="HI" insttype="unknown" commtype="DIG" lat="35.533" lon="24.0705">
    <comp name="--.HNE">
      <acc value="0.0470447140" flag="0"/>
      <vel value="0.0249072008" flag="0"/>
      <psa03 value="0.1075081210" flag="0"/>
      <psa10 value="0.0152224374" flag="0"/>
      <psa30 value="0.0025561478" flag="0"/>
    </comp>
    <comp name="--.HNZ">
      <acc value="0.0505763785" flag="0"/>
      <vel value="0.0115446981" flag="0"/>
      <psa03 value="0.0848310722" flag="0"/>
      <psa10 value="0.0077331384" flag="0"/>
      <psa30 value="0.0012830537" flag="0"/>
    </comp>
    <comp name="--.HNN">
      <acc value="0.0627748976" flag="0"/>
      <vel value="0.0184477015" flag="0"/>
      <psa03 value="0.0924497637" flag="0"/>
      <psa10 value="0.0147477794" flag="0"/>
      <psa30 value="0.0018067226" flag="0"/>
    </comp>
  </station>
  <station code="ANKY" name="ANKY" netid="HL" insttype="60" commtype="DIG" lat="35.867" lon="23.3012">
    <comp name="--.HHE">
      <acc value="0.1394324813" flag="0"/>
      <vel value="0.0301706829" flag="0"/>
      <psa03 value="0.2452562686" flag="0"/>
      <psa10 value="0.0159629986" flag="0"/>
      <psa30 value="0.0009793629" flag="0"/>
    </comp>
    <comp name="--.HHN">
      <acc value="0.1546974966" flag="0"/>
      <vel value="0.0303233184" flag="0"/>
      <psa03 value="0.1808179189" flag="0"/>
      <psa10 value="0.0149440194" flag="0"/>
      <psa30 value="0.0014185028" flag="0"/>
    </comp>
    <comp name="--.HHZ">
      <acc value="0.1429926235" flag="0"/>
      <vel value="0.0346396078" flag="0"/>
      <psa03 value="0.1209832952" flag="0"/>
      <psa10 value="0.0065205992" flag="0"/>
      <psa30 value="0.0006720370" flag="0"/>
    </comp>
  </station>
  <station code="CHNB" name="CHNB" netid="HL" insttype="CMG-5" commtype="DIG" lat="35.4877" lon="24.0661">
    <comp name="00.HNN">
      <acc value="0.1638197904" flag="0"/>
      <vel value="0.0588315452" flag="0"/>
      <psa03 value="0.3980690924" flag="0"/>
      <psa10 value="0.0476498790" flag="0"/>
      <psa30 value="0.0028239782" flag="0"/>
    </comp>
    <comp name="00.HNE">
      <acc value="0.1109815718" flag="0"/>
      <vel value="0.0708022730" flag="0"/>
      <psa03 value="0.3259845887" flag="0"/>
      <psa10 value="0.0536133347" flag="0"/>
      <psa30 value="0.0036898228" flag="0"/>
    </comp>
    <comp name="00.HNZ">
      <acc value="0.1040504936" flag="0"/>
      <vel value="0.0557123101" flag="0"/>
      <psa03 value="0.3503777864" flag="0"/>
      <psa10 value="0.0202834731" flag="0"/>
      <psa30 value="0.0015356243" flag="0"/>
    </comp>
  </station>
  <station code="IMMV" name="IMMV" netid="HL" insttype="120" commtype="DIG" lat="35.4606" lon="23.9811">
    <comp name="--.HHE">
      <acc value="0.1147838400" flag="0"/>
      <vel value="0.0331335667" flag="0"/>
      <psa03 value="0.2414074763" flag="0"/>
      <psa10 value="0.0165887244" flag="0"/>
      <psa30 value="0.0017302903" flag="0"/>
    </comp>
    <comp name="--.HHZ">
      <acc value="0.0493850792" flag="0"/>
      <vel value="0.0205263238" flag="0"/>
      <psa03 value="0.1268571583" flag="0"/>
      <psa10 value="0.0106370111" flag="0"/>
      <psa30 value="0.0014135343" flag="0"/>
    </comp>
    <comp name="--.HHN">
      <acc value="0.0762574749" flag="0"/>
      <vel value="0.0233227221" flag="0"/>
      <psa03 value="0.1547121818" flag="0"/>
      <psa10 value="0.0181653921" flag="0"/>
      <psa30 value="0.0013583064" flag="0"/>
    </comp>
  </station>
  <station code="SIVA" name="SIVA" netid="HL" insttype="60" commtype="DIG" lat="35.0178" lon="24.812">
    <comp name="--.HHE">
      <acc value="0.0114123361" flag="0"/>
      <vel value="0.0083171794" flag="0"/>
      <psa03 value="0.0278200732" flag="0"/>
      <psa10 value="0.0216082684" flag="0"/>
      <psa30 value="0.0011101696" flag="0"/>
    </comp>
    <comp name="--.HHN">
      <acc value="0.0093143599" flag="0"/>
      <vel value="0.0066044528" flag="0"/>
      <psa03 value="0.0253113921" flag="0"/>
      <psa10 value="0.0086790962" flag="0"/>
      <psa30 value="0.0009566909" flag="0"/>
    </comp>
    <comp name="--.HHZ">
      <acc value="0.0053761879" flag="0"/>
      <vel value="0.0038700487" flag="0"/>
      <psa03 value="0.0154413006" flag="0"/>
      <psa10 value="0.0051192192" flag="0"/>
      <psa30 value="0.0006198856" flag="0"/>
    </comp>
  </station>
  <station code="VAM" name="VAM" netid="HL" insttype="CMG3ESPC-120s" commtype="DIG" lat="35.407" lon="24.1997">
    <comp name="--.HHN">
      <acc value="0.0859081919" flag="0"/>
      <vel value="0.0265515329" flag="0"/>
      <psa03 value="0.1049334882" flag="0"/>
      <psa10 value="0.0231024354" flag="0"/>
      <psa30 value="0.0013211729" flag="0"/>
    </comp>
    <comp name="--.HHZ">
      <acc value="0.0445443902" flag="0"/>
      <vel value="0.0132756419" flag="0"/>
      <psa03 value="0.0519063347" flag="0"/>
      <psa10 value="0.0140299061" flag="0"/>
      <psa30 value="0.0012054231" flag="0"/>
    </comp>
    <comp name="--.HHE">
      <acc value="0.0532830388" flag="0"/>
      <vel value="0.0187455399" flag="0"/>
      <psa03 value="0.1134594594" flag="0"/>
      <psa10 value="0.0119924600" flag="0"/>
      <psa30 value="0.0008338660" flag="0"/>
    </comp>
  </station>
</stationlist>
