<stationlist created="1778723798">
	<station code="0907" name="0907" netid="TK" source="Turkish National Strong Motion Network (TNSMN)" insttype="" lat="37.91152" lon="28.46544">
		<comp name="00.HNE" depth="None">
			<acc value="6.66413121814442" flag="0"/>
			<vel value="1.77484635372762" flag="0"/>
			<psa03 value="8.39806744004299" flag="0"/>
			<psa10 value="0.641275729953571" flag="0"/>
			<psa30 value="0.043322536402274" flag="0"/>
		</comp>
		<comp name="00.HNN" depth="None">
			<acc value="4.5313892440559" flag="0"/>
			<vel value="1.05251350263114" flag="0"/>
			<psa03 value="2.61509249242475" flag="0"/>
			<psa10 value="0.899864655370071" flag="0"/>
			<psa30 value="0.0517671804794066" flag="0"/>
		</comp>
		<comp name="00.HNZ" depth="None">
			<acc value="1.59485644004319" flag="0"/>
			<vel value="0.360454936312714" flag="0"/>
			<psa03 value="2.73477789512862" flag="0"/>
			<psa10 value="0.300354880450524" flag="0"/>
			<psa30 value="0.0145345058199456" flag="0"/>
		</comp>
	</station>
	<station code="0908" name="0908" netid="TK" source="Turkish National Strong Motion Network (TNSMN)" insttype="" lat="37.91333" lon="28.34308">
		<comp name="00.HNE" depth="None">
			<acc value="2.16110464767113" flag="0"/>
			<vel value="0.682691573359474" flag="0"/>
			<psa03 value="3.99028895504395" flag="0"/>
			<psa10 value="0.550100956150989" flag="0"/>
			<psa30 value="0.042551180760175" flag="0"/>
		</comp>
		<comp name="00.HNN" depth="None">
			<acc value="1.71624771431326" flag="0"/>
			<vel value="0.683155198441985" flag="0"/>
			<psa03 value="3.59982371788629" flag="0"/>
			<psa10 value="0.634152323237876" flag="0"/>
			<psa30 value="0.0485846673226489" flag="0"/>
		</comp>
		<comp name="00.HNZ" depth="None">
			<acc value="1.38006034010748" flag="0"/>
			<vel value="0.307951162658984" flag="0"/>
			<psa03 value="1.01555860582153" flag="0"/>
			<psa10 value="0.222420220430422" flag="0"/>
			<psa30 value="0.0169031582383169" flag="0"/>
		</comp>
	</station>
	<station code="0909" name="0909" netid="TK" source="Turkish National Strong Motion Network (TNSMN)" insttype="" lat="37.88405" lon="28.15056">
		<comp name="00.HNE" depth="None">
			<acc value="0.495425514386694" flag="0"/>
			<vel value="0.167195830765549" flag="0"/>
			<psa03 value="0.807417860633332" flag="0"/>
			<psa10 value="0.125068337582121" flag="0"/>
			<psa30 value="0.010318895112372" flag="0"/>
		</comp>
		<comp name="00.HNN" depth="None">
			<acc value="0.593241768373811" flag="0"/>
			<vel value="0.188511030054345" flag="0"/>
			<psa03 value="0.80437539058329" flag="0"/>
			<psa10 value="0.110954408504387" flag="0"/>
			<psa30 value="0.0215254756040505" flag="0"/>
		</comp>
		<comp name="00.HNZ" depth="None">
			<acc value="0.445282343251645" flag="0"/>
			<vel value="0.0739695359366242" flag="0"/>
			<psa03 value="0.295477532507067" flag="0"/>
			<psa10 value="0.0556745173833803" flag="0"/>
			<psa30 value="0.00520486089590355" flag="0"/>
		</comp>
	</station>
	<station code="2007" name="2007" netid="TK" source="Turkish National Strong Motion Network (TNSMN)" insttype="" lat="37.93252" lon="28.92294">
		<comp name="00.HNE" depth="None">
			<acc value="1.99802688807242" flag="0"/>
			<vel value="0.911854974790838" flag="0"/>
			<psa03 value="4.83640882440209" flag="0"/>
			<psa10 value="0.38927062024095" flag="0"/>
			<psa30 value="0.0736711751514477" flag="0"/>
		</comp>
		<comp name="00.HNN" depth="None">
			<acc value="2.32693017054254" flag="0"/>
			<vel value="1.83955636458055" flag="0"/>
			<psa03 value="7.00237904679262" flag="0"/>
			<psa10 value="0.940716527122884" flag="0"/>
			<psa30 value="0.0790044461803457" flag="0"/>
		</comp>
		<comp name="00.HNZ" depth="None">
			<acc value="0.994543216129057" flag="0"/>
			<vel value="0.244388210405202" flag="0"/>
			<psa03 value="1.29179698948274" flag="0"/>
			<psa10 value="0.194993695195487" flag="0"/>
			<psa30 value="0.0328300415282231" flag="0"/>
		</comp>
	</station>
</stationlist>
