<?xml version="1.0" encoding="UTF-8" standalone="yes"?>
<!DOCTYPE earthquake SYSTEM "stationlist.dtd">
<stationlist created="" xmlns="ch.ethz.sed.shakemap.usgs.xml">
  <station code="TUR2" name="TUR2" netid="Z3" source="GFZ" insttype="CMG-3ESP/60" lat="37.642" lon="27.2418">
    <comp name="--.HHE">
      <acc value="0.0133669843" flag="0"/>
      <vel value="0.0094013724" flag="0"/>
      <psa03 value="0.0221224245" flag="0"/>
      <psa10 value="0.0095900024" flag="0"/>
      <psa30 value="0.0005118475" flag="0"/>
    </comp>
    <comp name="--.HHN">
      <acc value="0.0119524108" flag="0"/>
      <vel value="0.0058134190" flag="0"/>
      <psa03 value="0.0266593722" flag="0"/>
      <psa10 value="0.0073036103" flag="0"/>
      <psa30 value="0.0005225944" flag="0"/>
    </comp>
    <comp name="--.HHZ">
      <acc value="0.0077721188" flag="0"/>
      <vel value="0.0050743203" flag="0"/>
      <psa03 value="0.0181588114" flag="0"/>
      <psa10 value="0.0073216263" flag="0"/>
      <psa30 value="0.0005465408" flag="0"/>
    </comp>
  </station>
  <station code="TUR3" name="TUR3" netid="Z3" source="GFZ" insttype="CMG-3ESP/60" lat="37.4663" lon="27.538">
    <comp name="--.HHE">
      <acc value="0.1009560818" flag="0"/>
      <vel value="0.0740440531" flag="0"/>
      <psa03 value="0.2426258671" flag="0"/>
      <psa10 value="0.0573511922" flag="0"/>
      <psa30 value="0.0027860154" flag="0"/>
    </comp>
    <comp name="--.HHN">
      <acc value="0.0706138191" flag="0"/>
      <vel value="0.0477558393" flag="0"/>
      <psa03 value="0.1808332932" flag="0"/>
      <psa10 value="0.0616720337" flag="0"/>
      <psa30 value="0.0028244193" flag="0"/>
    </comp>
    <comp name="--.HHZ">
      <acc value="0.0375407318" flag="0"/>
      <vel value="0.0188034439" flag="0"/>
      <psa03 value="0.1162293284" flag="0"/>
      <psa10 value="0.0135925248" flag="0"/>
      <psa30 value="0.0009484510" flag="0"/>
    </comp>
  </station>
  <station code="TUR6" name="TUR6" netid="Z3" source="GFZ" insttype="CMG-3ESP/60" lat="37.0159" lon="28.4262">
    <comp name="--.HHE">
      <acc value="0.0044154126" flag="0"/>
      <vel value="0.0036115390" flag="0"/>
      <psa03 value="0.0099536902" flag="0"/>
      <psa10 value="0.0077378033" flag="0"/>
      <psa30 value="0.0009737828" flag="0"/>
    </comp>
    <comp name="--.HHN">
      <acc value="0.0090159143" flag="0"/>
      <vel value="0.0087173572" flag="0"/>
      <psa03 value="0.0144238154" flag="0"/>
      <psa10 value="0.0112585322" flag="0"/>
      <psa30 value="0.0011970390" flag="0"/>
    </comp>
    <comp name="--.HHZ">
      <acc value="0.0039977967" flag="0"/>
      <vel value="0.0037794676" flag="0"/>
      <psa03 value="0.0070870431" flag="0"/>
      <psa10 value="0.0040481085" flag="0"/>
      <psa30 value="0.0008122554" flag="0"/>
    </comp>
  </station>
  <station code="TUR8" name="TUR8" netid="Z3" source="GFZ" insttype="CMG-3ESP/60" lat="36.8273" lon="28.939">
    <comp name="--.HHE">
      <acc value="0.0037587662" flag="0"/>
      <vel value="0.0038059570" flag="0"/>
      <psa03 value="0.0115200568" flag="0"/>
      <psa10 value="0.0049985179" flag="0"/>
      <psa30 value="0.0005183409" flag="0"/>
    </comp>
    <comp name="--.HHN">
      <acc value="0.0058467513" flag="0"/>
      <vel value="0.0035268756" flag="0"/>
      <psa03 value="0.0087476222" flag="0"/>
      <psa10 value="0.0035702468" flag="0"/>
      <psa30 value="0.0011441522" flag="0"/>
    </comp>
    <comp name="--.HHZ">
      <acc value="0.0020686363" flag="0"/>
      <vel value="0.0028125428" flag="0"/>
      <psa03 value="0.0048302857" flag="0"/>
      <psa10 value="0.0032373578" flag="0"/>
      <psa30 value="0.0006998229" flag="0"/>
    </comp>
  </station>
</stationlist>
