<?xml version="1.0" encoding="UTF-8" standalone="yes"?>
<!DOCTYPE earthquake SYSTEM "stationlist.dtd">
<stationlist created="" xmlns="ch.ethz.sed.shakemap.usgs.xml">
  <station code="CEYT" name="CEYT" netid="KO" insttype="CMG-3ESP" lat="37.0105" lon="35.7478">
    <comp name="--.HHE">
      <acc value="0.0557313899" flag="0"/>
      <vel value="0.0271154006" flag="0"/>
      <psa03 value="0.1558318702" flag="0"/>
      <psa10 value="0.0202467692" flag="0"/>
      <psa30 value="0.0014382308" flag="0"/>
    </comp>
    <comp name="--.HHZ">
      <acc value="0.0327081876" flag="0"/>
      <vel value="0.0137747736" flag="0"/>
      <psa03 value="0.0740952921" flag="0"/>
      <psa10 value="0.0148945190" flag="0"/>
      <psa30 value="0.0008452445" flag="0"/>
    </comp>
    <comp name="--.HHN">
      <acc value="0.0600435981" flag="0"/>
      <vel value="0.0302029572" flag="0"/>
      <psa03 value="0.1671577941" flag="0"/>
      <psa10 value="0.0266527892" flag="0"/>
      <psa30 value="0.0021466048" flag="0"/>
    </comp>
  </station>
  <station code="GAZ" name="GAZ" netid="KO" insttype="CMG-3T" lat="37.1721" lon="37.2096">
    <comp name="--.HHZ">
      <acc value="0.0164483055" flag="0"/>
      <vel value="0.0099825464" flag="0"/>
      <psa03 value="0.0786375969" flag="0"/>
      <psa10 value="0.0144450085" flag="0"/>
      <psa30 value="0.0016972594" flag="0"/>
    </comp>
    <comp name="--.HHE">
      <acc value="0.0243390443" flag="0"/>
      <vel value="0.0191380746" flag="0"/>
      <psa03 value="0.1197682850" flag="0"/>
      <psa10 value="0.0316275452" flag="0"/>
      <psa30 value="0.0026438626" flag="0"/>
    </comp>
    <comp name="--.HHN">
      <acc value="0.0310456735" flag="0"/>
      <vel value="0.0195380938" flag="0"/>
      <psa03 value="0.0912734235" flag="0"/>
      <psa10 value="0.0365791198" flag="0"/>
      <psa30 value="0.0017515946" flag="0"/>
    </comp>
  </station>
  <station code="KMRS" name="KMRS" netid="KO" insttype="CMG-3T" lat="37.5053" lon="36.9">
    <comp name="--.HHE">
      <acc value="0.0233142288" flag="0"/>
      <vel value="0.0240334449" flag="0"/>
      <psa03 value="0.0462616489" flag="0"/>
      <psa10 value="0.0301180120" flag="0"/>
      <psa30 value="0.0013984904" flag="0"/>
    </comp>
    <comp name="--.HHN">
      <acc value="0.0239002455" flag="0"/>
      <vel value="0.0162618462" flag="0"/>
      <psa03 value="0.0519394810" flag="0"/>
      <psa10 value="0.0305199275" flag="0"/>
      <psa30 value="0.0021096778" flag="0"/>
    </comp>
    <comp name="--.HHZ">
      <acc value="0.0196470953" flag="0"/>
      <vel value="0.0151315989" flag="0"/>
      <psa03 value="0.0528841328" flag="0"/>
      <psa10 value="0.0240275107" flag="0"/>
      <psa30 value="0.0016028214" flag="0"/>
    </comp>
  </station>
  <station code="KRTS" name="KRTS" netid="KO" insttype="CMG-5T" lat="36.573" lon="35.375">
    <comp name="--.HNE">
      <acc value="0.1231162704" flag="0"/>
      <vel value="0.0482420447" flag="0"/>
      <psa03 value="0.2806724180" flag="0"/>
      <psa10 value="0.0219719151" flag="0"/>
      <psa30 value="0.0022120999" flag="0"/>
    </comp>
    <comp name="--.HNN">
      <acc value="0.1252623936" flag="0"/>
      <vel value="0.0461160513" flag="0"/>
      <psa03 value="0.3304789379" flag="0"/>
      <psa10 value="0.0305524123" flag="0"/>
      <psa30 value="0.0024100590" flag="0"/>
    </comp>
    <comp name="--.HNZ">
      <acc value="0.0978199930" flag="0"/>
      <vel value="0.0288606779" flag="0"/>
      <psa03 value="0.2064970707" flag="0"/>
      <psa10 value="0.0184004969" flag="0"/>
      <psa30 value="0.0019547597" flag="0"/>
    </comp>
  </station>
  <station code="ANDN" name="ANDN" netid="TU" insttype="T" lat="37.58" lon="36.3452">
    <comp name="--.HHE">
      <acc value="0.0497877776" flag="0"/>
      <vel value="0.0309362052" flag="0"/>
      <psa03 value="0.1664559174" flag="0"/>
      <psa10 value="0.0409455216" flag="0"/>
      <psa30 value="0.0031682909" flag="0"/>
    </comp>
    <comp name="--.HHZ">
      <acc value="0.0284180480" flag="0"/>
      <vel value="0.0222855925" flag="0"/>
      <psa03 value="0.0644335307" flag="0"/>
      <psa10 value="0.0262965097" flag="0"/>
      <psa30 value="0.0034039608" flag="0"/>
    </comp>
    <comp name="--.HHN">
      <acc value="0.0617591326" flag="0"/>
      <vel value="0.0438530807" flag="0"/>
      <psa03 value="0.2295408392" flag="0"/>
      <psa10 value="0.0250837531" flag="0"/>
      <psa30 value="0.0038388540" flag="0"/>
    </comp>
  </station>
</stationlist>
