<?xml version="1.0" encoding="UTF-8" standalone="yes"?>
<!DOCTYPE earthquake SYSTEM "stationlist.dtd">
<stationlist created="" xmlns="ch.ethz.sed.shakemap.usgs.xml">
  <station code="ZKR" name="ZKR" netid="GE" insttype="STS-2/N" lat="35.1147" lon="26.2169">
    <comp name="--.HHE">
      <acc value="0.0093555276" flag="0"/>
      <vel value="0.0049887219" flag="0"/>
      <psa03 value="0.0275289922" flag="0"/>
      <psa10 value="0.0044209026" flag="0"/>
      <psa30 value="0.0010191921" flag="0"/>
    </comp>
    <comp name="--.HHN">
      <acc value="0.0061205561" flag="0"/>
      <vel value="0.0023116572" flag="0"/>
      <psa03 value="0.0129521490" flag="0"/>
      <psa10 value="0.0019218817" flag="0"/>
      <psa30 value="0.0002207589" flag="0"/>
    </comp>
    <comp name="--.HHZ">
      <acc value="0.0047017030" flag="0"/>
      <vel value="0.0024329149" flag="0"/>
      <psa03 value="0.0106477713" flag="0"/>
      <psa10 value="0.0033114425" flag="0"/>
      <psa30 value="0.0008293443" flag="0"/>
    </comp>
  </station>
</stationlist>
