<stationlist created="1778070067">
	<station code="NPS1" name="NPS1" netid="HI" source="ITSAK Strong Motion Network" insttype="" lat="36.51263" lon="23.06248">
		<comp name="--.HNE" depth="0.0">
			<acc value="0.012468578829243" flag="0"/>
			<vel value="0.0108476964743495" flag="0"/>
			<psa03 value="0.0540371786560948" flag="0"/>
			<psa10 value="0.0161955341246677" flag="0"/>
			<psa30 value="0.000960311845114383" flag="0"/>
		</comp>
		<comp name="--.HNN" depth="0.0">
			<acc value="0.00962906616509643" flag="0"/>
			<vel value="0.0096784059313467" flag="0"/>
			<psa03 value="0.0287131208533239" flag="0"/>
			<psa10 value="0.00998843512231841" flag="0"/>
			<psa30 value="0.00069101728692002" flag="0"/>
		</comp>
		<comp name="--.HNZ" depth="0.0">
			<acc value="0.00761706641429836" flag="0"/>
			<vel value="0.00308745358510195" flag="0"/>
			<psa03 value="0.0146812707392313" flag="0"/>
			<psa10 value="0.00427726334770087" flag="0"/>
			<psa30 value="0.00063752728513522" flag="0"/>
		</comp>
	</station>
	<station code="IMMV" name="IMMV" netid="HL" source="National Observatory of Athens Seismic Network" insttype="" lat="35.4606" lon="23.9811">
		<comp name="--.HNE" depth="0.0">
			<acc value="0.00426829362793435" flag="0"/>
			<vel value="0.00350536191445334" flag="0"/>
			<psa03 value="0.0121179121272275" flag="0"/>
			<psa10 value="0.00540750150170352" flag="0"/>
			<psa30 value="0.000678056376242719" flag="0"/>
		</comp>
		<comp name="--.HNN" depth="0.0">
			<acc value="0.00509664799639628" flag="0"/>
			<vel value="0.00395486261935013" flag="0"/>
			<psa03 value="0.0134837291683677" flag="0"/>
			<psa10 value="0.0063756445426655" flag="0"/>
			<psa30 value="0.000577880104635629" flag="0"/>
		</comp>
		<comp name="--.HNZ" depth="0.0">
			<acc value="0.00295337915245015" flag="0"/>
			<vel value="0.00220357591434135" flag="0"/>
			<psa03 value="0.00672211588008269" flag="0"/>
			<psa10 value="0.00299810986006297" flag="0"/>
			<psa30 value="0.000484740965875147" flag="0"/>
		</comp>
	</station>
	<station code="PYL" name="PYL" netid="HP" source="University of Patras, Seismological Laboratory (PSLNET)" insttype="" lat="36.8955" lon="21.742">
		<comp name="--.HNE" depth="0.0">
			<acc value="0.00578074803333608" flag="0"/>
			<vel value="0.0028590971690587" flag="0"/>
			<psa03 value="0.0153529363274972" flag="0"/>
			<psa10 value="0.00411636362638664" flag="0"/>
			<psa30 value="0.000511062657475602" flag="0"/>
		</comp>
		<comp name="--.HNN" depth="0.0">
			<acc value="0.00398136497836199" flag="0"/>
			<vel value="0.00321885786100131" flag="0"/>
			<psa03 value="0.0106165529038831" flag="0"/>
			<psa10 value="0.00317489961839196" flag="0"/>
			<psa30 value="0.000500238294581414" flag="0"/>
		</comp>
		<comp name="--.HNZ" depth="0.0">
			<acc value="0.00290296982286474" flag="0"/>
			<vel value="0.00190231145118215" flag="0"/>
			<psa03 value="0.00955361269766876" flag="0"/>
			<psa10 value="0.00284976151708993" flag="0"/>
			<psa30 value="0.000504338566206874" flag="0"/>
		</comp>
	</station>
</stationlist>
