<stationlist created="1653562824">
	<station code="KTHA" name="KTHA" netid="GE" source="GEOFON" insttype="" lat="36.2566" lon="23.0621">
		<comp name=".HNE" depth="0.0">
			<acc value="0.00933263696717" flag="0"/>
			<vel value="0.00829009380921" flag="0"/>
			<psa03 value="0.023627033925" flag="0"/>
			<psa10 value="0.0144778659625" flag="0"/>
			<psa30 value="0.000992596379637" flag="0"/>
		</comp>
		<comp name=".HNN" depth="0.0">
			<acc value="0.00542310337769" flag="0"/>
			<vel value="0.00610266565045" flag="0"/>
			<psa03 value="0.0129656544839" flag="0"/>
			<psa10 value="0.00597775021536" flag="0"/>
			<psa30 value="0.00235901564821" flag="0"/>
		</comp>
		<comp name=".HNZ" depth="0.0">
			<acc value="0.00397026931482" flag="0"/>
			<vel value="0.0047346656008" flag="0"/>
			<psa03 value="0.0087651320793" flag="0"/>
			<psa10 value="0.00462025263156" flag="0"/>
			<psa30 value="0.00133272078621" flag="0"/>
		</comp>
	</station>
	<station code="ABEA" name="ABEA" netid="HC" source="Seismological Network of Crete (HC)" insttype="" lat="35.5163" lon="24.0113">
		<comp name=".HNE" depth="0.0">
			<acc value="0.00630981252148" flag="0"/>
			<vel value="0.00574798963174" flag="0"/>
			<psa03 value="0.0129802023226" flag="0"/>
			<psa10 value="0.01111248396" flag="0"/>
			<psa30 value="0.00182934764364" flag="0"/>
		</comp>
		<comp name=".HNN" depth="0.0">
			<acc value="0.00680325027024" flag="0"/>
			<vel value="0.00633632096522" flag="0"/>
			<psa03 value="0.0119808014818" flag="0"/>
			<psa10 value="0.011056661512" flag="0"/>
			<psa30 value="0.00152541605133" flag="0"/>
		</comp>
		<comp name=".HNZ" depth="0.0">
			<acc value="0.00381063362313" flag="0"/>
			<vel value="0.00394276306313" flag="0"/>
			<psa03 value="0.00880117092499" flag="0"/>
			<psa10 value="0.00631855779218" flag="0"/>
			<psa30 value="0.000938094956688" flag="0"/>
		</comp>
	</station>
	<station code="MULT" name="MULT" netid="HC" source="Seismological Network of Crete (HC)" insttype="" lat="35.5091" lon="24.0118">
		<comp name=".HNE" depth="0.0">
			<acc value="0.00751827626305" flag="0"/>
			<vel value="0.00790482737258" flag="0"/>
			<psa03 value="0.0142346604243" flag="0"/>
			<psa10 value="0.0129640144273" flag="0"/>
			<psa30 value="0.00204804150603" flag="0"/>
		</comp>
		<comp name=".HNN" depth="0.0">
			<acc value="0.0104455216131" flag="0"/>
			<vel value="0.0091590238985" flag="0"/>
			<psa03 value="0.0150702470278" flag="0"/>
			<psa10 value="0.0127378903852" flag="0"/>
			<psa30 value="0.0019329386727" flag="0"/>
		</comp>
		<comp name=".HNZ" depth="0.0">
			<acc value="0.0191410964425" flag="0"/>
			<vel value="0.0109717863746" flag="0"/>
			<psa03 value="0.0135005089258" flag="0"/>
			<psa10 value="0.00840022553621" flag="0"/>
			<psa30 value="0.00561736753969" flag="0"/>
		</comp>
	</station>
	<station code="PASK" name="PASK" netid="HC" source="Seismological Network of Crete (HC)" insttype="" lat="35.4996" lon="24.0121">
		<comp name=".HNE" depth="0.0">
			<acc value="0.00877416163568" flag="0"/>
			<vel value="0.00845432105771" flag="0"/>
			<psa03 value="0.0225528195344" flag="0"/>
			<psa10 value="0.0116162585826" flag="0"/>
			<psa30 value="0.00152087450047" flag="0"/>
		</comp>
		<comp name=".HNN" depth="0.0">
			<acc value="0.00969390823055" flag="0"/>
			<vel value="0.00882629410558" flag="0"/>
			<psa03 value="0.0223355707678" flag="0"/>
			<psa10 value="0.0118875712433" flag="0"/>
			<psa30 value="0.00172570077754" flag="0"/>
		</comp>
		<comp name=".HNZ" depth="0.0">
			<acc value="0.00527234355549" flag="0"/>
			<vel value="0.00369568317226" flag="0"/>
			<psa03 value="0.0176906328551" flag="0"/>
			<psa10 value="0.00658878475591" flag="0"/>
			<psa30 value="0.00124953256707" flag="0"/>
		</comp>
	</station>
	<station code="NPS1" name="NPS1" netid="HI" source="ITSAK Strong Motion Network" insttype="" lat="36.51263" lon="23.06248">
		<comp name=".HNE" depth="0.0">
			<acc value="0.0124389566846" flag="0"/>
			<vel value="0.0107927553552" flag="0"/>
			<psa03 value="0.0540514556437" flag="0"/>
			<psa10 value="0.0162086337424" flag="0"/>
			<psa30 value="0.00101175869071" flag="0"/>
		</comp>
		<comp name=".HNN" depth="0.0">
			<acc value="0.00963192876112" flag="0"/>
			<vel value="0.00974490114017" flag="0"/>
			<psa03 value="0.02872290796" flag="0"/>
			<psa10 value="0.00999135656583" flag="0"/>
			<psa30 value="0.000724442053232" flag="0"/>
		</comp>
		<comp name=".HNZ" depth="0.0">
			<acc value="0.00754828796112" flag="0"/>
			<vel value="0.00309530129379" flag="0"/>
			<psa03 value="0.0146874977142" flag="0"/>
			<psa10 value="0.00430297739489" flag="0"/>
			<psa30 value="0.000683762743844" flag="0"/>
		</comp>
	</station>
	<station code="IMMV" name="IMMV" netid="HL" source="National Observatory of Athens Seismic Network" insttype="" lat="35.4606" lon="23.9811">
		<comp name=".HNE" depth="0.0">
			<acc value="0.00426704931797" flag="0"/>
			<vel value="0.00350323123704" flag="0"/>
			<psa03 value="0.0121180358333" flag="0"/>
			<psa10 value="0.00540742087134" flag="0"/>
			<psa30 value="0.000677934493165" flag="0"/>
		</comp>
		<comp name=".HNN" depth="0.0">
			<acc value="0.00509013658872" flag="0"/>
			<vel value="0.00395201046535" flag="0"/>
			<psa03 value="0.0134840833585" flag="0"/>
			<psa10 value="0.00637552031569" flag="0"/>
			<psa30 value="0.000577733011562" flag="0"/>
		</comp>
		<comp name=".HNZ" depth="0.0">
			<acc value="0.00294709081308" flag="0"/>
			<vel value="0.00220154546877" flag="0"/>
			<psa03 value="0.0067224323073" flag="0"/>
			<psa10 value="0.00299808524906" flag="0"/>
			<psa30 value="0.000484618353589" flag="0"/>
		</comp>
	</station>
	<station code="ITM" name="ITM" netid="HL" source="National Observatory of Athens Seismic Network" insttype="" lat="37.17872" lon="21.92522">
		<comp name=".HNE" depth="0.0">
			<acc value="0.00310745390016" flag="0"/>
			<vel value="0.0022544904927" flag="0"/>
			<psa03 value="0.00786415637843" flag="0"/>
			<psa10 value="0.0038918475033" flag="0"/>
			<psa30 value="0.000962328437037" flag="0"/>
		</comp>
		<comp name=".HNN" depth="0.0">
			<acc value="0.00366578613958" flag="0"/>
			<vel value="0.0021100243988" flag="0"/>
			<psa03 value="0.0122339797119" flag="0"/>
			<psa10 value="0.00226126784477" flag="0"/>
			<psa30 value="0.000589251639196" flag="0"/>
		</comp>
		<comp name=".HNZ" depth="0.0">
			<acc value="0.00201942738807" flag="0"/>
			<vel value="0.00191169853345" flag="0"/>
			<psa03 value="0.00472011053573" flag="0"/>
			<psa10 value="0.00291265669921" flag="0"/>
			<psa30 value="0.000604645367287" flag="0"/>
		</comp>
	</station>
	<station code="KTHA" name="KTHA" netid="HL" source="National Observatory of Athens Seismic Network" insttype="" lat="36.2566" lon="23.0621">
		<comp name=".HNE" depth="0.0">
			<acc value="0.0629660534867" flag="0"/>
			<vel value="0.0553362396863" flag="0"/>
			<psa03 value="0.200923789381" flag="0"/>
			<psa10 value="0.0914949610922" flag="0"/>
			<psa30 value="0.00365718352046" flag="0"/>
		</comp>
		<comp name=".HNN" depth="0.0">
			<acc value="0.0427324764358" flag="0"/>
			<vel value="0.0328994021761" flag="0"/>
			<psa03 value="0.101108864633" flag="0"/>
			<psa10 value="0.0403762659795" flag="0"/>
			<psa30 value="0.00491474641117" flag="0"/>
		</comp>
		<comp name=".HNZ" depth="0.0">
			<acc value="0.0290208475676" flag="0"/>
			<vel value="0.0188230669077" flag="0"/>
			<psa03 value="0.0723570432989" flag="0"/>
			<psa10 value="0.0280636078263" flag="0"/>
			<psa30 value="0.00339065753109" flag="0"/>
		</comp>
	</station>
	<station code="MNVA" name="MNVA" netid="HL" source="National Observatory of Athens Seismic Network" insttype="" lat="36.68709" lon="23.03734">
		<comp name="00.HNE" depth="0.0">
			<acc value="0.00228886148337" flag="0"/>
			<vel value="0.00222627199065" flag="0"/>
			<psa03 value="0.00597817076408" flag="0"/>
			<psa10 value="0.00635806244044" flag="0"/>
			<psa30 value="0.000554833213311" flag="0"/>
		</comp>
		<comp name="00.HNN" depth="0.0">
			<acc value="0.00277449869367" flag="0"/>
			<vel value="0.00243256320883" flag="0"/>
			<psa03 value="0.0101740405167" flag="0"/>
			<psa10 value="0.00466191226631" flag="0"/>
			<psa30 value="0.000633214499438" flag="0"/>
		</comp>
		<comp name="00.HNZ" depth="0.0">
			<acc value="0.00331948061787" flag="0"/>
			<vel value="0.00195704389138" flag="0"/>
			<psa03 value="0.00611195566833" flag="0"/>
			<psa10 value="0.00388222249069" flag="0"/>
			<psa30 value="0.00041305572229" flag="0"/>
		</comp>
	</station>
	<station code="PYL" name="PYL" netid="HP" source="University of Patras, Seismological Laboratory (PSLNET)" insttype="" lat="36.8955" lon="21.742">
		<comp name=".HNE" depth="0.0">
			<acc value="0.0057215225474" flag="0"/>
			<vel value="0.00284678661045" flag="0"/>
			<psa03 value="0.0153529363275" flag="0"/>
			<psa10 value="0.00411636362639" flag="0"/>
			<psa30 value="0.000511062657476" flag="0"/>
		</comp>
		<comp name=".HNN" depth="0.0">
			<acc value="0.00395057897231" flag="0"/>
			<vel value="0.00321497237253" flag="0"/>
			<psa03 value="0.0106165529039" flag="0"/>
			<psa10 value="0.00317489961839" flag="0"/>
			<psa30 value="0.000500238294581" flag="0"/>
		</comp>
		<comp name=".HNZ" depth="0.0">
			<acc value="0.00286654026483" flag="0"/>
			<vel value="0.0019014899514" flag="0"/>
			<psa03 value="0.00955361269767" flag="0"/>
			<psa10 value="0.00284976151709" flag="0"/>
			<psa30 value="0.000504338566207" flag="0"/>
		</comp>
	</station>
	<station code="VALY" name="VALY" netid="HP" source="University of Patras, Seismological Laboratory (PSLNET)" insttype="" lat="37.1641" lon="21.9836">
		<comp name=".HNE" depth="0.0">
			<acc value="0.00232988489977" flag="0"/>
			<vel value="0.00246452182759" flag="0"/>
			<psa03 value="0.0068976307623" flag="0"/>
			<psa10 value="0.00408244825467" flag="0"/>
			<psa30 value="0.000649472555619" flag="0"/>
		</comp>
		<comp name=".HNN" depth="0.0">
			<acc value="0.00310511949804" flag="0"/>
			<vel value="0.00273394517519" flag="0"/>
			<psa03 value="0.0102683937724" flag="0"/>
			<psa10 value="0.00308541212778" flag="0"/>
			<psa30 value="0.000428663631237" flag="0"/>
		</comp>
		<comp name=".HNZ" depth="0.0">
			<acc value="0.00192515174195" flag="0"/>
			<vel value="0.00189867074874" flag="0"/>
			<psa03 value="0.00412727503932" flag="0"/>
			<psa10 value="0.00332982777225" flag="0"/>
			<psa30 value="0.000359961423803" flag="0"/>
		</comp>
	</station>
</stationlist>
