<?xml version="1.0" encoding="UTF-8" standalone="yes"?>
<!DOCTYPE earthquake SYSTEM "stationlist.dtd">
<stationlist created="" xmlns="ch.ethz.sed.shakemap.usgs.xml">
  <station code="KTHA" name="KTHA" netid="GE" insttype="STS-2/N" lat="36.2566" lon="23.0621">
    <comp name="--.HHE">
      <acc value="0.0098025985" flag="0"/>
      <vel value="0.0074973499" flag="0"/>
      <psa03 value="0.0252524939" flag="0"/>
      <psa10 value="0.0131093569" flag="0"/>
      <psa30 value="0.0007625585" flag="0"/>
    </comp>
    <comp name="--.HHZ">
      <acc value="0.0037492708" flag="0"/>
      <vel value="0.0030298016" flag="0"/>
      <psa03 value="0.0085492535" flag="0"/>
      <psa10 value="0.0031757597" flag="0"/>
      <psa30 value="0.0007099806" flag="0"/>
    </comp>
    <comp name="--.HHN">
      <acc value="0.0052801922" flag="0"/>
      <vel value="0.0040599420" flag="0"/>
      <psa03 value="0.0125956295" flag="0"/>
      <psa10 value="0.0058110239" flag="0"/>
      <psa30 value="0.0006667342" flag="0"/>
    </comp>
  </station>
</stationlist>
