<stationlist created="1653570013">
	<station code="NPS1" name="NPS1" netid="HI" source="ITSAK Strong Motion Network" insttype="" lat="36.51263" lon="23.06248">
		<comp name=".HNE" depth="0.0">
			<acc value="0.0124598981594" flag="0"/>
			<vel value="0.0108404813757" flag="0"/>
			<psa03 value="0.0540371786561" flag="0"/>
			<psa10 value="0.0161955341247" flag="0"/>
			<psa30 value="0.000960311845114" flag="0"/>
		</comp>
		<comp name=".HNN" depth="0.0">
			<acc value="0.0096138442433" flag="0"/>
			<vel value="0.00966983418854" flag="0"/>
			<psa03 value="0.0287131208533" flag="0"/>
			<psa10 value="0.00998843512232" flag="0"/>
			<psa30 value="0.00069101728692" flag="0"/>
		</comp>
		<comp name=".HNZ" depth="0.0">
			<acc value="0.00750744491975" flag="0"/>
			<vel value="0.00308454566215" flag="0"/>
			<psa03 value="0.0146812707392" flag="0"/>
			<psa10 value="0.0042772633477" flag="0"/>
			<psa30 value="0.000637527285135" flag="0"/>
		</comp>
	</station>
	<station code="IMMV" name="IMMV" netid="HL" source="National Observatory of Athens Seismic Network" insttype="" lat="35.4606" lon="23.9811">
		<comp name=".HNE" depth="0.0">
			<acc value="0.00425938984906" flag="0"/>
			<vel value="0.00350371483343" flag="0"/>
			<psa03 value="0.0121179121272" flag="0"/>
			<psa10 value="0.0054075015017" flag="0"/>
			<psa30 value="0.000678056376243" flag="0"/>
		</comp>
		<comp name=".HNN" depth="0.0">
			<acc value="0.00508814506919" flag="0"/>
			<vel value="0.00395213549822" flag="0"/>
			<psa03 value="0.0134837291684" flag="0"/>
			<psa10 value="0.00637564454267" flag="0"/>
			<psa30 value="0.000577880104636" flag="0"/>
		</comp>
		<comp name=".HNZ" depth="0.0">
			<acc value="0.00294962314296" flag="0"/>
			<vel value="0.00220146748302" flag="0"/>
			<psa03 value="0.00672211588008" flag="0"/>
			<psa10 value="0.00299810986006" flag="0"/>
			<psa30 value="0.000484740965875" flag="0"/>
		</comp>
	</station>
	<station code="PYL" name="PYL" netid="HP" source="University of Patras, Seismological Laboratory (PSLNET)" insttype="" lat="36.8955" lon="21.742">
		<comp name=".HNE" depth="0.0">
			<acc value="0.0057215225474" flag="0"/>
			<vel value="0.00284678661045" flag="0"/>
			<psa03 value="0.0153529363275" flag="0"/>
			<psa10 value="0.00411636362639" flag="0"/>
			<psa30 value="0.000511062657476" flag="0"/>
		</comp>
		<comp name=".HNN" depth="0.0">
			<acc value="0.00395057897231" flag="0"/>
			<vel value="0.00321497237253" flag="0"/>
			<psa03 value="0.0106165529039" flag="0"/>
			<psa10 value="0.00317489961839" flag="0"/>
			<psa30 value="0.000500238294581" flag="0"/>
		</comp>
		<comp name=".HNZ" depth="0.0">
			<acc value="0.00286654026483" flag="0"/>
			<vel value="0.0019014899514" flag="0"/>
			<psa03 value="0.00955361269767" flag="0"/>
			<psa10 value="0.00284976151709" flag="0"/>
			<psa30 value="0.000504338566207" flag="0"/>
		</comp>
	</station>
</stationlist>
