<?xml version="1.0" encoding="UTF-8" standalone="yes"?>
<!DOCTYPE earthquake SYSTEM "stationlist.dtd">
<stationlist created="" xmlns="ch.ethz.sed.shakemap.usgs.xml">
  <station code="ATHU" name="ATHU" netid="HA" source="NOA" insttype="60" lat="37.9665" lon="23.7845">
    <comp name="--.HHE">
      <acc value="0.0241472867" flag="0"/>
      <vel value="0.0067689119" flag="0"/>
      <psa03 value="0.0328825724" flag="0"/>
      <psa10 value="0.0021285059" flag="0"/>
      <psa30 value="0.0002539126" flag="0"/>
    </comp>
    <comp name="--.HHN">
      <acc value="0.0374661721" flag="0"/>
      <vel value="0.0089379617" flag="0"/>
      <psa03 value="0.0429711779" flag="0"/>
      <psa10 value="0.0027535217" flag="0"/>
      <psa30 value="0.0002794240" flag="0"/>
    </comp>
    <comp name="--.HHZ">
      <acc value="0.0328472082" flag="0"/>
      <vel value="0.0101021136" flag="0"/>
      <psa03 value="0.0452610155" flag="0"/>
      <psa10 value="0.0033129785" flag="0"/>
      <psa30 value="0.0002652508" flag="0"/>
    </comp>
  </station>
  <station code="KARY" name="KARY" netid="HA" source="NOA" insttype="60" lat="38.0321" lon="24.437">
    <comp name="--.HHE">
      <acc value="0.0395575933" flag="0"/>
      <vel value="0.0110781903" flag="0"/>
      <psa03 value="0.0532690857" flag="0"/>
      <psa10 value="0.0027746720" flag="0"/>
      <psa30 value="0.0003749058" flag="0"/>
    </comp>
    <comp name="--.HHN">
      <acc value="0.0321058948" flag="0"/>
      <vel value="0.0071572802" flag="0"/>
      <psa03 value="0.0448405889" flag="0"/>
      <psa10 value="0.0039066226" flag="0"/>
      <psa30 value="0.0003025354" flag="0"/>
    </comp>
    <comp name="--.HHZ">
      <acc value="0.0358992364" flag="0"/>
      <vel value="0.0126476332" flag="0"/>
      <psa03 value="0.0607864696" flag="0"/>
      <psa10 value="0.0061635969" flag="0"/>
      <psa30 value="0.0007315333" flag="0"/>
    </comp>
  </station>
  <station code="LOUT" name="LOUT" netid="HA" source="NOA" insttype="30" lat="37.9879" lon="22.9743">
    <comp name="--.HHE">
      <acc value="0.0261472274" flag="0"/>
      <vel value="0.0108838620" flag="0"/>
      <psa03 value="0.0551450227" flag="0"/>
      <psa10 value="0.0082158586" flag="0"/>
      <psa30 value="0.0004754522" flag="0"/>
    </comp>
    <comp name="--.HHN">
      <acc value="0.0218786646" flag="0"/>
      <vel value="0.0114226964" flag="0"/>
      <psa03 value="0.0487031430" flag="0"/>
      <psa10 value="0.0079308115" flag="0"/>
      <psa30 value="0.0005569610" flag="0"/>
    </comp>
    <comp name="--.HHZ">
      <acc value="0.0141896442" flag="0"/>
      <vel value="0.0044254960" flag="0"/>
      <psa03 value="0.0194097085" flag="0"/>
      <psa10 value="0.0038340330" flag="0"/>
      <psa30 value="0.0002471257" flag="0"/>
    </comp>
  </station>
  <station code="MAGU" name="MAGU" netid="HA" source="NOA" insttype="30" lat="38.0788" lon="23.5134">
    <comp name="--.HHE">
      <acc value="0.0404904900" flag="0"/>
      <vel value="0.0102718759" flag="0"/>
      <psa03 value="0.0565446486" flag="0"/>
      <psa10 value="0.0059354529" flag="0"/>
      <psa30 value="0.0004636327" flag="0"/>
    </comp>
    <comp name="--.HHN">
      <acc value="0.0284972246" flag="0"/>
      <vel value="0.0079605756" flag="0"/>
      <psa03 value="0.0546865229" flag="0"/>
      <psa10 value="0.0050814020" flag="0"/>
      <psa30 value="0.0004020654" flag="0"/>
    </comp>
    <comp name="--.HHZ">
      <acc value="0.0227627691" flag="0"/>
      <vel value="0.0045237530" flag="0"/>
      <psa03 value="0.0338078940" flag="0"/>
      <psa10 value="0.0031927957" flag="0"/>
      <psa30 value="0.0003233974" flag="0"/>
    </comp>
  </station>
  <station code="STFN" name="STFN" netid="HA" source="NOA" insttype="1s-100Hz," lat="38.1766" lon="23.544">
    <comp name="--.HHE">
      <acc value="0.0269042247" flag="0"/>
      <vel value="0.0157692160" flag="0"/>
      <psa03 value="0.0690725679" flag="0"/>
      <psa10 value="0.0171099923" flag="0"/>
      <psa30 value="0.0008920666" flag="0"/>
    </comp>
    <comp name="--.HHN">
      <acc value="0.0257851391" flag="0"/>
      <vel value="0.0092760977" flag="0"/>
      <psa03 value="0.0502987738" flag="0"/>
      <psa10 value="0.0111336159" flag="0"/>
      <psa30 value="0.0004904674" flag="0"/>
    </comp>
    <comp name="--.HHZ">
      <acc value="0.0162848411" flag="0"/>
      <vel value="0.0054504450" flag="0"/>
      <psa03 value="0.0355741782" flag="0"/>
      <psa10 value="0.0057714222" flag="0"/>
      <psa30 value="0.0003148994" flag="0"/>
    </comp>
  </station>
  <station code="VILL" name="VILL" netid="HA" source="NOA" insttype="30" lat="38.1642" lon="23.3122">
    <comp name="--.HHE">
      <acc value="0.0173304594" flag="0"/>
      <vel value="0.0115682823" flag="0"/>
      <psa03 value="0.0525947591" flag="0"/>
      <psa10 value="0.0095059623" flag="0"/>
      <psa30 value="0.0005809838" flag="0"/>
    </comp>
    <comp name="--.HHN">
      <acc value="0.0190797773" flag="0"/>
      <vel value="0.0120461739" flag="0"/>
      <psa03 value="0.0557717171" flag="0"/>
      <psa10 value="0.0082295148" flag="0"/>
      <psa30 value="0.0005801842" flag="0"/>
    </comp>
    <comp name="--.HHZ">
      <acc value="0.0144213069" flag="0"/>
      <vel value="0.0063769161" flag="0"/>
      <psa03 value="0.0206898498" flag="0"/>
      <psa10 value="0.0046138994" flag="0"/>
      <psa30 value="0.0003221479" flag="0"/>
    </comp>
  </station>
  <station code="ATH" name="ATH" netid="HL" source="NOA" insttype="DR24" lat="37.9738" lon="23.7177">
    <comp name="--.HHE">
      <acc value="0.0541455062" flag="0"/>
      <vel value="0.0199254669" flag="0"/>
      <psa03 value="0.1312086552" flag="0"/>
      <psa10 value="0.0064737137" flag="0"/>
      <psa30 value="0.0007380773" flag="0"/>
    </comp>
    <comp name="--.HHN">
      <acc value="0.0411795196" flag="0"/>
      <vel value="0.0173829479" flag="0"/>
      <psa03 value="0.1319120412" flag="0"/>
      <psa10 value="0.0059443687" flag="0"/>
      <psa30 value="0.0004940776" flag="0"/>
    </comp>
    <comp name="--.HHZ">
      <acc value="0.0337799742" flag="0"/>
      <vel value="0.0085950262" flag="0"/>
      <psa03 value="0.0465356585" flag="0"/>
      <psa10 value="0.0041323037" flag="0"/>
      <psa30 value="0.0003343285" flag="0"/>
    </comp>
  </station>
  <station code="DION" name="DION" netid="HL" source="NOA" insttype="30" lat="38.0779" lon="23.9331">
    <comp name="--.HHE">
      <acc value="0.0431342868" flag="0"/>
      <vel value="0.0196762720" flag="0"/>
      <psa03 value="0.0747524028" flag="0"/>
      <psa10 value="0.0114082205" flag="0"/>
      <psa30 value="0.0011381408" flag="0"/>
    </comp>
    <comp name="--.HHN">
      <acc value="0.0536382498" flag="0"/>
      <vel value="0.0193860702" flag="0"/>
      <psa03 value="0.0688469847" flag="0"/>
      <psa10 value="0.0077422377" flag="0"/>
      <psa30 value="0.0007645632" flag="0"/>
    </comp>
    <comp name="--.HHZ">
      <acc value="0.0363462082" flag="0"/>
      <vel value="0.0131521973" flag="0"/>
      <psa03 value="0.0551243104" flag="0"/>
      <psa10 value="0.0073118161" flag="0"/>
      <psa30 value="0.0005262772" flag="0"/>
    </comp>
  </station>
  <station code="MHLO" name="MHLO" netid="HL" source="NOA" insttype="20" lat="36.6898" lon="24.4017">
    <comp name="--.HHE">
      <acc value="0.0573249620" flag="0"/>
      <vel value="0.0233909647" flag="0"/>
      <psa03 value="0.1423770735" flag="0"/>
      <psa10 value="0.0149146271" flag="0"/>
      <psa30 value="0.0007783258" flag="0"/>
    </comp>
    <comp name="--.HHN">
      <acc value="0.0834742730" flag="0"/>
      <vel value="0.0239854901" flag="0"/>
      <psa03 value="0.0902835427" flag="0"/>
      <psa10 value="0.0195046018" flag="0"/>
      <psa30 value="0.0011995632" flag="0"/>
    </comp>
    <comp name="--.HHZ">
      <acc value="0.0301171418" flag="0"/>
      <vel value="0.0110926372" flag="0"/>
      <psa03 value="0.0705605927" flag="0"/>
      <psa10 value="0.0078388535" flag="0"/>
      <psa30 value="0.0004288582" flag="0"/>
    </comp>
  </station>
  <station code="NOAC" name="NOAC" netid="HL" source="NOA" insttype="CMG-5" lat="37.9738" lon="23.7177">
    <comp name="00.HNE">
      <acc value="0.0578334793" flag="0"/>
      <vel value="0.0212601098" flag="0"/>
      <psa03 value="0.1406869399" flag="0"/>
      <psa10 value="0.0068145191" flag="0"/>
      <psa30 value="0.0007755099" flag="0"/>
    </comp>
    <comp name="00.HNN">
      <acc value="0.0421862323" flag="0"/>
      <vel value="0.0182810776" flag="0"/>
      <psa03 value="0.1412849469" flag="0"/>
      <psa10 value="0.0060178866" flag="0"/>
      <psa30 value="0.0005246052" flag="0"/>
    </comp>
    <comp name="00.HNZ">
      <acc value="0.0349961978" flag="0"/>
      <vel value="0.0089933398" flag="0"/>
      <psa03 value="0.0489350548" flag="0"/>
      <psa10 value="0.0042187393" flag="0"/>
      <psa30 value="0.0003335087" flag="0"/>
    </comp>
  </station>
  <station code="PTL" name="PTL" netid="HL" source="NOA" insttype="120" lat="38.0473" lon="23.8638">
    <comp name="--.HHE">
      <acc value="0.0688158325" flag="0"/>
      <vel value="0.0208832671" flag="0"/>
      <psa03 value="0.1000660987" flag="0"/>
      <psa10 value="0.0066821089" flag="0"/>
      <psa30 value="0.0006034211" flag="0"/>
    </comp>
    <comp name="--.HHN">
      <acc value="0.0566485767" flag="0"/>
      <vel value="0.0162056330" flag="0"/>
      <psa03 value="0.0648306362" flag="0"/>
      <psa10 value="0.0070753174" flag="0"/>
      <psa30 value="0.0006464978" flag="0"/>
    </comp>
    <comp name="--.HHZ">
      <acc value="0.0300692024" flag="0"/>
      <vel value="0.0148235485" flag="0"/>
      <psa03 value="0.0607565468" flag="0"/>
      <psa10 value="0.0041820699" flag="0"/>
      <psa30 value="0.0006147370" flag="0"/>
    </comp>
  </station>
  <station code="VLI" name="VLI" netid="HL" source="NOA" insttype="60" lat="36.718" lon="22.9469">
    <comp name="--.HHE">
      <acc value="0.0237697055" flag="0"/>
      <vel value="0.0122658112" flag="0"/>
      <psa03 value="0.0602312315" flag="0"/>
      <psa10 value="0.0109236237" flag="0"/>
      <psa30 value="0.0007514218" flag="0"/>
    </comp>
    <comp name="--.HHZ">
      <acc value="0.0261312496" flag="0"/>
      <vel value="0.0093481039" flag="0"/>
      <psa03 value="0.0494325203" flag="0"/>
      <psa10 value="0.0083037818" flag="0"/>
      <psa30 value="0.0007165933" flag="0"/>
    </comp>
    <comp name="--.HHN">
      <acc value="0.0271476153" flag="0"/>
      <vel value="0.0165530647" flag="0"/>
      <psa03 value="0.0546951813" flag="0"/>
      <psa10 value="0.0146688670" flag="0"/>
      <psa30 value="0.0008853400" flag="0"/>
    </comp>
  </station>
  <station code="VLY" name="VLY" netid="HL" source="NOA" insttype="120P," lat="37.8524" lon="23.7942">
    <comp name="--.HHE">
      <acc value="0.1049244465" flag="0"/>
      <vel value="0.0304640654" flag="0"/>
      <psa03 value="0.1399094909" flag="0"/>
      <psa10 value="0.0121174955" flag="0"/>
      <psa30 value="0.0008977810" flag="0"/>
    </comp>
    <comp name="--.HHN">
      <acc value="0.0918068463" flag="0"/>
      <vel value="0.0253578030" flag="0"/>
      <psa03 value="0.1340325582" flag="0"/>
      <psa10 value="0.0108244485" flag="0"/>
      <psa30 value="0.0007840838" flag="0"/>
    </comp>
    <comp name="--.HHZ">
      <acc value="0.0878858733" flag="0"/>
      <vel value="0.0227124712" flag="0"/>
      <psa03 value="0.1479481397" flag="0"/>
      <psa10 value="0.0066011496" flag="0"/>
      <psa30 value="0.0007319984" flag="0"/>
    </comp>
  </station>
  <station code="YDRA" name="YDRA" netid="HL" source="NOA" insttype="CMG-5" lat="37.3492" lon="23.4653">
    <comp name="00.HNE">
      <acc value="0.1840969469" flag="0"/>
      <vel value="0.0403266536" flag="0"/>
      <psa03 value="0.1562246703" flag="0"/>
      <psa10 value="0.0252778796" flag="0"/>
      <psa30 value="0.0014244076" flag="0"/>
    </comp>
    <comp name="00.HNN">
      <acc value="0.1722567784" flag="0"/>
      <vel value="0.0540132477" flag="0"/>
      <psa03 value="0.2551318770" flag="0"/>
      <psa10 value="0.0154772878" flag="0"/>
      <psa30 value="0.0013327397" flag="0"/>
    </comp>
    <comp name="00.HNZ">
      <acc value="0.1200236177" flag="0"/>
      <vel value="0.0299565388" flag="0"/>
      <psa03 value="0.1136869031" flag="0"/>
      <psa10 value="0.0112949120" flag="0"/>
      <psa30 value="0.0008619546" flag="0"/>
    </comp>
  </station>
  <station code="LTK" name="LTK" netid="HP" source="NOA" insttype="120" lat="38.0228" lon="22.9673">
    <comp name="--.HHE">
      <acc value="0.0026351859" flag="0"/>
      <vel value="0.0017586041" flag="0"/>
      <psa03 value="0.0102769827" flag="0"/>
      <psa10 value="0.0012186830" flag="0"/>
      <psa30 value="0.0000815439" flag="0"/>
    </comp>
    <comp name="--.HHN">
      <acc value="0.0028958169" flag="0"/>
      <vel value="0.0011460643" flag="0"/>
      <psa03 value="0.0075312555" flag="0"/>
      <psa10 value="0.0012253071" flag="0"/>
      <psa30 value="0.0000780485" flag="0"/>
    </comp>
    <comp name="--.HHZ">
      <acc value="0.0021756587" flag="0"/>
      <vel value="0.0010130370" flag="0"/>
      <psa03 value="0.0044534175" flag="0"/>
      <psa10 value="0.0008726783" flag="0"/>
      <psa30 value="0.0000860265" flag="0"/>
    </comp>
  </station>
</stationlist>
