<stationlist xmlns:esm="https://esm-db.eu/esmws/shakemap/1/" created="1780710917">
	<station code="ARS1" name="ARS1" netid="HI" source="ITSAK Strong Motion Network" insttype="" lat="37.6349" lon="22.7293" esm:processing="manual (Paolucci et al 2011)" esm:quality="good">
		<comp name="--.HNE" depth="0.0">
			<acc value="0.0256348253110589" flag="0"/>
			<vel value="0.0201810535798374" flag="0"/>
			<psa03 value="0.0998198629653643" flag="0"/>
			<psa10 value="0.015720621717396" flag="0"/>
			<psa30 value="0.000984775967668161" flag="0"/>
		</comp>
		<comp name="--.HNN" depth="0.0">
			<acc value="0.0359721235491197" flag="0"/>
			<vel value="0.0214234029347971" flag="0"/>
			<psa03 value="0.107649749123562" flag="0"/>
			<psa10 value="0.0164937670477597" flag="0"/>
			<psa30 value="0.0012143034876199" flag="0"/>
		</comp>
		<comp name="--.HNZ" depth="0.0">
			<acc value="0.0193342800805871" flag="0"/>
			<vel value="0.00782434870005766" flag="0"/>
			<psa03 value="0.07870154144154" flag="0"/>
			<psa10 value="0.00487645309932544" flag="0"/>
			<psa30 value="0.000627733158854353" flag="0"/>
		</comp>
	</station>
	<station code="ATH5" name="ATH5" netid="HI" source="ITSAK Strong Motion Network" insttype="" lat="37.975421" lon="23.737098" esm:processing="manual (Paolucci et al 2011)" esm:quality="best">
		<comp name="--.HNE" depth="0.0">
			<acc value="0.034984919319932" flag="0"/>
			<vel value="0.0180548263098717" flag="0"/>
			<psa03 value="0.0929743053527687" flag="0"/>
			<psa10 value="0.00586301875525833" flag="0"/>
			<psa30 value="0.000516772486441039" flag="0"/>
		</comp>
		<comp name="--.HNN" depth="0.0">
			<acc value="0.0394854951784528" flag="0"/>
			<vel value="0.0125490376887026" flag="0"/>
			<psa03 value="0.0761512356642985" flag="0"/>
			<psa10 value="0.00647106534320064" flag="0"/>
			<psa30 value="0.000401337593365898" flag="0"/>
		</comp>
		<comp name="--.HNZ" depth="0.0">
			<acc value="0.0222319608433043" flag="0"/>
			<vel value="0.00661392827274205" flag="0"/>
			<psa03 value="0.0308721225666075" flag="0"/>
			<psa10 value="0.00332613564000232" flag="0"/>
			<psa30 value="0.000287692388555487" flag="0"/>
		</comp>
	</station>
	<station code="GTH2" name="GTH2" netid="HI" source="ITSAK Strong Motion Network" insttype="" lat="36.7603" lon="22.5659" esm:processing="manual (Paolucci et al 2011)" esm:quality="good">
		<comp name="--.HNE" depth="0.0">
			<acc value="0.0280878236244255" flag="0"/>
			<vel value="0.015807129478941" flag="0"/>
			<psa03 value="0.0970263754378587" flag="0"/>
			<psa10 value="0.0103750932365086" flag="0"/>
			<psa30 value="0.000648365711463037" flag="0"/>
		</comp>
		<comp name="--.HNN" depth="0.0">
			<acc value="0.0300531055754244" flag="0"/>
			<vel value="0.0151525943596732" flag="0"/>
			<psa03 value="0.0945885056076135" flag="0"/>
			<psa10 value="0.00787468915950985" flag="0"/>
			<psa30 value="0.000546838569121459" flag="0"/>
		</comp>
		<comp name="--.HNZ" depth="0.0">
			<acc value="0.0163930067123635" flag="0"/>
			<vel value="0.00565860028180272" flag="0"/>
			<psa03 value="0.0420769436410133" flag="0"/>
			<psa10 value="0.0029075151086066" flag="0"/>
			<psa30 value="0.000293829621020351" flag="0"/>
		</comp>
	</station>
	<station code="KIF1" name="KIF1" netid="HI" source="ITSAK Strong Motion Network" insttype="" lat="38.077273" lon="23.814551" esm:processing="automatic (Paolucci et al 2011)" esm:quality="best">
		<comp name="--.HNE" depth="0.0">
			<acc value="0.0451185230044919" flag="0"/>
			<vel value="0.0144076662334721" flag="0"/>
			<psa03 value="0.0863234945495268" flag="0"/>
			<psa10 value="0.00778177159792741" flag="0"/>
			<psa30 value="0.000662378827263186" flag="0"/>
		</comp>
		<comp name="--.HNN" depth="0.0">
			<acc value="0.0731879195491165" flag="0"/>
			<vel value="0.0300522385678035" flag="0"/>
			<psa03 value="0.17655294576618" flag="0"/>
			<psa10 value="0.00966382486846994" flag="0"/>
			<psa30 value="0.00103813470882956" flag="0"/>
		</comp>
		<comp name="--.HNZ" depth="0.0">
			<acc value="0.0287410334129567" flag="0"/>
			<vel value="0.0130059530284541" flag="0"/>
			<psa03 value="0.0934370751643309" flag="0"/>
			<psa10 value="0.00579119129425155" flag="0"/>
			<psa30 value="0.000459051659919561" flag="0"/>
		</comp>
	</station>
	<station code="KOR2" name="KOR2" netid="HI" source="ITSAK Strong Motion Network" insttype="" lat="37.9401" lon="22.9495" esm:processing="automatic (Paolucci et al 2011)" esm:quality="best">
		<comp name="--.HNE" depth="0.0">
			<acc value="0.0305216090029619" flag="0"/>
			<vel value="0.015838979906349" flag="0"/>
			<psa03 value="0.0829448228124392" flag="0"/>
			<psa10 value="0.0142885946742724" flag="0"/>
			<psa30 value="0.00115609012696378" flag="0"/>
		</comp>
		<comp name="--.HNN" depth="0.0">
			<acc value="0.0299821592719072" flag="0"/>
			<vel value="0.0183566117986813" flag="0"/>
			<psa03 value="0.0760170930510087" flag="0"/>
			<psa10 value="0.0245175266658158" flag="0"/>
			<psa30 value="0.00164011156600866" flag="0"/>
		</comp>
		<comp name="--.HNZ" depth="0.0">
			<acc value="0.0254497771887649" flag="0"/>
			<vel value="0.0123084456207989" flag="0"/>
			<psa03 value="0.0692110953120606" flag="0"/>
			<psa10 value="0.0117763988786301" flag="0"/>
			<psa30 value="0.00101400415196526" flag="0"/>
		</comp>
	</station>
	<station code="KYM1" name="KYM1" netid="HI" source="ITSAK Strong Motion Network" insttype="" lat="38.633885" lon="24.10568" esm:processing="manual (Paolucci et al 2011)" esm:quality="good">
		<comp name="--.HNE" depth="0.0">
			<acc value="0.0393965987590767" flag="0"/>
			<vel value="0.0165189088555922" flag="0"/>
			<psa03 value="0.108208605789073" flag="0"/>
			<psa10 value="0.00708243558284857" flag="0"/>
			<psa30 value="0.000667737203062618" flag="0"/>
		</comp>
		<comp name="--.HNN" depth="0.0">
			<acc value="0.0439722422702652" flag="0"/>
			<vel value="0.0206333948097296" flag="0"/>
			<psa03 value="0.184301042372888" flag="0"/>
			<psa10 value="0.0101953813314769" flag="0"/>
			<psa30 value="0.000580681852739572" flag="0"/>
		</comp>
		<comp name="--.HNZ" depth="0.0">
			<acc value="0.0212587760148746" flag="0"/>
			<vel value="0.00810010433800074" flag="0"/>
			<psa03 value="0.0467517012374282" flag="0"/>
			<psa10 value="0.00525040031325312" flag="0"/>
			<psa30 value="0.000414046933785659" flag="0"/>
		</comp>
	</station>
	<station code="LEO1" name="LEO1" netid="HI" source="ITSAK Strong Motion Network" insttype="" lat="37.1689" lon="22.8637" esm:processing="automatic (Paolucci et al 2011)" esm:quality="best">
		<comp name="--.HNE" depth="0.0">
			<acc value="0.0507053267936848" flag="0"/>
			<vel value="0.0208223919065137" flag="0"/>
			<psa03 value="0.129015109117806" flag="0"/>
			<psa10 value="0.00905506672873081" flag="0"/>
			<psa30 value="0.00103933728849456" flag="0"/>
		</comp>
		<comp name="--.HNN" depth="0.0">
			<acc value="0.0376119315277538" flag="0"/>
			<vel value="0.0164883945067832" flag="0"/>
			<psa03 value="0.0956540345270084" flag="0"/>
			<psa10 value="0.00677867342884666" flag="0"/>
			<psa30 value="0.000753948226619827" flag="0"/>
		</comp>
		<comp name="--.HNZ" depth="0.0">
			<acc value="0.0345737087367594" flag="0"/>
			<vel value="0.0111371026325921" flag="0"/>
			<psa03 value="0.0522113077012287" flag="0"/>
			<psa10 value="0.00646488357930912" flag="0"/>
			<psa30 value="0.000500139590126621" flag="0"/>
		</comp>
	</station>
	<station code="MGP1" name="MGP1" netid="HI" source="ITSAK Strong Motion Network" insttype="" lat="37.403248" lon="22.140703" esm:processing="manual (Paolucci et al 2011)" esm:quality="good">
		<comp name="--.HNE" depth="0.0">
			<acc value="0.0107371390437813" flag="0"/>
			<vel value="0.0103940712353381" flag="0"/>
			<psa03 value="0.0286197865454" flag="0"/>
			<psa10 value="0.0124124588269801" flag="0"/>
			<psa30 value="0.00142688858686607" flag="0"/>
		</comp>
		<comp name="--.HNN" depth="0.0">
			<acc value="0.0152871297074187" flag="0"/>
			<vel value="0.0142674587034642" flag="0"/>
			<psa03 value="0.0499501527024739" flag="0"/>
			<psa10 value="0.0179330729780738" flag="0"/>
			<psa30 value="0.00146684248361565" flag="0"/>
		</comp>
		<comp name="--.HNZ" depth="0.0">
			<acc value="0.00622414932791442" flag="0"/>
			<vel value="0.00534449517902119" flag="0"/>
			<psa03 value="0.0183026642846007" flag="0"/>
			<psa10 value="0.00811241459515326" flag="0"/>
			<psa30 value="0.000749782846517171" flag="0"/>
		</comp>
	</station>
	<station code="NMA1" name="NMA1" netid="HI" source="ITSAK Strong Motion Network" insttype="" lat="37.81873" lon="22.662702" esm:processing="automatic (Paolucci et al 2011)" esm:quality="best">
		<comp name="--.HNE" depth="0.0">
			<acc value="0.0188276554816413" flag="0"/>
			<vel value="0.0108578300452741" flag="0"/>
			<psa03 value="0.0567782508637998" flag="0"/>
			<psa10 value="0.013680100927048" flag="0"/>
			<psa30 value="0.000709935467240522" flag="0"/>
		</comp>
		<comp name="--.HNN" depth="0.0">
			<acc value="0.0231980776964623" flag="0"/>
			<vel value="0.0124704761624716" flag="0"/>
			<psa03 value="0.0872210175476873" flag="0"/>
			<psa10 value="0.012885008881102" flag="0"/>
			<psa30 value="0.00088665634079776" flag="0"/>
		</comp>
		<comp name="--.HNZ" depth="0.0">
			<acc value="0.0118497533821048" flag="0"/>
			<vel value="0.00758632792864447" flag="0"/>
			<psa03 value="0.0345321599819571" flag="0"/>
			<psa10 value="0.00747177184321506" flag="0"/>
			<psa30 value="0.00072240848101647" flag="0"/>
		</comp>
	</station>
	<station code="NPS1" name="NPS1" netid="HI" source="ITSAK Strong Motion Network" insttype="" lat="36.51263" lon="23.06248" esm:processing="manual (Paolucci et al 2011)" esm:quality="best">
		<comp name="--.HNE" depth="0.0">
			<acc value="0.0222764158305831" flag="0"/>
			<vel value="0.0137155685231032" flag="0"/>
			<psa03 value="0.076061751251062" flag="0"/>
			<psa10 value="0.017339394752845" flag="0"/>
			<psa30 value="0.00127157351209128" flag="0"/>
		</comp>
		<comp name="--.HNN" depth="0.0">
			<acc value="0.0278672033413949" flag="0"/>
			<vel value="0.0172192053070666" flag="0"/>
			<psa03 value="0.0753458759451696" flag="0"/>
			<psa10 value="0.010397193973954" flag="0"/>
			<psa30 value="0.00100490996064638" flag="0"/>
		</comp>
		<comp name="--.HNZ" depth="0.0">
			<acc value="0.0187432010526203" flag="0"/>
			<vel value="0.00759855087322412" flag="0"/>
			<psa03 value="0.0461292150234382" flag="0"/>
			<psa10 value="0.00796098082358909" flag="0"/>
			<psa30 value="0.000429077761469226" flag="0"/>
		</comp>
	</station>
	<station code="PER1" name="PER1" netid="HI" source="ITSAK Strong Motion Network" insttype="" lat="38.0119" lon="23.7027" esm:processing="automatic (Paolucci et al 2011)" esm:quality="best">
		<comp name="--.HNE" depth="0.0">
			<acc value="0.0919430891054014" flag="0"/>
			<vel value="0.0335629567968426" flag="0"/>
			<psa03 value="0.13502800744281" flag="0"/>
			<psa10 value="0.00868178293801166" flag="0"/>
			<psa30 value="0.000682675796837808" flag="0"/>
		</comp>
		<comp name="--.HNN" depth="0.0">
			<acc value="0.104154365704083" flag="0"/>
			<vel value="0.0328518011556183" flag="0"/>
			<psa03 value="0.202074948973637" flag="0"/>
			<psa10 value="0.00804801439145583" flag="0"/>
			<psa30 value="0.000560095749427925" flag="0"/>
		</comp>
		<comp name="--.HNZ" depth="0.0">
			<acc value="0.0365600406243736" flag="0"/>
			<vel value="0.0107471861737338" flag="0"/>
			<psa03 value="0.060174215413118" flag="0"/>
			<psa10 value="0.00318342088601028" flag="0"/>
			<psa30 value="0.000240999063963559" flag="0"/>
		</comp>
	</station>
	<station code="PIR1" name="PIR1" netid="HI" source="ITSAK Strong Motion Network" insttype="" lat="37.93723" lon="23.642595" esm:processing="automatic (Paolucci et al 2011)" esm:quality="best">
		<comp name="--.HNE" depth="0.0">
			<acc value="0.118204037530565" flag="0"/>
			<vel value="0.0328867916846584" flag="0"/>
			<psa03 value="0.159142031961922" flag="0"/>
			<psa10 value="0.00714364385634629" flag="0"/>
			<psa30 value="0.000655745939950287" flag="0"/>
		</comp>
		<comp name="--.HNN" depth="0.0">
			<acc value="0.105484598653592" flag="0"/>
			<vel value="0.0252933858155285" flag="0"/>
			<psa03 value="0.12967126716839" flag="0"/>
			<psa10 value="0.0103056555116001" flag="0"/>
			<psa30 value="0.000654369598774439" flag="0"/>
		</comp>
		<comp name="--.HNZ" depth="0.0">
			<acc value="0.0624649940569777" flag="0"/>
			<vel value="0.0207909667146276" flag="0"/>
			<psa03 value="0.0828948455433571" flag="0"/>
			<psa10 value="0.00391850192527154" flag="0"/>
			<psa30 value="0.000372161528874814" flag="0"/>
		</comp>
	</station>
	<station code="PIR2" name="PIR2" netid="HI" source="ITSAK Strong Motion Network" insttype="" lat="37.9458" lon="23.6709" esm:processing="manual (Paolucci et al 2011)" esm:quality="good">
		<comp name="--.HNE" depth="0.0">
			<acc value="0.21215887868145" flag="0"/>
			<vel value="0.0713660207943396" flag="0"/>
			<psa03 value="0.416762858494009" flag="0"/>
			<psa10 value="0.0187323052982926" flag="0"/>
			<psa30 value="0.00152750681482987" flag="0"/>
		</comp>
		<comp name="--.HNN" depth="0.0">
			<acc value="0.205093714862652" flag="0"/>
			<vel value="0.0782873292678415" flag="0"/>
			<psa03 value="0.449656870894229" flag="0"/>
			<psa10 value="0.0227368674558822" flag="0"/>
			<psa30 value="0.00167394516148498" flag="0"/>
		</comp>
		<comp name="--.HNZ" depth="0.0">
			<acc value="0.251233259144942" flag="0"/>
			<vel value="0.0699403113897112" flag="0"/>
			<psa03 value="0.255439567451045" flag="0"/>
			<psa10 value="0.0104256184585566" flag="0"/>
			<psa30 value="0.0010850327114254" flag="0"/>
		</comp>
	</station>
	<station code="PIR3" name="PIR3" netid="HI" source="ITSAK Strong Motion Network" insttype="" lat="37.9573" lon="23.6519" esm:processing="manual (Paolucci et al 2011)" esm:quality="good">
		<comp name="--.HNE" depth="0.0">
			<acc value="0.0478966122401725" flag="0"/>
			<vel value="0.0157494998777832" flag="0"/>
			<psa03 value="0.112901552090401" flag="0"/>
			<psa10 value="0.00662509888028652" flag="0"/>
			<psa30 value="0.000493279187741966" flag="0"/>
		</comp>
		<comp name="--.HNN" depth="0.0">
			<acc value="0.073499391168096" flag="0"/>
			<vel value="0.0197269205309697" flag="0"/>
			<psa03 value="0.106312261415565" flag="0"/>
			<psa10 value="0.00533232917813834" flag="0"/>
			<psa30 value="0.000577845727360184" flag="0"/>
		</comp>
		<comp name="--.HNZ" depth="0.0">
			<acc value="0.0395833673822388" flag="0"/>
			<vel value="0.013783785366675" flag="0"/>
			<psa03 value="0.0707673702826396" flag="0"/>
			<psa10 value="0.00413132946155131" flag="0"/>
			<psa30 value="0.00037802379222099" flag="0"/>
		</comp>
	</station>
	<station code="SFIR" name="SFIR" netid="HI" source="ITSAK Strong Motion Network" insttype="" lat="36.421468" lon="25.428495" esm:processing="manual (Paolucci et al 2011)" esm:quality="good">
		<comp name="--.HNE" depth="0.0">
			<acc value="0.00517802963918723" flag="0"/>
			<vel value="0.0043065121191446" flag="0"/>
			<psa03 value="0.0155498048378394" flag="0"/>
			<psa10 value="0.0120462292535682" flag="0"/>
			<psa30 value="0.000666800161821568" flag="0"/>
		</comp>
		<comp name="--.HNN" depth="0.0">
			<acc value="0.00477845111722073" flag="0"/>
			<vel value="0.00377686305325718" flag="0"/>
			<psa03 value="0.012457011413787" flag="0"/>
			<psa10 value="0.008108727163379" flag="0"/>
			<psa30 value="0.000536129213845898" flag="0"/>
		</comp>
		<comp name="--.HNZ" depth="0.0">
			<acc value="0.00397918416123211" flag="0"/>
			<vel value="0.00198972639242969" flag="0"/>
			<psa03 value="0.00848913267587727" flag="0"/>
			<psa10 value="0.00226457392315846" flag="0"/>
			<psa30 value="0.000368412921172951" flag="0"/>
		</comp>
	</station>
	<station code="THV2" name="THV2" netid="HI" source="ITSAK Strong Motion Network" insttype="" lat="38.316117" lon="23.319807" esm:processing="manual (Paolucci et al 2011)" esm:quality="good">
		<comp name="--.HNE" depth="0.0">
			<acc value="0.0170861710908662" flag="0"/>
			<vel value="0.0101571560586137" flag="0"/>
			<psa03 value="0.0363939395657174" flag="0"/>
			<psa10 value="0.00648083291712448" flag="0"/>
			<psa30 value="0.000617797488551623" flag="0"/>
		</comp>
		<comp name="--.HNN" depth="0.0">
			<acc value="0.0238336807349814" flag="0"/>
			<vel value="0.00802200003914794" flag="0"/>
			<psa03 value="0.0362011116876501" flag="0"/>
			<psa10 value="0.00945704367023039" flag="0"/>
			<psa30 value="0.000698065722594859" flag="0"/>
		</comp>
		<comp name="--.HNZ" depth="0.0">
			<acc value="0.0164234519084032" flag="0"/>
			<vel value="0.00645216822181087" flag="0"/>
			<psa03 value="0.0306726334739342" flag="0"/>
			<psa10 value="0.00723372669889251" flag="0"/>
			<psa30 value="0.000442686617482481" flag="0"/>
		</comp>
	</station>
	<station code="TRP1" name="TRP1" netid="HI" source="ITSAK Strong Motion Network" insttype="" lat="37.511219" lon="22.363399" esm:processing="manual (Paolucci et al 2011)" esm:quality="good">
		<comp name="--.HNE" depth="0.0">
			<acc value="0.0120014418871037" flag="0"/>
			<vel value="0.00548513839316708" flag="0"/>
			<psa03 value="0.0214272710140451" flag="0"/>
			<psa10 value="0.00463795333539657" flag="0"/>
			<psa30 value="0.000310219118202438" flag="0"/>
		</comp>
		<comp name="--.HNN" depth="0.0">
			<acc value="0.0149279042498556" flag="0"/>
			<vel value="0.007591465023906" flag="0"/>
			<psa03 value="0.0511482789474575" flag="0"/>
			<psa10 value="0.0041580256050398" flag="0"/>
			<psa30 value="0.000513851227621979" flag="0"/>
		</comp>
		<comp name="--.HNZ" depth="0.0">
			<acc value="0.00597298844768842" flag="0"/>
			<vel value="0.00275722543470206" flag="0"/>
			<psa03 value="0.0125141115505575" flag="0"/>
			<psa10 value="0.00282372705805946" flag="0"/>
			<psa30 value="0.000244212818525693" flag="0"/>
		</comp>
	</station>
	<station code="ITM" name="ITM" netid="HL" source="National Observatory of Athens Seismic Network" insttype="" lat="37.17872" lon="21.92522" esm:processing="manual (Paolucci et al 2011)" esm:quality="bad">
		<comp name="--.HNE" depth="0.0">
			<acc value="0.00339745564960392" flag="0"/>
			<vel value="0.00246315131681415" flag="0"/>
			<psa03 value="0.010380191935439" flag="0"/>
			<psa10 value="0.00275030344082516" flag="0"/>
			<psa30 value="0.000292166609217315" flag="0"/>
		</comp>
		<comp name="--.HNN" depth="0.0">
			<acc value="0.00350862924958989" flag="0"/>
			<vel value="0.00229884566546823" flag="0"/>
			<psa03 value="0.012841013299444" flag="0"/>
			<psa10 value="0.00240399876159974" flag="0"/>
			<psa30 value="0.00016957296308325" flag="0"/>
		</comp>
		<comp name="--.HNZ" depth="0.0">
			<acc value="0.00236111555509857" flag="0"/>
			<vel value="0.00168535027342033" flag="0"/>
			<psa03 value="0.00514535376110125" flag="0"/>
			<psa10 value="0.00181205936804001" flag="0"/>
			<psa30 value="0.000166888430686154" flag="0"/>
		</comp>
	</station>
	<station code="KYMI" name="KYMI" netid="HL" source="National Observatory of Athens Seismic Network" insttype="" lat="38.633147" lon="24.100138" esm:processing="manual (Paolucci et al 2011)" esm:quality="best">
		<comp name="--.HNE" depth="1.0">
			<acc value="0.00948329905269891" flag="0"/>
			<vel value="0.00710996183278827" flag="0"/>
			<psa03 value="0.031274802426172" flag="0"/>
			<psa10 value="0.00713146031288633" flag="0"/>
			<psa30 value="0.000346304679225423" flag="0"/>
		</comp>
		<comp name="--.HNN" depth="1.0">
			<acc value="0.0088723073378705" flag="0"/>
			<vel value="0.00430024591454977" flag="0"/>
			<psa03 value="0.0217447124164801" flag="0"/>
			<psa10 value="0.00399861100547495" flag="0"/>
			<psa30 value="0.000312748024261719" flag="0"/>
		</comp>
		<comp name="--.HNZ" depth="1.0">
			<acc value="0.00585308133404733" flag="0"/>
			<vel value="0.00296975255132062" flag="0"/>
			<psa03 value="0.0119014269604603" flag="0"/>
