<?xml version="1.0" encoding="UTF-8" standalone="yes"?>
<!DOCTYPE earthquake SYSTEM "stationlist.dtd">
<stationlist created="" xmlns="ch.ethz.sed.shakemap.usgs.xml">
  <station code="DARE" name="DARE" netid="KO" insttype="CMG-3ESP" lat="38.5712" lon="37.4832">
    <comp name="--.HHZ">
      <acc value="0.0039271649" flag="0"/>
      <vel value="0.0025773323" flag="0"/>
      <psa03 value="0.0125600059" flag="0"/>
      <psa10 value="0.0030099653" flag="0"/>
      <psa30 value="0.0002177702" flag="0"/>
    </comp>
  </station>
  <station code="GAZ" name="GAZ" netid="KO" insttype="CMG-3T" lat="37.1721" lon="37.2096">
    <comp name="--.HHE">
      <acc value="0.0875503151" flag="0"/>
      <vel value="0.0257036807" flag="0"/>
      <psa03 value="0.1694000680" flag="0"/>
      <psa10 value="0.0187741103" flag="0"/>
      <psa30 value="0.0013247435" flag="0"/>
    </comp>
    <comp name="--.HHN">
      <acc value="0.0508389365" flag="0"/>
      <vel value="0.0193828914" flag="0"/>
      <psa03 value="0.0697330947" flag="0"/>
      <psa10 value="0.0185463618" flag="0"/>
      <psa30 value="0.0009336580" flag="0"/>
    </comp>
  </station>
  <station code="KHMN" name="KHMN" netid="KO" insttype="CMG-5T" lat="37.3916" lon="37.1574">
    <comp name="--.HNZ">
      <acc value="0.4781326829" flag="0"/>
      <vel value="0.0970966825" flag="0"/>
      <psa03 value="0.2805368014" flag="0"/>
      <psa10 value="0.0499930766" flag="0"/>
      <psa30 value="0.0053431868" flag="0"/>
    </comp>
    <comp name="--.HNE">
      <acc value="1.1100107690" flag="0"/>
      <vel value="0.1720445487" flag="0"/>
      <psa03 value="0.8389765903" flag="0"/>
      <psa10 value="0.0572513873" flag="0"/>
      <psa30 value="0.0042637930" flag="0"/>
    </comp>
    <comp name="--.HNN">
      <acc value="0.6947430218" flag="0"/>
      <vel value="0.1587944262" flag="0"/>
      <psa03 value="0.8335378153" flag="0"/>
      <psa10 value="0.1023845193" flag="0"/>
      <psa30 value="0.0079330157" flag="0"/>
    </comp>
  </station>
  <station code="KMRS" name="KMRS" netid="KO" insttype="CMG-3T" lat="37.5053" lon="36.9">
    <comp name="--.HHN">
      <acc value="0.1230829785" flag="0"/>
      <vel value="0.0384427366" flag="0"/>
      <psa03 value="0.1465985397" flag="0"/>
      <psa10 value="0.0200157662" flag="0"/>
      <psa30 value="0.0016592842" flag="0"/>
    </comp>
    <comp name="--.HHZ">
      <acc value="0.1034737475" flag="0"/>
      <vel value="0.0425337521" flag="0"/>
      <psa03 value="0.1749922872" flag="0"/>
      <psa10 value="0.0098506856" flag="0"/>
      <psa30 value="0.0016406990" flag="0"/>
    </comp>
    <comp name="--.HHE">
      <acc value="0.1002233451" flag="0"/>
      <vel value="0.0342757279" flag="0"/>
      <psa03 value="0.1491623460" flag="0"/>
      <psa10 value="0.0216061460" flag="0"/>
      <psa30 value="0.0021552173" flag="0"/>
    </comp>
  </station>
  <station code="SARI" name="SARI" netid="KO" insttype="CMG-3T" lat="38.4072" lon="36.4181">
    <comp name="--.HHE">
      <acc value="0.0299418371" flag="0"/>
      <vel value="0.0110045687" flag="0"/>
      <psa03 value="0.0422503820" flag="0"/>
      <psa10 value="0.0065028893" flag="0"/>
      <psa30 value="0.0004375563" flag="0"/>
    </comp>
  </station>
  <station code="ANDN" name="ANDN" netid="TU" insttype="T" lat="37.58" lon="36.3452">
    <comp name="--.HHN">
      <acc value="0.1128865529" flag="0"/>
      <vel value="0.0284419717" flag="0"/>
      <psa03 value="0.1597947389" flag="0"/>
      <psa10 value="0.0102403657" flag="0"/>
      <psa30 value="0.0008370520" flag="0"/>
    </comp>
    <comp name="--.HHE">
      <acc value="0.0841182923" flag="0"/>
      <vel value="0.0201526340" flag="0"/>
      <psa03 value="0.0991064015" flag="0"/>
      <psa10 value="0.0066610010" flag="0"/>
      <psa30 value="0.0005609929" flag="0"/>
    </comp>
    <comp name="--.HHZ">
      <acc value="0.0374976193" flag="0"/>
      <vel value="0.0109302492" flag="0"/>
      <psa03 value="0.0528149582" flag="0"/>
      <psa10 value="0.0116952018" flag="0"/>
      <psa30 value="0.0005560019" flag="0"/>
    </comp>
  </station>
</stationlist>
