<?xml version="1.0" encoding="UTF-8" standalone="yes"?>
<!DOCTYPE earthquake SYSTEM "stationlist.dtd">
<stationlist created="" xmlns="ch.ethz.sed.shakemap.usgs.xml">
  <station code="CMRD" name="CMRD" netid="KO" insttype="CMG-5T" lat="37.6623" lon="34.9902">
    <comp name="--.HNN">
      <acc value="0.0665749585" flag="0"/>
      <vel value="0.0112904283" flag="0"/>
      <psa03 value="0.0668228959" flag="0"/>
      <psa10 value="0.0058068838" flag="0"/>
      <psa30 value="0.0010258099" flag="0"/>
    </comp>
    <comp name="--.HNE">
      <acc value="0.1062168250" flag="0"/>
      <vel value="0.0149929899" flag="0"/>
      <psa03 value="0.0356394795" flag="0"/>
      <psa10 value="0.0068294040" flag="0"/>
      <psa30 value="0.0005230274" flag="0"/>
    </comp>
    <comp name="--.HNZ">
      <acc value="0.0814964139" flag="0"/>
      <vel value="0.0142678109" flag="0"/>
      <psa03 value="0.0335901133" flag="0"/>
      <psa10 value="0.0133105852" flag="0"/>
      <psa30 value="0.0015075971" flag="0"/>
    </comp>
  </station>
</stationlist>
