<?xml version="1.0" encoding="UTF-8" standalone="yes"?>
<!DOCTYPE earthquake SYSTEM "stationlist.dtd">
<stationlist created="" xmlns="ch.ethz.sed.shakemap.usgs.xml">
  <station code="KRL1" name="KRL1" netid="HI" insttype="CMG-5TD,ACCELEROMETER,GURALP" lat="37.7951" lon="26.7065">
    <comp name="--.HNZ">
      <acc value="0.1065588118" flag="0"/>
      <vel value="0.0184643518" flag="0"/>
      <psa03 value="0.1053279081" flag="0"/>
      <psa10 value="0.0138601239" flag="0"/>
      <psa30 value="0.0007565023" flag="0"/>
    </comp>
    <comp name="--.HNN">
      <acc value="0.2810860145" flag="0"/>
      <vel value="0.0766554150" flag="0"/>
      <psa03 value="0.3046061362" flag="0"/>
      <psa10 value="0.0324541720" flag="0"/>
      <psa30 value="0.0028629339" flag="0"/>
    </comp>
    <comp name="--.HNE">
      <acc value="0.3104694288" flag="0"/>
      <vel value="0.0605649135" flag="0"/>
      <psa03 value="0.2319226458" flag="0"/>
      <psa10 value="0.0175482405" flag="0"/>
      <psa30 value="0.0012930712" flag="0"/>
    </comp>
  </station>
  <station code="EAG2" name="EAG2" netid="HL" insttype="SMART24" lat="38.5438" lon="26.1079">
    <comp name="--.HHN">
      <acc value="0.1253187032" flag="0"/>
      <vel value="0.0718678140" flag="0"/>
      <psa03 value="0.5941886854" flag="0"/>
      <psa10 value="0.0335111401" flag="0"/>
      <psa30 value="0.0020253188" flag="0"/>
    </comp>
    <comp name="--.HHE">
      <acc value="0.1571010082" flag="0"/>
      <vel value="0.0903334341" flag="0"/>
      <psa03 value="0.4069885120" flag="0"/>
      <psa10 value="0.0401964172" flag="0"/>
      <psa30 value="0.0038312298" flag="0"/>
    </comp>
    <comp name="--.HHZ">
      <acc value="0.0767515473" flag="0"/>
      <vel value="0.0283962604" flag="0"/>
      <psa03 value="0.2416449462" flag="0"/>
      <psa10 value="0.0164737708" flag="0"/>
      <psa30 value="0.0007342453" flag="0"/>
    </comp>
  </station>
  <station code="CHOS" name="CHOS" netid="HT" insttype="100" lat="38.3869" lon="26.0506">
    <comp name="--.HHZ">
      <acc value="0.0064529838" flag="0"/>
      <vel value="0.0025654312" flag="0"/>
      <psa03 value="0.0130875269" flag="0"/>
      <psa10 value="0.0021650950" flag="0"/>
      <psa30 value="0.0001490640" flag="0"/>
    </comp>
    <comp name="--.HHN">
      <acc value="0.0196508752" flag="0"/>
      <vel value="0.0071616222" flag="0"/>
      <psa03 value="0.0328165259" flag="0"/>
      <psa10 value="0.0050441004" flag="0"/>
      <psa30 value="0.0002310245" flag="0"/>
    </comp>
    <comp name="--.HHE">
      <acc value="0.0401958261" flag="0"/>
      <vel value="0.0131369020" flag="0"/>
      <psa03 value="0.0681052444" flag="0"/>
      <psa10 value="0.0059675589" flag="0"/>
      <psa30 value="0.0003064295" flag="0"/>
    </comp>
  </station>
  <station code="CESE" name="CESE" netid="KO" insttype="100" lat="38.3306" lon="26.2997">
    <comp name="--.HNZ">
      <acc value="0.0020171034" flag="0"/>
      <vel value="0.0005332922" flag="0"/>
      <psa03 value="0.0040896779" flag="0"/>
      <psa10 value="0.0001926487" flag="0"/>
      <psa30 value="0.0000346037" flag="0"/>
    </comp>
    <comp name="--.HNN">
      <acc value="0.0023893727" flag="0"/>
      <vel value="0.0011717153" flag="0"/>
      <psa03 value="0.0075066243" flag="0"/>
      <psa10 value="0.0007131535" flag="0"/>
      <psa30 value="0.0000534706" flag="0"/>
    </comp>
    <comp name="--.HNE">
      <acc value="0.0018653094" flag="0"/>
      <vel value="0.0005861143" flag="0"/>
      <psa03 value="0.0032985199" flag="0"/>
      <psa10 value="0.0003162965" flag="0"/>
      <psa30 value="0.0000414416" flag="0"/>
    </comp>
  </station>
  <station code="GMLD" name="GMLD" netid="KO" insttype="100" lat="38.0764" lon="26.8747">
    <comp name="--.HNN">
      <acc value="0.1412345489" flag="0"/>
      <vel value="0.0439772608" flag="0"/>
      <psa03 value="0.1804496856" flag="0"/>
      <psa10 value="0.0202534358" flag="0"/>
      <psa30 value="0.0012318228" flag="0"/>
    </comp>
    <comp name="--.HNE">
      <acc value="0.1624141008" flag="0"/>
      <vel value="0.0468725545" flag="0"/>
      <psa03 value="0.1369867321" flag="0"/>
      <psa10 value="0.0143109942" flag="0"/>
      <psa30 value="0.0010668261" flag="0"/>
    </comp>
    <comp name="--.HNZ">
      <acc value="0.1072887656" flag="0"/>
      <vel value="0.0203663566" flag="0"/>
      <psa03 value="0.1286339010" flag="0"/>
      <psa10 value="0.0049602601" flag="0"/>
      <psa30 value="0.0004379408" flag="0"/>
    </comp>
  </station>
  <station code="AYDN" name="AYDN" netid="TU" source="ODC" insttype="T" lat="37.6608" lon="27.8792">
    <comp name="--.HHN">
      <acc value="0.0271428633" flag="0"/>
      <vel value="0.0093551641" flag="0"/>
      <psa03 value="0.0751044033" flag="0"/>
      <psa10 value="0.0049313056" flag="0"/>
      <psa30 value="0.0003284967" flag="0"/>
    </comp>
    <comp name="--.HHZ">
      <acc value="0.0155931909" flag="0"/>
      <vel value="0.0041998008" flag="0"/>
      <psa03 value="0.0219364134" flag="0"/>
      <psa10 value="0.0031338715" flag="0"/>
      <psa30 value="0.0003086564" flag="0"/>
    </comp>
    <comp name="--.HHE">
      <acc value="0.0320711377" flag="0"/>
      <vel value="0.0077153718" flag="0"/>
      <psa03 value="0.0473993588" flag="0"/>
      <psa10 value="0.0026897429" flag="0"/>
      <psa30 value="0.0003911343" flag="0"/>
    </comp>
  </station>
</stationlist>
