<stationlist created="1631873493">
	<station code="KRL1" name="KRL1" netid="HI" source="ITSAK Strong Motion Network" insttype="" lat="37.7951" lon="26.7065">
		<comp name="--.HNE" depth="0.0">
			<acc value="0.306269484" flag="0"/>
			<vel value="-0.061148" flag="0"/>
			<psa03 value="0.238118023622" flag="0"/>
			<psa10 value="0.0176212706545" flag="0"/>
			<psa30 value="0.00137090121078" flag="0"/>
		</comp>
		<comp name="--.HNN" depth="0.0">
			<acc value="-0.2751552" flag="0"/>
			<vel value="-0.07716" flag="0"/>
			<psa03 value="0.309079163319" flag="0"/>
			<psa10 value="0.0325083450626" flag="0"/>
			<psa30 value="0.00282010128315" flag="0"/>
		</comp>
		<comp name="--.HNZ" depth="0.0">
			<acc value="-0.096523314" flag="0"/>
			<vel value="0.018665" flag="0"/>
			<psa03 value="0.106486451751" flag="0"/>
			<psa10 value="0.0139045355508" flag="0"/>
			<psa30 value="0.000812518472188" flag="0"/>
		</comp>
	</station>
	<station code="KLNA" name="KLNA" netid="HL" source="National Observatory of Athens Seismic Network" insttype="" lat="36.95708" lon="26.97274">
		<comp name="--.HNE" depth="0.0">
			<acc value="-0.027688104" flag="0"/>
			<vel value="-0.010326" flag="0"/>
			<psa03 value="0.0625496048523" flag="0"/>
			<psa10 value="0.00292345578044" flag="0"/>
			<psa30 value="0.000215210013834" flag="0"/>
		</comp>
		<comp name="--.HNN" depth="0.0">
			<acc value="0.022848714" flag="0"/>
			<vel value="0.008888" flag="0"/>
			<psa03 value="0.0599098146619" flag="0"/>
			<psa10 value="0.00290734858606" flag="0"/>
			<psa30 value="0.0002156574359" flag="0"/>
		</comp>
		<comp name="--.HNZ" depth="0.0">
			<acc value="0.029005026" flag="0"/>
			<vel value="-0.007817" flag="0"/>
			<psa03 value="0.0309616069798" flag="0"/>
			<psa10 value="0.00215031045007" flag="0"/>
			<psa30 value="0.000199997663584" flag="0"/>
		</comp>
	</station>
</stationlist>
