<?xml version="1.0" encoding="UTF-8" standalone="yes"?>
<!DOCTYPE earthquake SYSTEM "stationlist.dtd">
<stationlist created="" xmlns="ch.ethz.sed.shakemap.usgs.xml">
  <station code="TAHT" name="TAHT" netid="KO" insttype="CMG-3ESPC" lat="36.3755" lon="36.1855">
    <comp name="--.HHZ">
      <acc value="0.0520872094" flag="0"/>
      <vel value="0.0077752805" flag="0"/>
      <psa03 value="0.0156915321" flag="0"/>
      <psa10 value="0.0023580243" flag="0"/>
      <psa30 value="0.0001804840" flag="0"/>
    </comp>
  </station>
</stationlist>
