<?xml version="1.0" encoding="UTF-8" standalone="yes"?>
<!DOCTYPE earthquake SYSTEM "stationlist.dtd">
<stationlist created="" xmlns="ch.ethz.sed.shakemap.usgs.xml">
  <station code="ANDN" name="ANDN" netid="TU" insttype="T" lat="37.58" lon="36.3452">
    <comp name="--.HHE">
      <acc value="0.0723605878" flag="0"/>
      <vel value="0.0218515603" flag="0"/>
      <psa03 value="0.1044392515" flag="0"/>
      <psa10 value="0.0134222543" flag="0"/>
      <psa30 value="0.0012201798" flag="0"/>
    </comp>
    <comp name="--.HHZ">
      <acc value="0.0227294429" flag="0"/>
      <vel value="0.0081583956" flag="0"/>
      <psa03 value="0.0483652033" flag="0"/>
      <psa10 value="0.0092502861" flag="0"/>
      <psa30 value="0.0004790932" flag="0"/>
    </comp>
    <comp name="--.HHN">
      <acc value="0.0731403056" flag="0"/>
      <vel value="0.0178415402" flag="0"/>
      <psa03 value="0.1283177541" flag="0"/>
      <psa10 value="0.0086588703" flag="0"/>
      <psa30 value="0.0004842112" flag="0"/>
    </comp>
  </station>
</stationlist>
