<?xml version="1.0" encoding="UTF-8" standalone="yes"?>
<!DOCTYPE earthquake SYSTEM "stationlist.dtd">
<stationlist created="" xmlns="ch.ethz.sed.shakemap.usgs.xml">
  <station code="KRI1" name="KRI1" netid="HI" insttype="CMG-5TD,ACCELEROMETER,GURALP" lat="37.6621" lon="20.8172">
    <comp name="--.HNE">
      <acc value="0.0602199082" flag="0"/>
      <vel value="0.0295657128" flag="0"/>
      <psa03 value="0.1652289704" flag="0"/>
      <psa10 value="0.0196932813" flag="0"/>
      <psa30 value="0.0011939929" flag="0"/>
    </comp>
    <comp name="--.HNN">
      <acc value="0.0628255510" flag="0"/>
      <vel value="0.0400205327" flag="0"/>
      <psa03 value="0.1843605793" flag="0"/>
      <psa10 value="0.0343999605" flag="0"/>
      <psa30 value="0.0020685595" flag="0"/>
    </comp>
    <comp name="--.HNZ">
      <acc value="0.0483455217" flag="0"/>
      <vel value="0.0171922348" flag="0"/>
      <psa03 value="0.1077602104" flag="0"/>
      <psa10 value="0.0106736791" flag="0"/>
      <psa30 value="0.0010554700" flag="0"/>
    </comp>
  </station>
  <station code="ORTH" name="ORTH" netid="HL" insttype="30" lat="37.8511" lon="20.6963">
    <comp name="--.HHZ">
      <acc value="0.0302616611" flag="0"/>
      <vel value="0.0113164954" flag="0"/>
      <psa03 value="0.0771647408" flag="0"/>
      <psa10 value="0.0154936836" flag="0"/>
      <psa30 value="0.0016537327" flag="0"/>
    </comp>
    <comp name="--.HHE">
      <acc value="0.0840082685" flag="0"/>
      <vel value="0.0343213570" flag="0"/>
      <psa03 value="0.2240814677" flag="0"/>
      <psa10 value="0.0222804236" flag="0"/>
      <psa30 value="0.0016293912" flag="0"/>
    </comp>
    <comp name="--.HHN">
      <acc value="0.0649188782" flag="0"/>
      <vel value="0.0306608900" flag="0"/>
      <psa03 value="0.1800750081" flag="0"/>
      <psa10 value="0.0252433898" flag="0"/>
      <psa30 value="0.0022335409" flag="0"/>
    </comp>
  </station>
  <station code="VLS" name="VLS" netid="HL" insttype="120P," lat="38.1768" lon="20.5886">
    <comp name="--.HHZ">
      <acc value="0.0251031655" flag="0"/>
      <vel value="0.0098400366" flag="0"/>
      <psa03 value="0.0418714635" flag="0"/>
      <psa10 value="0.0080212254" flag="0"/>
      <psa30 value="0.0006884432" flag="0"/>
    </comp>
    <comp name="--.HHE">
      <acc value="0.0238728584" flag="0"/>
      <vel value="0.0134779227" flag="0"/>
      <psa03 value="0.0501204591" flag="0"/>
      <psa10 value="0.0081773549" flag="0"/>
      <psa30 value="0.0005520019" flag="0"/>
    </comp>
    <comp name="--.HHN">
      <acc value="0.0298671067" flag="0"/>
      <vel value="0.0118192573" flag="0"/>
      <psa03 value="0.0706278484" flag="0"/>
      <psa10 value="0.0153682837" flag="0"/>
      <psa30 value="0.0007355840" flag="0"/>
    </comp>
  </station>
  <station code="FSK" name="FSK" netid="HP" insttype="40," lat="38.4593" lon="20.5623">
    <comp name="--.HHE">
      <acc value="0.0141518848" flag="0"/>
      <vel value="0.0105839778" flag="0"/>
      <psa03 value="0.0192088348" flag="0"/>
      <psa10 value="0.0124710961" flag="0"/>
      <psa30 value="0.0016381515" flag="0"/>
    </comp>
    <comp name="--.HHZ">
      <acc value="0.0067500632" flag="0"/>
      <vel value="0.0056422702" flag="0"/>
      <psa03 value="0.0155794354" flag="0"/>
      <psa10 value="0.0075168463" flag="0"/>
      <psa30 value="0.0007797490" flag="0"/>
    </comp>
    <comp name="--.HHN">
      <acc value="0.0107028229" flag="0"/>
      <vel value="0.0079133486" flag="0"/>
      <psa03 value="0.0190563931" flag="0"/>
      <psa10 value="0.0142868515" flag="0"/>
      <psa30 value="0.0010190105" flag="0"/>
    </comp>
  </station>
  <station code="LTHK" name="LTHK" netid="HP" insttype="40," lat="37.7095" lon="20.8367">
    <comp name="--.HHN">
      <acc value="0.0824119403" flag="0"/>
      <vel value="0.0341626068" flag="0"/>
      <psa03 value="0.1645907992" flag="0"/>
      <psa10 value="0.0236977545" flag="0"/>
      <psa30 value="0.0020562518" flag="0"/>
    </comp>
    <comp name="--.HHZ">
      <acc value="0.0482815427" flag="0"/>
      <vel value="0.0212377114" flag="0"/>
      <psa03 value="0.1072931884" flag="0"/>
      <psa10 value="0.0159217188" flag="0"/>
      <psa30 value="0.0010095860" flag="0"/>
    </comp>
    <comp name="--.HHE">
      <acc value="0.0765913366" flag="0"/>
      <vel value="0.0266716014" flag="0"/>
      <psa03 value="0.1247888989" flag="0"/>
      <psa10 value="0.0167975410" flag="0"/>
      <psa30 value="0.0016446040" flag="0"/>
    </comp>
  </station>
  <station code="DMLN" name="DMLN" netid="HT" insttype="1s-100Hz," lat="38.2385" lon="20.3734">
    <comp name="--.HHZ">
      <acc value="0.0216370072" flag="0"/>
      <vel value="0.0119938229" flag="0"/>
      <psa03 value="0.0643179987" flag="0"/>
      <psa10 value="0.0109165918" flag="0"/>
      <psa30 value="0.0010222151" flag="0"/>
    </comp>
    <comp name="--.HHN">
      <acc value="0.0383569275" flag="0"/>
      <vel value="0.0283569246" flag="0"/>
      <psa03 value="0.0994197736" flag="0"/>
      <psa10 value="0.0250795310" flag="0"/>
      <psa30 value="0.0026588147" flag="0"/>
    </comp>
    <comp name="--.HHE">
      <acc value="0.0414877125" flag="0"/>
      <vel value="0.0380888305" flag="0"/>
      <psa03 value="0.1421376050" flag="0"/>
      <psa10 value="0.0346837852" flag="0"/>
      <psa30 value="0.0022370009" flag="0"/>
    </comp>
  </station>
  <station code="PSDA" name="PSDA" netid="HT" insttype="30" lat="38.114" lon="20.5841">
    <comp name="--.HHZ">
      <acc value="0.0318779680" flag="0"/>
      <vel value="0.0101635584" flag="0"/>
      <psa03 value="0.0423097427" flag="0"/>
      <psa10 value="0.0084332148" flag="0"/>
      <psa30 value="0.0005365110" flag="0"/>
    </comp>
    <comp name="--.HHN">
      <acc value="0.0414305655" flag="0"/>
      <vel value="0.0168301827" flag="0"/>
      <psa03 value="0.0943204499" flag="0"/>
      <psa10 value="0.0203736964" flag="0"/>
      <psa30 value="0.0011006539" flag="0"/>
    </comp>
    <comp name="--.HHE">
      <acc value="0.0422571280" flag="0"/>
      <vel value="0.0198939109" flag="0"/>
      <psa03 value="0.1199193043" flag="0"/>
      <psa10 value="0.0142477146" flag="0"/>
      <psa30 value="0.0008548431" flag="0"/>
    </comp>
  </station>
  <station code="RTZL" name="RTZL" netid="HT" insttype="Compact," lat="38.076" lon="20.7715">
    <comp name="--.HHE">
      <acc value="0.0179848160" flag="0"/>
      <vel value="0.0090661592" flag="0"/>
      <psa03 value="0.0424357061" flag="0"/>
      <psa10 value="0.0086216349" flag="0"/>
      <psa30 value="0.0005748598" flag="0"/>
    </comp>
    <comp name="--.HHN">
      <acc value="0.0173582057" flag="0"/>
      <vel value="0.0102808834" flag="0"/>
      <psa03 value="0.0584735279" flag="0"/>
      <psa10 value="0.0130723471" flag="0"/>
      <psa30 value="0.0005540181" flag="0"/>
    </comp>
    <comp name="--.HHZ">
      <acc value="0.0099500523" flag="0"/>
      <vel value="0.0063784819" flag="0"/>
      <psa03 value="0.0225849248" flag="0"/>
      <psa10 value="0.0075119184" flag="0"/>
      <psa30 value="0.0003815994" flag="0"/>
    </comp>
  </station>
  <station code="STRF" name="STRF" netid="HT" insttype="30s-100Hz," lat="37.2497" lon="21.013">
    <comp name="--.HHE">
      <acc value="0.0576883625" flag="0"/>
      <vel value="0.0275453784" flag="0"/>
      <psa03 value="0.1306265002" flag="0"/>
      <psa10 value="0.0260405011" flag="0"/>
      <psa30 value="0.0031262006" flag="0"/>
    </comp>
    <comp name="--.HHN">
      <acc value="0.0588867164" flag="0"/>
      <vel value="0.0337709836" flag="0"/>
      <psa03 value="0.2222236420" flag="0"/>
      <psa10 value="0.0519771227" flag="0"/>
      <psa30 value="0.0030832433" flag="0"/>
    </comp>
    <comp name="--.HHZ">
      <acc value="0.0277711560" flag="0"/>
      <vel value="0.0210115575" flag="0"/>
      <psa03 value="0.1029599473" flag="0"/>
      <psa10 value="0.0330611645" flag="0"/>
      <psa30 value="0.0018327224" flag="0"/>
    </comp>
  </station>
</stationlist>
