<?xml version="1.0" encoding="UTF-8" standalone="yes"?>
<!DOCTYPE earthquake SYSTEM "stationlist.dtd">
<stationlist created="" xmlns="ch.ethz.sed.shakemap.usgs.xml">
  <station code="KRI1" name="KRI1" netid="HI" insttype="CMG-5TD,ACCELEROMETER,GURALP" lat="37.6621" lon="20.8172">
    <comp name="--.HNE">
      <acc value="0.0602199082" flag="0"/>
      <vel value="0.0295657141" flag="0"/>
      <psa03 value="0.1652289704" flag="0"/>
      <psa10 value="0.0196932813" flag="0"/>
      <psa30 value="0.0011941045" flag="0"/>
    </comp>
    <comp name="--.HNN">
      <acc value="0.0628255505" flag="0"/>
      <vel value="0.0400205326" flag="0"/>
      <psa03 value="0.1843605793" flag="0"/>
      <psa10 value="0.0343999606" flag="0"/>
      <psa30 value="0.0020685594" flag="0"/>
    </comp>
    <comp name="--.HNZ">
      <acc value="0.0483455216" flag="0"/>
      <vel value="0.0171922341" flag="0"/>
      <psa03 value="0.1077602104" flag="0"/>
      <psa10 value="0.0106736798" flag="0"/>
      <psa30 value="0.0010554406" flag="0"/>
    </comp>
  </station>
  <station code="ORTH" name="ORTH" netid="HL" insttype="30" lat="37.8511" lon="20.6963">
    <comp name="--.HHE">
      <acc value="0.0840082685" flag="0"/>
      <vel value="0.0343213575" flag="0"/>
      <psa03 value="0.2240814677" flag="0"/>
      <psa10 value="0.0222804236" flag="0"/>
      <psa30 value="0.0016293887" flag="0"/>
    </comp>
    <comp name="--.HHZ">
      <acc value="0.0302616611" flag="0"/>
      <vel value="0.0113164947" flag="0"/>
      <psa03 value="0.0771647408" flag="0"/>
      <psa10 value="0.0154936835" flag="0"/>
      <psa30 value="0.0016537524" flag="0"/>
    </comp>
    <comp name="--.HHN">
      <acc value="0.0649188781" flag="0"/>
      <vel value="0.0306608884" flag="0"/>
      <psa03 value="0.1800750081" flag="0"/>
      <psa10 value="0.0252433898" flag="0"/>
      <psa30 value="0.0022335379" flag="0"/>
    </comp>
  </station>
  <station code="VLS" name="VLS" netid="HL" insttype="120P," lat="38.1768" lon="20.5886">
    <comp name="--.HHE">
      <acc value="0.0238728584" flag="0"/>
      <vel value="0.0134779229" flag="0"/>
      <psa03 value="0.0501204591" flag="0"/>
      <psa10 value="0.0081773549" flag="0"/>
      <psa30 value="0.0005520224" flag="0"/>
    </comp>
    <comp name="--.HHN">
      <acc value="0.0298671066" flag="0"/>
      <vel value="0.0118192576" flag="0"/>
      <psa03 value="0.0706278484" flag="0"/>
      <psa10 value="0.0153682837" flag="0"/>
      <psa30 value="0.0007355756" flag="0"/>
    </comp>
    <comp name="--.HHZ">
      <acc value="0.0251031656" flag="0"/>
      <vel value="0.0098400365" flag="0"/>
      <psa03 value="0.0418714635" flag="0"/>
      <psa10 value="0.0080212254" flag="0"/>
      <psa30 value="0.0006884429" flag="0"/>
    </comp>
  </station>
  <station code="FSK" name="FSK" netid="HP" insttype="40," lat="38.4593" lon="20.5623">
    <comp name="--.HHE">
      <acc value="0.0141518848" flag="0"/>
      <vel value="0.0105839801" flag="0"/>
      <psa03 value="0.0192088348" flag="0"/>
      <psa10 value="0.0124710961" flag="0"/>
      <psa30 value="0.0016381527" flag="0"/>
    </comp>
    <comp name="--.HHZ">
      <acc value="0.0067500631" flag="0"/>
      <vel value="0.0056422686" flag="0"/>
      <psa03 value="0.0155794353" flag="0"/>
      <psa10 value="0.0075168463" flag="0"/>
      <psa30 value="0.0007797534" flag="0"/>
    </comp>
    <comp name="--.HHN">
      <acc value="0.0107028229" flag="0"/>
      <vel value="0.0079133493" flag="0"/>
      <psa03 value="0.0190563931" flag="0"/>
      <psa10 value="0.0142868515" flag="0"/>
      <psa30 value="0.0010190035" flag="0"/>
    </comp>
  </station>
  <station code="DMLN" name="DMLN" netid="HT" insttype="1s-100Hz," lat="38.2385" lon="20.3734">
    <comp name="--.HHE">
      <acc value="0.0414877114" flag="0"/>
      <vel value="0.0380882975" flag="0"/>
      <psa03 value="0.1421376061" flag="0"/>
      <psa10 value="0.0346837863" flag="0"/>
      <psa30 value="0.0022368352" flag="0"/>
    </comp>
    <comp name="--.HHN">
      <acc value="0.0383569290" flag="0"/>
      <vel value="0.0283574920" flag="0"/>
      <psa03 value="0.0994197721" flag="0"/>
      <psa10 value="0.0250795324" flag="0"/>
      <psa30 value="0.0026587466" flag="0"/>
    </comp>
    <comp name="--.HHZ">
      <acc value="0.0216370080" flag="0"/>
      <vel value="0.0119935009" flag="0"/>
      <psa03 value="0.0643179979" flag="0"/>
      <psa10 value="0.0109165926" flag="0"/>
      <psa30 value="0.0010222175" flag="0"/>
    </comp>
  </station>
  <station code="PSDA" name="PSDA" netid="HT" insttype="30" lat="38.114" lon="20.5841">
    <comp name="--.HHZ">
      <acc value="0.0318779681" flag="0"/>
      <vel value="0.0101635582" flag="0"/>
      <psa03 value="0.0423097427" flag="0"/>
      <psa10 value="0.0084332148" flag="0"/>
      <psa30 value="0.0005365171" flag="0"/>
    </comp>
    <comp name="--.HHN">
      <acc value="0.0414305656" flag="0"/>
      <vel value="0.0168301834" flag="0"/>
      <psa03 value="0.0943204499" flag="0"/>
      <psa10 value="0.0203736964" flag="0"/>
      <psa30 value="0.0011006215" flag="0"/>
    </comp>
    <comp name="--.HHE">
      <acc value="0.0422571280" flag="0"/>
      <vel value="0.0198939114" flag="0"/>
      <psa03 value="0.1199193043" flag="0"/>
      <psa10 value="0.0142477146" flag="0"/>
      <psa30 value="0.0008548572" flag="0"/>
    </comp>
  </station>
  <station code="RTZL" name="RTZL" netid="HT" insttype="Compact," lat="38.076" lon="20.7715">
    <comp name="--.HHE">
      <acc value="0.0179848159" flag="0"/>
      <vel value="0.0090661591" flag="0"/>
      <psa03 value="0.0424357061" flag="0"/>
      <psa10 value="0.0086216349" flag="0"/>
      <psa30 value="0.0005748619" flag="0"/>
    </comp>
    <comp name="--.HHN">
      <acc value="0.0173582057" flag="0"/>
      <vel value="0.0102808832" flag="0"/>
      <psa03 value="0.0584735279" flag="0"/>
      <psa10 value="0.0130723471" flag="0"/>
      <psa30 value="0.0005540129" flag="0"/>
    </comp>
    <comp name="--.HHZ">
      <acc value="0.0099500523" flag="0"/>
      <vel value="0.0063784824" flag="0"/>
      <psa03 value="0.0225849248" flag="0"/>
      <psa10 value="0.0075119184" flag="0"/>
      <psa30 value="0.0003816032" flag="0"/>
    </comp>
  </station>
  <station code="STRF" name="STRF" netid="HT" insttype="30s-100Hz," lat="37.2497" lon="21.013">
    <comp name="--.HHE">
      <acc value="0.0576883625" flag="0"/>
      <vel value="0.0275453723" flag="0"/>
      <psa03 value="0.1306265002" flag="0"/>
      <psa10 value="0.0260405012" flag="0"/>
      <psa30 value="0.0031261900" flag="0"/>
    </comp>
    <comp name="--.HHN">
      <acc value="0.0588867164" flag="0"/>
      <vel value="0.0337709881" flag="0"/>
      <psa03 value="0.2222236420" flag="0"/>
      <psa10 value="0.0519771227" flag="0"/>
      <psa30 value="0.0030832482" flag="0"/>
    </comp>
    <comp name="--.HHZ">
      <acc value="0.0277711560" flag="0"/>
      <vel value="0.0210115655" flag="0"/>
      <psa03 value="0.1029599473" flag="0"/>
      <psa10 value="0.0330611645" flag="0"/>
      <psa30 value="0.0018327253" flag="0"/>
    </comp>
  </station>
</stationlist>
