<?xml version="1.0" encoding="UTF-8" standalone="yes"?>
<!DOCTYPE earthquake SYSTEM "stationlist.dtd">
<stationlist created="" xmlns="ch.ethz.sed.shakemap.usgs.xml">
  <station code="KRI1" name="KRI1" netid="HI" insttype="CMG-5TD,ACCELEROMETER,GURALP" lat="37.6621" lon="20.8172">
    <comp name="--.HNN">
      <acc value="0.0628255509" flag="0"/>
      <vel value="0.0400205326" flag="0"/>
      <psa03 value="0.1843605793" flag="0"/>
      <psa10 value="0.0343999605" flag="0"/>
      <psa30 value="0.0020685608" flag="0"/>
    </comp>
    <comp name="--.HNE">
      <acc value="0.0602199082" flag="0"/>
      <vel value="0.0295657131" flag="0"/>
      <psa03 value="0.1652289704" flag="0"/>
      <psa10 value="0.0196932813" flag="0"/>
      <psa30 value="0.0011940179" flag="0"/>
    </comp>
    <comp name="--.HNZ">
      <acc value="0.0483455217" flag="0"/>
      <vel value="0.0171922347" flag="0"/>
      <psa03 value="0.1077602104" flag="0"/>
      <psa10 value="0.0106736793" flag="0"/>
      <psa30 value="0.0010554639" flag="0"/>
    </comp>
  </station>
  <station code="ORTH" name="ORTH" netid="HL" insttype="30" lat="37.8511" lon="20.6963">
    <comp name="--.HHZ">
      <acc value="0.0302616611" flag="0"/>
      <vel value="0.0113164924" flag="0"/>
      <psa03 value="0.0771647408" flag="0"/>
      <psa10 value="0.0154936836" flag="0"/>
      <psa30 value="0.0016537457" flag="0"/>
    </comp>
    <comp name="--.HHE">
      <acc value="0.0840082685" flag="0"/>
      <vel value="0.0343213531" flag="0"/>
      <psa03 value="0.2240814677" flag="0"/>
      <psa10 value="0.0222804236" flag="0"/>
      <psa30 value="0.0016293906" flag="0"/>
    </comp>
    <comp name="--.HHN">
      <acc value="0.0649188781" flag="0"/>
      <vel value="0.0306608868" flag="0"/>
      <psa03 value="0.1800750081" flag="0"/>
      <psa10 value="0.0252433898" flag="0"/>
      <psa30 value="0.0022335395" flag="0"/>
    </comp>
  </station>
  <station code="VLS" name="VLS" netid="HL" insttype="120P," lat="38.1768" lon="20.5886">
    <comp name="--.HHE">
      <acc value="0.0238728584" flag="0"/>
      <vel value="0.0134779232" flag="0"/>
      <psa03 value="0.0501204591" flag="0"/>
      <psa10 value="0.0081773549" flag="0"/>
      <psa30 value="0.0005520154" flag="0"/>
    </comp>
    <comp name="--.HHZ">
      <acc value="0.0251031655" flag="0"/>
      <vel value="0.0098400366" flag="0"/>
      <psa03 value="0.0418714635" flag="0"/>
      <psa10 value="0.0080212254" flag="0"/>
      <psa30 value="0.0006884431" flag="0"/>
    </comp>
    <comp name="--.HHN">
      <acc value="0.0298671067" flag="0"/>
      <vel value="0.0118192582" flag="0"/>
      <psa03 value="0.0706278484" flag="0"/>
      <psa10 value="0.0153682837" flag="0"/>
      <psa30 value="0.0007355770" flag="0"/>
    </comp>
  </station>
  <station code="FSK" name="FSK" netid="HP" insttype="40," lat="38.4593" lon="20.5623">
    <comp name="--.HHN">
      <acc value="0.0107028229" flag="0"/>
      <vel value="0.0079133486" flag="0"/>
      <psa03 value="0.0190563931" flag="0"/>
      <psa10 value="0.0142868515" flag="0"/>
      <psa30 value="0.0010190101" flag="0"/>
    </comp>
    <comp name="--.HHE">
      <acc value="0.0141518848" flag="0"/>
      <vel value="0.0105839750" flag="0"/>
      <psa03 value="0.0192088348" flag="0"/>
      <psa10 value="0.0124710961" flag="0"/>
      <psa30 value="0.0016381536" flag="0"/>
    </comp>
    <comp name="--.HHZ">
      <acc value="0.0067500632" flag="0"/>
      <vel value="0.0056422688" flag="0"/>
      <psa03 value="0.0155794353" flag="0"/>
      <psa10 value="0.0075168463" flag="0"/>
      <psa30 value="0.0007797484" flag="0"/>
    </comp>
  </station>
  <station code="LTHK" name="LTHK" netid="HP" insttype="40," lat="37.7095" lon="20.8367">
    <comp name="--.HHZ">
      <acc value="0.0482815427" flag="0"/>
      <vel value="0.0212377111" flag="0"/>
      <psa03 value="0.1072931884" flag="0"/>
      <psa10 value="0.0159217188" flag="0"/>
      <psa30 value="0.0010095981" flag="0"/>
    </comp>
    <comp name="--.HHN">
      <acc value="0.0824119403" flag="0"/>
      <vel value="0.0341626068" flag="0"/>
      <psa03 value="0.1645907992" flag="0"/>
      <psa10 value="0.0236977545" flag="0"/>
      <psa30 value="0.0020562427" flag="0"/>
    </comp>
    <comp name="--.HHE">
      <acc value="0.0765913366" flag="0"/>
      <vel value="0.0266716039" flag="0"/>
      <psa03 value="0.1247888989" flag="0"/>
      <psa10 value="0.0167975410" flag="0"/>
      <psa30 value="0.0016445791" flag="0"/>
    </comp>
  </station>
  <station code="DMLN" name="DMLN" netid="HT" insttype="1s-100Hz," lat="38.2385" lon="20.3734">
    <comp name="--.HHN">
      <acc value="0.0383569259" flag="0"/>
      <vel value="0.0283563035" flag="0"/>
      <psa03 value="0.0994197752" flag="0"/>
      <psa10 value="0.0250795294" flag="0"/>
      <psa30 value="0.0026588215" flag="0"/>
    </comp>
    <comp name="--.HHE">
      <acc value="0.0414877160" flag="0"/>
      <vel value="0.0380904332" flag="0"/>
      <psa03 value="0.1421376015" flag="0"/>
      <psa10 value="0.0346837816" flag="0"/>
      <psa30 value="0.0022369885" flag="0"/>
    </comp>
    <comp name="--.HHZ">
      <acc value="0.0216370056" flag="0"/>
      <vel value="0.0119944759" flag="0"/>
      <psa03 value="0.0643180003" flag="0"/>
      <psa10 value="0.0109165901" flag="0"/>
      <psa30 value="0.0010222091" flag="0"/>
    </comp>
  </station>
  <station code="PSDA" name="PSDA" netid="HT" insttype="30" lat="38.114" lon="20.5841">
    <comp name="--.HHZ">
      <acc value="0.0318779680" flag="0"/>
      <vel value="0.0101635579" flag="0"/>
      <psa03 value="0.0423097427" flag="0"/>
      <psa10 value="0.0084332148" flag="0"/>
      <psa30 value="0.0005365127" flag="0"/>
    </comp>
    <comp name="--.HHE">
      <acc value="0.0422571280" flag="0"/>
      <vel value="0.0198939114" flag="0"/>
      <psa03 value="0.1199193043" flag="0"/>
      <psa10 value="0.0142477146" flag="0"/>
      <psa30 value="0.0008548493" flag="0"/>
    </comp>
    <comp name="--.HHN">
      <acc value="0.0414305655" flag="0"/>
      <vel value="0.0168301827" flag="0"/>
      <psa03 value="0.0943204499" flag="0"/>
      <psa10 value="0.0203736964" flag="0"/>
      <psa30 value="0.0011006453" flag="0"/>
    </comp>
  </station>
  <station code="RTZL" name="RTZL" netid="HT" insttype="Compact," lat="38.076" lon="20.7715">
    <comp name="--.HHN">
      <acc value="0.0173582057" flag="0"/>
      <vel value="0.0102808832" flag="0"/>
      <psa03 value="0.0584735279" flag="0"/>
      <psa10 value="0.0130723471" flag="0"/>
      <psa30 value="0.0005540160" flag="0"/>
    </comp>
    <comp name="--.HHZ">
      <acc value="0.0099500523" flag="0"/>
      <vel value="0.0063784821" flag="0"/>
      <psa03 value="0.0225849248" flag="0"/>
      <psa10 value="0.0075119184" flag="0"/>
      <psa30 value="0.0003816010" flag="0"/>
    </comp>
    <comp name="--.HHE">
      <acc value="0.0179848160" flag="0"/>
      <vel value="0.0090661590" flag="0"/>
      <psa03 value="0.0424357061" flag="0"/>
      <psa10 value="0.0086216349" flag="0"/>
      <psa30 value="0.0005748604" flag="0"/>
    </comp>
  </station>
  <station code="STRF" name="STRF" netid="HT" insttype="30s-100Hz," lat="37.2497" lon="21.013">
    <comp name="--.HHZ">
      <acc value="0.0277711561" flag="0"/>
      <vel value="0.0210115580" flag="0"/>
      <psa03 value="0.1029599473" flag="0"/>
      <psa10 value="0.0330611644" flag="0"/>
      <psa30 value="0.0018327595" flag="0"/>
    </comp>
    <comp name="--.HHE">
      <acc value="0.0576883624" flag="0"/>
      <vel value="0.0275453688" flag="0"/>
      <psa03 value="0.1306265002" flag="0"/>
      <psa10 value="0.0260405012" flag="0"/>
      <psa30 value="0.0031262082" flag="0"/>
    </comp>
    <comp name="--.HHN">
      <acc value="0.0588867163" flag="0"/>
      <vel value="0.0337709955" flag="0"/>
      <psa03 value="0.2222236419" flag="0"/>
      <psa10 value="0.0519771228" flag="0"/>
      <psa30 value="0.0030832103" flag="0"/>
    </comp>
  </station>
</stationlist>
