<stationlist xmlns:esm="https://esm-db.eu/esmws/shakemap/1/" created="1784080495">
	<station code="AOL1" name="AOL1" netid="HI" source="ITSAK Strong Motion Network" insttype="" lat="37.642378" lon="21.624555" esm:processing="manual (Paolucci et al 2011)" esm:quality="good">
		<comp name="--.HNE" depth="0.0">
			<acc value="0.016416105478281" flag="0"/>
			<vel value="0.0114878824515576" flag="0"/>
			<psa03 value="0.0505142629886785" flag="0"/>
			<psa10 value="0.0184345599491245" flag="0"/>
			<psa30 value="0.00175715348612813" flag="0"/>
		</comp>
		<comp name="--.HNN" depth="0.0">
			<acc value="0.0159845960698644" flag="0"/>
			<vel value="0.0111547043378436" flag="0"/>
			<psa03 value="0.0467894849904164" flag="0"/>
			<psa10 value="0.0185647423230679" flag="0"/>
			<psa30 value="0.00149971351532684" flag="0"/>
		</comp>
		<comp name="--.HNZ" depth="0.0">
			<acc value="0.0112399268155638" flag="0"/>
			<vel value="0.00677055954632214" flag="0"/>
			<psa03 value="0.0319094055081783" flag="0"/>
			<psa10 value="0.0112468516112226" flag="0"/>
			<psa30 value="0.0007317907171269" flag="0"/>
		</comp>
	</station>
	<station code="ARG2" name="ARG2" netid="HI" source="ITSAK Strong Motion Network" insttype="" lat="38.1783" lon="20.4878" esm:processing="manual (Paolucci et al 2011)" esm:quality="best">
		<comp name="--.HNE" depth="0.0">
			<acc value="0.0493656471309083" flag="0"/>
			<vel value="0.0257021558914371" flag="0"/>
			<psa03 value="0.120847286789554" flag="0"/>
			<psa10 value="0.0224705398129645" flag="0"/>
			<psa30 value="0.00154612596492441" flag="0"/>
		</comp>
		<comp name="--.HNN" depth="0.0">
			<acc value="0.044890692631975" flag="0"/>
			<vel value="0.0262139407027556" flag="0"/>
			<psa03 value="0.160972913665444" flag="0"/>
			<psa10 value="0.0226723800589019" flag="0"/>
			<psa30 value="0.00156515451713878" flag="0"/>
		</comp>
		<comp name="--.HNZ" depth="0.0">
			<acc value="0.0248396056675169" flag="0"/>
			<vel value="0.0100290755007217" flag="0"/>
			<psa03 value="0.0906585681851337" flag="0"/>
			<psa10 value="0.0134948105274722" flag="0"/>
			<psa30 value="0.0012517039609097" flag="0"/>
		</comp>
	</station>
	<station code="AST1" name="AST1" netid="HI" source="ITSAK Strong Motion Network" insttype="" lat="38.5416" lon="21.0895" esm:processing="manual (Paolucci et al 2011)" esm:quality="good">
		<comp name="--.HNE" depth="0.0">
			<acc value="0.00655958070289985" flag="0"/>
			<vel value="0.00489072382774326" flag="0"/>
			<psa03 value="0.0240831005955541" flag="0"/>
			<psa10 value="0.00633897086320963" flag="0"/>
			<psa30 value="0.000890209805364015" flag="0"/>
		</comp>
		<comp name="--.HNN" depth="0.0">
			<acc value="0.00655743669261208" flag="0"/>
			<vel value="0.00613749844530469" flag="0"/>
			<psa03 value="0.0220260372418691" flag="0"/>
			<psa10 value="0.00929434101697811" flag="0"/>
			<psa30 value="0.000703592078272134" flag="0"/>
		</comp>
		<comp name="--.HNZ" depth="0.0">
			<acc value="0.00513041108114725" flag="0"/>
			<vel value="0.00511474179956343" flag="0"/>
			<psa03 value="0.0150298224748931" flag="0"/>
			<psa10 value="0.0124582062325212" flag="0"/>
			<psa30 value="0.000462066963835313" flag="0"/>
		</comp>
	</station>
	<station code="ITC1" name="ITC1" netid="HI" source="ITSAK Strong Motion Network" insttype="" lat="38.3647" lon="20.7156" esm:processing="automatic (Paolucci et al 2011)" esm:quality="best">
		<comp name="--.HNE" depth="0.0">
			<acc value="0.0124359410117623" flag="0"/>
			<vel value="0.00683828520028162" flag="0"/>
			<psa03 value="0.0358299490791155" flag="0"/>
			<psa10 value="0.0115279974232528" flag="0"/>
			<psa30 value="0.000527888824210526" flag="0"/>
		</comp>
		<comp name="--.HNN" depth="0.0">
			<acc value="0.0113592241985004" flag="0"/>
			<vel value="0.00968460974244318" flag="0"/>
			<psa03 value="0.0324612441481133" flag="0"/>
			<psa10 value="0.0104976954208016" flag="0"/>
			<psa30 value="0.000704284676236684" flag="0"/>
		</comp>
		<comp name="--.HNZ" depth="0.0">
			<acc value="0.00718144022352054" flag="0"/>
			<vel value="0.00554456802139744" flag="0"/>
			<psa03 value="0.0248537297709549" flag="0"/>
			<psa10 value="0.00799938210730568" flag="0"/>
			<psa30 value="0.000335440658797388" flag="0"/>
		</comp>
	</station>
	<station code="KAC1" name="KAC1" netid="HI" source="ITSAK Strong Motion Network" insttype="" lat="38.143412" lon="21.549694" esm:processing="manual (Paolucci et al 2011)" esm:quality="good">
		<comp name="--.HNE" depth="0.0">
			<acc value="0.0181834111418893" flag="0"/>
			<vel value="0.0163666012120393" flag="0"/>
			<psa03 value="0.0423423831000747" flag="0"/>
			<psa10 value="0.0261336568515091" flag="0"/>
			<psa30 value="0.00233713628214195" flag="0"/>
		</comp>
		<comp name="--.HNN" depth="0.0">
			<acc value="0.0154607316456999" flag="0"/>
			<vel value="0.0149876862579426" flag="0"/>
			<psa03 value="0.0438633536485757" flag="0"/>
			<psa10 value="0.0252194212878898" flag="0"/>
			<psa30 value="0.00266044290795254" flag="0"/>
		</comp>
		<comp name="--.HNZ" depth="0.0">
			<acc value="0.00592827093361258" flag="0"/>
			<vel value="0.00648185005022736" flag="0"/>
			<psa03 value="0.0162736027859012" flag="0"/>
			<psa10 value="0.00856439359904407" flag="0"/>
			<psa30 value="0.00217840514198293" flag="0"/>
		</comp>
	</station>
	<station code="KRI1" name="KRI1" netid="HI" source="ITSAK Strong Motion Network" insttype="" lat="37.6621" lon="20.8172" esm:processing="manual (Paolucci et al 2011)" esm:quality="best">
		<comp name="--.HNE" depth="0.0">
			<acc value="0.0598068269316515" flag="0"/>
			<vel value="0.0299030632497611" flag="0"/>
			<psa03 value="0.165469992824887" flag="0"/>
			<psa10 value="0.0197195544486963" flag="0"/>
			<psa30 value="0.00134601437518172" flag="0"/>
		</comp>
		<comp name="--.HNN" depth="0.0">
			<acc value="0.0631029279153452" flag="0"/>
			<vel value="0.0395620941050919" flag="0"/>
			<psa03 value="0.183528032831578" flag="0"/>
			<psa10 value="0.0345127750519528" flag="0"/>
			<psa30 value="0.0023570980211778" flag="0"/>
		</comp>
		<comp name="--.HNZ" depth="0.0">
			<acc value="0.0467155384111633" flag="0"/>
			<vel value="0.0175497959023851" flag="0"/>
			<psa03 value="0.10749155828836" flag="0"/>
			<psa10 value="0.0105803827734327" flag="0"/>
			<psa30 value="0.0012514101914512" flag="0"/>
		</comp>
	</station>
	<station code="LEF2" name="LEF2" netid="HI" source="ITSAK Strong Motion Network" insttype="" lat="38.830093" lon="20.708346" esm:processing="manual (Paolucci et al 2011)" esm:quality="good">
		<comp name="--.HNE" depth="0.0">
			<acc value="0.027973077457714" flag="0"/>
			<vel value="0.0260784642735353" flag="0"/>
			<psa03 value="0.0794103282528544" flag="0"/>
			<psa10 value="0.0434945112979135" flag="0"/>
			<psa30 value="0.00380522416075891" flag="0"/>
		</comp>
		<comp name="--.HNN" depth="0.0">
			<acc value="0.0277462692838815" flag="0"/>
			<vel value="0.0284325692329392" flag="0"/>
			<psa03 value="0.0616950192839108" flag="0"/>
			<psa10 value="0.0410652616220446" flag="0"/>
			<psa30 value="0.00227941850028884" flag="0"/>
		</comp>
		<comp name="--.HNZ" depth="0.0">
			<acc value="0.0133703494829578" flag="0"/>
			<vel value="0.0160308578652404" flag="0"/>
			<psa03 value="0.0383075298733505" flag="0"/>
			<psa10 value="0.0281934189256377" flag="0"/>
			<psa30 value="0.00188218489384527" flag="0"/>
		</comp>
	</station>
	<station code="MSL1" name="MSL1" netid="HI" source="ITSAK Strong Motion Network" insttype="" lat="38.3727" lon="21.4243" esm:processing="manual (Paolucci et al 2011)" esm:quality="good">
		<comp name="--.HNE" depth="0.0">
			<acc value="0.0120313545867221" flag="0"/>
			<vel value="0.0129713501823143" flag="0"/>
			<psa03 value="0.0351873570313837" flag="0"/>
			<psa10 value="0.027436444404788" flag="0"/>
			<psa30 value="0.00190725988827603" flag="0"/>
		</comp>
		<comp name="--.HNN" depth="0.0">
			<acc value="0.0133299905716807" flag="0"/>
			<vel value="0.0159656672881908" flag="0"/>
			<psa03 value="0.0384671810744664" flag="0"/>
			<psa10 value="0.0271779679069843" flag="0"/>
			<psa30 value="0.00187412560995745" flag="0"/>
		</comp>
		<comp name="--.HNZ" depth="0.0">
			<acc value="0.00778589199618151" flag="0"/>
			<vel value="0.00599856517230378" flag="0"/>
			<psa03 value="0.0200191347631977" flag="0"/>
			<psa10 value="0.0119494962829756" flag="0"/>
			<psa30 value="0.000508544157304429" flag="0"/>
		</comp>
	</station>
	<station code="PYR3" name="PYR3" netid="HI" source="ITSAK Strong Motion Network" insttype="" lat="37.6788" lon="21.46209" esm:processing="manual (Paolucci et al 2011)" esm:quality="good">
		<comp name="--.HNE" depth="0.0">
			<acc value="0.0368934523394362" flag="0"/>
			<vel value="0.0266974213675289" flag="0"/>
			<psa03 value="0.091417222609012" flag="0"/>
			<psa10 value="0.0220001405263388" flag="0"/>
			<psa30 value="0.00186583672752615" flag="0"/>
		</comp>
		<comp name="--.HNN" depth="0.0">
			<acc value="0.0298627899381042" flag="0"/>
			<vel value="0.0188353479284847" flag="0"/>
			<psa03 value="0.0777076164982238" flag="0"/>
			<psa10 value="0.0220799589389169" flag="0"/>
			<psa30 value="0.00155838875644027" flag="0"/>
		</comp>
		<comp name="--.HNZ" depth="0.0">
			<acc value="0.0132397563320816" flag="0"/>
			<vel value="0.00941889118142426" flag="0"/>
			<psa03 value="0.0576971971561484" flag="0"/>
			<psa10 value="0.0112739640322874" flag="0"/>
			<psa30 value="0.00113490351512139" flag="0"/>
		</comp>
	</station>
	<station code="VAS2" name="VAS2" netid="HI" source="ITSAK Strong Motion Network" insttype="" lat="38.630558" lon="20.608081" esm:processing="manual (Paolucci et al 2011)" esm:quality="good">
		<comp name="--.HNE" depth="0.0">
			<acc value="0.0316329806495976" flag="0"/>
			<vel value="0.0261786054538524" flag="0"/>
			<psa03 value="0.0709648416976267" flag="0"/>
			<psa10 value="0.0441958227563702" flag="0"/>
			<psa30 value="0.00280291838791979" flag="0"/>
		</comp>
		<comp name="--.HNN" depth="0.0">
			<acc value="0.0411117895639806" flag="0"/>
			<vel value="0.0321582202201574" flag="0"/>
			<psa03 value="0.103282883650988" flag="0"/>
			<psa10 value="0.0651455505731881" flag="0"/>
			<psa30 value="0.00439566744139565" flag="0"/>
		</comp>
		<comp name="--.HNZ" depth="0.0">
			<acc value="0.020509191131887" flag="0"/>
			<vel value="0.0164456424444216" flag="0"/>
			<psa03 value="0.0488899730955976" flag="0"/>
			<psa10 value="0.0207457855564837" flag="0"/>
			<psa30 value="0.00143137586329458" flag="0"/>
		</comp>
	</station>
	<station code="VSK1" name="VSK1" netid="HI" source="ITSAK Strong Motion Network" insttype="" lat="38.4091" lon="20.564" esm:processing="automatic (Paolucci et al 2011)" esm:quality="best">
		<comp name="--.HNE" depth="0.0">
			<acc value="0.012718754827547" flag="0"/>
			<vel value="0.00865368689984472" flag="0"/>
			<psa03 value="0.0335543035371" flag="0"/>
			<psa10 value="0.0201314948627344" flag="0"/>
			<psa30 value="0.00175078014725904" flag="0"/>
		</comp>
		<comp name="--.HNN" depth="0.0">
			<acc value="0.0113870740088997" flag="0"/>
			<vel value="0.00988236687573869" flag="0"/>
			<psa03 value="0.0359958845506928" flag="0"/>
			<psa10 value="0.0163800575984267" flag="0"/>
			<psa30 value="0.00171837008358471" flag="0"/>
		</comp>
		<comp name="--.HNZ" depth="0.0">
			<acc value="0.0093296390275981" flag="0"/>
			<vel value="0.00600390472571188" flag="0"/>
			<psa03 value="0.0307604778348586" flag="0"/>
			<psa10 value="0.00838949232519305" flag="0"/>
			<psa30 value="0.000848435423432897" flag="0"/>
		</comp>
	</station>
	<station code="ZAK2" name="ZAK2" netid="HI" source="ITSAK Strong Motion Network" insttype="" lat="37.787501" lon="20.899999" esm:processing="automatic (Paolucci et al 2011)" esm:quality="best">
		<comp name="--.HNE" depth="0.0">
			<acc value="0.125818933266732" flag="0"/>
			<vel value="0.0818748308763622" flag="0"/>
			<psa03 value="0.303523815296479" flag="0"/>
			<psa10 value="0.0583595660348359" flag="0"/>
			<psa30 value="0.00486652446669559" flag="0"/>
		</comp>
		<comp name="--.HNN" depth="0.0">
			<acc value="0.136195371747775" flag="0"/>
			<vel value="0.0733037353877907" flag="0"/>
			<psa03 value="0.373120800755201" flag="0"/>
			<psa10 value="0.0682369028599251" flag="0"/>
			<psa30 value="0.00462879038464606" flag="0"/>
		</comp>
		<comp name="--.HNZ" depth="0.0">
			<acc value="0.0692861586925252" flag="0"/>
			<vel value="0.0324441005802468" flag="0"/>
			<psa03 value="0.141861699724719" flag="0"/>
			<psa10 value="0.030304754416252" flag="0"/>
			<psa30 value="0.00360294409403056" flag="0"/>
		</comp>
	</station>
	<station code="PATG" name="PATG" netid="HL" source="National Observatory of Athens Seismic Network" insttype="" lat="38.23865" lon="21.72657" esm:processing="manual (Paolucci et al 2011)" esm:quality="good">
		<comp name="00.HNE" depth="0.0">
			<acc value="0.0117047731867786" flag="0"/>
			<vel value="0.012958622268691" flag="0"/>
			<psa03 value="0.023920386691546" flag="0"/>
			<psa10 value="0.0339588446067937" flag="0"/>
			<psa30 value="0.00300189844437124" flag="0"/>
		</comp>
		<comp name="00.HNN" depth="0.0">
			<acc value="0.0133012556310412" flag="0"/>
			<vel value="0.0155649624794184" flag="0"/>
			<psa03 value="0.0345802178530645" flag="0"/>
			<psa10 value="0.0294895160356998" flag="0"/>
			<psa30 value="0.00342689826519351" flag="0"/>
		</comp>
		<comp name="00.HNZ" depth="0.0">
			<acc value="0.0283963301338812" flag="0"/>
			<vel value="0.00926244705006892" flag="0"/>
			<psa03 value="0.0188287850750285" flag="0"/>
			<psa10 value="0.0154954405593939" flag="0"/>
			<psa30 value="0.00177447150836211" flag="0"/>
		</comp>
	</station>
	<station code="RIOA" name="RIOA" netid="HL" source="National Observatory of Athens Seismic Network" insttype="" lat="38.29585" lon="21.79118" esm:processing="manual (Paolucci et al 2011)" esm:quality="bad">
		<comp name="00.HNE" depth="0.0">
			<acc value="0.012765994981353" flag="0"/>
			<vel value="0.00616090467233456" flag="0"/>
			<psa03 value="0.010273645422331" flag="0"/>
			<psa10 value="0.00987483259670963" flag="0"/>
			<psa30 value="0.0013054165816106" flag="0"/>
		</comp>
		<comp name="00.HNN" depth="0.0">
			<acc value="0.0221126825506722" flag="0"/>
			<vel value="0.00584331944284128" flag="0"/>
			<psa03 value="0.0161840695109935" flag="0"/>
			<psa10 value="0.0089389721630313" flag="0"/>
			<psa30 value="0.00179418531430721" flag="0"/>
		</comp>
		<comp name="00.HNZ" depth="0.0">
			<acc value="0.0462177415607727" flag="0"/>
			<vel value="0.00400188786717157" flag="0"/>
			<psa03 value="0.0107448791132047" flag="0"/>
			<psa10 value="0.00566545530860673" flag="0"/>
			<psa30 value="0.000645373846601969" flag="0"/>
		</comp>
	</station>
	<station code="FSK" name="FSK" netid="HP" source="University of Patras, Seismological Laboratory (PSLNET)" insttype="" lat="38.4593" lon="20.5623" esm:processing="manual (Paolucci et al 2011)" esm:quality="good">
		<comp name="--.HNE" depth="0.0">
			<acc value="0.0144704513522781" flag="0"/>
			<vel value="0.00949759400026166" flag="0"/>
			<psa03 value="0.0209425110364727" flag="0"/>
			<psa10 value="0.0121966685944346" flag="0"/>
			<psa30 value="0.0016583271477004" flag="0"/>
		</comp>
		<comp name="--.HNN" depth="0.0">
			<acc value="0.00914458548556407" flag="0"/>
			<vel value="0.00760561871705266" flag="0"/>
			<psa03 value="0.0212010502988452" flag="0"/>
			<psa10 value="0.0149383083396253" flag="0"/>
			<psa30 value="0.0011863208796016" flag="0"/>
		</comp>
		<comp name="--.HNZ" depth="0.0">
			<acc value="0.00690855895275164" flag="0"/>
			<vel value="0.00580908118493947" flag="0"/>
			<psa03 value="0.015381313207357" flag="0"/>
			<psa10 value="0.00752216158754158" flag="0"/>
			<psa30 value="0.00086784316743418" flag="0"/>
		</comp>
	</station>
	<station code="LTHK" name="LTHK" netid="HP" source="University of Patras, Seismological Laboratory (PSLNET)" insttype="" lat="37.7095" lon="20.8367" esm:processing="manual (Paolucci et al 2011)" esm:quality="best">
		<comp name="--.HNE" depth="0.0">
			<acc value="0.0758875075570846" flag="0"/>
			<vel value="0.0274467916548207" flag="0"/>
			<psa03 value="0.127645768405793" flag="0"/>
			<psa10 value="0.0170460454668624" flag="0"/>
			<psa30 value="0.00176115479286153" flag="0"/>
		</comp>
		<comp name="--.HNN" depth="0.0">
			<acc value="0.0812342951578107" flag="0"/>
			<vel value="0.0343496422559765" flag="0"/>
			<psa03 value="0.164919539693432" flag="0"/>
			<psa10 value="0.0236245587610742" flag="0"/>
			<psa30 value="0.00226258405175803" flag="0"/>
		</comp>
		<comp name="--.HNZ" depth="0.0">
			<acc value="0.0481687613753244" flag="0"/>
			<vel value="0.0210989462606293" flag="0"/>
			<psa03 value="0.108575025895932" flag="0"/>
			<psa10 value="0.0159085538636229" flag="0"/>
			<psa30 value="0.00116514103904254" flag="0"/>
		</comp>
	</station>
	<station code="PDO" name="PDO" netid="HP" source="University of Patras, Seismological Laboratory (PSLNET)" insttype="" lat="38.5986" lon="21.1833" esm:processing="manual (Paolucci et al 2011)" esm:quality="best">
		<comp name="--.HNE" depth="0.0">
			<acc value="0.00967350739380021" flag="0"/>
			<vel value="0.00666043475939765" flag="0"/>
			<psa03 value="0.0261904355086717" flag="0"/>
			<psa10 value="0.00634691248305794" flag="0"/>
			<psa30 value="0.000572457349573804" flag="0"/>
		</comp>
		<comp name="--.HNN" depth="0.0">
			<acc value="0.0162507083879332" flag="0"/>
			<vel value="0.00845046285279577" flag="0"/>
			<psa03 value="0.0575415722633131" flag="0"/>
			<psa10 value="0.0163310531021094" flag="0"/>
			<psa30 value="0.000765928082726414" flag="0"/>
		</comp>
		<comp name="--.HNZ" depth="0.0">
			<acc value="0.00672083452795154" flag="0"/>
			<vel value="0.00429714204033224" flag="0"/>
			<psa03 value="0.016720760012041" flag="0"/>
			<psa10 value="0.00440403580824753" flag="0"/>
			<psa30 value="0.000456372628278017" flag="0"/>
		</comp>
	</station>
	<station code="PVO" name="PVO" netid="HP" source="University of Patras, Seismological Laboratory (PSLNET)" insttype="" lat="38.616" lon="21.525" esm:processing="manual (Paolucci et al 2011)" esm:quality="best">
		<comp name="--.HNE" depth="0.0">
			<acc value="0.00518449340911812" flag="0"/>
			<vel value="0.00365444874355143" flag="0"/>
			<psa03 value="0.013100307935274" flag="0"/>
			<psa10 value="0.00354761899672236" flag="0"/>
			<psa30 value="0.000363153744653159" flag="0"/>
		</comp>
		<comp name="--.HNN" depth="0.0">
			<acc value="0.00530107760862601" flag="0"/>
			<vel value="0.00398965166860439" flag="0"/>
			<psa03 value="0.0132689336892437" flag="0"/>
			<psa10 value="0.00644059978311938" flag="0"/>
			<psa30 value="0.000252401746418622" flag="0"/>
		</comp>
		<comp name="--.HNZ" depth="0.0">
			<acc value="0.00756162527414328" flag="0"/>
			<vel value="0.00215607925937908" flag="0"/>
			<psa03 value="0.00852567155471302" flag="0"/>
			<psa10 value="0.00255494792463641" flag="0"/>
			<psa30 value="0.000239468051083342" flag="0"/>
		</comp>
	</station>
	<station code="PYL" name="PYL" netid="HP" source="University of Patras, Seismological Laboratory (PSLNET)" insttype="" lat="36.8955" lon="21.742" esm:processing="manual (Paolucci et al 2011)" esm:quality="bad">
		<comp name="--.HNE" depth="0.0">
			<acc value="0.00333005080351263" flag="0"/>
			<vel value="0.00188188748315781" flag="0"/>
			<psa03 value="0.00912205155675454" flag="0"/>
			<psa10 value="0.00239914830680072" flag="0"/>
			<psa30 value="0.000180037147931425" flag="0"/>
		</comp>
		<comp name="--.HNN" depth="0.0">
			<acc value="0.00378090895297341" flag="0"/>
			<vel value="0.00265268162078334" flag="0"/>
			<psa03 value="0.00946551962236175" flag="0"/>
			<psa10 value="0.00287790455330208" flag="0"/>
			<psa30 value="0.000210931889869135" flag="0"/>
		</comp>
		<comp name="--.HNZ" depth="0.0">
			<acc value="0.00163930708078459" flag="0"/>
