<?xml version="1.0" encoding="UTF-8" standalone="yes"?>
<!DOCTYPE earthquake SYSTEM "stationlist.dtd">
<stationlist created="" xmlns="ch.ethz.sed.shakemap.usgs.xml">
  <station code="MK18" name="MK18" netid="CR" insttype="Episensor-ES-T" commtype="DIG" lat="45.3474" lon="19.0072">
    <comp name="--.HNE">
      <acc value="0.3352786339" flag="0"/>
      <vel value="0.1129102243" flag="0"/>
      <psa03 value="0.4591283236" flag="0"/>
      <psa10 value="0.0572154779" flag="0"/>
      <psa30 value="0.0045725465" flag="0"/>
    </comp>
    <comp name="--.HNZ">
      <acc value="0.4619350832" flag="0"/>
      <vel value="0.0687444521" flag="0"/>
      <psa03 value="0.2020001521" flag="0"/>
      <psa10 value="0.0112004136" flag="0"/>
      <psa30 value="0.0010009506" flag="0"/>
    </comp>
    <comp name="--.HNN">
      <acc value="0.8990212407" flag="0"/>
      <vel value="0.1517185608" flag="0"/>
      <psa03 value="0.5541112534" flag="0"/>
      <psa10 value="0.0316462365" flag="0"/>
      <psa30 value="0.0039399438" flag="0"/>
    </comp>
  </station>
  <station code="MK23" name="MK23" netid="CR" insttype="Episensor-ES-T" commtype="DIG" lat="45.3077" lon="18.4111">
    <comp name="--.HNE">
      <acc value="0.0917686127" flag="0"/>
      <vel value="0.0391255311" flag="0"/>
      <psa03 value="0.1976454462" flag="0"/>
      <psa10 value="0.0293359849" flag="0"/>
      <psa30 value="0.0015012798" flag="0"/>
    </comp>
    <comp name="--.HNZ">
      <acc value="0.0662307449" flag="0"/>
      <vel value="0.0159941168" flag="0"/>
      <psa03 value="0.0551315385" flag="0"/>
      <psa10 value="0.0119323500" flag="0"/>
      <psa30 value="0.0006474775" flag="0"/>
    </comp>
    <comp name="--.HNN">
      <acc value="0.0793819666" flag="0"/>
      <vel value="0.0314684426" flag="0"/>
      <psa03 value="0.1019893198" flag="0"/>
      <psa10 value="0.0263859960" flag="0"/>
      <psa30 value="0.0012819628" flag="0"/>
    </comp>
  </station>
  <station code="MK32" name="MK32" netid="CR" insttype="Episensor-ES-T" commtype="DIG" lat="45.2241" lon="19.3729">
    <comp name="--.HNE">
      <acc value="0.0701982261" flag="0"/>
      <vel value="0.0256495463" flag="0"/>
      <psa03 value="0.1821617727" flag="0"/>
      <psa10 value="0.0132886101" flag="0"/>
      <psa30 value="0.0010021174" flag="0"/>
    </comp>
    <comp name="--.HNZ">
      <acc value="0.0740131315" flag="0"/>
      <vel value="0.0244729921" flag="0"/>
      <psa03 value="0.2086869678" flag="0"/>
      <psa10 value="0.0109679053" flag="0"/>
      <psa30 value="0.0007736327" flag="0"/>
    </comp>
    <comp name="--.HNN">
      <acc value="0.0636962871" flag="0"/>
      <vel value="0.0258640585" flag="0"/>
      <psa03 value="0.1157015052" flag="0"/>
      <psa10 value="0.0224776071" flag="0"/>
      <psa30 value="0.0017995180" flag="0"/>
    </comp>
  </station>
  <station code="KOVH" name="KOVH" netid="HU" insttype="" commtype="DIG" lat="46.0883" lon="18.0999">
    <comp name="--.HHN">
      <acc value="0.0187341033" flag="0"/>
      <vel value="0.0049873318" flag="0"/>
      <psa03 value="0.0232817273" flag="0"/>
      <psa10 value="0.0047444944" flag="0"/>
      <psa30 value="0.0002645074" flag="0"/>
    </comp>
    <comp name="--.HHZ">
      <acc value="0.0098593230" flag="0"/>
      <vel value="0.0033357532" flag="0"/>
      <psa03 value="0.0129038890" flag="0"/>
      <psa10 value="0.0030429555" flag="0"/>
      <psa30 value="0.0002364353" flag="0"/>
    </comp>
    <comp name="--.HHE">
      <acc value="0.0166818495" flag="0"/>
      <vel value="0.0043072702" flag="0"/>
      <psa03 value="0.0314189447" flag="0"/>
      <psa10 value="0.0045580418" flag="0"/>
      <psa30 value="0.0003153273" flag="0"/>
    </comp>
  </station>
  <station code="MORH" name="MORH" netid="HU" insttype="" commtype="DIG" lat="46.215" lon="18.6436">
    <comp name="--.HHE">
      <acc value="0.0704449502" flag="0"/>
      <vel value="0.0156845720" flag="0"/>
      <psa03 value="0.0504890389" flag="0"/>
      <psa10 value="0.0072839951" flag="0"/>
      <psa30 value="0.0005745164" flag="0"/>
    </comp>
    <comp name="--.HHN">
      <acc value="0.0411023002" flag="0"/>
      <vel value="0.0060827762" flag="0"/>
      <psa03 value="0.0216346590" flag="0"/>
      <psa10 value="0.0061823047" flag="0"/>
      <psa30 value="0.0003794477" flag="0"/>
    </comp>
    <comp name="--.HHZ">
      <acc value="0.0262026022" flag="0"/>
      <vel value="0.0103929346" flag="0"/>
      <psa03 value="0.0302092243" flag="0"/>
      <psa10 value="0.0069263605" flag="0"/>
      <psa30 value="0.0003516589" flag="0"/>
    </comp>
  </station>
</stationlist>
