<?xml version="1.0" encoding="UTF-8" standalone="yes"?>
<!DOCTYPE earthquake SYSTEM "stationlist.dtd">
<stationlist created="" xmlns="ch.ethz.sed.shakemap.usgs.xml">
  <station code="MK18" name="MK18" netid="CR" insttype="Episensor-ES-T" commtype="DIG" lat="45.3474" lon="19.0072">
    <comp name="--.HNN">
      <acc value="0.8990212413" flag="0"/>
      <vel value="0.1517185600" flag="0"/>
      <psa03 value="0.5541112534" flag="0"/>
      <psa10 value="0.0316462366" flag="0"/>
      <psa30 value="0.0039405357" flag="0"/>
    </comp>
    <comp name="--.HNE">
      <acc value="0.3352786349" flag="0"/>
      <vel value="0.1129102246" flag="0"/>
      <psa03 value="0.4591283236" flag="0"/>
      <psa10 value="0.0572154802" flag="0"/>
      <psa30 value="0.0045726396" flag="0"/>
    </comp>
    <comp name="--.HNZ">
      <acc value="0.4619350828" flag="0"/>
      <vel value="0.0687444509" flag="0"/>
      <psa03 value="0.2020001521" flag="0"/>
      <psa10 value="0.0112004149" flag="0"/>
      <psa30 value="0.0010009060" flag="0"/>
    </comp>
  </station>
  <station code="MK23" name="MK23" netid="CR" insttype="Episensor-ES-T" commtype="DIG" lat="45.3077" lon="18.4111">
    <comp name="--.HNE">
      <acc value="0.0917686139" flag="0"/>
      <vel value="0.0391255288" flag="0"/>
      <psa03 value="0.1976454462" flag="0"/>
      <psa10 value="0.0293359844" flag="0"/>
      <psa30 value="0.0015009221" flag="0"/>
    </comp>
    <comp name="--.HNN">
      <acc value="0.0793819673" flag="0"/>
      <vel value="0.0314684441" flag="0"/>
      <psa03 value="0.1019893198" flag="0"/>
      <psa10 value="0.0263859947" flag="0"/>
      <psa30 value="0.0012817377" flag="0"/>
    </comp>
    <comp name="--.HNZ">
      <acc value="0.0662307455" flag="0"/>
      <vel value="0.0159941188" flag="0"/>
      <psa03 value="0.0551315385" flag="0"/>
      <psa10 value="0.0119323496" flag="0"/>
      <psa30 value="0.0006486021" flag="0"/>
    </comp>
  </station>
  <station code="MK32" name="MK32" netid="CR" insttype="Episensor-ES-T" commtype="DIG" lat="45.2241" lon="19.3729">
    <comp name="--.HNN">
      <acc value="0.0636962865" flag="0"/>
      <vel value="0.0258640581" flag="0"/>
      <psa03 value="0.1157015052" flag="0"/>
      <psa10 value="0.0224776072" flag="0"/>
      <psa30 value="0.0017994237" flag="0"/>
    </comp>
    <comp name="--.HNE">
      <acc value="0.0701982264" flag="0"/>
      <vel value="0.0256495458" flag="0"/>
      <psa03 value="0.1821617727" flag="0"/>
      <psa10 value="0.0132886101" flag="0"/>
      <psa30 value="0.0010021204" flag="0"/>
    </comp>
    <comp name="--.HNZ">
      <acc value="0.0740131319" flag="0"/>
      <vel value="0.0244729928" flag="0"/>
      <psa03 value="0.2086869678" flag="0"/>
      <psa10 value="0.0109679053" flag="0"/>
      <psa30 value="0.0007735802" flag="0"/>
    </comp>
  </station>
  <station code="KOVH" name="KOVH" netid="HU" insttype="" commtype="DIG" lat="46.0883" lon="18.0999">
    <comp name="--.HHE">
      <acc value="0.0166818495" flag="0"/>
      <vel value="0.0043072701" flag="0"/>
      <psa03 value="0.0314189447" flag="0"/>
      <psa10 value="0.0045580418" flag="0"/>
      <psa30 value="0.0003153293" flag="0"/>
    </comp>
    <comp name="--.HHZ">
      <acc value="0.0098593230" flag="0"/>
      <vel value="0.0033357532" flag="0"/>
      <psa03 value="0.0129038890" flag="0"/>
      <psa10 value="0.0030429555" flag="0"/>
      <psa30 value="0.0002364355" flag="0"/>
    </comp>
    <comp name="--.HHN">
      <acc value="0.0187341033" flag="0"/>
      <vel value="0.0049873318" flag="0"/>
      <psa03 value="0.0232817273" flag="0"/>
      <psa10 value="0.0047444944" flag="0"/>
      <psa30 value="0.0002645068" flag="0"/>
    </comp>
  </station>
  <station code="MORH" name="MORH" netid="HU" insttype="" commtype="DIG" lat="46.215" lon="18.6436">
    <comp name="--.HHE">
      <acc value="0.0704449503" flag="0"/>
      <vel value="0.0156845720" flag="0"/>
      <psa03 value="0.0504890389" flag="0"/>
      <psa10 value="0.0072839952" flag="0"/>
      <psa30 value="0.0005745223" flag="0"/>
    </comp>
    <comp name="--.HHZ">
      <acc value="0.0262026023" flag="0"/>
      <vel value="0.0103929346" flag="0"/>
      <psa03 value="0.0302092243" flag="0"/>
      <psa10 value="0.0069263604" flag="0"/>
      <psa30 value="0.0003516538" flag="0"/>
    </comp>
    <comp name="--.HHN">
      <acc value="0.0411023001" flag="0"/>
      <vel value="0.0060827762" flag="0"/>
      <psa03 value="0.0216346590" flag="0"/>
      <psa10 value="0.0061823047" flag="0"/>
      <psa30 value="0.0003794477" flag="0"/>
    </comp>
  </station>
</stationlist>
