<stationlist created="1777600518">
	<station code="MALA" name="MALA" netid="CL" source="Corinth Riff Laboratory (CRLNET)" insttype="" lat="38.39341" lon="21.87263">
		<comp name="01.HNE" depth="0.0">
			<acc value="0.0210400319183306" flag="0"/>
			<vel value="0.0326020242456557" flag="0"/>
			<psa03 value="0.0670087046228196" flag="0"/>
			<psa10 value="0.0584729172938005" flag="0"/>
			<psa30 value="0.0117854240598374" flag="0"/>
		</comp>
		<comp name="01.HNN" depth="0.0">
			<acc value="0.0247220737381021" flag="0"/>
			<vel value="0.032587349432962" flag="0"/>
			<psa03 value="0.0599072341852553" flag="0"/>
			<psa10 value="0.0383452026814891" flag="0"/>
			<psa30 value="0.0094627135249971" flag="0"/>
		</comp>
		<comp name="01.HNZ" depth="0.0">
			<acc value="0.0100922684223902" flag="0"/>
			<vel value="0.0202359647448493" flag="0"/>
			<psa03 value="0.0344536495726944" flag="0"/>
			<psa10 value="0.0264581039695383" flag="0"/>
			<psa30 value="0.00489068940083721" flag="0"/>
		</comp>
	</station>
	<station code="TRIZ" name="TRIZ" netid="CL" source="Corinth Riff Laboratory (CRLNET)" insttype="" lat="38.36543" lon="22.07272">
		<comp name="00.HNE" depth="0.0">
			<acc value="0.0204992600478981" flag="0"/>
			<vel value="0.0170795751787965" flag="0"/>
			<psa03 value="0.0881903005079264" flag="0"/>
			<psa10 value="0.0102509000093168" flag="0"/>
			<psa30 value="0.00471928179592461" flag="0"/>
		</comp>
		<comp name="00.HNN" depth="0.0">
			<acc value="0.0319828428263443" flag="0"/>
			<vel value="0.0216938106915351" flag="0"/>
			<psa03 value="0.111349928469617" flag="0"/>
			<psa10 value="0.0197504827475517" flag="0"/>
			<psa30 value="0.00658984779507512" flag="0"/>
		</comp>
		<comp name="00.HNZ" depth="0.0">
			<acc value="0.0104645547611249" flag="0"/>
			<vel value="0.00820114774722712" flag="0"/>
			<psa03 value="0.0283122140869008" flag="0"/>
			<psa10 value="0.0151776304435289" flag="0"/>
			<psa30 value="0.00247952842325581" flag="0"/>
		</comp>
	</station>
	<station code="ATHU" name="ATHU" netid="HA" source="Hellenic Seismological Network, University of Athens, Seismological Laboratory (HA)" insttype="" lat="37.9665" lon="23.7845">
		<comp name="--.HNE" depth="0.0">
			<acc value="0.000866031504191937" flag="0"/>
			<vel value="0.000705449166521923" flag="0"/>
			<psa03 value="0.00256721449895507" flag="0"/>
			<psa10 value="0.000662017292896642" flag="0"/>
			<psa30 value="9.70758643933424e-05" flag="0"/>
		</comp>
		<comp name="--.HNN" depth="0.0">
			<acc value="0.000787694052954615" flag="0"/>
			<vel value="0.000517822629236229" flag="0"/>
			<psa03 value="0.00179946881535268" flag="0"/>
			<psa10 value="0.000662012898074256" flag="0"/>
			<psa30 value="0.000115236279671311" flag="0"/>
		</comp>
		<comp name="--.HNZ" depth="0.0">
			<acc value="0.00112818938716204" flag="0"/>
			<vel value="0.000772478975301637" flag="0"/>
			<psa03 value="0.00274969810452544" flag="0"/>
			<psa10 value="0.00114363368980679" flag="0"/>
			<psa30 value="0.000286185729233368" flag="0"/>
		</comp>
	</station>
	<station code="ITS1" name="ITS1" netid="HI" source="ITSAK Strong Motion Network" insttype="" lat="40.605" lon="23.0123">
		<comp name="--.HNE" depth="0.0">
			<acc value="0.0181414947236689" flag="0"/>
			<vel value="0.0151703704223362" flag="0"/>
			<psa03 value="0.0484188168839913" flag="0"/>
			<psa10 value="0.0205697020168077" flag="0"/>
			<psa30 value="0.00195401965254548" flag="0"/>
		</comp>
		<comp name="--.HNN" depth="0.0">
			<acc value="0.0160010960873663" flag="0"/>
			<vel value="0.0168677025937046" flag="0"/>
			<psa03 value="0.0409530957541063" flag="0"/>
			<psa10 value="0.0181785679909136" flag="0"/>
			<psa30 value="0.00160118232047054" flag="0"/>
		</comp>
		<comp name="--.HNZ" depth="0.0">
			<acc value="0.0183176920427755" flag="0"/>
			<vel value="0.0076326897514545" flag="0"/>
			<psa03 value="0.0353813360273692" flag="0"/>
			<psa10 value="0.00701272174589901" flag="0"/>
			<psa30 value="0.000746741186688802" flag="0"/>
		</comp>
	</station>
	<station code="ACHA" name="ACHA" netid="HL" source="National Observatory of Athens Seismic Network" insttype="" lat="38.07458" lon="23.74127">
		<comp name="00.HNE" depth="0.0">
			<acc value="0.0614485308599241" flag="0"/>
			<vel value="0.0497081137685776" flag="0"/>
			<psa03 value="0.207674861607033" flag="0"/>
			<psa10 value="0.0436663139289946" flag="0"/>
			<psa30 value="0.0129070891979813" flag="0"/>
		</comp>
		<comp name="00.HNN" depth="0.0">
			<acc value="0.0798832372532526" flag="0"/>
			<vel value="0.047355450466572" flag="0"/>
			<psa03 value="0.342955969149816" flag="0"/>
			<psa10 value="0.0621872908528196" flag="0"/>
			<psa30 value="0.00753831270955422" flag="0"/>
		</comp>
		<comp name="00.HNZ" depth="0.0">
			<acc value="0.0434425861637461" flag="0"/>
			<vel value="0.0200286349316855" flag="0"/>
			<psa03 value="0.118595179265258" flag="0"/>
			<psa10 value="0.033647480230432" flag="0"/>
			<psa30 value="0.0040381016710844" flag="0"/>
		</comp>
	</station>
	<station code="AGXA" name="AGXA" netid="HL" source="National Observatory of Athens Seismic Network" insttype="" lat="39.27649" lon="22.81999">
		<comp name="00.HNE" depth="0.0">
			<acc value="0.563102007796048" flag="0"/>
			<vel value="0.286389526422662" flag="0"/>
			<psa03 value="2.95110082928002" flag="0"/>
			<psa10 value="0.152769460226986" flag="0"/>
			<psa30 value="0.00935913583014982" flag="0"/>
		</comp>
		<comp name="00.HNN" depth="0.0">
			<acc value="0.725783279707017" flag="0"/>
			<vel value="0.396288141539456" flag="0"/>
			<psa03 value="2.19118098832005" flag="0"/>
			<psa10 value="0.166469882812744" flag="0"/>
			<psa30 value="0.0158731265167305" flag="0"/>
		</comp>
		<comp name="00.HNZ" depth="0.0">
			<acc value="0.162010363368063" flag="0"/>
			<vel value="0.0926523457002712" flag="0"/>
			<psa03 value="0.41877236661406" flag="0"/>
			<psa10 value="0.0841908497306074" flag="0"/>
			<psa30 value="0.00828617058480149" flag="0"/>
		</comp>
	</station>
	<station code="ALNA" name="ALNA" netid="HL" source="National Observatory of Athens Seismic Network" insttype="" lat="39.14804" lon="23.86669">
		<comp name="00.HNE" depth="0.0">
			<acc value="0.295799555875528" flag="0"/>
			<vel value="0.110121484747628" flag="0"/>
			<psa03 value="0.325495249962862" flag="0"/>
			<psa10 value="0.130708098770061" flag="0"/>
			<psa30 value="0.0109612927985193" flag="0"/>
		</comp>
		<comp name="00.HNN" depth="0.0">
			<acc value="0.311346822277989" flag="0"/>
			<vel value="0.199276785552911" flag="0"/>
			<psa03 value="0.471954264653802" flag="0"/>
			<psa10 value="0.150648109697925" flag="0"/>
			<psa30 value="0.0132291138638684" flag="0"/>
		</comp>
		<comp name="00.HNZ" depth="0.0">
			<acc value="0.283657651572526" flag="0"/>
			<vel value="0.0986533243644588" flag="0"/>
			<psa03 value="0.344620350240228" flag="0"/>
			<psa10 value="0.106393310534672" flag="0"/>
			<psa30 value="0.00757547933832764" flag="0"/>
		</comp>
	</station>
	<station code="ARTB" name="ARTB" netid="HL" source="National Observatory of Athens Seismic Network" insttype="" lat="39.15702" lon="20.9785">
		<comp name="00.HNE" depth="0.0">
			<acc value="0.00831120540258971" flag="0"/>
			<vel value="0.00358706048062971" flag="0"/>
			<psa03 value="0.0309855448277757" flag="0"/>
			<psa10 value="0.00489883092975688" flag="0"/>
			<psa30 value="0.00139921123254385" flag="0"/>
		</comp>
		<comp name="00.HNN" depth="0.0">
			<acc value="0.00699912961690476" flag="0"/>
			<vel value="0.00370206338341679" flag="0"/>
			<psa03 value="0.0243553582146185" flag="0"/>
			<psa10 value="0.00419172299357641" flag="0"/>
			<psa30 value="0.00106864308402635" flag="0"/>
		</comp>
		<comp name="00.HNZ" depth="0.0">
			<acc value="0.0233737012680613" flag="0"/>
			<vel value="0.00348467478647936" flag="0"/>
			<psa03 value="0.0083151471918595" flag="0"/>
			<psa10 value="0.00326049646063883" flag="0"/>
			<psa30 value="0.0011771114153543" flag="0"/>
		</comp>
	</station>
	<station code="ATHP" name="ATHP" netid="HL" source="National Observatory of Athens Seismic Network" insttype="" lat="38.000799" lon="23.773487">
		<comp name="00.HNE" depth="0.0">
			<acc value="0.0228534134201207" flag="0"/>
			<vel value="0.0216585161740702" flag="0"/>
			<psa03 value="0.0893096038229444" flag="0"/>
			<psa10 value="0.0353450976892572" flag="0"/>
			<psa30 value="0.0079605856830663" flag="0"/>
		</comp>
		<comp name="00.HNN" depth="0.0">
			<acc value="0.0475582209318289" flag="0"/>
			<vel value="0.0346393750093114" flag="0"/>
			<psa03 value="0.123701246683832" flag="0"/>
			<psa10 value="0.0569648561421504" flag="0"/>
			<psa30 value="0.00675991531121342" flag="0"/>
		</comp>
		<comp name="00.HNZ" depth="0.0">
			<acc value="0.026184489066537" flag="0"/>
			<vel value="0.0147581323474015" flag="0"/>
			<psa03 value="0.0608973987371307" flag="0"/>
			<psa10 value="0.0214334423603665" flag="0"/>
			<psa30 value="0.00380615588914801" flag="0"/>
		</comp>
	</station>
	<station code="DLFA" name="DLFA" netid="HL" source="National Observatory of Athens Seismic Network" insttype="" lat="38.47836" lon="22.49583">
		<comp name="00.HNE" depth="0.0">
			<acc value="0.0330186561710115" flag="0"/>
			<vel value="0.0225373049571796" flag="0"/>
			<psa03 value="0.104002712585957" flag="0"/>
			<psa10 value="0.023205265984986" flag="0"/>
			<psa30 value="0.00360027558392153" flag="0"/>
		</comp>
		<comp name="00.HNN" depth="0.0">
			<acc value="0.038838319840304" flag="0"/>
			<vel value="0.0211756175200466" flag="0"/>
			<psa03 value="0.129612190338173" flag="0"/>
			<psa10 value="0.0174196227145138" flag="0"/>
			<psa30 value="0.00264815813581334" flag="0"/>
		</comp>
		<comp name="00.HNZ" depth="0.0">
			<acc value="0.0222049007971531" flag="0"/>
			<vel value="0.0135800231777887" flag="0"/>
			<psa03 value="0.0716920773732795" flag="0"/>
			<psa10 value="0.00919710363797897" flag="0"/>
			<psa30 value="0.00280035905171039" flag="0"/>
		</comp>
	</station>
	<station code="DRPA" name="DRPA" netid="HL" source="National Observatory of Athens Seismic Network" insttype="" lat="37.94738" lon="23.63024">
		<comp name="00.HNE" depth="0.0">
			<acc value="0.0593068955136584" flag="0"/>
			<vel value="0.0321522591804121" flag="0"/>
			<psa03 value="0.157633765379997" flag="0"/>
			<psa10 value="0.0433168695300182" flag="0"/>
			<psa30 value="0.00486479101852982" flag="0"/>
		</comp>
		<comp name="00.HNN" depth="0.0">
			<acc value="0.0558433684713044" flag="0"/>
			<vel value="0.0216260055257609" flag="0"/>
			<psa03 value="0.108299570148349" flag="0"/>
			<psa10 value="0.0265649916753243" flag="0"/>
			<psa30 value="0.00594109481837433" flag="0"/>
		</comp>
		<comp name="00.HNZ" depth="0.0">
			<acc value="0.0401709990305911" flag="0"/>
			<vel value="0.0227859240534764" flag="0"/>
			<psa03 value="0.0886255897603698" flag="0"/>
			<psa10 value="0.0336017046980276" flag="0"/>
			<psa30 value="0.00529680213714623" flag="0"/>
		</comp>
	</station>
	<station code="EFSA" name="EFSA" netid="HL" source="National Observatory of Athens Seismic Network" insttype="" lat="39.54015" lon="24.98864">
		<comp name="00.HNE" depth="0.0">
			<acc value="0.0306263222227463" flag="0"/>
			<vel value="0.0326427503216994" flag="0"/>
			<psa03 value="0.0840353013012873" flag="0"/>
			<psa10 value="0.0410360134344957" flag="0"/>
			<psa30 value="0.00940238786205133" flag="0"/>
		</comp>
		<comp name="00.HNN" depth="0.0">
			<acc value="0.0320426278498531" flag="0"/>
			<vel value="0.0344962148378727" flag="0"/>
			<psa03 value="0.0735345952643805" flag="0"/>
			<psa10 value="0.0522862787093567" flag="0"/>
			<psa30 value="0.0052423668644099" flag="0"/>
		</comp>
		<comp name="00.HNZ" depth="0.0">
			<acc value="0.0210041019492897" flag="0"/>
			<vel value="0.0140607554198846" flag="0"/>
			<psa03 value="0.0662594987416069" flag="0"/>
			<psa10 value="0.0154454253711286" flag="0"/>
			<psa30 value="0.00310462254100664" flag="0"/>
		</comp>
	</station>
	<station code="ELFA" name="ELFA" netid="HL" source="National Observatory of Athens Seismic Network" insttype="" lat="38.04472" lon="23.5405">
		<comp name="00.HNE" depth="0.0">
			<acc value="0.0382696226407462" flag="0"/>
			<vel value="0.0248612572248458" flag="0"/>
			<psa03 value="0.08604870030409" flag="0"/>
			<psa10 value="0.0626155054699364" flag="0"/>
			<psa30 value="0.00397390450167032" flag="0"/>
		</comp>
		<comp name="00.HNN" depth="0.0">
			<acc value="0.0337030961546128" flag="0"/>
			<vel value="0.0292984511597252" flag="0"/>
			<psa03 value="0.0982549776600595" flag="0"/>
			<psa10 value="0.0478497760628296" flag="0"/>
			<psa30 value="0.007983569705645" flag="0"/>
		</comp>
		<comp name="00.HNZ" depth="0.0">
			<acc value="0.0255935325807635" flag="0"/>
			<vel value="0.0221765076013616" flag="0"/>
			<psa03 value="0.0959780872439105" flag="0"/>
			<psa10 value="0.0366223122984568" flag="0"/>
			<psa30 value="0.00230207625125364" flag="0"/>
		</comp>
	</station>
	<station code="GINA" name="GINA" netid="HL" source="National Observatory of Athens Seismic Network" insttype="" lat="39.66886" lon="22.389">
		<comp name="00.HNE" depth="0.0">
			<acc value="0.0599095695975113" flag="0"/>
			<vel value="0.0725754484294704" flag="0"/>
			<psa03 value="0.101978057629169" flag="0"/>
			<psa10 value="0.0708577939810992" flag="0"/>
			<psa30 value="0.0224171116902987" flag="0"/>
		</comp>
		<comp name="00.HNN" depth="0.0">
			<acc value="0.0652043048847886" flag="0"/>
			<vel value="0.0617152958194476" flag="0"/>
			<psa03 value="0.128524545370365" flag="0"/>
			<psa10 value="0.0555574404077652" flag="0"/>
			<psa30 value="0.0128944358597598" flag="0"/>
		</comp>
		<comp name="00.HNZ" depth="0.0">
			<acc value="0.0429805120557837" flag="0"/>
			<vel value="0.0382485698073122" flag="0"/>
			<psa03 value="0.0585321222575055" flag="0"/>
			<psa10 value="0.0394806804013154" flag="0"/>
			<psa30 value="0.00891370798940808" flag="0"/>
		</comp>
	</station>
	<station code="KIAA" name="KIAA" netid="HL" source="National Observatory of Athens Seismic Network" insttype="" lat="38.0139" lon="22.7495">
		<comp name="00.HNE" depth="0.0">
			<acc value="0.0385348811683624" flag="0"/>
			<vel value="0.0499988862486587" flag="0"/>
			<psa03 value="0.17222190885624" flag="0"/>
			<psa10 value="0.0515484135794131" flag="0"/>
			<psa30 value="0.0108838326671658" flag="0"/>
		</comp>
		<comp name="00.HNN" depth="0.0">
			<acc value="0.0426577466394019" flag="0"/>
			<vel value="0.048524962124842" flag="0"/>
			<psa03 value="0.157198049015926" flag="0"/>
			<psa10 value="0.0672249808250565" flag="0"/>
			<psa30 value="0.0104351962805403" flag="0"/>
		</comp>
		<comp name="00.HNZ" depth="0.0">
			<acc value="0.0243512434355481" flag="0"/>
			<vel value="0.0190289361521445" flag="0"/>
			<psa03 value="0.0924354567286919" flag="0"/>
			<psa10 value="0.0235931991836565" flag="0"/>
			<psa30 value="0.00511413878659572" flag="0"/>
		</comp>
	</station>
	<station code="KRYO" name="KRYO" netid="HL" source="National Observatory of Athens Seismic Network" insttype="" lat="37.971151" lon="22.617961">
		<comp name="--.HNE" depth="0.0">
			<acc value="0.0199928038907601" flag="0"/>
			<vel value="0.0167992511309567" flag="0"/>
			<psa03 value="0.0571680110584999" flag="0"/>
			<psa10 value="0.0259963752572772" flag="0"/>
			<psa30 value="0.00706873910260731" flag="0"/>
		</comp>
		<comp name="--.HNN" depth="0.0">
			<acc value="0.0210216856570744" flag="0"/>
			<vel value="0.0190663972765898" flag="0"/>
			<psa03 value="0.0635898114712607" flag="0"/>
			<psa10 value="0.0279540574441143" flag="0"/>
			<psa30 value="0.0035103525436281" flag="0"/>
		</comp>
		<comp name="--.HNZ" depth="0.0">
			<acc value="0.0179470951335136" flag="0"/>
			<vel value="0.0133815819649585" flag="0"/>
			<psa03 value="0.0541575460049647" flag="0"/>
			<psa10 value="0.0145912490986426" flag="0"/>
			<psa30 value="0.00310537613259505" flag="0"/>
		</comp>
	</station>
	<station code="KVLA" name="KVLA" netid="HL" source="National Observatory of Athens Seismic Network" insttype="" lat="40.93704" lon="24.38591">
		<comp name="00.HNE" depth="0.0">
			<acc value="0.00823358486109312" flag="0"/>
			<vel value="0.00739481705818766" flag="0"/>
			<psa03 value="0.0182510241449449" flag="0"/>
			<psa10 value="0.00726833024120736" flag="0"/>
			<psa30 value="0.000946961481550706" flag="0"/>
		</comp>
		<comp name="00.HNN" depth="0.0">
			<acc value="0.00688936522141268" flag="0"/>
			<vel value="0.00421015193977324" flag="0"/>
			<psa03 value="0.0248869272826271" flag="0"/>
			<psa10 value="0.00481531383465921" flag="0"/>
			<psa30 value="0.00105216678421902" flag="0"/>
		</comp>
		<comp name="00.HNZ" depth="0.0">
			<acc value="0.0111066511999001" flag="0"/>
			<vel value="0.00425014145927926" flag="0"/>
			<psa03 value="0.0119437026700186" flag="0"/>
			<psa10 value="0.00571252233281894" flag="0"/>
			<psa30 value="0.0010084497215115" flag="0"/>
		</comp>
	</station>
	<station code="LARA" name="LARA" netid="HL" source="National Observatory of Athens Seismic Network" insttype="" lat="39.63704" lon="22.42969">
		<comp name="00.HNE" depth="0.0">
			<acc value="0.0867806607100904" flag="0"/>
			<vel value="0.129564895547665" flag="0"/>
			<psa03 value="0.184681838432091" flag="0"/>
			<psa10 value="0.14301012871917" flag="0"/>
			<psa30 value="0.0445153289220712" flag="0"/>
		</comp>
		<comp name="00.HNN" depth="0.0">
			<acc value="0.111948229091426" flag="0"/>
			<vel value="0.120901384832285" flag="0"/>
			<psa03 value="0.247244482900246" flag="0"/>
			<psa10 value="0.209365794456369" flag="0"/>
			<psa30 value="0.0365636021591982" flag="0"/>
		</comp>
		<comp name="00.HNZ" depth="0.0">
			<acc value="0.0548288580729479" flag="0"/>
			<vel value="0.104316457919218" flag="0"/>
			<psa03 value="0.117378827854613" flag="0"/>
			<psa10 value="0.0796040933805098" flag="0"/>
			<psa30 value="0.022837307859566" flag="0"/>
		</comp>
	</station>
	<station code="LIA" name="LIA" netid="HL" source="National Observatory of Athens Seismic Network" insttype="" lat="39.89725" lon="25.18055">
		<comp name="00.HNE" depth="0.0">
			<acc value="0.023677449774755" flag="0"/>
			<vel value="0.0204542861055203" flag="0"/>
			<psa03 value="0.0603082815860107" flag="0"/>
			<psa10 value="0.0265379955119609" flag="0"/>
			<psa30 value="0.00238176569695499" flag="0"/>
		</comp>
		<comp name="00.HNN" depth="0.0">
			<acc value="0.033211136317149" flag="0"/>
			<vel value="0.0318245668835619" flag="0"/>
			<psa03 value="0.0951519283482716" flag="0"/>
			<psa10 value="0.0413887092988658" flag="0"/>
			<psa30 value="0.00466829550166618" flag="0"/>
		</comp>
		<comp name="00.HNZ" depth="0.0">
			<acc value="0.0169797507669263" flag="0"/>
			<vel value="0.0112179958799595" flag="0"/>
			<psa03 value="0.0391650866822804" flag="0"/>
			<psa10 value="0.0187410265010295" flag="0"/>
			<psa30 value="0.00185558521508042" flag="0"/>
		</comp>
	</station>
	<station code="LKR" name="LKR" netid="HL" source="National Observatory of Athens Seismic Network" insttype="" lat="38.64957" lon="22.998812">
		<comp name="--.HNE" depth="0.0">
			<acc value="0.0903516942905032" flag="0"/>
			<vel value="0.0251136681730605" flag="0"/>
			<psa03 value="0.144992438370789" flag="0"/>
			<psa10 value="0.0102295751591501" flag="0"/>
			<psa30 value="0.00217172490778353" flag="0"/>
		</comp>
		<comp name="--.HNN" depth="0.0">
			<acc value="0.102155591427453" flag="0"/>
			<vel value="0.0309985426222673" flag="0"/>
			<psa03 value="0.224363821335376" flag="0"/>
			<psa10 value="0.0119608276586317" flag="0"/>
			<psa30 value="0.00172703284495014" flag="0"/>
		</comp>
		<comp name="--.HNZ" depth="0.0">
			<acc value="0.0635742594194244" flag="0"/>
			<vel value="0.0269812394838199" flag="0"/>
			<psa03 value="0.16849841219286" flag="0"/>
			<psa10 value="0.00959684168116252" flag="0"/>
			<psa30 value="0.00169062887086552" flag="0"/>
