<?xml version="1.0" encoding="UTF-8" standalone="yes"?>
<!DOCTYPE earthquake SYSTEM "stationlist.dtd">
<stationlist created="" xmlns="ch.ethz.sed.shakemap.usgs.xml">
  <station code="PSAM" name="PSAM" netid="CL" insttype="CMG40-T" commtype="DIG" lat="38.3218" lon="22.1842">
    <comp name="00.HHE">
      <acc value="0.0178416445" flag="0"/>
      <vel value="0.0197837136" flag="0"/>
      <psa03 value="0.0526665446" flag="0"/>
      <psa10 value="0.0220392368" flag="0"/>
      <psa30 value="0.0049394216" flag="0"/>
    </comp>
    <comp name="00.HHN">
      <acc value="0.0163476676" flag="0"/>
      <vel value="0.0153895903" flag="0"/>
      <psa03 value="0.0604927284" flag="0"/>
      <psa10 value="0.0286527437" flag="0"/>
      <psa30 value="0.0028257878" flag="0"/>
    </comp>
    <comp name="00.HHZ">
      <acc value="0.0100889923" flag="0"/>
      <vel value="0.0073591220" flag="0"/>
      <psa03 value="0.0295125331" flag="0"/>
      <psa10 value="0.0137708559" flag="0"/>
      <psa30 value="0.0021955615" flag="0"/>
    </comp>
  </station>
  <station code="TRIZ" name="TRIZ" netid="CL" insttype="STS-2" commtype="DIG" lat="38.3654" lon="22.0727">
    <comp name="00.HH2">
      <acc value="0.0295039608" flag="0"/>
      <vel value="0.0168869848" flag="0"/>
      <psa03 value="0.1196518054" flag="0"/>
      <psa10 value="0.0141125276" flag="0"/>
      <psa30 value="0.0020204579" flag="0"/>
    </comp>
    <comp name="00.HH3">
      <acc value="0.0100472097" flag="0"/>
      <vel value="0.0096124761" flag="0"/>
      <psa03 value="0.0361168662" flag="0"/>
      <psa10 value="0.0122132748" flag="0"/>
      <psa30 value="0.0020209320" flag="0"/>
    </comp>
    <comp name="00.HHZ">
      <acc value="0.0143784034" flag="0"/>
      <vel value="0.0137537489" flag="0"/>
      <psa03 value="0.0516494061" flag="0"/>
      <psa10 value="0.0174855006" flag="0"/>
      <psa30 value="0.0028963465" flag="0"/>
    </comp>
  </station>
  <station code="THL" name="THL" netid="MN" insttype="" commtype="DIG" lat="39.5647" lon="22.0144">
    <comp name="--.HHE">
      <acc value="0.0167249623" flag="0"/>
      <vel value="0.0104049462" flag="0"/>
      <psa03 value="0.0502608250" flag="0"/>
      <psa10 value="0.0131076625" flag="0"/>
      <psa30 value="0.0023809675" flag="0"/>
    </comp>
    <comp name="--.HHZ">
      <acc value="0.0261851985" flag="0"/>
      <vel value="0.0124883352" flag="0"/>
      <psa03 value="0.0652726781" flag="0"/>
      <psa10 value="0.0071803865" flag="0"/>
      <psa30 value="0.0021979294" flag="0"/>
    </comp>
    <comp name="--.HHN">
      <acc value="0.0134575485" flag="0"/>
      <vel value="0.0161005611" flag="0"/>
      <psa03 value="0.0606038656" flag="0"/>
      <psa10 value="0.0118202248" flag="0"/>
      <psa30 value="0.0024124309" flag="0"/>
    </comp>
  </station>
</stationlist>
