<?xml version="1.0" encoding="UTF-8" standalone="yes"?>
<!DOCTYPE earthquake SYSTEM "stationlist.dtd">
<stationlist created="" xmlns="ch.ethz.sed.shakemap.usgs.xml">
  <station code="PSAM" name="PSAM" netid="CL" insttype="CMG40-T" commtype="DIG" lat="38.3218" lon="22.1842">
    <comp name="00.HHE">
      <acc value="0.0178416445" flag="0"/>
      <vel value="0.0197837136" flag="0"/>
      <psa03 value="0.0526665446" flag="0"/>
      <psa10 value="0.0220392368" flag="0"/>
      <psa30 value="0.0049394216" flag="0"/>
    </comp>
    <comp name="00.HHN">
      <acc value="0.0163476676" flag="0"/>
      <vel value="0.0153895903" flag="0"/>
      <psa03 value="0.0604927284" flag="0"/>
      <psa10 value="0.0286527437" flag="0"/>
      <psa30 value="0.0028257878" flag="0"/>
    </comp>
    <comp name="00.HHZ">
      <acc value="0.0100889923" flag="0"/>
      <vel value="0.0073591220" flag="0"/>
      <psa03 value="0.0295125331" flag="0"/>
      <psa10 value="0.0137708559" flag="0"/>
      <psa30 value="0.0021955615" flag="0"/>
    </comp>
  </station>
  <station code="TRIZ" name="TRIZ" netid="CL" insttype="STS-2" commtype="DIG" lat="38.3654" lon="22.0727">
    <comp name="00.HH2">
      <acc value="0.0295039608" flag="0"/>
      <vel value="0.0168869848" flag="0"/>
      <psa03 value="0.1196518054" flag="0"/>
      <psa10 value="0.0141125276" flag="0"/>
      <psa30 value="0.0020204579" flag="0"/>
    </comp>
    <comp name="00.HH3">
      <acc value="0.0100472097" flag="0"/>
      <vel value="0.0096124761" flag="0"/>
      <psa03 value="0.0361168662" flag="0"/>
      <psa10 value="0.0122132748" flag="0"/>
      <psa30 value="0.0020209320" flag="0"/>
    </comp>
    <comp name="00.HHZ">
      <acc value="0.0143784034" flag="0"/>
      <vel value="0.0137537489" flag="0"/>
      <psa03 value="0.0516494061" flag="0"/>
      <psa10 value="0.0174855006" flag="0"/>
      <psa30 value="0.0028963465" flag="0"/>
    </comp>
  </station>
  <station code="ACOR" name="ACOR" netid="HA" insttype="Horizon,120s,1200" commtype="DIG" lat="37.8905" lon="22.8694">
    <comp name="--.HHZ">
      <acc value="0.0097169770" flag="0"/>
      <vel value="0.0090472385" flag="0"/>
      <psa03 value="0.0265021834" flag="0"/>
      <psa10 value="0.0081781156" flag="0"/>
      <psa30 value="0.0017333734" flag="0"/>
    </comp>
    <comp name="--.HHE">
      <acc value="0.0081960685" flag="0"/>
      <vel value="0.0093185904" flag="0"/>
      <psa03 value="0.0284268386" flag="0"/>
      <psa10 value="0.0102202840" flag="0"/>
      <psa30 value="0.0016939618" flag="0"/>
    </comp>
    <comp name="--.HHN">
      <acc value="0.0075744542" flag="0"/>
      <vel value="0.0068358686" flag="0"/>
      <psa03 value="0.0368539931" flag="0"/>
      <psa10 value="0.0076195541" flag="0"/>
      <psa30 value="0.0021375231" flag="0"/>
    </comp>
  </station>
  <station code="ALIO" name="ALIO" netid="HA" insttype="25" commtype="DIG" lat="38.0657" lon="23.6727">
    <comp name="--.HHN">
      <acc value="0.0173188895" flag="0"/>
      <vel value="0.0084606803" flag="0"/>
      <psa03 value="0.0524566878" flag="0"/>
      <psa10 value="0.0147989213" flag="0"/>
      <psa30 value="0.0012993493" flag="0"/>
    </comp>
    <comp name="--.HHE">
      <acc value="0.0225746862" flag="0"/>
      <vel value="0.0106244967" flag="0"/>
      <psa03 value="0.0560441116" flag="0"/>
      <psa10 value="0.0090821523" flag="0"/>
      <psa30 value="0.0029035867" flag="0"/>
    </comp>
    <comp name="--.HHZ">
      <acc value="0.0166909451" flag="0"/>
      <vel value="0.0085765811" flag="0"/>
      <psa03 value="0.0365230396" flag="0"/>
      <psa10 value="0.0060139487" flag="0"/>
      <psa30 value="0.0012238841" flag="0"/>
    </comp>
  </station>
  <station code="AMPE" name="AMPE" netid="HA" insttype="1s-100Hz," commtype="DIG" lat="38.3015" lon="23.2688">
    <comp name="--.HHN">
      <acc value="0.1330896766" flag="0"/>
      <vel value="0.1023960972" flag="0"/>
      <psa03 value="0.5422234707" flag="0"/>
      <psa10 value="0.0817203673" flag="0"/>
      <psa30 value="0.0123155364" flag="0"/>
    </comp>
    <comp name="--.HHE">
      <acc value="0.1527542995" flag="0"/>
      <vel value="0.1060625202" flag="0"/>
      <psa03 value="0.6424707746" flag="0"/>
      <psa10 value="0.1465018155" flag="0"/>
      <psa30 value="0.0137494283" flag="0"/>
    </comp>
    <comp name="--.HHZ">
      <acc value="0.0764699040" flag="0"/>
      <vel value="0.0485361412" flag="0"/>
      <psa03 value="0.2555039817" flag="0"/>
      <psa10 value="0.0494314970" flag="0"/>
      <psa30 value="0.0048821796" flag="0"/>
    </comp>
  </station>
  <station code="ANTK" name="ANTK" netid="HA" insttype="25" commtype="DIG" lat="38.3605" lon="22.6385">
    <comp name="--.HHN">
      <acc value="0.0081373958" flag="0"/>
      <vel value="0.0059234689" flag="0"/>
      <psa03 value="0.0244612134" flag="0"/>
      <psa10 value="0.0080129402" flag="0"/>
      <psa30 value="0.0013395998" flag="0"/>
    </comp>
    <comp name="--.HHE">
      <acc value="0.0086323959" flag="0"/>
      <vel value="0.0088235839" flag="0"/>
      <psa03 value="0.0280542196" flag="0"/>
      <psa10 value="0.0052882402" flag="0"/>
      <psa30 value="0.0019070512" flag="0"/>
    </comp>
    <comp name="--.HHZ">
      <acc value="0.0078680381" flag="0"/>
      <vel value="0.0055935440" flag="0"/>
      <psa03 value="0.0216557888" flag="0"/>
      <psa10 value="0.0098694324" flag="0"/>
      <psa30 value="0.0008755041" flag="0"/>
    </comp>
  </station>
  <station code="ATAL" name="ATAL" netid="HA" insttype="120s," commtype="DIG" lat="38.6926" lon="23.0213">
    <comp name="--.HHE">
      <acc value="0.1242648119" flag="0"/>
      <vel value="0.0437510569" flag="0"/>
      <psa03 value="0.2523892441" flag="0"/>
      <psa10 value="0.0289390082" flag="0"/>
      <psa30 value="0.0044897860" flag="0"/>
    </comp>
    <comp name="--.HHN">
      <acc value="0.1325557216" flag="0"/>
      <vel value="0.0522389145" flag="0"/>
      <psa03 value="0.2355875644" flag="0"/>
      <psa10 value="0.0404633067" flag="0"/>
      <psa30 value="0.0038985160" flag="0"/>
    </comp>
    <comp name="--.HHZ">
      <acc value="0.1232393417" flag="0"/>
      <vel value="0.0595632149" flag="0"/>
      <psa03 value="0.3674832170" flag="0"/>
      <psa10 value="0.0258759037" flag="0"/>
      <psa30 value="0.0036089774" flag="0"/>
    </comp>
  </station>
  <station code="ATHU" name="ATHU" netid="HA" insttype="60s," commtype="DIG" lat="37.9665" lon="23.7845">
    <comp name="--.HHN">
      <acc value="0.0157857940" flag="0"/>
      <vel value="0.0120810540" flag="0"/>
      <psa03 value="0.0451077471" flag="0"/>
      <psa10 value="0.0116381518" flag="0"/>
      <psa30 value="0.0015966608" flag="0"/>
    </comp>
    <comp name="--.HHE">
      <acc value="0.0195489885" flag="0"/>
      <vel value="0.0129354552" flag="0"/>
      <psa03 value="0.0482891684" flag="0"/>
      <psa10 value="0.0203976515" flag="0"/>
      <psa30 value="0.0042184089" flag="0"/>
    </comp>
    <comp name="--.HHZ">
      <acc value="0.0136139296" flag="0"/>
      <vel value="0.0085428789" flag="0"/>
      <psa03 value="0.0312379262" flag="0"/>
      <psa10 value="0.0114264800" flag="0"/>
      <psa30 value="0.0019360657" flag="0"/>
    </comp>
  </station>
  <station code="AXAR" name="AXAR" netid="HA" insttype="Horizon,120s,1200" commtype="DIG" lat="38.7664" lon="22.659">
    <comp name="--.HHZ">
      <acc value="0.1276281619" flag="0"/>
      <vel value="0.0508746248" flag="0"/>
      <psa03 value="0.4948272327" flag="0"/>
      <psa10 value="0.0408631634" flag="0"/>
      <psa30 value="0.0051686909" flag="0"/>
    </comp>
    <comp name="--.HHE">
      <acc value="0.2172934714" flag="0"/>
      <vel value="0.1028283577" flag="0"/>
      <psa03 value="0.6594048921" flag="0"/>
      <psa10 value="0.0607416163" flag="0"/>
      <psa30 value="0.0147461575" flag="0"/>
    </comp>
    <comp name="--.HHN">
      <acc value="0.2435106138" flag="0"/>
      <vel value="0.1073915876" flag="0"/>
      <psa03 value="0.8746479940" flag="0"/>
      <psa10 value="0.0711972697" flag="0"/>
      <psa30 value="0.0111252278" flag="0"/>
    </comp>
  </station>
  <station code="ERTR" name="ERTR" netid="HA" insttype="Horizon,120s,1200" commtype="DIG" lat="38.4066" lon="23.7865">
    <comp name="--.HHE">
      <acc value="0.0560513303" flag="0"/>
      <vel value="0.0361537227" flag="0"/>
      <psa03 value="0.1064977337" flag="0"/>
      <psa10 value="0.0665460902" flag="0"/>
      <psa30 value="0.0074433740" flag="0"/>
    </comp>
    <comp name="--.HHZ">
      <acc value="0.0337838558" flag="0"/>
      <vel value="0.0278151971" flag="0"/>
      <psa03 value="0.0688418804" flag="0"/>
      <psa10 value="0.0325902989" flag="0"/>
      <psa30 value="0.0029531387" flag="0"/>
    </comp>
    <comp name="--.HHN">
      <acc value="0.0805196070" flag="0"/>
      <vel value="0.0583822735" flag="0"/>
      <psa03 value="0.1320392570" flag="0"/>
      <psa10 value="0.0586727466" flag="0"/>
      <psa30 value="0.0065465258" flag="0"/>
    </comp>
  </station>
  <station code="KALE" name="KALE" netid="HA" insttype="40," commtype="DIG" lat="38.3911" lon="22.1398">
    <comp name="--.HHE">
      <acc value="0.0272207727" flag="0"/>
      <vel value="0.0149430835" flag="0"/>
      <psa03 value="0.1385489946" flag="0"/>
      <psa10 value="0.0098639606" flag="0"/>
      <psa30 value="0.0025801621" flag="0"/>
    </comp>
    <comp name="--.HHZ">
      <acc value="0.0252048858" flag="0"/>
      <vel value="0.0103179286" flag="0"/>
      <psa03 value="0.0751744041" flag="0"/>
      <psa10 value="0.0068186164" flag="0"/>
      <psa30 value="0.0020826357" flag="0"/>
    </comp>
    <comp name="--.HHN">
      <acc value="0.0256494556" flag="0"/>
      <vel value="0.0171474219" flag="0"/>
      <psa03 value="0.1113605773" flag="0"/>
      <psa10 value="0.0133263457" flag="0"/>
      <psa30 value="0.0033822858" flag="0"/>
    </comp>
  </station>
  <station code="LOUT" name="LOUT" netid="HA" insttype="30" commtype="DIG" lat="37.9879" lon="22.9743">
    <comp name="--.HHE">
      <acc value="0.0472329115" flag="0"/>
      <vel value="0.0270060295" flag="0"/>
      <psa03 value="0.1718081058" flag="0"/>
      <psa10 value="0.0295247058" flag="0"/>
      <psa30 value="0.0022514300" flag="0"/>
    </comp>
    <comp name="--.HHN">
      <acc value="0.0430669863" flag="0"/>
      <vel value="0.0230346744" flag="0"/>
      <psa03 value="0.1162600095" flag="0"/>
      <psa10 value="0.0515025156" flag="0"/>
      <psa30 value="0.0034964563" flag="0"/>
    </comp>
    <comp name="--.HHZ">
      <acc value="0.0349651964" flag="0"/>
      <vel value="0.0196291230" flag="0"/>
      <psa03 value="0.1084186737" flag="0"/>
      <psa10 value="0.0265760626" flag="0"/>
      <psa30 value="0.0018908695" flag="0"/>
    </comp>
  </station>
  <station code="MDRA" name="MDRA" netid="HA" insttype="60" commtype="DIG" lat="38.0606" lon="23.4662">
    <comp name="--.HHE">
      <acc value="0.0303849043" flag="0"/>
      <vel value="0.0219418400" flag="0"/>
      <psa03 value="0.0942130632" flag="0"/>
      <psa10 value="0.0196758759" flag="0"/>
      <psa30 value="0.0037075625" flag="0"/>
    </comp>
    <comp name="--.HHZ">
      <acc value="0.0244188408" flag="0"/>
      <vel value="0.0172272383" flag="0"/>
      <psa03 value="0.0761410208" flag="0"/>
      <psa10 value="0.0237462839" flag="0"/>
      <psa30 value="0.0019918864" flag="0"/>
    </comp>
    <comp name="--.HHN">
      <acc value="0.0392469076" flag="0"/>
      <vel value="0.0287173927" flag="0"/>
      <psa03 value="0.1297382644" flag="0"/>
      <psa10 value="0.0380996496" flag="0"/>
      <psa30 value="0.0028703772" flag="0"/>
    </comp>
  </station>
  <station code="MRKA" name="MRKA" netid="HA" insttype="Horizon,120s,1200" commtype="DIG" lat="38.7047" lon="23.5863">
    <comp name="--.HHE">
      <acc value="0.4343867710" flag="0"/>
      <vel value="0.1694968077" flag="0"/>
      <psa03 value="0.6914043892" flag="0"/>
      <psa10 value="0.1981847719" flag="0"/>
      <psa30 value="0.0100919066" flag="0"/>
    </comp>
    <comp name="--.HHN">
      <acc value="0.2913279342" flag="0"/>
      <vel value="0.1260405683" flag="0"/>
      <psa03 value="0.4611297380" flag="0"/>
      <psa10 value="0.0888430242" flag="0"/>
      <psa30 value="0.0071679042" flag="0"/>
    </comp>
    <comp name="--.HHZ">
      <acc value="0.2004182169" flag="0"/>
      <vel value="0.0849339252" flag="0"/>
      <psa03 value="0.2477537666" flag="0"/>
      <psa10 value="0.0554178996" flag="0"/>
      <psa30 value="0.0046130365" flag="0"/>
    </comp>
  </station>
  <station code="MRTH" name="MRTH" netid="HA" insttype="S100," commtype="DIG" lat="38.1225" lon="23.9409">
    <comp name="--.HHE">
      <acc value="0.0733981088" flag="0"/>
      <vel value="0.0429089949" flag="0"/>
      <psa03 value="0.1701089688" flag="0"/>
      <psa10 value="0.0771494424" flag="0"/>
      <psa30 value="0.0073020768" flag="0"/>
    </comp>
    <comp name="--.HHN">
      <acc value="0.0526449767" flag="0"/>
      <vel value="0.0302631442" flag="0"/>
      <psa03 value="0.1688573269" flag="0"/>
      <psa10 value="0.0554486403" flag="0"/>
      <psa30 value="0.0033128967" flag="0"/>
    </comp>
    <comp name="--.HHZ">
      <acc value="0.0389247293" flag="0"/>
      <vel value="0.0224514547" flag="0"/>
      <psa03 value="0.1095005720" flag="0"/>
      <psa10 value="0.0297785304" flag="0"/>
      <psa30 value="0.0021359222" flag="0"/>
    </comp>
  </station>
  <station code="PRDM" name="PRDM" netid="HA" insttype="25" commtype="DIG" lat="38.2804" lon="22.847">
    <comp name="--.HHE">
      <acc value="0.0176788894" flag="0"/>
      <vel value="0.0069415083" flag="0"/>
      <psa03 value="0.0440931434" flag="0"/>
      <psa10 value="0.0062679489" flag="0"/>
      <psa30 value="0.0007042541" flag="0"/>
    </comp>
    <comp name="--.HHZ">
      <acc value="0.0137476211" flag="0"/>
      <vel value="0.0075889698" flag="0"/>
      <psa03 value="0.0583383896" flag="0"/>
      <psa10 value="0.0058158630" flag="0"/>
      <psa30 value="0.0009648560" flag="0"/>
    </comp>
    <comp name="--.HHN">
      <acc value="0.0240033820" flag="0"/>
      <vel value="0.0099656471" flag="0"/>
      <psa03 value="0.0639012059" flag="0"/>
      <psa10 value="0.0067809246" flag="0"/>
      <psa30 value="0.0026776051" flag="0"/>
    </comp>
  </station>
  <station code="PSAH" name="PSAH" netid="HA" insttype="25" commtype="DIG" lat="38.5694" lon="23.6473">
    <comp name="--.HHN">
      <acc value="0.0518849358" flag="0"/>
      <vel value="0.0309077135" flag="0"/>
      <psa03 value="0.1526445873" flag="0"/>
      <psa10 value="0.0306868011" flag="0"/>
      <psa30 value="0.0032516239" flag="0"/>
    </comp>
    <comp name="--.HHE">
      <acc value="0.0597351775" flag="0"/>
      <vel value="0.0324478555" flag="0"/>
      <psa03 value="0.1257914307" flag="0"/>
      <psa10 value="0.0701351237" flag="0"/>
      <psa30 value="0.0032525714" flag="0"/>
    </comp>
    <comp name="--.HHZ">
      <acc value="0.0315388194" flag="0"/>
      <vel value="0.0216908080" flag="0"/>
      <psa03 value="0.0671706844" flag="0"/>
      <psa10 value="0.0199261815" flag="0"/>
      <psa30 value="0.0021137156" flag="0"/>
    </comp>
  </station>
  <station code="THAL" name="THAL" netid="HA" insttype="30" commtype="DIG" lat="38.0357" lon="22.6634">
    <comp name="--.HHZ">
      <acc value="0.0213287517" flag="0"/>
      <vel value="0.0106235522" flag="0"/>
      <psa03 value="0.0716491702" flag="0"/>
      <psa10 value="0.0168463757" flag="0"/>
      <psa30 value="0.0023006589" flag="0"/>
    </comp>
    <comp name="--.HHE">
      <acc value="0.0489101220" flag="0"/>
      <vel value="0.0298981602" flag="0"/>
      <psa03 value="0.2069034275" flag="0"/>
      <psa10 value="0.0268956821" flag="0"/>
      <psa30 value="0.0048732782" flag="0"/>
    </comp>
    <comp name="--.HHN">
      <acc value="0.0550213745" flag="0"/>
      <vel value="0.0315288867" flag="0"/>
      <psa03 value="0.1532786417" flag="0"/>
      <psa10 value="0.0192139468" flag="0"/>
      <psa30 value="0.0053592810" flag="0"/>
    </comp>
  </station>
  <station code="THIV" name="THIV" netid="HA" insttype="25" commtype="DIG" lat="38.299" lon="23.332">
    <comp name="--.HHE">
      <acc value="0.0644813055" flag="0"/>
      <vel value="0.0345623017" flag="0"/>
      <psa03 value="0.1689178261" flag="0"/>
      <psa10 value="0.0471907992" flag="0"/>
      <psa30 value="0.0030314138" flag="0"/>
    </comp>
    <comp name="--.HHN">
      <acc value="0.0617423810" flag="0"/>
      <vel value="0.0345062760" flag="0"/>
      <psa03 value="0.2204668743" flag="0"/>
      <psa10 value="0.0345468823" flag="0"/>
      <psa30 value="0.0035380306" flag="0"/>
    </comp>
    <comp name="--.HHZ">
      <acc value="0.0431347964" flag="0"/>
      <vel value="0.0287994954" flag="0"/>
      <psa03 value="0.1348045470" flag="0"/>
      <psa10 value="0.0193102306" flag="0"/>
      <psa30 value="0.0044780867" flag="0"/>
    </comp>
  </station>
  <station code="AGXA" name="AGXA" netid="HL" insttype="CMG-5" commtype="DIG" lat="39.2765" lon="22.82">
    <comp name="00.HNE">
      <acc value="0.5627791221" flag="0"/>
      <vel value="0.2807900409" flag="0"/>
      <psa03 value="2.9460091353" flag="0"/>
      <psa10 value="0.1525887982" flag="0"/>
      <psa30 value="0.0091355136" flag="0"/>
    </comp>
    <comp name="00.HNN">
      <acc value="0.7259610156" flag="0"/>
      <vel value="0.3954705539" flag="0"/>
      <psa03 value="2.1903836722" flag="0"/>
      <psa10 value="0.1662318517" flag="0"/>
      <psa30 value="0.0157566143" flag="0"/>
    </comp>
    <comp name="00.HNZ">
      <acc value="0.1626383734" flag="0"/>
      <vel value="0.0918142984" flag="0"/>
      <psa03 value="0.4170485383" flag="0"/>
      <psa10 value="0.0843543450" flag="0"/>
      <psa30 value="0.0065618164" flag="0"/>
    </comp>
  </station>
  <station code="ALNA" name="ALNA" netid="HL" insttype="CMG-5" commtype="DIG" lat="39.148" lon="23.8667">
    <comp name="00.HNE">
      <acc value="0.2945711982" flag="0"/>
      <vel value="0.1082055457" flag="0"/>
      <psa03 value="0.3250815816" flag="0"/>
      <psa10 value="0.1308798795" flag="0"/>
      <psa30 value="0.0097330540" flag="0"/>
    </comp>
    <comp name="00.HNZ">
      <acc value="0.2830889940" flag="0"/>
      <vel value="0.0976191483" flag="0"/>
      <psa03 value="0.3452497824" flag="0"/>
      <psa10 value="0.1067271780" flag="0"/>
      <psa30 value="0.0069442163" flag="0"/>
    </comp>
    <comp name="00.HNN">
      <acc value="0.3105587535" flag="0"/>
      <vel value="0.1928249400" flag="0"/>
      <psa03 value="0.4705815400" flag="0"/>
      <psa10 value="0.1495773895" flag="0"/>
      <psa30 value="0.0128048769" flag="0"/>
    </comp>
  </station>
  <station code="ATH" name="ATH" netid="HL" insttype="DR24" commtype="DIG" lat="37.9738" lon="23.7177">
    <comp name="--.HHN">
      <acc value="0.0783270806" flag="0"/>
      <vel value="0.0353983638" flag="0"/>
      <psa03 value="0.3038434862" flag="0"/>
      <psa10 value="0.0203404627" flag="0"/>
      <psa30 value="0.0031243863" flag="0"/>
    </comp>
    <comp name="--.HHZ">
      <acc value="0.0307045609" flag="0"/>
      <vel value="0.0192414920" flag="0"/>
      <psa03 value="0.0931152354" flag="0"/>
      <psa10 value="0.0225935572" flag="0"/>
      <psa30 value="0.0026891495" flag="0"/>
    </comp>
    <comp name="--.HHE">
      <acc value="0.0827962489" flag="0"/>
      <vel value="0.0554546082" flag="0"/>
      <psa03 value="0.1977353911" flag="0"/>
      <psa10 value="0.0583972994" flag="0"/>
      <psa30 value="0.0080531368" flag="0"/>
    </comp>
  </station>
  <station code="ATHP" name="ATHP" netid="HL" insttype="CMG-5" commtype="DIG" lat="38.0008" lon="23.7735">
    <comp name="00.HNE">
