<?xml version="1.0" encoding="UTF-8" standalone="yes"?>
<!DOCTYPE earthquake SYSTEM "stationlist.dtd">
<stationlist created="" xmlns="ch.ethz.sed.shakemap.usgs.xml">
  <station code="URFA" name="URFA" netid="KO" insttype="CMG-3ESP" lat="37.4409" lon="38.8213">
    <comp name="--.HHN">
      <acc value="0.0982093529" flag="0"/>
      <vel value="0.0562626715" flag="0"/>
      <psa03 value="0.3021625684" flag="0"/>
      <psa10 value="0.0300091647" flag="0"/>
      <psa30 value="0.0044440036" flag="0"/>
    </comp>
    <comp name="--.HHE">
      <acc value="0.0994601091" flag="0"/>
      <vel value="0.0752798140" flag="0"/>
      <psa03 value="0.2114835728" flag="0"/>
      <psa10 value="0.0293219347" flag="0"/>
      <psa30 value="0.0048051689" flag="0"/>
    </comp>
    <comp name="--.HHZ">
      <acc value="0.0668863332" flag="0"/>
      <vel value="0.0371397330" flag="0"/>
      <psa03 value="0.1849571993" flag="0"/>
      <psa10 value="0.0151705195" flag="0"/>
      <psa30 value="0.0013966517" flag="0"/>
    </comp>
  </station>
</stationlist>
