<?xml version="1.0" encoding="UTF-8" standalone="yes"?>
<!DOCTYPE earthquake SYSTEM "stationlist.dtd">
<stationlist created="" xmlns="ch.ethz.sed.shakemap.usgs.xml">
  <station code="KBN" name="KBN" netid="AC" insttype="" lat="40.6236" lon="20.7874">
    <comp name="--.HHE">
      <acc value="0.0273602371" flag="0"/>
      <vel value="0.0130319947" flag="0"/>
      <psa03 value="0.0408581284" flag="0"/>
      <psa10 value="0.0213011097" flag="0"/>
      <psa30 value="0.0010411749" flag="0"/>
    </comp>
    <comp name="--.HHN">
      <acc value="0.0232665518" flag="0"/>
      <vel value="0.0154962929" flag="0"/>
      <psa03 value="0.0593568277" flag="0"/>
      <psa10 value="0.0324725701" flag="0"/>
      <psa30 value="0.0010162311" flag="0"/>
    </comp>
    <comp name="--.HHZ">
      <acc value="0.0198867068" flag="0"/>
      <vel value="0.0102054763" flag="0"/>
      <psa03 value="0.0314781904" flag="0"/>
      <psa10 value="0.0124311396" flag="0"/>
      <psa30 value="0.0010157394" flag="0"/>
    </comp>
  </station>
  <station code="LMS2" name="LMS2" netid="HI" insttype="CMG-5TD,ACCELEROMETER,GURALP" lat="40.835" lon="21.1418">
    <comp name="--.HNE">
      <acc value="1.2738420314" flag="0"/>
      <vel value="0.4936507294" flag="0"/>
      <psa03 value="1.7630904585" flag="0"/>
      <psa10 value="0.1864116881" flag="0"/>
      <psa30 value="0.0130885807" flag="0"/>
    </comp>
    <comp name="--.HNN">
      <acc value="1.2129232191" flag="0"/>
      <vel value="0.2516163599" flag="0"/>
      <psa03 value="0.9601820447" flag="0"/>
      <psa10 value="0.0727587078" flag="0"/>
      <psa30 value="0.0066674857" flag="0"/>
    </comp>
    <comp name="--.HNZ">
      <acc value="0.3689115189" flag="0"/>
      <vel value="0.1060522814" flag="0"/>
      <psa03 value="0.3681799651" flag="0"/>
      <psa10 value="0.0674881995" flag="0"/>
      <psa30 value="0.0036609669" flag="0"/>
    </comp>
  </station>
  <station code="KZN" name="KZN" netid="HL" insttype="120" lat="40.3033" lon="21.7821">
    <comp name="--.HHZ">
      <acc value="0.0196343350" flag="0"/>
      <vel value="0.0098888805" flag="0"/>
      <psa03 value="0.0321809283" flag="0"/>
      <psa10 value="0.0073494935" flag="0"/>
      <psa30 value="0.0005391481" flag="0"/>
    </comp>
    <comp name="--.HHE">
      <acc value="0.0319121928" flag="0"/>
      <vel value="0.0142089955" flag="0"/>
      <psa03 value="0.0792433795" flag="0"/>
      <psa10 value="0.0079908527" flag="0"/>
      <psa30 value="0.0006604192" flag="0"/>
    </comp>
    <comp name="--.HHN">
      <acc value="0.0312623588" flag="0"/>
      <vel value="0.0159821955" flag="0"/>
      <psa03 value="0.0835316864" flag="0"/>
      <psa10 value="0.0084768673" flag="0"/>
      <psa30 value="0.0005495535" flag="0"/>
    </comp>
  </station>
  <station code="PENT" name="PENT" netid="HL" insttype="30s-100Hz," lat="40.1959" lon="21.1384">
    <comp name="--.HHN">
      <acc value="0.0081264687" flag="0"/>
      <vel value="0.0049477282" flag="0"/>
      <psa03 value="0.0173478502" flag="0"/>
      <psa10 value="0.0071742274" flag="0"/>
      <psa30 value="0.0003319327" flag="0"/>
    </comp>
    <comp name="--.HHZ">
      <acc value="0.0092235857" flag="0"/>
      <vel value="0.0043720291" flag="0"/>
      <psa03 value="0.0191150169" flag="0"/>
      <psa10 value="0.0057664795" flag="0"/>
      <psa30 value="0.0004953137" flag="0"/>
    </comp>
    <comp name="--.HHE">
      <acc value="0.0116983536" flag="0"/>
      <vel value="0.0063497607" flag="0"/>
      <psa03 value="0.0144794709" flag="0"/>
      <psa10 value="0.0097896098" flag="0"/>
      <psa30 value="0.0010246576" flag="0"/>
    </comp>
  </station>
  <station code="KPRO" name="KPRO" netid="HT" insttype="100" lat="39.9549" lon="21.3632">
    <comp name="--.HHE">
      <acc value="0.0167810251" flag="0"/>
      <vel value="0.0129395081" flag="0"/>
      <psa03 value="0.0391071090" flag="0"/>
      <psa10 value="0.0123153106" flag="0"/>
      <psa30 value="0.0017046726" flag="0"/>
    </comp>
    <comp name="--.HHN">
      <acc value="0.0100833252" flag="0"/>
      <vel value="0.0055165318" flag="0"/>
      <psa03 value="0.0219968453" flag="0"/>
      <psa10 value="0.0078724421" flag="0"/>
      <psa30 value="0.0005073377" flag="0"/>
    </comp>
    <comp name="--.HHZ">
      <acc value="0.0088106627" flag="0"/>
      <vel value="0.0048949730" flag="0"/>
      <psa03 value="0.0146126587" flag="0"/>
      <psa10 value="0.0119482505" flag="0"/>
      <psa30 value="0.0006101766" flag="0"/>
    </comp>
  </station>
  <station code="LIT" name="LIT" netid="HT" insttype="100" lat="40.1033" lon="22.4892">
    <comp name="--.HHN">
      <acc value="0.0082368435" flag="0"/>
      <vel value="0.0041341669" flag="0"/>
      <psa03 value="0.0208152284" flag="0"/>
      <psa10 value="0.0051314774" flag="0"/>
      <psa30 value="0.0004145788" flag="0"/>
    </comp>
    <comp name="--.HHE">
      <acc value="0.0113827714" flag="0"/>
      <vel value="0.0060954347" flag="0"/>
      <psa03 value="0.0308930658" flag="0"/>
      <psa10 value="0.0043539781" flag="0"/>
      <psa30 value="0.0005847789" flag="0"/>
    </comp>
    <comp name="--.HHZ">
      <acc value="0.0049463424" flag="0"/>
      <vel value="0.0030278128" flag="0"/>
      <psa03 value="0.0134618701" flag="0"/>
      <psa10 value="0.0033242111" flag="0"/>
      <psa30 value="0.0004491817" flag="0"/>
    </comp>
  </station>
  <station code="NEST" name="NEST" netid="HT" insttype="120P," lat="40.4147" lon="21.0489">
    <comp name="--.HHE">
      <acc value="0.0520170273" flag="0"/>
      <vel value="0.0168508929" flag="0"/>
      <psa03 value="0.0888606503" flag="0"/>
      <psa10 value="0.0147772583" flag="0"/>
      <psa30 value="0.0007457151" flag="0"/>
    </comp>
    <comp name="--.HHZ">
      <acc value="0.0420821913" flag="0"/>
      <vel value="0.0128235254" flag="0"/>
      <psa03 value="0.0528665011" flag="0"/>
      <psa10 value="0.0103040549" flag="0"/>
      <psa30 value="0.0007250074" flag="0"/>
    </comp>
    <comp name="--.HHN">
      <acc value="0.0434405822" flag="0"/>
      <vel value="0.0106328136" flag="0"/>
      <psa03 value="0.0399277307" flag="0"/>
      <psa10 value="0.0068217244" flag="0"/>
      <psa30 value="0.0005172401" flag="0"/>
    </comp>
  </station>
</stationlist>
