<stationlist created="1775820668">
	<station code="E02" name="E02" netid="EG" source="EUROSEISTEST Strong Motion Network" insttype="" lat="40.674206" lon="23.315498">
		<comp name="--.EN1" depth="0.0">
			<acc value="0.0108282173457605" flag="0"/>
			<vel value="0.0128394483993708" flag="0"/>
			<psa03 value="0.0473824669808858" flag="0"/>
			<psa10 value="0.0259474551415525" flag="0"/>
			<psa30 value="0.000966046287492504" flag="0"/>
		</comp>
		<comp name="--.EN2" depth="0.0">
			<acc value="0.0131427316796826" flag="0"/>
			<vel value="0.01167106866765" flag="0"/>
			<psa03 value="0.0383248383116185" flag="0"/>
			<psa10 value="0.0155279280240159" flag="0"/>
			<psa30 value="0.00105690084782784" flag="0"/>
		</comp>
		<comp name="--.EN3" depth="0.0">
			<acc value="0.00703554465248297" flag="0"/>
			<vel value="0.00605772632522786" flag="0"/>
			<psa03 value="0.0133338025698206" flag="0"/>
			<psa10 value="0.00715838702052401" flag="0"/>
			<psa30 value="0.000435242139947335" flag="0"/>
		</comp>
	</station>
	<station code="MMAA" name="MMAA" netid="EG" source="EUROSEISTEST Strong Motion Network" insttype="" lat="40.630855" lon="22.943725">
		<comp name="--.EN1" depth="0.0">
			<acc value="0.0154180963837052" flag="0"/>
			<vel value="0.0122234681537348" flag="0"/>
			<psa03 value="0.0540950418642405" flag="0"/>
			<psa10 value="0.0201294547276015" flag="0"/>
			<psa30 value="0.000863790971913751" flag="0"/>
		</comp>
		<comp name="--.EN2" depth="0.0">
			<acc value="0.0226687435763673" flag="0"/>
			<vel value="0.0170337416091495" flag="0"/>
			<psa03 value="0.071050920316646" flag="0"/>
			<psa10 value="0.0283323187520892" flag="0"/>
			<psa30 value="0.000990435715670556" flag="0"/>
		</comp>
		<comp name="--.EN3" depth="0.0">
			<acc value="0.0112078719842732" flag="0"/>
			<vel value="0.00513843202151709" flag="0"/>
			<psa03 value="0.038452654070438" flag="0"/>
			<psa10 value="0.00620680554541506" flag="0"/>
			<psa30 value="0.00027480382940522" flag="0"/>
		</comp>
	</station>
	<station code="PRR" name="PRR" netid="EG" source="EUROSEISTEST Strong Motion Network" insttype="" lat="40.682635" lon="23.300668">
		<comp name="--.EN1" depth="0.0">
			<acc value="0.00236220799016227" flag="0"/>
			<vel value="0.00232367428638917" flag="0"/>
			<psa03 value="0.00726898348760815" flag="0"/>
			<psa10 value="0.00270576744693792" flag="0"/>
			<psa30 value="0.000448116925130101" flag="0"/>
		</comp>
		<comp name="--.EN2" depth="0.0">
			<acc value="0.00359959428428121" flag="0"/>
			<vel value="0.00296841771727448" flag="0"/>
			<psa03 value="0.00715330785591361" flag="0"/>
			<psa10 value="0.0020437963289752" flag="0"/>
			<psa30 value="0.00028734124848935" flag="0"/>
		</comp>
		<comp name="--.EN3" depth="0.0">
			<acc value="0.00192450804145272" flag="0"/>
			<vel value="0.00151108804232314" flag="0"/>
			<psa03 value="0.00633740810345036" flag="0"/>
			<psa10 value="0.00134737988230294" flag="0"/>
			<psa30 value="0.000358518619890735" flag="0"/>
		</comp>
	</station>
	<station code="SHTA" name="SHTA" netid="EG" source="EUROSEISTEST Strong Motion Network" insttype="" lat="40.613764" lon="22.952972">
		<comp name="--.EN1" depth="0.0">
			<acc value="0.0127656002233714" flag="0"/>
			<vel value="0.0157781811305553" flag="0"/>
			<psa03 value="0.0238959814290026" flag="0"/>
			<psa10 value="0.0199972809717379" flag="0"/>
			<psa30 value="0.0017153431122315" flag="0"/>
		</comp>
		<comp name="--.EN2" depth="0.0">
			<acc value="0.013099506483476" flag="0"/>
			<vel value="0.00897864908127259" flag="0"/>
			<psa03 value="0.0391028846450408" flag="0"/>
			<psa10 value="0.0202544505079508" flag="0"/>
			<psa30 value="0.000909427849297286" flag="0"/>
		</comp>
		<comp name="--.EN3" depth="0.0">
			<acc value="0.0130103272317175" flag="0"/>
			<vel value="0.00673170635358129" flag="0"/>
			<psa03 value="0.01535003248934" flag="0"/>
			<psa10 value="0.0161970529752731" flag="0"/>
			<psa30 value="0.000728062866006783" flag="0"/>
		</comp>
	</station>
	<station code="W01" name="W01" netid="EG" source="EUROSEISTEST Strong Motion Network" insttype="" lat="40.664956" lon="23.273878">
		<comp name="--.EN1" depth="0.0">
			<acc value="0.00297423379908276" flag="0"/>
			<vel value="0.00269235735356113" flag="0"/>
			<psa03 value="0.00911693012374308" flag="0"/>
			<psa10 value="0.00427236317933496" flag="0"/>
			<psa30 value="0.000599269854934872" flag="0"/>
		</comp>
		<comp name="--.EN2" depth="0.0">
			<acc value="0.00860435585751466" flag="0"/>
			<vel value="0.00614778648346562" flag="0"/>
			<psa03 value="0.0145452864705137" flag="0"/>
			<psa10 value="0.00667255124253936" flag="0"/>
			<psa30 value="0.000900165777400397" flag="0"/>
		</comp>
		<comp name="--.EN3" depth="0.0">
			<acc value="0.0127230286693388" flag="0"/>
			<vel value="0.0107196271127683" flag="0"/>
			<psa03 value="0.036813938742769" flag="0"/>
			<psa10 value="0.0124766574548322" flag="0"/>
			<psa30 value="0.000782253747554535" flag="0"/>
		</comp>
	</station>
	<station code="KRK1" name="KRK1" netid="HI" source="ITSAK Strong Motion Network" insttype="" lat="39.618861" lon="19.9202">
		<comp name="--.HNE" depth="0.0">
			<acc value="0.00463514134421771" flag="0"/>
			<vel value="0.00333439089449352" flag="0"/>
			<psa03 value="0.0137919435965091" flag="0"/>
			<psa10 value="0.00281517555406626" flag="0"/>
			<psa30 value="0.000238029518287253" flag="0"/>
		</comp>
		<comp name="--.HNN" depth="0.0">
			<acc value="0.00476727640578882" flag="0"/>
			<vel value="0.00321907105416109" flag="0"/>
			<psa03 value="0.0120871535791731" flag="0"/>
			<psa10 value="0.00285645242907826" flag="0"/>
			<psa30 value="0.000221029225434691" flag="0"/>
		</comp>
		<comp name="--.HNZ" depth="0.0">
			<acc value="0.00220372809331931" flag="0"/>
			<vel value="0.00140741496115169" flag="0"/>
			<psa03 value="0.00814492628015676" flag="0"/>
			<psa10 value="0.00164882825021669" flag="0"/>
			<psa30 value="0.000128154570340605" flag="0"/>
		</comp>
	</station>
	<station code="LMS2" name="LMS2" netid="HI" source="ITSAK Strong Motion Network" insttype="" lat="40.834985" lon="21.141815">
		<comp name="--.HNE" depth="0.0">
			<acc value="1.28630195768758" flag="0"/>
			<vel value="0.498221759063473" flag="0"/>
			<psa03 value="1.76897501924891" flag="0"/>
			<psa10 value="0.186798644493468" flag="0"/>
			<psa30 value="0.0128564108407746" flag="0"/>
		</comp>
		<comp name="--.HNN" depth="0.0">
			<acc value="1.19544890288943" flag="0"/>
			<vel value="0.257604680896335" flag="0"/>
			<psa03 value="0.975115679962465" flag="0"/>
			<psa10 value="0.0732521325942216" flag="0"/>
			<psa30 value="0.00656113005932239" flag="0"/>
		</comp>
		<comp name="--.HNZ" depth="0.0">
			<acc value="0.37122778042835" flag="0"/>
			<vel value="0.107992481156151" flag="0"/>
			<psa03 value="0.366588868046788" flag="0"/>
			<psa10 value="0.0676842062465287" flag="0"/>
			<psa30 value="0.00378123090465692" flag="0"/>
		</comp>
	</station>
	<station code="GINA" name="GINA" netid="HL" source="National Observatory of Athens Seismic Network" insttype="" lat="39.66886" lon="22.389">
		<comp name="00.HNE" depth="0.0">
			<acc value="0.0119506694964059" flag="0"/>
			<vel value="0.0121350840412289" flag="0"/>
			<psa03 value="0.0254948399496701" flag="0"/>
			<psa10 value="0.0153114571213863" flag="0"/>
			<psa30 value="0.00158269307481329" flag="0"/>
		</comp>
		<comp name="00.HNN" depth="0.0">
			<acc value="0.00596994440787507" flag="0"/>
			<vel value="0.00721312358782523" flag="0"/>
			<psa03 value="0.015338289523884" flag="0"/>
			<psa10 value="0.00850126379201985" flag="0"/>
			<psa30 value="0.0013115164648605" flag="0"/>
		</comp>
		<comp name="00.HNZ" depth="0.0">
			<acc value="0.00518897653392491" flag="0"/>
			<vel value="0.00491866497132572" flag="0"/>
			<psa03 value="0.00839441546382474" flag="0"/>
			<psa10 value="0.00662214696597714" flag="0"/>
			<psa30 value="0.00064666804691908" flag="0"/>
		</comp>
	</station>
	<station code="NASA" name="NASA" netid="HL" source="National Observatory of Athens Seismic Network" insttype="" lat="40.63111" lon="22.06706">
		<comp name="00.HNE" depth="0.0">
			<acc value="0.0523248590520754" flag="0"/>
			<vel value="0.027407913142662" flag="0"/>
			<psa03 value="0.233211365775304" flag="0"/>
			<psa10 value="0.0137395601784144" flag="0"/>
			<psa30 value="0.000937215835951608" flag="0"/>
		</comp>
		<comp name="00.HNN" depth="0.0">
			<acc value="0.0720444130251272" flag="0"/>
			<vel value="0.0367593265250912" flag="0"/>
			<psa03 value="0.267518617628984" flag="0"/>
			<psa10 value="0.01362387532736" flag="0"/>
			<psa30 value="0.00156431216967278" flag="0"/>
		</comp>
		<comp name="00.HNZ" depth="0.0">
			<acc value="0.0353923504214155" flag="0"/>
			<vel value="0.0142489407258193" flag="0"/>
			<psa03 value="0.102470058971639" flag="0"/>
			<psa10 value="0.00976608476768925" flag="0"/>
			<psa30 value="0.000587199940779405" flag="0"/>
		</comp>
	</station>
	<station code="PLG" name="PLG" netid="HL" source="National Observatory of Athens Seismic Network" insttype="" lat="40.37328" lon="23.44443">
		<comp name="--.HNE" depth="0.0">
			<acc value="0.00149219090894732" flag="0"/>
			<vel value="0.00105512543069549" flag="0"/>
			<psa03 value="0.00496600898676056" flag="0"/>
			<psa10 value="0.00121103491261931" flag="0"/>
			<psa30 value="9.47383137085493e-05" flag="0"/>
		</comp>
		<comp name="--.HNN" depth="0.0">
			<acc value="0.00146790383331054" flag="0"/>
			<vel value="0.00140818520886955" flag="0"/>
			<psa03 value="0.00533464929275207" flag="0"/>
			<psa10 value="0.00166046210684167" flag="0"/>
			<psa30 value="0.000268917033183664" flag="0"/>
		</comp>
		<comp name="--.HNZ" depth="0.0">
			<acc value="0.00153505990604277" flag="0"/>
			<vel value="0.00100701364892445" flag="0"/>
			<psa03 value="0.00554342256307894" flag="0"/>
			<psa10 value="0.00101517725051017" flag="0"/>
			<psa30 value="0.000113768851732383" flag="0"/>
		</comp>
	</station>
	<station code="TRKA" name="TRKA" netid="HL" source="National Observatory of Athens Seismic Network" insttype="" lat="39.55381" lon="21.76624">
		<comp name="00.HNE" depth="0.0">
			<acc value="0.00736273656640958" flag="0"/>
			<vel value="0.00852098410338532" flag="0"/>
			<psa03 value="0.0160444964629033" flag="0"/>
			<psa10 value="0.0164967465784824" flag="0"/>
			<psa30 value="0.000918641793009217" flag="0"/>
		</comp>
		<comp name="00.HNN" depth="0.0">
			<acc value="0.00670293174559769" flag="0"/>
			<vel value="0.00769603546566718" flag="0"/>
			<psa03 value="0.0160771431568195" flag="0"/>
			<psa10 value="0.0130269445336411" flag="0"/>
			<psa30 value="0.000912918809723179" flag="0"/>
		</comp>
		<comp name="00.HNZ" depth="0.0">
			<acc value="0.00473839087528099" flag="0"/>
			<vel value="0.00318539986378211" flag="0"/>
			<psa03 value="0.0139296831898213" flag="0"/>
			<psa10 value="0.00434922780251319" flag="0"/>
			<psa30 value="0.00037974880232791" flag="0"/>
		</comp>
	</station>
</stationlist>
