<?xml version="1.0" encoding="UTF-8" standalone="yes"?>
<!DOCTYPE earthquake SYSTEM "stationlist.dtd">
<stationlist created="" xmlns="ch.ethz.sed.shakemap.usgs.xml">
  <station code="KARO" name="KARO" netid="KO" insttype="120s," lat="39.3089" lon="41.0493">
    <comp name="--.HHN">
      <acc value="0.0785238893" flag="0"/>
      <vel value="0.0377075724" flag="0"/>
      <psa03 value="0.2893938904" flag="0"/>
      <psa10 value="0.0542816588" flag="0"/>
      <psa30 value="0.0027487270" flag="0"/>
    </comp>
    <comp name="--.HHE">
      <acc value="0.1104678653" flag="0"/>
      <vel value="0.0708751993" flag="0"/>
      <psa03 value="0.3217212063" flag="0"/>
      <psa10 value="0.0433770189" flag="0"/>
      <psa30 value="0.0031386336" flag="0"/>
    </comp>
    <comp name="--.HHZ">
      <acc value="0.0372163424" flag="0"/>
      <vel value="0.0148002347" flag="0"/>
      <psa03 value="0.1300740271" flag="0"/>
      <psa10 value="0.0195186753" flag="0"/>
      <psa30 value="0.0017675785" flag="0"/>
    </comp>
  </station>
</stationlist>
