<stationlist created="1778069742">
	<station code="ARPRA" name="ARPRA" netid="KO" source="Bogazici University Kandilli Observatory And Earthquake Research Institute (KOERI)" insttype="" lat="39.0929" lon="38.3356">
		<comp name="--.HNE" depth="0.0">
			<acc value="0.003600724897911" flag="0"/>
			<vel value="0.00391347305730497" flag="0"/>
			<psa03 value="0.00939586338983707" flag="0"/>
			<psa10 value="0.00662408368983513" flag="0"/>
			<psa30 value="0.000672922787538807" flag="0"/>
		</comp>
		<comp name="--.HNN" depth="0.0">
			<acc value="0.00400100101987535" flag="0"/>
			<vel value="0.00314852620353458" flag="0"/>
			<psa03 value="0.0120356535803151" flag="0"/>
			<psa10 value="0.0063945561698834" flag="0"/>
			<psa30 value="0.000541380700081088" flag="0"/>
		</comp>
		<comp name="--.HNZ" depth="0.0">
			<acc value="0.00246775062430954" flag="0"/>
			<vel value="0.00174559850070493" flag="0"/>
			<psa03 value="0.00510061155448298" flag="0"/>
			<psa10 value="0.00198521170765272" flag="0"/>
			<psa30 value="0.000491269428668624" flag="0"/>
		</comp>
	</station>
</stationlist>
