<?xml version="1.0" encoding="UTF-8" standalone="yes"?>
<!DOCTYPE earthquake SYSTEM "stationlist.dtd">
<stationlist created="" xmlns="ch.ethz.sed.shakemap.usgs.xml">
  <station code="KARP" name="KARP" netid="GE" source="GFZ" insttype="STS-2/N" lat="35.5471" lon="27.1611">
    <comp name="--.HHE">
      <acc value="0.2315324803" flag="0"/>
      <vel value="0.0406223474" flag="0"/>
      <psa03 value="0.0969763527" flag="0"/>
      <psa10 value="0.0097838979" flag="0"/>
      <psa30 value="0.0009231687" flag="0"/>
    </comp>
    <comp name="--.HHN">
      <acc value="0.1866978780" flag="0"/>
      <vel value="0.0496869005" flag="0"/>
      <psa03 value="0.2179300394" flag="0"/>
      <psa10 value="0.0163187321" flag="0"/>
      <psa30 value="0.0014825187" flag="0"/>
    </comp>
    <comp name="--.HHZ">
      <acc value="0.1656702482" flag="0"/>
      <vel value="0.0232328734" flag="0"/>
      <psa03 value="0.1091336775" flag="0"/>
      <psa10 value="0.0072722259" flag="0"/>
      <psa30 value="0.0005091207" flag="0"/>
    </comp>
  </station>
  <station code="KARP" name="KARP" netid="HL" source="NOA" insttype="120" lat="35.5471" lon="27.1611">
    <comp name="--.HHE">
      <acc value="0.2027826171" flag="0"/>
      <vel value="0.0391940976" flag="0"/>
      <psa03 value="0.0943492664" flag="0"/>
      <psa10 value="0.0096106335" flag="0"/>
      <psa30 value="0.0009065307" flag="0"/>
    </comp>
    <comp name="--.HHN">
      <acc value="0.1723176639" flag="0"/>
      <vel value="0.0480651058" flag="0"/>
      <psa03 value="0.2126163457" flag="0"/>
      <psa10 value="0.0160620232" flag="0"/>
      <psa30 value="0.0014479583" flag="0"/>
    </comp>
    <comp name="--.HHZ">
      <acc value="0.1435570123" flag="0"/>
      <vel value="0.0215225204" flag="0"/>
      <psa03 value="0.1062562107" flag="0"/>
      <psa10 value="0.0072259506" flag="0"/>
      <psa30 value="0.0004981774" flag="0"/>
    </comp>
  </station>
</stationlist>
