<stationlist xmlns:esm="https://esm-db.eu/esmws/shakemap/1/" created="1783475723">
	<station code="KARP" name="KARP" netid="GE" source="GEOFON" insttype="" lat="35.5471" lon="27.16106" esm:processing="manual (Paolucci et al 2011)" esm:quality="good">
		<comp name="--.HNE" depth="0.0">
			<acc value="0.183874885502836" flag="0"/>
			<vel value="0.0392187645119709" flag="0"/>
			<psa03 value="0.102504395362461" flag="0"/>
			<psa10 value="0.0105703463135667" flag="0"/>
			<psa30 value="0.000830862776901306" flag="0"/>
		</comp>
		<comp name="--.HNN" depth="0.0">
			<acc value="0.135848647539919" flag="0"/>
			<vel value="0.0377713927955121" flag="0"/>
			<psa03 value="0.181116452390764" flag="0"/>
			<psa10 value="0.0127810587425755" flag="0"/>
			<psa30 value="0.00123085810406866" flag="0"/>
		</comp>
		<comp name="--.HNZ" depth="0.0">
			<acc value="0.128827443805225" flag="0"/>
			<vel value="0.0192231862026255" flag="0"/>
			<psa03 value="0.0879631782115223" flag="0"/>
			<psa10 value="0.00598382271312766" flag="0"/>
			<psa30 value="0.000443842689653256" flag="0"/>
		</comp>
	</station>
	<station code="RGE1" name="RGE1" netid="HI" source="ITSAK Strong Motion Network" insttype="" lat="36.0269" lon="27.9306" esm:processing="manual (Paolucci et al 2011)" esm:quality="best">
		<comp name="--.HNE" depth="0.0">
			<acc value="0.0316778210551095" flag="0"/>
			<vel value="0.0105274503714058" flag="0"/>
			<psa03 value="0.0557487894463666" flag="0"/>
			<psa10 value="0.00532745454203762" flag="0"/>
			<psa30 value="0.000514982798176308" flag="0"/>
		</comp>
		<comp name="--.HNN" depth="0.0">
			<acc value="0.0318442370198824" flag="0"/>
			<vel value="0.0158479789265486" flag="0"/>
			<psa03 value="0.0670238255141711" flag="0"/>
			<psa10 value="0.00968445062252492" flag="0"/>
			<psa30 value="0.000669343411009345" flag="0"/>
		</comp>
		<comp name="--.HNZ" depth="0.0">
			<acc value="0.0243263431802097" flag="0"/>
			<vel value="0.00790068214077588" flag="0"/>
			<psa03 value="0.0431762293866323" flag="0"/>
			<psa10 value="0.00407914697738784" flag="0"/>
			<psa30 value="0.000321249043519191" flag="0"/>
		</comp>
	</station>
	<station code="SIT2" name="SIT2" netid="HI" source="ITSAK Strong Motion Network" insttype="" lat="35.2059" lon="26.107" esm:processing="manual (Paolucci et al 2011)" esm:quality="good">
		<comp name="--.HNE" depth="0.0">
			<acc value="0.0495413570169993" flag="0"/>
			<vel value="0.0244309651131653" flag="0"/>
			<psa03 value="0.15744542998703" flag="0"/>
			<psa10 value="0.0119620521147386" flag="0"/>
			<psa30 value="0.000838466169266975" flag="0"/>
		</comp>
		<comp name="--.HNN" depth="0.0">
			<acc value="0.0388777778561774" flag="0"/>
			<vel value="0.0230033990676783" flag="0"/>
			<psa03 value="0.164394671590156" flag="0"/>
			<psa10 value="0.0117349576958662" flag="0"/>
			<psa30 value="0.000782976139160141" flag="0"/>
		</comp>
		<comp name="--.HNZ" depth="0.0">
			<acc value="0.0417413012670265" flag="0"/>
			<vel value="0.0125750245575115" flag="0"/>
			<psa03 value="0.0816311524547691" flag="0"/>
			<psa10 value="0.00330894990481547" flag="0"/>
			<psa30 value="0.000298779844781531" flag="0"/>
		</comp>
	</station>
	<station code="AGNA" name="AGNA" netid="HL" source="National Observatory of Athens Seismic Network" insttype="" lat="35.1895" lon="25.71853" esm:processing="automatic (Paolucci et al 2011)" esm:quality="best">
		<comp name="00.HNE" depth="0.0">
			<acc value="0.0255095453068659" flag="0"/>
			<vel value="0.00894671689807889" flag="0"/>
			<psa03 value="0.0315506447628715" flag="0"/>
			<psa10 value="0.00608644975992082" flag="0"/>
			<psa30 value="0.000325368012367389" flag="0"/>
		</comp>
		<comp name="00.HNN" depth="0.0">
			<acc value="0.0367159932080228" flag="0"/>
			<vel value="0.0166564666982293" flag="0"/>
			<psa03 value="0.0598719141372903" flag="0"/>
			<psa10 value="0.0104340752687899" flag="0"/>
			<psa30 value="0.000715352857364833" flag="0"/>
		</comp>
		<comp name="00.HNZ" depth="0.0">
			<acc value="0.0159411895607835" flag="0"/>
			<vel value="0.00541408863369245" flag="0"/>
			<psa03 value="0.0292240974113668" flag="0"/>
			<psa10 value="0.0020269830276791" flag="0"/>
			<psa30 value="0.000260470952838746" flag="0"/>
		</comp>
	</station>
	<station code="IACM" name="IACM" netid="HL" source="National Observatory of Athens Seismic Network" insttype="" lat="35.3058" lon="25.0709" esm:processing="manual (Paolucci et al 2011)" esm:quality="good">
		<comp name="--.HNE" depth="0.0">
			<acc value="0.108895127901172" flag="0"/>
			<vel value="0.0306770882596787" flag="0"/>
			<psa03 value="0.135524143846745" flag="0"/>
			<psa10 value="0.0218212215897973" flag="0"/>
			<psa30 value="0.00144114647517453" flag="0"/>
		</comp>
		<comp name="--.HNN" depth="0.0">
			<acc value="0.0716984671248861" flag="0"/>
			<vel value="0.0274387458901388" flag="0"/>
			<psa03 value="0.137403316524713" flag="0"/>
			<psa10 value="0.0228561088288779" flag="0"/>
			<psa30 value="0.001310051809783" flag="0"/>
		</comp>
		<comp name="--.HNZ" depth="0.0">
			<acc value="0.0681113001100149" flag="0"/>
			<vel value="0.0171374259764567" flag="0"/>
			<psa03 value="0.081162362805545" flag="0"/>
			<psa10 value="0.0109126241941965" flag="0"/>
			<psa30 value="0.000601335256949572" flag="0"/>
		</comp>
	</station>
	<station code="KARP" name="KARP" netid="HL" source="National Observatory of Athens Seismic Network" insttype="" lat="35.5471" lon="27.16106" esm:processing="manual (Paolucci et al 2011)" esm:quality="good">
		<comp name="--.HNE" depth="0.0">
			<acc value="0.180141691454391" flag="0"/>
			<vel value="0.0384224544249259" flag="0"/>
			<psa03 value="0.100401511651402" flag="0"/>
			<psa10 value="0.0103569259879975" flag="0"/>
			<psa30 value="0.000813860738386363" flag="0"/>
		</comp>
		<comp name="--.HNN" depth="0.0">
			<acc value="0.133090526732243" flag="0"/>
			<vel value="0.0370046802820872" flag="0"/>
			<psa03 value="0.177447591448066" flag="0"/>
			<psa10 value="0.0125193168338586" flag="0"/>
			<psa30 value="0.00120580246836242" flag="0"/>
		</comp>
		<comp name="--.HNZ" depth="0.0">
			<acc value="0.126211866692452" flag="0"/>
			<vel value="0.0188329359056565" flag="0"/>
			<psa03 value="0.0861734899467914" flag="0"/>
			<psa10 value="0.00586301875525833" flag="0"/>
			<psa30 value="0.000434894248329601" flag="0"/>
		</comp>
	</station>
	<station code="RODB" name="RODB" netid="HL" source="National Observatory of Athens Seismic Network" insttype="" lat="36.4471" lon="28.22116" esm:processing="manual (Paolucci et al 2011)" esm:quality="good">
		<comp name="00.HNE" depth="0.0">
			<acc value="0.0179105524946193" flag="0"/>
			<vel value="0.010143642032125" flag="0"/>
			<psa03 value="0.0624952389612038" flag="0"/>
			<psa10 value="0.00810951190286414" flag="0"/>
			<psa30 value="0.000562614301686319" flag="0"/>
		</comp>
		<comp name="00.HNN" depth="0.0">
			<acc value="0.022758974130238" flag="0"/>
			<vel value="0.010974330848078" flag="0"/>
			<psa03 value="0.0748043512544832" flag="0"/>
			<psa10 value="0.012938263346449" flag="0"/>
			<psa30 value="0.000968919707008711" flag="0"/>
		</comp>
		<comp name="00.HNZ" depth="0.0">
			<acc value="0.0288963797603039" flag="0"/>
			<vel value="0.00875735480084903" flag="0"/>
			<psa03 value="0.0548207409800437" flag="0"/>
			<psa10 value="0.00505616650871682" flag="0"/>
			<psa30 value="0.000339777925286673" flag="0"/>
		</comp>
	</station>
	<station code="ZKR" name="ZKR" netid="HL" source="National Observatory of Athens Seismic Network" insttype="" lat="35.1147" lon="26.21691" esm:processing="manual (Paolucci et al 2011)" esm:quality="good">
		<comp name="00.HNE" depth="0.0">
			<acc value="0.0586359358344652" flag="0"/>
			<vel value="0.0199789543606918" flag="0"/>
			<psa03 value="0.133152806895977" flag="0"/>
			<psa10 value="0.0163447754997209" flag="0"/>
			<psa30 value="0.000631759957449997" flag="0"/>
		</comp>
		<comp name="00.HNN" depth="0.0">
			<acc value="0.0292253795634" flag="0"/>
			<vel value="0.0125420407082726" flag="0"/>
			<psa03 value="0.0893501866166887" flag="0"/>
			<psa10 value="0.00986162976073328" flag="0"/>
			<psa30 value="0.00061252080860414" flag="0"/>
		</comp>
		<comp name="00.HNZ" depth="0.0">
			<acc value="0.0353172322785312" flag="0"/>
			<vel value="0.00799256836095031" flag="0"/>
			<psa03 value="0.0263531596981621" flag="0"/>
			<psa10 value="0.00808983837864972" flag="0"/>
			<psa30 value="0.000591491971493552" flag="0"/>
		</comp>
	</station>
	<station code="KRL1" name="KRL1" netid="HI" source="ITSAK Strong Motion Network" insttype="" lat="37.7951" lon="26.7065" esm:processing="discarded" esm:quality="bad">
		<comp name="--.HNE" depth="0.0">
			<acc value="0" flag="1"/>
			<vel value="0" flag="1"/>
			<psa03 value="0" flag="1"/>
			<psa10 value="0" flag="1"/>
			<psa30 value="0" flag="1"/>
		</comp>
		<comp name="--.HNN" depth="0.0">
			<acc value="0" flag="1"/>
			<vel value="0" flag="1"/>
			<psa03 value="0" flag="1"/>
			<psa10 value="0" flag="1"/>
			<psa30 value="0" flag="1"/>
		</comp>
		<comp name="--.HNZ" depth="0.0">
			<acc value="0" flag="1"/>
			<vel value="0" flag="1"/>
			<psa03 value="0" flag="1"/>
			<psa10 value="0" flag="1"/>
			<psa30 value="0" flag="1"/>
		</comp>
	</station>
	<station code="NAX1" name="NAX1" netid="HI" source="ITSAK Strong Motion Network" insttype="" lat="37.101394" lon="25.374103" esm:processing="discarded" esm:quality="bad">
		<comp name="--.HNE" depth="0.0">
			<acc value="0" flag="1"/>
			<vel value="0" flag="1"/>
			<psa03 value="0" flag="1"/>
			<psa10 value="0" flag="1"/>
			<psa30 value="0" flag="1"/>
		</comp>
		<comp name="--.HNN" depth="0.0">
			<acc value="0" flag="1"/>
			<vel value="0" flag="1"/>
			<psa03 value="0" flag="1"/>
			<psa10 value="0" flag="1"/>
			<psa30 value="0" flag="1"/>
		</comp>
		<comp name="--.HNZ" depth="0.0">
			<acc value="0" flag="1"/>
			<vel value="0" flag="1"/>
			<psa03 value="0" flag="1"/>
			<psa10 value="0" flag="1"/>
			<psa30 value="0" flag="1"/>
		</comp>
	</station>
	<station code="RDI1" name="RDI1" netid="HI" source="ITSAK Strong Motion Network" insttype="" lat="36.4514" lon="28.224" esm:processing="discarded" esm:quality="good">
		<comp name="--.HNE" depth="0.0">
			<acc value="0" flag="1"/>
			<vel value="0" flag="1"/>
			<psa03 value="0" flag="1"/>
			<psa10 value="0" flag="1"/>
			<psa30 value="0" flag="1"/>
		</comp>
		<comp name="--.HNN" depth="0.0">
			<acc value="0" flag="1"/>
			<vel value="0" flag="1"/>
			<psa03 value="0" flag="1"/>
			<psa10 value="0" flag="1"/>
			<psa30 value="0" flag="1"/>
		</comp>
		<comp name="--.HNZ" depth="0.0">
			<acc value="0" flag="1"/>
			<vel value="0" flag="1"/>
			<psa03 value="0" flag="1"/>
			<psa10 value="0" flag="1"/>
			<psa30 value="0" flag="1"/>
		</comp>
	</station>
	<station code="AMGA" name="AMGA" netid="HL" source="National Observatory of Athens Seismic Network" insttype="" lat="36.831561" lon="25.893836" esm:processing="discarded" esm:quality="bad">
		<comp name="00.HNE" depth="0.0">
			<acc value="0" flag="1"/>
			<vel value="0" flag="1"/>
			<psa03 value="0" flag="1"/>
			<psa10 value="0" flag="1"/>
			<psa30 value="0" flag="1"/>
		</comp>
		<comp name="00.HNN" depth="0.0">
			<acc value="0" flag="1"/>
			<vel value="0" flag="1"/>
			<psa03 value="0" flag="1"/>
			<psa10 value="0" flag="1"/>
			<psa30 value="0" flag="1"/>
		</comp>
		<comp name="00.HNZ" depth="0.0">
			<acc value="0" flag="1"/>
			<vel value="0" flag="1"/>
			<psa03 value="0" flag="1"/>
			<psa10 value="0" flag="1"/>
			<psa30 value="0" flag="1"/>
		</comp>
	</station>
	<station code="ASTA" name="ASTA" netid="HL" source="National Observatory of Athens Seismic Network" insttype="" lat="36.54552" lon="26.35295" esm:processing="discarded" esm:quality="bad">
		<comp name="00.HNE" depth="0.0">
			<acc value="0" flag="1"/>
			<vel value="0" flag="1"/>
			<psa03 value="0" flag="1"/>
			<psa10 value="0" flag="1"/>
			<psa30 value="0" flag="1"/>
		</comp>
		<comp name="00.HNN" depth="0.0">
			<acc value="0" flag="1"/>
			<vel value="0" flag="1"/>
			<psa03 value="0" flag="1"/>
			<psa10 value="0" flag="1"/>
			<psa30 value="0" flag="1"/>
		</comp>
		<comp name="00.HNZ" depth="0.0">
			<acc value="0" flag="1"/>
			<vel value="0" flag="1"/>
			<psa03 value="0" flag="1"/>
			<psa10 value="0" flag="1"/>
			<psa30 value="0" flag="1"/>
		</comp>
	</station>
	<station code="HERG" name="HERG" netid="HL" source="National Observatory of Athens Seismic Network" insttype="" lat="35.32622" lon="25.06586" esm:processing="automatic (Paolucci et al 2011)" esm:quality="bad">
		<comp name="00.HNE" depth="0.0">
			<acc value="0" flag="1"/>
			<vel value="0" flag="1"/>
			<psa03 value="0" flag="1"/>
			<psa10 value="0" flag="1"/>
			<psa30 value="0" flag="1"/>
		</comp>
		<comp name="00.HNN" depth="0.0">
			<acc value="0" flag="1"/>
			<vel value="0" flag="1"/>
			<psa03 value="0" flag="1"/>
			<psa10 value="0" flag="1"/>
			<psa30 value="0" flag="1"/>
		</comp>
		<comp name="00.HNZ" depth="0.0">
			<acc value="0" flag="1"/>
			<vel value="0" flag="1"/>
			<psa03 value="0" flag="1"/>
			<psa10 value="0" flag="1"/>
			<psa30 value="0" flag="1"/>
		</comp>
	</station>
	<station code="KLNA" name="KLNA" netid="HL" source="National Observatory of Athens Seismic Network" insttype="" lat="36.95708" lon="26.97274" esm:processing="discarded" esm:quality="bad">
		<comp name="00.HNE" depth="0.0">
			<acc value="0" flag="1"/>
			<vel value="0" flag="1"/>
			<psa03 value="0" flag="1"/>
			<psa10 value="0" flag="1"/>
			<psa30 value="0" flag="1"/>
		</comp>
		<comp name="00.HNN" depth="0.0">
			<acc value="0" flag="1"/>
			<vel value="0" flag="1"/>
			<psa03 value="0" flag="1"/>
			<psa10 value="0" flag="1"/>
			<psa30 value="0" flag="1"/>
		</comp>
		<comp name="00.HNZ" depth="0.0">
			<acc value="0" flag="1"/>
			<vel value="0" flag="1"/>
			<psa03 value="0" flag="1"/>
			<psa10 value="0" flag="1"/>
			<psa30 value="0" flag="1"/>
		</comp>
	</station>
	<station code="MILA" name="MILA" netid="HL" source="National Observatory of Athens Seismic Network" insttype="" lat="36.74288" lon="24.4282" esm:processing="automatic (Paolucci et al 2011)" esm:quality="bad">
		<comp name="00.HNE" depth="0.0">
			<acc value="0" flag="1"/>
			<vel value="0" flag="1"/>
			<psa03 value="0" flag="1"/>
			<psa10 value="0" flag="1"/>
			<psa30 value="0" flag="1"/>
		</comp>
		<comp name="00.HNN" depth="0.0">
			<acc value="0" flag="1"/>
			<vel value="0" flag="1"/>
			<psa03 value="0" flag="1"/>
			<psa10 value="0" flag="1"/>
			<psa30 value="0" flag="1"/>
		</comp>
		<comp name="00.HNZ" depth="0.0">
			<acc value="0" flag="1"/>
			<vel value="0" flag="1"/>
			<psa03 value="0" flag="1"/>
			<psa10 value="0" flag="1"/>
			<psa30 value="0" flag="1"/>
		</comp>
	</station>
	<station code="NISR" name="NISR" netid="HL" source="National Observatory of Athens Seismic Network" insttype="" lat="36.6106" lon="27.131" esm:processing="discarded" esm:quality="bad">
		<comp name="00.HNE" depth="0.0">
			<acc value="0" flag="1"/>
			<vel value="0" flag="1"/>
			<psa03 value="0" flag="1"/>
			<psa10 value="0" flag="1"/>
			<psa30 value="0" flag="1"/>
		</comp>
		<comp name="00.HNN" depth="0.0">
			<acc value="0" flag="1"/>
			<vel value="0" flag="1"/>
			<psa03 value="0" flag="1"/>
			<psa10 value="0" flag="1"/>
			<psa30 value="0" flag="1"/>
		</comp>
		<comp name="00.HNZ" depth="0.0">
			<acc value="0" flag="1"/>
			<vel value="0" flag="1"/>
			<psa03 value="0" flag="1"/>
			<psa10 value="0" flag="1"/>
			<psa30 value="0" flag="1"/>
		</comp>
	</station>
	<station code="THRA" name="THRA" netid="HL" source="National Observatory of Athens Seismic Network" insttype="" lat="36.41502" lon="25.43244" esm:processing="automatic (Paolucci et al 2011)" esm:quality="bad">
		<comp name="00.HNE" depth="0.0">
			<acc value="0" flag="1"/>
			<vel value="0" flag="1"/>
			<psa03 value="0" flag="1"/>
			<psa10 value="0" flag="1"/>
			<psa30 value="0" flag="1"/>
		</comp>
		<comp name="00.HNN" depth="0.0">
			<acc value="0" flag="1"/>
			<vel value="0" flag="1"/>
			<psa03 value="0" flag="1"/>
			<psa10 value="0" flag="1"/>
			<psa30 value="0" flag="1"/>
		</comp>
		<comp name="00.HNZ" depth="0.0">
			<acc value="0" flag="1"/>
			<vel value="0" flag="1"/>
			<psa03 value="0" flag="1"/>
			<psa10 value="0" flag="1"/>
			<psa30 value="0" flag="1"/>
		</comp>
	</station>
	<station code="TNSA" name="TNSA" netid="HL" source="National Observatory of Athens Seismic Network" insttype="" lat="37.53942" lon="25.1631" esm:processing="discarded" esm:quality="bad">
		<comp name="00.HNE" depth="0.0">
			<acc value="0" flag="1"/>
			<vel value="0" flag="1"/>
			<psa03 value="0" flag="1"/>
			<psa10 value="0" flag="1"/>
			<psa30 value="0" flag="1"/>
		</comp>
		<comp name="00.HNN" depth="0.0">
			<acc value="0" flag="1"/>
			<vel value="0" flag="1"/>
			<psa03 value="0" flag="1"/>
			<psa10 value="0" flag="1"/>
			<psa30 value="0" flag="1"/>
		</comp>
		<comp name="00.HNZ" depth="0.0">
			<acc value="0" flag="1"/>
			<vel value="0" flag="1"/>
			<psa03 value="0" flag="1"/>
			<psa10 value="0" flag="1"/>
			<psa30 value="0" flag="1"/>
		</comp>
	</station>
</stationlist>
