<stationlist created="1675692163">
	<station code="ARPRA" name="ARPRA" netid="KO" source="Bogazici University Kandilli Observatory And Earthquake Research Institute (KOERI)" insttype="" lat="39.0929" lon="38.3356">
		<comp name=".HNE" depth="0.0">
			<acc value="0.0338211214369" flag="0"/>
			<vel value="0.0146121886932" flag="0"/>
			<psa03 value="0.0796517452874" flag="0"/>
			<psa10 value="0.0169489965378" flag="0"/>
			<psa30 value="0.00264658969858" flag="0"/>
		</comp>
		<comp name=".HNN" depth="0.0">
			<acc value="0.0756312863346" flag="0"/>
			<vel value="0.0320247334269" flag="0"/>
			<psa03 value="0.275553191547" flag="0"/>
			<psa10 value="0.0155764234241" flag="0"/>
			<psa30 value="0.00144047729955" flag="0"/>
		</comp>
		<comp name=".HNZ" depth="0.0">
			<acc value="0.0340360579536" flag="0"/>
			<vel value="0.0129623429373" flag="0"/>
			<psa03 value="0.0798459091914" flag="0"/>
			<psa10 value="0.014723633806" flag="0"/>
			<psa30 value="0.00115753980633" flag="0"/>
		</comp>
	</station>
</stationlist>
