<?xml version="1.0" encoding="UTF-8" standalone="yes"?>
<!DOCTYPE earthquake SYSTEM "stationlist.dtd">
<stationlist created="" xmlns="ch.ethz.sed.shakemap.usgs.xml">
  <station code="APE" name="APE" netid="GE" insttype="STS-2/N" lat="37.0727" lon="25.523">
    <comp name="--.HHN">
      <acc value="0.4366789071" flag="0"/>
      <vel value="0.0795549438" flag="0"/>
      <psa03 value="0.2229655129" flag="0"/>
      <psa10 value="0.0891967130" flag="0"/>
      <psa30 value="0.0146664602" flag="0"/>
    </comp>
    <comp name="--.HHZ">
      <acc value="0.1764906355" flag="0"/>
      <vel value="0.0442756158" flag="0"/>
      <psa03 value="0.1050509977" flag="0"/>
      <psa10 value="0.0525488314" flag="0"/>
      <psa30 value="0.0151910225" flag="0"/>
    </comp>
    <comp name="--.HHE">
      <acc value="0.3552925102" flag="0"/>
      <vel value="0.0832433748" flag="0"/>
      <psa03 value="0.3127795702" flag="0"/>
      <psa10 value="0.0813823623" flag="0"/>
      <psa30 value="0.0128538408" flag="0"/>
    </comp>
  </station>
  <station code="THERA" name="THERA" netid="GE" insttype="STS-2/N" lat="36.367" lon="25.4753">
    <comp name="--.HHE">
      <acc value="0.4867611040" flag="0"/>
      <vel value="0.1107287267" flag="0"/>
      <psa03 value="0.5671479228" flag="0"/>
      <psa10 value="0.0524775759" flag="0"/>
      <psa30 value="0.0135338358" flag="0"/>
    </comp>
    <comp name="--.HHZ">
      <acc value="0.3483917355" flag="0"/>
      <vel value="0.0744034058" flag="0"/>
      <psa03 value="0.2955331068" flag="0"/>
      <psa10 value="0.0320178530" flag="0"/>
      <psa30 value="0.0086893162" flag="0"/>
    </comp>
    <comp name="--.HHN">
      <acc value="0.2134919301" flag="0"/>
      <vel value="0.0594401737" flag="0"/>
      <psa03 value="0.3628518621" flag="0"/>
      <psa10 value="0.0280974830" flag="0"/>
      <psa30 value="0.0055730612" flag="0"/>
    </comp>
  </station>
</stationlist>
