<?xml version="1.0" encoding="UTF-8" standalone="yes"?>
<!DOCTYPE earthquake SYSTEM "stationlist.dtd">
<stationlist created="" xmlns="ch.ethz.sed.shakemap.usgs.xml">
  <station code="APE" name="APE" netid="GE" insttype="STS-2/N" lat="37.0727" lon="25.523">
    <comp name="--.HHE">
      <acc value="0.3552925096" flag="0"/>
      <vel value="0.0832433747" flag="0"/>
      <psa03 value="0.3127795702" flag="0"/>
      <psa10 value="0.0813823602" flag="0"/>
      <psa30 value="0.0128537743" flag="0"/>
    </comp>
    <comp name="--.HHN">
      <acc value="0.4366789061" flag="0"/>
      <vel value="0.0795549447" flag="0"/>
      <psa03 value="0.2229655129" flag="0"/>
      <psa10 value="0.0891967135" flag="0"/>
      <psa30 value="0.0146664006" flag="0"/>
    </comp>
    <comp name="--.HHZ">
      <acc value="0.1764906359" flag="0"/>
      <vel value="0.0442756166" flag="0"/>
      <psa03 value="0.1050509977" flag="0"/>
      <psa10 value="0.0525488321" flag="0"/>
      <psa30 value="0.0151908319" flag="0"/>
    </comp>
  </station>
  <station code="THERA" name="THERA" netid="GE" insttype="STS-2/N" lat="36.367" lon="25.4753">
    <comp name="--.HHE">
      <acc value="0.4867611043" flag="0"/>
      <vel value="0.1107287289" flag="0"/>
      <psa03 value="0.5671479228" flag="0"/>
      <psa10 value="0.0524775757" flag="0"/>
      <psa30 value="0.0135342342" flag="0"/>
    </comp>
    <comp name="--.HHN">
      <acc value="0.2134919304" flag="0"/>
      <vel value="0.0594401733" flag="0"/>
      <psa03 value="0.3628518621" flag="0"/>
      <psa10 value="0.0280974825" flag="0"/>
      <psa30 value="0.0055730912" flag="0"/>
    </comp>
    <comp name="--.HHZ">
      <acc value="0.3483917346" flag="0"/>
      <vel value="0.0744034040" flag="0"/>
      <psa03 value="0.2955331068" flag="0"/>
      <psa10 value="0.0320178625" flag="0"/>
      <psa30 value="0.0086893826" flag="0"/>
    </comp>
  </station>
</stationlist>
