<?xml version="1.0" encoding="UTF-8" standalone="yes"?>
<!DOCTYPE earthquake SYSTEM "stationlist.dtd">
<stationlist created="" xmlns="ch.ethz.sed.shakemap.usgs.xml">
  <station code="KBN" name="KBN" netid="AC" insttype="" lat="40.6236" lon="20.7874">
    <comp name="--.HHZ">
      <acc value="0.0064384949" flag="0"/>
      <vel value="0.0054317884" flag="0"/>
      <psa03 value="0.0188812528" flag="0"/>
      <psa10 value="0.0140556924" flag="0"/>
      <psa30 value="0.0013144627" flag="0"/>
    </comp>
    <comp name="--.HHN">
      <acc value="0.0097165094" flag="0"/>
      <vel value="0.0080860212" flag="0"/>
      <psa03 value="0.0307267193" flag="0"/>
      <psa10 value="0.0098383346" flag="0"/>
      <psa30 value="0.0013888246" flag="0"/>
    </comp>
    <comp name="--.HHE">
      <acc value="0.0102905176" flag="0"/>
      <vel value="0.0087338636" flag="0"/>
      <psa03 value="0.0249055690" flag="0"/>
      <psa10 value="0.0131243812" flag="0"/>
      <psa30 value="0.0015595431" flag="0"/>
    </comp>
  </station>
  <station code="LSK" name="LSK" netid="AC" insttype="" lat="40.1499" lon="20.5987">
    <comp name="--.HHE">
      <acc value="20.4309678647" flag="0"/>
      <vel value="1.1069390322" flag="0"/>
      <psa03 value="2.7247893831" flag="0"/>
      <psa10 value="0.7742674312" flag="0"/>
      <psa30 value="0.1510863686" flag="0"/>
    </comp>
    <comp name="--.HHN">
      <acc value="0.3221139371" flag="0"/>
      <vel value="0.1345793195" flag="0"/>
      <psa03 value="0.9723473491" flag="0"/>
      <psa10 value="0.1505917770" flag="0"/>
      <psa30 value="0.0130858947" flag="0"/>
    </comp>
    <comp name="--.HHZ">
      <acc value="0.1607392857" flag="0"/>
      <vel value="0.0838549269" flag="0"/>
      <psa03 value="0.3599415943" flag="0"/>
      <psa10 value="0.1308782656" flag="0"/>
      <psa30 value="0.0167521856" flag="0"/>
    </comp>
  </station>
  <station code="SRN" name="SRN" netid="AC" insttype="" lat="39.88" lon="20.0005">
    <comp name="--.HHE">
      <acc value="0.0316677669" flag="0"/>
      <vel value="0.0097457127" flag="0"/>
      <psa03 value="0.0484299269" flag="0"/>
      <psa10 value="0.0146913918" flag="0"/>
      <psa30 value="0.0011321831" flag="0"/>
    </comp>
    <comp name="--.HHN">
      <acc value="0.0452148827" flag="0"/>
      <vel value="0.0146138666" flag="0"/>
      <psa03 value="0.0718198311" flag="0"/>
      <psa10 value="0.0099577942" flag="0"/>
      <psa30 value="0.0018800974" flag="0"/>
    </comp>
    <comp name="--.HHZ">
      <acc value="0.0345157749" flag="0"/>
      <vel value="0.0209858349" flag="0"/>
      <psa03 value="0.1004942569" flag="0"/>
      <psa10 value="0.0181373947" flag="0"/>
      <psa30 value="0.0023249718" flag="0"/>
    </comp>
  </station>
  <station code="VLO" name="VLO" netid="AC" insttype="" lat="40.4686" lon="19.4955">
    <comp name="--.HHE">
      <acc value="0.0421257075" flag="0"/>
      <vel value="0.0231422961" flag="0"/>
      <psa03 value="0.1226029759" flag="0"/>
      <psa10 value="0.0160470710" flag="0"/>
      <psa30 value="0.0021802722" flag="0"/>
    </comp>
    <comp name="--.HHN">
      <acc value="0.0602497920" flag="0"/>
      <vel value="0.0221824174" flag="0"/>
      <psa03 value="0.1100601443" flag="0"/>
      <psa10 value="0.0321326275" flag="0"/>
      <psa30 value="0.0034058297" flag="0"/>
    </comp>
    <comp name="--.HHZ">
      <acc value="0.0221159746" flag="0"/>
      <vel value="0.0117927667" flag="0"/>
      <psa03 value="0.0849535653" flag="0"/>
      <psa10 value="0.0139388517" flag="0"/>
      <psa30 value="0.0023019942" flag="0"/>
    </comp>
  </station>
  <station code="LMS2" name="LMS2" netid="HI" insttype="CMG-5TD,ACCELEROMETER,GURALP" lat="40.835" lon="21.1418">
    <comp name="--.HNN">
      <acc value="0.0177994268" flag="0"/>
      <vel value="0.0091332378" flag="0"/>
      <psa03 value="0.0324183209" flag="0"/>
      <psa10 value="0.0180163922" flag="0"/>
      <psa30 value="0.0011558397" flag="0"/>
    </comp>
    <comp name="--.HNE">
      <acc value="0.0168039139" flag="0"/>
      <vel value="0.0095800553" flag="0"/>
      <psa03 value="0.0435808289" flag="0"/>
      <psa10 value="0.0145351722" flag="0"/>
      <psa30 value="0.0012074713" flag="0"/>
    </comp>
    <comp name="--.HNZ">
      <acc value="0.0078638844" flag="0"/>
      <vel value="0.0061260918" flag="0"/>
      <psa03 value="0.0187979347" flag="0"/>
      <psa10 value="0.0102171536" flag="0"/>
      <psa30 value="0.0007890900" flag="0"/>
    </comp>
  </station>
  <station code="EVR" name="EVR" netid="HL" insttype="DR24" lat="38.9166" lon="21.8105">
    <comp name="--.HHN">
      <acc value="0.0083872007" flag="0"/>
      <vel value="0.0067912043" flag="0"/>
      <psa03 value="0.0162795090" flag="0"/>
      <psa10 value="0.0078661596" flag="0"/>
      <psa30 value="0.0012084430" flag="0"/>
    </comp>
    <comp name="--.HHE">
      <acc value="0.0072213828" flag="0"/>
      <vel value="0.0053760419" flag="0"/>
      <psa03 value="0.0255111968" flag="0"/>
      <psa10 value="0.0084662554" flag="0"/>
      <psa30 value="0.0012941362" flag="0"/>
    </comp>
    <comp name="--.HHZ">
      <acc value="0.0065900052" flag="0"/>
      <vel value="0.0053074451" flag="0"/>
      <psa03 value="0.0179395421" flag="0"/>
      <psa10 value="0.0086370264" flag="0"/>
      <psa30 value="0.0010488362" flag="0"/>
    </comp>
  </station>
  <station code="JAN" name="JAN" netid="HL" insttype="CMG3EPSC60_DR24" lat="39.6562" lon="20.8487">
    <comp name="--.HHE">
      <acc value="1.1312781069" flag="0"/>
      <vel value="0.2838559937" flag="0"/>
      <psa03 value="1.0884319654" flag="0"/>
      <psa10 value="0.0739846672" flag="0"/>
      <psa30 value="0.0111534114" flag="0"/>
    </comp>
    <comp name="--.HHN">
      <acc value="1.0992414136" flag="0"/>
      <vel value="0.2496042254" flag="0"/>
      <psa03 value="1.2928719067" flag="0"/>
      <psa10 value="0.0572101135" flag="0"/>
      <psa30 value="0.0063283038" flag="0"/>
    </comp>
    <comp name="--.HHZ">
      <acc value="0.5419390064" flag="0"/>
      <vel value="0.1344936001" flag="0"/>
      <psa03 value="0.4481738541" flag="0"/>
      <psa10 value="0.0408131731" flag="0"/>
      <psa30 value="0.0043506509" flag="0"/>
    </comp>
  </station>
  <station code="KZN" name="KZN" netid="HL" insttype="120" lat="40.3033" lon="21.7821">
    <comp name="--.HHN">
      <acc value="0.0157152364" flag="0"/>
      <vel value="0.0089594944" flag="0"/>
      <psa03 value="0.0337598541" flag="0"/>
      <psa10 value="0.0095487453" flag="0"/>
      <psa30 value="0.0007320922" flag="0"/>
    </comp>
    <comp name="--.HHE">
      <acc value="0.0199890009" flag="0"/>
      <vel value="0.0178030085" flag="0"/>
      <psa03 value="0.0499991854" flag="0"/>
      <psa10 value="0.0162910177" flag="0"/>
      <psa30 value="0.0010527766" flag="0"/>
    </comp>
    <comp name="--.HHZ">
      <acc value="0.0108302024" flag="0"/>
      <vel value="0.0086792503" flag="0"/>
      <psa03 value="0.0262376165" flag="0"/>
      <psa10 value="0.0106387595" flag="0"/>
      <psa30 value="0.0008669487" flag="0"/>
    </comp>
  </station>
  <station code="PENT" name="PENT" netid="HL" insttype="30s-100Hz," lat="40.1959" lon="21.1384">
    <comp name="--.HHN">
      <acc value="0.0548620637" flag="0"/>
      <vel value="0.0237301887" flag="0"/>
      <psa03 value="0.1373339175" flag="0"/>
      <psa10 value="0.0106090476" flag="0"/>
      <psa30 value="0.0016574113" flag="0"/>
    </comp>
    <comp name="--.HHE">
      <acc value="0.0331996853" flag="0"/>
      <vel value="0.0177343959" flag="0"/>
      <psa03 value="0.1064637163" flag="0"/>
      <psa10 value="0.0101438256" flag="0"/>
      <psa30 value="0.0015045296" flag="0"/>
    </comp>
    <comp name="--.HHZ">
      <acc value="0.0288868050" flag="0"/>
      <vel value="0.0164788111" flag="0"/>
      <psa03 value="0.0698141415" flag="0"/>
      <psa10 value="0.0137917548" flag="0"/>
      <psa30 value="0.0019354975" flag="0"/>
    </comp>
  </station>
  <station code="TETR" name="TETR" netid="HL" insttype="60" lat="39.3445" lon="21.2747">
    <comp name="--.HHZ">
      <acc value="0.0466303427" flag="0"/>
      <vel value="0.0187056836" flag="0"/>
      <psa03 value="0.1020710285" flag="0"/>
      <psa10 value="0.0288670199" flag="0"/>
      <psa30 value="0.0022362251" flag="0"/>
    </comp>
    <comp name="--.HHN">
      <acc value="0.1284452430" flag="0"/>
      <vel value="0.0385311476" flag="0"/>
      <psa03 value="0.1391527783" flag="0"/>
      <psa10 value="0.0261976580" flag="0"/>
      <psa30 value="0.0027593668" flag="0"/>
    </comp>
    <comp name="--.HHE">
      <acc value="0.1060784820" flag="0"/>
      <vel value="0.0402614164" flag="0"/>
      <psa03 value="0.2402727498" flag="0"/>
      <psa10 value="0.0470969317" flag="0"/>
      <psa30 value="0.0023978688" flag="0"/>
    </comp>
  </station>
  <station code="THL" name="THL" netid="HL" insttype="120" lat="39.5647" lon="22.0144">
    <comp name="--.HHZ">
      <acc value="0.0039162326" flag="0"/>
      <vel value="0.0025696124" flag="0"/>
      <psa03 value="0.0073886915" flag="0"/>
      <psa10 value="0.0035421290" flag="0"/>
      <psa30 value="0.0003877004" flag="0"/>
    </comp>
    <comp name="--.HHE">
      <acc value="0.0087850071" flag="0"/>
      <vel value="0.0059298842" flag="0"/>
      <psa03 value="0.0233077356" flag="0"/>
      <psa10 value="0.0056517797" flag="0"/>
      <psa30 value="0.0007125499" flag="0"/>
    </comp>
    <comp name="--.HHN">
      <acc value="0.0064288934" flag="0"/>
      <vel value="0.0046296053" flag="0"/>
      <psa03 value="0.0140715382" flag="0"/>
      <psa10 value="0.0078822025" flag="0"/>
      <psa30 value="0.0006443188" flag="0"/>
    </comp>
  </station>
  <station code="AMPL" name="AMPL" netid="HP" insttype="Compact," lat="38.9224" lon="21.2135">
    <comp name="--.HHE">
      <acc value="0.0174237612" flag="0"/>
      <vel value="0.0100596629" flag="0"/>
      <psa03 value="0.0264209758" flag="0"/>
      <psa10 value="0.0122166598" flag="0"/>
      <psa30 value="0.0022834263" flag="0"/>
    </comp>
    <comp name="--.HHN">
      <acc value="0.0179310323" flag="0"/>
      <vel value="0.0096218703" flag="0"/>
      <psa03 value="0.0381240963" flag="0"/>
      <psa10 value="0.0113560769" flag="0"/>
      <psa30 value="0.0016599654" flag="0"/>
    </comp>
    <comp name="--.HHZ">
      <acc value="0.0124942549" flag="0"/>
      <vel value="0.0063081923" flag="0"/>
      <psa03 value="0.0365006359" flag="0"/>
      <psa10 value="0.0078434587" flag="0"/>
      <psa30 value="0.0011662450" flag="0"/>
    </comp>
  </station>
  <station code="KANL" name="KANL" netid="HP" insttype="" lat="39.8334" lon="22.0247">
    <comp name="--.HHE">
      <acc value="0.0150933548" flag="0"/>
      <vel value="0.0092300533" flag="0"/>
      <psa03 value="0.0435420850" flag="0"/>
      <psa10 value="0.0129960828" flag="0"/>
      <psa30 value="0.0005608906" flag="0"/>
    </comp>
    <comp name="--.HHZ">
      <acc value="0.0089847041" flag="0"/>
      <vel value="0.0058147962" flag="0"/>
      <psa03 value="0.0196973055" flag="0"/>
      <psa10 value="0.0083350548" flag="0"/>
      <psa30 value="0.0008580376" flag="0"/>
    </comp>
  </station>
  <station code="PDO" name="PDO" netid="HP" insttype="120s" lat="38.5986" lon="21.1833">
    <comp name="--.HHE">
      <acc value="0.0122834748" flag="0"/>
      <vel value="0.0098374597" flag="0"/>
      <psa03 value="0.0403734286" flag="0"/>
      <psa10 value="0.0079843726" flag="0"/>
      <psa30 value="0.0014746737" flag="0"/>
    </comp>
    <comp name="--.HHN">
      <acc value="0.0162101176" flag="0"/>
      <vel value="0.0092961764" flag="0"/>
      <psa03 value="0.0498578565" flag="0"/>
      <psa10 value="0.0112447686" flag="0"/>
      <psa30 value="0.0010772744" flag="0"/>
    </comp>
    <comp name="--.HHZ">
      <acc value="0.0070963360" flag="0"/>
      <vel value="0.0045186995" flag="0"/>
      <psa03 value="0.0227793414" flag="0"/>
      <psa10 value="0.0075913343" flag="0"/>
      <psa30 value="0.0007968968" flag="0"/>
    </comp>
  </station>
  <station code="VRKS" name="VRKS" netid="HP" insttype="" lat="39.784" lon="21.9765">
    <comp name="--.HHE">
      <acc value="0.0256722525" flag="0"/>
      <vel value="0.0091927252" flag="0"/>
      <psa03 value="0.0382290318" flag="0"/>
      <psa10 value="0.0060906806" flag="0"/>
      <psa30 value="0.0007759826" flag="0"/>
    </comp>
    <comp name="--.HHN">
      <acc value="0.0321208195" flag="0"/>
      <vel value="0.0121115628" flag="0"/>
      <psa03 value="0.0507252048" flag="0"/>
      <psa10 value="0.0147274410" flag="0"/>
      <psa30 value="0.0007316684" flag="0"/>
    </comp>
    <comp name="--.HHZ">
      <acc value="0.0231931299" flag="0"/>
      <vel value="0.0062468391" flag="0"/>
      <psa03 value="0.0247087966" flag="0"/>
      <psa10 value="0.0067335978" flag="0"/>
      <psa30 value="0.0006979565" flag="0"/>
    </comp>
  </station>
  <station code="DRAG" name="DRAG" netid="HT" insttype="1s-100Hz," lat="38.6839" lon="20.5746">
    <comp name="--.HHE">
      <acc value="0.0630529327" flag="0"/>
      <vel value="0.0345927207" flag="0"/>
      <psa03 value="0.1704150548" flag="0"/>
      <psa10 value="0.0288327362" flag="0"/>
      <psa30 value="0.0018810818" flag="0"/>
    </comp>
    <comp name="--.HHN">
      <acc value="0.0607896817" flag="0"/>
      <vel value="0.0205678973" flag="0"/>
      <psa03 value="0.1106395688" flag="0"/>
      <psa10 value="0.0216122541" flag="0"/>
      <psa30 value="0.0016023399" flag="0"/>
    </comp>
    <comp name="--.HHZ">
      <acc value="0.0302211658" flag="0"/>
      <vel value="0.0100997817" flag="0"/>
      <psa03 value="0.0415424996" flag="0"/>
      <psa10 value="0.0124766826" flag="0"/>
      <psa30 value="0.0010181879" flag="0"/>
    </comp>
  </station>
  <station code="EVGI" name="EVGI" netid="HT" insttype="30" lat="38.621" lon="20.656">
    <comp name="--.HHN">
      <acc value="0.0285375219" flag="0"/>
      <vel value="0.0103124154" flag="0"/>
      <psa03 value="0.0630665611" flag="0"/>
      <psa10 value="0.0086439248" flag="0"/>
      <psa30 value="0.0013187392" flag="0"/>
    </comp>
    <comp name="--.HHZ">
      <acc value="0.0187340397" flag="0"/>
      <vel value="0.0067247627" flag="0"/>
      <psa03 value="0.0324618679" flag="0"/>
      <psa10 value="0.0088812088" flag="0"/>
      <psa30 value="0.0008187713" flag="0"/>
    </comp>
    <comp name="--.HHE">
      <acc value="0.0287512066" flag="0"/>
      <vel value="0.0104019078" flag="0"/>
      <psa03 value="0.0519882921" flag="0"/>
      <psa10 value="0.0097447961" flag="0"/>
      <psa30 value="0.0010037364" flag="0"/>
    </comp>
  </station>
  <station code="IGT" name="IGT" netid="HT" insttype="100" lat="39.5315" lon="20.3299">
    <comp name="--.HHE">
      <acc value="0.1112645809" flag="0"/>
      <vel value="0.0507002941" flag="0"/>
      <psa03 value="0.3250377495" flag="0"/>
      <psa10 value="0.0476024518" flag="0"/>
      <psa30 value="0.0035394272" flag="0"/>
    </comp>
    <comp name="--.HHZ">
      <acc value="0.1362869078" flag="0"/>
      <vel value="0.0489646687" flag="0"/>
      <psa03 value="0.2501977941" flag="0"/>
      <psa10 value="0.0316468407" flag="0"/>
      <psa30 value="0.0044387101" flag="0"/>
    </comp>
    <comp name="--.HHN">
      <acc value="0.1670812959" flag="0"/>
      <vel value="0.0545973178" flag="0"/>
      <psa03 value="0.3449627882" flag="0"/>
      <psa10 value="0.0396483328" flag="0"/>
      <psa30 value="0.0036945146" flag="0"/>
    </comp>
  </station>
  <station code="KPRO" name="KPRO" netid="HT" insttype="100" lat="39.9549" lon="21.3632">
    <comp name="--.HHZ">
      <acc value="0.0478892075" flag="0"/>
      <vel value="0.0178740739" flag="0"/>
      <psa03 value="0.1179200156" flag="0"/>
      <psa10 value="0.0209185366" flag="0"/>
      <psa30 value="0.0021999164" flag="0"/>
    </comp>
    <comp name="--.HHE">
      <acc value="0.1325513763" flag="0"/>
      <vel value="0.0450566619" flag="0"/>
      <psa03 value="0.3732251648" flag="0"/>
      <psa10 value="0.0410510720" flag="0"/>
      <psa30 value="0.0031897507" flag="0"/>
    </comp>
    <comp name="--.HHN">
      <acc value="0.0785193293" flag="0"/>
      <vel value="0.0462200025" flag="0"/>
      <psa03 value="0.2234192569" flag="0"/>
      <psa10 value="0.0254361912" flag="0"/>
      <psa30 value="0.0033074931" flag="0"/>
    </comp>
  </station>
  <station code="LKD2" name="LKD2" netid="HT" insttype="100" lat="38.7889" lon="20.6578">
    <comp name="--.HHE">
      <acc value="0.0188053394" flag="0"/>
      <vel value="0.0077398672" flag="0"/>
      <psa03 value="0.0331098274" flag="0"/>
      <psa10 value="0.0075620338" flag="0"/>
      <psa30 value="0.0013093316" flag="0"/>
    </comp>
    <comp name="--.HHZ">
      <acc value="0.0099544300" flag="0"/>
      <vel value="0.0064821949" flag="0"/>
      <psa03 value="0.0220326166" flag="0"/>
      <psa10 value="0.0111399897" flag="0"/>
      <psa30 value="0.0008065007" flag="0"/>
    </comp>
    <comp name="--.HHN">
      <acc value="0.0174430540" flag="0"/>
      <vel value="0.0120287849" flag="0"/>
      <psa03 value="0.0442406289" flag="0"/>
      <psa10 value="0.0174357362" flag="0"/>
      <psa30 value="0.0009403585" flag="0"/>
    </comp>
  </station>
  <station code="NYDR" name="NYDR" netid="HT" insttype="1s-100Hz," lat="38.7135" lon="20.6983">
    <comp name="--.HHE">
      <acc value="0.0152459523" flag="0"/>
      <vel value="0.0110196291" flag="0"/>
      <psa03 value="0.0322436084" flag="0"/>
      <psa10 value="0.0123657891" flag="0"/>
      <psa30 value="0.0014438569" flag="0"/>
    </comp>
    <comp name="--.HHN">
      <acc value="0.0239938850" flag="0"/>
      <vel value="0.0159685963" flag="0"/>
      <psa03 value="0.0484694514" flag="0"/>
      <psa10 value="0.0115905390" flag="0"/>
      <psa30 value="0.0011455670" flag="0"/>
    </comp>
    <comp name="--.HHZ">
      <acc value="0.0125851673" flag="0"/>
      <vel value="0.0087589311" flag="0"/>
      <psa03 value="0.0231849740" flag="0"/>
      <psa10 value="0.0074968095" flag="0"/>
      <psa30 value="0.0007081417" flag="0"/>
    </comp>
  </station>
  <station code="TSLK" name="TSLK" netid="HT" insttype="1s-100Hz," lat="38.8249" lon="20.6554">
    <comp name="--.HHE">
      <acc value="0.0237772295" flag="0"/>
      <vel value="0.0137121317" flag="0"/>
      <psa03 value="0.0622443747" flag="0"/>
      <psa10 value="0.0135435777" flag="0"/>
      <psa30 value="0.0019552388" flag="0"/>
    </comp>
    <comp name="--.HHN">
      <acc value="0.0244416928" flag="0"/>
      <vel value="0.0159307246" flag="0"/>
      <psa03 value="0.0675654980" flag="0"/>
      <psa10 value="0.0199180496" flag="0"/>
      <psa30 value="0.0029312726" flag="0"/>
    </comp>
    <comp name="--.HHZ">
      <acc value="0.0136199994" flag="0"/>
      <vel value="0.0053556471" flag="0"/>
      <psa03 value="0.0259321353" flag="0"/>
      <psa10 value="0.0075032057" flag="0"/>
      <psa30 value="0.0017613151" flag="0"/>
    </comp>
  </station>
  <station code="TYRN" name="TYRN" netid="HT" insttype="120P," lat="39.711" lon="22.2325">
    <comp name="--.HHN">
      <acc value="0.0093166940" flag="0"/>
      <vel value="0.0078608862" flag="0"/>
      <psa03 value="0.0208460476" flag="0"/>
      <psa10 value="0.0076310378" flag="0"/>
      <psa30 value="0.0011863537" flag="0"/>
    </comp>
    <comp name="--.HHE">
      <acc value="0.0085133627" flag="0"/>
      <vel value="0.0081647946" flag="0"/>
      <psa03 value="0.0198573537" flag="0"/>
      <psa10 value="0.0082353063" flag="0"/>
      <psa30 value="0.0008334226" flag="0"/>
    </comp>
    <comp name="--.HHZ">
      <acc value="0.0075599227" flag="0"/>
      <vel value="0.0064107561" flag="0"/>
      <psa03 value="0.0151621365" flag="0"/>
