<stationlist created="1778136821">
	<station code="ROD3" name="ROD3" netid="CL" source="Corinth Riff Laboratory (CRLNET)" insttype="" lat="38.30811" lon="21.89204">
		<comp name="00.HNE" depth="0.0">
			<acc value="0.00740084705246942" flag="0"/>
			<vel value="0.00611968624971421" flag="0"/>
			<psa03 value="0.0235034658434486" flag="0"/>
			<psa10 value="0.00810055068423106" flag="0"/>
			<psa30 value="0.0024250193956339" flag="0"/>
		</comp>
		<comp name="00.HNN" depth="0.0">
			<acc value="0.00561056766988624" flag="0"/>
			<vel value="0.00544040849059068" flag="0"/>
			<psa03 value="0.0264824652708524" flag="0"/>
			<psa10 value="0.00819483755527475" flag="0"/>
			<psa30 value="0.00133739765853312" flag="0"/>
		</comp>
		<comp name="00.HNZ" depth="0.0">
			<acc value="0.00328808162454498" flag="0"/>
			<vel value="0.00213951713792344" flag="0"/>
			<psa03 value="0.00832415429894867" flag="0"/>
			<psa10 value="0.00414814135652139" flag="0"/>
			<psa30 value="0.000956934746396365" flag="0"/>
		</comp>
	</station>
	<station code="AIGS" name="AIGS" netid="HA" source="Hellenic Seismological Network, University of Athens, Seismological Laboratory (HA)" insttype="" lat="38.25001" lon="22.0878">
		<comp name="--.HNE" depth="0.0">
			<acc value="0.0043900576050664" flag="0"/>
			<vel value="0.00482145928661865" flag="0"/>
			<psa03 value="0.00984479995613467" flag="0"/>
			<psa10 value="0.00596403977584699" flag="0"/>
			<psa30 value="0.00153366305598192" flag="0"/>
		</comp>
		<comp name="--.HNN" depth="0.0">
			<acc value="0.00579474785542248" flag="0"/>
			<vel value="0.0035007285123731" flag="0"/>
			<psa03 value="0.0109975892133839" flag="0"/>
			<psa10 value="0.00458150975252868" flag="0"/>
			<psa30 value="0.00207306024673368" flag="0"/>
		</comp>
		<comp name="--.HNZ" depth="0.0">
			<acc value="0.00723092036332939" flag="0"/>
			<vel value="0.00353329482474392" flag="0"/>
			<psa03 value="0.00476320030424849" flag="0"/>
			<psa10 value="0.00602952333259877" flag="0"/>
			<psa30 value="0.00106132218238713" flag="0"/>
		</comp>
	</station>
	<station code="ARG2" name="ARG2" netid="HI" source="ITSAK Strong Motion Network" insttype="" lat="38.1783" lon="20.4878">
		<comp name="--.HNE" depth="0.0">
			<acc value="0.0179819979748566" flag="0"/>
			<vel value="0.0121845853024305" flag="0"/>
			<psa03 value="0.0481955104245694" flag="0"/>
			<psa10 value="0.0062028795040853" flag="0"/>
			<psa30 value="0.00136439840552956" flag="0"/>
		</comp>
		<comp name="--.HNN" depth="0.0">
			<acc value="0.0274758240033973" flag="0"/>
			<vel value="0.0140992855387837" flag="0"/>
			<psa03 value="0.042203071788068" flag="0"/>
			<psa10 value="0.00637137347846705" flag="0"/>
			<psa30 value="0.00114562505870586" flag="0"/>
		</comp>
		<comp name="--.HNZ" depth="0.0">
			<acc value="0.0110630862550292" flag="0"/>
			<vel value="0.00625315069447805" flag="0"/>
			<psa03 value="0.0511921724799969" flag="0"/>
			<psa10 value="0.00549870660607795" flag="0"/>
			<psa30 value="0.000775930203651268" flag="0"/>
		</comp>
	</station>
	<station code="ART2" name="ART2" netid="HI" source="ITSAK Strong Motion Network" insttype="" lat="39.1474" lon="20.9937">
		<comp name="--.HNE" depth="0.0">
			<acc value="0.0223592278504069" flag="0"/>
			<vel value="0.011710030626446" flag="0"/>
			<psa03 value="0.0321596252089871" flag="0"/>
			<psa10 value="0.0103876246916639" flag="0"/>
			<psa30 value="0.00312342232806738" flag="0"/>
		</comp>
		<comp name="--.HNN" depth="0.0">
			<acc value="0.0276744350355418" flag="0"/>
			<vel value="0.0116604083500053" flag="0"/>
			<psa03 value="0.0294417628723098" flag="0"/>
			<psa10 value="0.0156967548329524" flag="0"/>
			<psa30 value="0.00196748658633219" flag="0"/>
		</comp>
		<comp name="--.HNZ" depth="0.0">
			<acc value="0.0176808946338174" flag="0"/>
			<vel value="0.00926487855817216" flag="0"/>
			<psa03 value="0.0286395612928864" flag="0"/>
			<psa10 value="0.0124189233177111" flag="0"/>
			<psa30 value="0.00232173776206719" flag="0"/>
		</comp>
	</station>
	<station code="KRK1" name="KRK1" netid="HI" source="ITSAK Strong Motion Network" insttype="" lat="39.618861" lon="19.9202">
		<comp name="--.HNE" depth="0.0">
			<acc value="0.328727302191324" flag="0"/>
			<vel value="0.0901282697013504" flag="0"/>
			<psa03 value="0.566861968488364" flag="0"/>
			<psa10 value="0.0590537895237042" flag="0"/>
			<psa30 value="0.00615809377680766" flag="0"/>
		</comp>
		<comp name="--.HNN" depth="0.0">
			<acc value="0.227293703398135" flag="0"/>
			<vel value="0.0809257509833221" flag="0"/>
			<psa03 value="0.348907217557573" flag="0"/>
			<psa10 value="0.0529714978519191" flag="0"/>
			<psa30 value="0.00457960170949" flag="0"/>
		</comp>
		<comp name="--.HNZ" depth="0.0">
			<acc value="0.129054504184153" flag="0"/>
			<vel value="0.0420210129265015" flag="0"/>
			<psa03 value="0.219841792606317" flag="0"/>
			<psa10 value="0.0246448776021984" flag="0"/>
			<psa30 value="0.00349030892417027" flag="0"/>
		</comp>
	</station>
	<station code="LMS2" name="LMS2" netid="HI" source="ITSAK Strong Motion Network" insttype="" lat="40.834985" lon="21.141815">
		<comp name="--.HNE" depth="0.0">
			<acc value="0.0165734037359721" flag="0"/>
			<vel value="0.00949822477750353" flag="0"/>
			<psa03 value="0.0432190818020389" flag="0"/>
			<psa10 value="0.0145245368668033" flag="0"/>
			<psa30 value="0.00129332775994894" flag="0"/>
		</comp>
		<comp name="--.HNN" depth="0.0">
			<acc value="0.0177252220413579" flag="0"/>
			<vel value="0.00915239009633088" flag="0"/>
			<psa03 value="0.0325746318678134" flag="0"/>
			<psa10 value="0.0180436059253314" flag="0"/>
			<psa30 value="0.00114763696281757" flag="0"/>
		</comp>
		<comp name="--.HNZ" depth="0.0">
			<acc value="0.00773322556304837" flag="0"/>
			<vel value="0.00605888509220702" flag="0"/>
			<psa03 value="0.0183932366908059" flag="0"/>
			<psa10 value="0.0102274075155707" flag="0"/>
			<psa30 value="0.000924390923860039" flag="0"/>
		</comp>
	</station>
	<station code="MSL1" name="MSL1" netid="HI" source="ITSAK Strong Motion Network" insttype="" lat="38.3727" lon="21.4243">
		<comp name="--.HNE" depth="0.0">
			<acc value="0.0224869403214479" flag="0"/>
			<vel value="0.0262649169762064" flag="0"/>
			<psa03 value="0.0445717130739072" flag="0"/>
			<psa10 value="0.0799210193754223" flag="0"/>
			<psa30 value="0.00619522873681446" flag="0"/>
		</comp>
		<comp name="--.HNN" depth="0.0">
			<acc value="0.0247279785916956" flag="0"/>
			<vel value="0.0225962723446373" flag="0"/>
			<psa03 value="0.0548732340407913" flag="0"/>
			<psa10 value="0.0480393436208904" flag="0"/>
			<psa30 value="0.00456690503504127" flag="0"/>
		</comp>
		<comp name="--.HNZ" depth="0.0">
			<acc value="0.013746938050652" flag="0"/>
			<vel value="0.0142257880372586" flag="0"/>
			<psa03 value="0.0234127905658242" flag="0"/>
			<psa10 value="0.0345954267772563" flag="0"/>
			<psa30 value="0.00118720531319339" flag="0"/>
		</comp>
	</station>
	<station code="VAS2" name="VAS2" netid="HI" source="ITSAK Strong Motion Network" insttype="" lat="38.630558" lon="20.608081">
		<comp name="--.HNE" depth="0.0">
			<acc value="0.0355022902851983" flag="0"/>
			<vel value="0.0387624090405822" flag="0"/>
			<psa03 value="0.123373818743408" flag="0"/>
			<psa10 value="0.106534312375545" flag="0"/>
			<psa30 value="0.00413980507510228" flag="0"/>
		</comp>
		<comp name="--.HNN" depth="0.0">
			<acc value="0.0710988794754683" flag="0"/>
			<vel value="0.0513675885262583" flag="0"/>
			<psa03 value="0.133848429301555" flag="0"/>
			<psa10 value="0.0836871763645295" flag="0"/>
			<psa30 value="0.0043097075803089" flag="0"/>
		</comp>
		<comp name="--.HNZ" depth="0.0">
			<acc value="0.0279617703933303" flag="0"/>
			<vel value="0.0181700064098374" flag="0"/>
			<psa03 value="0.0587341200140368" flag="0"/>
			<psa10 value="0.0254544493573294" flag="0"/>
			<psa30 value="0.00157004171589334" flag="0"/>
		</comp>
	</station>
	<station code="JAN" name="JAN" netid="HL" source="National Observatory of Athens Seismic Network" insttype="" lat="39.65616" lon="20.84874">
		<comp name="00.HNE" depth="0.0">
			<acc value="1.04232123620133" flag="0"/>
			<vel value="0.286012284207367" flag="0"/>
			<psa03 value="1.11674031189768" flag="0"/>
			<psa10 value="0.0767553521652223" flag="0"/>
			<psa30 value="0.0112904729384296" flag="0"/>
		</comp>
		<comp name="00.HNN" depth="0.0">
			<acc value="1.08627357230134" flag="0"/>
			<vel value="0.253451472199282" flag="0"/>
			<psa03 value="1.30392287849213" flag="0"/>
			<psa10 value="0.0565473747358663" flag="0"/>
			<psa30 value="0.00639667708179548" flag="0"/>
		</comp>
		<comp name="00.HNZ" depth="0.0">
			<acc value="0.526872723885007" flag="0"/>
			<vel value="0.13582738494027" flag="0"/>
			<psa03 value="0.459528941535031" flag="0"/>
			<psa10 value="0.0407948049557214" flag="0"/>
			<psa30 value="0.00461718169897348" flag="0"/>
		</comp>
	</station>
	<station code="ANX" name="ANX" netid="HP" source="University of Patras, Seismological Laboratory (PSLNET)" insttype="" lat="38.5933" lon="21.9209">
		<comp name="--.HNE" depth="0.0">
			<acc value="0.00868751805241306" flag="0"/>
			<vel value="0.00802515713427061" flag="0"/>
			<psa03 value="0.0278022115517225" flag="0"/>
			<psa10 value="0.01458668785897" flag="0"/>
			<psa30 value="0.00191964383364882" flag="0"/>
		</comp>
		<comp name="--.HNN" depth="0.0">
			<acc value="0.0127580523913804" flag="0"/>
			<vel value="0.00936767484191041" flag="0"/>
			<psa03 value="0.0304902958741253" flag="0"/>
			<psa10 value="0.0104292130716851" flag="0"/>
			<psa30 value="0.0012443733711289" flag="0"/>
		</comp>
		<comp name="--.HNZ" depth="0.0">
			<acc value="0.0057342984643015" flag="0"/>
			<vel value="0.00458843361216732" flag="0"/>
			<psa03 value="0.0194449990732396" flag="0"/>
			<psa10 value="0.00602320650785638" flag="0"/>
			<psa30 value="0.00123227788236393" flag="0"/>
		</comp>
	</station>
	<station code="FSK" name="FSK" netid="HP" source="University of Patras, Seismological Laboratory (PSLNET)" insttype="" lat="38.4593" lon="20.5623">
		<comp name="--.HNE" depth="0.0">
			<acc value="0.0211114368440505" flag="0"/>
			<vel value="0.0110667825766196" flag="0"/>
			<psa03 value="0.0654543672806918" flag="0"/>
			<psa10 value="0.0066517748661797" flag="0"/>
			<psa30 value="0.00158150080833445" flag="0"/>
		</comp>
		<comp name="--.HNN" depth="0.0">
			<acc value="0.0091219354621197" flag="0"/>
			<vel value="0.00661105903904473" flag="0"/>
			<psa03 value="0.0197308057669562" flag="0"/>
			<psa10 value="0.00971180554697215" flag="0"/>
			<psa30 value="0.000954591049471693" flag="0"/>
		</comp>
		<comp name="--.HNZ" depth="0.0">
			<acc value="0.0069723522180537" flag="0"/>
			<vel value="0.00439455859884082" flag="0"/>
			<psa03 value="0.0238310005618146" flag="0"/>
			<psa10 value="0.00526548756272791" flag="0"/>
			<psa30 value="0.000506040397694835" flag="0"/>
		</comp>
	</station>
	<station code="PDO" name="PDO" netid="HP" source="University of Patras, Seismological Laboratory (PSLNET)" insttype="" lat="38.5986" lon="21.1833">
		<comp name="--.HNE" depth="0.0">
			<acc value="0.0121492992676319" flag="0"/>
			<vel value="0.0101915652455839" flag="0"/>
			<psa03 value="0.0407125589863802" flag="0"/>
			<psa10 value="0.00800513311326892" flag="0"/>
			<psa30 value="0.00154460305153869" flag="0"/>
		</comp>
		<comp name="--.HNN" depth="0.0">
			<acc value="0.0159986114405319" flag="0"/>
			<vel value="0.00886714216032081" flag="0"/>
			<psa03 value="0.0476769135697319" flag="0"/>
			<psa10 value="0.0109157824920254" flag="0"/>
			<psa30 value="0.00116597359419341" flag="0"/>
		</comp>
		<comp name="--.HNZ" depth="0.0">
			<acc value="0.00652784782740416" flag="0"/>
			<vel value="0.00438575356477422" flag="0"/>
			<psa03 value="0.0211781776898959" flag="0"/>
			<psa10 value="0.00735985927332416" flag="0"/>
			<psa30 value="0.000810589374652365" flag="0"/>
		</comp>
	</station>
	<station code="PVO" name="PVO" netid="HP" source="University of Patras, Seismological Laboratory (PSLNET)" insttype="" lat="38.616" lon="21.525">
		<comp name="--.HNE" depth="0.0">
			<acc value="0.00674286959121344" flag="0"/>
			<vel value="0.00612566036546438" flag="0"/>
			<psa03 value="0.0137704317547503" flag="0"/>
			<psa10 value="0.00971089986194182" flag="0"/>
			<psa30 value="0.00172969312534767" flag="0"/>
		</comp>
		<comp name="--.HNN" depth="0.0">
			<acc value="0.00749095079311706" flag="0"/>
			<vel value="0.00608528296814984" flag="0"/>
			<psa03 value="0.0170584750923279" flag="0"/>
			<psa10 value="0.00842187009505796" flag="0"/>
			<psa30 value="0.00242129373216015" flag="0"/>
		</comp>
		<comp name="--.HNZ" depth="0.0">
			<acc value="0.00565463442835661" flag="0"/>
			<vel value="0.0069264878617501" flag="0"/>
			<psa03 value="0.010809792267582" flag="0"/>
			<psa10 value="0.0116161760771499" flag="0"/>
			<psa30 value="0.00216737566133207" flag="0"/>
		</comp>
	</station>
	<station code="SERG" name="SERG" netid="HP" source="University of Patras, Seismological Laboratory (PSLNET)" insttype="" lat="38.4133" lon="22.0566">
		<comp name="--.HNE" depth="0.0">
			<acc value="0.00467616889029089" flag="0"/>
			<vel value="0.00346109174276909" flag="0"/>
			<psa03 value="0.0124780974460413" flag="0"/>
			<psa10 value="0.00494223864905933" flag="0"/>
			<psa30 value="0.00117971148343146" flag="0"/>
		</comp>
		<comp name="--.HNN" depth="0.0">
			<acc value="0.00530811906543409" flag="0"/>
			<vel value="0.004070766223973" flag="0"/>
			<psa03 value="0.0196898277919786" flag="0"/>
			<psa10 value="0.00618073663096452" flag="0"/>
			<psa30 value="0.000973255619240198" flag="0"/>
		</comp>
		<comp name="--.HNZ" depth="0.0">
			<acc value="0.00315288762157445" flag="0"/>
			<vel value="0.00241466880003015" flag="0"/>
			<psa03 value="0.00833462504468082" flag="0"/>
			<psa10 value="0.00435637343212363" flag="0"/>
			<psa30 value="0.000643617636509897" flag="0"/>
		</comp>
	</station>
	<station code="UPR" name="UPR" netid="HP" source="University of Patras, Seismological Laboratory (PSLNET)" insttype="" lat="38.2836" lon="21.7864">
		<comp name="--.HNE" depth="2.0">
			<acc value="0.00480775036410874" flag="0"/>
			<vel value="0.0107678962762322" flag="0"/>
			<psa03 value="0.00921622967059449" flag="0"/>
			<psa10 value="0.0120146549744084" flag="0"/>
			<psa30 value="0.00289930310626806" flag="0"/>
		</comp>
		<comp name="--.HNN" depth="2.0">
			<acc value="0.00538571396347123" flag="0"/>
			<vel value="0.00977412170240952" flag="0"/>
			<psa03 value="0.0113202499110159" flag="0"/>
			<psa10 value="0.0142555606109352" flag="0"/>
			<psa30 value="0.00473349690427022" flag="0"/>
		</comp>
		<comp name="--.HNZ" depth="2.0">
			<acc value="0.003743078737454" flag="0"/>
			<vel value="0.00556139761823688" flag="0"/>
			<psa03 value="0.0074861664947242" flag="0"/>
			<psa10 value="0.00854091985652087" flag="0"/>
			<psa30 value="0.00095292323065574" flag="0"/>
		</comp>
	</station>
	<station code="VRKS" name="VRKS" netid="HP" source="University of Patras, Seismological Laboratory (PSLNET)" insttype="" lat="39.78398" lon="21.97651">
		<comp name="--.HNE" depth="0.0">
			<acc value="0.0201983233133787" flag="0"/>
			<vel value="0.00745264617999185" flag="0"/>
			<psa03 value="0.0319597161326906" flag="0"/>
			<psa10 value="0.00555317896461931" flag="0"/>
			<psa30 value="0.000639609298061013" flag="0"/>
		</comp>
		<comp name="--.HNN" depth="0.0">
			<acc value="0.0290612645586391" flag="0"/>
			<vel value="0.0110357930539634" flag="0"/>
			<psa03 value="0.045841661784935" flag="0"/>
			<psa10 value="0.0130931148546116" flag="0"/>
			<psa30 value="0.00055892374470541" flag="0"/>
		</comp>
		<comp name="--.HNZ" depth="0.0">
			<acc value="0.0201357117262319" flag="0"/>
			<vel value="0.00558875699648183" flag="0"/>
			<psa03 value="0.0220717720424096" flag="0"/>
			<psa10 value="0.00607604422684965" flag="0"/>
			<psa30 value="0.000514372355893757" flag="0"/>
		</comp>
	</station>
</stationlist>
