<?xml version="1.0" encoding="UTF-8" standalone="yes"?>
<!DOCTYPE earthquake SYSTEM "stationlist.dtd">
<stationlist created="" xmlns="ch.ethz.sed.shakemap.usgs.xml">
  <station code="KARP" name="KARP" netid="GE" insttype="STS-2/N" lat="35.5471" lon="27.1611">
    <comp name="--.HHE">
      <acc value="0.0303238575" flag="0"/>
      <vel value="0.0069775821" flag="0"/>
      <psa03 value="0.0275335776" flag="0"/>
      <psa10 value="0.0058686997" flag="0"/>
      <psa30 value="0.0004018014" flag="0"/>
    </comp>
    <comp name="--.HHN">
      <acc value="0.0288114571" flag="0"/>
      <vel value="0.0090225639" flag="0"/>
      <psa03 value="0.0332676920" flag="0"/>
      <psa10 value="0.0098705703" flag="0"/>
      <psa30 value="0.0004137666" flag="0"/>
    </comp>
    <comp name="--.HHZ">
      <acc value="0.0258801800" flag="0"/>
      <vel value="0.0065207801" flag="0"/>
      <psa03 value="0.0232163398" flag="0"/>
      <psa10 value="0.0036825150" flag="0"/>
      <psa30 value="0.0002844237" flag="0"/>
    </comp>
  </station>
  <station code="ARG" name="ARG" netid="HL" insttype="LE3D20_DR24" lat="36.2136" lon="28.1212">
    <comp name="--.HHE">
      <acc value="0.0628389661" flag="0"/>
      <vel value="0.0318889758" flag="0"/>
      <psa03 value="0.2018131794" flag="0"/>
      <psa10 value="0.0359729001" flag="0"/>
      <psa30 value="0.0025576479" flag="0"/>
    </comp>
    <comp name="--.HHN">
      <acc value="0.0351637705" flag="0"/>
      <vel value="0.0154751227" flag="0"/>
      <psa03 value="0.1146319140" flag="0"/>
      <psa10 value="0.0128556724" flag="0"/>
      <psa30 value="0.0013356043" flag="0"/>
    </comp>
    <comp name="--.HHZ">
      <acc value="0.0186370281" flag="0"/>
      <vel value="0.0088519467" flag="0"/>
      <psa03 value="0.0474492848" flag="0"/>
      <psa10 value="0.0135404743" flag="0"/>
      <psa30 value="0.0007398441" flag="0"/>
    </comp>
  </station>
  <station code="KARP" name="KARP" netid="HL" insttype="120" lat="35.5471" lon="27.1611">
    <comp name="--.HHN">
      <acc value="0.0278086423" flag="0"/>
      <vel value="0.0087880124" flag="0"/>
      <psa03 value="0.0322915955" flag="0"/>
      <psa10 value="0.0097961125" flag="0"/>
      <psa30 value="0.0004113652" flag="0"/>
    </comp>
    <comp name="--.HHE">
      <acc value="0.0283700286" flag="0"/>
      <vel value="0.0068457661" flag="0"/>
      <psa03 value="0.0268148222" flag="0"/>
      <psa10 value="0.0058388837" flag="0"/>
      <psa30 value="0.0003981841" flag="0"/>
    </comp>
    <comp name="--.HHZ">
      <acc value="0.0247155330" flag="0"/>
      <vel value="0.0061485616" flag="0"/>
      <psa03 value="0.0226188861" flag="0"/>
      <psa10 value="0.0036676581" flag="0"/>
      <psa30 value="0.0002827940" flag="0"/>
    </comp>
  </station>
  <station code="KLNA" name="KLNA" netid="HL" insttype="CMG-5" lat="36.9571" lon="26.9727">
    <comp name="00.HNE">
      <acc value="0.0486533570" flag="0"/>
      <vel value="0.0171346648" flag="0"/>
      <psa03 value="0.1467278550" flag="0"/>
      <psa10 value="0.0084145368" flag="0"/>
      <psa30 value="0.0010928191" flag="0"/>
    </comp>
    <comp name="00.HNN">
      <acc value="0.0381005326" flag="0"/>
      <vel value="0.0176765507" flag="0"/>
      <psa03 value="0.1255551416" flag="0"/>
      <psa10 value="0.0099274364" flag="0"/>
      <psa30 value="0.0006199153" flag="0"/>
    </comp>
    <comp name="00.HNZ">
      <acc value="0.0429619692" flag="0"/>
      <vel value="0.0126192799" flag="0"/>
      <psa03 value="0.0547983323" flag="0"/>
      <psa10 value="0.0044150399" flag="0"/>
      <psa30 value="0.0004603498" flag="0"/>
    </comp>
  </station>
  <station code="NISR" name="NISR" netid="HL" insttype="65535" lat="36.6106" lon="27.131">
    <comp name="--.HHZ">
      <acc value="0.5999116793" flag="0"/>
      <vel value="0.1316561155" flag="0"/>
      <psa03 value="0.8184380492" flag="0"/>
      <psa10 value="0.0839564887" flag="0"/>
      <psa30 value="0.0032408762" flag="0"/>
    </comp>
    <comp name="--.HHN">
      <acc value="1.4745688053" flag="0"/>
      <vel value="0.4401929176" flag="0"/>
      <psa03 value="1.2526805055" flag="0"/>
      <psa10 value="0.0733009266" flag="0"/>
      <psa30 value="0.0538461306" flag="0"/>
    </comp>
    <comp name="--.HHE">
      <acc value="1.5616190914" flag="0"/>
      <vel value="0.4358473756" flag="0"/>
      <psa03 value="2.7649853246" flag="0"/>
      <psa10 value="0.1280419021" flag="0"/>
      <psa30 value="0.0100393166" flag="0"/>
    </comp>
  </station>
</stationlist>
