<stationlist created="1778136699">
	<station code="KSS1" name="KSS1" netid="HI" source="ITSAK Strong Motion Network" insttype="" lat="35.4189" lon="26.9207">
		<comp name="--.HNE" depth="0.0">
			<acc value="0.00714493343996132" flag="0"/>
			<vel value="0.00251239680730209" flag="0"/>
			<psa03 value="0.0217386900815099" flag="0"/>
			<psa10 value="0.00237315510050467" flag="0"/>
			<psa30 value="0.000197025538954347" flag="0"/>
		</comp>
		<comp name="--.HNN" depth="0.0">
			<acc value="0.00875287649550132" flag="0"/>
			<vel value="0.00275815101299602" flag="0"/>
			<psa03 value="0.0229339124883255" flag="0"/>
			<psa10 value="0.00253900608731942" flag="0"/>
			<psa30 value="0.000126709695978779" flag="0"/>
		</comp>
		<comp name="--.HNZ" depth="0.0">
			<acc value="0.00541317816117647" flag="0"/>
			<vel value="0.00174111003603195" flag="0"/>
			<psa03 value="0.0054405869746728" flag="0"/>
			<psa10 value="0.00173467378081357" flag="0"/>
			<psa30 value="0.000157717218824909" flag="0"/>
		</comp>
	</station>
	<station code="AGNA" name="AGNA" netid="HL" source="National Observatory of Athens Seismic Network" insttype="" lat="35.1895" lon="25.71853">
		<comp name="00.HNE" depth="0.0">
			<acc value="0.00324431762754135" flag="0"/>
			<vel value="0.00244235907254266" flag="0"/>
			<psa03 value="0.0122480223088628" flag="0"/>
			<psa10 value="0.00249807704784259" flag="0"/>
			<psa30 value="0.000333828130100444" flag="0"/>
		</comp>
		<comp name="00.HNN" depth="0.0">
			<acc value="0.0056530041934721" flag="0"/>
			<vel value="0.00446667083790597" flag="0"/>
			<psa03 value="0.0118973871018382" flag="0"/>
			<psa10 value="0.00933044184597158" flag="0"/>
			<psa30 value="0.000759444580311503" flag="0"/>
		</comp>
		<comp name="00.HNZ" depth="0.0">
			<acc value="0.00596908807827141" flag="0"/>
			<vel value="0.00143905526030637" flag="0"/>
			<psa03 value="0.00635761647341204" flag="0"/>
			<psa10 value="0.00186872793467914" flag="0"/>
			<psa30 value="0.000333378464895366" flag="0"/>
		</comp>
	</station>
	<station code="KARP" name="KARP" netid="HL" source="National Observatory of Athens Seismic Network" insttype="" lat="35.5471" lon="27.16106">
		<comp name="--.HNE" depth="0.0">
			<acc value="0.0252450743413467" flag="0"/>
			<vel value="0.00675171230684287" flag="0"/>
			<psa03 value="0.0241935740597089" flag="0"/>
			<psa10 value="0.00504942496837531" flag="0"/>
			<psa30 value="0.000341607317308189" flag="0"/>
		</comp>
		<comp name="--.HNN" depth="0.0">
			<acc value="0.0235171312104699" flag="0"/>
			<vel value="0.007262919554919" flag="0"/>
			<psa03 value="0.027098381072234" flag="0"/>
			<psa10 value="0.00812017104648479" flag="0"/>
			<psa30 value="0.000368989287479285" flag="0"/>
		</comp>
		<comp name="--.HNZ" depth="0.0">
			<acc value="0.0193336023570961" flag="0"/>
			<vel value="0.0052140571138791" flag="0"/>
			<psa03 value="0.0188676808808629" flag="0"/>
			<psa10 value="0.00289689346747347" flag="0"/>
			<psa30 value="0.00023451514485255" flag="0"/>
		</comp>
	</station>
	<station code="KLNA" name="KLNA" netid="HL" source="National Observatory of Athens Seismic Network" insttype="" lat="36.95708" lon="26.97274">
		<comp name="00.HNE" depth="0.0">
			<acc value="0.0479315079520308" flag="0"/>
			<vel value="0.0167412422799446" flag="0"/>
			<psa03 value="0.147072388657094" flag="0"/>
			<psa10 value="0.00840848452082713" flag="0"/>
			<psa30 value="0.00113306037218725" flag="0"/>
		</comp>
		<comp name="00.HNN" depth="0.0">
			<acc value="0.0372786503802405" flag="0"/>
			<vel value="0.0177371981415049" flag="0"/>
			<psa03 value="0.126468961281475" flag="0"/>
			<psa10 value="0.00992303641496466" flag="0"/>
			<psa30 value="0.000628966145085685" flag="0"/>
		</comp>
		<comp name="00.HNZ" depth="0.0">
			<acc value="0.0418672686083065" flag="0"/>
			<vel value="0.0127932935849193" flag="0"/>
			<psa03 value="0.0549185391253977" flag="0"/>
			<psa10 value="0.00439616544311703" flag="0"/>
			<psa30 value="0.000502115971053147" flag="0"/>
		</comp>
	</station>
	<station code="NISR" name="NISR" netid="HL" source="National Observatory of Athens Seismic Network" insttype="" lat="36.6106" lon="27.131">
		<comp name="--.HNE" depth="0.0">
			<acc value="1.38120819979254" flag="0"/>
			<vel value="0.403781503008129" flag="0"/>
			<psa03 value="2.58577879515563" flag="0"/>
			<psa10 value="0.121246536988155" flag="0"/>
			<psa30 value="0.0102165742979074" flag="0"/>
		</comp>
		<comp name="--.HNN" depth="0.0">
			<acc value="1.48678229085273" flag="0"/>
			<vel value="0.402204704825352" flag="0"/>
			<psa03 value="1.52586758123828" flag="0"/>
			<psa10 value="0.0720574459521538" flag="0"/>
			<psa30 value="0.00978214301897916" flag="0"/>
		</comp>
		<comp name="--.HNZ" depth="0.0">
			<acc value="0.538596951082274" flag="0"/>
			<vel value="0.127894121069134" flag="0"/>
			<psa03 value="0.733705521054499" flag="0"/>
			<psa10 value="0.0867555771312857" flag="0"/>
			<psa30 value="0.00323648210939021" flag="0"/>
		</comp>
	</station>
	<station code="RODB" name="RODB" netid="HL" source="National Observatory of Athens Seismic Network" insttype="" lat="36.4471" lon="28.22116">
		<comp name="00.HNE" depth="0.0">
			<acc value="0.0135152111802497" flag="0"/>
			<vel value="0.0144487699703641" flag="0"/>
			<psa03 value="0.0285847425572282" flag="0"/>
			<psa10 value="0.0192560649948114" flag="0"/>
			<psa30 value="0.00240238060425732" flag="0"/>
		</comp>
		<comp name="00.HNN" depth="0.0">
			<acc value="0.0176261826033281" flag="0"/>
			<vel value="0.0146202069189987" flag="0"/>
			<psa03 value="0.0484488449147251" flag="0"/>
			<psa10 value="0.0163522195042751" flag="0"/>
			<psa30 value="0.00296589897624926" flag="0"/>
		</comp>
		<comp name="00.HNZ" depth="0.0">
			<acc value="0.00815647097742355" flag="0"/>
			<vel value="0.00682090342020856" flag="0"/>
			<psa03 value="0.0209294372537672" flag="0"/>
			<psa10 value="0.0116111629325602" flag="0"/>
			<psa30 value="0.0010430386795271" flag="0"/>
		</comp>
	</station>
	<station code="THRA" name="THRA" netid="HL" source="National Observatory of Athens Seismic Network" insttype="" lat="36.41502" lon="25.43244">
		<comp name="00.HNE" depth="0.0">
			<acc value="0.0165388920880779" flag="0"/>
			<vel value="0.0144743727549072" flag="0"/>
			<psa03 value="0.0445123393490452" flag="0"/>
			<psa10 value="0.0159059455658386" flag="0"/>
			<psa30 value="0.00271333682858323" flag="0"/>
		</comp>
		<comp name="00.HNN" depth="0.0">
			<acc value="0.0134728869173159" flag="0"/>
			<vel value="0.0128707589744348" flag="0"/>
			<psa03 value="0.0410568031450238" flag="0"/>
			<psa10 value="0.021964220646835" flag="0"/>
			<psa30 value="0.00150737162680646" flag="0"/>
		</comp>
		<comp name="00.HNZ" depth="0.0">
			<acc value="0.0137261712198248" flag="0"/>
			<vel value="0.007150778982252" flag="0"/>
			<psa03 value="0.0370542593503248" flag="0"/>
			<psa10 value="0.00880728031408823" flag="0"/>
			<psa30 value="0.000514241982674076" flag="0"/>
		</comp>
	</station>
	<station code="CAME" name="CAME" netid="KO" source="Bogazici University Kandilli Observatory And Earthquake Research Institute (KOERI)" insttype="" lat="36.9435" lon="29.3023">
		<comp name="--.HNE" depth="0.0">
			<acc value="0.00270275100678223" flag="0"/>
			<vel value="0.00257418889454649" flag="0"/>
			<psa03 value="0.00831145944756589" flag="0"/>
			<psa10 value="0.00405699672487675" flag="0"/>
			<psa30 value="0.000425045605102168" flag="0"/>
		</comp>
		<comp name="--.HNN" depth="0.0">
			<acc value="0.00326824377606967" flag="0"/>
			<vel value="0.00201447220854655" flag="0"/>
			<psa03 value="0.0161657974672256" flag="0"/>
			<psa10 value="0.00264962294639129" flag="0"/>
			<psa30 value="0.000240919996225653" flag="0"/>
		</comp>
		<comp name="--.HNZ" depth="0.0">
			<acc value="0.00162624066521633" flag="0"/>
			<vel value="0.00185993049811238" flag="0"/>
			<psa03 value="0.00496704258385812" flag="0"/>
			<psa10 value="0.00219131117923428" flag="0"/>
			<psa30 value="0.000387344513839684" flag="0"/>
		</comp>
	</station>
	<station code="NAZL" name="NAZL" netid="KO" source="Bogazici University Kandilli Observatory And Earthquake Research Institute (KOERI)" insttype="" lat="37.9641" lon="28.2922">
		<comp name="--.HNE" depth="0.0">
			<acc value="0.00203749643483269" flag="0"/>
			<vel value="0.00171757804974172" flag="0"/>
			<psa03 value="0.00442027426678793" flag="0"/>
			<psa10 value="0.00268276670450338" flag="0"/>
			<psa30 value="0.00035532450204628" flag="0"/>
		</comp>
		<comp name="--.HNN" depth="0.0">
			<acc value="0.00180642834618312" flag="0"/>
			<vel value="0.00138241241627974" flag="0"/>
			<psa03 value="0.00498627237335022" flag="0"/>
			<psa10 value="0.00214138084034481" flag="0"/>
			<psa30 value="0.000260029934040489" flag="0"/>
		</comp>
		<comp name="--.HNZ" depth="0.0">
			<acc value="0.00132347479363495" flag="0"/>
			<vel value="0.000581164441987831" flag="0"/>
			<psa03 value="0.00254947732134922" flag="0"/>
			<psa10 value="0.0010630482342266" flag="0"/>
			<psa30 value="0.000160239547375071" flag="0"/>
		</comp>
	</station>
</stationlist>
