<?xml version="1.0" encoding="UTF-8" standalone="yes"?>
<!DOCTYPE earthquake SYSTEM "stationlist.dtd">
<stationlist created="" xmlns="ch.ethz.sed.shakemap.usgs.xml">
  <station code="DARE" name="DARE" netid="KO" insttype="CMG-3ESP" lat="38.5712" lon="37.4832">
    <comp name="--.HHZ">
      <acc value="0.0041143925" flag="0"/>
      <vel value="0.0023338185" flag="0"/>
      <psa03 value="0.0192228065" flag="0"/>
      <psa10 value="0.0023290908" flag="0"/>
      <psa30 value="0.0002246267" flag="0"/>
    </comp>
    <comp name="--.HHE">
      <acc value="0.0045460078" flag="0"/>
      <vel value="0.0028549569" flag="0"/>
      <psa03 value="0.0144364102" flag="0"/>
      <psa10 value="0.0029603018" flag="0"/>
      <psa30 value="0.0001748104" flag="0"/>
    </comp>
    <comp name="--.HHN">
      <acc value="0.0041679672" flag="0"/>
      <vel value="0.0021005332" flag="0"/>
      <psa03 value="0.0087984390" flag="0"/>
      <psa10 value="0.0024035382" flag="0"/>
      <psa30 value="0.0002135924" flag="0"/>
    </comp>
  </station>
  <station code="GAZ" name="GAZ" netid="KO" insttype="CMG-3T" lat="37.1721" lon="37.2096">
    <comp name="--.HHE">
      <acc value="0.1301507822" flag="0"/>
      <vel value="0.0444423473" flag="0"/>
      <psa03 value="0.2255109026" flag="0"/>
      <psa10 value="0.0233100294" flag="0"/>
      <psa30 value="0.0014311950" flag="0"/>
    </comp>
    <comp name="--.HHN">
      <acc value="0.1117079798" flag="0"/>
      <vel value="0.0240163813" flag="0"/>
      <psa03 value="0.1432380662" flag="0"/>
      <psa10 value="0.0166141576" flag="0"/>
      <psa30 value="0.0008898959" flag="0"/>
    </comp>
    <comp name="--.HHZ">
      <acc value="0.0801744877" flag="0"/>
      <vel value="0.0218780229" flag="0"/>
      <psa03 value="0.1027607967" flag="0"/>
      <psa10 value="0.0086237276" flag="0"/>
      <psa30 value="0.0006209872" flag="0"/>
    </comp>
  </station>
  <station code="KHMN" name="KHMN" netid="KO" insttype="CMG-5T" lat="37.3916" lon="37.1574">
    <comp name="--.HNZ">
      <acc value="0.4143925197" flag="0"/>
      <vel value="0.0564296542" flag="0"/>
      <psa03 value="0.2101509874" flag="0"/>
      <psa10 value="0.0115491779" flag="0"/>
      <psa30 value="0.0014369253" flag="0"/>
    </comp>
    <comp name="--.HNE">
      <acc value="1.3013978328" flag="0"/>
      <vel value="0.2117121518" flag="0"/>
      <psa03 value="0.5091330146" flag="0"/>
      <psa10 value="0.0482018683" flag="0"/>
      <psa30 value="0.0053003396" flag="0"/>
    </comp>
    <comp name="--.HNN">
      <acc value="0.6794819971" flag="0"/>
      <vel value="0.1067452979" flag="0"/>
      <psa03 value="0.4205509664" flag="0"/>
      <psa10 value="0.0185395797" flag="0"/>
      <psa30 value="0.0017149494" flag="0"/>
    </comp>
  </station>
  <station code="KMRS" name="KMRS" netid="KO" insttype="CMG-3T" lat="37.5053" lon="36.9">
    <comp name="--.HHN">
      <acc value="0.0981020254" flag="0"/>
      <vel value="0.0469292702" flag="0"/>
      <psa03 value="0.3478370855" flag="0"/>
      <psa10 value="0.0225077839" flag="0"/>
      <psa30 value="0.0023050624" flag="0"/>
    </comp>
    <comp name="--.HHZ">
      <acc value="0.0603991684" flag="0"/>
      <vel value="0.0279236087" flag="0"/>
      <psa03 value="0.1347043886" flag="0"/>
      <psa10 value="0.0158455209" flag="0"/>
      <psa30 value="0.0010589639" flag="0"/>
    </comp>
    <comp name="--.HHE">
      <acc value="0.1071708387" flag="0"/>
      <vel value="0.0450980885" flag="0"/>
      <psa03 value="0.2516618924" flag="0"/>
      <psa10 value="0.0243923167" flag="0"/>
      <psa30 value="0.0024014406" flag="0"/>
    </comp>
  </station>
  <station code="SARI" name="SARI" netid="KO" insttype="CMG-3T" lat="38.4072" lon="36.4181">
    <comp name="--.HHE">
      <acc value="0.0408410660" flag="0"/>
      <vel value="0.0161935241" flag="0"/>
      <psa03 value="0.0796684003" flag="0"/>
      <psa10 value="0.0050809584" flag="0"/>
      <psa30 value="0.0005119037" flag="0"/>
    </comp>
    <comp name="--.HHN">
      <acc value="0.0281549023" flag="0"/>
      <vel value="0.0121190925" flag="0"/>
      <psa03 value="0.0722617049" flag="0"/>
      <psa10 value="0.0058151714" flag="0"/>
      <psa30 value="0.0003533738" flag="0"/>
    </comp>
    <comp name="--.HHZ">
      <acc value="0.0226515610" flag="0"/>
      <vel value="0.0090904386" flag="0"/>
      <psa03 value="0.0407338685" flag="0"/>
      <psa10 value="0.0062307057" flag="0"/>
      <psa30 value="0.0003696293" flag="0"/>
    </comp>
  </station>
  <station code="ANDN" name="ANDN" netid="TU" insttype="T" lat="37.58" lon="36.3452">
    <comp name="--.HHE">
      <acc value="0.1255142352" flag="0"/>
      <vel value="0.0361279732" flag="0"/>
      <psa03 value="0.2239949882" flag="0"/>
      <psa10 value="0.0138642139" flag="0"/>
      <psa30 value="0.0009913756" flag="0"/>
    </comp>
    <comp name="--.HHZ">
      <acc value="0.0700519251" flag="0"/>
      <vel value="0.0184715911" flag="0"/>
      <psa03 value="0.0924489108" flag="0"/>
      <psa10 value="0.0171755900" flag="0"/>
      <psa30 value="0.0008005838" flag="0"/>
    </comp>
    <comp name="--.HHN">
      <acc value="0.2525608367" flag="0"/>
      <vel value="0.0543641436" flag="0"/>
      <psa03 value="0.2898913503" flag="0"/>
      <psa10 value="0.0213804306" flag="0"/>
      <psa30 value="0.0012075552" flag="0"/>
    </comp>
  </station>
</stationlist>
