<stationlist xmlns:esm="https://esm-db.eu/esmws/shakemap/1/" created="1783994360">
	<station code="SAF" name="SAF" netid="1V" source="Temporary Accelerometric Network in Basilicata region for Site Effect studies (MARCO_BAS)" insttype="" lat="40.54568" lon="15.55715" esm:processing="manual (Paolucci et al 2011)" esm:quality="good">
		<comp name="00.HNE" depth="0.0">
			<acc value="0.0174631570274031" flag="0"/>
			<vel value="0.00473862535339635" flag="0"/>
			<psa03 value="0.0224961985960676" flag="0"/>
			<psa10 value="0.00239741897349176" flag="0"/>
			<psa30 value="0.000250543602492308" flag="0"/>
		</comp>
		<comp name="00.HNN" depth="0.0">
			<acc value="0.0106272371896002" flag="0"/>
			<vel value="0.00302830201769537" flag="0"/>
			<psa03 value="0.0147723483872334" flag="0"/>
			<psa10 value="0.00143468050929301" flag="0"/>
			<psa30 value="0.000278475114276201" flag="0"/>
		</comp>
		<comp name="00.HNZ" depth="0.0">
			<acc value="0.00729146763618417" flag="0"/>
			<vel value="0.0020183373012876" flag="0"/>
			<psa03 value="0.00953163663247401" flag="0"/>
			<psa10 value="0.000812542830881328" flag="0"/>
			<psa30 value="0.000217802384068268" flag="0"/>
		</comp>
	</station>
	<station code="SARC" name="SARC" netid="1V" source="Temporary Accelerometric Network in Basilicata region for Site Effect studies (MARCO_BAS)" insttype="" lat="40.25275" lon="16.27176" esm:processing="manual (Paolucci et al 2011)" esm:quality="good">
		<comp name="00.HNE" depth="0.0">
			<acc value="0.0282290590221402" flag="0"/>
			<vel value="0.016629075066244" flag="0"/>
			<psa03 value="0.0783786036562278" flag="0"/>
			<psa10 value="0.013947942732742" flag="0"/>
			<psa30 value="0.00133806405684207" flag="0"/>
		</comp>
		<comp name="00.HNN" depth="0.0">
			<acc value="0.0324211498554873" flag="0"/>
			<vel value="0.0159139195643557" flag="0"/>
			<psa03 value="0.107178725064646" flag="0"/>
			<psa10 value="0.0268453339966177" flag="0"/>
			<psa30 value="0.00206985711787593" flag="0"/>
		</comp>
		<comp name="00.HNZ" depth="0.0">
			<acc value="0.0192186798722063" flag="0"/>
			<vel value="0.00958436108132316" flag="0"/>
			<psa03 value="0.0425621033846103" flag="0"/>
			<psa10 value="0.00731463455862901" flag="0"/>
			<psa30 value="0.000803396085630007" flag="0"/>
		</comp>
	</station>
	<station code="CUC" name="CUC" netid="MN" source="Mediterranean Very Broadband Seismographic Network (MedNet)" insttype="" lat="39.9938" lon="15.8155" esm:processing="automatic (Paolucci et al 2011)" esm:quality="bad">
		<comp name="--.HLE" depth="0.0">
			<acc value="0" flag="1"/>
			<vel value="0" flag="1"/>
			<psa03 value="0" flag="1"/>
			<psa10 value="0" flag="1"/>
			<psa30 value="0" flag="1"/>
		</comp>
		<comp name="--.HLN" depth="0.0">
			<acc value="0" flag="1"/>
			<vel value="0" flag="1"/>
			<psa03 value="0" flag="1"/>
			<psa10 value="0" flag="1"/>
			<psa30 value="0" flag="1"/>
		</comp>
		<comp name="--.HLZ" depth="0.0">
			<acc value="0" flag="1"/>
			<vel value="0" flag="1"/>
			<psa03 value="0" flag="1"/>
			<psa10 value="0" flag="1"/>
			<psa30 value="0" flag="1"/>
		</comp>
	</station>
</stationlist>
