<?xml version="1.0" encoding="UTF-8" standalone="yes"?>
<!DOCTYPE earthquake SYSTEM "stationlist.dtd">
<stationlist created="" xmlns="ch.ethz.sed.shakemap.usgs.xml">
  <station code="ACER" name="ACER" netid="IV" source="INGV" insttype="" lat="40.7867" lon="15.9427">
    <comp name="--.HHE">
      <acc value="0.0096485955" flag="0"/>
      <vel value="0.0039134987" flag="0"/>
      <psa03 value="0.0194415526" flag="0"/>
      <psa10 value="0.0024360576" flag="0"/>
      <psa30 value="0.0001607852" flag="0"/>
    </comp>
    <comp name="--.HHN">
      <acc value="0.0095761493" flag="0"/>
      <vel value="0.0032349217" flag="0"/>
      <psa03 value="0.0173528623" flag="0"/>
      <psa10 value="0.0019806208" flag="0"/>
      <psa30 value="0.0001104192" flag="0"/>
    </comp>
    <comp name="--.HHZ">
      <acc value="0.0075839740" flag="0"/>
      <vel value="0.0016635210" flag="0"/>
      <psa03 value="0.0082864686" flag="0"/>
      <psa10 value="0.0006939350" flag="0"/>
      <psa30 value="0.0000753699" flag="0"/>
    </comp>
  </station>
  <station code="BULG" name="BULG" netid="IV" source="INGV" insttype="" lat="40.0783" lon="15.3776">
    <comp name="--.HHE">
      <acc value="0.0154562656" flag="0"/>
      <vel value="0.0054546059" flag="0"/>
      <psa03 value="0.0358050900" flag="0"/>
      <psa10 value="0.0017073720" flag="0"/>
      <psa30 value="0.0001664458" flag="0"/>
    </comp>
    <comp name="--.HHN">
      <acc value="0.0273312504" flag="0"/>
      <vel value="0.0089910228" flag="0"/>
      <psa03 value="0.0730907643" flag="0"/>
      <psa10 value="0.0040922148" flag="0"/>
      <psa30 value="0.0003335506" flag="0"/>
    </comp>
    <comp name="--.HHZ">
      <acc value="0.0094528126" flag="0"/>
      <vel value="0.0028413367" flag="0"/>
      <psa03 value="0.0092484459" flag="0"/>
      <psa10 value="0.0013713062" flag="0"/>
      <psa30 value="0.0001510791" flag="0"/>
    </comp>
  </station>
  <station code="CARO" name="CARO" netid="IV" source="INGV" insttype="" lat="39.254" lon="16.219">
    <comp name="--.HHE">
      <acc value="0.0883944850" flag="0"/>
      <vel value="0.0444099817" flag="0"/>
      <psa03 value="0.2003730327" flag="0"/>
      <psa10 value="0.0175193292" flag="0"/>
      <psa30 value="0.0014198927" flag="0"/>
    </comp>
    <comp name="--.HHN">
      <acc value="0.0691974729" flag="0"/>
      <vel value="0.0212155396" flag="0"/>
      <psa03 value="0.1715591007" flag="0"/>
      <psa10 value="0.0091751001" flag="0"/>
      <psa30 value="0.0006845816" flag="0"/>
    </comp>
    <comp name="--.HHZ">
      <acc value="0.0671195669" flag="0"/>
      <vel value="0.0138542120" flag="0"/>
      <psa03 value="0.0806948122" flag="0"/>
      <psa10 value="0.0033915260" flag="0"/>
      <psa30 value="0.0003008397" flag="0"/>
    </comp>
  </station>
  <station code="CDRU" name="CDRU" netid="IV" source="INGV" insttype="" lat="40.4896" lon="15.3046">
    <comp name="--.HHE">
      <acc value="0.0138610081" flag="0"/>
      <vel value="0.0040537736" flag="0"/>
      <psa03 value="0.0125950481" flag="0"/>
      <psa10 value="0.0010977211" flag="0"/>
      <psa30 value="0.0000833798" flag="0"/>
    </comp>
    <comp name="--.HHN">
      <acc value="0.0079654715" flag="0"/>
      <vel value="0.0014137837" flag="0"/>
      <psa03 value="0.0047866302" flag="0"/>
      <psa10 value="0.0006728963" flag="0"/>
      <psa30 value="0.0000427297" flag="0"/>
    </comp>
    <comp name="--.HHZ">
      <acc value="0.0048530519" flag="0"/>
      <vel value="0.0015825808" flag="0"/>
      <psa03 value="0.0059466938" flag="0"/>
      <psa10 value="0.0005819096" flag="0"/>
      <psa30 value="0.0000647577" flag="0"/>
    </comp>
  </station>
  <station code="CMPR" name="CMPR" netid="IV" source="INGV" insttype="" lat="40.3181" lon="15.303">
    <comp name="--.HHE">
      <acc value="0.0122714405" flag="0"/>
      <vel value="0.0022931636" flag="0"/>
      <psa03 value="0.0151312090" flag="0"/>
      <psa10 value="0.0010614159" flag="0"/>
      <psa30 value="0.0001058516" flag="0"/>
    </comp>
    <comp name="--.HHN">
      <acc value="0.0067157950" flag="0"/>
      <vel value="0.0021503392" flag="0"/>
      <psa03 value="0.0096564169" flag="0"/>
      <psa10 value="0.0016331780" flag="0"/>
      <psa30 value="0.0001210057" flag="0"/>
    </comp>
    <comp name="--.HHZ">
      <acc value="0.0050578176" flag="0"/>
      <vel value="0.0014631941" flag="0"/>
      <psa03 value="0.0071914105" flag="0"/>
      <psa10 value="0.0008647379" flag="0"/>
      <psa30 value="0.0000412893" flag="0"/>
    </comp>
  </station>
  <station code="ILLI" name="ILLI" netid="IV" source="INGV" insttype="" lat="38.4457" lon="14.9483">
    <comp name="--.HHE">
      <acc value="0.0159511876" flag="0"/>
      <vel value="0.0060337225" flag="0"/>
      <psa03 value="0.0238378745" flag="0"/>
      <psa10 value="0.0041787570" flag="0"/>
      <psa30 value="0.0003109695" flag="0"/>
    </comp>
    <comp name="--.HHN">
      <acc value="0.0157084581" flag="0"/>
      <vel value="0.0084797004" flag="0"/>
      <psa03 value="0.0323459578" flag="0"/>
      <psa10 value="0.0066167844" flag="0"/>
      <psa30 value="0.0002771577" flag="0"/>
    </comp>
    <comp name="--.HHZ">
      <acc value="0.0177086466" flag="0"/>
      <vel value="0.0035670588" flag="0"/>
      <psa03 value="0.0118070735" flag="0"/>
      <psa10 value="0.0014002867" flag="0"/>
      <psa30 value="0.0001086678" flag="0"/>
    </comp>
  </station>
  <station code="IVPL" name="IVPL" netid="IV" source="INGV" insttype="" lat="38.3763" lon="14.9801">
    <comp name="--.HHE">
      <acc value="0.0267814280" flag="0"/>
      <vel value="0.0093546871" flag="0"/>
      <psa03 value="0.0504180057" flag="0"/>
      <psa10 value="0.0079742938" flag="0"/>
      <psa30 value="0.0002890974" flag="0"/>
    </comp>
    <comp name="--.HHN">
      <acc value="0.0266834828" flag="0"/>
      <vel value="0.0086950526" flag="0"/>
      <psa03 value="0.0345356160" flag="0"/>
      <psa10 value="0.0056327171" flag="0"/>
      <psa30 value="0.0003933159" flag="0"/>
    </comp>
    <comp name="--.HHZ">
      <acc value="0.0167158363" flag="0"/>
      <vel value="0.0053812469" flag="0"/>
      <psa03 value="0.0197452135" flag="0"/>
      <psa10 value="0.0029880991" flag="0"/>
      <psa30 value="0.0001648961" flag="0"/>
    </comp>
  </station>
  <station code="JOPP" name="JOPP" netid="IV" source="INGV" insttype="" lat="38.6068" lon="15.8856">
    <comp name="--.HHE">
      <acc value="0.0687618363" flag="0"/>
      <vel value="0.0141798062" flag="0"/>
      <psa03 value="0.0373927197" flag="0"/>
      <psa10 value="0.0038004830" flag="0"/>
      <psa30 value="0.0001994245" flag="0"/>
    </comp>
    <comp name="--.HHN">
      <acc value="0.0812251531" flag="0"/>
      <vel value="0.0160886636" flag="0"/>
      <psa03 value="0.0426100574" flag="0"/>
      <psa10 value="0.0052763472" flag="0"/>
      <psa30 value="0.0004138334" flag="0"/>
    </comp>
    <comp name="--.HHZ">
      <acc value="0.0502194720" flag="0"/>
      <vel value="0.0067127274" flag="0"/>
      <psa03 value="0.0349359092" flag="0"/>
      <psa10 value="0.0020572084" flag="0"/>
      <psa30 value="0.0001262262" flag="0"/>
    </comp>
  </station>
  <station code="MCEL" name="MCEL" netid="IV" source="INGV" insttype="" lat="40.3249" lon="15.8019">
    <comp name="--.HHE">
      <acc value="0.0097448584" flag="0"/>
      <vel value="0.0028327514" flag="0"/>
      <psa03 value="0.0174335991" flag="0"/>
      <psa10 value="0.0020684595" flag="0"/>
      <psa30 value="0.0000967506" flag="0"/>
    </comp>
    <comp name="--.HHN">
      <acc value="0.0070258283" flag="0"/>
      <vel value="0.0027445267" flag="0"/>
      <psa03 value="0.0176627383" flag="0"/>
      <psa10 value="0.0025274142" flag="0"/>
      <psa30 value="0.0001327981" flag="0"/>
    </comp>
    <comp name="--.HHZ">
      <acc value="0.0050796787" flag="0"/>
      <vel value="0.0017292854" flag="0"/>
      <psa03 value="0.0078265488" flag="0"/>
      <psa10 value="0.0008758067" flag="0"/>
      <psa30 value="0.0000830347" flag="0"/>
    </comp>
  </station>
  <station code="MIGL" name="MIGL" netid="IV" source="INGV" insttype="" lat="40.6044" lon="16.441">
    <comp name="--.HHE">
      <acc value="0.0246409618" flag="0"/>
      <vel value="0.0063142202" flag="0"/>
      <psa03 value="0.0206579642" flag="0"/>
      <psa10 value="0.0035018997" flag="0"/>
      <psa30 value="0.0003331228" flag="0"/>
    </comp>
    <comp name="--.HHN">
      <acc value="0.0269879782" flag="0"/>
      <vel value="0.0055357345" flag="0"/>
      <psa03 value="0.0171528611" flag="0"/>
      <psa10 value="0.0028248409" flag="0"/>
      <psa30 value="0.0002813061" flag="0"/>
    </comp>
    <comp name="--.HHZ">
      <acc value="0.0266727892" flag="0"/>
      <vel value="0.0050363956" flag="0"/>
      <psa03 value="0.0153800377" flag="0"/>
      <psa10 value="0.0024182805" flag="0"/>
      <psa30 value="0.0001567939" flag="0"/>
    </comp>
  </station>
  <station code="MILZ" name="MILZ" netid="IV" source="INGV" insttype="" lat="38.2713" lon="15.2313">
    <comp name="--.HHE">
      <acc value="0.0157939140" flag="0"/>
      <vel value="0.0041023142" flag="0"/>
      <psa03 value="0.0268225007" flag="0"/>
      <psa10 value="0.0028103190" flag="0"/>
      <psa30 value="0.0001208449" flag="0"/>
    </comp>
    <comp name="--.HHN">
      <acc value="0.0180494824" flag="0"/>
      <vel value="0.0064553260" flag="0"/>
      <psa03 value="0.0447659688" flag="0"/>
      <psa10 value="0.0024797139" flag="0"/>
      <psa30 value="0.0001772092" flag="0"/>
    </comp>
    <comp name="--.HHZ">
      <acc value="0.0221247186" flag="0"/>
      <vel value="0.0036368357" flag="0"/>
      <psa03 value="0.0155814066" flag="0"/>
      <psa10 value="0.0011967567" flag="0"/>
      <psa30 value="0.0000875158" flag="0"/>
    </comp>
  </station>
  <station code="MMME" name="MMME" netid="IV" source="INGV" insttype="" lat="37.9352" lon="15.2539">
    <comp name="--.HHE">
      <acc value="0.0085875490" flag="0"/>
      <vel value="0.0026642830" flag="0"/>
      <psa03 value="0.0190963497" flag="0"/>
      <psa10 value="0.0012257796" flag="0"/>
      <psa30 value="0.0000931971" flag="0"/>
    </comp>
    <comp name="--.HHN">
      <acc value="0.0091841412" flag="0"/>
      <vel value="0.0020355989" flag="0"/>
      <psa03 value="0.0158577432" flag="0"/>
      <psa10 value="0.0013326697" flag="0"/>
      <psa30 value="0.0001086811" flag="0"/>
    </comp>
    <comp name="--.HHZ">
      <acc value="0.0067622990" flag="0"/>
      <vel value="0.0012675798" flag="0"/>
      <psa03 value="0.0092099848" flag="0"/>
      <psa10 value="0.0008283679" flag="0"/>
      <psa30 value="0.0000754461" flag="0"/>
    </comp>
  </station>
  <station code="MPAZ" name="MPAZ" netid="IV" source="INGV" insttype="" lat="37.9531" lon="16.0067">
    <comp name="--.HHE">
      <acc value="0.0059430688" flag="0"/>
      <vel value="0.0023294985" flag="0"/>
      <psa03 value="0.0089255599" flag="0"/>
      <psa10 value="0.0011217196" flag="0"/>
      <psa30 value="0.0000780715" flag="0"/>
    </comp>
    <comp name="--.HHN">
      <acc value="0.0072103210" flag="0"/>
      <vel value="0.0019863454" flag="0"/>
      <psa03 value="0.0110632974" flag="0"/>
      <psa10 value="0.0013384295" flag="0"/>
      <psa30 value="0.0001165205" flag="0"/>
    </comp>
    <comp name="--.HHZ">
      <acc value="0.0071129049" flag="0"/>
      <vel value="0.0013879163" flag="0"/>
      <psa03 value="0.0051979864" flag="0"/>
      <psa10 value="0.0006199193" flag="0"/>
      <psa30 value="0.0001009262" flag="0"/>
    </comp>
  </station>
  <station code="MRCB" name="MRCB" netid="IV" source="INGV" insttype="" lat="38.162" lon="15.703">
    <comp name="01.HHE">
      <acc value="0.0418812085" flag="0"/>
      <vel value="0.0100001138" flag="0"/>
      <psa03 value="0.0378506063" flag="0"/>
      <psa10 value="0.0044569824" flag="0"/>
      <psa30 value="0.0002999269" flag="0"/>
    </comp>
    <comp name="01.HHN">
      <acc value="0.0342543068" flag="0"/>
      <vel value="0.0083894672" flag="0"/>
      <psa03 value="0.0355809361" flag="0"/>
      <psa10 value="0.0035034103" flag="0"/>
      <psa30 value="0.0004372439" flag="0"/>
    </comp>
    <comp name="01.HHZ">
      <acc value="0.0343494336" flag="0"/>
      <vel value="0.0047636976" flag="0"/>
      <psa03 value="0.0178667062" flag="0"/>
      <psa10 value="0.0023499724" flag="0"/>
      <psa30 value="0.0001371409" flag="0"/>
    </comp>
  </station>
  <station code="MSRU" name="MSRU" netid="IV" source="INGV" insttype="" lat="38.2639" lon="15.5083">
    <comp name="--.HHE">
      <acc value="0.0441610508" flag="0"/>
      <vel value="0.0120353911" flag="0"/>
      <psa03 value="0.0528005011" flag="0"/>
      <psa10 value="0.0066098875" flag="0"/>
      <psa30 value="0.0003782604" flag="0"/>
    </comp>
    <comp name="--.HHN">
      <acc value="0.0376222567" flag="0"/>
      <vel value="0.0120479681" flag="0"/>
      <psa03 value="0.0697266265" flag="0"/>
      <psa10 value="0.0031739064" flag="0"/>
      <psa30 value="0.0003062676" flag="0"/>
    </comp>
    <comp name="--.HHZ">
      <acc value="0.0255114055" flag="0"/>
      <vel value="0.0067014959" flag="0"/>
      <psa03 value="0.0502095659" flag="0"/>
      <psa10 value="0.0024640787" flag="0"/>
      <psa30 value="0.0001291430" flag="0"/>
    </comp>
  </station>
  <station code="NOV" name="NOV" netid="IV" source="INGV" insttype="" lat="38.0278" lon="15.1367">
    <comp name="01.HHE">
      <acc value="0.0346084079" flag="0"/>
      <vel value="0.0108356268" flag="0"/>
      <psa03 value="0.1013184232" flag="0"/>
      <psa10 value="0.0058200650" flag="0"/>
      <psa30 value="0.0002978503" flag="0"/>
    </comp>
    <comp name="01.HHN">
      <acc value="0.0319558644" flag="0"/>
      <vel value="0.0086102858" flag="0"/>
      <psa03 value="0.0749390588" flag="0"/>
      <psa10 value="0.0048208395" flag="0"/>
      <psa30 value="0.0002018777" flag="0"/>
    </comp>
    <comp name="01.HHZ">
      <acc value="0.0196607534" flag="0"/>
      <vel value="0.0045890301" flag="0"/>
      <psa03 value="0.0318720756" flag="0"/>
      <psa10 value="0.0022358444" flag="0"/>
      <psa30 value="0.0002591381" flag="0"/>
    </comp>
  </station>
  <station code="PIPA" name="PIPA" netid="IV" source="INGV" insttype="" lat="39.4851" lon="16.8158">
    <comp name="--.HHE">
      <acc value="0.0269254133" flag="0"/>
      <vel value="0.0123093455" flag="0"/>
      <psa03 value="0.0555054302" flag="0"/>
      <psa10 value="0.0045884881" flag="0"/>
      <psa30 value="0.0003897256" flag="0"/>
    </comp>
    <comp name="--.HHN">
      <acc value="0.0320911761" flag="0"/>
      <vel value="0.0138357023" flag="0"/>
      <psa03 value="0.0841760414" flag="0"/>
      <psa10 value="0.0073059062" flag="0"/>
      <psa30 value="0.0005345243" flag="0"/>
    </comp>
    <comp name="--.HHZ">
      <acc value="0.0173898794" flag="0"/>
      <vel value="0.0058118994" flag="0"/>
      <psa03 value="0.0231291376" flag="0"/>
      <psa10 value="0.0024724359" flag="0"/>
      <psa30 value="0.0003010489" flag="0"/>
    </comp>
  </station>
  <station code="PLAC" name="PLAC" netid="IV" source="INGV" insttype="" lat="38.4494" lon="16.4383">
    <comp name="--.HHE">
      <acc value="0.0227031531" flag="0"/>
      <vel value="0.0084887424" flag="0"/>
      <psa03 value="0.0582131699" flag="0"/>
      <psa10 value="0.0036461747" flag="0"/>
      <psa30 value="0.0004014711" flag="0"/>
    </comp>
    <comp name="--.HHN">
      <acc value="0.0130201624" flag="0"/>
      <vel value="0.0061035995" flag="0"/>
      <psa03 value="0.0407063677" flag="0"/>
      <psa10 value="0.0035763783" flag="0"/>
      <psa30 value="0.0002316000" flag="0"/>
    </comp>
    <comp name="--.HHZ">
      <acc value="0.0061359741" flag="0"/>
      <vel value="0.0025130586" flag="0"/>
      <psa03 value="0.0106891134" flag="0"/>
      <psa10 value="0.0015901754" flag="0"/>
      <psa30 value="0.0001149097" flag="0"/>
    </comp>
  </station>
  <station code="SERS" name="SERS" netid="IV" source="INGV" insttype="" lat="39.0359" lon="16.6886">
    <comp name="--.HHE">
      <acc value="0.0074727510" flag="0"/>
      <vel value="0.0038244597" flag="0"/>
      <psa03 value="0.0207193762" flag="0"/>
      <psa10 value="0.0024349581" flag="0"/>
      <psa30 value="0.0001477198" flag="0"/>
    </comp>
    <comp name="--.HHN">
      <acc value="0.0060721916" flag="0"/>
      <vel value="0.0029866630" flag="0"/>
      <psa03 value="0.0137255376" flag="0"/>
      <psa10 value="0.0022106633" flag="0"/>
      <psa30 value="0.0001409266" flag="0"/>
    </comp>
    <comp name="--.HHZ">
      <acc value="0.0085616399" flag="0"/>
      <vel value="0.0013844425" flag="0"/>
      <psa03 value="0.0104461291" flag="0"/>
      <psa10 value="0.0015489457" flag="0"/>
      <psa30 value="0.0000841253" flag="0"/>
    </comp>
  </station>
  <station code="SIRI" name="SIRI" netid="IV" source="INGV" insttype="" lat="40.1821" lon="15.8675">
    <comp name="--.HHE">
      <acc value="0.0185478280" flag="0"/>
      <vel value="0.0071361764" flag="0"/>
      <psa03 value="0.0522015967" flag="0"/>
      <psa10 value="0.0030130502" flag="0"/>
      <psa30 value="0.0002098469" flag="0"/>
    </comp>
    <comp name="--.HHN">
      <acc value="0.0352634418" flag="0"/>
      <vel value="0.0100126910" flag="0"/>
      <psa03 value="0.0390154535" flag="0"/>
      <psa10 value="0.0019157036" flag="0"/>
      <psa30 value="0.0001858111" flag="0"/>
    </comp>
    <comp name="--.HHZ">
      <acc value="0.0149114093" flag="0"/>
      <vel value="0.0031577315" flag="0"/>
      <psa03 value="0.0145237324" flag="0"/>
      <psa10 value="0.0009569198" flag="0"/>
      <psa30 value="0.0000677864" flag="0"/>
    </comp>
  </station>
  <station code="CEL" name="CEL" netid="MN" source="INGV" insttype="" lat="38.2603" lon="15.8939">
    <comp name="--.HHE">
      <acc value="0.0141516700" flag="0"/>
      <vel value="0.0034847467" flag="0"/>
      <psa03 value="0.0243914113" flag="0"/>
      <psa10 value="0.0016688466" flag="0"/>
      <psa30 value="0.0001351584" flag="0"/>
    </comp>
    <comp name="--.HHN">
      <acc value="0.0148260148" flag="0"/>
      <vel value="0.0043166666" flag="0"/>
      <psa03 value="0.0189044186" flag="0"/>
      <psa10 value="0.0015866793" flag="0"/>
      <psa30 value="0.0001586172" flag="0"/>
    </comp>
    <comp name="--.HHZ">
      <acc value="0.0111319218" flag="0"/>
      <vel value="0.0028119912" flag="0"/>
      <psa03 value="0.0110758538" flag="0"/>
      <psa10 value="0.0013435028" flag="0"/>
      <psa30 value="0.0000625350" flag="0"/>
    </comp>
  </station>
  <station code="CUC" name="CUC" netid="MN" source="INGV" insttype="" lat="39.9938" lon="15.8155">
    <comp name="--.HHE">
      <acc value="0.0339782707" flag="0"/>
      <vel value="0.0058252504" flag="0"/>
      <psa03 value="0.0237673362" flag="0"/>
      <psa10 value="0.0021468514" flag="0"/>
      <psa30 value="0.0001014378" flag="0"/>
    </comp>
    <comp name="--.HHN">
      <acc value="0.0361895773" flag="0"/>
      <vel value="0.0062240503" flag="0"/>
      <psa03 value="0.0213263714" flag="0"/>
      <psa10 value="0.0014843497" flag="0"/>
      <psa30 value="0.0001013222" flag="0"/>
    </comp>
    <comp name="--.HHZ">
      <acc value="0.0259017465" flag="0"/>
      <vel value="0.0039571207" flag="0"/>
      <psa03 value="0.0134301121" flag="0"/>
      <psa10 value="0.0007087188" flag="0"/>
      <psa30 value="0.0000694341" flag="0"/>
    </comp>
  </station>
  <station code="TIP" name="TIP" netid="MN" source="INGV" insttype="" lat="39.1794" lon="16.7583">
    <comp name="--.HHE">
      <acc value="0.0032828038" flag="0"/>
      <vel value="0.0011419854" flag="0"/>
      <psa03 value="0.0054044451" flag="0"/>
      <psa10 value="0.0012570794" flag="0"/>
