<stationlist created="1778138527">
	<station code="LMS2" name="LMS2" netid="HI" source="ITSAK Strong Motion Network" insttype="" lat="40.834985" lon="21.141815">
		<comp name="--.HNE" depth="0.0">
			<acc value="0.0575040391850495" flag="0"/>
			<vel value="0.015991729423762" flag="0"/>
			<psa03 value="0.0902793555641715" flag="0"/>
			<psa10 value="0.00617557441400892" flag="0"/>
			<psa30 value="0.000743562278183117" flag="0"/>
		</comp>
		<comp name="--.HNN" depth="0.0">
			<acc value="0.0820158784001629" flag="0"/>
			<vel value="0.0334286205270254" flag="0"/>
			<psa03 value="0.0998023093297138" flag="0"/>
			<psa10 value="0.00814835791372315" flag="0"/>
			<psa30 value="0.00134376005917708" flag="0"/>
		</comp>
		<comp name="--.HNZ" depth="0.0">
			<acc value="0.0158605015589965" flag="0"/>
			<vel value="0.00753536567319358" flag="0"/>
			<psa03 value="0.0396106526571663" flag="0"/>
			<psa10 value="0.00591258871124512" flag="0"/>
			<psa30 value="0.000567961114220611" flag="0"/>
		</comp>
	</station>
	<station code="AMYA" name="AMYA" netid="HL" source="National Observatory of Athens Seismic Network" insttype="" lat="40.6901" lon="21.67899">
		<comp name="00.HNE" depth="0.0">
			<acc value="0.0209747720845186" flag="0"/>
			<vel value="0.0198362243360268" flag="0"/>
			<psa03 value="0.056816472145724" flag="0"/>
			<psa10 value="0.0426376657862139" flag="0"/>
			<psa30 value="0.00399262782533149" flag="0"/>
		</comp>
		<comp name="00.HNN" depth="0.0">
			<acc value="0.0161894429233687" flag="0"/>
			<vel value="0.0219968201588319" flag="0"/>
			<psa03 value="0.0525237242305593" flag="0"/>
			<psa10 value="0.0299273837923123" flag="0"/>
			<psa30 value="0.00373826097477524" flag="0"/>
		</comp>
		<comp name="00.HNZ" depth="0.0">
			<acc value="0.0103940308622768" flag="0"/>
			<vel value="0.00991836374346475" flag="0"/>
			<psa03 value="0.0334858536901486" flag="0"/>
			<psa10 value="0.0182765394810636" flag="0"/>
			<psa30 value="0.00205188176043173" flag="0"/>
		</comp>
	</station>
	<station code="JAN" name="JAN" netid="HL" source="National Observatory of Athens Seismic Network" insttype="" lat="39.65616" lon="20.84874">
		<comp name="00.HNE" depth="0.0">
			<acc value="0.00538201257429917" flag="0"/>
			<vel value="0.0077055232573934" flag="0"/>
			<psa03 value="0.0183988985242157" flag="0"/>
			<psa10 value="0.00773613951252963" flag="0"/>
			<psa30 value="0.00125842815635618" flag="0"/>
		</comp>
		<comp name="00.HNN" depth="0.0">
			<acc value="0.00380148850392837" flag="0"/>
			<vel value="0.00303460042480864" flag="0"/>
			<psa03 value="0.0175086624671453" flag="0"/>
			<psa10 value="0.00525954904431774" flag="0"/>
			<psa30 value="0.00092931427084107" flag="0"/>
		</comp>
		<comp name="00.HNZ" depth="0.0">
			<acc value="0.0026228690736072" flag="0"/>
			<vel value="0.00275163331461414" flag="0"/>
			<psa03 value="0.00829580997338422" flag="0"/>
			<psa10 value="0.00423521181198964" flag="0"/>
			<psa30 value="0.000836407907920534" flag="0"/>
		</comp>
	</station>
</stationlist>
