<?xml version="1.0" encoding="UTF-8" standalone="yes"?>
<!DOCTYPE earthquake SYSTEM "stationlist.dtd">
<stationlist created="" xmlns="ch.ethz.sed.shakemap.usgs.xml">
  <station code="BCI" name="BCI" netid="AC" insttype="" lat="42.3666" lon="20.0675">
    <comp name="--.HHE">
      <acc value="0.0691616298" flag="0"/>
      <vel value="0.0371131389" flag="0"/>
      <psa03 value="0.1959405457" flag="0"/>
      <psa10 value="0.0736851826" flag="0"/>
      <psa30 value="0.0037875135" flag="0"/>
    </comp>
    <comp name="--.HHN">
      <acc value="0.0945761949" flag="0"/>
      <vel value="0.0398230389" flag="0"/>
      <psa03 value="0.2230797136" flag="0"/>
      <psa10 value="0.0785049914" flag="0"/>
      <psa30 value="0.0045698894" flag="0"/>
    </comp>
    <comp name="--.HHZ">
      <acc value="0.0743957084" flag="0"/>
      <vel value="0.0388887188" flag="0"/>
      <psa03 value="0.1896198358" flag="0"/>
      <psa10 value="0.0429603842" flag="0"/>
      <psa30 value="0.0027898988" flag="0"/>
    </comp>
  </station>
  <station code="KBN" name="KBN" netid="AC" insttype="" lat="40.6236" lon="20.7874">
    <comp name="--.HHE">
      <acc value="0.0169808437" flag="0"/>
      <vel value="0.0125921137" flag="0"/>
      <psa03 value="0.0485900904" flag="0"/>
      <psa10 value="0.0126392935" flag="0"/>
      <psa30 value="0.0029472322" flag="0"/>
    </comp>
    <comp name="--.HHN">
      <acc value="0.0229305248" flag="0"/>
      <vel value="0.0225817123" flag="0"/>
      <psa03 value="0.0605456319" flag="0"/>
      <psa10 value="0.0170111916" flag="0"/>
      <psa30 value="0.0026479414" flag="0"/>
    </comp>
    <comp name="--.HHZ">
      <acc value="0.0084161871" flag="0"/>
      <vel value="0.0072795500" flag="0"/>
      <psa03 value="0.0194065088" flag="0"/>
      <psa10 value="0.0076298971" flag="0"/>
      <psa30 value="0.0021603253" flag="0"/>
    </comp>
  </station>
  <station code="PHP" name="PHP" netid="AC" insttype="" lat="41.6847" lon="20.4408">
    <comp name="--.HHN">
      <acc value="0.9844988892" flag="0"/>
      <vel value="0.2744137473" flag="0"/>
      <psa03 value="1.4006126425" flag="0"/>
      <psa10 value="0.1487752379" flag="0"/>
      <psa30 value="0.0109201049" flag="0"/>
    </comp>
    <comp name="--.HHE">
      <acc value="0.8755190964" flag="0"/>
      <vel value="0.2102207726" flag="0"/>
      <psa03 value="0.7515571324" flag="0"/>
      <psa10 value="0.1254900074" flag="0"/>
      <psa30 value="0.0122821952" flag="0"/>
    </comp>
    <comp name="--.HHZ">
      <acc value="0.5725156014" flag="0"/>
      <vel value="0.1331264734" flag="0"/>
      <psa03 value="0.4608402639" flag="0"/>
      <psa10 value="0.0880404604" flag="0"/>
      <psa30 value="0.0079186813" flag="0"/>
    </comp>
  </station>
  <station code="PUK" name="PUK" netid="AC" insttype="" lat="42.0426" lon="19.8926">
    <comp name="--.HHE">
      <acc value="0.0511875506" flag="0"/>
      <vel value="0.0270767605" flag="0"/>
      <psa03 value="0.1335444575" flag="0"/>
      <psa10 value="0.0179630304" flag="0"/>
      <psa30 value="0.0012798418" flag="0"/>
    </comp>
    <comp name="--.HHN">
      <acc value="0.0518290933" flag="0"/>
      <vel value="0.0243485080" flag="0"/>
      <psa03 value="0.0977077893" flag="0"/>
      <psa10 value="0.0131724021" flag="0"/>
      <psa30 value="0.0019750564" flag="0"/>
    </comp>
    <comp name="--.HHZ">
      <acc value="0.0209101521" flag="0"/>
      <vel value="0.0082866366" flag="0"/>
      <psa03 value="0.0460329002" flag="0"/>
      <psa10 value="0.0068491190" flag="0"/>
      <psa30 value="0.0005348393" flag="0"/>
    </comp>
  </station>
  <station code="LMS2" name="LMS2" netid="HI" insttype="CMG-5TD,ACCELEROMETER,GURALP" lat="40.835" lon="21.1418">
    <comp name="--.HNE">
      <acc value="0.0571935479" flag="0"/>
      <vel value="0.0158538863" flag="0"/>
      <psa03 value="0.0889795269" flag="0"/>
      <psa10 value="0.0061657122" flag="0"/>
      <psa30 value="0.0006695866" flag="0"/>
    </comp>
    <comp name="--.HNZ">
      <acc value="0.0176781094" flag="0"/>
      <vel value="0.0075994165" flag="0"/>
      <psa03 value="0.0397300615" flag="0"/>
      <psa10 value="0.0059222559" flag="0"/>
      <psa30 value="0.0004978229" flag="0"/>
    </comp>
    <comp name="--.HNN">
      <acc value="0.0833386886" flag="0"/>
      <vel value="0.0331053448" flag="0"/>
      <psa03 value="0.0985354625" flag="0"/>
      <psa10 value="0.0081373452" flag="0"/>
      <psa30 value="0.0012353363" flag="0"/>
    </comp>
  </station>
  <station code="PDG" name="PDG" netid="MN" insttype="" lat="42.4297" lon="19.2608">
    <comp name="--.HHE">
      <acc value="0.0288413743" flag="0"/>
      <vel value="0.0143695677" flag="0"/>
      <psa03 value="0.0812766355" flag="0"/>
      <psa10 value="0.0104255072" flag="0"/>
      <psa30 value="0.0011566922" flag="0"/>
    </comp>
    <comp name="--.HHN">
      <acc value="0.0325703271" flag="0"/>
      <vel value="0.0172913749" flag="0"/>
      <psa03 value="0.0807219173" flag="0"/>
      <psa10 value="0.0143621669" flag="0"/>
      <psa30 value="0.0012936538" flag="0"/>
    </comp>
    <comp name="--.HHZ">
      <acc value="0.0172586706" flag="0"/>
      <vel value="0.0141203719" flag="0"/>
      <psa03 value="0.0481918332" flag="0"/>
      <psa10 value="0.0088247348" flag="0"/>
      <psa30 value="0.0012814181" flag="0"/>
    </comp>
  </station>
  <station code="TIR" name="TIR" netid="MN" insttype="" lat="41.3472" lon="19.8631">
    <comp name="--.HHE">
      <acc value="0.1001731192" flag="0"/>
      <vel value="0.0592569508" flag="0"/>
      <psa03 value="0.2266352908" flag="0"/>
      <psa10 value="0.0640375700" flag="0"/>
      <psa30 value="0.0071694364" flag="0"/>
    </comp>
    <comp name="--.HHN">
      <acc value="0.1381788351" flag="0"/>
      <vel value="0.0534231725" flag="0"/>
      <psa03 value="0.1789791422" flag="0"/>
      <psa10 value="0.0384444434" flag="0"/>
      <psa30 value="0.0089168139" flag="0"/>
    </comp>
    <comp name="--.HHZ">
      <acc value="0.0814923335" flag="0"/>
      <vel value="0.0394239302" flag="0"/>
      <psa03 value="0.1101045273" flag="0"/>
      <psa10 value="0.0581522822" flag="0"/>
      <psa30 value="0.0066416389" flag="0"/>
    </comp>
  </station>
</stationlist>
