<?xml version="1.0" encoding="UTF-8" standalone="yes"?>
<!DOCTYPE earthquake SYSTEM "stationlist.dtd">
<stationlist created="" xmlns="ch.ethz.sed.shakemap.usgs.xml">
  <station code="AKS" name="AKS" netid="KO" insttype="CMG-5T" commtype="DIG" lat="38.8785" lon="27.8129">
    <comp name="--.HNN">
      <acc value="0.0459587335" flag="0"/>
      <vel value="0.0130909540" flag="0"/>
      <psa03 value="0.0807235069" flag="0"/>
      <psa10 value="0.0082320143" flag="0"/>
      <psa30 value="0.0007879331" flag="0"/>
    </comp>
    <comp name="--.HNE">
      <acc value="0.0492210386" flag="0"/>
      <vel value="0.0150177002" flag="0"/>
      <psa03 value="0.0789528566" flag="0"/>
      <psa10 value="0.0162668423" flag="0"/>
      <psa30 value="0.0006773379" flag="0"/>
    </comp>
    <comp name="--.HNZ">
      <acc value="0.0408049600" flag="0"/>
      <vel value="0.0079273142" flag="0"/>
      <psa03 value="0.0204792001" flag="0"/>
      <psa10 value="0.0062373394" flag="0"/>
      <psa30 value="0.0004117270" flag="0"/>
    </comp>
  </station>
  <station code="BALB" name="BALB" netid="KO" insttype="CMG-5T" commtype="DIG" lat="39.6507" lon="27.8642">
    <comp name="--.HNN">
      <acc value="0.0273257986" flag="0"/>
      <vel value="0.0134191814" flag="0"/>
      <psa03 value="0.0466456075" flag="0"/>
      <psa10 value="0.0178152441" flag="0"/>
      <psa30 value="0.0010833863" flag="0"/>
    </comp>
    <comp name="--.HNE">
      <acc value="0.0262365830" flag="0"/>
      <vel value="0.0156083674" flag="0"/>
      <psa03 value="0.0628182782" flag="0"/>
      <psa10 value="0.0134593908" flag="0"/>
      <psa30 value="0.0010073611" flag="0"/>
    </comp>
    <comp name="--.HNZ">
      <acc value="0.0185055398" flag="0"/>
      <vel value="0.0092234219" flag="0"/>
      <psa03 value="0.0557212818" flag="0"/>
      <psa10 value="0.0066823055" flag="0"/>
      <psa30 value="0.0006227387" flag="0"/>
    </comp>
  </station>
  <station code="DKL" name="DKL" netid="KO" insttype="CMG-3ESPC" commtype="DIG" lat="39.0713" lon="26.9053">
    <comp name="--.HHZ">
      <acc value="0.0042789582" flag="0"/>
      <vel value="0.0018195189" flag="0"/>
      <psa03 value="0.0079042692" flag="0"/>
      <psa10 value="0.0019378814" flag="0"/>
      <psa30 value="0.0001822858" flag="0"/>
    </comp>
  </station>
  <station code="DST" name="DST" netid="KO" insttype="CMG-5T" commtype="DIG" lat="39.6041" lon="28.6267">
    <comp name="--.HNE">
      <acc value="0.0206645814" flag="0"/>
      <vel value="0.0078709679" flag="0"/>
      <psa03 value="0.0425305789" flag="0"/>
      <psa10 value="0.0051624173" flag="0"/>
      <psa30 value="0.0005257701" flag="0"/>
    </comp>
    <comp name="--.HNN">
      <acc value="0.0197716022" flag="0"/>
      <vel value="0.0079462727" flag="0"/>
      <psa03 value="0.0335660604" flag="0"/>
      <psa10 value="0.0065657066" flag="0"/>
      <psa30 value="0.0006245871" flag="0"/>
    </comp>
    <comp name="--.HNZ">
      <acc value="0.0195335326" flag="0"/>
      <vel value="0.0079871805" flag="0"/>
      <psa03 value="0.0528558548" flag="0"/>
      <psa10 value="0.0045139560" flag="0"/>
      <psa30 value="0.0004242747" flag="0"/>
    </comp>
  </station>
  <station code="GEDZ" name="GEDZ" netid="KO" insttype="CMG-6T" commtype="DIG" lat="39.0445" lon="29.4105">
    <comp name="--.HHN">
      <acc value="0.0548410649" flag="0"/>
      <vel value="0.0279990711" flag="0"/>
      <psa03 value="0.1508915802" flag="0"/>
      <psa10 value="0.0294532521" flag="0"/>
      <psa30 value="0.0014588055" flag="0"/>
    </comp>
    <comp name="--.HHZ">
      <acc value="0.0229676928" flag="0"/>
      <vel value="0.0118360661" flag="0"/>
      <psa03 value="0.0485415606" flag="0"/>
      <psa10 value="0.0102456786" flag="0"/>
      <psa30 value="0.0005378193" flag="0"/>
    </comp>
    <comp name="--.HHE">
      <acc value="0.0578934525" flag="0"/>
      <vel value="0.0294596344" flag="0"/>
      <psa03 value="0.1230225323" flag="0"/>
      <psa10 value="0.0315859606" flag="0"/>
      <psa30 value="0.0012854219" flag="0"/>
    </comp>
  </station>
  <station code="GONE" name="GONE" netid="KO" insttype="CMG-5T" commtype="DIG" lat="40.0466" lon="27.686">
    <comp name="--.HNZ">
      <acc value="0.0100621742" flag="0"/>
      <vel value="0.0029391432" flag="0"/>
      <psa03 value="0.0243704187" flag="0"/>
      <psa10 value="0.0026731583" flag="0"/>
      <psa30 value="0.0002305021" flag="0"/>
    </comp>
    <comp name="--.HNN">
      <acc value="0.0227866610" flag="0"/>
      <vel value="0.0080079034" flag="0"/>
      <psa03 value="0.0738449539" flag="0"/>
      <psa10 value="0.0082222567" flag="0"/>
      <psa30 value="0.0006036118" flag="0"/>
    </comp>
    <comp name="--.HNE">
      <acc value="0.0143003571" flag="0"/>
      <vel value="0.0078433032" flag="0"/>
      <psa03 value="0.0446611365" flag="0"/>
      <psa10 value="0.0100137067" flag="0"/>
      <psa30 value="0.0006141733" flag="0"/>
    </comp>
  </station>
  <station code="GORD" name="GORD" netid="KO" insttype="CMG-5T" commtype="DIG" lat="38.9088" lon="28.1769">
    <comp name="--.HNZ">
      <acc value="0.0501423851" flag="0"/>
      <vel value="0.0187015521" flag="0"/>
      <psa03 value="0.0661321717" flag="0"/>
      <psa10 value="0.0243933531" flag="0"/>
      <psa30 value="0.0014411048" flag="0"/>
    </comp>
    <comp name="--.HNN">
      <acc value="0.0845178002" flag="0"/>
      <vel value="0.0569731454" flag="0"/>
      <psa03 value="0.1237981682" flag="0"/>
      <psa10 value="0.0469587961" flag="0"/>
      <psa30 value="0.0025813828" flag="0"/>
    </comp>
    <comp name="--.HNE">
      <acc value="0.0687268065" flag="0"/>
      <vel value="0.0380464271" flag="0"/>
      <psa03 value="0.1024232767" flag="0"/>
      <psa10 value="0.0344501079" flag="0"/>
      <psa30 value="0.0021241340" flag="0"/>
    </comp>
  </station>
  <station code="KCTX" name="KCTX" netid="KO" insttype="CMG-3ESP" commtype="DIG" lat="40.2626" lon="28.3353">
    <comp name="--.HHE">
      <acc value="0.0088315548" flag="0"/>
      <vel value="0.0053898589" flag="0"/>
      <psa03 value="0.0177367653" flag="0"/>
      <psa10 value="0.0072469967" flag="0"/>
      <psa30 value="0.0006813164" flag="0"/>
    </comp>
    <comp name="--.HHZ">
      <acc value="0.0082702455" flag="0"/>
      <vel value="0.0040426617" flag="0"/>
      <psa03 value="0.0159061210" flag="0"/>
      <psa10 value="0.0041249728" flag="0"/>
      <psa30 value="0.0002081834" flag="0"/>
    </comp>
  </station>
  <station code="ORLT" name="ORLT" netid="KO" insttype="CMG-5T" commtype="DIG" lat="40.0452" lon="28.8914">
    <comp name="--.HNE">
      <acc value="0.0287333418" flag="0"/>
      <vel value="0.0147827341" flag="0"/>
      <psa03 value="0.0783318348" flag="0"/>
      <psa10 value="0.0114822445" flag="0"/>
      <psa30 value="0.0007525284" flag="0"/>
    </comp>
    <comp name="--.HNN">
      <acc value="0.0327842278" flag="0"/>
      <vel value="0.0177780463" flag="0"/>
      <psa03 value="0.0757528556" flag="0"/>
      <psa10 value="0.0162435848" flag="0"/>
      <psa30 value="0.0008481818" flag="0"/>
    </comp>
    <comp name="--.HNZ">
      <acc value="0.0115605449" flag="0"/>
      <vel value="0.0061833942" flag="0"/>
      <psa03 value="0.0279083295" flag="0"/>
      <psa10 value="0.0092301409" flag="0"/>
      <psa30 value="0.0006083653" flag="0"/>
    </comp>
  </station>
  <station code="SIMA" name="SIMA" netid="KO" insttype="CMG-6T" commtype="DIG" lat="39.0833" lon="28.9825">
    <comp name="--.HHZ">
      <acc value="0.0273429398" flag="0"/>
      <vel value="0.0059881917" flag="0"/>
      <psa03 value="0.0445090639" flag="0"/>
      <psa10 value="0.0039552953" flag="0"/>
      <psa30 value="0.0002670153" flag="0"/>
    </comp>
    <comp name="--.HHN">
      <acc value="0.0326433081" flag="0"/>
      <vel value="0.0157179297" flag="0"/>
      <psa03 value="0.1519950344" flag="0"/>
      <psa10 value="0.0074811951" flag="0"/>
      <psa30 value="0.0007488798" flag="0"/>
    </comp>
    <comp name="--.HHE">
      <acc value="0.0377735294" flag="0"/>
      <vel value="0.0106222343" flag="0"/>
      <psa03 value="0.0732345532" flag="0"/>
      <psa10 value="0.0039148377" flag="0"/>
      <psa30 value="0.0003407664" flag="0"/>
    </comp>
  </station>
  <station code="SMAA" name="SMAA" netid="KO" insttype="CMG-5T" commtype="DIG" lat="39.1005" lon="28.9805">
    <comp name="--.HNE">
      <acc value="0.0337631707" flag="0"/>
      <vel value="0.0175811777" flag="0"/>
      <psa03 value="0.1285816291" flag="0"/>
      <psa10 value="0.0285000553" flag="0"/>
      <psa30 value="0.0019179167" flag="0"/>
    </comp>
    <comp name="--.HNN">
      <acc value="0.0358763491" flag="0"/>
      <vel value="0.0207299137" flag="0"/>
      <psa03 value="0.1281127414" flag="0"/>
      <psa10 value="0.0305240878" flag="0"/>
      <psa30 value="0.0019426951" flag="0"/>
    </comp>
    <comp name="--.HNZ">
      <acc value="0.0239283770" flag="0"/>
      <vel value="0.0096083166" flag="0"/>
      <psa03 value="0.0331683937" flag="0"/>
      <psa10 value="0.0237172480" flag="0"/>
      <psa30 value="0.0008171811" flag="0"/>
    </comp>
  </station>
  <station code="SOMA" name="SOMA" netid="KO" insttype="CMG-5T" commtype="DIG" lat="39.1564" lon="27.5341">
    <comp name="--.HNE">
      <acc value="0.0343003385" flag="0"/>
      <vel value="0.0113599713" flag="0"/>
      <psa03 value="0.0630243190" flag="0"/>
      <psa10 value="0.0180551460" flag="0"/>
      <psa30 value="0.0007818533" flag="0"/>
    </comp>
    <comp name="--.HNN">
      <acc value="0.0392587136" flag="0"/>
      <vel value="0.0163869081" flag="0"/>
      <psa03 value="0.0575483566" flag="0"/>
      <psa10 value="0.0152653273" flag="0"/>
      <psa30 value="0.0010141213" flag="0"/>
    </comp>
    <comp name="--.HNZ">
      <acc value="0.0341461970" flag="0"/>
      <vel value="0.0101068325" flag="0"/>
      <psa03 value="0.0444897082" flag="0"/>
      <psa10 value="0.0148886539" flag="0"/>
      <psa30 value="0.0006945740" flag="0"/>
    </comp>
  </station>
  <station code="SUSR" name="SUSR" netid="KO" insttype="CMG-5T" commtype="DIG" lat="39.9627" lon="28.0835">
    <comp name="--.HNE">
      <acc value="0.0140235183" flag="0"/>
      <vel value="0.0076724326" flag="0"/>
      <psa03 value="0.0374446499" flag="0"/>
      <psa10 value="0.0039293372" flag="0"/>
      <psa30 value="0.0003449371" flag="0"/>
    </comp>
    <comp name="--.HNN">
      <acc value="0.0170369809" flag="0"/>
      <vel value="0.0066899387" flag="0"/>
      <psa03 value="0.0480292159" flag="0"/>
      <psa10 value="0.0030195109" flag="0"/>
      <psa30 value="0.0002893821" flag="0"/>
    </comp>
    <comp name="--.HNZ">
      <acc value="0.0132085977" flag="0"/>
      <vel value="0.0041153048" flag="0"/>
      <psa03 value="0.0219743508" flag="0"/>
      <psa10 value="0.0022575657" flag="0"/>
      <psa30 value="0.0002185700" flag="0"/>
    </comp>
  </station>
  <station code="TVSB" name="TVSB" netid="KO" insttype="CMG-3T" commtype="DIG" lat="39.4497" lon="29.4615">
    <comp name="--.HHE">
      <acc value="0.0392084171" flag="0"/>
      <vel value="0.0244936579" flag="0"/>
      <psa03 value="0.1254783169" flag="0"/>
      <psa10 value="0.0122315025" flag="0"/>
      <psa30 value="0.0009658014" flag="0"/>
    </comp>
    <comp name="--.HHN">
      <acc value="0.0256938183" flag="0"/>
      <vel value="0.0171403098" flag="0"/>
      <psa03 value="0.1026795329" flag="0"/>
      <psa10 value="0.0102814896" flag="0"/>
      <psa30 value="0.0007550913" flag="0"/>
    </comp>
    <comp name="--.HHZ">
      <acc value="0.0104513260" flag="0"/>
      <vel value="0.0061874480" flag="0"/>
      <psa03 value="0.0357072718" flag="0"/>
      <psa10 value="0.0034536539" flag="0"/>
      <psa30 value="0.0002244646" flag="0"/>
    </comp>
  </station>
  <station code="YAYO" name="YAYO" netid="KO" insttype="CMG-6T" commtype="DIG" lat="39.6113" lon="27.0726">
    <comp name="--.HHE">
      <acc value="0.0302845997" flag="0"/>
      <vel value="0.0197385917" flag="0"/>
      <psa03 value="0.0601485674" flag="0"/>
      <psa10 value="0.0108078239" flag="0"/>
      <psa30 value="0.0009237327" flag="0"/>
    </comp>
    <comp name="--.HHN">
      <acc value="0.0171158995" flag="0"/>
      <vel value="0.0090086793" flag="0"/>
      <psa03 value="0.0776358635" flag="0"/>
      <psa10 value="0.0065025530" flag="0"/>
      <psa30 value="0.0004877166" flag="0"/>
    </comp>
    <comp name="--.HHZ">
      <acc value="0.0127520528" flag="0"/>
      <vel value="0.0055106011" flag="0"/>
      <psa03 value="0.0344978442" flag="0"/>
      <psa10 value="0.0046578064" flag="0"/>
      <psa30 value="0.0003121845" flag="0"/>
    </comp>
  </station>
  <station code="YENI" name="YENI" netid="KO" insttype="CMG-5T" commtype="DIG" lat="39.9364" lon="27.2422">
    <comp name="--.HNN">
      <acc value="0.0219069755" flag="0"/>
      <vel value="0.0062166896" flag="0"/>
      <psa03 value="0.0270326690" flag="0"/>
      <psa10 value="0.0049399982" flag="0"/>
      <psa30 value="0.0004276104" flag="0"/>
    </comp>
    <comp name="--.HNZ">
      <acc value="0.0102890891" flag="0"/>
      <vel value="0.0025125187" flag="0"/>
      <psa03 value="0.0113306513" flag="0"/>
      <psa10 value="0.0016776946" flag="0"/>
      <psa30 value="0.0003922162" flag="0"/>
    </comp>
    <comp name="--.HNE">
      <acc value="0.0167354610" flag="0"/>
      <vel value="0.0082047115" flag="0"/>
      <psa03 value="0.0479114150" flag="0"/>
      <psa10 value="0.0056878713" flag="0"/>
      <psa30 value="0.0004219670" flag="0"/>
    </comp>
  </station>
</stationlist>
