<stationlist created="1711798276">
	<station code="ARPRA" name="ARPRA" netid="KO" source="Bogazici University Kandilli Observatory And Earthquake Research Institute (KOERI)" insttype="" lat="39.0929" lon="38.3356">
		<comp name=".HNE" depth="0.0">
			<acc value="0.065649239700936" flag="0"/>
			<vel value="0.0463258053478" flag="0"/>
			<psa03 value="0.129024870181179" flag="0"/>
			<psa10 value="0.063332230449541" flag="0"/>
			<psa30 value="0.0052147904542667" flag="0"/>
		</comp>
		<comp name=".HNN" depth="0.0">
			<acc value="0.04251360828138" flag="0"/>
			<vel value="0.0349751977854" flag="0"/>
			<psa03 value="0.138746264175703" flag="0"/>
			<psa10 value="0.0508397178817437" flag="0"/>
			<psa30 value="0.00666601492410164" flag="0"/>
		</comp>
		<comp name=".HNZ" depth="0.0">
			<acc value="0.043219267007388" flag="0"/>
			<vel value="0.0252088280073" flag="0"/>
			<psa03 value="0.0754362837418025" flag="0"/>
			<psa10 value="0.0460600562524846" flag="0"/>
			<psa30 value="0.00458385282443604" flag="0"/>
		</comp>
	</station>
	<station code="TUNC" name="TUNC" netid="KO" source="Bogazici University Kandilli Observatory And Earthquake Research Institute (KOERI)" insttype="" lat="39.6942" lon="37.5388">
		<comp name=".HNE" depth="0.0">
			<acc value="0.0078019485977394" flag="0"/>
			<vel value="0.00828097529796" flag="0"/>
			<psa03 value="0.0175931967129311" flag="0"/>
			<psa10 value="0.0126230980932888" flag="0"/>
			<psa30 value="0.00247288444145728" flag="0"/>
		</comp>
		<comp name=".HNN" depth="0.0">
			<acc value="0.0076637568401538" flag="0"/>
			<vel value="0.0113691899984" flag="0"/>
			<psa03 value="0.0173411630898603" flag="0"/>
			<psa10 value="0.0134188445576078" flag="0"/>
			<psa30 value="0.00340724550496031" flag="0"/>
		</comp>
		<comp name=".HNZ" depth="0.0">
			<acc value="0.006704147463381" flag="0"/>
			<vel value="0.00818138329717" flag="0"/>
			<psa03 value="0.0109261652110857" flag="0"/>
			<psa10 value="0.00995631611959329" flag="0"/>
			<psa30 value="0.00316557407874658" flag="0"/>
		</comp>
	</station>
</stationlist>
