<?xml version="1.0" encoding="UTF-8" standalone="yes"?>
<!DOCTYPE earthquake SYSTEM "stationlist.dtd">
<stationlist created="" xmlns="ch.ethz.sed.shakemap.usgs.xml">
  <station code="DYBB" name="DYBB" netid="KO" insttype="CMG-3T" lat="37.9532" lon="40.1393">
    <comp name="--.HHN">
      <acc value="0.0304446073" flag="0"/>
      <vel value="0.0299476403" flag="0"/>
      <psa03 value="0.1338603435" flag="0"/>
      <psa10 value="0.0435911188" flag="0"/>
      <psa30 value="0.0070195336" flag="0"/>
    </comp>
    <comp name="--.HHE">
      <acc value="0.0343780823" flag="0"/>
      <vel value="0.0287004770" flag="0"/>
      <psa03 value="0.1310998788" flag="0"/>
      <psa10 value="0.0383792262" flag="0"/>
      <psa30 value="0.0067522392" flag="0"/>
    </comp>
    <comp name="--.HHZ">
      <acc value="0.0287979266" flag="0"/>
      <vel value="0.0252970895" flag="0"/>
      <psa03 value="0.0563052461" flag="0"/>
      <psa10 value="0.0398484609" flag="0"/>
      <psa30 value="0.0053154494" flag="0"/>
    </comp>
  </station>
  <station code="MAZI" name="MAZI" netid="KO" insttype="CMG-3T" lat="37.4593" lon="40.4465">
    <comp name="--.HHE">
      <acc value="0.1314261342" flag="0"/>
      <vel value="0.0596515075" flag="0"/>
      <psa03 value="0.3132493927" flag="0"/>
      <psa10 value="0.0615691352" flag="0"/>
      <psa30 value="0.0040342428" flag="0"/>
    </comp>
    <comp name="--.HHN">
      <acc value="0.1373721272" flag="0"/>
      <vel value="0.0757676112" flag="0"/>
      <psa03 value="0.2708348546" flag="0"/>
      <psa10 value="0.0421913821" flag="0"/>
      <psa30 value="0.0071088772" flag="0"/>
    </comp>
    <comp name="--.HHZ">
      <acc value="0.1011328549" flag="0"/>
      <vel value="0.0371683435" flag="0"/>
      <psa03 value="0.1968729708" flag="0"/>
      <psa10 value="0.0319714979" flag="0"/>
      <psa30 value="0.0015034438" flag="0"/>
    </comp>
  </station>
  <station code="URFA" name="URFA" netid="KO" insttype="CMG-3ESP" lat="37.4409" lon="38.8213">
    <comp name="--.HHN">
      <acc value="0.0468140292" flag="0"/>
      <vel value="0.0195228959" flag="0"/>
      <psa03 value="0.0598736348" flag="0"/>
      <psa10 value="0.0158669958" flag="0"/>
      <psa30 value="0.0023709449" flag="0"/>
    </comp>
    <comp name="--.HHZ">
      <acc value="0.0306856876" flag="0"/>
      <vel value="0.0176157715" flag="0"/>
      <psa03 value="0.0667202454" flag="0"/>
      <psa10 value="0.0193655138" flag="0"/>
      <psa30 value="0.0015391979" flag="0"/>
    </comp>
    <comp name="--.HHE">
      <acc value="0.0479442999" flag="0"/>
      <vel value="0.0332575101" flag="0"/>
      <psa03 value="0.1160012750" flag="0"/>
      <psa10 value="0.0523728397" flag="0"/>
      <psa30 value="0.0025574099" flag="0"/>
    </comp>
  </station>
  <station code="YEDI" name="YEDI" netid="KO" insttype="CMG-3T" lat="39.4377" lon="40.5443">
    <comp name="--.HHN">
      <acc value="0.0070439003" flag="0"/>
      <vel value="0.0079281127" flag="0"/>
      <psa03 value="0.0265710239" flag="0"/>
      <psa10 value="0.0124308186" flag="0"/>
      <psa30 value="0.0023155190" flag="0"/>
    </comp>
    <comp name="--.HHZ">
      <acc value="0.0000495426" flag="0"/>
      <vel value="0.0000038469" flag="0"/>
      <psa03 value="0.0000105421" flag="0"/>
      <psa10 value="0.0000035553" flag="0"/>
      <psa30 value="0.0000005574" flag="0"/>
    </comp>
    <comp name="--.HHE">
      <acc value="0.0067445578" flag="0"/>
      <vel value="0.0066083461" flag="0"/>
      <psa03 value="0.0214728453" flag="0"/>
      <psa10 value="0.0090806016" flag="0"/>
      <psa30 value="0.0012377939" flag="0"/>
    </comp>
  </station>
</stationlist>
