<?xml version="1.0" encoding="UTF-8" standalone="yes"?>
<!DOCTYPE earthquake SYSTEM "stationlist.dtd">
<stationlist created="" xmlns="ch.ethz.sed.shakemap.usgs.xml">
  <station code="KARP" name="KARP" netid="GE" insttype="STS-2/N" commtype="DIG" lat="35.5471" lon="27.1611">
    <comp name="--.HHZ">
      <acc value="0.0035973443" flag="0"/>
      <vel value="0.0020398773" flag="0"/>
      <psa03 value="0.0089353966" flag="0"/>
      <psa10 value="0.0025007999" flag="0"/>
      <psa30 value="0.0002600197" flag="0"/>
    </comp>
    <comp name="--.HHE">
      <acc value="0.0058522093" flag="0"/>
      <vel value="0.0033970567" flag="0"/>
      <psa03 value="0.0138990733" flag="0"/>
      <psa10 value="0.0063931372" flag="0"/>
      <psa30 value="0.0003713167" flag="0"/>
    </comp>
    <comp name="--.HHN">
      <acc value="0.0095630352" flag="0"/>
      <vel value="0.0041022547" flag="0"/>
      <psa03 value="0.0203519334" flag="0"/>
      <psa10 value="0.0039003015" flag="0"/>
      <psa30 value="0.0003098728" flag="0"/>
    </comp>
  </station>
  <station code="ZKR" name="ZKR" netid="GE" insttype="STS-2/N" commtype="DIG" lat="35.1147" lon="26.2169">
    <comp name="--.HHZ">
      <acc value="0.2700748297" flag="0"/>
      <vel value="0.0509857288" flag="0"/>
      <psa03 value="0.3685587811" flag="0"/>
      <psa10 value="0.0494951941" flag="0"/>
      <psa30 value="0.0032802978" flag="0"/>
    </comp>
    <comp name="--.HHN">
      <acc value="0.3448770162" flag="0"/>
      <vel value="0.1148107080" flag="0"/>
      <psa03 value="0.4141150915" flag="0"/>
      <psa10 value="0.0266376457" flag="0"/>
      <psa30 value="0.0020356309" flag="0"/>
    </comp>
    <comp name="--.HHE">
      <acc value="0.4376246999" flag="0"/>
      <vel value="0.1611005907" flag="0"/>
      <psa03 value="0.5551773160" flag="0"/>
      <psa10 value="0.0595135496" flag="0"/>
      <psa30 value="0.0049939410" flag="0"/>
    </comp>
  </station>
</stationlist>
