<?xml version="1.0" encoding="UTF-8" standalone="yes"?>
<!DOCTYPE earthquake SYSTEM "stationlist.dtd">
<stationlist created="" xmlns="ch.ethz.sed.shakemap.usgs.xml">
  <station code="KARP" name="KARP" netid="GE" insttype="STS-2/N" commtype="DIG" lat="35.5471" lon="27.1611">
    <comp name="--.HHZ">
      <acc value="0.0035973443" flag="0"/>
      <vel value="0.0020398773" flag="0"/>
      <psa03 value="0.0089353966" flag="0"/>
      <psa10 value="0.0025007999" flag="0"/>
      <psa30 value="0.0002600197" flag="0"/>
    </comp>
    <comp name="--.HHE">
      <acc value="0.0058522093" flag="0"/>
      <vel value="0.0033970567" flag="0"/>
      <psa03 value="0.0138990733" flag="0"/>
      <psa10 value="0.0063931372" flag="0"/>
      <psa30 value="0.0003713167" flag="0"/>
    </comp>
    <comp name="--.HHN">
      <acc value="0.0095630352" flag="0"/>
      <vel value="0.0041022547" flag="0"/>
      <psa03 value="0.0203519334" flag="0"/>
      <psa10 value="0.0039003015" flag="0"/>
      <psa30 value="0.0003098728" flag="0"/>
    </comp>
  </station>
  <station code="ZKR" name="ZKR" netid="GE" insttype="STS-2/N" commtype="DIG" lat="35.1147" lon="26.2169">
    <comp name="--.HHZ">
      <acc value="0.2700748297" flag="0"/>
      <vel value="0.0509857288" flag="0"/>
      <psa03 value="0.3685587811" flag="0"/>
      <psa10 value="0.0494951941" flag="0"/>
      <psa30 value="0.0032802978" flag="0"/>
    </comp>
    <comp name="--.HHN">
      <acc value="0.3448770162" flag="0"/>
      <vel value="0.1148107080" flag="0"/>
      <psa03 value="0.4141150915" flag="0"/>
      <psa10 value="0.0266376457" flag="0"/>
      <psa30 value="0.0020356309" flag="0"/>
    </comp>
    <comp name="--.HHE">
      <acc value="0.4376246999" flag="0"/>
      <vel value="0.1611005907" flag="0"/>
      <psa03 value="0.5551773160" flag="0"/>
      <psa10 value="0.0595135496" flag="0"/>
      <psa30 value="0.0049939410" flag="0"/>
    </comp>
  </station>
  <station code="KNSS" name="KNSS" netid="HC" insttype="60" commtype="DIG" lat="35.3042" lon="25.1802">
    <comp name="--.HHE">
      <acc value="0.0000000000" flag="0"/>
      <vel value="-100.0000000000" flag="0"/>
      <psa03 value="0.0000000000" flag="0"/>
      <psa10 value="0.0000000000" flag="0"/>
      <psa30 value="0.0000000000" flag="0"/>
    </comp>
    <comp name="--.HHZ">
      <acc value="0.0054877426" flag="0"/>
      <vel value="0.0019818346" flag="0"/>
      <psa03 value="0.0157249750" flag="0"/>
      <psa10 value="0.0022313785" flag="0"/>
      <psa30 value="0.0007485527" flag="0"/>
    </comp>
    <comp name="--.HHN">
      <acc value="0.0073522107" flag="0"/>
      <vel value="0.0044391884" flag="0"/>
      <psa03 value="0.0195940566" flag="0"/>
      <psa10 value="0.0042645886" flag="0"/>
      <psa30 value="0.0005466126" flag="0"/>
    </comp>
  </station>
  <station code="PFKS" name="PFKS" netid="HC" insttype="120" commtype="DIG" lat="35.0429" lon="25.4733">
    <comp name="--.HHE">
      <acc value="0.0606053269" flag="0"/>
      <vel value="0.0301293377" flag="0"/>
      <psa03 value="0.2248076996" flag="0"/>
      <psa10 value="0.0190213439" flag="0"/>
      <psa30 value="0.0012040899" flag="0"/>
    </comp>
    <comp name="--.HHZ">
      <acc value="0.0321925481" flag="0"/>
      <vel value="0.0128386540" flag="0"/>
      <psa03 value="0.0831707462" flag="0"/>
      <psa10 value="0.0133167277" flag="0"/>
      <psa30 value="0.0008073789" flag="0"/>
    </comp>
    <comp name="--.HHN">
      <acc value="0.0469106000" flag="0"/>
      <vel value="0.0221515902" flag="0"/>
      <psa03 value="0.0957020153" flag="0"/>
      <psa10 value="0.0157249628" flag="0"/>
      <psa30 value="0.0006771278" flag="0"/>
    </comp>
  </station>
  <station code="STIA" name="STIA" netid="HC" insttype="120" commtype="DIG" lat="35.2021" lon="26.0909">
    <comp name="--.HHE">
      <acc value="0.1122779648" flag="0"/>
      <vel value="0.0640818174" flag="0"/>
      <psa03 value="0.3071924128" flag="0"/>
      <psa10 value="0.0519693448" flag="0"/>
      <psa30 value="0.0039582043" flag="0"/>
    </comp>
    <comp name="--.HHN">
      <acc value="0.2085892164" flag="0"/>
      <vel value="0.0612950812" flag="0"/>
      <psa03 value="0.5157048549" flag="0"/>
      <psa10 value="0.0428970015" flag="0"/>
      <psa30 value="0.0038885027" flag="0"/>
    </comp>
    <comp name="--.HHZ">
      <acc value="0.1525356203" flag="0"/>
      <vel value="0.0359003084" flag="0"/>
      <psa03 value="0.2239639713" flag="0"/>
      <psa10 value="0.0310307463" flag="0"/>
      <psa30 value="0.0016812703" flag="0"/>
    </comp>
  </station>
  <station code="AGN1" name="AGN1" netid="HI" insttype="unknown" commtype="DIG" lat="35.1879" lon="25.7155">
    <comp name="--.HNN">
      <acc value="0.0718841396" flag="0"/>
      <vel value="0.0304489836" flag="0"/>
      <psa03 value="0.1563088435" flag="0"/>
      <psa10 value="0.0107951858" flag="0"/>
      <psa30 value="0.0011538011" flag="0"/>
    </comp>
    <comp name="--.HNE">
      <acc value="0.0033046402" flag="0"/>
      <vel value="0.0034317303" flag="0"/>
      <psa03 value="0.0049369124" flag="0"/>
      <psa10 value="0.0030081263" flag="0"/>
      <psa30 value="0.0009303514" flag="0"/>
    </comp>
    <comp name="--.HNZ">
      <acc value="0.0194229155" flag="0"/>
      <vel value="0.0060916604" flag="0"/>
      <psa03 value="0.0339829273" flag="0"/>
      <psa10 value="0.0051661707" flag="0"/>
      <psa30 value="0.0004850236" flag="0"/>
    </comp>
  </station>
  <station code="KSS1" name="KSS1" netid="HI" insttype="CMG-5TD,ACCELEROMETER,GURALP" commtype="DIG" lat="35.4189" lon="26.9207">
    <comp name="--.HNE">
      <acc value="0.0081095588" flag="0"/>
      <vel value="0.0042662718" flag="0"/>
      <psa03 value="0.0363638278" flag="0"/>
      <psa10 value="0.0022193254" flag="0"/>
      <psa30 value="0.0006437037" flag="0"/>
    </comp>
    <comp name="--.HNN">
      <acc value="0.0102855855" flag="0"/>
      <vel value="0.0049453940" flag="0"/>
      <psa03 value="0.0310540859" flag="0"/>
      <psa10 value="0.0029678689" flag="0"/>
      <psa30 value="0.0005318830" flag="0"/>
    </comp>
    <comp name="--.HNZ">
      <acc value="0.0048747607" flag="0"/>
      <vel value="0.0028781913" flag="0"/>
      <psa03 value="0.0113451060" flag="0"/>
      <psa10 value="0.0026396245" flag="0"/>
      <psa30 value="0.0004829438" flag="0"/>
    </comp>
  </station>
  <station code="SIT2" name="SIT2" netid="HI" insttype="CMG-5TD,ACCELEROMETER,GURALP" commtype="DIG" lat="35.2059" lon="26.107">
    <comp name="--.HNN">
      <acc value="0.2014620487" flag="0"/>
      <vel value="0.1323806116" flag="0"/>
      <psa03 value="0.6763138748" flag="0"/>
      <psa10 value="0.1249276417" flag="0"/>
      <psa30 value="0.0062700707" flag="0"/>
    </comp>
    <comp name="--.HNE">
      <acc value="0.2900205476" flag="0"/>
      <vel value="0.1617217678" flag="0"/>
      <psa03 value="0.9361018527" flag="0"/>
      <psa10 value="0.1054898085" flag="0"/>
      <psa30 value="0.0054765200" flag="0"/>
    </comp>
    <comp name="--.HNZ">
      <acc value="0.1469935573" flag="0"/>
      <vel value="0.0568226569" flag="0"/>
      <psa03 value="0.3474586747" flag="0"/>
      <psa10 value="0.0401920032" flag="0"/>
      <psa30 value="0.0018241464" flag="0"/>
    </comp>
  </station>
  <station code="KARP" name="KARP" netid="HL" insttype="120" commtype="DIG" lat="35.5471" lon="27.1611">
    <comp name="--.HHE">
      <acc value="0.0054257665" flag="0"/>
      <vel value="0.0033187490" flag="0"/>
      <psa03 value="0.0136030583" flag="0"/>
      <psa10 value="0.0063563052" flag="0"/>
      <psa30 value="0.0003703656" flag="0"/>
    </comp>
    <comp name="--.HHZ">
      <acc value="0.0034479979" flag="0"/>
      <vel value="0.0019985065" flag="0"/>
      <psa03 value="0.0086930076" flag="0"/>
      <psa10 value="0.0024795786" flag="0"/>
      <psa30 value="0.0002595836" flag="0"/>
    </comp>
    <comp name="--.HHN">
      <acc value="0.0077250259" flag="0"/>
      <vel value="0.0040284928" flag="0"/>
      <psa03 value="0.0197798087" flag="0"/>
      <psa10 value="0.0038762853" flag="0"/>
      <psa30 value="0.0003086177" flag="0"/>
    </comp>
  </station>
</stationlist>
