<?xml version="1.0" encoding="UTF-8" standalone="yes"?>
<!DOCTYPE earthquake SYSTEM "stationlist.dtd">
<stationlist created="" xmlns="ch.ethz.sed.shakemap.usgs.xml">
  <station code="ASB" name="ASB" netid="VI" insttype="STS-2.5" lat="64.7482" lon="-21.3254">
    <comp name="--.HHZ">
      <acc value="0.0435184701" flag="0"/>
      <vel value="0.0156831756" flag="0"/>
      <psa03 value="0.0622763878" flag="0"/>
      <psa10 value="0.0149299157" flag="0"/>
      <psa30 value="0.0017693037" flag="0"/>
    </comp>
    <comp name="--.HHN">
      <acc value="0.0811186873" flag="0"/>
      <vel value="0.0230404728" flag="0"/>
      <psa03 value="0.1458048515" flag="0"/>
      <psa10 value="0.0212689759" flag="0"/>
      <psa30 value="0.0018552562" flag="0"/>
    </comp>
    <comp name="--.HHE">
      <acc value="0.0730204402" flag="0"/>
      <vel value="0.0281713624" flag="0"/>
      <psa03 value="0.1150158836" flag="0"/>
      <psa10 value="0.0285886538" flag="0"/>
      <psa30 value="0.0023322811" flag="0"/>
    </comp>
  </station>
</stationlist>
