<?xml version="1.0" encoding="UTF-8" standalone="yes"?>
<!DOCTYPE earthquake SYSTEM "stationlist.dtd">
<stationlist created="" xmlns="ch.ethz.sed.shakemap.usgs.xml">
  <station code="KARP" name="KARP" netid="GE" insttype="STS-2/N" commtype="DIG" lat="35.5471" lon="27.1611">
    <comp name="--.HHZ">
      <acc value="0.0125610831" flag="0"/>
      <vel value="0.0079285823" flag="0"/>
      <psa03 value="0.0335639674" flag="0"/>
      <psa10 value="0.0073764969" flag="0"/>
      <psa30 value="0.0016265808" flag="0"/>
    </comp>
    <comp name="--.HHE">
      <acc value="0.0206053498" flag="0"/>
      <vel value="0.0128931094" flag="0"/>
      <psa03 value="0.0557464306" flag="0"/>
      <psa10 value="0.0202945020" flag="0"/>
      <psa30 value="0.0023247433" flag="0"/>
    </comp>
    <comp name="--.HHN">
      <acc value="0.0199153806" flag="0"/>
      <vel value="0.0145339122" flag="0"/>
      <psa03 value="0.0542342270" flag="0"/>
      <psa10 value="0.0191194517" flag="0"/>
      <psa30 value="0.0018878719" flag="0"/>
    </comp>
  </station>
  <station code="ZKR" name="ZKR" netid="GE" insttype="STS-2/N" commtype="DIG" lat="35.1147" lon="26.2169">
    <comp name="--.HHN">
      <acc value="0.2501182846" flag="0"/>
      <vel value="0.0926849051" flag="0"/>
      <psa03 value="0.5988785340" flag="0"/>
      <psa10 value="0.0564471176" flag="0"/>
      <psa30 value="0.0071403906" flag="0"/>
    </comp>
    <comp name="--.HHZ">
      <acc value="0.3659884024" flag="0"/>
      <vel value="0.1005137366" flag="0"/>
      <psa03 value="0.5566303705" flag="0"/>
      <psa10 value="0.0738096059" flag="0"/>
      <psa30 value="0.0205549502" flag="0"/>
    </comp>
    <comp name="--.HHE">
      <acc value="0.2991157711" flag="0"/>
      <vel value="0.0837825216" flag="0"/>
      <psa03 value="0.4504051950" flag="0"/>
      <psa10 value="0.0729178222" flag="0"/>
      <psa30 value="0.0078978817" flag="0"/>
    </comp>
  </station>
  <station code="IMOD" name="IMOD" netid="HC" insttype="120" commtype="DIG" lat="34.9731" lon="24.7995">
    <comp name="--.HHN">
      <acc value="0.0233066524" flag="0"/>
      <vel value="0.0231338256" flag="0"/>
      <psa03 value="0.0642749820" flag="0"/>
      <psa10 value="0.0304037874" flag="0"/>
      <psa30 value="0.0026412714" flag="0"/>
    </comp>
    <comp name="--.HHE">
      <acc value="0.0174689494" flag="0"/>
      <vel value="0.0153331757" flag="0"/>
      <psa03 value="0.0343223899" flag="0"/>
      <psa10 value="0.0218864273" flag="0"/>
      <psa30 value="0.0019147804" flag="0"/>
    </comp>
    <comp name="--.HHZ">
      <acc value="0.0131103728" flag="0"/>
      <vel value="0.0148992336" flag="0"/>
      <psa03 value="0.0272306729" flag="0"/>
      <psa10 value="0.0183196582" flag="0"/>
      <psa30 value="0.0014637783" flag="0"/>
    </comp>
  </station>
  <station code="KNSS" name="KNSS" netid="HC" insttype="60" commtype="DIG" lat="35.3042" lon="25.1802">
    <comp name="--.HHE">
      <acc value="0.0000000000" flag="0"/>
      <vel value="-100.0000000000" flag="0"/>
      <psa03 value="0.0000000000" flag="0"/>
      <psa10 value="0.0000000000" flag="0"/>
      <psa30 value="0.0000000000" flag="0"/>
    </comp>
    <comp name="--.HHN">
      <acc value="0.0278440732" flag="0"/>
      <vel value="0.0123064588" flag="0"/>
      <psa03 value="0.1129189383" flag="0"/>
      <psa10 value="0.0214241382" flag="0"/>
      <psa30 value="0.0051001462" flag="0"/>
    </comp>
    <comp name="--.HHZ">
      <acc value="0.0167164334" flag="0"/>
      <vel value="0.0123574620" flag="0"/>
      <psa03 value="0.0424179593" flag="0"/>
      <psa10 value="0.0092020488" flag="0"/>
      <psa30 value="0.0033484406" flag="0"/>
    </comp>
  </station>
  <station code="PFKS" name="PFKS" netid="HC" insttype="120" commtype="DIG" lat="35.0429" lon="25.4733">
    <comp name="--.HHE">
      <acc value="0.1253125649" flag="0"/>
      <vel value="0.0412050123" flag="0"/>
      <psa03 value="0.2126121706" flag="0"/>
      <psa10 value="0.0409714507" flag="0"/>
      <psa30 value="0.0039445291" flag="0"/>
    </comp>
    <comp name="--.HHN">
      <acc value="0.1113345279" flag="0"/>
      <vel value="0.0403335262" flag="0"/>
      <psa03 value="0.1660487349" flag="0"/>
      <psa10 value="0.0362439865" flag="0"/>
      <psa30 value="0.0026585009" flag="0"/>
    </comp>
    <comp name="--.HHZ">
      <acc value="0.0680737270" flag="0"/>
      <vel value="0.0218256378" flag="0"/>
      <psa03 value="0.1148358882" flag="0"/>
      <psa10 value="0.0286615203" flag="0"/>
      <psa30 value="0.0038881201" flag="0"/>
    </comp>
  </station>
  <station code="STIA" name="STIA" netid="HC" insttype="120" commtype="DIG" lat="35.2021" lon="26.0909">
    <comp name="--.HHN">
      <acc value="0.2447242204" flag="0"/>
      <vel value="0.0812050865" flag="0"/>
      <psa03 value="0.2800137700" flag="0"/>
      <psa10 value="0.0696917086" flag="0"/>
      <psa30 value="0.0154651576" flag="0"/>
    </comp>
    <comp name="--.HHE">
      <acc value="0.2288473953" flag="0"/>
      <vel value="0.0779390719" flag="0"/>
      <psa03 value="0.4858262265" flag="0"/>
      <psa10 value="0.0631798738" flag="0"/>
      <psa30 value="0.0063122962" flag="0"/>
    </comp>
    <comp name="--.HHZ">
      <acc value="0.3175554632" flag="0"/>
      <vel value="0.0998227011" flag="0"/>
      <psa03 value="0.2308265366" flag="0"/>
      <psa10 value="0.0385793314" flag="0"/>
      <psa30 value="0.0082667289" flag="0"/>
    </comp>
  </station>
  <station code="AGN1" name="AGN1" netid="HI" insttype="unknown" commtype="DIG" lat="35.1879" lon="25.7155">
    <comp name="--.HNE">
      <acc value="0.0002576165" flag="0"/>
      <vel value="0.0002119753" flag="0"/>
      <psa03 value="0.0003394395" flag="0"/>
      <psa10 value="0.0001864036" flag="0"/>
      <psa30 value="0.0001785447" flag="0"/>
    </comp>
    <comp name="--.HNZ">
      <acc value="0.0830498604" flag="0"/>
      <vel value="0.0225298127" flag="0"/>
      <psa03 value="0.0850148550" flag="0"/>
      <psa10 value="0.0164698047" flag="0"/>
      <psa30 value="0.0032755548" flag="0"/>
    </comp>
    <comp name="--.HNN">
      <acc value="0.2018995774" flag="0"/>
      <vel value="0.0435154835" flag="0"/>
      <psa03 value="0.2517819917" flag="0"/>
      <psa10 value="0.0203311978" flag="0"/>
      <psa30 value="0.0039814103" flag="0"/>
    </comp>
  </station>
  <station code="SIT2" name="SIT2" netid="HI" insttype="CMG-5TD,ACCELEROMETER,GURALP" commtype="DIG" lat="35.2059" lon="26.107">
    <comp name="--.HNZ">
      <acc value="0.2936021002" flag="0"/>
      <vel value="0.0931344428" flag="0"/>
      <psa03 value="0.5796798485" flag="0"/>
      <psa10 value="0.0478709932" flag="0"/>
      <psa30 value="0.0082991305" flag="0"/>
    </comp>
    <comp name="--.HNN">
      <acc value="0.3893119100" flag="0"/>
      <vel value="0.2274652360" flag="0"/>
      <psa03 value="1.2293299562" flag="0"/>
      <psa10 value="0.1575527637" flag="0"/>
      <psa30 value="0.0158002068" flag="0"/>
    </comp>
    <comp name="--.HNE">
      <acc value="0.3902468055" flag="0"/>
      <vel value="0.1906007526" flag="0"/>
      <psa03 value="1.3322199151" flag="0"/>
      <psa10 value="0.1010640903" flag="0"/>
      <psa30 value="0.0079251013" flag="0"/>
    </comp>
  </station>
  <station code="IDI" name="IDI" netid="HL" insttype="120" commtype="DIG" lat="35.288" lon="24.89">
    <comp name="--.HHN">
      <acc value="0.0067466186" flag="0"/>
      <vel value="0.0079097763" flag="0"/>
      <psa03 value="0.0193389899" flag="0"/>
      <psa10 value="0.0103131014" flag="0"/>
      <psa30 value="0.0015520077" flag="0"/>
    </comp>
    <comp name="--.HHZ">
      <acc value="0.0059990657" flag="0"/>
      <vel value="0.0065413259" flag="0"/>
      <psa03 value="0.0156046609" flag="0"/>
      <psa10 value="0.0069523063" flag="0"/>
      <psa30 value="0.0018931122" flag="0"/>
    </comp>
    <comp name="--.HHE">
      <acc value="0.0080808315" flag="0"/>
      <vel value="0.0067906000" flag="0"/>
      <psa03 value="0.0255102874" flag="0"/>
      <psa10 value="0.0076101093" flag="0"/>
      <psa30 value="0.0013931270" flag="0"/>
    </comp>
  </station>
  <station code="KARP" name="KARP" netid="HL" insttype="120" commtype="DIG" lat="35.5471" lon="27.1611">
    <comp name="--.HHE">
      <acc value="0.0197900833" flag="0"/>
      <vel value="0.0127131869" flag="0"/>
      <psa03 value="0.0546101830" flag="0"/>
      <psa10 value="0.0201663081" flag="0"/>
      <psa30 value="0.0023190528" flag="0"/>
    </comp>
    <comp name="--.HHN">
      <acc value="0.0189488499" flag="0"/>
      <vel value="0.0144277295" flag="0"/>
      <psa03 value="0.0527764171" flag="0"/>
      <psa10 value="0.0190116027" flag="0"/>
      <psa30 value="0.0018831364" flag="0"/>
    </comp>
    <comp name="--.HHZ">
      <acc value="0.0118492770" flag="0"/>
      <vel value="0.0077342800" flag="0"/>
      <psa03 value="0.0327661549" flag="0"/>
      <psa10 value="0.0073313636" flag="0"/>
      <psa30 value="0.0016241171" flag="0"/>
    </comp>
  </station>
  <station code="SIVA" name="SIVA" netid="HL" insttype="60" commtype="DIG" lat="35.0178" lon="24.812">
    <comp name="--.HHE">
      <acc value="0.0254498727" flag="0"/>
      <vel value="0.0215287628" flag="0"/>
      <psa03 value="0.0806125494" flag="0"/>
      <psa10 value="0.0336641563" flag="0"/>
      <psa30 value="0.0032390613" flag="0"/>
    </comp>
    <comp name="--.HHN">
      <acc value="0.0176420873" flag="0"/>
      <vel value="0.0144153481" flag="0"/>
      <psa03 value="0.0389470448" flag="0"/>
      <psa10 value="0.0242850473" flag="0"/>
      <psa30 value="0.0027806981" flag="0"/>
    </comp>
    <comp name="--.HHZ">
      <acc value="0.0139492597" flag="0"/>
      <vel value="0.0109864204" flag="0"/>
      <psa03 value="0.0271566389" flag="0"/>
      <psa10 value="0.0155855185" flag="0"/>
      <psa30 value="0.0020779102" flag="0"/>
    </comp>
  </station>
  <station code="IDI" name="IDI" netid="MN" insttype="" commtype="DIG" lat="35.288" lon="24.89">
    <comp name="--.HHE">
      <acc value="0.0073516595" flag="0"/>
      <vel value="0.0060876492" flag="0"/>
      <psa03 value="0.0231851001" flag="0"/>
      <psa10 value="0.0067772053" flag="0"/>
      <psa30 value="0.0012351292" flag="0"/>
    </comp>
    <comp name="--.HHZ">
      <acc value="0.0055781393" flag="0"/>
      <vel value="0.0058319231" flag="0"/>
      <psa03 value="0.0142638824" flag="0"/>
      <psa10 value="0.0061945482" flag="0"/>
      <psa30 value="0.0016787565" flag="0"/>
    </comp>
    <comp name="--.HHN">
      <acc value="0.0061534623" flag="0"/>
      <vel value="0.0070477924" flag="0"/>
      <psa03 value="0.0175021315" flag="0"/>
      <psa10 value="0.0091908028" flag="0"/>
      <psa30 value="0.0013774445" flag="0"/>
    </comp>
  </station>
</stationlist>
