<?xml version="1.0" encoding="UTF-8" standalone="yes"?>
<!DOCTYPE earthquake SYSTEM "stationlist.dtd">
<stationlist created="" xmlns="ch.ethz.sed.shakemap.usgs.xml">
  <station code="KARP" name="KARP" netid="GE" insttype="STS-2/N" commtype="DIG" lat="35.5471" lon="27.1611">
    <comp name="--.HHZ">
      <acc value="0.0125610831" flag="0"/>
      <vel value="0.0079285823" flag="0"/>
      <psa03 value="0.0335639674" flag="0"/>
      <psa10 value="0.0073764969" flag="0"/>
      <psa30 value="0.0016265818" flag="0"/>
    </comp>
    <comp name="--.HHE">
      <acc value="0.0206053498" flag="0"/>
      <vel value="0.0128931091" flag="0"/>
      <psa03 value="0.0557464306" flag="0"/>
      <psa10 value="0.0202945020" flag="0"/>
      <psa30 value="0.0023247439" flag="0"/>
    </comp>
    <comp name="--.HHN">
      <acc value="0.0199153806" flag="0"/>
      <vel value="0.0145339123" flag="0"/>
      <psa03 value="0.0542342270" flag="0"/>
      <psa10 value="0.0191194517" flag="0"/>
      <psa30 value="0.0018878751" flag="0"/>
    </comp>
  </station>
  <station code="ZKR" name="ZKR" netid="GE" insttype="STS-2/N" commtype="DIG" lat="35.1147" lon="26.2169">
    <comp name="--.HHN">
      <acc value="0.2501182844" flag="0"/>
      <vel value="0.0926849048" flag="0"/>
      <psa03 value="0.5988785340" flag="0"/>
      <psa10 value="0.0564471167" flag="0"/>
      <psa30 value="0.0071404815" flag="0"/>
    </comp>
    <comp name="--.HHE">
      <acc value="0.2991157710" flag="0"/>
      <vel value="0.0837825210" flag="0"/>
      <psa03 value="0.4504051950" flag="0"/>
      <psa10 value="0.0729178228" flag="0"/>
      <psa30 value="0.0078978667" flag="0"/>
    </comp>
    <comp name="--.HHZ">
      <acc value="0.3659884029" flag="0"/>
      <vel value="0.1005137369" flag="0"/>
      <psa03 value="0.5566303705" flag="0"/>
      <psa10 value="0.0738096078" flag="0"/>
      <psa30 value="0.0205548977" flag="0"/>
    </comp>
  </station>
  <station code="IMOD" name="IMOD" netid="HC" insttype="120" commtype="DIG" lat="34.9731" lon="24.7995">
    <comp name="--.HHZ">
      <acc value="0.0131103728" flag="0"/>
      <vel value="0.0148992335" flag="0"/>
      <psa03 value="0.0272306729" flag="0"/>
      <psa10 value="0.0183196582" flag="0"/>
      <psa30 value="0.0014637931" flag="0"/>
    </comp>
    <comp name="--.HHE">
      <acc value="0.0174689494" flag="0"/>
      <vel value="0.0153331761" flag="0"/>
      <psa03 value="0.0343223899" flag="0"/>
      <psa10 value="0.0218864273" flag="0"/>
      <psa30 value="0.0019147806" flag="0"/>
    </comp>
    <comp name="--.HHN">
      <acc value="0.0233066524" flag="0"/>
      <vel value="0.0231338265" flag="0"/>
      <psa03 value="0.0642749820" flag="0"/>
      <psa10 value="0.0304037874" flag="0"/>
      <psa30 value="0.0026412427" flag="0"/>
    </comp>
  </station>
  <station code="KNSS" name="KNSS" netid="HC" insttype="60" commtype="DIG" lat="35.3042" lon="25.1802">
    <comp name="--.HHE">
      <acc value="0.0000000000" flag="0"/>
      <vel value="-100.0000000000" flag="0"/>
      <psa03 value="0.0000000000" flag="0"/>
      <psa10 value="0.0000000000" flag="0"/>
      <psa30 value="0.0000000000" flag="0"/>
    </comp>
    <comp name="--.HHN">
      <acc value="0.0278440731" flag="0"/>
      <vel value="0.0123064598" flag="0"/>
      <psa03 value="0.1129189383" flag="0"/>
      <psa10 value="0.0214241382" flag="0"/>
      <psa30 value="0.0051001659" flag="0"/>
    </comp>
    <comp name="--.HHZ">
      <acc value="0.0167164334" flag="0"/>
      <vel value="0.0123574631" flag="0"/>
      <psa03 value="0.0424179593" flag="0"/>
      <psa10 value="0.0092020488" flag="0"/>
      <psa30 value="0.0033484699" flag="0"/>
    </comp>
  </station>
  <station code="PFKS" name="PFKS" netid="HC" insttype="120" commtype="DIG" lat="35.0429" lon="25.4733">
    <comp name="--.HHE">
      <acc value="0.1253125649" flag="0"/>
      <vel value="0.0412050121" flag="0"/>
      <psa03 value="0.2126121706" flag="0"/>
      <psa10 value="0.0409714506" flag="0"/>
      <psa30 value="0.0039445121" flag="0"/>
    </comp>
    <comp name="--.HHZ">
      <acc value="0.0680737270" flag="0"/>
      <vel value="0.0218256376" flag="0"/>
      <psa03 value="0.1148358882" flag="0"/>
      <psa10 value="0.0286615204" flag="0"/>
      <psa30 value="0.0038881223" flag="0"/>
    </comp>
    <comp name="--.HHN">
      <acc value="0.1113345279" flag="0"/>
      <vel value="0.0403335261" flag="0"/>
      <psa03 value="0.1660487349" flag="0"/>
      <psa10 value="0.0362439865" flag="0"/>
      <psa30 value="0.0026585822" flag="0"/>
    </comp>
  </station>
  <station code="STIA" name="STIA" netid="HC" insttype="120" commtype="DIG" lat="35.2021" lon="26.0909">
    <comp name="--.HHN">
      <acc value="0.2447242203" flag="0"/>
      <vel value="0.0812050890" flag="0"/>
      <psa03 value="0.2800137700" flag="0"/>
      <psa10 value="0.0696917090" flag="0"/>
      <psa30 value="0.0154649323" flag="0"/>
    </comp>
    <comp name="--.HHE">
      <acc value="0.2288473952" flag="0"/>
      <vel value="0.0779390743" flag="0"/>
      <psa03 value="0.4858262265" flag="0"/>
      <psa10 value="0.0631798738" flag="0"/>
      <psa30 value="0.0063123522" flag="0"/>
    </comp>
    <comp name="--.HHZ">
      <acc value="0.3175554632" flag="0"/>
      <vel value="0.0998227000" flag="0"/>
      <psa03 value="0.2308265366" flag="0"/>
      <psa10 value="0.0385793339" flag="0"/>
      <psa30 value="0.0082665530" flag="0"/>
    </comp>
  </station>
  <station code="AGN1" name="AGN1" netid="HI" insttype="unknown" commtype="DIG" lat="35.1879" lon="25.7155">
    <comp name="--.HNN">
      <acc value="0.2018995752" flag="0"/>
      <vel value="0.0435154807" flag="0"/>
      <psa03 value="0.2517819917" flag="0"/>
      <psa10 value="0.0203311978" flag="0"/>
      <psa30 value="0.0039814050" flag="0"/>
    </comp>
    <comp name="--.HNE">
      <acc value="0.0002576146" flag="0"/>
      <vel value="0.0002119765" flag="0"/>
      <psa03 value="0.0003394395" flag="0"/>
      <psa10 value="0.0001824141" flag="0"/>
      <psa30 value="0.0001766591" flag="0"/>
    </comp>
    <comp name="--.HNZ">
      <acc value="0.0830498642" flag="0"/>
      <vel value="0.0225298114" flag="0"/>
      <psa03 value="0.0850148550" flag="0"/>
      <psa10 value="0.0164698041" flag="0"/>
      <psa30 value="0.0032754902" flag="0"/>
    </comp>
  </station>
  <station code="SIT2" name="SIT2" netid="HI" insttype="CMG-5TD,ACCELEROMETER,GURALP" commtype="DIG" lat="35.2059" lon="26.107">
    <comp name="--.HNE">
      <acc value="0.3902468043" flag="0"/>
      <vel value="0.1906007484" flag="0"/>
      <psa03 value="1.3322199151" flag="0"/>
      <psa10 value="0.1010640903" flag="0"/>
      <psa30 value="0.0079253317" flag="0"/>
    </comp>
    <comp name="--.HNN">
      <acc value="0.3893119090" flag="0"/>
      <vel value="0.2274652369" flag="0"/>
      <psa03 value="1.2293299562" flag="0"/>
      <psa10 value="0.1575527726" flag="0"/>
      <psa30 value="0.0157997956" flag="0"/>
    </comp>
    <comp name="--.HNZ">
      <acc value="0.2936020999" flag="0"/>
      <vel value="0.0931344425" flag="0"/>
      <psa03 value="0.5796798485" flag="0"/>
      <psa10 value="0.0478709897" flag="0"/>
      <psa30 value="0.0082990157" flag="0"/>
    </comp>
  </station>
  <station code="IDI" name="IDI" netid="HL" insttype="120" commtype="DIG" lat="35.288" lon="24.89">
    <comp name="--.HHZ">
      <acc value="0.0059990657" flag="0"/>
      <vel value="0.0065413261" flag="0"/>
      <psa03 value="0.0156046609" flag="0"/>
      <psa10 value="0.0069523063" flag="0"/>
      <psa30 value="0.0018931113" flag="0"/>
    </comp>
    <comp name="--.HHE">
      <acc value="0.0080808314" flag="0"/>
      <vel value="0.0067905998" flag="0"/>
      <psa03 value="0.0255102874" flag="0"/>
      <psa10 value="0.0076101093" flag="0"/>
      <psa30 value="0.0013931268" flag="0"/>
    </comp>
    <comp name="--.HHN">
      <acc value="0.0067466186" flag="0"/>
      <vel value="0.0079097765" flag="0"/>
      <psa03 value="0.0193389899" flag="0"/>
      <psa10 value="0.0103131014" flag="0"/>
      <psa30 value="0.0015520092" flag="0"/>
    </comp>
  </station>
  <station code="KARP" name="KARP" netid="HL" insttype="120" commtype="DIG" lat="35.5471" lon="27.1611">
    <comp name="--.HHE">
      <acc value="0.0197900833" flag="0"/>
      <vel value="0.0127131866" flag="0"/>
      <psa03 value="0.0546101830" flag="0"/>
      <psa10 value="0.0201663081" flag="0"/>
      <psa30 value="0.0023190535" flag="0"/>
    </comp>
    <comp name="--.HHN">
      <acc value="0.0189488499" flag="0"/>
      <vel value="0.0144277296" flag="0"/>
      <psa03 value="0.0527764171" flag="0"/>
      <psa10 value="0.0190116027" flag="0"/>
      <psa30 value="0.0018831396" flag="0"/>
    </comp>
    <comp name="--.HHZ">
      <acc value="0.0118492770" flag="0"/>
      <vel value="0.0077342799" flag="0"/>
      <psa03 value="0.0327661549" flag="0"/>
      <psa10 value="0.0073313636" flag="0"/>
      <psa30 value="0.0016241180" flag="0"/>
    </comp>
  </station>
  <station code="SIVA" name="SIVA" netid="HL" insttype="60" commtype="DIG" lat="35.0178" lon="24.812">
    <comp name="--.HHZ">
      <acc value="0.0139492597" flag="0"/>
      <vel value="0.0109864194" flag="0"/>
      <psa03 value="0.0271566389" flag="0"/>
      <psa10 value="0.0155855185" flag="0"/>
      <psa30 value="0.0020778863" flag="0"/>
    </comp>
    <comp name="--.HHN">
      <acc value="0.0176420874" flag="0"/>
      <vel value="0.0144153489" flag="0"/>
      <psa03 value="0.0389470448" flag="0"/>
      <psa10 value="0.0242850473" flag="0"/>
      <psa30 value="0.0027807277" flag="0"/>
    </comp>
    <comp name="--.HHE">
      <acc value="0.0254498728" flag="0"/>
      <vel value="0.0215287628" flag="0"/>
      <psa03 value="0.0806125494" flag="0"/>
      <psa10 value="0.0336641563" flag="0"/>
      <psa30 value="0.0032390610" flag="0"/>
    </comp>
  </station>
  <station code="IDI" name="IDI" netid="MN" insttype="" commtype="DIG" lat="35.288" lon="24.89">
    <comp name="--.HHN">
      <acc value="0.0061534623" flag="0"/>
      <vel value="0.0070477926" flag="0"/>
      <psa03 value="0.0175021315" flag="0"/>
      <psa10 value="0.0091908028" flag="0"/>
      <psa30 value="0.0013774460" flag="0"/>
    </comp>
    <comp name="--.HHZ">
      <acc value="0.0055781394" flag="0"/>
      <vel value="0.0058319232" flag="0"/>
      <psa03 value="0.0142638824" flag="0"/>
      <psa10 value="0.0061945482" flag="0"/>
      <psa30 value="0.0016787557" flag="0"/>
    </comp>
    <comp name="--.HHE">
      <acc value="0.0073516595" flag="0"/>
      <vel value="0.0060876490" flag="0"/>
      <psa03 value="0.0231851001" flag="0"/>
      <psa10 value="0.0067772053" flag="0"/>
      <psa30 value="0.0012351291" flag="0"/>
    </comp>
  </station>
</stationlist>
