<stationlist created="1777292702">
	<station code="TEFL" name="TEFL" netid="HC" source="Seismological Network of Crete (HC)" insttype="" lat="35.093273" lon="25.163418">
		<comp name="--.HNE" depth="0.0">
			<acc value="0.237296159231518" flag="0"/>
			<vel value="0.143455498616969" flag="0"/>
			<psa03 value="0.359951511687766" flag="0"/>
			<psa10 value="0.145483057538568" flag="0"/>
			<psa30 value="0.0701465335302517" flag="0"/>
		</comp>
		<comp name="--.HNN" depth="0.0">
			<acc value="0.211546396951729" flag="0"/>
			<vel value="0.116983622188675" flag="0"/>
			<psa03 value="0.323640647937913" flag="0"/>
			<psa10 value="0.138158402316107" flag="0"/>
			<psa30 value="0.0572735540918745" flag="0"/>
		</comp>
		<comp name="--.HNZ" depth="0.0">
			<acc value="0.205426099227506" flag="0"/>
			<vel value="0.123739796089563" flag="0"/>
			<psa03 value="0.312850516477993" flag="0"/>
			<psa10 value="0.131258170209595" flag="0"/>
			<psa30 value="0.0762254562290467" flag="0"/>
		</comp>
	</station>
	<station code="AGN1" name="AGN1" netid="HI" source="ITSAK Strong Motion Network" insttype="" lat="35.1879" lon="25.7155">
		<comp name="--.HNE" depth="0.0">
			<acc value="0.00030428321939311" flag="0"/>
			<vel value="0.000619690971687912" flag="0"/>
			<psa03 value="0.000388399101930172" flag="0"/>
			<psa10 value="0.000386741791620664" flag="0"/>
			<psa30 value="0.000435927315545234" flag="0"/>
		</comp>
		<comp name="--.HNN" depth="0.0">
			<acc value="0.200429737977259" flag="0"/>
			<vel value="0.0463570356266767" flag="0"/>
			<psa03 value="0.256563621080748" flag="0"/>
			<psa10 value="0.0203408993597546" flag="0"/>
			<psa30 value="0.00417253932691931" flag="0"/>
		</comp>
		<comp name="--.HNZ" depth="0.0">
			<acc value="0.0836103020636652" flag="0"/>
			<vel value="0.0241859746196068" flag="0"/>
			<psa03 value="0.0851865859015752" flag="0"/>
			<psa10 value="0.0162471150416348" flag="0"/>
			<psa30 value="0.00336265255089512" flag="0"/>
		</comp>
	</station>
	<station code="ARK1" name="ARK1" netid="HI" source="ITSAK Strong Motion Network" insttype="" lat="35.148777" lon="25.264194">
		<comp name="--.HNE" depth="0.0">
			<acc value="0.0335599857234038" flag="0"/>
			<vel value="0.0290773698020054" flag="0"/>
			<psa03 value="0.0797127805805034" flag="0"/>
			<psa10 value="0.0402944955625759" flag="0"/>
			<psa30 value="0.00787529919992203" flag="0"/>
		</comp>
		<comp name="--.HNN" depth="0.0">
			<acc value="0.0361711333773199" flag="0"/>
			<vel value="0.0308776897793493" flag="0"/>
			<psa03 value="0.080285927923702" flag="0"/>
			<psa10 value="0.0593864890634467" flag="0"/>
			<psa30 value="0.00601912373740727" flag="0"/>
		</comp>
		<comp name="--.HNZ" depth="0.0">
			<acc value="0.0301675563882162" flag="0"/>
			<vel value="0.01933852790779" flag="0"/>
			<psa03 value="0.06396279451289" flag="0"/>
			<psa10 value="0.0292773007274876" flag="0"/>
			<psa30 value="0.00471316555742049" flag="0"/>
		</comp>
	</station>
	<station code="GOR1" name="GOR1" netid="HI" source="ITSAK Strong Motion Network" insttype="" lat="35.0582" lon="24.9628">
		<comp name="--.HNE" depth="0.0">
			<acc value="0.0182027492177459" flag="0"/>
			<vel value="0.0297369701388413" flag="0"/>
			<psa03 value="0.0437689776049593" flag="0"/>
			<psa10 value="0.039700377455167" flag="0"/>
			<psa30 value="0.00487429873170249" flag="0"/>
		</comp>
		<comp name="--.HNN" depth="0.0">
			<acc value="0.0181942777859904" flag="0"/>
			<vel value="0.0319621722920747" flag="0"/>
			<psa03 value="0.0399702155389491" flag="0"/>
			<psa10 value="0.0406905405486125" flag="0"/>
			<psa30 value="0.00748391743946787" flag="0"/>
		</comp>
		<comp name="--.HNZ" depth="0.0">
			<acc value="0.0141976995128646" flag="0"/>
			<vel value="0.020828268871458" flag="0"/>
			<psa03 value="0.0345426268211671" flag="0"/>
			<psa10 value="0.0307508202159221" flag="0"/>
			<psa30 value="0.0065628210046829" flag="0"/>
		</comp>
	</station>
	<station code="HER1" name="HER1" netid="HI" source="ITSAK Strong Motion Network" insttype="" lat="35.317672" lon="25.10217">
		<comp name="--.HNE" depth="0.0">
			<acc value="0.0571876602481293" flag="0"/>
			<vel value="0.0825993927161981" flag="0"/>
			<psa03 value="0.109444302231231" flag="0"/>
			<psa10 value="0.169018176624703" flag="0"/>
			<psa30 value="0.0110906497011126" flag="0"/>
		</comp>
		<comp name="--.HNN" depth="0.0">
			<acc value="0.0537755886483826" flag="0"/>
			<vel value="0.100654660529098" flag="0"/>
			<psa03 value="0.099062062375461" flag="0"/>
			<psa10 value="0.15678888649425" flag="0"/>
			<psa30 value="0.0108049341071901" flag="0"/>
		</comp>
		<comp name="--.HNZ" depth="0.0">
			<acc value="0.0525709557316676" flag="0"/>
			<vel value="0.0659977191069459" flag="0"/>
			<psa03 value="0.0767574545963276" flag="0"/>
			<psa10 value="0.0881889220832792" flag="0"/>
			<psa30 value="0.00518407675297609" flag="0"/>
		</comp>
	</station>
	<station code="HER3" name="HER3" netid="HI" source="ITSAK Strong Motion Network" insttype="" lat="35.3296" lon="25.1065">
		<comp name="--.HNE" depth="0.0">
			<acc value="0.0494496965537153" flag="0"/>
			<vel value="0.0604723550671762" flag="0"/>
			<psa03 value="0.138927911625656" flag="0"/>
			<psa10 value="0.155791005389524" flag="0"/>
			<psa30 value="0.00709400660978898" flag="0"/>
		</comp>
		<comp name="--.HNN" depth="0.0">
			<acc value="0.0695631718607106" flag="0"/>
			<vel value="0.0817918428282244" flag="0"/>
			<psa03 value="0.152129504916421" flag="0"/>
			<psa10 value="0.150355605320945" flag="0"/>
			<psa30 value="0.00948201397022354" flag="0"/>
		</comp>
		<comp name="--.HNZ" depth="0.0">
			<acc value="0.0449412083071375" flag="0"/>
			<vel value="0.0328511847219042" flag="0"/>
			<psa03 value="0.094945227155332" flag="0"/>
			<psa10 value="0.0852657009342245" flag="0"/>
			<psa30 value="0.00353688346783829" flag="0"/>
		</comp>
	</station>
	<station code="KSS1" name="KSS1" netid="HI" source="ITSAK Strong Motion Network" insttype="" lat="35.4189" lon="26.9207">
		<comp name="--.HNE" depth="0.0">
			<acc value="0.0206850168960397" flag="0"/>
			<vel value="0.0109561403384452" flag="0"/>
			<psa03 value="0.0979152884906525" flag="0"/>
			<psa10 value="0.0152353955201818" flag="0"/>
			<psa30 value="0.00464480394546587" flag="0"/>
		</comp>
		<comp name="--.HNN" depth="0.0">
			<acc value="0.0280004997129961" flag="0"/>
			<vel value="0.0179475992785705" flag="0"/>
			<psa03 value="0.124297619523939" flag="0"/>
			<psa10 value="0.0171233774647199" flag="0"/>
			<psa30 value="0.00380585045224765" flag="0"/>
		</comp>
		<comp name="--.HNZ" depth="0.0">
			<acc value="0.0180164198616131" flag="0"/>
			<vel value="0.0127895406702489" flag="0"/>
			<psa03 value="0.0411364855069441" flag="0"/>
			<psa10 value="0.0122656816037094" flag="0"/>
			<psa30 value="0.00410130752482868" flag="0"/>
		</comp>
	</station>
	<station code="RTH1" name="RTH1" netid="HI" source="ITSAK Strong Motion Network" insttype="" lat="35.365393" lon="24.471773">
		<comp name="--.HNE" depth="0.0">
			<acc value="0.008545694954025" flag="0"/>
			<vel value="0.00655205228333991" flag="0"/>
			<psa03 value="0.026802637522362" flag="0"/>
			<psa10 value="0.00933920711413686" flag="0"/>
			<psa30 value="0.00240540997160548" flag="0"/>
		</comp>
		<comp name="--.HNN" depth="0.0">
			<acc value="0.00708778804212766" flag="0"/>
			<vel value="0.00663479235378045" flag="0"/>
			<psa03 value="0.0179538521150063" flag="0"/>
			<psa10 value="0.00768053317262858" flag="0"/>
			<psa30 value="0.00194327602416616" flag="0"/>
		</comp>
		<comp name="--.HNZ" depth="0.0">
			<acc value="0.00722305861335993" flag="0"/>
			<vel value="0.00482376924024913" flag="0"/>
			<psa03 value="0.0111566440208291" flag="0"/>
			<psa10 value="0.00565438270010361" flag="0"/>
			<psa30 value="0.00163894628048088" flag="0"/>
		</comp>
	</station>
	<station code="SIT2" name="SIT2" netid="HI" source="ITSAK Strong Motion Network" insttype="" lat="35.2059" lon="26.107">
		<comp name="--.HNE" depth="0.0">
			<acc value="0.387861277565927" flag="0"/>
			<vel value="0.19084956095815" flag="0"/>
			<psa03 value="1.32103092848239" flag="0"/>
			<psa10 value="0.101314679100264" flag="0"/>
			<psa30 value="0.00884958457487991" flag="0"/>
		</comp>
		<comp name="--.HNN" depth="0.0">
			<acc value="0.390046548492239" flag="0"/>
			<vel value="0.239629979371629" flag="0"/>
			<psa03 value="1.25124413878341" flag="0"/>
			<psa10 value="0.159424321078857" flag="0"/>
			<psa30 value="0.019034562613023" flag="0"/>
		</comp>
		<comp name="--.HNZ" depth="0.0">
			<acc value="0.290462226535428" flag="0"/>
			<vel value="0.106041518852748" flag="0"/>
			<psa03 value="0.588053497324847" flag="0"/>
			<psa10 value="0.0486004670424228" flag="0"/>
			<psa30 value="0.0113498660395895" flag="0"/>
		</comp>
	</station>
	<station code="ANAF" name="ANAF" netid="HL" source="National Observatory of Athens Seismic Network" insttype="" lat="36.35675" lon="25.77262">
		<comp name="--.HNE" depth="0.0">
			<acc value="0.0255806876533314" flag="0"/>
			<vel value="0.0148682798555842" flag="0"/>
			<psa03 value="0.0655560250565944" flag="0"/>
			<psa10 value="0.00952631075883506" flag="0"/>
			<psa30 value="0.00143258875614098" flag="0"/>
		</comp>
		<comp name="--.HNN" depth="0.0">
			<acc value="0.030529724978647" flag="0"/>
			<vel value="0.0190381475494334" flag="0"/>
			<psa03 value="0.0840837784709952" flag="0"/>
			<psa10 value="0.0110006628024222" flag="0"/>
			<psa30 value="0.0024541515338281" flag="0"/>
		</comp>
		<comp name="--.HNZ" depth="0.0">
			<acc value="0.0168014370154424" flag="0"/>
			<vel value="0.00857771144539148" flag="0"/>
			<psa03 value="0.0326350551414052" flag="0"/>
			<psa10 value="0.00697690874846369" flag="0"/>
			<psa30 value="0.00162682214398301" flag="0"/>
		</comp>
	</station>
	<station code="HERG" name="HERG" netid="HL" source="National Observatory of Athens Seismic Network" insttype="" lat="35.32622" lon="25.06586">
		<comp name="00.HNE" depth="0.0">
			<acc value="0.0348457659496224" flag="0"/>
			<vel value="0.0441200347251704" flag="0"/>
			<psa03 value="0.0777980131115558" flag="0"/>
			<psa10 value="0.0822090234443422" flag="0"/>
			<psa30 value="0.00982623844007197" flag="0"/>
		</comp>
		<comp name="00.HNN" depth="0.0">
			<acc value="0.0398618321760304" flag="0"/>
			<vel value="0.0507197259560003" flag="0"/>
			<psa03 value="0.100087265706817" flag="0"/>
			<psa10 value="0.0782596368168607" flag="0"/>
			<psa30 value="0.00747733200321503" flag="0"/>
		</comp>
		<comp name="00.HNZ" depth="0.0">
			<acc value="0.0244921117907045" flag="0"/>
			<vel value="0.0237531631062958" flag="0"/>
			<psa03 value="0.05358164847958" flag="0"/>
			<psa10 value="0.032517309112142" flag="0"/>
			<psa30 value="0.00429546497013989" flag="0"/>
		</comp>
	</station>
	<station code="IACM" name="IACM" netid="HL" source="National Observatory of Athens Seismic Network" insttype="" lat="35.3058" lon="25.0709">
		<comp name="--.HNE" depth="0.0">
			<acc value="0.057205495781787" flag="0"/>
			<vel value="0.0578068101883912" flag="0"/>
			<psa03 value="0.157395062067074" flag="0"/>
			<psa10 value="0.139334480225497" flag="0"/>
			<psa30 value="0.0137427753914236" flag="0"/>
		</comp>
		<comp name="--.HNN" depth="0.0">
			<acc value="0.0498405189029427" flag="0"/>
			<vel value="0.0659806782528593" flag="0"/>
			<psa03 value="0.146799339319109" flag="0"/>
			<psa10 value="0.12601187266813" flag="0"/>
			<psa30 value="0.00897378196901441" flag="0"/>
		</comp>
		<comp name="--.HNZ" depth="0.0">
			<acc value="0.0424558479121018" flag="0"/>
			<vel value="0.0287216077200073" flag="0"/>
			<psa03 value="0.0843574320158662" flag="0"/>
			<psa10 value="0.0407023275794455" flag="0"/>
			<psa30 value="0.00393281219617342" flag="0"/>
		</comp>
	</station>
	<station code="KARP" name="KARP" netid="HL" source="National Observatory of Athens Seismic Network" insttype="" lat="35.5471" lon="27.16106">
		<comp name="--.HNE" depth="0.0">
			<acc value="0.0197761262620924" flag="0"/>
			<vel value="0.0143960275463333" flag="0"/>
			<psa03 value="0.0526772031478489" flag="0"/>
			<psa10 value="0.0204555200778147" flag="0"/>
			<psa30 value="0.00289860014303388" flag="0"/>
		</comp>
		<comp name="--.HNN" depth="0.0">
			<acc value="0.0189942786051638" flag="0"/>
			<vel value="0.0168684976617774" flag="0"/>
			<psa03 value="0.052856282719325" flag="0"/>
			<psa10 value="0.0172628604547834" flag="0"/>
			<psa30 value="0.00272248514294612" flag="0"/>
		</comp>
		<comp name="--.HNZ" depth="0.0">
			<acc value="0.0117364649454404" flag="0"/>
			<vel value="0.00931404383544879" flag="0"/>
			<psa03 value="0.0324868317806684" flag="0"/>
			<psa10 value="0.00734652104596444" flag="0"/>
			<psa30 value="0.00251394799505019" flag="0"/>
		</comp>
	</station>
	<station code="SIVA" name="SIVA" netid="HL" source="National Observatory of Athens Seismic Network" insttype="" lat="35.01777" lon="24.81204">
		<comp name="00.HNE" depth="0.0">
			<acc value="0.0235697536375493" flag="0"/>
			<vel value="0.0218948316226724" flag="0"/>
			<psa03 value="0.0740512961599457" flag="0"/>
			<psa10 value="0.0318510587263237" flag="0"/>
			<psa30 value="0.00344986541165246" flag="0"/>
		</comp>
		<comp name="00.HNN" depth="0.0">
			<acc value="0.0191558164462519" flag="0"/>
			<vel value="0.0177317484521174" flag="0"/>
			<psa03 value="0.0418592807844173" flag="0"/>
			<psa10 value="0.0284611529117003" flag="0"/>
			<psa30 value="0.00393405727865402" flag="0"/>
		</comp>
		<comp name="00.HNZ" depth="0.0">
			<acc value="0.0135404329124028" flag="0"/>
			<vel value="0.0123074180657233" flag="0"/>
			<psa03 value="0.0272425130161213" flag="0"/>
			<psa10 value="0.0153401465219215" flag="0"/>
			<psa30 value="0.00241183393882845" flag="0"/>
		</comp>
	</station>
</stationlist>
