<?xml version="1.0" encoding="UTF-8" standalone="yes"?>
<!DOCTYPE earthquake SYSTEM "stationlist.dtd">
<stationlist created="" xmlns="ch.ethz.sed.shakemap.usgs.xml">
  <station code="ARPRA" name="ARPRA" netid="KO" insttype="CMG-5T" lat="39.0929" lon="38.3356">
    <comp name="--.HNE">
      <acc value="0.4922696571" flag="0"/>
      <vel value="0.4196309816" flag="0"/>
      <psa03 value="0.9448886251" flag="0"/>
      <psa10 value="0.6994066761" flag="0"/>
      <psa30 value="0.0785197651" flag="0"/>
    </comp>
    <comp name="--.HNN">
      <acc value="0.4571725517" flag="0"/>
      <vel value="0.3683654763" flag="0"/>
      <psa03 value="1.4503406830" flag="0"/>
      <psa10 value="0.6015490009" flag="0"/>
      <psa30 value="0.0327046497" flag="0"/>
    </comp>
    <comp name="--.HNZ">
      <acc value="0.2560414419" flag="0"/>
      <vel value="0.2006876674" flag="0"/>
      <psa03 value="0.5340440443" flag="0"/>
      <psa10 value="0.4048509266" flag="0"/>
      <psa30 value="0.0409950014" flag="0"/>
    </comp>
  </station>
  <station code="DARE" name="DARE" netid="KO" insttype="CMG-3ESP" lat="38.5712" lon="37.4832">
    <comp name="--.HHN">
      <acc value="0.1131290859" flag="0"/>
      <vel value="0.0902445395" flag="0"/>
      <psa03 value="0.3561865918" flag="0"/>
      <psa10 value="0.0908435246" flag="0"/>
      <psa30 value="0.0193328721" flag="0"/>
    </comp>
    <comp name="--.HHZ">
      <acc value="0.1166046061" flag="0"/>
      <vel value="0.0992632669" flag="0"/>
      <psa03 value="0.3462518404" flag="0"/>
      <psa10 value="0.0860375451" flag="0"/>
      <psa30 value="0.0231764915" flag="0"/>
    </comp>
    <comp name="--.HHE">
      <acc value="0.0921416965" flag="0"/>
      <vel value="0.0805362076" flag="0"/>
      <psa03 value="0.2507955263" flag="0"/>
      <psa10 value="0.0950945993" flag="0"/>
      <psa30 value="0.0159463890" flag="0"/>
    </comp>
  </station>
  <station code="DYBB" name="DYBB" netid="KO" insttype="CMG-3T" lat="37.9532" lon="40.1393">
    <comp name="--.HHN">
      <acc value="0.1284646497" flag="0"/>
      <vel value="0.2374934216" flag="0"/>
      <psa03 value="0.1242034592" flag="0"/>
      <psa10 value="0.3823788419" flag="0"/>
      <psa30 value="0.0765994466" flag="0"/>
    </comp>
    <comp name="--.HHZ">
      <acc value="0.0567911646" flag="0"/>
      <vel value="0.1050313674" flag="0"/>
      <psa03 value="0.0963641232" flag="0"/>
      <psa10 value="0.2143395446" flag="0"/>
      <psa30 value="0.0324787901" flag="0"/>
    </comp>
    <comp name="--.HHE">
      <acc value="0.1022337481" flag="0"/>
      <vel value="0.1787781953" flag="0"/>
      <psa03 value="0.1285268988" flag="0"/>
      <psa10 value="0.4410798723" flag="0"/>
      <psa30 value="0.0516035963" flag="0"/>
    </comp>
  </station>
  <station code="GAZ" name="GAZ" netid="KO" insttype="CMG-3T" lat="37.1721" lon="37.2096">
    <comp name="--.HHZ">
      <acc value="0.0672017146" flag="0"/>
      <vel value="0.0616000880" flag="0"/>
      <psa03 value="0.1351217593" flag="0"/>
      <psa10 value="0.0932862281" flag="0"/>
      <psa30 value="0.0307220367" flag="0"/>
    </comp>
    <comp name="--.HHE">
      <acc value="0.0781635842" flag="0"/>
      <vel value="0.1216690670" flag="0"/>
      <psa03 value="0.1601612632" flag="0"/>
      <psa10 value="0.2087613079" flag="0"/>
      <psa30 value="0.0394645680" flag="0"/>
    </comp>
    <comp name="--.HHN">
      <acc value="0.0699527235" flag="0"/>
      <vel value="0.1081626649" flag="0"/>
      <psa03 value="0.1408326598" flag="0"/>
      <psa10 value="0.1260438680" flag="0"/>
      <psa30 value="0.0538497883" flag="0"/>
    </comp>
  </station>
  <station code="KHMN" name="KHMN" netid="KO" insttype="CMG-5T" lat="37.3916" lon="37.1574">
    <comp name="--.HNE">
      <acc value="0.1118943138" flag="0"/>
      <vel value="0.0808014063" flag="0"/>
      <psa03 value="0.2255803019" flag="0"/>
      <psa10 value="0.0704285753" flag="0"/>
      <psa30 value="0.0276436338" flag="0"/>
    </comp>
    <comp name="--.HNN">
      <acc value="0.1143471981" flag="0"/>
      <vel value="0.0910752608" flag="0"/>
      <psa03 value="0.3038846385" flag="0"/>
      <psa10 value="0.0746370072" flag="0"/>
      <psa30 value="0.0456288928" flag="0"/>
    </comp>
    <comp name="--.HNZ">
      <acc value="0.0509326913" flag="0"/>
      <vel value="0.0563004818" flag="0"/>
      <psa03 value="0.1155505601" flag="0"/>
      <psa10 value="0.0777053477" flag="0"/>
      <psa30 value="0.0404433062" flag="0"/>
    </comp>
  </station>
  <station code="KMRS" name="KMRS" netid="KO" insttype="CMG-3T" lat="37.5053" lon="36.9">
    <comp name="--.HHE">
      <acc value="0.0489921980" flag="0"/>
      <vel value="0.0622622893" flag="0"/>
      <psa03 value="0.1196627677" flag="0"/>
      <psa10 value="0.0988866402" flag="0"/>
      <psa30 value="0.0257947323" flag="0"/>
    </comp>
    <comp name="--.HHZ">
      <acc value="0.0532618174" flag="0"/>
      <vel value="0.0602736410" flag="0"/>
      <psa03 value="0.1063461797" flag="0"/>
      <psa10 value="0.0565657552" flag="0"/>
      <psa30 value="0.0322396929" flag="0"/>
    </comp>
    <comp name="--.HHN">
      <acc value="0.0667056371" flag="0"/>
      <vel value="0.0926287599" flag="0"/>
      <psa03 value="0.1200151763" flag="0"/>
      <psa10 value="0.1631400102" flag="0"/>
      <psa30 value="0.0275750039" flag="0"/>
    </comp>
  </station>
  <station code="SARI" name="SARI" netid="KO" insttype="CMG-3T" lat="38.4072" lon="36.4181">
    <comp name="--.HHZ">
      <acc value="0.0321478872" flag="0"/>
      <vel value="0.0531830266" flag="0"/>
      <psa03 value="0.0771461932" flag="0"/>
      <psa10 value="0.0810915655" flag="0"/>
      <psa30 value="0.0245541158" flag="0"/>
    </comp>
    <comp name="--.HHE">
      <acc value="0.0415656659" flag="0"/>
      <vel value="0.0636180605" flag="0"/>
      <psa03 value="0.0807008696" flag="0"/>
      <psa10 value="0.0934737248" flag="0"/>
      <psa30 value="0.0215126011" flag="0"/>
    </comp>
    <comp name="--.HHN">
      <acc value="0.0513468023" flag="0"/>
      <vel value="0.0697257483" flag="0"/>
      <psa03 value="0.1041619782" flag="0"/>
      <psa10 value="0.1288436360" flag="0"/>
      <psa30 value="0.0323255867" flag="0"/>
    </comp>
  </station>
  <station code="SVRC" name="SVRC" netid="KO" insttype="CMG-3T" lat="38.3775" lon="39.306">
    <comp name="--.HHE">
      <acc value="0.1474713916" flag="0"/>
      <vel value="0.1649084113" flag="0"/>
      <psa03 value="0.3629813097" flag="0"/>
      <psa10 value="0.2168233847" flag="0"/>
      <psa30 value="0.0630656669" flag="0"/>
    </comp>
    <comp name="--.HHN">
      <acc value="0.1129732429" flag="0"/>
      <vel value="0.1641919510" flag="0"/>
      <psa03 value="0.3342123697" flag="0"/>
      <psa10 value="0.1942170596" flag="0"/>
      <psa30 value="0.0766834496" flag="0"/>
    </comp>
    <comp name="--.HHZ">
      <acc value="0.1071269921" flag="0"/>
      <vel value="0.1042195332" flag="0"/>
      <psa03 value="0.1989930138" flag="0"/>
      <psa10 value="0.2064557563" flag="0"/>
      <psa30 value="0.0406880657" flag="0"/>
    </comp>
  </station>
  <station code="TUNC" name="TUNC" netid="KO" insttype="CMG-5T" lat="39.6942" lon="37.5388">
    <comp name="--.HNN">
      <acc value="0.1036519682" flag="0"/>
      <vel value="0.0927204106" flag="0"/>
      <psa03 value="0.2801551426" flag="0"/>
      <psa10 value="0.1766879738" flag="0"/>
      <psa30 value="0.0258308339" flag="0"/>
    </comp>
    <comp name="--.HNE">
      <acc value="0.1381694296" flag="0"/>
      <vel value="0.1214939389" flag="0"/>
      <psa03 value="0.2901257827" flag="0"/>
      <psa10 value="0.1718306484" flag="0"/>
      <psa30 value="0.0208446721" flag="0"/>
    </comp>
    <comp name="--.HNZ">
      <acc value="0.0640951733" flag="0"/>
      <vel value="0.0617894921" flag="0"/>
      <psa03 value="0.1256498713" flag="0"/>
      <psa10 value="0.1241971855" flag="0"/>
      <psa30 value="0.0307256293" flag="0"/>
    </comp>
  </station>
  <station code="URFA" name="URFA" netid="KO" insttype="CMG-3ESP" lat="37.4409" lon="38.8213">
    <comp name="--.HHN">
      <acc value="0.1642038630" flag="0"/>
      <vel value="0.1620465796" flag="0"/>
      <psa03 value="0.2297796560" flag="0"/>
      <psa10 value="0.2194670617" flag="0"/>
      <psa30 value="0.0773251584" flag="0"/>
    </comp>
  </station>
</stationlist>
