<stationlist created="1778069564">
	<station code="IMMV" name="IMMV" netid="GE" source="GEOFON" insttype="" lat="35.4606" lon="23.9811">
		<comp name="--.HNE" depth="0.0">
			<acc value="0.00133741836464957" flag="0"/>
			<vel value="0.00156163278971105" flag="0"/>
			<psa03 value="0.00313195446327902" flag="0"/>
			<psa10 value="0.00310063491864623" flag="0"/>
			<psa30 value="0.000389704619645147" flag="0"/>
		</comp>
		<comp name="--.HNN" depth="0.0">
			<acc value="0.00110349832787801" flag="0"/>
			<vel value="0.00163691719520111" flag="0"/>
			<psa03 value="0.00255030577724149" flag="0"/>
			<psa10 value="0.00282681261414241" flag="0"/>
			<psa30 value="0.000450554020645997" flag="0"/>
		</comp>
		<comp name="--.HNZ" depth="0.0">
			<acc value="0.000927690899922382" flag="0"/>
			<vel value="0.00124323972833046" flag="0"/>
			<psa03 value="0.00277401681033285" flag="0"/>
			<psa10 value="0.00157447825089698" flag="0"/>
			<psa30 value="0.000234896584745927" flag="0"/>
		</comp>
	</station>
	<station code="KARP" name="KARP" netid="GE" source="GEOFON" insttype="" lat="35.5471" lon="27.16106">
		<comp name="--.HNE" depth="0.0">
			<acc value="0.000805639071027322" flag="0"/>
			<vel value="0.00171727786609098" flag="0"/>
			<psa03 value="0.00134226619854815" flag="0"/>
			<psa10 value="0.00199326530484401" flag="0"/>
			<psa30 value="0.000548092031073829" flag="0"/>
		</comp>
		<comp name="--.HNN" depth="0.0">
			<acc value="0.000869947568661535" flag="0"/>
			<vel value="0.00152046814764542" flag="0"/>
			<psa03 value="0.00125278178531161" flag="0"/>
			<psa10 value="0.00205366728377867" flag="0"/>
			<psa30 value="0.000446527222050352" flag="0"/>
		</comp>
		<comp name="--.HNZ" depth="0.0">
			<acc value="0.000651929472270996" flag="0"/>
			<vel value="0.00150339770461243" flag="0"/>
			<psa03 value="0.00116329737207507" flag="0"/>
			<psa10 value="0.00162682663264036" flag="0"/>
			<psa30 value="0.000553461095868022" flag="0"/>
		</comp>
	</station>
	<station code="IMMV" name="IMMV" netid="HL" source="National Observatory of Athens Seismic Network" insttype="" lat="35.4606" lon="23.9811">
		<comp name="--.HNE" depth="0.0">
			<acc value="0.00133811431879545" flag="0"/>
			<vel value="0.00162440126754371" flag="0"/>
			<psa03 value="0.00308721225666075" flag="0"/>
			<psa10 value="0.00303620614111592" flag="0"/>
			<psa30 value="0.000381651022453858" flag="0"/>
		</comp>
		<comp name="--.HNN" depth="0.0">
			<acc value="0.00109195737168963" flag="0"/>
			<vel value="0.00171554752267743" flag="0"/>
			<psa03 value="0.00250556357062322" flag="0"/>
			<psa10 value="0.00277043743380339" flag="0"/>
			<psa30 value="0.000441605579322342" flag="0"/>
		</comp>
		<comp name="--.HNZ" depth="0.0">
			<acc value="0.000917659264759049" flag="0"/>
			<vel value="0.00113872176302446" flag="0"/>
			<psa03 value="0.00268453239709631" flag="0"/>
			<psa10 value="0.00154226386213183" flag="0"/>
			<psa30 value="0.000229974942017917" flag="0"/>
		</comp>
	</station>
</stationlist>
