<?xml version="1.0" encoding="UTF-8" standalone="yes"?>
<!DOCTYPE earthquake SYSTEM "stationlist.dtd">
<stationlist created="" xmlns="ch.ethz.sed.shakemap.usgs.xml">
  <station code="ZKR" name="ZKR" netid="GE" insttype="STS-2/N" lat="35.1147" lon="26.2169">
    <comp name="--.HHN">
      <acc value="0.0078755217" flag="0"/>
      <vel value="0.0027569328" flag="0"/>
      <psa03 value="0.0074794698" flag="0"/>
      <psa10 value="0.0028714055" flag="0"/>
      <psa30 value="0.0002879306" flag="0"/>
    </comp>
    <comp name="--.HHE">
      <acc value="0.0067307880" flag="0"/>
      <vel value="0.0051108715" flag="0"/>
      <psa03 value="0.0167707538" flag="0"/>
      <psa10 value="0.0058992334" flag="0"/>
      <psa30 value="0.0019428021" flag="0"/>
    </comp>
    <comp name="--.HHZ">
      <acc value="0.0054580361" flag="0"/>
      <vel value="0.0023257056" flag="0"/>
      <psa03 value="0.0100055081" flag="0"/>
      <psa10 value="0.0038630545" flag="0"/>
      <psa30 value="0.0010865035" flag="0"/>
    </comp>
  </station>
  <station code="IDI" name="IDI" netid="HL" insttype="120" lat="35.288" lon="24.89">
    <comp name="--.HHE">
      <acc value="0.0014088429" flag="0"/>
      <vel value="0.0014937849" flag="0"/>
      <psa03 value="0.0029402182" flag="0"/>
      <psa10 value="0.0018808182" flag="0"/>
      <psa30 value="0.0003078289" flag="0"/>
    </comp>
    <comp name="--.HHN">
      <acc value="0.0014799747" flag="0"/>
      <vel value="0.0015754111" flag="0"/>
      <psa03 value="0.0033660898" flag="0"/>
      <psa10 value="0.0025587179" flag="0"/>
      <psa30 value="0.0002982680" flag="0"/>
    </comp>
    <comp name="--.HHZ">
      <acc value="0.0013450516" flag="0"/>
      <vel value="0.0011722858" flag="0"/>
      <psa03 value="0.0031495107" flag="0"/>
      <psa10 value="0.0017054526" flag="0"/>
      <psa30 value="0.0003424390" flag="0"/>
    </comp>
  </station>
  <station code="NPS" name="NPS" netid="HL" insttype="CMG3ESPC-120s" lat="35.2613" lon="25.6104">
    <comp name="--.HHN">
      <acc value="0.0074754481" flag="0"/>
      <vel value="0.0028233590" flag="0"/>
      <psa03 value="0.0078985837" flag="0"/>
      <psa10 value="0.0058109546" flag="0"/>
      <psa30 value="0.0005917282" flag="0"/>
    </comp>
    <comp name="--.HHE">
      <acc value="0.0027353334" flag="0"/>
      <vel value="0.0015386877" flag="0"/>
      <psa03 value="0.0035562270" flag="0"/>
      <psa10 value="0.0028260359" flag="0"/>
      <psa30 value="0.0002372167" flag="0"/>
    </comp>
    <comp name="--.HHZ">
      <acc value="0.0045332728" flag="0"/>
      <vel value="0.0023616369" flag="0"/>
      <psa03 value="0.0073226502" flag="0"/>
      <psa10 value="0.0036898021" flag="0"/>
      <psa30 value="0.0008190270" flag="0"/>
    </comp>
  </station>
  <station code="ZKR" name="ZKR" netid="HL" insttype="120" lat="35.1147" lon="26.2169">
    <comp name="--.HHE">
      <acc value="0.0066364798" flag="0"/>
      <vel value="0.0051008130" flag="0"/>
      <psa03 value="0.0163220162" flag="0"/>
      <psa10 value="0.0058670069" flag="0"/>
      <psa30 value="0.0019438383" flag="0"/>
    </comp>
    <comp name="--.HHN">
      <acc value="0.0076203399" flag="0"/>
      <vel value="0.0026865810" flag="0"/>
      <psa03 value="0.0072740046" flag="0"/>
      <psa10 value="0.0028522423" flag="0"/>
      <psa30 value="0.0002876004" flag="0"/>
    </comp>
    <comp name="--.HHZ">
      <acc value="0.0053281027" flag="0"/>
      <vel value="0.0023075547" flag="0"/>
      <psa03 value="0.0097209864" flag="0"/>
      <psa10 value="0.0038451696" flag="0"/>
      <psa30 value="0.0010869435" flag="0"/>
    </comp>
  </station>
  <station code="IDI" name="IDI" netid="MN" insttype="" lat="35.288" lon="24.89">
    <comp name="--.HHE">
      <acc value="0.0014233234" flag="0"/>
      <vel value="0.0014981356" flag="0"/>
      <psa03 value="0.0029589550" flag="0"/>
      <psa10 value="0.0018688792" flag="0"/>
      <psa30 value="0.0003040652" flag="0"/>
    </comp>
    <comp name="--.HHN">
      <acc value="0.0014831251" flag="0"/>
      <vel value="0.0015768063" flag="0"/>
      <psa03 value="0.0033835324" flag="0"/>
      <psa10 value="0.0025402908" flag="0"/>
      <psa30 value="0.0002947854" flag="0"/>
    </comp>
    <comp name="--.HHZ">
      <acc value="0.0013585839" flag="0"/>
      <vel value="0.0011680200" flag="0"/>
      <psa03 value="0.0032119816" flag="0"/>
      <psa10 value="0.0016945940" flag="0"/>
      <psa30 value="0.0003382920" flag="0"/>
    </comp>
  </station>
</stationlist>
