<?xml version="1.0" encoding="UTF-8" standalone="yes"?>
<!DOCTYPE earthquake SYSTEM "stationlist.dtd">
<stationlist created="" xmlns="ch.ethz.sed.shakemap.usgs.xml">
  <station code="ANTB" name="ANTB" netid="KO" insttype="CMG-3T" lat="36.8998" lon="30.6538">
    <comp name="--.HHE">
      <acc value="0.0632139400" flag="0"/>
      <vel value="0.0653983552" flag="0"/>
      <psa03 value="0.1448438155" flag="0"/>
      <psa10 value="0.0975966750" flag="0"/>
      <psa30 value="0.0123471383" flag="0"/>
    </comp>
    <comp name="--.HHN">
      <acc value="0.0521042918" flag="0"/>
      <vel value="0.0552632659" flag="0"/>
      <psa03 value="0.1287329677" flag="0"/>
      <psa10 value="0.0726428223" flag="0"/>
      <psa30 value="0.0108615641" flag="0"/>
    </comp>
    <comp name="--.HHZ">
      <acc value="0.0536243807" flag="0"/>
      <vel value="0.0560125534" flag="0"/>
      <psa03 value="0.1060307868" flag="0"/>
      <psa10 value="0.0728672363" flag="0"/>
      <psa30 value="0.0061097521" flag="0"/>
    </comp>
  </station>
  <station code="CAME" name="CAME" netid="KO" insttype="CMG-5T" lat="36.9435" lon="29.3023">
    <comp name="--.HNE">
      <acc value="0.0829950994" flag="0"/>
      <vel value="0.0569058098" flag="0"/>
      <psa03 value="0.2905759073" flag="0"/>
      <psa10 value="0.0570476771" flag="0"/>
      <psa30 value="0.0077082270" flag="0"/>
    </comp>
    <comp name="--.HNN">
      <acc value="0.0802122290" flag="0"/>
      <vel value="0.0509519478" flag="0"/>
      <psa03 value="0.2135153508" flag="0"/>
      <psa10 value="0.0495209567" flag="0"/>
      <psa30 value="0.0061037450" flag="0"/>
    </comp>
    <comp name="--.HNZ">
      <acc value="0.0439785029" flag="0"/>
      <vel value="0.0369668991" flag="0"/>
      <psa03 value="0.1447489245" flag="0"/>
      <psa10 value="0.0580290752" flag="0"/>
      <psa30 value="0.0056775413" flag="0"/>
    </comp>
  </station>
  <station code="DALY" name="DALY" netid="KO" insttype="CMG-3T" lat="36.8162" lon="28.6532">
    <comp name="--.HHZ">
      <acc value="0.0183265125" flag="0"/>
      <vel value="0.0149467141" flag="0"/>
      <psa03 value="0.0347912164" flag="0"/>
      <psa10 value="0.0202491509" flag="0"/>
      <psa30 value="0.0029976392" flag="0"/>
    </comp>
    <comp name="--.HHE">
      <acc value="0.0443996506" flag="0"/>
      <vel value="0.0310999741" flag="0"/>
      <psa03 value="0.1092478449" flag="0"/>
      <psa10 value="0.0236583471" flag="0"/>
      <psa30 value="0.0029166936" flag="0"/>
    </comp>
    <comp name="--.HHN">
      <acc value="0.0527300153" flag="0"/>
      <vel value="0.0287863475" flag="0"/>
      <psa03 value="0.0831740866" flag="0"/>
      <psa10 value="0.0559604454" flag="0"/>
      <psa30 value="0.0036596487" flag="0"/>
    </comp>
  </station>
  <station code="DEMR" name="DEMR" netid="KO" insttype="CMG-5T" lat="36.2365" lon="29.9056">
    <comp name="--.HNE">
      <acc value="0.3931968455" flag="0"/>
      <vel value="0.2188725960" flag="0"/>
      <psa03 value="0.8952767205" flag="0"/>
      <psa10 value="0.2938810064" flag="0"/>
      <psa30 value="0.0222918526" flag="0"/>
    </comp>
    <comp name="--.HNN">
      <acc value="0.1979661479" flag="0"/>
      <vel value="0.1397694019" flag="0"/>
      <psa03 value="0.6834533643" flag="0"/>
      <psa10 value="0.1675935102" flag="0"/>
      <psa30 value="0.0143678445" flag="0"/>
    </comp>
    <comp name="--.HNZ">
      <acc value="0.1830939458" flag="0"/>
      <vel value="0.0908429049" flag="0"/>
      <psa03 value="0.4892151902" flag="0"/>
      <psa10 value="0.1089331211" flag="0"/>
      <psa30 value="0.0105023826" flag="0"/>
    </comp>
  </station>
  <station code="ELL" name="ELL" netid="KO" insttype="CMG-3T" lat="36.7483" lon="29.9085">
    <comp name="--.HHE">
      <acc value="0.0331060521" flag="0"/>
      <vel value="0.0241079931" flag="0"/>
      <psa03 value="0.0887020973" flag="0"/>
      <psa10 value="0.0488902907" flag="0"/>
      <psa30 value="0.0062256574" flag="0"/>
    </comp>
    <comp name="--.HHZ">
      <acc value="0.0323408407" flag="0"/>
      <vel value="0.0205966152" flag="0"/>
      <psa03 value="0.0526029958" flag="0"/>
      <psa10 value="0.0395300937" flag="0"/>
      <psa30 value="0.0033401784" flag="0"/>
    </comp>
    <comp name="--.HHN">
      <acc value="0.0514915651" flag="0"/>
      <vel value="0.0357256221" flag="0"/>
      <psa03 value="0.0861628498" flag="0"/>
      <psa10 value="0.0633355857" flag="0"/>
      <psa30 value="0.0046830502" flag="0"/>
    </comp>
  </station>
  <station code="FETY" name="FETY" netid="KO" insttype="CMG-3ESP" lat="36.6353" lon="29.0835">
    <comp name="--.HHZ">
      <acc value="0.0481646734" flag="0"/>
      <vel value="0.0343853898" flag="0"/>
      <psa03 value="0.1175131714" flag="0"/>
      <psa10 value="0.0451168187" flag="0"/>
      <psa30 value="0.0061615891" flag="0"/>
    </comp>
    <comp name="--.HHE">
      <acc value="0.0713646826" flag="0"/>
      <vel value="0.0530467046" flag="0"/>
      <psa03 value="0.1785717691" flag="0"/>
      <psa10 value="0.0654075983" flag="0"/>
      <psa30 value="0.0067643677" flag="0"/>
    </comp>
  </station>
  <station code="KEMT" name="KEMT" netid="KO" insttype="CMG-5T" lat="36.6037" lon="30.5558">
    <comp name="--.HNE">
      <acc value="0.2009659002" flag="0"/>
      <vel value="0.0995422571" flag="0"/>
      <psa03 value="0.7987982991" flag="0"/>
      <psa10 value="0.1002628425" flag="0"/>
      <psa30 value="0.0070787095" flag="0"/>
    </comp>
    <comp name="--.HNN">
      <acc value="0.2295908104" flag="0"/>
      <vel value="0.0798719247" flag="0"/>
      <psa03 value="0.3766996656" flag="0"/>
      <psa10 value="0.0667843592" flag="0"/>
      <psa30 value="0.0090555555" flag="0"/>
    </comp>
    <comp name="--.HNZ">
      <acc value="0.0754235727" flag="0"/>
      <vel value="0.0322490146" flag="0"/>
      <psa03 value="0.1269614530" flag="0"/>
      <psa10 value="0.0437603886" flag="0"/>
      <psa30 value="0.0025886429" flag="0"/>
    </comp>
  </station>
</stationlist>
