<?xml version="1.0" encoding="UTF-8" standalone="yes"?>
<!DOCTYPE earthquake SYSTEM "stationlist.dtd">
<stationlist created="" xmlns="ch.ethz.sed.shakemap.usgs.xml">
  <station code="DARE" name="DARE" netid="KO" insttype="CMG-3ESP" lat="38.5712" lon="37.4832">
    <comp name="--.HHN">
      <acc value="0.0085260188" flag="0"/>
      <vel value="0.0034638696" flag="0"/>
      <psa03 value="0.0167194821" flag="0"/>
      <psa10 value="0.0042903682" flag="0"/>
      <psa30 value="0.0007075202" flag="0"/>
    </comp>
    <comp name="--.HHZ">
      <acc value="0.0137028063" flag="0"/>
      <vel value="0.0055139854" flag="0"/>
      <psa03 value="0.0260950027" flag="0"/>
      <psa10 value="0.0035087380" flag="0"/>
      <psa30 value="0.0007793493" flag="0"/>
    </comp>
    <comp name="--.HHE">
      <acc value="0.0108982018" flag="0"/>
      <vel value="0.0043726776" flag="0"/>
      <psa03 value="0.0318823608" flag="0"/>
      <psa10 value="0.0028041962" flag="0"/>
      <psa30 value="0.0003817605" flag="0"/>
    </comp>
  </station>
  <station code="GAZ" name="GAZ" netid="KO" insttype="CMG-3T" lat="37.1721" lon="37.2096">
    <comp name="--.HHE">
      <acc value="0.0147774071" flag="0"/>
      <vel value="0.0050538191" flag="0"/>
      <psa03 value="0.0371853702" flag="0"/>
      <psa10 value="0.0042093160" flag="0"/>
      <psa30 value="0.0003128515" flag="0"/>
    </comp>
    <comp name="--.HHN">
      <acc value="0.0094854453" flag="0"/>
      <vel value="0.0040041245" flag="0"/>
      <psa03 value="0.0191345335" flag="0"/>
      <psa10 value="0.0034186992" flag="0"/>
      <psa30 value="0.0003180600" flag="0"/>
    </comp>
    <comp name="--.HHZ">
      <acc value="0.0093013123" flag="0"/>
      <vel value="0.0032491572" flag="0"/>
      <psa03 value="0.0232010133" flag="0"/>
      <psa10 value="0.0023870613" flag="0"/>
      <psa30 value="0.0002038582" flag="0"/>
    </comp>
  </station>
  <station code="KHMN" name="KHMN" netid="KO" insttype="CMG-5T" lat="37.3916" lon="37.1574">
    <comp name="--.HNE">
      <acc value="0.0236794301" flag="0"/>
      <vel value="0.0084355923" flag="0"/>
      <psa03 value="0.0307393292" flag="0"/>
      <psa10 value="0.0026475739" flag="0"/>
      <psa30 value="0.0004067293" flag="0"/>
    </comp>
    <comp name="--.HNN">
      <acc value="0.0215442273" flag="0"/>
      <vel value="0.0066274656" flag="0"/>
      <psa03 value="0.0217755522" flag="0"/>
      <psa10 value="0.0020052083" flag="0"/>
      <psa30 value="0.0003353120" flag="0"/>
    </comp>
    <comp name="--.HNZ">
      <acc value="0.0157483869" flag="0"/>
      <vel value="0.0035231656" flag="0"/>
      <psa03 value="0.0143701530" flag="0"/>
      <psa10 value="0.0016595544" flag="0"/>
      <psa30 value="0.0003159913" flag="0"/>
    </comp>
  </station>
  <station code="KMRS" name="KMRS" netid="KO" insttype="CMG-3T" lat="37.5053" lon="36.9">
    <comp name="--.HHE">
      <acc value="0.0091900063" flag="0"/>
      <vel value="0.0043911816" flag="0"/>
      <psa03 value="0.0264785560" flag="0"/>
      <psa10 value="0.0034996918" flag="0"/>
      <psa30 value="0.0003170596" flag="0"/>
    </comp>
    <comp name="--.HHZ">
      <acc value="0.0056844219" flag="0"/>
      <vel value="0.0028744123" flag="0"/>
      <psa03 value="0.0187876593" flag="0"/>
      <psa10 value="0.0017634098" flag="0"/>
      <psa30 value="0.0002755419" flag="0"/>
    </comp>
    <comp name="--.HHN">
      <acc value="0.0149063890" flag="0"/>
      <vel value="0.0064558651" flag="0"/>
      <psa03 value="0.0304458087" flag="0"/>
      <psa10 value="0.0067055375" flag="0"/>
      <psa30 value="0.0004150426" flag="0"/>
    </comp>
  </station>
  <station code="URFA" name="URFA" netid="KO" insttype="CMG-3ESP" lat="37.4409" lon="38.8213">
    <comp name="--.HHN">
      <acc value="0.1622712389" flag="0"/>
      <vel value="0.0359960753" flag="0"/>
      <psa03 value="0.1224266887" flag="0"/>
      <psa10 value="0.0183700207" flag="0"/>
      <psa30 value="0.0008120869" flag="0"/>
    </comp>
    <comp name="--.HHE">
      <acc value="0.1587616193" flag="0"/>
      <vel value="0.0433187549" flag="0"/>
      <psa03 value="0.2175308847" flag="0"/>
      <psa10 value="0.0096765943" flag="0"/>
      <psa30 value="0.0009819322" flag="0"/>
    </comp>
    <comp name="--.HHZ">
      <acc value="0.0923956550" flag="0"/>
      <vel value="0.0163873540" flag="0"/>
      <psa03 value="0.0992693471" flag="0"/>
      <psa10 value="0.0065239386" flag="0"/>
      <psa30 value="0.0004363711" flag="0"/>
    </comp>
  </station>
</stationlist>
