<?xml version="1.0" encoding="UTF-8" standalone="yes"?>
<!DOCTYPE earthquake SYSTEM "stationlist.dtd">
<stationlist created="" xmlns="ch.ethz.sed.shakemap.usgs.xml">
  <station code="DARE" name="DARE" netid="KO" insttype="CMG-3ESP" lat="38.5712" lon="37.4832">
    <comp name="--.HHN">
      <acc value="0.0085260188" flag="0"/>
      <vel value="0.0034638680" flag="0"/>
      <psa03 value="0.0167194821" flag="0"/>
      <psa10 value="0.0042903682" flag="0"/>
      <psa30 value="0.0007075032" flag="0"/>
    </comp>
    <comp name="--.HHZ">
      <acc value="0.0137028063" flag="0"/>
      <vel value="0.0055139845" flag="0"/>
      <psa03 value="0.0260950027" flag="0"/>
      <psa10 value="0.0035087381" flag="0"/>
      <psa30 value="0.0007793468" flag="0"/>
    </comp>
    <comp name="--.HHE">
      <acc value="0.0108982019" flag="0"/>
      <vel value="0.0043726788" flag="0"/>
      <psa03 value="0.0318823608" flag="0"/>
      <psa10 value="0.0028041962" flag="0"/>
      <psa30 value="0.0003817665" flag="0"/>
    </comp>
  </station>
  <station code="GAZ" name="GAZ" netid="KO" insttype="CMG-3T" lat="37.1721" lon="37.2096">
    <comp name="--.HHE">
      <acc value="0.0147774075" flag="0"/>
      <vel value="0.0050538195" flag="0"/>
      <psa03 value="0.0371853702" flag="0"/>
      <psa10 value="0.0042093160" flag="0"/>
      <psa30 value="0.0003128484" flag="0"/>
    </comp>
    <comp name="--.HHN">
      <acc value="0.0094854457" flag="0"/>
      <vel value="0.0040041255" flag="0"/>
      <psa03 value="0.0191345335" flag="0"/>
      <psa10 value="0.0034186992" flag="0"/>
      <psa30 value="0.0003180653" flag="0"/>
    </comp>
    <comp name="--.HHZ">
      <acc value="0.0093013129" flag="0"/>
      <vel value="0.0032491567" flag="0"/>
      <psa03 value="0.0232010133" flag="0"/>
      <psa10 value="0.0023870613" flag="0"/>
      <psa30 value="0.0002038605" flag="0"/>
    </comp>
  </station>
  <station code="KHMN" name="KHMN" netid="KO" insttype="CMG-5T" lat="37.3916" lon="37.1574">
    <comp name="--.HNN">
      <acc value="0.0215442319" flag="0"/>
      <vel value="0.0066274701" flag="0"/>
      <psa03 value="0.0217755522" flag="0"/>
      <psa10 value="0.0020052083" flag="0"/>
      <psa30 value="0.0003352987" flag="0"/>
    </comp>
    <comp name="--.HNE">
      <acc value="0.0236794271" flag="0"/>
      <vel value="0.0084355804" flag="0"/>
      <psa03 value="0.0307393292" flag="0"/>
      <psa10 value="0.0026475746" flag="0"/>
      <psa30 value="0.0004067106" flag="0"/>
    </comp>
    <comp name="--.HNZ">
      <acc value="0.0157483998" flag="0"/>
      <vel value="0.0035231557" flag="0"/>
      <psa03 value="0.0143701530" flag="0"/>
      <psa10 value="0.0016595544" flag="0"/>
      <psa30 value="0.0003158567" flag="0"/>
    </comp>
  </station>
  <station code="KMRS" name="KMRS" netid="KO" insttype="CMG-3T" lat="37.5053" lon="36.9">
    <comp name="--.HHE">
      <acc value="0.0091900062" flag="0"/>
      <vel value="0.0043911817" flag="0"/>
      <psa03 value="0.0264785560" flag="0"/>
      <psa10 value="0.0034996917" flag="0"/>
      <psa30 value="0.0003170616" flag="0"/>
    </comp>
    <comp name="--.HHZ">
      <acc value="0.0056844219" flag="0"/>
      <vel value="0.0028744124" flag="0"/>
      <psa03 value="0.0187876593" flag="0"/>
      <psa10 value="0.0017634097" flag="0"/>
      <psa30 value="0.0002755373" flag="0"/>
    </comp>
  </station>
  <station code="URFA" name="URFA" netid="KO" insttype="CMG-3ESP" lat="37.4409" lon="38.8213">
    <comp name="--.HHE">
      <acc value="0.1587616192" flag="0"/>
      <vel value="0.0433187537" flag="0"/>
      <psa03 value="0.2175308847" flag="0"/>
      <psa10 value="0.0096765941" flag="0"/>
      <psa30 value="0.0009819603" flag="0"/>
    </comp>
    <comp name="--.HHZ">
      <acc value="0.0923956548" flag="0"/>
      <vel value="0.0163873552" flag="0"/>
      <psa03 value="0.0992693471" flag="0"/>
      <psa10 value="0.0065239385" flag="0"/>
      <psa30 value="0.0004363675" flag="0"/>
    </comp>
    <comp name="--.HHN">
      <acc value="0.1622712390" flag="0"/>
      <vel value="0.0359960783" flag="0"/>
      <psa03 value="0.1224266887" flag="0"/>
      <psa10 value="0.0183700208" flag="0"/>
      <psa30 value="0.0008121745" flag="0"/>
    </comp>
  </station>
</stationlist>
