<?xml version="1.0" encoding="UTF-8" standalone="yes"?>
<!DOCTYPE earthquake SYSTEM "stationlist.dtd">
<stationlist created="" xmlns="ch.ethz.sed.shakemap.usgs.xml">
  <station code="GIL" name="GIL" netid="VI" insttype="CMG-3ESP" lat="66.0773" lon="-16.3513">
    <comp name="--.HHE">
      <acc value="0.1098823004" flag="0"/>
      <vel value="0.0753980629" flag="0"/>
      <psa03 value="0.1791357654" flag="0"/>
      <psa10 value="0.0859301209" flag="0"/>
      <psa30 value="0.0084709025" flag="0"/>
    </comp>
    <comp name="--.HHN">
      <acc value="0.1181891714" flag="0"/>
      <vel value="0.0604418828" flag="0"/>
      <psa03 value="0.1685793053" flag="0"/>
      <psa10 value="0.0708089406" flag="0"/>
      <psa30 value="0.0070118472" flag="0"/>
    </comp>
    <comp name="--.HHZ">
      <acc value="0.0753868883" flag="0"/>
      <vel value="0.0198819623" flag="0"/>
      <psa03 value="0.0631184108" flag="0"/>
      <psa10 value="0.0254019889" flag="0"/>
      <psa30 value="0.0072926109" flag="0"/>
    </comp>
  </station>
</stationlist>
