<stationlist xmlns:esm="https://esm-db.eu/esmws/shakemap/1/" created="1781488482">
	<station code="PHP" name="PHP" netid="AC" source="Albanian Seismological Network (AC)" insttype="" lat="41.6847" lon="20.4408" esm:processing="automatic (Paolucci et al 2011)" esm:quality="best">
		<comp name="01.HNE" depth="0.0">
			<acc value="0.0197509825599047" flag="0"/>
			<vel value="0.0568564402261608" flag="0"/>
			<psa03 value="0.0636732961683788" flag="0"/>
			<psa10 value="0.0642454684469842" flag="0"/>
			<psa30 value="0.0151043339213274" flag="0"/>
		</comp>
		<comp name="01.HNN" depth="0.0">
			<acc value="0.0301982743691473" flag="0"/>
			<vel value="0.0649015483491998" flag="0"/>
			<psa03 value="0.0475381804211476" flag="0"/>
			<psa10 value="0.0811731148204798" flag="0"/>
			<psa30 value="0.0193889277546411" flag="0"/>
		</comp>
		<comp name="01.HNZ" depth="0.0">
			<acc value="0.0179789326025798" flag="0"/>
			<vel value="0.0378600596615561" flag="0"/>
			<psa03 value="0.0427657835441095" flag="0"/>
			<psa10 value="0.0517135182667884" flag="0"/>
			<psa30 value="0.01985990562128" flag="0"/>
		</comp>
	</station>
	<station code="SRN" name="SRN" netid="AC" source="Albanian Seismological Network (AC)" insttype="" lat="39.880001" lon="20.0005" esm:processing="automatic (Paolucci et al 2011)" esm:quality="best">
		<comp name="01.HNE" depth="0.0">
			<acc value="0.632077311500745" flag="0"/>
			<vel value="0.539260063299224" flag="0"/>
			<psa03 value="1.3885211493783" flag="0"/>
			<psa10 value="0.485632900796315" flag="0"/>
			<psa30 value="0.206009273770013" flag="0"/>
		</comp>
		<comp name="01.HNN" depth="0.0">
			<acc value="0.609169830435241" flag="0"/>
			<vel value="0.578315410280209" flag="0"/>
			<psa03 value="1.39825796106096" flag="0"/>
			<psa10 value="0.518436683885952" flag="0"/>
			<psa30 value="0.217596854723715" flag="0"/>
		</comp>
		<comp name="01.HNZ" depth="0.0">
			<acc value="0.691261859163843" flag="0"/>
			<vel value="0.481049178154239" flag="0"/>
			<psa03 value="1.22721296350265" flag="0"/>
			<psa10 value="1.09789861039473" flag="0"/>
			<psa30 value="0.124684539738838" flag="0"/>
		</comp>
	</station>
	<station code="AGRP" name="AGRP" netid="CL" source="Corinth Riff Laboratory (CRLNET)" insttype="" lat="38.3959" lon="21.72277" esm:processing="automatic (Paolucci et al 2011)" esm:quality="best">
		<comp name="00.HNE" depth="0.0">
			<acc value="0.0878679493120177" flag="0"/>
			<vel value="0.13145292109296" flag="0"/>
			<psa03 value="0.168695654425857" flag="0"/>
			<psa10 value="0.191128756342096" flag="0"/>
			<psa30 value="0.0404620204102749" flag="0"/>
		</comp>
		<comp name="00.HNN" depth="0.0">
			<acc value="0.0793886452677553" flag="0"/>
			<vel value="0.124100155780384" flag="0"/>
			<psa03 value="0.221899345575952" flag="0"/>
			<psa10 value="0.203516516970442" flag="0"/>
			<psa30 value="0.0303407065895737" flag="0"/>
		</comp>
		<comp name="00.HNZ" depth="0.0">
			<acc value="0.0610789003661963" flag="0"/>
			<vel value="0.0973274564676704" flag="0"/>
			<psa03 value="0.146763836967253" flag="0"/>
			<psa10 value="0.140589493363958" flag="0"/>
			<psa30 value="0.0165655190510044" flag="0"/>
		</comp>
	</station>
	<station code="ROD3" name="ROD3" netid="CL" source="Corinth Riff Laboratory (CRLNET)" insttype="" lat="38.30811" lon="21.89204" esm:processing="automatic (Paolucci et al 2011)" esm:quality="best">
		<comp name="00.HNE" depth="0.0">
			<acc value="0.136380481739434" flag="0"/>
			<vel value="0.134855828432524" flag="0"/>
			<psa03 value="0.354312929826057" flag="0"/>
			<psa10 value="0.190830236566626" flag="0"/>
			<psa30 value="0.0402170175133687" flag="0"/>
		</comp>
		<comp name="00.HNN" depth="0.0">
			<acc value="0.111331570278035" flag="0"/>
			<vel value="0.142754793931017" flag="0"/>
			<psa03 value="0.440919292072513" flag="0"/>
			<psa10 value="0.149447220144886" flag="0"/>
			<psa30 value="0.0516707796022283" flag="0"/>
		</comp>
		<comp name="00.HNZ" depth="0.0">
			<acc value="0.0562125259487092" flag="0"/>
			<vel value="0.0999442967047889" flag="0"/>
			<psa03 value="0.0856413451938132" flag="0"/>
			<psa10 value="0.187179039692753" flag="0"/>
			<psa30 value="0.0160724780561249" flag="0"/>
		</comp>
	</station>
	<station code="AIA1" name="AIA1" netid="HI" source="ITSAK Strong Motion Network" insttype="" lat="40.1641" lon="21.8202" esm:processing="automatic (Paolucci et al 2011)" esm:quality="best">
		<comp name="--.HNE" depth="0.0">
			<acc value="0.0790093229415937" flag="0"/>
			<vel value="0.0694507387602093" flag="0"/>
			<psa03 value="0.204555988330318" flag="0"/>
			<psa10 value="0.071055484577131" flag="0"/>
			<psa30 value="0.0201600555047368" flag="0"/>
		</comp>
		<comp name="--.HNN" depth="0.0">
			<acc value="0.0693659579567636" flag="0"/>
			<vel value="0.0793030855976609" flag="0"/>
			<psa03 value="0.204681830000044" flag="0"/>
			<psa10 value="0.103851474650519" flag="0"/>
			<psa30 value="0.0218257175133369" flag="0"/>
		</comp>
		<comp name="--.HNZ" depth="0.0">
			<acc value="0.0339943645153096" flag="0"/>
			<vel value="0.0408717504124264" flag="0"/>
			<psa03 value="0.0874432510195641" flag="0"/>
			<psa10 value="0.071184845646667" flag="0"/>
			<psa30 value="0.019653426943081" flag="0"/>
		</comp>
	</station>
	<station code="AIG2" name="AIG2" netid="HI" source="ITSAK Strong Motion Network" insttype="" lat="38.2417" lon="22.0726" esm:processing="automatic (Paolucci et al 2011)" esm:quality="best">
		<comp name="--.HNE" depth="0.0">
			<acc value="0.0576313167488152" flag="0"/>
			<vel value="0.134912921809573" flag="0"/>
			<psa03 value="0.102676551817648" flag="0"/>
			<psa10 value="0.102594908909206" flag="0"/>
			<psa30 value="0.0528345900322909" flag="0"/>
		</comp>
		<comp name="--.HNN" depth="0.0">
			<acc value="0.0605924090416254" flag="0"/>
			<vel value="0.0992542250952508" flag="0"/>
			<psa03 value="0.115187172251519" flag="0"/>
			<psa10 value="0.177479832167855" flag="0"/>
			<psa30 value="0.0370440806552071" flag="0"/>
		</comp>
		<comp name="--.HNZ" depth="0.0">
			<acc value="0.041073056378463" flag="0"/>
			<vel value="0.0643540366620222" flag="0"/>
			<psa03 value="0.0572151652238986" flag="0"/>
			<psa10 value="0.104103581351351" flag="0"/>
			<psa30 value="0.0214961506811516" flag="0"/>
		</comp>
	</station>
	<station code="AKR1" name="AKR1" netid="HI" source="ITSAK Strong Motion Network" insttype="" lat="38.153583" lon="22.31326" esm:processing="automatic (Paolucci et al 2011)" esm:quality="best">
		<comp name="--.HNE" depth="0.0">
			<acc value="0.0511483617819113" flag="0"/>
			<vel value="0.0606027539850166" flag="0"/>
			<psa03 value="0.118696154704385" flag="0"/>
			<psa10 value="0.105017224375717" flag="0"/>
			<psa30 value="0.0210436590391344" flag="0"/>
		</comp>
		<comp name="--.HNN" depth="0.0">
			<acc value="0.060726208809917" flag="0"/>
			<vel value="0.0670646284675874" flag="0"/>
			<psa03 value="0.1754306214177" flag="0"/>
			<psa10 value="0.107252597458213" flag="0"/>
			<psa30 value="0.0332401619975981" flag="0"/>
		</comp>
		<comp name="--.HNZ" depth="0.0">
			<acc value="0.0316218858364911" flag="0"/>
			<vel value="0.0458297572324469" flag="0"/>
			<psa03 value="0.0764687740143225" flag="0"/>
			<psa10 value="0.105634507767712" flag="0"/>
			<psa30 value="0.0182972704377015" flag="0"/>
		</comp>
	</station>
	<station code="ARG2" name="ARG2" netid="HI" source="ITSAK Strong Motion Network" insttype="" lat="38.1783" lon="20.4878" esm:processing="automatic (Paolucci et al 2011)" esm:quality="best">
		<comp name="--.HNE" depth="0.0">
			<acc value="0.354179571972623" flag="0"/>
			<vel value="0.257495489074137" flag="0"/>
			<psa03 value="1.02941327691083" flag="0"/>
			<psa10 value="0.152592268488903" flag="0"/>
			<psa30 value="0.0448715891892321" flag="0"/>
		</comp>
		<comp name="--.HNN" depth="0.0">
			<acc value="0.44029240398926" flag="0"/>
			<vel value="0.297567952382864" flag="0"/>
			<psa03 value="0.850665852437872" flag="0"/>
			<psa10 value="0.383483573904731" flag="0"/>
			<psa30 value="0.0265440800817005" flag="0"/>
		</comp>
		<comp name="--.HNZ" depth="0.0">
			<acc value="0.203861305888734" flag="0"/>
			<vel value="0.15003525122858" flag="0"/>
			<psa03 value="0.9964351756068" flag="0"/>
			<psa10 value="0.130020438215925" flag="0"/>
			<psa30 value="0.0279167110117631" flag="0"/>
		</comp>
	</station>
	<station code="ART2" name="ART2" netid="HI" source="ITSAK Strong Motion Network" insttype="" lat="39.1474" lon="20.9937" esm:processing="automatic (Paolucci et al 2011)" esm:quality="best">
		<comp name="--.HNE" depth="0.0">
			<acc value="0.356746320067488" flag="0"/>
			<vel value="0.336296678737772" flag="0"/>
			<psa03 value="0.813287876330397" flag="0"/>
			<psa10 value="0.405093615463928" flag="0"/>
			<psa30 value="0.0535457271416343" flag="0"/>
		</comp>
		<comp name="--.HNN" depth="0.0">
			<acc value="0.336289472198131" flag="0"/>
			<vel value="0.301346612083539" flag="0"/>
			<psa03 value="0.910846505777472" flag="0"/>
			<psa10 value="0.430499658489592" flag="0"/>
			<psa30 value="0.0691026643790435" flag="0"/>
		</comp>
		<comp name="--.HNZ" depth="0.0">
			<acc value="0.313957168223656" flag="0"/>
			<vel value="0.217855940791687" flag="0"/>
			<psa03 value="0.604038097892853" flag="0"/>
			<psa10 value="0.384007408606209" flag="0"/>
			<psa30 value="0.0528339766583245" flag="0"/>
		</comp>
	</station>
	<station code="JAN3" name="JAN3" netid="HI" source="ITSAK Strong Motion Network" insttype="" lat="39.684" lon="20.8379" esm:processing="automatic (Paolucci et al 2011)" esm:quality="best">
		<comp name="--.HNE" depth="0.0">
			<acc value="9.16280341471776" flag="0"/>
			<vel value="3.63098554852485" flag="0"/>
			<psa03 value="18.2402109911265" flag="0"/>
			<psa10 value="1.44061371358836" flag="0"/>
			<psa30 value="0.201893027755582" flag="0"/>
		</comp>
		<comp name="--.HNN" depth="0.0">
			<acc value="6.24317172804364" flag="0"/>
			<vel value="2.40256899685924" flag="0"/>
			<psa03 value="13.3407544261744" flag="0"/>
			<psa10 value="1.02509182730267" flag="0"/>
			<psa30 value="0.44541401315906" flag="0"/>
		</comp>
		<comp name="--.HNZ" depth="0.0">
			<acc value="6.57643488853686" flag="0"/>
			<vel value="1.35451600949493" flag="0"/>
			<psa03 value="10.1786216170614" flag="0"/>
			<psa10 value="0.766357987455579" flag="0"/>
			<psa30 value="0.139833116591042" flag="0"/>
		</comp>
	</station>
	<station code="KLV1" name="KLV1" netid="HI" source="ITSAK Strong Motion Network" insttype="" lat="38.03256" lon="22.10797" esm:processing="automatic (Paolucci et al 2011)" esm:quality="best">
		<comp name="--.HNE" depth="0.0">
			<acc value="0.0678498177623382" flag="0"/>
			<vel value="0.0965571849572196" flag="0"/>
			<psa03 value="0.183703606962391" flag="0"/>
			<psa10 value="0.191925219103845" flag="0"/>
			<psa30 value="0.014955794081292" flag="0"/>
		</comp>
		<comp name="--.HNN" depth="0.0">
			<acc value="0.0628289149616285" flag="0"/>
			<vel value="0.0958975091910388" flag="0"/>
			<psa03 value="0.178568058424171" flag="0"/>
			<psa10 value="0.183412530179982" flag="0"/>
			<psa30 value="0.0276208364115229" flag="0"/>
		</comp>
		<comp name="--.HNZ" depth="0.0">
			<acc value="0.0401729527048766" flag="0"/>
			<vel value="0.0685064253803677" flag="0"/>
			<psa03 value="0.060068099008427" flag="0"/>
			<psa10 value="0.116699968300166" flag="0"/>
			<psa30 value="0.0170158872190186" flag="0"/>
		</comp>
	</station>
	<station code="KMV1" name="KMV1" netid="HI" source="ITSAK Strong Motion Network" insttype="" lat="38.7794" lon="22.7846" esm:processing="automatic (Paolucci et al 2011)" esm:quality="best">
		<comp name="--.HNE" depth="0.0">
			<acc value="0.108691807443621" flag="0"/>
			<vel value="0.144877491095549" flag="0"/>
			<psa03 value="0.194799050314392" flag="0"/>
			<psa10 value="0.429335461367246" flag="0"/>
			<psa30 value="0.0294661186524152" flag="0"/>
		</comp>
		<comp name="--.HNN" depth="0.0">
			<acc value="0.124763232396128" flag="0"/>
			<vel value="0.177142818633269" flag="0"/>
			<psa03 value="0.175819397172186" flag="0"/>
			<psa10 value="0.405998175386584" flag="0"/>
			<psa30 value="0.0674500282333429" flag="0"/>
		</comp>
		<comp name="--.HNZ" depth="0.0">
			<acc value="0.0462199104856464" flag="0"/>
			<vel value="0.0710149246896108" flag="0"/>
			<psa03 value="0.0964909024654022" flag="0"/>
			<psa10 value="0.126936008887619" flag="0"/>
			<psa30 value="0.0198480898385424" flag="0"/>
		</comp>
	</station>
	<station code="KRI1" name="KRI1" netid="HI" source="ITSAK Strong Motion Network" insttype="" lat="37.6621" lon="20.8172" esm:processing="automatic (Paolucci et al 2011)" esm:quality="best">
		<comp name="--.HNE" depth="0.0">
			<acc value="0.053731161625112" flag="0"/>
			<vel value="0.110693914390426" flag="0"/>
			<psa03 value="0.215061809289397" flag="0"/>
			<psa10 value="0.0967256275981236" flag="0"/>
			<psa30 value="0.0267094360357209" flag="0"/>
		</comp>
		<comp name="--.HNN" depth="0.0">
			<acc value="0.0872803221053745" flag="0"/>
			<vel value="0.0794392473286314" flag="0"/>
			<psa03 value="0.185997425583283" flag="0"/>
			<psa10 value="0.124573644892598" flag="0"/>
			<psa30 value="0.0216235507874501" flag="0"/>
		</comp>
		<comp name="--.HNZ" depth="0.0">
			<acc value="0.0335093131979643" flag="0"/>
			<vel value="0.0443330433832711" flag="0"/>
			<psa03 value="0.108019509929067" flag="0"/>
			<psa10 value="0.0781414439871658" flag="0"/>
			<psa30 value="0.0100646850693243" flag="0"/>
		</comp>
	</station>
	<station code="LAM2" name="LAM2" netid="HI" source="ITSAK Strong Motion Network" insttype="" lat="38.90203" lon="22.431301" esm:processing="automatic (Paolucci et al 2011)" esm:quality="best">
		<comp name="--.HNE" depth="0.0">
			<acc value="0.131293959145653" flag="0"/>
			<vel value="0.152352300168826" flag="0"/>
			<psa03 value="0.313716094651632" flag="0"/>
			<psa10 value="0.23038154164648" flag="0"/>
			<psa30 value="0.0584164764715397" flag="0"/>
		</comp>
		<comp name="--.HNN" depth="0.0">
			<acc value="0.131979021883276" flag="0"/>
			<vel value="0.168507341632453" flag="0"/>
			<psa03 value="0.328789614031647" flag="0"/>
			<psa10 value="0.196785871098185" flag="0"/>
			<psa30 value="0.0486425990001249" flag="0"/>
		</comp>
		<comp name="--.HNZ" depth="0.0">
			<acc value="0.084483940783166" flag="0"/>
			<vel value="0.12108895714818" flag="0"/>
			<psa03 value="0.128553172266756" flag="0"/>
			<psa10 value="0.163874935910248" flag="0"/>
			<psa30 value="0.0411944555971781" flag="0"/>
		</comp>
	</station>
	<station code="LMS2" name="LMS2" netid="HI" source="ITSAK Strong Motion Network" insttype="" lat="40.834985" lon="21.141815" esm:processing="automatic (Paolucci et al 2011)" esm:quality="best">
		<comp name="--.HNE" depth="0.0">
			<acc value="0.0562067147077841" flag="0"/>
			<vel value="0.0513381807656949" flag="0"/>
			<psa03 value="0.18798366132832" flag="0"/>
			<psa10 value="0.0834311244025329" flag="0"/>
			<psa30 value="0.0121450887191893" flag="0"/>
		</comp>
		<comp name="--.HNN" depth="0.0">
			<acc value="0.0584907043440565" flag="0"/>
			<vel value="0.0495547567144313" flag="0"/>
			<psa03 value="0.163954892456976" flag="0"/>
			<psa10 value="0.0654774775615416" flag="0"/>
			<psa30 value="0.0101358147813186" flag="0"/>
		</comp>
		<comp name="--.HNZ" depth="0.0">
			<acc value="0.0255729464512425" flag="0"/>
			<vel value="0.0238902111712184" flag="0"/>
			<psa03 value="0.0692076680016848" flag="0"/>
			<psa10 value="0.0436665276931555" flag="0"/>
			<psa30 value="0.00984375543382017" flag="0"/>
		</comp>
	</station>
	<station code="NMA1" name="NMA1" netid="HI" source="ITSAK Strong Motion Network" insttype="" lat="37.81873" lon="22.662702" esm:processing="automatic (Paolucci et al 2011)" esm:quality="best">
		<comp name="--.HNE" depth="0.0">
			<acc value="0.0583386660440376" flag="0"/>
			<vel value="0.0686181519405915" flag="0"/>
			<psa03 value="0.109444656421361" flag="0"/>
			<psa10 value="0.14546819155377" flag="0"/>
			<psa30 value="0.0159920077253604" flag="0"/>
		</comp>
		<comp name="--.HNN" depth="0.0">
			<acc value="0.0472603367508599" flag="0"/>
			<vel value="0.0786309329579296" flag="0"/>
			<psa03 value="0.120953168803826" flag="0"/>
			<psa10 value="0.14369042378538" flag="0"/>
			<psa30 value="0.0126188909395944" flag="0"/>
		</comp>
		<comp name="--.HNZ" depth="0.0">
			<acc value="0.0309473395795119" flag="0"/>
			<vel value="0.0527941117782489" flag="0"/>
			<psa03 value="0.0657365109712338" flag="0"/>
			<psa10 value="0.0645292272446119" flag="0"/>
			<psa30 value="0.00915145623906282" flag="0"/>
		</comp>
	</station>
	<station code="PLA1" name="PLA1" netid="HI" source="ITSAK Strong Motion Network" insttype="" lat="40.555907" lon="22.988593" esm:processing="automatic (Paolucci et al 2011)" esm:quality="best">
		<comp name="--.HNE" depth="0.0">
			<acc value="0.0225680611497157" flag="0"/>
			<vel value="0.0407351854994666" flag="0"/>
			<psa03 value="0.0317342923452907" flag="0"/>
			<psa10 value="0.0893463612579441" flag="0"/>
			<psa30 value="0.0365531047971328" flag="0"/>
		</comp>
		<comp name="--.HNN" depth="0.0">
			<acc value="0.0253443656147112" flag="0"/>
			<vel value="0.0653414639395649" flag="0"/>
			<psa03 value="0.0356344413360204" flag="0"/>
			<psa10 value="0.103161668954277" flag="0"/>
			<psa30 value="0.0269021921382" flag="0"/>
		</comp>
		<comp name="--.HNZ" depth="0.0">
			<acc value="0.0110202294002341" flag="0"/>
			<vel value="0.0195443974558065" flag="0"/>
			<psa03 value="0.0221216060728351" flag="0"/>
			<psa10 value="0.0435928578128874" flag="0"/>
			<psa30 value="0.00732118165902108" flag="0"/>
		</comp>
	</station>
	<station code="SEIS" name="SEIS" netid="HI" source="ITSAK Strong Motion Network" insttype="" lat="40.631849" lon="22.962768" esm:processing="automatic (Paolucci et al 2011)" esm:quality="best">
		<comp name="--.HNE" depth="0.0">
			<acc value="0.00621012857853128" flag="0"/>
			<vel value="0.0130208666726407" flag="0"/>
			<psa03 value="0.0156313466979207" flag="0"/>
			<psa10 value="0.0175462273514496" flag="0"/>
			<psa30 value="0.00322067460388625" flag="0"/>
		</comp>
		<comp name="--.HNN" depth="0.0">
			<acc value="0.00881239139255412" flag="0"/>
			<vel value="0.0203782214260223" flag="0"/>
			<psa03 value="0.018826205477052" flag="0"/>
			<psa10 value="0.0178361646833749" flag="0"/>
			<psa30 value="0.00798797583086251" flag="0"/>
		</comp>
		<comp name="--.HNZ" depth="0.0">
			<acc value="0.00584465356057207" flag="0"/>
			<vel value="0.0120905035935467" flag="0"/>
			<psa03 value="0.0150057779133089" flag="0"/>
			<psa10 value="0.0139898105062876" flag="0"/>
			<psa30 value="0.00386664031261089" flag="0"/>
		</comp>
	</station>
	<station code="SIA1" name="SIA1" netid="HI" source="ITSAK Strong Motion Network" insttype="" lat="40.257308" lon="21.553432" esm:processing="automatic (Paolucci et al 2011)" esm:quality="best">
		<comp name="--.HNE" depth="0.0">
			<acc value="0.0872770447013635" flag="0"/>
			<vel value="0.0619339218389209" flag="0"/>
			<psa03 value="0.194225220634326" flag="0"/>
			<psa10 value="0.0910868590573814" flag="0"/>
			<psa30 value="0.0245792232529119" flag="0"/>
		</comp>
		<comp name="--.HNN" depth="0.0">
			<acc value="0.0788063690557628" flag="0"/>
			<vel value="0.0578489592441611" flag="0"/>
			<psa03 value="0.260481963985068" flag="0"/>
			<psa10 value="0.0653906293082711" flag="0"/>
			<psa30 value="0.0165741529562916" flag="0"/>
		</comp>
		<comp name="--.HNZ" depth="0.0">
			<acc value="0.0410301586387418" flag="0"/>
			<vel value="0.0451313196526566" flag="0"/>
			<psa03 value="0.110760097729559" flag="0"/>
			<psa10 value="0.0522260047165005" flag="0"/>
			<psa30 value="0.0114408929030058" flag="0"/>
		</comp>
	</station>
