<?xml version="1.0" encoding="UTF-8" standalone="yes"?>
<!DOCTYPE earthquake SYSTEM "stationlist.dtd">
<stationlist created="" xmlns="ch.ethz.sed.shakemap.usgs.xml">
  <station code="ATHR" name="ATHR" netid="HA" insttype="GEOtiny," commtype="DIG" lat="38.3172" lon="20.4165">
    <comp name="--.HHE">
      <acc value="0.1737888510" flag="0"/>
      <vel value="0.1467521491" flag="0"/>
      <psa03 value="0.3162331587" flag="0"/>
      <psa10 value="0.3102235063" flag="0"/>
      <psa30 value="0.0290869824" flag="0"/>
    </comp>
    <comp name="--.HHN">
      <acc value="0.1197146196" flag="0"/>
      <vel value="0.1672572788" flag="0"/>
      <psa03 value="0.3330981317" flag="0"/>
      <psa10 value="0.2173984956" flag="0"/>
      <psa30 value="0.0329748263" flag="0"/>
    </comp>
    <comp name="--.HHZ">
      <acc value="0.0899507760" flag="0"/>
      <vel value="0.1103772187" flag="0"/>
      <psa03 value="0.1596680674" flag="0"/>
      <psa10 value="0.1803082652" flag="0"/>
      <psa30 value="0.0168650223" flag="0"/>
    </comp>
  </station>
  <station code="HAVD" name="HAVD" netid="HA" insttype="GEOtiny," commtype="DIG" lat="38.2036" lon="20.3848">
    <comp name="--.HHZ">
      <acc value="0.0946947645" flag="0"/>
      <vel value="0.0790882706" flag="0"/>
      <psa03 value="0.3044976320" flag="0"/>
      <psa10 value="0.0695041329" flag="0"/>
      <psa30 value="0.0191509518" flag="0"/>
    </comp>
    <comp name="--.HHN">
      <acc value="0.1458091485" flag="0"/>
      <vel value="0.1210613753" flag="0"/>
      <psa03 value="0.4682023810" flag="0"/>
      <psa10 value="0.1452777296" flag="0"/>
      <psa30 value="0.0411398393" flag="0"/>
    </comp>
    <comp name="--.HHE">
      <acc value="0.1295003101" flag="0"/>
      <vel value="0.1352003245" flag="0"/>
      <psa03 value="0.3923345416" flag="0"/>
      <psa10 value="0.2025452162" flag="0"/>
      <psa30 value="0.0298506777" flag="0"/>
    </comp>
  </station>
  <station code="AGR3" name="AGR3" netid="HI" insttype="unknown" commtype="DIG" lat="38.5893" lon="21.4162">
    <comp name="--.HNZ">
      <acc value="0.3052899310" flag="0"/>
      <vel value="0.4233776991" flag="0"/>
      <psa03 value="0.4784410139" flag="0"/>
      <psa10 value="1.1938904948" flag="0"/>
      <psa30 value="0.0786585683" flag="0"/>
    </comp>
    <comp name="--.HNN">
      <acc value="0.3737276655" flag="0"/>
      <vel value="0.6402208120" flag="0"/>
      <psa03 value="1.0769642645" flag="0"/>
      <psa10 value="0.9655978628" flag="0"/>
      <psa30 value="0.1553105165" flag="0"/>
    </comp>
    <comp name="--.HNE">
      <acc value="0.4760775480" flag="0"/>
      <vel value="0.7775514509" flag="0"/>
      <psa03 value="1.0765185983" flag="0"/>
      <psa10 value="1.4414081716" flag="0"/>
      <psa30 value="0.2115838453" flag="0"/>
    </comp>
  </station>
  <station code="AIA1" name="AIA1" netid="HI" insttype="unknown" commtype="DIG" lat="40.1641" lon="21.8202">
    <comp name="--.HNZ">
      <acc value="0.0340619726" flag="0"/>
      <vel value="0.0430968743" flag="0"/>
      <psa03 value="0.0868301841" flag="0"/>
      <psa10 value="0.0712087938" flag="0"/>
      <psa30 value="0.0193242322" flag="0"/>
    </comp>
    <comp name="--.HNE">
      <acc value="0.0790342120" flag="0"/>
      <vel value="0.0689005469" flag="0"/>
      <psa03 value="0.2028381189" flag="0"/>
      <psa10 value="0.0708185751" flag="0"/>
      <psa30 value="0.0200441892" flag="0"/>
    </comp>
    <comp name="--.HNN">
      <acc value="0.0700276654" flag="0"/>
      <vel value="0.0669567252" flag="0"/>
      <psa03 value="0.2047438046" flag="0"/>
      <psa10 value="0.1039058763" flag="0"/>
      <psa30 value="0.0220186230" flag="0"/>
    </comp>
  </station>
  <station code="ARG2" name="ARG2" netid="HI" insttype="CMG-5TD,ACCELEROMETER,GURALP" commtype="DIG" lat="38.1783" lon="20.4878">
    <comp name="--.HNN">
      <acc value="0.4398740736" flag="0"/>
      <vel value="0.2925410987" flag="0"/>
      <psa03 value="0.8566789550" flag="0"/>
      <psa10 value="0.3825815684" flag="0"/>
      <psa30 value="0.0261102156" flag="0"/>
    </comp>
    <comp name="--.HNE">
      <acc value="0.3533518724" flag="0"/>
      <vel value="0.2468574980" flag="0"/>
      <psa03 value="1.0414251603" flag="0"/>
      <psa10 value="0.1513608618" flag="0"/>
      <psa30 value="0.0426614981" flag="0"/>
    </comp>
    <comp name="--.HNZ">
      <acc value="0.2042499270" flag="0"/>
      <vel value="0.1496531965" flag="0"/>
      <psa03 value="0.9833829291" flag="0"/>
      <psa10 value="0.1299001289" flag="0"/>
      <psa30 value="0.0284202263" flag="0"/>
    </comp>
  </station>
  <station code="ART2" name="ART2" netid="HI" insttype="CMG-5TD,ACCELEROMETER,GURALP" commtype="DIG" lat="39.1474" lon="20.9937">
    <comp name="--.HNE">
      <acc value="0.3562348094" flag="0"/>
      <vel value="0.3522389366" flag="0"/>
      <psa03 value="0.8024900053" flag="0"/>
      <psa10 value="0.4054724647" flag="0"/>
      <psa30 value="0.0513497685" flag="0"/>
    </comp>
    <comp name="--.HNZ">
      <acc value="0.3151500944" flag="0"/>
      <vel value="0.2129854265" flag="0"/>
      <psa03 value="0.5991178939" flag="0"/>
      <psa10 value="0.3817318869" flag="0"/>
      <psa30 value="0.0531495709" flag="0"/>
    </comp>
    <comp name="--.HNN">
      <acc value="0.3334028461" flag="0"/>
      <vel value="0.3091243518" flag="0"/>
      <psa03 value="0.9023474250" flag="0"/>
      <psa10 value="0.4287903431" flag="0"/>
      <psa30 value="0.0659242969" flag="0"/>
    </comp>
  </station>
  <station code="AST1" name="AST1" netid="HI" insttype="unknown" commtype="DIG" lat="38.5416" lon="21.0895">
    <comp name="--.HNN">
      <acc value="0.2169427513" flag="0"/>
      <vel value="0.3198353408" flag="0"/>
      <psa03 value="0.5305498122" flag="0"/>
      <psa10 value="0.4786814606" flag="0"/>
      <psa30 value="0.0313821656" flag="0"/>
    </comp>
    <comp name="--.HNZ">
      <acc value="0.1218838500" flag="0"/>
      <vel value="0.1547536220" flag="0"/>
      <psa03 value="0.3955559406" flag="0"/>
      <psa10 value="0.2907555296" flag="0"/>
      <psa30 value="0.0296655922" flag="0"/>
    </comp>
    <comp name="--.HNE">
      <acc value="0.1875002504" flag="0"/>
      <vel value="0.2862640457" flag="0"/>
      <psa03 value="0.5368793221" flag="0"/>
      <psa10 value="0.3679522893" flag="0"/>
      <psa30 value="0.0856596360" flag="0"/>
    </comp>
  </station>
  <station code="GRE3" name="GRE3" netid="HI" insttype="unknown" commtype="DIG" lat="40.0848" lon="21.4383">
    <comp name="--.HNZ">
      <acc value="0.0686623194" flag="0"/>
      <vel value="0.0869681867" flag="0"/>
      <psa03 value="0.1978178374" flag="0"/>
      <psa10 value="0.1155026243" flag="0"/>
      <psa30 value="0.0467931425" flag="0"/>
    </comp>
    <comp name="--.HNE">
      <acc value="0.1571834566" flag="0"/>
      <vel value="0.1838946484" flag="0"/>
      <psa03 value="0.4067006171" flag="0"/>
      <psa10 value="0.2077430124" flag="0"/>
      <psa30 value="0.0687852452" flag="0"/>
    </comp>
    <comp name="--.HNN">
      <acc value="0.1046291639" flag="0"/>
      <vel value="0.1246790810" flag="0"/>
      <psa03 value="0.3373225949" flag="0"/>
      <psa10 value="0.1595585287" flag="0"/>
      <psa30 value="0.0557098436" flag="0"/>
    </comp>
  </station>
  <station code="JAN2" name="JAN2" netid="HI" insttype="unknown" commtype="DIG" lat="39.664" lon="20.8522">
    <comp name="--.HNN">
      <acc value="6.5821311487" flag="0"/>
      <vel value="3.1843366584" flag="0"/>
      <psa03 value="30.7436902921" flag="0"/>
      <psa10 value="2.1074254188" flag="0"/>
      <psa30 value="0.4688348717" flag="0"/>
    </comp>
    <comp name="--.HNZ">
      <acc value="3.4925657806" flag="0"/>
      <vel value="1.6202583312" flag="0"/>
      <psa03 value="8.6232359483" flag="0"/>
      <psa10 value="0.9338913968" flag="0"/>
      <psa30 value="0.1389996093" flag="0"/>
    </comp>
    <comp name="--.HNE">
      <acc value="5.9855868937" flag="0"/>
      <vel value="2.5835940383" flag="0"/>
      <psa03 value="29.0452797499" flag="0"/>
      <psa10 value="2.8318340659" flag="0"/>
      <psa30 value="0.2691240438" flag="0"/>
    </comp>
  </station>
  <station code="JAN3" name="JAN3" netid="HI" insttype="unknown" commtype="DIG" lat="39.684" lon="20.8379">
    <comp name="--.HNN">
      <acc value="6.3793871886" flag="0"/>
      <vel value="2.4505262088" flag="0"/>
      <psa03 value="13.0969224831" flag="0"/>
      <psa10 value="1.0246715049" flag="0"/>
      <psa30 value="0.4397274716" flag="0"/>
    </comp>
    <comp name="--.HNZ">
      <acc value="7.3188454435" flag="0"/>
      <vel value="1.3375343476" flag="0"/>
      <psa03 value="10.0137717597" flag="0"/>
      <psa10 value="0.7647283571" flag="0"/>
      <psa30 value="0.1383074965" flag="0"/>
    </comp>
    <comp name="--.HNE">
      <acc value="9.2830939091" flag="0"/>
      <vel value="3.6430722241" flag="0"/>
      <psa03 value="18.2172447766" flag="0"/>
      <psa10 value="1.4301278217" flag="0"/>
      <psa30 value="0.2011490740" flag="0"/>
    </comp>
  </station>
  <station code="KAR2" name="KAR2" netid="HI" insttype="unknown" commtype="DIG" lat="39.3658" lon="21.9193">
    <comp name="--.HNN">
      <acc value="0.6894564769" flag="0"/>
      <vel value="1.0891418938" flag="0"/>
      <psa03 value="1.4158170358" flag="0"/>
      <psa10 value="2.1388929711" flag="0"/>
      <psa30 value="0.6060244764" flag="0"/>
    </comp>
    <comp name="--.HNE">
      <acc value="0.5250053929" flag="0"/>
      <vel value="0.9797242133" flag="0"/>
      <psa03 value="1.3163401914" flag="0"/>
      <psa10 value="2.0914793115" flag="0"/>
      <psa30 value="0.5802623908" flag="0"/>
    </comp>
    <comp name="--.HNZ">
      <acc value="0.3564956665" flag="0"/>
      <vel value="0.4553744389" flag="0"/>
      <psa03 value="0.5381923454" flag="0"/>
      <psa10 value="0.6445558218" flag="0"/>
      <psa30 value="0.1087738571" flag="0"/>
    </comp>
  </station>
  <station code="KNS1" name="KNS1" netid="HI" insttype="unknown" commtype="DIG" lat="40.048" lon="20.7524">
    <comp name="--.HNE">
      <acc value="0.4636759237" flag="0"/>
      <vel value="0.2682527401" flag="0"/>
      <psa03 value="1.2675053012" flag="0"/>
      <psa10 value="0.3444750641" flag="0"/>
      <psa30 value="0.0564731496" flag="0"/>
    </comp>
    <comp name="--.HNN">
      <acc value="0.6844663940" flag="0"/>
      <vel value="0.2414714927" flag="0"/>
      <psa03 value="1.5777428497" flag="0"/>
      <psa10 value="0.2048210752" flag="0"/>
      <psa30 value="0.0489333015" flag="0"/>
    </comp>
    <comp name="--.HNZ">
      <acc value="0.4749939542" flag="0"/>
      <vel value="0.2039714009" flag="0"/>
      <psa03 value="1.2156567781" flag="0"/>
      <psa10 value="0.1587665555" flag="0"/>
      <psa30 value="0.0271108546" flag="0"/>
    </comp>
  </station>
  <station code="KOZ2" name="KOZ2" netid="HI" insttype="unknown" commtype="DIG" lat="40.2957" lon="21.7881">
    <comp name="--.HNN">
      <acc value="0.0589373665" flag="0"/>
      <vel value="0.0489274810" flag="0"/>
      <psa03 value="0.1605511936" flag="0"/>
      <psa10 value="0.0648795644" flag="0"/>
      <psa30 value="0.0210062152" flag="0"/>
    </comp>
    <comp name="--.HNE">
      <acc value="0.0674516995" flag="0"/>
      <vel value="0.0475990482" flag="0"/>
      <psa03 value="0.2221353818" flag="0"/>
      <psa10 value="0.0717127722" flag="0"/>
      <psa30 value="0.0190844267" flag="0"/>
    </comp>
    <comp name="--.HNZ">
      <acc value="0.0351639437" flag="0"/>
      <vel value="0.0280673432" flag="0"/>
      <psa03 value="0.0913812501" flag="0"/>
      <psa10 value="0.0365393804" flag="0"/>
      <psa30 value="0.0166883742" flag="0"/>
    </comp>
  </station>
  <station code="KRK1" name="KRK1" netid="HI" insttype="CMG-5TD,ACCELEROMETER,GURALP" commtype="DIG" lat="39.6189" lon="19.9202">
    <comp name="--.HNN">
      <acc value="1.1711593228" flag="0"/>
      <vel value="0.8790222631" flag="0"/>
      <psa03 value="2.6345405820" flag="0"/>
      <psa10 value="1.1893835852" flag="0"/>
      <psa30 value="0.1151667221" flag="0"/>
    </comp>
    <comp name="--.HNE">
      <acc value="1.1364376031" flag="0"/>
      <vel value="0.5206227514" flag="0"/>
      <psa03 value="2.7195714922" flag="0"/>
      <psa10 value="0.4597500247" flag="0"/>
      <psa30 value="0.0944137666" flag="0"/>
    </comp>
    <comp name="--.HNZ">
      <acc value="0.5648377184" flag="0"/>
      <vel value="0.2272519147" flag="0"/>
      <psa03 value="1.4485043405" flag="0"/>
      <psa10 value="0.1975959775" flag="0"/>
      <psa30 value="0.0826072947" flag="0"/>
    </comp>
  </station>
  <station code="LAR4" name="LAR4" netid="HI" insttype="unknown" commtype="DIG" lat="39.6422" lon="22.4219">
    <comp name="--.HNZ">
      <acc value="0.0990290969" flag="0"/>
      <vel value="0.2321005142" flag="0"/>
      <psa03 value="0.2061050307" flag="0"/>
      <psa10 value="0.3041463122" flag="0"/>
      <psa30 value="0.0844847934" flag="0"/>
    </comp>
    <comp name="--.HNE">
      <acc value="0.2798356406" flag="0"/>
      <vel value="0.4614201090" flag="0"/>
      <psa03 value="0.5669824394" flag="0"/>
      <psa10 value="0.8039434490" flag="0"/>
      <psa30 value="0.3724177220" flag="0"/>
    </comp>
    <comp name="--.HNN">
      <acc value="0.2635533839" flag="0"/>
      <vel value="0.4362431868" flag="0"/>
      <psa03 value="0.4553384137" flag="0"/>
      <psa10 value="0.8054825660" flag="0"/>
      <psa30 value="0.1397359294" flag="0"/>
    </comp>
  </station>
  <station code="LEF2" name="LEF2" netid="HI" insttype="unknown" commtype="DIG" lat="38.8301" lon="20.7083">
    <comp name="--.HNE">
      <acc value="1.0111002302" flag="0"/>
      <vel value="0.9324569569" flag="0"/>
      <psa03 value="2.9064181518" flag="0"/>
      <psa10 value="2.1228914306" flag="0"/>
      <psa30 value="0.2236597672" flag="0"/>
    </comp>
    <comp name="--.HNN">
      <acc value="0.9546798808" flag="0"/>
      <vel value="1.2118184925" flag="0"/>
      <psa03 value="2.6782029333" flag="0"/>
      <psa10 value="1.4879137605" flag="0"/>
      <psa30 value="0.1388745613" flag="0"/>
    </comp>
    <comp name="--.HNZ">
      <acc value="0.5053221264" flag="0"/>
      <vel value="0.8917632603" flag="0"/>
      <psa03 value="1.1578394366" flag="0"/>
      <psa10 value="1.6955301967" flag="0"/>
      <psa30 value="0.1207391115" flag="0"/>
    </comp>
  </station>
  <station code="LMS2" name="LMS2" netid="HI" insttype="CMG-5TD,ACCELEROMETER,GURALP" commtype="DIG" lat="40.835" lon="21.1418">
    <comp name="--.HNE">
      <acc value="0.0554620165" flag="0"/>
      <vel value="0.0385407552" flag="0"/>
      <psa03 value="0.1896909926" flag="0"/>
      <psa10 value="0.0826679643" flag="0"/>
      <psa30 value="0.0115867116" flag="0"/>
    </comp>
    <comp name="--.HNN">
      <acc value="0.0584378684" flag="0"/>
      <vel value="0.0471029491" flag="0"/>
      <psa03 value="0.1622471849" flag="0"/>
      <psa10 value="0.0652481545" flag="0"/>
      <psa30 value="0.0100772586" flag="0"/>
    </comp>
    <comp name="--.HNZ">
      <acc value="0.0254308082" flag="0"/>
      <vel value="0.0229389106" flag="0"/>
      <psa03 value="0.0687965544" flag="0"/>
      <psa10 value="0.0434703688" flag="0"/>
      <psa30 value="0.0046437890" flag="0"/>
    </comp>
  </station>
  <station code="MSL1" name="MSL1" netid="HI" insttype="CMG-5TD,ACCELEROMETER,GURALP" commtype="DIG" lat="38.3727" lon="21.4243">
    <comp name="--.HNE">
      <acc value="0.5199131169" flag="0"/>
      <vel value="0.8205176666" flag="0"/>
      <psa03 value="1.0019891394" flag="0"/>
      <psa10 value="2.4433410165" flag="0"/>
      <psa30 value="0.1778743917" flag="0"/>
    </comp>
    <comp name="--.HNN">
      <acc value="0.7785981587" flag="0"/>
      <vel value="1.0154631704" flag="0"/>
      <psa03 value="1.4905588257" flag="0"/>
      <psa10 value="1.8323363888" flag="0"/>
      <psa30 value="0.1483598608" flag="0"/>
    </comp>
    <comp name="--.HNZ">
      <acc value="0.2460952376" flag="0"/>
      <vel value="0.3466845384" flag="0"/>
      <psa03 value="0.3859754194" flag="0"/>
      <psa10 value="0.9661718843" flag="0"/>
      <psa30 value="0.0438296968" flag="0"/>
    </comp>
  </station>
  <station code="PRE2" name="PRE2" netid="HI" insttype="unknown" commtype="DIG" lat="38.9577" lon="20.7548">
    <comp name="--.HNN">
      <acc value="1.0857302150" flag="0"/>
      <vel value="1.1388913598" flag="0"/>
      <psa03 value="3.6809652211" flag="0"/>
      <psa10 value="1.6689600490" flag="0"/>
      <psa30 value="0.1910270504" flag="0"/>
    </comp>
    <comp name="--.HNE">
      <acc value="1.7236037954" flag="0"/>
      <vel value="1.8050539244" flag="0"/>
      <psa03 value="3.0626747427" flag="0"/>
      <psa10 value="2.4808511314" flag="0"/>
      <psa30 value="0.2202482569" flag="0"/>
    </comp>
    <comp name="--.HNZ">
      <acc value="0.4566989845" flag="0"/>
      <vel value="0.4461364315" flag="0"/>
      <psa03 value="1.0989171853" flag="0"/>
      <psa10 value="0.9161642597" flag="0"/>
      <psa30 value="0.0892286842" flag="0"/>
    </comp>
  </station>
  <station code="PTO1" name="PTO1" netid="HI" insttype="unknown" commtype="DIG" lat="40.5101" lon="21.6816">
    <comp name="--.HNE">
      <acc value="0.1099101008" flag="0"/>
      <vel value="0.1701844410" flag="0"/>
      <psa03 value="0.2947618340" flag="0"/>
      <psa10 value="0.4296176908" flag="0"/>
      <psa30 value="0.0860725531" flag="0"/>
    </comp>
    <comp name="--.HNN">
      <acc value="0.1361649745" flag="0"/>
      <vel value="0.2037232857" flag="0"/>
      <psa03 value="0.3592822125" flag="0"/>
      <psa10 value="0.4623239934" flag="0"/>
      <psa30 value="0.0669679842" flag="0"/>
    </comp>
    <comp name="--.HNZ">
      <acc value="0.0738976213" flag="0"/>
      <vel value="0.1011503939" flag="0"/>
      <psa03 value="0.1388007853" flag="0"/>
      <psa10 value="0.1871120030" flag="0"/>
      <psa30 value="0.0506731744" flag="0"/>
    </comp>
  </station>
  <station code="SIA1" name="SIA1" netid="HI" insttype="unknown" commtype="DIG" lat="40.2573" lon="21.5534">
    <comp name="--.HNN">
      <acc value="0.0786861553" flag="0"/>
      <vel value="0.0515770336" flag="0"/>
      <psa03 value="0.2560160772" flag="0"/>
      <psa10 value="0.0652444840" flag="0"/>
      <psa30 value="0.0163605046" flag="0"/>
    </comp>
    <comp name="--.HNE">
      <acc value="0.0874130136" flag="0"/>
      <vel value="0.0559840522" flag="0"/>
      <psa03 value="0.1907606381" flag="0"/>
      <psa10 value="0.0913060588" flag="0"/>
      <psa30 value="0.0248112551" flag="0"/>
    </comp>
    <comp name="--.HNZ">
      <acc value="0.0410425528" flag="0"/>
      <vel value="0.0438524625" flag="0"/>
      <psa03 value="0.1106911318" flag="0"/>
      <psa10 value="0.0516554873" flag="0"/>
      <psa30 value="0.0113775650" flag="0"/>
    </comp>
  </station>
  <station code="VSK1" name="VSK1" netid="HI" insttype="unknown" commtype="DIG" lat="38.4091" lon="20.564">
    <comp name="--.HNE">
      <acc value="0.2822063125" flag="0"/>
      <vel value="0.2941214323" flag="0"/>
      <psa03 value="0.9157635474" flag="0"/>
      <psa10 value="0.1916203879" flag="0"/>
      <psa30 value="0.0365123630" flag="0"/>
    </comp>
    <comp name="--.HNZ">
      <acc value="0.1244255473" flag="0"/>
      <vel value="0.1592079491" flag="0"/>
      <psa03 value="0.4023215484" flag="0"/>
      <psa10 value="0.1527254787" flag="0"/>
      <psa30 value="0.0187469762" flag="0"/>
    </comp>
    <comp name="--.HNN">
      <acc value="0.2019554717" flag="0"/>
      <vel value="0.1667229825" flag="0"/>
      <psa03 value="0.4274138210" flag="0"/>
      <psa10 value="0.2060992394" flag="0"/>
      <psa30 value="0.0281230354" flag="0"/>
    </comp>
  </station>
