<?xml version="1.0" encoding="UTF-8" standalone="yes"?>
<!DOCTYPE earthquake SYSTEM "stationlist.dtd">
<stationlist created="" xmlns="ch.ethz.sed.shakemap.usgs.xml">
  <station code="AGRP" name="AGRP" netid="CL" insttype="CMG40-T" commtype="DIG" lat="38.3959" lon="21.7228">
    <comp name="00.HHE">
      <acc value="0.0930938852" flag="0"/>
      <vel value="0.1349678232" flag="0"/>
      <psa03 value="0.1695470327" flag="0"/>
      <psa10 value="0.1949683049" flag="0"/>
      <psa30 value="0.0406685180" flag="0"/>
    </comp>
    <comp name="00.HHN">
      <acc value="0.0808017597" flag="0"/>
      <vel value="0.1081663193" flag="0"/>
      <psa03 value="0.2199931908" flag="0"/>
      <psa10 value="0.2068926431" flag="0"/>
      <psa30 value="0.0313624622" flag="0"/>
    </comp>
    <comp name="00.HHZ">
      <acc value="0.0653829031" flag="0"/>
      <vel value="0.0995341084" flag="0"/>
      <psa03 value="0.1509786739" flag="0"/>
      <psa10 value="0.1500265501" flag="0"/>
      <psa30 value="0.0181937895" flag="0"/>
    </comp>
  </station>
  <station code="MALA" name="MALA" netid="CL" insttype="TRILLIUM-40" commtype="DIG" lat="38.3934" lon="21.8726">
    <comp name="01.HHE">
      <acc value="0.2269571180" flag="0"/>
      <vel value="0.4183726544" flag="0"/>
      <psa03 value="0.3839490904" flag="0"/>
      <psa10 value="0.7848982870" flag="0"/>
      <psa30 value="0.1297599025" flag="0"/>
    </comp>
    <comp name="01.HHN">
      <acc value="0.2286850716" flag="0"/>
      <vel value="0.3654787948" flag="0"/>
      <psa03 value="0.3312886045" flag="0"/>
      <psa10 value="0.6123703891" flag="0"/>
      <psa30 value="0.0640791325" flag="0"/>
    </comp>
    <comp name="01.HHZ">
      <acc value="0.0911131707" flag="0"/>
      <vel value="0.1350786680" flag="0"/>
      <psa03 value="0.1068710243" flag="0"/>
      <psa10 value="0.2074239545" flag="0"/>
      <psa30 value="0.0367701651" flag="0"/>
    </comp>
  </station>
  <station code="MG06" name="MG06" netid="CL" insttype="TRILLIUM-40" commtype="DIG" lat="38.4129" lon="21.9462">
    <comp name="06.HHE">
      <acc value="0.0895299929" flag="0"/>
      <vel value="0.1783093752" flag="0"/>
      <psa03 value="0.1709019499" flag="0"/>
      <psa10 value="0.1926219069" flag="0"/>
      <psa30 value="0.0474016150" flag="0"/>
    </comp>
    <comp name="06.HHN">
      <acc value="0.0670952270" flag="0"/>
      <vel value="0.0905784302" flag="0"/>
      <psa03 value="0.1393723902" flag="0"/>
      <psa10 value="0.1254365028" flag="0"/>
      <psa30 value="0.0290147999" flag="0"/>
    </comp>
    <comp name="06.HHZ">
      <acc value="0.0601915540" flag="0"/>
      <vel value="0.1003971414" flag="0"/>
      <psa03 value="0.1110725217" flag="0"/>
      <psa10 value="0.1864894743" flag="0"/>
      <psa30 value="0.0262951099" flag="0"/>
    </comp>
  </station>
  <station code="ROD3" name="ROD3" netid="CL" insttype="CMG40-T" commtype="DIG" lat="38.3081" lon="21.892">
    <comp name="00.HHE">
      <acc value="0.1707910522" flag="0"/>
      <vel value="0.1672366088" flag="0"/>
      <psa03 value="0.4174920178" flag="0"/>
      <psa10 value="0.2419253439" flag="0"/>
      <psa30 value="0.0489171480" flag="0"/>
    </comp>
    <comp name="00.HHN">
      <acc value="0.1308786131" flag="0"/>
      <vel value="0.1529235321" flag="0"/>
      <psa03 value="0.5265664026" flag="0"/>
      <psa10 value="0.1827237274" flag="0"/>
      <psa30 value="0.0589338140" flag="0"/>
    </comp>
    <comp name="00.HHZ">
      <acc value="0.0743510746" flag="0"/>
      <vel value="0.1148417247" flag="0"/>
      <psa03 value="0.1297945418" flag="0"/>
      <psa10 value="0.2340896634" flag="0"/>
      <psa30 value="0.0186256931" flag="0"/>
    </comp>
  </station>
  <station code="TRIZ" name="TRIZ" netid="CL" insttype="STS-2" commtype="DIG" lat="38.3654" lon="22.0727">
    <comp name="00.HH2">
      <acc value="0.0871031237" flag="0"/>
      <vel value="0.1328393201" flag="0"/>
      <psa03 value="0.1804696672" flag="0"/>
      <psa10 value="0.1945758992" flag="0"/>
      <psa30 value="0.0546223191" flag="0"/>
    </comp>
    <comp name="00.HH3">
      <acc value="0.0932340245" flag="0"/>
      <vel value="0.1227778390" flag="0"/>
      <psa03 value="0.2206018329" flag="0"/>
      <psa10 value="0.2332660415" flag="0"/>
      <psa30 value="0.0284711621" flag="0"/>
    </comp>
    <comp name="00.HHZ">
      <acc value="0.0525886194" flag="0"/>
      <vel value="0.0683772984" flag="0"/>
      <psa03 value="0.0912394008" flag="0"/>
      <psa10 value="0.1285498288" flag="0"/>
      <psa30 value="0.0235196140" flag="0"/>
    </comp>
  </station>
  <station code="ZIRI" name="ZIRI" netid="CL" insttype="TRILLIUM-40" commtype="DIG" lat="38.3051" lon="21.9476">
    <comp name="01.HHE">
      <acc value="0.1302476282" flag="0"/>
      <vel value="0.1404264425" flag="0"/>
      <psa03 value="0.3275593929" flag="0"/>
      <psa10 value="0.2314675968" flag="0"/>
      <psa30 value="0.0391732246" flag="0"/>
    </comp>
    <comp name="01.HHN">
      <acc value="0.1095571096" flag="0"/>
      <vel value="0.0985736468" flag="0"/>
      <psa03 value="0.3330137094" flag="0"/>
      <psa10 value="0.1669036077" flag="0"/>
      <psa30 value="0.0336652551" flag="0"/>
    </comp>
    <comp name="01.HHZ">
      <acc value="0.0564254967" flag="0"/>
      <vel value="0.0568156259" flag="0"/>
      <psa03 value="0.2347793991" flag="0"/>
      <psa10 value="0.0929920483" flag="0"/>
      <psa30 value="0.0234359244" flag="0"/>
    </comp>
  </station>
  <station code="ATHR" name="ATHR" netid="HA" insttype="GEOtiny," commtype="DIG" lat="38.3172" lon="20.4165">
    <comp name="--.HHZ">
      <acc value="0.0899507728" flag="0"/>
      <vel value="0.1103766630" flag="0"/>
      <psa03 value="0.1596680681" flag="0"/>
      <psa10 value="0.1803082626" flag="0"/>
      <psa30 value="0.0168650223" flag="0"/>
    </comp>
    <comp name="--.HHN">
      <acc value="0.1197146340" flag="0"/>
      <vel value="0.1672577956" flag="0"/>
      <psa03 value="0.3330981311" flag="0"/>
      <psa10 value="0.2173984956" flag="0"/>
      <psa30 value="0.0329748114" flag="0"/>
    </comp>
    <comp name="--.HHE">
      <acc value="0.1737888855" flag="0"/>
      <vel value="0.1467606556" flag="0"/>
      <psa03 value="0.3162331604" flag="0"/>
      <psa10 value="0.3102234992" flag="0"/>
      <psa30 value="0.0290869732" flag="0"/>
    </comp>
  </station>
  <station code="HAVD" name="HAVD" netid="HA" insttype="GEOtiny," commtype="DIG" lat="38.2036" lon="20.3848">
    <comp name="--.HHE">
      <acc value="0.1295003233" flag="0"/>
      <vel value="0.1351978526" flag="0"/>
      <psa03 value="0.3923345424" flag="0"/>
      <psa10 value="0.2025452176" flag="0"/>
      <psa30 value="0.0298506796" flag="0"/>
    </comp>
    <comp name="--.HHN">
      <acc value="0.1458091429" flag="0"/>
      <vel value="0.1210635196" flag="0"/>
      <psa03 value="0.4682023832" flag="0"/>
      <psa10 value="0.1452777265" flag="0"/>
      <psa30 value="0.0411398349" flag="0"/>
    </comp>
    <comp name="--.HHZ">
      <acc value="0.0946947976" flag="0"/>
      <vel value="0.0790822250" flag="0"/>
      <psa03 value="0.3044976430" flag="0"/>
      <psa10 value="0.0695041554" flag="0"/>
      <psa30 value="0.0191509688" flag="0"/>
    </comp>
  </station>
  <station code="KALE" name="KALE" netid="HA" insttype="40," commtype="DIG" lat="38.3911" lon="22.1398">
    <comp name="--.HHZ">
      <acc value="0.0458272352" flag="0"/>
      <vel value="0.0868725696" flag="0"/>
      <psa03 value="0.1092287467" flag="0"/>
      <psa10 value="0.1123445993" flag="0"/>
      <psa30 value="0.0315424165" flag="0"/>
    </comp>
    <comp name="--.HHE">
      <acc value="0.0905498726" flag="0"/>
      <vel value="0.1461580145" flag="0"/>
      <psa03 value="0.1224526175" flag="0"/>
      <psa10 value="0.2259338912" flag="0"/>
      <psa30 value="0.0589902741" flag="0"/>
    </comp>
    <comp name="--.HHN">
      <acc value="0.0892156185" flag="0"/>
      <vel value="0.1311061933" flag="0"/>
      <psa03 value="0.2049707506" flag="0"/>
      <psa10 value="0.1777818801" flag="0"/>
      <psa30 value="0.0346796402" flag="0"/>
    </comp>
  </station>
  <station code="LAKA" name="LAKA" netid="HA" insttype="120s," commtype="DIG" lat="38.2401" lon="21.9785">
    <comp name="--.HHN">
      <acc value="0.0385399919" flag="0"/>
      <vel value="0.0754425677" flag="0"/>
      <psa03 value="0.0643356089" flag="0"/>
      <psa10 value="0.1064915155" flag="0"/>
      <psa30 value="0.0287467876" flag="0"/>
    </comp>
    <comp name="--.HHE">
      <acc value="0.0292592032" flag="0"/>
      <vel value="0.0646511264" flag="0"/>
      <psa03 value="0.0499494738" flag="0"/>
      <psa10 value="0.0772523177" flag="0"/>
      <psa30 value="0.0263379228" flag="0"/>
    </comp>
    <comp name="--.HHZ">
      <acc value="0.0231153933" flag="0"/>
      <vel value="0.0535953120" flag="0"/>
      <psa03 value="0.0458460926" flag="0"/>
      <psa10 value="0.1065746491" flag="0"/>
      <psa30 value="0.0242546897" flag="0"/>
    </comp>
  </station>
  <station code="AGR3" name="AGR3" netid="HI" insttype="unknown" commtype="DIG" lat="38.5893" lon="21.4162">
    <comp name="--.HNE">
      <acc value="0.4760775475" flag="0"/>
      <vel value="0.7775513754" flag="0"/>
      <psa03 value="1.0765185983" flag="0"/>
      <psa10 value="1.4414081716" flag="0"/>
      <psa30 value="0.2115837989" flag="0"/>
    </comp>
    <comp name="--.HNN">
      <acc value="0.3737276619" flag="0"/>
      <vel value="0.6402208240" flag="0"/>
      <psa03 value="1.0769642645" flag="0"/>
      <psa10 value="0.9655978628" flag="0"/>
      <psa30 value="0.1553105200" flag="0"/>
    </comp>
    <comp name="--.HNZ">
      <acc value="0.3052899287" flag="0"/>
      <vel value="0.4233776810" flag="0"/>
      <psa03 value="0.4784410139" flag="0"/>
      <psa10 value="1.1938904948" flag="0"/>
      <psa30 value="0.0786585816" flag="0"/>
    </comp>
  </station>
  <station code="AIA1" name="AIA1" netid="HI" insttype="unknown" commtype="DIG" lat="40.1641" lon="21.8202">
    <comp name="--.HNE">
      <acc value="0.0790342127" flag="0"/>
      <vel value="0.0689005505" flag="0"/>
      <psa03 value="0.2028381189" flag="0"/>
      <psa10 value="0.0708185751" flag="0"/>
      <psa30 value="0.0200441924" flag="0"/>
    </comp>
    <comp name="--.HNN">
      <acc value="0.0700276668" flag="0"/>
      <vel value="0.0669567302" flag="0"/>
      <psa03 value="0.2047438046" flag="0"/>
      <psa10 value="0.1039058763" flag="0"/>
      <psa30 value="0.0220186273" flag="0"/>
    </comp>
    <comp name="--.HNZ">
      <acc value="0.0340619787" flag="0"/>
      <vel value="0.0430968745" flag="0"/>
      <psa03 value="0.0868301841" flag="0"/>
      <psa10 value="0.0712087938" flag="0"/>
      <psa30 value="0.0193242107" flag="0"/>
    </comp>
  </station>
  <station code="ARG2" name="ARG2" netid="HI" insttype="CMG-5TD,ACCELEROMETER,GURALP" commtype="DIG" lat="38.1783" lon="20.4878">
    <comp name="--.HNZ">
      <acc value="0.2042499295" flag="0"/>
      <vel value="0.1496532020" flag="0"/>
      <psa03 value="0.9833829291" flag="0"/>
      <psa10 value="0.1299001289" flag="0"/>
      <psa30 value="0.0284202243" flag="0"/>
    </comp>
    <comp name="--.HNE">
      <acc value="0.3533518719" flag="0"/>
      <vel value="0.2468575072" flag="0"/>
      <psa03 value="1.0414251603" flag="0"/>
      <psa10 value="0.1513608618" flag="0"/>
      <psa30 value="0.0426615851" flag="0"/>
    </comp>
    <comp name="--.HNN">
      <acc value="0.4398740736" flag="0"/>
      <vel value="0.2925410974" flag="0"/>
      <psa03 value="0.8566789550" flag="0"/>
      <psa10 value="0.3825815684" flag="0"/>
      <psa30 value="0.0261102065" flag="0"/>
    </comp>
  </station>
  <station code="ART2" name="ART2" netid="HI" insttype="CMG-5TD,ACCELEROMETER,GURALP" commtype="DIG" lat="39.1474" lon="20.9937">
    <comp name="--.HNE">
      <acc value="0.3562348101" flag="0"/>
      <vel value="0.3522389350" flag="0"/>
      <psa03 value="0.8024900053" flag="0"/>
      <psa10 value="0.4054724606" flag="0"/>
      <psa30 value="0.0513495537" flag="0"/>
    </comp>
    <comp name="--.HNN">
      <acc value="0.3334028422" flag="0"/>
      <vel value="0.3091243358" flag="0"/>
      <psa03 value="0.9023474250" flag="0"/>
      <psa10 value="0.4287903431" flag="0"/>
      <psa30 value="0.0659242816" flag="0"/>
    </comp>
    <comp name="--.HNZ">
      <acc value="0.3151500896" flag="0"/>
      <vel value="0.2129854251" flag="0"/>
      <psa03 value="0.5991178940" flag="0"/>
      <psa10 value="0.3817318868" flag="0"/>
      <psa30 value="0.0531498544" flag="0"/>
    </comp>
  </station>
  <station code="AST1" name="AST1" netid="HI" insttype="unknown" commtype="DIG" lat="38.5416" lon="21.0895">
    <comp name="--.HNE">
      <acc value="0.1875002502" flag="0"/>
      <vel value="0.2862640473" flag="0"/>
      <psa03 value="0.5368793221" flag="0"/>
      <psa10 value="0.3679522892" flag="0"/>
      <psa30 value="0.0856595914" flag="0"/>
    </comp>
    <comp name="--.HNN">
      <acc value="0.2169427551" flag="0"/>
      <vel value="0.3198353261" flag="0"/>
      <psa03 value="0.5305498122" flag="0"/>
      <psa10 value="0.4786814605" flag="0"/>
      <psa30 value="0.0313821602" flag="0"/>
    </comp>
    <comp name="--.HNZ">
      <acc value="0.1218838410" flag="0"/>
      <vel value="0.1547536297" flag="0"/>
      <psa03 value="0.3955559406" flag="0"/>
      <psa10 value="0.2907555296" flag="0"/>
      <psa30 value="0.0296655667" flag="0"/>
    </comp>
  </station>
  <station code="GRE3" name="GRE3" netid="HI" insttype="unknown" commtype="DIG" lat="40.0848" lon="21.4383">
    <comp name="--.HNE">
      <acc value="0.1571834660" flag="0"/>
      <vel value="0.1838946537" flag="0"/>
      <psa03 value="0.4067006171" flag="0"/>
      <psa10 value="0.2077430124" flag="0"/>
      <psa30 value="0.0687852189" flag="0"/>
    </comp>
    <comp name="--.HNN">
      <acc value="0.1046291611" flag="0"/>
      <vel value="0.1246790776" flag="0"/>
      <psa03 value="0.3373225949" flag="0"/>
      <psa10 value="0.1595585287" flag="0"/>
      <psa30 value="0.0557098310" flag="0"/>
    </comp>
    <comp name="--.HNZ">
      <acc value="0.0686623122" flag="0"/>
      <vel value="0.0869681931" flag="0"/>
      <psa03 value="0.1978178374" flag="0"/>
      <psa10 value="0.1155026243" flag="0"/>
      <psa30 value="0.0467931374" flag="0"/>
    </comp>
  </station>
  <station code="JAN2" name="JAN2" netid="HI" insttype="unknown" commtype="DIG" lat="39.664" lon="20.8522">
    <comp name="--.HNN">
      <acc value="6.5821311508" flag="0"/>
      <vel value="3.1843366378" flag="0"/>
      <psa03 value="30.7436902922" flag="0"/>
      <psa10 value="2.1074254165" flag="0"/>
      <psa30 value="0.4688350796" flag="0"/>
    </comp>
    <comp name="--.HNE">
      <acc value="5.9855868979" flag="0"/>
      <vel value="2.5835940125" flag="0"/>
      <psa03 value="29.0452797498" flag="0"/>
      <psa10 value="2.8318340653" flag="0"/>
      <psa30 value="0.2691239694" flag="0"/>
    </comp>
    <comp name="--.HNZ">
      <acc value="3.4925657786" flag="0"/>
      <vel value="1.6202583080" flag="0"/>
      <psa03 value="8.6232359483" flag="0"/>
      <psa10 value="0.9338913963" flag="0"/>
      <psa30 value="0.1390000710" flag="0"/>
    </comp>
  </station>
  <station code="JAN3" name="JAN3" netid="HI" insttype="unknown" commtype="DIG" lat="39.684" lon="20.8379">
    <comp name="--.HNN">
      <acc value="6.3793871871" flag="0"/>
      <vel value="2.4505261926" flag="0"/>
      <psa03 value="13.0969224831" flag="0"/>
      <psa10 value="1.0246715053" flag="0"/>
      <psa30 value="0.4397284849" flag="0"/>
    </comp>
    <comp name="--.HNZ">
      <acc value="7.3188454486" flag="0"/>
      <vel value="1.3375343537" flag="0"/>
      <psa03 value="10.0137717597" flag="0"/>
      <psa10 value="0.7647283549" flag="0"/>
      <psa30 value="0.1383074418" flag="0"/>
    </comp>
    <comp name="--.HNE">
      <acc value="9.2830939105" flag="0"/>
      <vel value="3.6430721850" flag="0"/>
      <psa03 value="18.2172447766" flag="0"/>
      <psa10 value="1.4301278239" flag="0"/>
      <psa30 value="0.2011488969" flag="0"/>
    </comp>
  </station>
  <station code="KAR2" name="KAR2" netid="HI" insttype="unknown" commtype="DIG" lat="39.3658" lon="21.9193">
    <comp name="--.HNN">
      <acc value="0.6894564829" flag="0"/>
      <vel value="1.0891417591" flag="0"/>
      <psa03 value="1.4158170358" flag="0"/>
      <psa10 value="2.1388929711" flag="0"/>
      <psa30 value="0.6060244255" flag="0"/>
    </comp>
    <comp name="--.HNZ">
      <acc value="0.3564956678" flag="0"/>
      <vel value="0.4553744742" flag="0"/>
      <psa03 value="0.5381923454" flag="0"/>
      <psa10 value="0.6445558218" flag="0"/>
      <psa30 value="0.1087737300" flag="0"/>
    </comp>
    <comp name="--.HNE">
      <acc value="0.5250053857" flag="0"/>
      <vel value="0.9797243668" flag="0"/>
      <psa03 value="1.3163401914" flag="0"/>
      <psa10 value="2.0914793116" flag="0"/>
      <psa30 value="0.5802623524" flag="0"/>
    </comp>
  </station>
  <station code="KNS1" name="KNS1" netid="HI" insttype="unknown" commtype="DIG" lat="40.048" lon="20.7524">
    <comp name="--.HNE">
      <acc value="0.4636759262" flag="0"/>
      <vel value="0.2682527380" flag="0"/>
      <psa03 value="1.2675053012" flag="0"/>
      <psa10 value="0.3444750641" flag="0"/>
      <psa30 value="0.0564731336" flag="0"/>
    </comp>
    <comp name="--.HNN">
      <acc value="0.6844663956" flag="0"/>
      <vel value="0.2414714923" flag="0"/>
      <psa03 value="1.5777428497" flag="0"/>
      <psa10 value="0.2048210752" flag="0"/>
      <psa30 value="0.0489333042" flag="0"/>
    </comp>
    <comp name="--.HNZ">
      <acc value="0.4749939542" flag="0"/>
      <vel value="0.2039714045" flag="0"/>
      <psa03 value="1.2156567781" flag="0"/>
      <psa10 value="0.1587665555" flag="0"/>
      <psa30 value="0.0271108744" flag="0"/>
    </comp>
  </station>
  <station code="KOZ2" name="KOZ2" netid="HI" insttype="unknown" commtype="DIG" lat="40.2957" lon="21.7881">
    <comp name="--.HNN">
      <acc value="0.0589373702" flag="0"/>
      <vel value="0.0489274887" flag="0"/>
      <psa03 value="0.1605511936" flag="0"/>
      <psa10 value="0.0648795644" flag="0"/>
      <psa30 value="0.0210062066" flag="0"/>
    </comp>
    <comp name="--.HNZ">
      <acc value="0.0351639368" flag="0"/>
      <vel value="0.0280673353" flag="0"/>
      <psa03 value="0.0913812501" flag="0"/>
      <psa10 value="0.0365393804" flag="0"/>
      <psa30 value="0.0166883707" flag="0"/>
    </comp>
    <comp name="--.HNE">
      <acc value="0.0674516950" flag="0"/>
      <vel value="0.0475990484" flag="0"/>
      <psa03 value="0.2221353818" flag="0"/>
      <psa10 value="0.0717127722" flag="0"/>
      <psa30 value="0.0190844124" flag="0"/>
    </comp>
  </station>
  <station code="KRK1" name="KRK1" netid="HI" insttype="CMG-5TD,ACCELEROMETER,GURALP" commtype="DIG" lat="39.6189" lon="19.9202">
    <comp name="--.HNN">
      <acc value="1.1711593231" flag="0"/>
      <vel value="0.8790222658" flag="0"/>
      <psa03 value="2.6345405821" flag="0"/>
      <psa10 value="1.1893835852" flag="0"/>
      <psa30 value="0.1151667062" flag="0"/>
    </comp>
    <comp name="--.HNZ">
      <acc value="0.5648377182" flag="0"/>
      <vel value="0.2272519193" flag="0"/>
      <psa03 value="1.4485043405" flag="0"/>
      <psa10 value="0.1975959775" flag="0"/>
      <psa30 value="0.0826073007" flag="0"/>
    </comp>
    <comp name="--.HNE">
      <acc value="1.1364376057" flag="0"/>
      <vel value="0.5206227618" flag="0"/>
      <psa03 value="2.7195714922" flag="0"/>
      <psa10 value="0.4597500247" flag="0"/>
      <psa30 value="0.0944137512" flag="0"/>
    </comp>
  </station>
