<stationlist created="1775808323">
	<station code="PHP" name="PHP" netid="AC" source="Albanian Seismological Network (AC)" insttype="" lat="41.6847" lon="20.4408">
		<comp name="01.HNE" depth="0.0">
			<acc value="0.0197509825599047" flag="0"/>
			<vel value="0.0568564402261608" flag="0"/>
			<psa03 value="0.0636732961683788" flag="0"/>
			<psa10 value="0.0642454684469842" flag="0"/>
			<psa30 value="0.0151043339213274" flag="0"/>
		</comp>
		<comp name="01.HNN" depth="0.0">
			<acc value="0.0301982743691473" flag="0"/>
			<vel value="0.0649015483491998" flag="0"/>
			<psa03 value="0.0475381804211476" flag="0"/>
			<psa10 value="0.0811731148204798" flag="0"/>
			<psa30 value="0.0193889277546411" flag="0"/>
		</comp>
		<comp name="01.HNZ" depth="0.0">
			<acc value="0.0179789326025798" flag="0"/>
			<vel value="0.0378600596615561" flag="0"/>
			<psa03 value="0.0427657835441095" flag="0"/>
			<psa10 value="0.0517135182667884" flag="0"/>
			<psa30 value="0.01985990562128" flag="0"/>
		</comp>
	</station>
	<station code="SRN" name="SRN" netid="AC" source="Albanian Seismological Network (AC)" insttype="" lat="39.880001" lon="20.0005">
		<comp name="01.HNE" depth="0.0">
			<acc value="0.632077311500745" flag="0"/>
			<vel value="0.539260063299224" flag="0"/>
			<psa03 value="1.3885211493783" flag="0"/>
			<psa10 value="0.485632900796315" flag="0"/>
			<psa30 value="0.206009273770013" flag="0"/>
		</comp>
		<comp name="01.HNN" depth="0.0">
			<acc value="0.609169830435241" flag="0"/>
			<vel value="0.578315410280209" flag="0"/>
			<psa03 value="1.39825796106096" flag="0"/>
			<psa10 value="0.518436683885952" flag="0"/>
			<psa30 value="0.217596854723715" flag="0"/>
		</comp>
		<comp name="01.HNZ" depth="0.0">
			<acc value="0.691261859163843" flag="0"/>
			<vel value="0.481049178154239" flag="0"/>
			<psa03 value="1.22721296350265" flag="0"/>
			<psa10 value="1.09789861039473" flag="0"/>
			<psa30 value="0.124684539738838" flag="0"/>
		</comp>
	</station>
	<station code="AGRP" name="AGRP" netid="CL" source="Corinth Riff Laboratory (CRLNET)" insttype="" lat="38.3959" lon="21.72277">
		<comp name="00.HNE" depth="0.0">
			<acc value="0.0878679493120177" flag="0"/>
			<vel value="0.13145292109296" flag="0"/>
			<psa03 value="0.168695654425857" flag="0"/>
			<psa10 value="0.191128756342096" flag="0"/>
			<psa30 value="0.0404620204102749" flag="0"/>
		</comp>
		<comp name="00.HNN" depth="0.0">
			<acc value="0.0793886452677553" flag="0"/>
			<vel value="0.124100155780384" flag="0"/>
			<psa03 value="0.221899345575952" flag="0"/>
			<psa10 value="0.203516516970442" flag="0"/>
			<psa30 value="0.0303407065895737" flag="0"/>
		</comp>
		<comp name="00.HNZ" depth="0.0">
			<acc value="0.0610789003661963" flag="0"/>
			<vel value="0.0973274564676704" flag="0"/>
			<psa03 value="0.146763836967253" flag="0"/>
			<psa10 value="0.140589493363958" flag="0"/>
			<psa30 value="0.0165655190510044" flag="0"/>
		</comp>
	</station>
	<station code="MALA" name="MALA" netid="CL" source="Corinth Riff Laboratory (CRLNET)" insttype="" lat="38.39341" lon="21.87263">
		<comp name="01.HNE" depth="0.0">
			<acc value="0.264372570602657" flag="0"/>
			<vel value="0.467673199466156" flag="0"/>
			<psa03 value="0.489302288875267" flag="0"/>
			<psa10 value="0.912820729893463" flag="0"/>
			<psa30 value="0.158046336460806" flag="0"/>
		</comp>
		<comp name="01.HNN" depth="0.0">
			<acc value="0.360185622145168" flag="0"/>
			<vel value="0.540638071548291" flag="0"/>
			<psa03 value="0.470865609202388" flag="0"/>
			<psa10 value="0.910288562149778" flag="0"/>
			<psa30 value="0.101526645642007" flag="0"/>
		</comp>
		<comp name="01.HNZ" depth="0.0">
			<acc value="0.119211595776968" flag="0"/>
			<vel value="0.180293212399613" flag="0"/>
			<psa03 value="0.141915401198845" flag="0"/>
			<psa10 value="0.269515744095332" flag="0"/>
			<psa30 value="0.0476066337058417" flag="0"/>
		</comp>
	</station>
	<station code="ROD3" name="ROD3" netid="CL" source="Corinth Riff Laboratory (CRLNET)" insttype="" lat="38.30811" lon="21.89204">
		<comp name="00.HNE" depth="0.0">
			<acc value="0.136380481739434" flag="0"/>
			<vel value="0.134855828432524" flag="0"/>
			<psa03 value="0.354312929826057" flag="0"/>
			<psa10 value="0.190830236566626" flag="0"/>
			<psa30 value="0.0402170175133687" flag="0"/>
		</comp>
		<comp name="00.HNN" depth="0.0">
			<acc value="0.111331570278035" flag="0"/>
			<vel value="0.142754793931017" flag="0"/>
			<psa03 value="0.440919292072513" flag="0"/>
			<psa10 value="0.149447220144886" flag="0"/>
			<psa30 value="0.0516707796022283" flag="0"/>
		</comp>
		<comp name="00.HNZ" depth="0.0">
			<acc value="0.0562125259487092" flag="0"/>
			<vel value="0.0999442967047889" flag="0"/>
			<psa03 value="0.0856413451938132" flag="0"/>
			<psa10 value="0.187179039692753" flag="0"/>
			<psa30 value="0.0160724780561249" flag="0"/>
		</comp>
	</station>
	<station code="TRIZ" name="TRIZ" netid="CL" source="Corinth Riff Laboratory (CRLNET)" insttype="" lat="38.36543" lon="22.07272">
		<comp name="00.HNE" depth="0.0">
			<acc value="0.100489385951464" flag="0"/>
			<vel value="0.150396907530575" flag="0"/>
			<psa03 value="0.196424241308653" flag="0"/>
			<psa10 value="0.132958622856237" flag="0"/>
			<psa30 value="0.0549833257088174" flag="0"/>
		</comp>
		<comp name="00.HNN" depth="0.0">
			<acc value="0.102063662926304" flag="0"/>
			<vel value="0.127088509481311" flag="0"/>
			<psa03 value="0.24630752499805" flag="0"/>
			<psa10 value="0.27033785855638" flag="0"/>
			<psa30 value="0.0388783488331385" flag="0"/>
		</comp>
		<comp name="00.HNZ" depth="0.0">
			<acc value="0.0515127889375783" flag="0"/>
			<vel value="0.0692613405976422" flag="0"/>
			<psa03 value="0.0902319045041715" flag="0"/>
			<psa10 value="0.129714072920727" flag="0"/>
			<psa30 value="0.0234604474728405" flag="0"/>
		</comp>
	</station>
	<station code="MMAA" name="MMAA" netid="EG" source="EUROSEISTEST Strong Motion Network" insttype="" lat="40.630855" lon="22.943725">
		<comp name="--.EN1" depth="0.0">
			<acc value="0.0296470141070965" flag="0"/>
			<vel value="0.0340843997214364" flag="0"/>
			<psa03 value="0.0909407535452749" flag="0"/>
			<psa10 value="0.0966244983988104" flag="0"/>
			<psa30 value="0.00773753174017061" flag="0"/>
		</comp>
		<comp name="--.EN2" depth="0.0">
			<acc value="0.0392813736021971" flag="0"/>
			<vel value="0.0480768900663313" flag="0"/>
			<psa03 value="0.108994387009889" flag="0"/>
			<psa10 value="0.12589714506799" flag="0"/>
			<psa30 value="0.0066399102781356" flag="0"/>
		</comp>
		<comp name="--.EN3" depth="0.0">
			<acc value="0.0393805547582091" flag="0"/>
			<vel value="0.015176782455498" flag="0"/>
			<psa03 value="0.0414861180433837" flag="0"/>
			<psa10 value="0.0267575856837321" flag="0"/>
			<psa30 value="0.00442033115857873" flag="0"/>
		</comp>
	</station>
	<station code="AGR3" name="AGR3" netid="HI" source="ITSAK Strong Motion Network" insttype="" lat="38.5893" lon="21.4162">
		<comp name="--.HNE" depth="0.0">
			<acc value="0.477518100975499" flag="0"/>
			<vel value="0.78478599276218" flag="0"/>
			<psa03 value="1.07893664092398" flag="0"/>
			<psa10 value="1.44389881120995" flag="0"/>
			<psa30 value="0.21438285514535" flag="0"/>
		</comp>
		<comp name="--.HNN" depth="0.0">
			<acc value="0.375308701121138" flag="0"/>
			<vel value="0.644444689598203" flag="0"/>
			<psa03 value="1.09479635821908" flag="0"/>
			<psa10 value="0.963669778393372" flag="0"/>
			<psa30 value="0.158123008206599" flag="0"/>
		</comp>
		<comp name="--.HNZ" depth="0.0">
			<acc value="0.305518158187656" flag="0"/>
			<vel value="0.439046326359908" flag="0"/>
			<psa03 value="0.471719915796007" flag="0"/>
			<psa10 value="1.19639801549691" flag="0"/>
			<psa30 value="0.0800184274947781" flag="0"/>
		</comp>
	</station>
	<station code="AIA1" name="AIA1" netid="HI" source="ITSAK Strong Motion Network" insttype="" lat="40.1641" lon="21.8202">
		<comp name="--.HNE" depth="0.0">
			<acc value="0.0790093229415937" flag="0"/>
			<vel value="0.0694507387602093" flag="0"/>
			<psa03 value="0.204555988330318" flag="0"/>
			<psa10 value="0.071055484577131" flag="0"/>
			<psa30 value="0.0201600555047368" flag="0"/>
		</comp>
		<comp name="--.HNN" depth="0.0">
			<acc value="0.0693659579567636" flag="0"/>
			<vel value="0.0793030855976609" flag="0"/>
			<psa03 value="0.204681830000044" flag="0"/>
			<psa10 value="0.103851474650519" flag="0"/>
			<psa30 value="0.0218257175133369" flag="0"/>
		</comp>
		<comp name="--.HNZ" depth="0.0">
			<acc value="0.0339943645153096" flag="0"/>
			<vel value="0.0408717504124264" flag="0"/>
			<psa03 value="0.0874432510195641" flag="0"/>
			<psa10 value="0.071184845646667" flag="0"/>
			<psa30 value="0.019653426943081" flag="0"/>
		</comp>
	</station>
	<station code="AIG2" name="AIG2" netid="HI" source="ITSAK Strong Motion Network" insttype="" lat="38.2417" lon="22.0726">
		<comp name="--.HNE" depth="0.0">
			<acc value="0.0576313167488152" flag="0"/>
			<vel value="0.134912921809573" flag="0"/>
			<psa03 value="0.102676551817648" flag="0"/>
			<psa10 value="0.102594908909206" flag="0"/>
			<psa30 value="0.0528345900322909" flag="0"/>
		</comp>
		<comp name="--.HNN" depth="0.0">
			<acc value="0.0605924090416254" flag="0"/>
			<vel value="0.0992542250952508" flag="0"/>
			<psa03 value="0.115187172251519" flag="0"/>
			<psa10 value="0.177479832167855" flag="0"/>
			<psa30 value="0.0370440806552071" flag="0"/>
		</comp>
		<comp name="--.HNZ" depth="0.0">
			<acc value="0.041073056378463" flag="0"/>
			<vel value="0.0643540366620222" flag="0"/>
			<psa03 value="0.0572151652238986" flag="0"/>
			<psa10 value="0.104103581351351" flag="0"/>
			<psa30 value="0.0214961506811516" flag="0"/>
		</comp>
	</station>
	<station code="AKR1" name="AKR1" netid="HI" source="ITSAK Strong Motion Network" insttype="" lat="38.153583" lon="22.31326">
		<comp name="--.HNE" depth="0.0">
			<acc value="0.0511483617819113" flag="0"/>
			<vel value="0.0606027539850166" flag="0"/>
			<psa03 value="0.118696154704385" flag="0"/>
			<psa10 value="0.105017224375717" flag="0"/>
			<psa30 value="0.0210436590391344" flag="0"/>
		</comp>
		<comp name="--.HNN" depth="0.0">
			<acc value="0.060726208809917" flag="0"/>
			<vel value="0.0670646284675874" flag="0"/>
			<psa03 value="0.1754306214177" flag="0"/>
			<psa10 value="0.107252597458213" flag="0"/>
			<psa30 value="0.0332401619975981" flag="0"/>
		</comp>
		<comp name="--.HNZ" depth="0.0">
			<acc value="0.0316218858364911" flag="0"/>
			<vel value="0.0458297572324469" flag="0"/>
			<psa03 value="0.0764687740143225" flag="0"/>
			<psa10 value="0.105634507767712" flag="0"/>
			<psa30 value="0.0182972704377015" flag="0"/>
		</comp>
	</station>
	<station code="ARG2" name="ARG2" netid="HI" source="ITSAK Strong Motion Network" insttype="" lat="38.1783" lon="20.4878">
		<comp name="--.HNE" depth="0.0">
			<acc value="0.354179571972623" flag="0"/>
			<vel value="0.257495489074137" flag="0"/>
			<psa03 value="1.02941327691083" flag="0"/>
			<psa10 value="0.152592268488903" flag="0"/>
			<psa30 value="0.0448715891892321" flag="0"/>
		</comp>
		<comp name="--.HNN" depth="0.0">
			<acc value="0.44029240398926" flag="0"/>
			<vel value="0.297567952382864" flag="0"/>
			<psa03 value="0.850665852437872" flag="0"/>
			<psa10 value="0.383483573904731" flag="0"/>
			<psa30 value="0.0265440800817005" flag="0"/>
		</comp>
		<comp name="--.HNZ" depth="0.0">
			<acc value="0.203861305888734" flag="0"/>
			<vel value="0.15003525122858" flag="0"/>
			<psa03 value="0.9964351756068" flag="0"/>
			<psa10 value="0.130020438215925" flag="0"/>
			<psa30 value="0.0279167110117631" flag="0"/>
		</comp>
	</station>
	<station code="ART2" name="ART2" netid="HI" source="ITSAK Strong Motion Network" insttype="" lat="39.1474" lon="20.9937">
		<comp name="--.HNE" depth="0.0">
			<acc value="0.356746320067488" flag="0"/>
			<vel value="0.336296678737772" flag="0"/>
			<psa03 value="0.813287876330397" flag="0"/>
			<psa10 value="0.405093615463928" flag="0"/>
			<psa30 value="0.0535457271416343" flag="0"/>
		</comp>
		<comp name="--.HNN" depth="0.0">
			<acc value="0.336289472198131" flag="0"/>
			<vel value="0.301346612083539" flag="0"/>
			<psa03 value="0.910846505777472" flag="0"/>
			<psa10 value="0.430499658489592" flag="0"/>
			<psa30 value="0.0691026643790435" flag="0"/>
		</comp>
		<comp name="--.HNZ" depth="0.0">
			<acc value="0.313957168223656" flag="0"/>
			<vel value="0.217855940791687" flag="0"/>
			<psa03 value="0.604038097892853" flag="0"/>
			<psa10 value="0.384007408606209" flag="0"/>
			<psa30 value="0.0528339766583245" flag="0"/>
		</comp>
	</station>
	<station code="AST1" name="AST1" netid="HI" source="ITSAK Strong Motion Network" insttype="" lat="38.5416" lon="21.0895">
		<comp name="--.HNE" depth="0.0">
			<acc value="0.188968614928188" flag="0"/>
			<vel value="0.290525427682478" flag="0"/>
			<psa03 value="0.541362195921945" flag="0"/>
			<psa10 value="0.371302076940341" flag="0"/>
			<psa30 value="0.0888608599291971" flag="0"/>
		</comp>
		<comp name="--.HNN" depth="0.0">
			<acc value="0.217490082277521" flag="0"/>
			<vel value="0.322313405875671" flag="0"/>
			<psa03 value="0.534873224392761" flag="0"/>
			<psa10 value="0.478686270616158" flag="0"/>
			<psa30 value="0.0320849954734851" flag="0"/>
		</comp>
		<comp name="--.HNZ" depth="0.0">
			<acc value="0.12262502165366" flag="0"/>
			<vel value="0.153310372201546" flag="0"/>
			<psa03 value="0.395829180073884" flag="0"/>
			<psa10 value="0.292130642221344" flag="0"/>
			<psa30 value="0.0294329364542574" flag="0"/>
		</comp>
	</station>
	<station code="GRE3" name="GRE3" netid="HI" source="ITSAK Strong Motion Network" insttype="" lat="40.08481" lon="21.43829">
		<comp name="--.HNE" depth="0.0">
			<acc value="0.158224737781441" flag="0"/>
			<vel value="0.186294252763435" flag="0"/>
			<psa03 value="0.403943884299881" flag="0"/>
			<psa10 value="0.207719255381236" flag="0"/>
			<psa30 value="0.0694963771272474" flag="0"/>
		</comp>
		<comp name="--.HNN" depth="0.0">
			<acc value="0.106339372309371" flag="0"/>
			<vel value="0.118043561486398" flag="0"/>
			<psa03 value="0.335929066151978" flag="0"/>
			<psa10 value="0.159096504362609" flag="0"/>
			<psa30 value="0.0564530397368254" flag="0"/>
		</comp>
		<comp name="--.HNZ" depth="0.0">
			<acc value="0.068851013630277" flag="0"/>
			<vel value="0.0885363793936139" flag="0"/>
			<psa03 value="0.197961009778689" flag="0"/>
			<psa10 value="0.116119564851286" flag="0"/>
			<psa30 value="0.0469634677659214" flag="0"/>
		</comp>
	</station>
	<station code="ITS1" name="ITS1" netid="HI" source="ITSAK Strong Motion Network" insttype="" lat="40.605" lon="23.0123">
		<comp name="--.HNE" depth="0.0">
			<acc value="0.0235758799692613" flag="0"/>
			<vel value="0.0250040183446276" flag="0"/>
			<psa03 value="0.0533072032155948" flag="0"/>
			<psa10 value="0.0536123215531873" flag="0"/>
			<psa30 value="0.00496116281935532" flag="0"/>
		</comp>
		<comp name="--.HNN" depth="0.0">
			<acc value="0.0291639111568251" flag="0"/>
			<vel value="0.0385510618638566" flag="0"/>
			<psa03 value="0.0934088857969237" flag="0"/>
			<psa10 value="0.0979584917693243" flag="0"/>
			<psa30 value="0.00832654742623574" flag="0"/>
		</comp>
		<comp name="--.HNZ" depth="0.0">
			<acc value="0.0199246489304301" flag="0"/>
			<vel value="0.0153216282559659" flag="0"/>
			<psa03 value="0.0771549132176773" flag="0"/>
			<psa10 value="0.0291600323340321" flag="0"/>
			<psa30 value="0.00349184673437572" flag="0"/>
		</comp>
	</station>
	<station code="JAN2" name="JAN2" netid="HI" source="ITSAK Strong Motion Network" insttype="" lat="39.664" lon="20.85222">
		<comp name="--.HNE" depth="0.0">
			<acc value="6.01885855706477" flag="0"/>
			<vel value="2.65024944878021" flag="0"/>
			<psa03 value="29.1129339223268" flag="0"/>
			<psa10 value="2.83332481386368" flag="0"/>
			<psa30 value="0.26864611648677" flag="0"/>
		</comp>
		<comp name="--.HNN" depth="0.0">
			<acc value="6.53031090208722" flag="0"/>
			<vel value="3.16293209395264" flag="0"/>
			<psa03 value="31.1222483628806" flag="0"/>
			<psa10 value="2.10847391604908" flag="0"/>
			<psa30 value="0.475787625261795" flag="0"/>
		</comp>
		<comp name="--.HNZ" depth="0.0">
			<acc value="3.51236447733794" flag="0"/>
			<vel value="1.63271458770903" flag="0"/>
			<psa03 value="8.70080638572171" flag="0"/>
			<psa10 value="0.932984285630073" flag="0"/>
			<psa30 value="0.140141483685515" flag="0"/>
		</comp>
	</station>
	<station code="JAN3" name="JAN3" netid="HI" source="ITSAK Strong Motion Network" insttype="" lat="39.684" lon="20.8379">
		<comp name="--.HNE" depth="0.0">
			<acc value="9.16280341471776" flag="0"/>
			<vel value="3.63098554852485" flag="0"/>
			<psa03 value="18.2402109911265" flag="0"/>
			<psa10 value="1.44061371358836" flag="0"/>
			<psa30 value="0.201893027755582" flag="0"/>
		</comp>
		<comp name="--.HNN" depth="0.0">
			<acc value="6.24317172804364" flag="0"/>
			<vel value="2.40256899685924" flag="0"/>
			<psa03 value="13.3407544261744" flag="0"/>
			<psa10 value="1.02509182730267" flag="0"/>
			<psa30 value="0.44541401315906" flag="0"/>
		</comp>
		<comp name="--.HNZ" depth="0.0">
			<acc value="6.57643488853686" flag="0"/>
			<vel value="1.35451600949493" flag="0"/>
			<psa03 value="10.1786216170614" flag="0"/>
			<psa10 value="0.766357987455579" flag="0"/>
			<psa30 value="0.139833116591042" flag="0"/>
		</comp>
	</station>
	<station code="KAR2" name="KAR2" netid="HI" source="ITSAK Strong Motion Network" insttype="" lat="39.365759" lon="21.91933">
		<comp name="--.HNE" depth="0.0">
			<acc value="0.526209563784421" flag="0"/>
			<vel value="0.992029491481415" flag="0"/>
			<psa03 value="1.32825790723427" flag="0"/>
			<psa10 value="2.09142510664913" flag="0"/>
			<psa30 value="0.583090680229238" flag="0"/>
		</comp>
		<comp name="--.HNN" depth="0.0">
			<acc value="0.694265383406147" flag="0"/>
			<vel value="1.05631775811837" flag="0"/>
			<psa03 value="1.42215687758022" flag="0"/>
			<psa10 value="2.13444099624071" flag="0"/>
			<psa30 value="0.610116843913277" flag="0"/>
		</comp>
		<comp name="--.HNZ" depth="0.0">
			<acc value="0.356666101895339" flag="0"/>
			<vel value="0.447279469637729" flag="0"/>
			<psa03 value="0.535782742977237" flag="0"/>
			<psa10 value="0.644532637124007" flag="0"/>
			<psa30 value="0.108721462263298" flag="0"/>
		</comp>
	</station>
	<station code="KAS2" name="KAS2" netid="HI" source="ITSAK Strong Motion Network" insttype="" lat="40.504878" lon="21.280507">
		<comp name="--.HNE" depth="0.0">
			<acc value="0.0306703717087099" flag="0"/>
			<vel value="0.0570981439966436" flag="0"/>
			<psa03 value="0.095143073595021" flag="0"/>
			<psa10 value="0.0615037593222103" flag="0"/>
			<psa30 value="0.0182283725402206" flag="0"/>
		</comp>
		<comp name="--.HNN" depth="0.0">
			<acc value="0.0299377819580933" flag="0"/>
			<vel value="0.0583750595784797" flag="0"/>
			<psa03 value="0.0859184520924519" flag="0"/>
			<psa10 value="0.0517522133301464" flag="0"/>
			<psa30 value="0.0196588423018219" flag="0"/>
		</comp>
		<comp name="--.HNZ" depth="0.0">
			<acc value="0.0200850973678974" flag="0"/>
			<vel value="0.0342948321887405" flag="0"/>
			<psa03 value="0.0626835066413469" flag="0"/>
			<psa10 value="0.0416671314929697" flag="0"/>
			<psa30 value="0.012723950399268" flag="0"/>
		</comp>
	</station>
	<station code="KLR1" name="KLR1" netid="HI" source="ITSAK Strong Motion Network" insttype="" lat="40.58251" lon="22.949554">
		<comp name="--.HNE" depth="0.0">
			<acc value="0.0237721078487212" flag="0"/>
			<vel value="0.035537990402716" flag="0"/>
			<psa03 value="0.0533091616786667" flag="0"/>
			<psa10 value="0.0587525245664101" flag="0"/>
			<psa30 value="0.0293560146919015" flag="0"/>
		</comp>
		<comp name="--.HNN" depth="0.0">
			<acc value="0.0279780215874444" flag="0"/>
			<vel value="0.0531026688750644" flag="0"/>
