<stationlist created="1778138282">
	<station code="MALA" name="MALA" netid="CL" source="Corinth Riff Laboratory (CRLNET)" insttype="" lat="38.39341" lon="21.87263">
		<comp name="01.HNE" depth="0.0">
			<acc value="0.0390773609957253" flag="0"/>
			<vel value="0.0167624059537195" flag="0"/>
			<psa03 value="0.0823975886442711" flag="0"/>
			<psa10 value="0.0215216463284405" flag="0"/>
			<psa30 value="0.00304731270284315" flag="0"/>
		</comp>
		<comp name="01.HNN" depth="0.0">
			<acc value="0.0413837537003754" flag="0"/>
			<vel value="0.0161672922204418" flag="0"/>
			<psa03 value="0.108155591860282" flag="0"/>
			<psa10 value="0.0188512313015495" flag="0"/>
			<psa30 value="0.0021225633177345" flag="0"/>
		</comp>
		<comp name="01.HNZ" depth="0.0">
			<acc value="0.0114383406120865" flag="0"/>
			<vel value="0.0069121792566565" flag="0"/>
			<psa03 value="0.0275883301956555" flag="0"/>
			<psa10 value="0.00587111565136661" flag="0"/>
			<psa30 value="0.00201345650661252" flag="0"/>
		</comp>
	</station>
	<station code="ROD3" name="ROD3" netid="CL" source="Corinth Riff Laboratory (CRLNET)" insttype="" lat="38.30811" lon="21.89204">
		<comp name="00.HNE" depth="0.0">
			<acc value="0.128307762366352" flag="0"/>
			<vel value="0.0520291277194425" flag="0"/>
			<psa03 value="0.661115378983359" flag="0"/>
			<psa10 value="0.0170596757448117" flag="0"/>
			<psa30 value="0.00143526987125359" flag="0"/>
		</comp>
		<comp name="00.HNN" depth="0.0">
			<acc value="0.101591534667776" flag="0"/>
			<vel value="0.0404458994604024" flag="0"/>
			<psa03 value="0.357949129039848" flag="0"/>
			<psa10 value="0.0134333233292555" flag="0"/>
			<psa30 value="0.00112305950134623" flag="0"/>
		</comp>
		<comp name="00.HNZ" depth="0.0">
			<acc value="0.0496185621622456" flag="0"/>
			<vel value="0.0153081147296097" flag="0"/>
			<psa03 value="0.0894667809020361" flag="0"/>
			<psa10 value="0.0107910707929749" flag="0"/>
			<psa30 value="0.000865931894988032" flag="0"/>
		</comp>
	</station>
	<station code="KTHA" name="KTHA" netid="GE" source="GEOFON" insttype="" lat="36.2566" lon="23.0621">
		<comp name="--.HNE" depth="0.0">
			<acc value="0.00258262498259819" flag="0"/>
			<vel value="0.00303124491367739" flag="0"/>
			<psa03 value="0.00536150784283251" flag="0"/>
			<psa10 value="0.00350248077216043" flag="0"/>
			<psa30 value="0.000752866436205797" flag="0"/>
		</comp>
		<comp name="--.HNN" depth="0.0">
			<acc value="0.00195210009584061" flag="0"/>
			<vel value="0.00269045846784056" flag="0"/>
			<psa03 value="0.00570591509822852" flag="0"/>
			<psa10 value="0.00470861504763006" flag="0"/>
			<psa30 value="0.00137092300442187" flag="0"/>
		</comp>
		<comp name="--.HNZ" depth="0.0">
			<acc value="0.0015164009234249" flag="0"/>
			<vel value="0.00188145962782181" flag="0"/>
			<psa03 value="0.00347978162522406" flag="0"/>
			<psa10 value="0.00230107743508872" flag="0"/>
			<psa30 value="0.00115505068310372" flag="0"/>
		</comp>
	</station>
	<station code="AIGS" name="AIGS" netid="HA" source="Hellenic Seismological Network, University of Athens, Seismological Laboratory (HA)" insttype="" lat="38.25001" lon="22.0878">
		<comp name="--.HNE" depth="0.0">
			<acc value="0.0755400835159804" flag="0"/>
			<vel value="0.021874535421157" flag="0"/>
			<psa03 value="0.145069870583832" flag="0"/>
			<psa10 value="0.0136070432748414" flag="0"/>
			<psa30 value="0.00115612460841472" flag="0"/>
		</comp>
		<comp name="--.HNN" depth="0.0">
			<acc value="0.0585517193089815" flag="0"/>
			<vel value="0.0215390127924242" flag="0"/>
			<psa03 value="0.151880696767269" flag="0"/>
			<psa10 value="0.00985463844642076" flag="0"/>
			<psa30 value="0.00134926959082248" flag="0"/>
		</comp>
		<comp name="--.HNZ" depth="0.0">
			<acc value="0.0413843366023751" flag="0"/>
			<vel value="0.0117318959737455" flag="0"/>
			<psa03 value="0.054570729626168" flag="0"/>
			<psa10 value="0.010970783635584" flag="0"/>
			<psa30 value="0.000941791555736425" flag="0"/>
		</comp>
	</station>
	<station code="KIAS" name="KIAS" netid="HA" source="Hellenic Seismological Network, University of Athens, Seismological Laboratory (HA)" insttype="" lat="37.9875" lon="22.7543">
		<comp name="--.HNE" depth="0.0">
			<acc value="0.0155227040963484" flag="0"/>
			<vel value="0.00826955256982621" flag="0"/>
			<psa03 value="0.0371061690390722" flag="0"/>
			<psa10 value="0.0132811560614034" flag="0"/>
			<psa30 value="0.00115001795387927" flag="0"/>
		</comp>
		<comp name="--.HNN" depth="0.0">
			<acc value="0.0172986156611636" flag="0"/>
			<vel value="0.00858547376609531" flag="0"/>
			<psa03 value="0.032921537661135" flag="0"/>
			<psa10 value="0.00904681055678329" flag="0"/>
			<psa30 value="0.00176794628443012" flag="0"/>
		</comp>
		<comp name="--.HNZ" depth="0.0">
			<acc value="0.0140589360153644" flag="0"/>
			<vel value="0.00556439046317237" flag="0"/>
			<psa03 value="0.0248998109486244" flag="0"/>
			<psa10 value="0.00663806677058912" flag="0"/>
			<psa30 value="0.00135450920875306" flag="0"/>
		</comp>
	</station>
	<station code="LTRS" name="LTRS" netid="HA" source="Hellenic Seismological Network, University of Athens, Seismological Laboratory (HA)" insttype="" lat="37.97528" lon="22.9765">
		<comp name="--.HNE" depth="0.0">
			<acc value="0.0156674464730189" flag="0"/>
			<vel value="0.00936464578753872" flag="0"/>
			<psa03 value="0.0340822447606067" flag="0"/>
			<psa10 value="0.0197192994318231" flag="0"/>
			<psa30 value="0.00113705574102926" flag="0"/>
		</comp>
		<comp name="--.HNN" depth="0.0">
			<acc value="0.0109846587062004" flag="0"/>
			<vel value="0.00747205759295154" flag="0"/>
			<psa03 value="0.0282753600830006" flag="0"/>
			<psa10 value="0.0154821346779234" flag="0"/>
			<psa30 value="0.00117555745824604" flag="0"/>
		</comp>
		<comp name="--.HNZ" depth="0.0">
			<acc value="0.0144016852606215" flag="0"/>
			<vel value="0.00576784021992534" flag="0"/>
			<psa03 value="0.0189593653398969" flag="0"/>
			<psa10 value="0.00615772651291467" flag="0"/>
			<psa30 value="0.00081119774828794" flag="0"/>
		</comp>
	</station>
	<station code="XLKS" name="XLKS" netid="HA" source="Hellenic Seismological Network, University of Athens, Seismological Laboratory (HA)" insttype="" lat="38.0772" lon="22.6361">
		<comp name="--.HNE" depth="0.0">
			<acc value="0.0296492882442846" flag="0"/>
			<vel value="0.0239059408512452" flag="0"/>
			<psa03 value="0.106668045400987" flag="0"/>
			<psa10 value="0.033679739867477" flag="0"/>
			<psa30 value="0.00226454959863053" flag="0"/>
		</comp>
		<comp name="--.HNN" depth="0.0">
			<acc value="0.0234842575209217" flag="0"/>
			<vel value="0.0190314782560102" flag="0"/>
			<psa03 value="0.0607621658203974" flag="0"/>
			<psa10 value="0.0216962747717352" flag="0"/>
			<psa30 value="0.00180256961972458" flag="0"/>
		</comp>
		<comp name="--.HNZ" depth="0.0">
			<acc value="0.0178126597790768" flag="0"/>
			<vel value="0.00865087290360603" flag="0"/>
			<psa03 value="0.0548033492030626" flag="0"/>
			<psa10 value="0.0106888633972256" flag="0"/>
			<psa30 value="0.0011062799522858" flag="0"/>
		</comp>
	</station>
	<station code="KLV1" name="KLV1" netid="HI" source="ITSAK Strong Motion Network" insttype="" lat="38.03256" lon="22.10797">
		<comp name="--.HNE" depth="0.0">
			<acc value="0.0593402798464912" flag="0"/>
			<vel value="0.0218844839048362" flag="0"/>
			<psa03 value="0.133989730328698" flag="0"/>
			<psa10 value="0.0117538411342858" flag="0"/>
			<psa30 value="0.00107855884506495" flag="0"/>
		</comp>
		<comp name="--.HNN" depth="0.0">
			<acc value="0.066172193657271" flag="0"/>
			<vel value="0.0250469719311371" flag="0"/>
			<psa03 value="0.149442503999314" flag="0"/>
			<psa10 value="0.0146647595933485" flag="0"/>
			<psa30 value="0.000875114951235294" flag="0"/>
		</comp>
		<comp name="--.HNZ" depth="0.0">
			<acc value="0.0363333819645058" flag="0"/>
			<vel value="0.00962055589897587" flag="0"/>
			<psa03 value="0.0561760495127395" flag="0"/>
			<psa10 value="0.0104170163262239" flag="0"/>
			<psa30 value="0.000490011262923837" flag="0"/>
		</comp>
	</station>
	<station code="KRI1" name="KRI1" netid="HI" source="ITSAK Strong Motion Network" insttype="" lat="37.6621" lon="20.8172">
		<comp name="--.HNE" depth="0.0">
			<acc value="0.0928561385656849" flag="0"/>
			<vel value="0.0320821176706216" flag="0"/>
			<psa03 value="0.140904532150265" flag="0"/>
			<psa10 value="0.0341260869357572" flag="0"/>
			<psa30 value="0.0012143108588" flag="0"/>
		</comp>
		<comp name="--.HNN" depth="0.0">
			<acc value="0.0802352771688554" flag="0"/>
			<vel value="0.031419065009873" flag="0"/>
			<psa03 value="0.192985513509642" flag="0"/>
			<psa10 value="0.024160210495353" flag="0"/>
			<psa30 value="0.00138196519424339" flag="0"/>
		</comp>
		<comp name="--.HNZ" depth="0.0">
			<acc value="0.0964804028088984" flag="0"/>
			<vel value="0.0243893918696619" flag="0"/>
			<psa03 value="0.11448124007051" flag="0"/>
			<psa10 value="0.00801090193292329" flag="0"/>
			<psa30 value="0.000650862126840149" flag="0"/>
		</comp>
	</station>
	<station code="NPS1" name="NPS1" netid="HI" source="ITSAK Strong Motion Network" insttype="" lat="36.51263" lon="23.06248">
		<comp name="--.HNE" depth="0.0">
			<acc value="0.00462762465164744" flag="0"/>
			<vel value="0.00360606958753446" flag="0"/>
			<psa03 value="0.0155932933958352" flag="0"/>
			<psa10 value="0.00259183349312579" flag="0"/>
			<psa30 value="0.000246883880887137" flag="0"/>
		</comp>
		<comp name="--.HNN" depth="0.0">
			<acc value="0.0058161655952495" flag="0"/>
			<vel value="0.00363125068396671" flag="0"/>
			<psa03 value="0.0149432360098131" flag="0"/>
			<psa10 value="0.00404127333952721" flag="0"/>
			<psa30 value="0.000322407087053761" flag="0"/>
		</comp>
		<comp name="--.HNZ" depth="0.0">
			<acc value="0.00251418074231866" flag="0"/>
			<vel value="0.0014181615051467" flag="0"/>
			<psa03 value="0.00809153797781029" flag="0"/>
			<psa10 value="0.00162671045689554" flag="0"/>
			<psa30 value="0.000190474571130715" flag="0"/>
		</comp>
	</station>
	<station code="PYL1" name="PYL1" netid="HI" source="ITSAK Strong Motion Network" insttype="" lat="36.914188" lon="21.695161">
		<comp name="--.HNE" depth="0.0">
			<acc value="0.0394622578186368" flag="0"/>
			<vel value="0.0198516520048332" flag="0"/>
			<psa03 value="0.117722975652644" flag="0"/>
			<psa10 value="0.0100942558823925" flag="0"/>
			<psa30 value="0.000535661682873997" flag="0"/>
		</comp>
		<comp name="--.HNN" depth="0.0">
			<acc value="0.0243989001464082" flag="0"/>
			<vel value="0.0134595495979221" flag="0"/>
			<psa03 value="0.0821933719910484" flag="0"/>
			<psa10 value="0.00581601090717936" flag="0"/>
			<psa30 value="0.000469425315874211" flag="0"/>
		</comp>
		<comp name="--.HNZ" depth="0.0">
			<acc value="0.0160841716401564" flag="0"/>
			<vel value="0.00761691229275363" flag="0"/>
			<psa03 value="0.0270824737684916" flag="0"/>
			<psa10 value="0.00562582080801487" flag="0"/>
			<psa30 value="0.000639015612898139" flag="0"/>
		</comp>
	</station>
	<station code="VAS2" name="VAS2" netid="HI" source="ITSAK Strong Motion Network" insttype="" lat="38.630558" lon="20.608081">
		<comp name="--.HNE" depth="0.0">
			<acc value="0.0342226777480585" flag="0"/>
			<vel value="0.0187894068250944" flag="0"/>
			<psa03 value="0.0739946517823666" flag="0"/>
			<psa10 value="0.0563242462047843" flag="0"/>
			<psa30 value="0.00153025199668525" flag="0"/>
		</comp>
		<comp name="--.HNN" depth="0.0">
			<acc value="0.0403650703180231" flag="0"/>
			<vel value="0.0255561817189721" flag="0"/>
			<psa03 value="0.111109683387972" flag="0"/>
			<psa10 value="0.0420402099576353" flag="0"/>
			<psa30 value="0.00201588333404255" flag="0"/>
		</comp>
		<comp name="--.HNZ" depth="0.0">
			<acc value="0.0209339222255864" flag="0"/>
			<vel value="0.0135920949033659" flag="0"/>
			<psa03 value="0.0644106939755718" flag="0"/>
			<psa10 value="0.0102649221882154" flag="0"/>
			<psa30 value="0.000777109292176675" flag="0"/>
		</comp>
	</station>
	<station code="ITM" name="ITM" netid="HL" source="National Observatory of Athens Seismic Network" insttype="" lat="37.17872" lon="21.92522">
		<comp name="--.HNE" depth="0.0">
			<acc value="0.0806766163959835" flag="0"/>
			<vel value="0.0183200438320316" flag="0"/>
			<psa03 value="0.123186900110925" flag="0"/>
			<psa10 value="0.00848221721776098" flag="0"/>
			<psa30 value="0.00106302823290411" flag="0"/>
		</comp>
		<comp name="--.HNN" depth="0.0">
			<acc value="0.129437367965446" flag="0"/>
			<vel value="0.0343180312802614" flag="0"/>
			<psa03 value="0.140128230724333" flag="0"/>
			<psa10 value="0.013597031049095" flag="0"/>
			<psa30 value="0.000717400649272059" flag="0"/>
		</comp>
		<comp name="--.HNZ" depth="0.0">
			<acc value="0.0529361152487689" flag="0"/>
			<vel value="0.0140163463167864" flag="0"/>
			<psa03 value="0.0606582578951226" flag="0"/>
			<psa10 value="0.00792462277986189" flag="0"/>
			<psa30 value="0.00111231347697759" flag="0"/>
		</comp>
	</station>
	<station code="ANX" name="ANX" netid="HP" source="University of Patras, Seismological Laboratory (PSLNET)" insttype="" lat="38.5933" lon="21.9209">
		<comp name="--.HNE" depth="0.0">
			<acc value="0.0254897657795121" flag="0"/>
			<vel value="0.0137781187448901" flag="0"/>
			<psa03 value="0.0596776877288806" flag="0"/>
			<psa10 value="0.00943878839839118" flag="0"/>
			<psa30 value="0.000806425088369817" flag="0"/>
		</comp>
		<comp name="--.HNN" depth="0.0">
			<acc value="0.0174451617992061" flag="0"/>
			<vel value="0.00909692157876906" flag="0"/>
			<psa03 value="0.0499057487194656" flag="0"/>
			<psa10 value="0.0139770240342562" flag="0"/>
			<psa30 value="0.000476257851826848" flag="0"/>
		</comp>
		<comp name="--.HNZ" depth="0.0">
			<acc value="0.0118814805325131" flag="0"/>
			<vel value="0.00755081876903572" flag="0"/>
			<psa03 value="0.030657700193013" flag="0"/>
			<psa10 value="0.00452950787016024" flag="0"/>
			<psa30 value="0.000307116621010522" flag="0"/>
		</comp>
	</station>
	<station code="FSK" name="FSK" netid="HP" source="University of Patras, Seismological Laboratory (PSLNET)" insttype="" lat="38.4593" lon="20.5623">
		<comp name="--.HNE" depth="0.0">
			<acc value="0.00781342077285059" flag="0"/>
			<vel value="0.00320266720291272" flag="0"/>
			<psa03 value="0.0162389155921936" flag="0"/>
			<psa10 value="0.00640503148938763" flag="0"/>
			<psa30 value="0.000531409057408682" flag="0"/>
		</comp>
		<comp name="--.HNN" depth="0.0">
			<acc value="0.003818596947295" flag="0"/>
			<vel value="0.00255657018628953" flag="0"/>
			<psa03 value="0.00959095892165049" flag="0"/>
			<psa10 value="0.00475099004226056" flag="0"/>
			<psa30 value="0.000494185914476795" flag="0"/>
		</comp>
		<comp name="--.HNZ" depth="0.0">
			<acc value="0.00342831378394558" flag="0"/>
			<vel value="0.00226624052666723" flag="0"/>
			<psa03 value="0.00657046260465998" flag="0"/>
			<psa10 value="0.00424380550628079" flag="0"/>
			<psa30 value="0.000616262959813688" flag="0"/>
		</comp>
	</station>
	<station code="GUR" name="GUR" netid="HP" source="University of Patras, Seismological Laboratory (PSLNET)" insttype="" lat="37.9363" lon="22.3423">
		<comp name="--.HNE" depth="0.0">
			<acc value="0.0347943506070962" flag="0"/>
			<vel value="0.0147803271753474" flag="0"/>
			<psa03 value="0.121051487817009" flag="0"/>
			<psa10 value="0.00880246405756084" flag="0"/>
			<psa30 value="0.00042673985796278" flag="0"/>
		</comp>
		<comp name="--.HNN" depth="0.0">
			<acc value="0.0405386133225502" flag="0"/>
			<vel value="0.012086950370324" flag="0"/>
			<psa03 value="0.0784823501122481" flag="0"/>
			<psa10 value="0.00606885171914255" flag="0"/>
			<psa30 value="0.000566714156613345" flag="0"/>
		</comp>
		<comp name="--.HNZ" depth="0.0">
			<acc value="0.0463429696387382" flag="0"/>
			<vel value="0.0167021160000602" flag="0"/>
			<psa03 value="0.0594244730382203" flag="0"/>
			<psa10 value="0.00672104007965266" flag="0"/>
			<psa30 value="0.000495311770308642" flag="0"/>
		</comp>
	</station>
	<station code="LTK" name="LTK" netid="HP" source="University of Patras, Seismological Laboratory (PSLNET)" insttype="" lat="38.0228" lon="22.9673">
		<comp name="--.HNE" depth="0.0">
			<acc value="0.00368974223485622" flag="0"/>
			<vel value="0.00341118067502435" flag="0"/>
			<psa03 value="0.0131158115664614" flag="0"/>
			<psa10 value="0.00369692904402969" flag="0"/>
			<psa30 value="0.000373618578522387" flag="0"/>
		</comp>
		<comp name="--.HNN" depth="0.0">
			<acc value="0.00548099864083949" flag="0"/>
			<vel value="0.00246048655322284" flag="0"/>
			<psa03 value="0.014099389744543" flag="0"/>
			<psa10 value="0.00449570547467136" flag="0"/>
			<psa30 value="0.000418477904398844" flag="0"/>
		</comp>
		<comp name="--.HNZ" depth="0.0">
			<acc value="0.00289188036513486" flag="0"/>
			<vel value="0.00205405935898248" flag="0"/>
			<psa03 value="0.0119764470266546" flag="0"/>
			<psa10 value="0.00185775271543901" flag="0"/>
			<psa30 value="0.000305987093060052" flag="0"/>
		</comp>
	</station>
	<station code="PDO" name="PDO" netid="HP" source="University of Patras, Seismological Laboratory (PSLNET)" insttype="" lat="38.5986" lon="21.1833">
		<comp name="--.HNE" depth="0.0">
			<acc value="0.0225381413493546" flag="0"/>
			<vel value="0.014551609276984" flag="0"/>
			<psa03 value="0.0803415930695713" flag="0"/>
			<psa10 value="0.00892732764165574" flag="0"/>
			<psa30 value="0.000591202862204324" flag="0"/>
		</comp>
		<comp name="--.HNN" depth="0.0">
			<acc value="0.032395430833229" flag="0"/>
			<vel value="0.0175190983856409" flag="0"/>
			<psa03 value="0.117990139184378" flag="0"/>
			<psa10 value="0.00943959845206889" flag="0"/>
			<psa30 value="0.000600922308154043" flag="0"/>
		</comp>
		<comp name="--.HNZ" depth="0.0">
			<acc value="0.0123777143880172" flag="0"/>
			<vel value="0.00626034487207158" flag="0"/>
			<psa03 value="0.0337012924410419" flag="0"/>
			<psa10 value="0.00380940251047133" flag="0"/>
			<psa30 value="0.000353492375468374" flag="0"/>
		</comp>
	</station>
	<station code="PVO" name="PVO" netid="HP" source="University of Patras, Seismological Laboratory (PSLNET)" insttype="" lat="38.616" lon="21.525">
		<comp name="--.HNE" depth="0.0">
			<acc value="0.0168711595510319" flag="0"/>
			<vel value="0.00854610319257366" flag="0"/>
			<psa03 value="0.0632583051355688" flag="0"/>
			<psa10 value="0.00338881308598402" flag="0"/>
			<psa30 value="0.000393719285095285" flag="0"/>
		</comp>
		<comp name="--.HNN" depth="0.0">
			<acc value="0.00943796765089808" flag="0"/>
			<vel value="0.00470186077738138" flag="0"/>
			<psa03 value="0.0360375487690571" flag="0"/>
			<psa10 value="0.00273758642979209" flag="0"/>
			<psa30 value="0.000313190903610501" flag="0"/>
		</comp>
		<comp name="--.HNZ" depth="0.0">
			<acc value="0.0111894488354176" flag="0"/>
			<vel value="0.00624787115340911" flag="0"/>
			<psa03 value="0.047839971246512" flag="0"/>
			<psa10 value="0.00312436548950643" flag="0"/>
			<psa30 value="0.00032992763733665" flag="0"/>
		</comp>
	</station>
	<station code="PYL" name="PYL" netid="HP" source="University of Patras, Seismological Laboratory (PSLNET)" insttype="" lat="36.8955" lon="21.742">
		<comp name="--.HNE" depth="0.0">
			<acc value="0.0347374206824491" flag="0"/>
			<vel value="0.0111856222270754" flag="0"/>
			<psa03 value="0.0924778970400621" flag="0"/>
			<psa10 value="0.00561746150424726" flag="0"/>
			<psa30 value="0.000626351492713399" flag="0"/>
		</comp>
		<comp name="--.HNN" depth="0.0">
			<acc value="0.0298609722856189" flag="0"/>
			<vel value="0.0107483594366686" flag="0"/>
			<psa03 value="0.0619217218017283" flag="0"/>
			<psa10 value="0.00739765708970813" flag="0"/>
			<psa30 value="0.000333435604097204" flag="0"/>
		</comp>
		<comp name="--.HNZ" depth="0.0">
			<acc value="0.0190014458670708" flag="0"/>
			<vel value="0.0063884342246295" flag="0"/>
