<?xml version="1.0" encoding="UTF-8" standalone="yes"?>
<!DOCTYPE earthquake SYSTEM "stationlist.dtd">
<stationlist created="" xmlns="ch.ethz.sed.shakemap.usgs.xml">
  <station code="KALE" name="KALE" netid="HA" insttype="40," lat="38.3911" lon="22.1398">
    <comp name="--.HHE">
      <acc value="0.0331966236" flag="0"/>
      <vel value="0.0144787297" flag="0"/>
      <psa03 value="0.0825323432" flag="0"/>
      <psa10 value="0.0050721184" flag="0"/>
      <psa30 value="0.0005566067" flag="0"/>
    </comp>
    <comp name="--.HHZ">
      <acc value="0.0123205261" flag="0"/>
      <vel value="0.0053083434" flag="0"/>
      <psa03 value="0.0346480740" flag="0"/>
      <psa10 value="0.0021644921" flag="0"/>
      <psa30 value="0.0002628368" flag="0"/>
    </comp>
    <comp name="--.HHN">
      <acc value="0.0297324612" flag="0"/>
      <vel value="0.0130747670" flag="0"/>
      <psa03 value="0.0733794284" flag="0"/>
      <psa10 value="0.0037537744" flag="0"/>
      <psa30 value="0.0004817955" flag="0"/>
    </comp>
  </station>
  <station code="LAKA" name="LAKA" netid="HA" insttype="120s" lat="38.2401" lon="21.9785">
    <comp name="--.HHN">
      <acc value="0.0338853752" flag="0"/>
      <vel value="0.0112670387" flag="0"/>
      <psa03 value="0.0671068663" flag="0"/>
      <psa10 value="0.0104124336" flag="0"/>
      <psa30 value="0.0007166995" flag="0"/>
    </comp>
    <comp name="--.HHE">
      <acc value="0.0295945605" flag="0"/>
      <vel value="0.0097813553" flag="0"/>
      <psa03 value="0.0484253391" flag="0"/>
      <psa10 value="0.0088396306" flag="0"/>
      <psa30 value="0.0011339438" flag="0"/>
    </comp>
    <comp name="--.HHZ">
      <acc value="0.0178346846" flag="0"/>
      <vel value="0.0078018859" flag="0"/>
      <psa03 value="0.0448410297" flag="0"/>
      <psa10 value="0.0084052887" flag="0"/>
      <psa30 value="0.0005433281" flag="0"/>
    </comp>
  </station>
  <station code="THAL" name="THAL" netid="HA" insttype="30" lat="38.0357" lon="22.6634">
    <comp name="--.HHE">
      <acc value="0.0291378877" flag="0"/>
      <vel value="0.0145415285" flag="0"/>
      <psa03 value="0.0935087934" flag="0"/>
      <psa10 value="0.0212245310" flag="0"/>
      <psa30 value="0.0011450886" flag="0"/>
    </comp>
    <comp name="--.HHZ">
      <acc value="0.0175709734" flag="0"/>
      <vel value="0.0078857578" flag="0"/>
      <psa03 value="0.0406498608" flag="0"/>
      <psa10 value="0.0073825717" flag="0"/>
      <psa30 value="0.0006125729" flag="0"/>
    </comp>
    <comp name="--.HHN">
      <acc value="0.0272262446" flag="0"/>
      <vel value="0.0104570877" flag="0"/>
      <psa03 value="0.0716953750" flag="0"/>
      <psa10 value="0.0146121998" flag="0"/>
      <psa30 value="0.0006595208" flag="0"/>
    </comp>
  </station>
  <station code="STPG" name="STPG" netid="HC" insttype="60" lat="36.9347" lon="22.1902">
    <comp name="--.HHN">
      <acc value="0.0000000000" flag="0"/>
      <vel value="-100.0000000000" flag="0"/>
      <psa03 value="0.0000000000" flag="0"/>
      <psa10 value="0.0000000000" flag="0"/>
      <psa30 value="0.0000000000" flag="0"/>
    </comp>
    <comp name="--.HHE">
      <acc value="0.0000000000" flag="0"/>
      <vel value="-100.0000000000" flag="0"/>
      <psa03 value="0.0000000000" flag="0"/>
      <psa10 value="0.0000000000" flag="0"/>
      <psa30 value="0.0000000000" flag="0"/>
    </comp>
    <comp name="--.HHZ">
      <acc value="0.0675602511" flag="0"/>
      <vel value="0.0200536595" flag="0"/>
      <psa03 value="0.0891313850" flag="0"/>
      <psa10 value="0.0046567850" flag="0"/>
      <psa30 value="0.0004101154" flag="0"/>
    </comp>
  </station>
  <station code="KLV1" name="KLV1" netid="HI" insttype="CMG-5TD,ACCELEROMETER,GURALP" lat="38.0326" lon="22.108">
    <comp name="--.HNZ">
      <acc value="0.0402390016" flag="0"/>
      <vel value="0.0096207769" flag="0"/>
      <psa03 value="0.0559802715" flag="0"/>
      <psa10 value="0.0104158399" flag="0"/>
      <psa30 value="0.0004574071" flag="0"/>
    </comp>
    <comp name="--.HNN">
      <acc value="0.0678481956" flag="0"/>
      <vel value="0.0248977781" flag="0"/>
      <psa03 value="0.1491220762" flag="0"/>
      <psa10 value="0.0146705582" flag="0"/>
      <psa30 value="0.0008245051" flag="0"/>
    </comp>
    <comp name="--.HNE">
      <acc value="0.0595389141" flag="0"/>
      <vel value="0.0217950720" flag="0"/>
      <psa03 value="0.1329530556" flag="0"/>
      <psa10 value="0.0117343662" flag="0"/>
      <psa30 value="0.0010297129" flag="0"/>
    </comp>
  </station>
  <station code="KRI1" name="KRI1" netid="HI" insttype="CMG-5TD,ACCELEROMETER,GURALP" lat="37.6621" lon="20.8172">
    <comp name="--.HNE">
      <acc value="0.0938778870" flag="0"/>
      <vel value="0.0320087849" flag="0"/>
      <psa03 value="0.1408215778" flag="0"/>
      <psa10 value="0.0340849077" flag="0"/>
      <psa30 value="0.0012014334" flag="0"/>
    </comp>
    <comp name="--.HNZ">
      <acc value="0.1109567600" flag="0"/>
      <vel value="0.0249008582" flag="0"/>
      <psa03 value="0.1147454321" flag="0"/>
      <psa10 value="0.0079877332" flag="0"/>
      <psa30 value="0.0006029840" flag="0"/>
    </comp>
    <comp name="--.HNN">
      <acc value="0.0851896979" flag="0"/>
      <vel value="0.0310795328" flag="0"/>
      <psa03 value="0.1908667973" flag="0"/>
      <psa10 value="0.0241009186" flag="0"/>
      <psa30 value="0.0012935222" flag="0"/>
    </comp>
  </station>
  <station code="PYL1" name="PYL1" netid="HI" insttype="CMG-5TD,ACCELEROMETER,GURALP" lat="36.9142" lon="21.6952">
    <comp name="--.HNE">
      <acc value="0.0392741044" flag="0"/>
      <vel value="0.0197872289" flag="0"/>
      <psa03 value="0.1164765046" flag="0"/>
      <psa10 value="0.0100878598" flag="0"/>
      <psa30 value="0.0005351505" flag="0"/>
    </comp>
    <comp name="--.HNN">
      <acc value="0.0248654187" flag="0"/>
      <vel value="0.0134052947" flag="0"/>
      <psa03 value="0.0821114402" flag="0"/>
      <psa10 value="0.0057942444" flag="0"/>
      <psa30 value="0.0004420375" flag="0"/>
    </comp>
    <comp name="--.HNZ">
      <acc value="0.0161815369" flag="0"/>
      <vel value="0.0076369626" flag="0"/>
      <psa03 value="0.0265464008" flag="0"/>
      <psa10 value="0.0056106345" flag="0"/>
      <psa30 value="0.0005820376" flag="0"/>
    </comp>
  </station>
  <station code="ITM" name="ITM" netid="HL" insttype="DR24" lat="37.1787" lon="21.9252">
    <comp name="--.HHN">
      <acc value="0.1316322492" flag="0"/>
      <vel value="0.0336682406" flag="0"/>
      <psa03 value="0.1404539522" flag="0"/>
      <psa10 value="0.0138175382" flag="0"/>
      <psa30 value="0.0006841685" flag="0"/>
    </comp>
    <comp name="--.HHE">
      <acc value="0.0786273749" flag="0"/>
      <vel value="0.0182495304" flag="0"/>
      <psa03 value="0.1244019951" flag="0"/>
      <psa10 value="0.0085762248" flag="0"/>
      <psa30 value="0.0009934923" flag="0"/>
    </comp>
    <comp name="--.HHZ">
      <acc value="0.0548484754" flag="0"/>
      <vel value="0.0142416666" flag="0"/>
      <psa03 value="0.0645840052" flag="0"/>
      <psa10 value="0.0083760057" flag="0"/>
      <psa30 value="0.0010546041" flag="0"/>
    </comp>
  </station>
  <station code="KLV" name="KLV" netid="HL" insttype="120" lat="38.0435" lon="22.1504">
    <comp name="--.HHE">
      <acc value="0.0352837902" flag="0"/>
      <vel value="0.0065824156" flag="0"/>
      <psa03 value="0.0243295297" flag="0"/>
      <psa10 value="0.0055161427" flag="0"/>
      <psa30 value="0.0004066942" flag="0"/>
    </comp>
    <comp name="--.HHN">
      <acc value="0.0312790446" flag="0"/>
      <vel value="0.0079613376" flag="0"/>
      <psa03 value="0.0381147645" flag="0"/>
      <psa10 value="0.0069963434" flag="0"/>
      <psa30 value="0.0005060353" flag="0"/>
    </comp>
    <comp name="--.HHZ">
      <acc value="0.0332406190" flag="0"/>
      <vel value="0.0066377575" flag="0"/>
      <psa03 value="0.0565219655" flag="0"/>
      <psa10 value="0.0056319854" flag="0"/>
      <psa30 value="0.0004619443" flag="0"/>
    </comp>
  </station>
  <station code="RLS" name="RLS" netid="HL" insttype="CMG3ESPC-120s" lat="38.0559" lon="21.4647">
    <comp name="--.HHZ">
      <acc value="0.0452130873" flag="0"/>
      <vel value="0.0208014460" flag="0"/>
      <psa03 value="0.1492719481" flag="0"/>
      <psa10 value="0.0131518783" flag="0"/>
      <psa30 value="0.0012483508" flag="0"/>
    </comp>
    <comp name="--.HHE">
      <acc value="0.0573371100" flag="0"/>
      <vel value="0.0195258545" flag="0"/>
      <psa03 value="0.1359843103" flag="0"/>
      <psa10 value="0.0097215657" flag="0"/>
      <psa30 value="0.0008442492" flag="0"/>
    </comp>
    <comp name="--.HHN">
      <acc value="0.0614113507" flag="0"/>
      <vel value="0.0272106108" flag="0"/>
      <psa03 value="0.1203979407" flag="0"/>
      <psa10 value="0.0134214417" flag="0"/>
      <psa30 value="0.0013845882" flag="0"/>
    </comp>
  </station>
  <station code="VLS" name="VLS" netid="HL" insttype="120P," lat="38.1768" lon="20.5886">
    <comp name="--.HHE">
      <acc value="0.0107925985" flag="0"/>
      <vel value="0.0035198547" flag="0"/>
      <psa03 value="0.0263702201" flag="0"/>
      <psa10 value="0.0032771949" flag="0"/>
      <psa30 value="0.0002479031" flag="0"/>
    </comp>
    <comp name="--.HHN">
      <acc value="0.0095385535" flag="0"/>
      <vel value="0.0044713776" flag="0"/>
      <psa03 value="0.0209396233" flag="0"/>
      <psa10 value="0.0035364625" flag="0"/>
      <psa30 value="0.0002837009" flag="0"/>
    </comp>
    <comp name="--.HHZ">
      <acc value="0.0061948396" flag="0"/>
      <vel value="0.0033244178" flag="0"/>
      <psa03 value="0.0176275493" flag="0"/>
      <psa10 value="0.0024514987" flag="0"/>
      <psa30 value="0.0002450803" flag="0"/>
    </comp>
  </station>
  <station code="AMT" name="AMT" netid="HP" insttype="CMG-3T," lat="37.5324" lon="21.7089">
    <comp name="00.HHE">
      <acc value="0.4954807329" flag="0"/>
      <vel value="0.1956578545" flag="0"/>
      <psa03 value="0.7481141284" flag="0"/>
      <psa10 value="0.0825330591" flag="0"/>
      <psa30 value="0.0063567447" flag="0"/>
    </comp>
    <comp name="00.HHN">
      <acc value="0.4327704465" flag="0"/>
      <vel value="0.1917743101" flag="0"/>
      <psa03 value="0.7011201989" flag="0"/>
      <psa10 value="0.0600769004" flag="0"/>
      <psa30 value="0.0066984231" flag="0"/>
    </comp>
    <comp name="00.HHZ">
      <acc value="0.2095401698" flag="0"/>
      <vel value="0.0691502606" flag="0"/>
      <psa03 value="0.4300062449" flag="0"/>
      <psa10 value="0.0344829570" flag="0"/>
      <psa30 value="0.0023195109" flag="0"/>
    </comp>
  </station>
  <station code="ANX" name="ANX" netid="HP" insttype="120" lat="38.5933" lon="21.9209">
    <comp name="--.HHN">
      <acc value="0.0139247186" flag="0"/>
      <vel value="0.0071911966" flag="0"/>
      <psa03 value="0.0401190587" flag="0"/>
      <psa10 value="0.0111310931" flag="0"/>
      <psa30 value="0.0003786912" flag="0"/>
    </comp>
    <comp name="--.HHE">
      <acc value="0.0204489898" flag="0"/>
      <vel value="0.0108669782" flag="0"/>
      <psa03 value="0.0478581939" flag="0"/>
      <psa10 value="0.0072594410" flag="0"/>
      <psa30 value="0.0006301405" flag="0"/>
    </comp>
    <comp name="--.HHZ">
      <acc value="0.0098190874" flag="0"/>
      <vel value="0.0061581626" flag="0"/>
      <psa03 value="0.0246496758" flag="0"/>
      <psa10 value="0.0037045378" flag="0"/>
      <psa30 value="0.0002236316" flag="0"/>
    </comp>
  </station>
  <station code="AXS" name="AXS" netid="HP" insttype="40," lat="38.1962" lon="21.3763">
    <comp name="--.HHN">
      <acc value="0.0134371731" flag="0"/>
      <vel value="0.0081650067" flag="0"/>
      <psa03 value="0.0533813632" flag="0"/>
      <psa10 value="0.0078075486" flag="0"/>
      <psa30 value="0.0005793969" flag="0"/>
    </comp>
    <comp name="--.HHZ">
      <acc value="0.0111261602" flag="0"/>
      <vel value="0.0077565369" flag="0"/>
      <psa03 value="0.0211566150" flag="0"/>
      <psa10 value="0.0045638596" flag="0"/>
      <psa30 value="0.0005953608" flag="0"/>
    </comp>
    <comp name="--.HHE">
      <acc value="0.0182764311" flag="0"/>
      <vel value="0.0100878839" flag="0"/>
      <psa03 value="0.0513531496" flag="0"/>
      <psa10 value="0.0054390871" flag="0"/>
      <psa30 value="0.0005495119" flag="0"/>
    </comp>
  </station>
  <station code="DRO" name="DRO" netid="HP" insttype="120P," lat="37.952" lon="21.71">
    <comp name="--.HHE">
      <acc value="0.3535315293" flag="0"/>
      <vel value="0.1296277122" flag="0"/>
      <psa03 value="0.9569173913" flag="0"/>
      <psa10 value="0.0693288359" flag="0"/>
      <psa30 value="0.0048765357" flag="0"/>
    </comp>
    <comp name="--.HHZ">
      <acc value="0.1656689874" flag="0"/>
      <vel value="0.0594021367" flag="0"/>
      <psa03 value="0.2975457620" flag="0"/>
      <psa10 value="0.0339923751" flag="0"/>
      <psa30 value="0.0026683172" flag="0"/>
    </comp>
    <comp name="--.HHN">
      <acc value="0.2973328508" flag="0"/>
      <vel value="0.1260788250" flag="0"/>
      <psa03 value="0.8635003932" flag="0"/>
      <psa10 value="0.0627499909" flag="0"/>
      <psa30 value="0.0036509634" flag="0"/>
    </comp>
  </station>
  <station code="EFP" name="EFP" netid="HP" insttype="40," lat="38.4269" lon="21.9058">
    <comp name="--.HHE">
      <acc value="0.0182536309" flag="0"/>
      <vel value="0.0069186517" flag="0"/>
      <psa03 value="0.0269697116" flag="0"/>
      <psa10 value="0.0070173085" flag="0"/>
      <psa30 value="0.0006804380" flag="0"/>
    </comp>
    <comp name="--.HHN">
      <acc value="0.0128183061" flag="0"/>
      <vel value="0.0045678084" flag="0"/>
      <psa03 value="0.0228792263" flag="0"/>
      <psa10 value="0.0040912324" flag="0"/>
      <psa30 value="0.0005070271" flag="0"/>
    </comp>
    <comp name="--.HHZ">
      <acc value="0.0128274044" flag="0"/>
      <vel value="0.0063546269" flag="0"/>
      <psa03 value="0.0329994851" flag="0"/>
      <psa10 value="0.0024538788" flag="0"/>
      <psa30 value="0.0002458550" flag="0"/>
    </comp>
  </station>
  <station code="FSK" name="FSK" netid="HP" insttype="40," lat="38.4593" lon="20.5623">
    <comp name="--.HHE">
      <acc value="0.0074312306" flag="0"/>
      <vel value="0.0033039282" flag="0"/>
      <psa03 value="0.0153714769" flag="0"/>
      <psa10 value="0.0059496917" flag="0"/>
      <psa30 value="0.0004534993" flag="0"/>
    </comp>
    <comp name="--.HHZ">
      <acc value="0.0034471326" flag="0"/>
      <vel value="0.0022657987" flag="0"/>
      <psa03 value="0.0065444926" flag="0"/>
      <psa10 value="0.0043395352" flag="0"/>
      <psa30 value="0.0005828762" flag="0"/>
    </comp>
    <comp name="--.HHN">
      <acc value="0.0038072049" flag="0"/>
      <vel value="0.0027062883" flag="0"/>
      <psa03 value="0.0097623294" flag="0"/>
      <psa10 value="0.0051562112" flag="0"/>
      <psa30 value="0.0005788844" flag="0"/>
    </comp>
  </station>
  <station code="GUR" name="GUR" netid="HP" insttype="40," lat="37.9363" lon="22.3423">
    <comp name="--.HHN">
      <acc value="0.0442326035" flag="0"/>
      <vel value="0.0135102592" flag="0"/>
      <psa03 value="0.0838428536" flag="0"/>
      <psa10 value="0.0064802949" flag="0"/>
      <psa30 value="0.0004238800" flag="0"/>
    </comp>
    <comp name="--.HHZ">
      <acc value="0.0509398302" flag="0"/>
      <vel value="0.0168575161" flag="0"/>
      <psa03 value="0.0609446296" flag="0"/>
      <psa10 value="0.0069667539" flag="0"/>
      <psa30 value="0.0005864048" flag="0"/>
    </comp>
    <comp name="--.HHE">
      <acc value="0.0416177305" flag="0"/>
      <vel value="0.0158103342" flag="0"/>
      <psa03 value="0.1229332404" flag="0"/>
      <psa10 value="0.0086786717" flag="0"/>
      <psa30 value="0.0005318819" flag="0"/>
    </comp>
  </station>
  <station code="LTHK" name="LTHK" netid="HP" insttype="40," lat="37.7095" lon="20.8367">
    <comp name="--.HHE">
      <acc value="0.1346242671" flag="0"/>
      <vel value="0.0392902361" flag="0"/>
      <psa03 value="0.1320946666" flag="0"/>
      <psa10 value="0.0326988609" flag="0"/>
      <psa30 value="0.0013870535" flag="0"/>
    </comp>
    <comp name="--.HHN">
      <acc value="0.1413351390" flag="0"/>
      <vel value="0.0429776458" flag="0"/>
      <psa03 value="0.2096490237" flag="0"/>
      <psa10 value="0.0331340840" flag="0"/>
      <psa30 value="0.0014910544" flag="0"/>
    </comp>
    <comp name="--.HHZ">
      <acc value="0.0849287796" flag="0"/>
      <vel value="0.0183380617" flag="0"/>
      <psa03 value="0.0903960135" flag="0"/>
      <psa10 value="0.0265914407" flag="0"/>
      <psa30 value="0.0007624911" flag="0"/>
    </comp>
  </station>
  <station code="PDO" name="PDO" netid="HP" insttype="120s" lat="38.5986" lon="21.1833">
    <comp name="--.HHE">
      <acc value="0.0225513324" flag="0"/>
      <vel value="0.0145867189" flag="0"/>
      <psa03 value="0.0805441704" flag="0"/>
      <psa10 value="0.0089265302" flag="0"/>
      <psa30 value="0.0006092872" flag="0"/>
    </comp>
    <comp name="--.HHZ">
      <acc value="0.0128015423" flag="0"/>
      <vel value="0.0066499985" flag="0"/>
      <psa03 value="0.0370311894" flag="0"/>
      <psa10 value="0.0041077650" flag="0"/>
      <psa30 value="0.0003245406" flag="0"/>
    </comp>
    <comp name="--.HHN">
      <acc value="0.0334168430" flag="0"/>
      <vel value="0.0180209400" flag="0"/>
      <psa03 value="0.1184002052" flag="0"/>
      <psa10 value="0.0097449372" flag="0"/>
      <psa30 value="0.0005879010" flag="0"/>
    </comp>
  </station>
  <station code="PLEV" name="PLEV" netid="HP" insttype="Compact," lat="38.4124" lon="21.4073">
    <comp name="--.HHE">
      <acc value="0.0092948628" flag="0"/>
      <vel value="0.0043583507" flag="0"/>
      <psa03 value="0.0218815674" flag="0"/>
      <psa10 value="0.0030229587" flag="0"/>
      <psa30 value="0.0002886575" flag="0"/>
    </comp>
    <comp name="--.HHZ">
      <acc value="0.0049596852" flag="0"/>
      <vel value="0.0023725126" flag="0"/>
      <psa03 value="0.0117555863" flag="0"/>
      <psa10 value="0.0030919311" flag="0"/>
      <psa30 value="0.0003911930" flag="0"/>
    </comp>
    <comp name="--.HHN">
      <acc value="0.0101100233" flag="0"/>
      <vel value="0.0060396514" flag="0"/>
      <psa03 value="0.0240821663" flag="0"/>
      <psa10 value="0.0051290460" flag="0"/>
      <psa30 value="0.0004218128" flag="0"/>
    </comp>
  </station>
  <station code="PVO" name="PVO" netid="HP" insttype="120P," lat="38.616" lon="21.525">
    <comp name="--.HHZ">
      <acc value="0.0117868374" flag="0"/>
      <vel value="0.0065269512" flag="0"/>
      <psa03 value="0.0499220027" flag="0"/>
      <psa10 value="0.0029534762" flag="0"/>
      <psa30 value="0.0006020338" flag="0"/>
    </comp>
    <comp name="--.HHN">
      <acc value="0.0097701820" flag="0"/>
      <vel value="0.0049291297" flag="0"/>
      <psa03 value="0.0365128844" flag="0"/>
      <psa10 value="0.0028736411" flag="0"/>
      <psa30 value="0.0004414328" flag="0"/>
    </comp>
    <comp name="--.HHE">
      <acc value="0.0196213760" flag="0"/>
      <vel value="0.0100202664" flag="0"/>
      <psa03 value="0.0751572689" flag="0"/>
      <psa10 value="0.0039999833" flag="0"/>
      <psa30 value="0.0004656363" flag="0"/>
    </comp>
  </station>
  <station code="SERG" name="SERG" netid="HP" insttype="2000" lat="38.4133" lon="22.0566">
    <comp name="00.HHE">
      <acc value="0.0203249350" flag="0"/>
      <vel value="0.0110207603" flag="0"/>
      <psa03 value="0.0440596227" flag="0"/>
      <psa10 value="0.0070570954" flag="0"/>
      <psa30 value="0.0005193562" flag="0"/>
    </comp>
    <comp name="00.HHZ">
      <acc value="0.0130199488" flag="0"/>
      <vel value="0.0060617930" flag="0"/>
