<stationlist created="1641587241">
	<station code="ASTA" name="ASTA" netid="HL" source="National Observatory of Athens Seismic Network" insttype="" lat="36.54543" lon="26.3528">
		<comp name="00.HNE" depth="0.0">
			<acc value="0.003433626" flag="0"/>
			<vel value="0.012462" flag="0"/>
			<psa03 value="0.00953009000969" flag="0"/>
			<psa10 value="0.00325365326528" flag="0"/>
			<psa30 value="0.00310510913931" flag="0"/>
		</comp>
		<comp name="00.HNN" depth="0.0">
			<acc value="0.003678018" flag="0"/>
			<vel value="0.015882" flag="0"/>
			<psa03 value="0.0111855516546" flag="0"/>
			<psa10 value="0.00260936548998" flag="0"/>
			<psa30 value="0.0040724356464" flag="0"/>
		</comp>
		<comp name="00.HNZ" depth="0.0">
			<acc value="0.004201686" flag="0"/>
			<vel value="0.017182" flag="0"/>
			<psa03 value="0.00975380104278" flag="0"/>
			<psa10 value="0.00320130488354" flag="0"/>
			<psa30 value="0.00396997599324" flag="0"/>
		</comp>
	</station>
	<station code="PRK" name="PRK" netid="HL" source="National Observatory of Athens Seismic Network" insttype="" lat="39.24565" lon="26.26499">
		<comp name=".HNE" depth="0.0">
			<acc value="0.012446754" flag="0"/>
			<vel value="0.027147" flag="0"/>
			<psa03 value="0.0312748024262" flag="0"/>
			<psa10 value="0.00851265223119" flag="0"/>
			<psa30 value="0.00615160598795" flag="0"/>
		</comp>
		<comp name=".HNN" depth="0.0">
			<acc value="0.011250804" flag="0"/>
			<vel value="0.025759" flag="0"/>
			<psa03 value="0.0310510913931" flag="0"/>
			<psa10 value="0.00919318119386" flag="0"/>
			<psa30 value="0.00673593920638" flag="0"/>
		</comp>
		<comp name=".HNZ" depth="0.0">
			<acc value="0.008142864" flag="0"/>
			<vel value="0.014283" flag="0"/>
			<psa03 value="0.0220579078628" flag="0"/>
			<psa10 value="0.0070267635494" flag="0"/>
			<psa30 value="0.0030549978679" flag="0"/>
		</comp>
	</station>
	<station code="RODB" name="RODB" netid="HL" source="National Observatory of Athens Seismic Network" insttype="" lat="36.4471" lon="28.22116">
		<comp name="00.HNE" depth="0.0">
			<acc value="0.010428582" flag="0"/>
			<vel value="0.062482" flag="0"/>
			<psa03 value="0.0132884353656" flag="0"/>
			<psa10 value="0.0105824267094" flag="0"/>
			<psa30 value="0.0263822421325" flag="0"/>
		</comp>
		<comp name="00.HNN" depth="0.0">
			<acc value="0.009854628" flag="0"/>
			<vel value="0.062751" flag="0"/>
			<psa03 value="0.0148544125973" flag="0"/>
			<psa10 value="0.00932606554751" flag="0"/>
			<psa30 value="0.0184682406258" flag="0"/>
		</comp>
		<comp name="00.HNZ" depth="0.0">
			<acc value="0.007322784" flag="0"/>
			<vel value="0.018333" flag="0"/>
			<psa03 value="0.00756143291849" flag="0"/>
			<psa10 value="0.00407512017879" flag="0"/>
			<psa30 value="0.00540620082569" flag="0"/>
		</comp>
	</station>
	<station code="THRA" name="THRA" netid="HL" source="National Observatory of Athens Seismic Network" insttype="" lat="36.41502" lon="25.43244">
		<comp name="00.HNE" depth="0.0">
			<acc value="0.012702978" flag="0"/>
			<vel value="0.033732" flag="0"/>
			<psa03 value="0.0339145926167" flag="0"/>
			<psa10 value="0.0108522222153" flag="0"/>
			<psa30 value="0.0158391885649" flag="0"/>
		</comp>
		<comp name="00.HNN" depth="0.0">
			<acc value="0.009576882" flag="0"/>
			<vel value="0.034768" flag="0"/>
			<psa03 value="0.021923681243" flag="0"/>
			<psa10 value="0.0104777299459" flag="0"/>
			<psa30 value="0.0152508285479" flag="0"/>
		</comp>
		<comp name="00.HNZ" depth="0.0">
			<acc value="0.011509272" flag="0"/>
			<vel value="0.018612" flag="0"/>
			<psa03 value="0.0231317208216" flag="0"/>
			<psa10 value="0.00358385075012" flag="0"/>
			<psa30 value="0.00530597828286" flag="0"/>
		</comp>
	</station>
	<station code="TNSA" name="TNSA" netid="HL" source="National Observatory of Athens Seismic Network" insttype="" lat="37.53942" lon="25.1631">
		<comp name="00.HNE" depth="0.0">
			<acc value="0.00498984" flag="0"/>
			<vel value="0.011252" flag="0"/>
			<psa03 value="0.0116329737208" flag="0"/>
			<psa10 value="0.0017556841877" flag="0"/>
			<psa30 value="0.00272390553892" flag="0"/>
		</comp>
		<comp name="00.HNN" depth="0.0">
			<acc value="0.00528768" flag="0"/>
			<vel value="0.009173" flag="0"/>
			<psa03 value="0.0118566847538" flag="0"/>
			<psa10 value="0.0014818618832" flag="0"/>
			<psa30 value="0.00223084642199" flag="0"/>
		</comp>
		<comp name="00.HNZ" depth="0.0">
			<acc value="0.006040134" flag="0"/>
			<vel value="0.012737" flag="0"/>
			<psa03 value="0.00885895691042" flag="0"/>
			<psa10 value="0.00189259533995" flag="0"/>
			<psa30 value="0.00296685572086" flag="0"/>
		</comp>
	</station>
	<station code="EZNE" name="EZNE" netid="KO" source="Bogazici University Kandilli Observatory And Earthquake Research Institute (KOERI)" insttype="" lat="39.756" lon="26.3655">
		<comp name=".HNE" depth="0.0">
			<acc value="0.021684486" flag="0"/>
			<vel value="0.092948" flag="0"/>
			<psa03 value="0.0695293890848" flag="0"/>
			<psa10 value="0.0128535411173" flag="0"/>
			<psa30 value="0.0184870323526" flag="0"/>
		</comp>
		<comp name=".HNN" depth="0.0">
			<acc value="0.023156346" flag="0"/>
			<vel value="0.073235" flag="0"/>
			<psa03 value="0.0804464874997" flag="0"/>
			<psa10 value="0.0143233226047" flag="0"/>
			<psa30 value="0.018976512093" flag="0"/>
		</comp>
		<comp name=".HNZ" depth="0.0">
			<acc value="0.011153802" flag="0"/>
			<vel value="0.041466" flag="0"/>
			<psa03 value="0.0334671705505" flag="0"/>
			<psa10 value="0.00735293423565" flag="0"/>
			<psa30 value="0.00980033293767" flag="0"/>
		</comp>
	</station>
	<station code="GORD" name="GORD" netid="KO" source="Bogazici University Kandilli Observatory And Earthquake Research Institute (KOERI)" insttype="" lat="38.9088" lon="28.1769">
		<comp name=".HNE" depth="0.0">
			<acc value="0.02262411" flag="0"/>
			<vel value="0.100946" flag="0"/>
			<psa03 value="0.0974485260146" flag="0"/>
			<psa10 value="0.028819797549" flag="0"/>
			<psa30 value="0.0300139670437" flag="0"/>
		</comp>
		<comp name=".HNN" depth="0.0">
			<acc value="0.033677646" flag="0"/>
			<vel value="0.075934" flag="0"/>
			<psa03 value="0.069976811151" flag="0"/>
			<psa10 value="0.0241003895949" flag="0"/>
			<psa30 value="0.015461116919" flag="0"/>
		</comp>
		<comp name=".HNZ" depth="0.0">
			<acc value="0.02883234" flag="0"/>
			<vel value="0.062474" flag="0"/>
			<psa03 value="0.0741378363665" flag="0"/>
			<psa10 value="0.0248936689183" flag="0"/>
			<psa30 value="0.0158284504353" flag="0"/>
		</comp>
	</station>
	<station code="NAZL" name="NAZL" netid="KO" source="Bogazici University Kandilli Observatory And Earthquake Research Institute (KOERI)" insttype="" lat="37.9641" lon="28.2922">
		<comp name=".HNE" depth="0.0">
			<acc value="0.112921344" flag="0"/>
			<vel value="0.053499" flag="0"/>
			<psa03 value="0.285186824985" flag="0"/>
			<psa10 value="0.0270761937571" flag="0"/>
			<psa30 value="0.0124481767253" flag="0"/>
		</comp>
		<comp name=".HNN" depth="0.0">
			<acc value="0.070329204" flag="0"/>
			<vel value="0.065768" flag="0"/>
			<psa03 value="0.164203898289" flag="0"/>
			<psa10 value="0.0168924201087" flag="0"/>
			<psa30 value="0.0137465955614" flag="0"/>
		</comp>
		<comp name=".HNZ" depth="0.0">
			<acc value="0.02700705" flag="0"/>
			<vel value="0.054677" flag="0"/>
			<psa03 value="0.0795963855739" flag="0"/>
			<psa10 value="0.0101958540442" flag="0"/>
			<psa30 value="0.0121922513035" flag="0"/>
		</comp>
	</station>
	<station code="SOMA" name="SOMA" netid="KO" source="Bogazici University Kandilli Observatory And Earthquake Research Institute (KOERI)" insttype="" lat="39.1564" lon="27.5341">
		<comp name=".HNE" depth="0.0">
			<acc value="0.123320856" flag="0"/>
			<vel value="0.073785" flag="0"/>
			<psa03 value="0.247066464946" flag="0"/>
			<psa10 value="0.0193286332591" flag="0"/>
			<psa30 value="0.0196829915355" flag="0"/>
		</comp>
		<comp name=".HNN" depth="0.0">
			<acc value="0.069650496" flag="0"/>
			<vel value="0.142796" flag="0"/>
			<psa03 value="0.233643802961" flag="0"/>
			<psa10 value="0.0216440424516" flag="0"/>
			<psa30 value="0.0246059765297" flag="0"/>
		</comp>
		<comp name=".HNZ" depth="0.0">
			<acc value="0.057895812" flag="0"/>
			<vel value="0.091776" flag="0"/>
			<psa03 value="0.173778730505" flag="0"/>
			<psa10 value="0.0132441405811" flag="0"/>
			<psa30 value="0.0200543518504" flag="0"/>
		</comp>
	</station>
</stationlist>
