<?xml version="1.0" encoding="UTF-8" standalone="yes"?>
<!DOCTYPE earthquake SYSTEM "stationlist.dtd">
<stationlist created="" xmlns="ch.ethz.sed.shakemap.usgs.xml">
  <station code="IMMV" name="IMMV" netid="GE" insttype="STS-2/N" commtype="DIG" lat="35.4606" lon="23.9811">
    <comp name="--.HHE">
      <acc value="0.0156877849" flag="0"/>
      <vel value="0.0088955074" flag="0"/>
      <psa03 value="0.0351168329" flag="0"/>
      <psa10 value="0.0120033956" flag="0"/>
      <psa30 value="0.0005471885" flag="0"/>
    </comp>
    <comp name="--.HHZ">
      <acc value="0.0118547414" flag="0"/>
      <vel value="0.0062708103" flag="0"/>
      <psa03 value="0.0431315806" flag="0"/>
      <psa10 value="0.0098762984" flag="0"/>
      <psa30 value="0.0005366735" flag="0"/>
    </comp>
    <comp name="--.HHN">
      <acc value="0.0161399437" flag="0"/>
      <vel value="0.0088969383" flag="0"/>
      <psa03 value="0.0353640722" flag="0"/>
      <psa10 value="0.0130912852" flag="0"/>
      <psa30 value="0.0008013133" flag="0"/>
    </comp>
  </station>
  <station code="ZKR" name="ZKR" netid="GE" insttype="STS-2/N" commtype="DIG" lat="35.1147" lon="26.2169">
    <comp name="--.HHE">
      <acc value="0.0463050037" flag="0"/>
      <vel value="0.0281337498" flag="0"/>
      <psa03 value="0.1555503375" flag="0"/>
      <psa10 value="0.0272031986" flag="0"/>
      <psa30 value="0.0014374895" flag="0"/>
    </comp>
    <comp name="--.HHZ">
      <acc value="0.0236499881" flag="0"/>
      <vel value="0.0127139436" flag="0"/>
      <psa03 value="0.0704223025" flag="0"/>
      <psa10 value="0.0091957242" flag="0"/>
      <psa30 value="0.0005872489" flag="0"/>
    </comp>
    <comp name="--.HHN">
      <acc value="0.0213501465" flag="0"/>
      <vel value="0.0095189088" flag="0"/>
      <psa03 value="0.0757388051" flag="0"/>
      <psa10 value="0.0051429662" flag="0"/>
      <psa30 value="0.0004763607" flag="0"/>
    </comp>
  </station>
  <station code="IDI" name="IDI" netid="MN" insttype="" commtype="DIG" lat="35.288" lon="24.89">
    <comp name="--.HHE">
      <acc value="0.1012151821" flag="0"/>
      <vel value="0.0189537257" flag="0"/>
      <psa03 value="0.1031057789" flag="0"/>
      <psa10 value="0.0109632304" flag="0"/>
      <psa30 value="0.0012284344" flag="0"/>
    </comp>
    <comp name="--.HHN">
      <acc value="0.0959107640" flag="0"/>
      <vel value="0.0181732675" flag="0"/>
      <psa03 value="0.1154720933" flag="0"/>
      <psa10 value="0.0091394848" flag="0"/>
      <psa30 value="0.0008400604" flag="0"/>
    </comp>
    <comp name="--.HHZ">
      <acc value="0.0590550413" flag="0"/>
      <vel value="0.0160617880" flag="0"/>
      <psa03 value="0.1245654763" flag="0"/>
      <psa10 value="0.0183073412" flag="0"/>
      <psa30 value="0.0011429562" flag="0"/>
    </comp>
  </station>
</stationlist>
