<?xml version="1.0" encoding="UTF-8" standalone="yes"?>
<!DOCTYPE earthquake SYSTEM "stationlist.dtd">
<stationlist created="" xmlns="ch.ethz.sed.shakemap.usgs.xml">
  <station code="IMMV" name="IMMV" netid="GE" insttype="STS-2/N" commtype="DIG" lat="35.4606" lon="23.9811">
    <comp name="--.HHN">
      <acc value="0.0161399439" flag="0"/>
      <vel value="0.0088969377" flag="0"/>
      <psa03 value="0.0353640722" flag="0"/>
      <psa10 value="0.0130912852" flag="0"/>
      <psa30 value="0.0008012974" flag="0"/>
    </comp>
    <comp name="--.HHZ">
      <acc value="0.0118547415" flag="0"/>
      <vel value="0.0062708101" flag="0"/>
      <psa03 value="0.0431315806" flag="0"/>
      <psa10 value="0.0098762984" flag="0"/>
      <psa30 value="0.0005366870" flag="0"/>
    </comp>
    <comp name="--.HHE">
      <acc value="0.0156877848" flag="0"/>
      <vel value="0.0088955068" flag="0"/>
      <psa03 value="0.0351168329" flag="0"/>
      <psa10 value="0.0120033956" flag="0"/>
      <psa30 value="0.0005471702" flag="0"/>
    </comp>
  </station>
  <station code="ZKR" name="ZKR" netid="GE" insttype="STS-2/N" commtype="DIG" lat="35.1147" lon="26.2169">
    <comp name="--.HHN">
      <acc value="0.0213501450" flag="0"/>
      <vel value="0.0095189089" flag="0"/>
      <psa03 value="0.0757388051" flag="0"/>
      <psa10 value="0.0051429662" flag="0"/>
      <psa30 value="0.0004763640" flag="0"/>
    </comp>
    <comp name="--.HHE">
      <acc value="0.0463050042" flag="0"/>
      <vel value="0.0281337500" flag="0"/>
      <psa03 value="0.1555503375" flag="0"/>
      <psa10 value="0.0272031986" flag="0"/>
      <psa30 value="0.0014374971" flag="0"/>
    </comp>
    <comp name="--.HHZ">
      <acc value="0.0236499885" flag="0"/>
      <vel value="0.0127139435" flag="0"/>
      <psa03 value="0.0704223025" flag="0"/>
      <psa10 value="0.0091957242" flag="0"/>
      <psa30 value="0.0005872503" flag="0"/>
    </comp>
  </station>
  <station code="IMOD" name="IMOD" netid="HC" insttype="120" commtype="DIG" lat="34.9731" lon="24.7995">
    <comp name="--.HHE">
      <acc value="0.1080091929" flag="0"/>
      <vel value="0.0627271113" flag="0"/>
      <psa03 value="0.3241214214" flag="0"/>
      <psa10 value="0.0370472240" flag="0"/>
      <psa30 value="0.0029834830" flag="0"/>
    </comp>
    <comp name="--.HHZ">
      <acc value="0.0679905181" flag="0"/>
      <vel value="0.0269432222" flag="0"/>
      <psa03 value="0.1221412014" flag="0"/>
      <psa10 value="0.0201304176" flag="0"/>
      <psa30 value="0.0018215047" flag="0"/>
    </comp>
    <comp name="--.HHN">
      <acc value="0.0728166256" flag="0"/>
      <vel value="0.0479611253" flag="0"/>
      <psa03 value="0.2594123078" flag="0"/>
      <psa10 value="0.0478927840" flag="0"/>
      <psa30 value="0.0034105923" flag="0"/>
    </comp>
  </station>
  <station code="IPPL" name="IPPL" netid="HC" insttype="60" commtype="DIG" lat="35.3486" lon="24.4632">
    <comp name="--.HHN">
      <acc value="0.0000000000" flag="0"/>
      <vel value="-100.0000000000" flag="0"/>
      <psa03 value="0.0000000000" flag="0"/>
      <psa10 value="0.0000000000" flag="0"/>
      <psa30 value="0.0000000000" flag="0"/>
    </comp>
    <comp name="--.HHZ">
      <acc value="0.0293948434" flag="0"/>
      <vel value="0.0125581402" flag="0"/>
      <psa03 value="0.0962357572" flag="0"/>
      <psa10 value="0.0099504918" flag="0"/>
      <psa30 value="0.0004971535" flag="0"/>
    </comp>
    <comp name="--.HHE">
      <acc value="0.0000000000" flag="0"/>
      <vel value="-100.0000000000" flag="0"/>
      <psa03 value="0.0000000000" flag="0"/>
      <psa10 value="0.0000000000" flag="0"/>
      <psa30 value="0.0000000000" flag="0"/>
    </comp>
  </station>
  <station code="KNSS" name="KNSS" netid="HC" insttype="60" commtype="DIG" lat="35.3042" lon="25.1802">
    <comp name="--.HHE">
      <acc value="20.3860530227" flag="0"/>
      <vel value="1.2410002896" flag="0"/>
      <psa03 value="4.5458459680" flag="0"/>
      <psa10 value="1.6086551217" flag="0"/>
      <psa30 value="0.1185079141" flag="0"/>
    </comp>
    <comp name="--.HHN">
      <acc value="0.4831542138" flag="0"/>
      <vel value="0.1177964714" flag="0"/>
      <psa03 value="0.8020229370" flag="0"/>
      <psa10 value="0.0548314417" flag="0"/>
      <psa30 value="0.0039935295" flag="0"/>
    </comp>
    <comp name="--.HHZ">
      <acc value="0.2703042660" flag="0"/>
      <vel value="0.0633073878" flag="0"/>
      <psa03 value="0.5026252170" flag="0"/>
      <psa10 value="0.0321452421" flag="0"/>
      <psa30 value="0.0024710136" flag="0"/>
    </comp>
  </station>
  <station code="PFKS" name="PFKS" netid="HC" insttype="120" commtype="DIG" lat="35.0429" lon="25.4733">
    <comp name="--.HHZ">
      <acc value="0.5295471109" flag="0"/>
      <vel value="0.1315887298" flag="0"/>
      <psa03 value="0.3203666285" flag="0"/>
      <psa10 value="0.0438900876" flag="0"/>
      <psa30 value="0.0021984169" flag="0"/>
    </comp>
    <comp name="--.HHN">
      <acc value="1.2921638654" flag="0"/>
      <vel value="0.2631722107" flag="0"/>
      <psa03 value="1.0414421881" flag="0"/>
      <psa10 value="0.0804003529" flag="0"/>
      <psa30 value="0.0047755619" flag="0"/>
    </comp>
    <comp name="--.HHE">
      <acc value="0.9267605644" flag="0"/>
      <vel value="0.2024418618" flag="0"/>
      <psa03 value="0.8606354110" flag="0"/>
      <psa10 value="0.0486344220" flag="0"/>
      <psa30 value="0.0041875623" flag="0"/>
    </comp>
  </station>
  <station code="STIA" name="STIA" netid="HC" insttype="120" commtype="DIG" lat="35.2021" lon="26.0909">
    <comp name="--.HHE">
      <acc value="0.0502084605" flag="0"/>
      <vel value="0.0246112878" flag="0"/>
      <psa03 value="0.1775215589" flag="0"/>
      <psa10 value="0.0225031212" flag="0"/>
      <psa30 value="0.0008000286" flag="0"/>
    </comp>
    <comp name="--.HHZ">
      <acc value="0.0417741597" flag="0"/>
      <vel value="0.0189159266" flag="0"/>
      <psa03 value="0.1534837121" flag="0"/>
      <psa10 value="0.0097972744" flag="0"/>
      <psa30 value="0.0007062679" flag="0"/>
    </comp>
    <comp name="--.HHN">
      <acc value="0.0000000000" flag="0"/>
      <vel value="-100.0000000000" flag="0"/>
      <psa03 value="0.0000000000" flag="0"/>
      <psa10 value="0.0000000000" flag="0"/>
      <psa30 value="0.0000000000" flag="0"/>
    </comp>
  </station>
  <station code="TEFL" name="TEFL" netid="HC" insttype="GEOtiny," commtype="DIG" lat="35.0933" lon="25.1634">
    <comp name="--.HHE">
      <acc value="7.4438744784" flag="0"/>
      <vel value="1.4890460966" flag="0"/>
      <psa03 value="6.1675540206" flag="0"/>
      <psa10 value="0.3393817696" flag="0"/>
      <psa30 value="0.0376790049" flag="0"/>
    </comp>
    <comp name="--.HHZ">
      <acc value="4.2125200431" flag="0"/>
      <vel value="0.6068507597" flag="0"/>
      <psa03 value="3.2191020449" flag="0"/>
      <psa10 value="0.1769222626" flag="0"/>
      <psa30 value="0.0130004627" flag="0"/>
    </comp>
    <comp name="--.HHN">
      <acc value="8.3959768691" flag="0"/>
      <vel value="2.4825685577" flag="0"/>
      <psa03 value="6.6480821264" flag="0"/>
      <psa10 value="0.6930918688" flag="0"/>
      <psa30 value="0.3948486096" flag="0"/>
    </comp>
  </station>
  <station code="AGN1" name="AGN1" netid="HI" insttype="unknown" commtype="DIG" lat="35.1879" lon="25.7155">
    <comp name="--.HNE">
      <acc value="0.1846831752" flag="0"/>
      <vel value="0.0573092210" flag="0"/>
      <psa03 value="0.4341629865" flag="0"/>
      <psa10 value="0.0198107161" flag="0"/>
      <psa30 value="0.0015071752" flag="0"/>
    </comp>
    <comp name="--.HNN">
      <acc value="0.1623219521" flag="0"/>
      <vel value="0.0475884561" flag="0"/>
      <psa03 value="0.2123075469" flag="0"/>
      <psa10 value="0.0218751808" flag="0"/>
      <psa30 value="0.0019040405" flag="0"/>
    </comp>
    <comp name="--.HNZ">
      <acc value="0.1262197008" flag="0"/>
      <vel value="0.0374034698" flag="0"/>
      <psa03 value="0.1545848228" flag="0"/>
      <psa10 value="0.0191844085" flag="0"/>
      <psa30 value="0.0011341578" flag="0"/>
    </comp>
  </station>
  <station code="ARK1" name="ARK1" netid="HI" insttype="unknown" commtype="DIG" lat="35.1488" lon="25.2642">
    <comp name="--.HNN">
      <acc value="4.1729682901" flag="0"/>
      <vel value="1.2320443784" flag="0"/>
      <psa03 value="4.4801878021" flag="0"/>
      <psa10 value="0.3049004269" flag="0"/>
      <psa30 value="0.0362600234" flag="0"/>
    </comp>
    <comp name="--.HNE">
      <acc value="2.0551805228" flag="0"/>
      <vel value="0.7146031717" flag="0"/>
      <psa03 value="2.7079987101" flag="0"/>
      <psa10 value="0.2688867670" flag="0"/>
      <psa30 value="0.0245201414" flag="0"/>
    </comp>
    <comp name="--.HNZ">
      <acc value="1.6039777534" flag="0"/>
      <vel value="0.3451273318" flag="0"/>
      <psa03 value="1.4394635929" flag="0"/>
      <psa10 value="0.0946335240" flag="0"/>
      <psa30 value="0.0066933316" flag="0"/>
    </comp>
  </station>
  <station code="GOR1" name="GOR1" netid="HI" insttype="unknown" commtype="DIG" lat="35.0582" lon="24.9628">
    <comp name="--.HNE">
      <acc value="0.2702755942" flag="0"/>
      <vel value="0.1145965081" flag="0"/>
      <psa03 value="0.6151574717" flag="0"/>
      <psa10 value="0.0994636938" flag="0"/>
      <psa30 value="0.0083731302" flag="0"/>
    </comp>
    <comp name="--.HNN">
      <acc value="0.3226753063" flag="0"/>
      <vel value="0.1346297039" flag="0"/>
      <psa03 value="0.7197969892" flag="0"/>
      <psa10 value="0.1241004788" flag="0"/>
      <psa30 value="0.0100376456" flag="0"/>
    </comp>
    <comp name="--.HNZ">
      <acc value="0.2458824859" flag="0"/>
      <vel value="0.0802353944" flag="0"/>
      <psa03 value="0.3388874645" flag="0"/>
      <psa10 value="0.0939066074" flag="0"/>
      <psa30 value="0.0046726828" flag="0"/>
    </comp>
  </station>
  <station code="HER1" name="HER1" netid="HI" insttype="unknown" commtype="DIG" lat="35.3177" lon="25.1022">
    <comp name="--.HNE">
      <acc value="0.2495082424" flag="0"/>
      <vel value="0.2532778537" flag="0"/>
      <psa03 value="0.9584418368" flag="0"/>
      <psa10 value="0.5360834051" flag="0"/>
      <psa30 value="0.0199085663" flag="0"/>
    </comp>
    <comp name="--.HNN">
      <acc value="0.3104881138" flag="0"/>
      <vel value="0.2203041999" flag="0"/>
      <psa03 value="1.0640080383" flag="0"/>
      <psa10 value="0.4289406743" flag="0"/>
      <psa30 value="0.0206849390" flag="0"/>
    </comp>
    <comp name="--.HNZ">
      <acc value="0.2540558689" flag="0"/>
      <vel value="0.2366338121" flag="0"/>
      <psa03 value="0.7670551136" flag="0"/>
      <psa10 value="0.3595597423" flag="0"/>
      <psa30 value="0.0140592240" flag="0"/>
    </comp>
  </station>
  <station code="HER3" name="HER3" netid="HI" insttype="unknown" commtype="DIG" lat="35.3296" lon="25.1065">
    <comp name="--.HNZ">
      <acc value="0.2471880795" flag="0"/>
      <vel value="0.1445232124" flag="0"/>
      <psa03 value="0.5083929812" flag="0"/>
      <psa10 value="0.1510311660" flag="0"/>
      <psa30 value="0.0061165053" flag="0"/>
    </comp>
    <comp name="--.HNN">
      <acc value="0.4096871970" flag="0"/>
      <vel value="0.2190146138" flag="0"/>
      <psa03 value="1.4140484134" flag="0"/>
      <psa10 value="0.2545981470" flag="0"/>
      <psa30 value="0.0137759626" flag="0"/>
    </comp>
    <comp name="--.HNE">
      <acc value="0.4712007956" flag="0"/>
      <vel value="0.1873977999" flag="0"/>
      <psa03 value="1.1672349642" flag="0"/>
      <psa10 value="0.3199342819" flag="0"/>
      <psa30 value="0.0113699709" flag="0"/>
    </comp>
  </station>
  <station code="KTL1" name="KTL1" netid="HI" insttype="unknown" commtype="DIG" lat="35.2078" lon="25.3427">
    <comp name="--.HNE">
      <acc value="0.6737834350" flag="0"/>
      <vel value="0.1499322678" flag="0"/>
      <psa03 value="0.5565330334" flag="0"/>
      <psa10 value="0.0614283732" flag="0"/>
      <psa30 value="0.0042994805" flag="0"/>
    </comp>
    <comp name="--.HNZ">
      <acc value="0.3890938771" flag="0"/>
      <vel value="0.0945448259" flag="0"/>
      <psa03 value="0.2756715918" flag="0"/>
      <psa10 value="0.0386960164" flag="0"/>
      <psa30 value="0.0017604230" flag="0"/>
    </comp>
    <comp name="--.HNN">
      <acc value="0.8592334417" flag="0"/>
      <vel value="0.2303124036" flag="0"/>
      <psa03 value="1.0880401769" flag="0"/>
      <psa10 value="0.0643180643" flag="0"/>
      <psa30 value="0.0043989999" flag="0"/>
    </comp>
  </station>
  <station code="AGNA" name="AGNA" netid="HL" insttype="CMG-5" commtype="DIG" lat="35.1895" lon="25.7185">
    <comp name="00.HNN">
      <acc value="0.1227698810" flag="0"/>
      <vel value="0.0410739658" flag="0"/>
      <psa03 value="0.2257594425" flag="0"/>
      <psa10 value="0.0202232724" flag="0"/>
      <psa30 value="0.0021331058" flag="0"/>
    </comp>
    <comp name="00.HNE">
      <acc value="0.0970041277" flag="0"/>
      <vel value="0.0271015979" flag="0"/>
      <psa03 value="0.1732565833" flag="0"/>
      <psa10 value="0.0130100584" flag="0"/>
      <psa30 value="0.0014741921" flag="0"/>
    </comp>
    <comp name="00.HNZ">
      <acc value="0.0624521742" flag="0"/>
      <vel value="0.0234415596" flag="0"/>
      <psa03 value="0.1674390052" flag="0"/>
      <psa10 value="0.0202409815" flag="0"/>
      <psa30 value="0.0010016929" flag="0"/>
    </comp>
  </station>
  <station code="HERG" name="HERG" netid="HL" insttype="CMG-5" commtype="DIG" lat="35.3262" lon="25.0659">
    <comp name="00.HNE">
      <acc value="0.1616960185" flag="0"/>
      <vel value="0.0984384175" flag="0"/>
      <psa03 value="0.4148343891" flag="0"/>
      <psa10 value="0.1426206358" flag="0"/>
      <psa30 value="0.0097288965" flag="0"/>
    </comp>
    <comp name="00.HNN">
      <acc value="0.1694419186" flag="0"/>
      <vel value="0.1417290626" flag="0"/>
      <psa03 value="0.4103538771" flag="0"/>
      <psa10 value="0.2378964476" flag="0"/>
      <psa30 value="0.0143287513" flag="0"/>
    </comp>
    <comp name="00.HNZ">
      <acc value="0.1695822474" flag="0"/>
      <vel value="0.0883792184" flag="0"/>
      <psa03 value="0.3751006127" flag="0"/>
      <psa10 value="0.0933505415" flag="0"/>
      <psa30 value="0.0044432439" flag="0"/>
    </comp>
  </station>
  <station code="IACM" name="IACM" netid="HL" insttype="120" commtype="DIG" lat="35.3058" lon="25.0709">
    <comp name="--.HHE">
      <acc value="0.4363110082" flag="0"/>
      <vel value="0.1974029226" flag="0"/>
      <psa03 value="1.0178648537" flag="0"/>
      <psa10 value="0.3395100082" flag="0"/>
      <psa30 value="0.0155676890" flag="0"/>
    </comp>
    <comp name="--.HHZ">
      <acc value="0.3760466022" flag="0"/>
      <vel value="0.1264634528" flag="0"/>
      <psa03 value="0.7360941433" flag="0"/>
      <psa10 value="0.1320577574" flag="0"/>
      <psa30 value="0.0058149397" flag="0"/>
    </comp>
    <comp name="--.HHN">
      <acc value="0.4109037883" flag="0"/>
      <vel value="0.2488192902" flag="0"/>
      <psa03 value="1.1260339529" flag="0"/>
      <psa10 value="0.3205814087" flag="0"/>
      <psa30 value="0.0136514231" flag="0"/>
    </comp>
  </station>
  <station code="IDI" name="IDI" netid="HL" insttype="120" commtype="DIG" lat="35.288" lon="24.89">
    <comp name="--.HHE">
      <acc value="0.0789117559" flag="0"/>
      <vel value="0.0184280109" flag="0"/>
      <psa03 value="0.1025932897" flag="0"/>
      <psa10 value="0.0110149538" flag="0"/>
      <psa30 value="0.0012362396" flag="0"/>
    </comp>
    <comp name="--.HHN">
      <acc value="0.0849113065" flag="0"/>
      <vel value="0.0180109093" flag="0"/>
      <psa03 value="0.1147226142" flag="0"/>
      <psa10 value="0.0091820073" flag="0"/>
      <psa30 value="0.0008451754" flag="0"/>
    </comp>
    <comp name="--.HHZ">
      <acc value="0.0518713234" flag="0"/>
      <vel value="0.0159055790" flag="0"/>
      <psa03 value="0.1220425741" flag="0"/>
      <psa10 value="0.0184498929" flag="0"/>
      <psa30 value="0.0011481704" flag="0"/>
    </comp>
  </station>
  <station code="IMMV" name="IMMV" netid="HL" insttype="120" commtype="DIG" lat="35.4606" lon="23.9811">
    <comp name="--.HHZ">
      <acc value="0.0115878638" flag="0"/>
      <vel value="0.0061023863" flag="0"/>
      <psa03 value="0.0419017252" flag="0"/>
      <psa10 value="0.0098009146" flag="0"/>
      <psa30 value="0.0005327617" flag="0"/>
    </comp>
    <comp name="--.HHN">
      <acc value="0.0157527954" flag="0"/>
      <vel value="0.0087346352" flag="0"/>
      <psa03 value="0.0344946193" flag="0"/>
      <psa10 value="0.0130073454" flag="0"/>
      <psa30 value="0.0007985536" flag="0"/>
    </comp>
    <comp name="--.HHE">
      <acc value="0.0154275747" flag="0"/>
      <vel value="0.0087428222" flag="0"/>
      <psa03 value="0.0340818767" flag="0"/>
      <psa10 value="0.0118964477" flag="0"/>
      <psa30 value="0.0005461703" flag="0"/>
    </comp>
  </station>
  <station code="NPS" name="NPS" netid="HL" insttype="CMG3ESPC-120s" commtype="DIG" lat="35.2613" lon="25.6104">
    <comp name="--.HHE">
      <acc value="0.0535499818" flag="0"/>
      <vel value="0.0165128528" flag="0"/>
      <psa03 value="0.0727230419" flag="0"/>
      <psa10 value="0.0098192984" flag="0"/>
      <psa30 value="0.0004885353" flag="0"/>
    </comp>
    <comp name="--.HHN">
      <acc value="0.1494987433" flag="0"/>
      <vel value="0.0440511303" flag="0"/>
      <psa03 value="0.1475982898" flag="0"/>
      <psa10 value="0.0214970392" flag="0"/>
      <psa30 value="0.0012162917" flag="0"/>
    </comp>
    <comp name="--.HHZ">
      <acc value="0.1835849341" flag="0"/>
      <vel value="0.0409129515" flag="0"/>
      <psa03 value="0.1442736087" flag="0"/>
      <psa10 value="0.0101129101" flag="0"/>
      <psa30 value="0.0008613672" flag="0"/>
    </comp>
  </station>
  <station code="SIVA" name="SIVA" netid="HL" insttype="60" commtype="DIG" lat="35.0178" lon="24.812">
    <comp name="--.HHZ">
      <acc value="0.1533593811" flag="0"/>
      <vel value="0.0574439073" flag="0"/>
      <psa03 value="0.2260858730" flag="0"/>
      <psa10 value="0.0397820475" flag="0"/>
      <psa30 value="0.0022899706" flag="0"/>
    </comp>
    <comp name="--.HHN">
      <acc value="0.2068898963" flag="0"/>
      <vel value="0.0830606197" flag="0"/>
      <psa03 value="0.2460585578" flag="0"/>
      <psa10 value="0.0659905028" flag="0"/>
      <psa30 value="0.0035305271" flag="0"/>
    </comp>
    <comp name="--.HHE">
      <acc value="0.2825110870" flag="0"/>
      <vel value="0.1657879104" flag="0"/>
      <psa03 value="0.5130021446" flag="0"/>
      <psa10 value="0.0760686306" flag="0"/>
      <psa30 value="0.0050411060" flag="0"/>
    </comp>
  </station>
  <station code="VAM" name="VAM" netid="HL" insttype="CMG3ESPC-120s" commtype="DIG" lat="35.407" lon="24.1997">
    <comp name="--.HHN">
      <acc value="0.0415291505" flag="0"/>
      <vel value="0.0108531078" flag="0"/>
      <psa03 value="0.0520275998" flag="0"/>
      <psa10 value="0.0078876372" flag="0"/>
      <psa30 value="0.0007125903" flag="0"/>
    </comp>
    <comp name="--.HHZ">
      <acc value="0.0176842669" flag="0"/>
      <vel value="0.0061435049" flag="0"/>
      <psa03 value="0.0329685296" flag="0"/>
      <psa10 value="0.0064004468" flag="0"/>
      <psa30 value="0.0003841182" flag="0"/>
    </comp>
    <comp name="--.HHE">
      <acc value="0.0289797476" flag="0"/>
      <vel value="0.0100638300" flag="0"/>
      <psa03 value="0.0366810320" flag="0"/>
      <psa10 value="0.0068932264" flag="0"/>
      <psa30 value="0.0006120470" flag="0"/>
    </comp>
  </station>
  <station code="IDI" name="IDI" netid="MN" insttype="" commtype="DIG" lat="35.288" lon="24.89">
    <comp name="--.HHE">
