<?xml version="1.0" encoding="UTF-8" standalone="yes"?>
<!DOCTYPE earthquake SYSTEM "stationlist.dtd">
<stationlist created="" xmlns="ch.ethz.sed.shakemap.usgs.xml">
  <station code="AGRP" name="AGRP" netid="CL" insttype="CMG40-T" lat="38.3959" lon="21.7228">
    <comp name="00.HHE">
      <acc value="0.0070719745" flag="0"/>
      <vel value="0.0034021262" flag="0"/>
      <psa03 value="0.0235661481" flag="0"/>
      <psa10 value="0.0061794931" flag="0"/>
      <psa30 value="0.0005744127" flag="0"/>
    </comp>
    <comp name="00.HHN">
      <acc value="0.0068481837" flag="0"/>
      <vel value="0.0054893424" flag="0"/>
      <psa03 value="0.0146366619" flag="0"/>
      <psa10 value="0.0067106490" flag="0"/>
      <psa30 value="0.0003741002" flag="0"/>
    </comp>
    <comp name="00.HHZ">
      <acc value="0.0051091523" flag="0"/>
      <vel value="0.0028974588" flag="0"/>
      <psa03 value="0.0107076369" flag="0"/>
      <psa10 value="0.0034782655" flag="0"/>
      <psa30 value="0.0004436748" flag="0"/>
    </comp>
  </station>
  <station code="MG00" name="MG00" netid="CL" insttype="TRILLIUM-40" lat="38.4145" lon="21.9467">
    <comp name="00.HHE">
      <acc value="0.0126046193" flag="0"/>
      <vel value="0.0064041274" flag="0"/>
      <psa03 value="0.0355036593" flag="0"/>
      <psa10 value="0.0046291828" flag="0"/>
      <psa30 value="0.0004135611" flag="0"/>
    </comp>
    <comp name="00.HHN">
      <acc value="0.0127786943" flag="0"/>
      <vel value="0.0072804516" flag="0"/>
      <psa03 value="0.0303477033" flag="0"/>
      <psa10 value="0.0064522290" flag="0"/>
      <psa30 value="0.0004484010" flag="0"/>
    </comp>
    <comp name="00.HHZ">
      <acc value="0.0093067379" flag="0"/>
      <vel value="0.0025310854" flag="0"/>
      <psa03 value="0.0124953347" flag="0"/>
      <psa10 value="0.0029978723" flag="0"/>
      <psa30 value="0.0003688443" flag="0"/>
    </comp>
  </station>
  <station code="MG02" name="MG02" netid="CL" insttype="TRILLIUM-40" lat="38.415" lon="21.947">
    <comp name="02.HHE">
      <acc value="0.0109037355" flag="0"/>
      <vel value="0.0073406450" flag="0"/>
      <psa03 value="0.0226508554" flag="0"/>
      <psa10 value="0.0055310694" flag="0"/>
      <psa30 value="0.0004629583" flag="0"/>
    </comp>
    <comp name="02.HHN">
      <acc value="0.0080082235" flag="0"/>
      <vel value="0.0043190246" flag="0"/>
      <psa03 value="0.0214447920" flag="0"/>
      <psa10 value="0.0039992590" flag="0"/>
      <psa30 value="0.0003558546" flag="0"/>
    </comp>
    <comp name="02.HHZ">
      <acc value="0.0077628899" flag="0"/>
      <vel value="0.0035070712" flag="0"/>
      <psa03 value="0.0209873886" flag="0"/>
      <psa10 value="0.0032103464" flag="0"/>
      <psa30 value="0.0002752915" flag="0"/>
    </comp>
  </station>
  <station code="MG03" name="MG03" netid="CL" insttype="TRILLIUM-40" lat="38.4141" lon="21.946">
    <comp name="03.HHE">
      <acc value="0.0083421928" flag="0"/>
      <vel value="0.0054858304" flag="0"/>
      <psa03 value="0.0296189310" flag="0"/>
      <psa10 value="0.0040292310" flag="0"/>
      <psa30 value="0.0004261218" flag="0"/>
    </comp>
    <comp name="03.HHN">
      <acc value="0.0037731999" flag="0"/>
      <vel value="0.0019830998" flag="0"/>
      <psa03 value="0.0134667020" flag="0"/>
      <psa10 value="0.0030274546" flag="0"/>
      <psa30 value="0.0001901165" flag="0"/>
    </comp>
    <comp name="03.HHZ">
      <acc value="0.0062452067" flag="0"/>
      <vel value="0.0020220571" flag="0"/>
      <psa03 value="0.0071069687" flag="0"/>
      <psa10 value="0.0026254699" flag="0"/>
      <psa30 value="0.0003468416" flag="0"/>
    </comp>
  </station>
  <station code="MG04" name="MG04" netid="CL" insttype="TRILLIUM-40" lat="38.4142" lon="21.9481">
    <comp name="04.HHE">
      <acc value="0.0080001002" flag="0"/>
      <vel value="0.0046614263" flag="0"/>
      <psa03 value="0.0236416328" flag="0"/>
      <psa10 value="0.0041408826" flag="0"/>
      <psa30 value="0.0004803497" flag="0"/>
    </comp>
    <comp name="04.HHN">
      <acc value="0.0066273605" flag="0"/>
      <vel value="0.0043056394" flag="0"/>
      <psa03 value="0.0321632009" flag="0"/>
      <psa10 value="0.0058884193" flag="0"/>
      <psa30 value="0.0003637748" flag="0"/>
    </comp>
    <comp name="04.HHZ">
      <acc value="0.0095667908" flag="0"/>
      <vel value="0.0024065599" flag="0"/>
      <psa03 value="0.0112062443" flag="0"/>
      <psa10 value="0.0030994625" flag="0"/>
      <psa30 value="0.0003539366" flag="0"/>
    </comp>
  </station>
  <station code="MG05" name="MG05" netid="CL" insttype="CMG40-T" lat="38.4155" lon="21.9458">
    <comp name="05.HHE">
      <acc value="0.0256841734" flag="0"/>
      <vel value="0.0125884604" flag="0"/>
      <psa03 value="0.0615720287" flag="0"/>
      <psa10 value="0.0145968907" flag="0"/>
      <psa30 value="0.0006870680" flag="0"/>
    </comp>
    <comp name="05.HHN">
      <acc value="0.0170579597" flag="0"/>
      <vel value="0.0130217327" flag="0"/>
      <psa03 value="0.0635900439" flag="0"/>
      <psa10 value="0.0140913706" flag="0"/>
      <psa30 value="0.0011752280" flag="0"/>
    </comp>
    <comp name="05.HHZ">
      <acc value="0.0117425975" flag="0"/>
      <vel value="0.0057102780" flag="0"/>
      <psa03 value="0.0360699913" flag="0"/>
      <psa10 value="0.0076593811" flag="0"/>
      <psa30 value="0.0008133461" flag="0"/>
    </comp>
  </station>
  <station code="MG06" name="MG06" netid="CL" insttype="TRILLIUM-40" lat="38.4129" lon="21.9462">
    <comp name="06.HHE">
      <acc value="0.0047632564" flag="0"/>
      <vel value="0.0025463455" flag="0"/>
      <psa03 value="0.0148904377" flag="0"/>
      <psa10 value="0.0045847912" flag="0"/>
      <psa30 value="0.0003265961" flag="0"/>
    </comp>
    <comp name="06.HHN">
      <acc value="0.0052866901" flag="0"/>
      <vel value="0.0028481200" flag="0"/>
      <psa03 value="0.0103805902" flag="0"/>
      <psa10 value="0.0032690665" flag="0"/>
      <psa30 value="0.0004111206" flag="0"/>
    </comp>
    <comp name="06.HHZ">
      <acc value="0.0049101053" flag="0"/>
      <vel value="0.0016176965" flag="0"/>
      <psa03 value="0.0062592637" flag="0"/>
      <psa10 value="0.0023826289" flag="0"/>
      <psa30 value="0.0003126714" flag="0"/>
    </comp>
  </station>
  <station code="MG07" name="MG07" netid="CL" insttype="TRILLIUM-40" lat="38.4155" lon="21.9488">
    <comp name="07.HHE">
      <acc value="0.0099280868" flag="0"/>
      <vel value="0.0080707318" flag="0"/>
      <psa03 value="0.0306268685" flag="0"/>
      <psa10 value="0.0090468540" flag="0"/>
      <psa30 value="0.0005983993" flag="0"/>
    </comp>
    <comp name="07.HHN">
      <acc value="0.0118919105" flag="0"/>
      <vel value="0.0068504639" flag="0"/>
      <psa03 value="0.0283923341" flag="0"/>
      <psa10 value="0.0067701212" flag="0"/>
      <psa30 value="0.0004867792" flag="0"/>
    </comp>
    <comp name="07.HHZ">
      <acc value="0.0072964411" flag="0"/>
      <vel value="0.0035882456" flag="0"/>
      <psa03 value="0.0182788770" flag="0"/>
      <psa10 value="0.0044627152" flag="0"/>
      <psa30 value="0.0004012937" flag="0"/>
    </comp>
  </station>
  <station code="ARG2" name="ARG2" netid="HI" insttype="CMG-5TD,ACCELEROMETER,GURALP" lat="38.1783" lon="20.4878">
    <comp name="--.HNN">
      <acc value="1.2690835441" flag="0"/>
      <vel value="0.2542557769" flag="0"/>
      <psa03 value="0.7525514774" flag="0"/>
      <psa10 value="0.0684315065" flag="0"/>
      <psa30 value="0.0057493780" flag="0"/>
    </comp>
    <comp name="--.HNE">
      <acc value="1.4594593968" flag="0"/>
      <vel value="0.2712242995" flag="0"/>
      <psa03 value="1.5321780771" flag="0"/>
      <psa10 value="0.0870430862" flag="0"/>
      <psa30 value="0.0090486011" flag="0"/>
    </comp>
    <comp name="--.HNZ">
      <acc value="1.1060118537" flag="0"/>
      <vel value="0.1571738209" flag="0"/>
      <psa03 value="0.4605071014" flag="0"/>
      <psa10 value="0.0251337694" flag="0"/>
      <psa30 value="0.0026974590" flag="0"/>
    </comp>
  </station>
  <station code="MSL1" name="MSL1" netid="HI" insttype="CMG-5TD,ACCELEROMETER,GURALP" lat="38.3727" lon="21.4243">
    <comp name="--.HNE">
      <acc value="0.0266777440" flag="0"/>
      <vel value="0.0239211747" flag="0"/>
      <psa03 value="0.1003280550" flag="0"/>
      <psa10 value="0.0402626079" flag="0"/>
      <psa30 value="0.0021895863" flag="0"/>
    </comp>
    <comp name="--.HNZ">
      <acc value="0.0146905940" flag="0"/>
      <vel value="0.0082947246" flag="0"/>
      <psa03 value="0.0278141770" flag="0"/>
      <psa10 value="0.0183484612" flag="0"/>
      <psa30 value="0.0008752498" flag="0"/>
    </comp>
    <comp name="--.HNN">
      <acc value="0.0345721997" flag="0"/>
      <vel value="0.0249445679" flag="0"/>
      <psa03 value="0.1329407751" flag="0"/>
      <psa10 value="0.0340989884" flag="0"/>
      <psa30 value="0.0020937529" flag="0"/>
    </comp>
  </station>
  <station code="KLV" name="KLV" netid="HL" insttype="120" lat="38.0435" lon="22.1504">
    <comp name="--.HHE">
      <acc value="0.0025832095" flag="0"/>
      <vel value="0.0023851594" flag="0"/>
      <psa03 value="0.0058183277" flag="0"/>
      <psa10 value="0.0034148454" flag="0"/>
      <psa30 value="0.0004062579" flag="0"/>
    </comp>
    <comp name="--.HHN">
      <acc value="0.0032034052" flag="0"/>
      <vel value="0.0023533565" flag="0"/>
      <psa03 value="0.0084614151" flag="0"/>
      <psa10 value="0.0034243240" flag="0"/>
      <psa30 value="0.0003233590" flag="0"/>
    </comp>
    <comp name="--.HHZ">
      <acc value="0.0033943915" flag="0"/>
      <vel value="0.0023625301" flag="0"/>
      <psa03 value="0.0073695584" flag="0"/>
      <psa10 value="0.0029166378" flag="0"/>
      <psa30 value="0.0001896225" flag="0"/>
    </comp>
  </station>
  <station code="ORTH" name="ORTH" netid="HL" insttype="30" lat="37.8511" lon="20.6963">
    <comp name="--.HHN">
      <acc value="0.9167458792" flag="0"/>
      <vel value="0.2237069024" flag="0"/>
      <psa03 value="0.8669261665" flag="0"/>
      <psa10 value="0.0759975609" flag="0"/>
      <psa30 value="0.0056064047" flag="0"/>
    </comp>
    <comp name="--.HHZ">
      <acc value="0.3536288141" flag="0"/>
      <vel value="0.0545779806" flag="0"/>
      <psa03 value="0.3199398979" flag="0"/>
      <psa10 value="0.0273950000" flag="0"/>
      <psa30 value="0.0013636538" flag="0"/>
    </comp>
    <comp name="--.HHE">
      <acc value="1.0592449902" flag="0"/>
      <vel value="0.2202087578" flag="0"/>
      <psa03 value="0.7223272622" flag="0"/>
      <psa10 value="0.0371531223" flag="0"/>
      <psa30 value="0.0040669320" flag="0"/>
    </comp>
  </station>
  <station code="RLS" name="RLS" netid="HL" insttype="CMG3ESPC-120s" lat="38.0559" lon="21.4647">
    <comp name="--.HHN">
      <acc value="0.0122638200" flag="0"/>
      <vel value="0.0068042948" flag="0"/>
      <psa03 value="0.0384193060" flag="0"/>
      <psa10 value="0.0091142561" flag="0"/>
      <psa30 value="0.0003859150" flag="0"/>
    </comp>
    <comp name="--.HHE">
      <acc value="0.0138896554" flag="0"/>
      <vel value="0.0064749532" flag="0"/>
      <psa03 value="0.0368833085" flag="0"/>
      <psa10 value="0.0060984626" flag="0"/>
      <psa30 value="0.0003049595" flag="0"/>
    </comp>
    <comp name="--.HHZ">
      <acc value="0.0062333344" flag="0"/>
      <vel value="0.0019918574" flag="0"/>
      <psa03 value="0.0099849048" flag="0"/>
      <psa10 value="0.0033234291" flag="0"/>
      <psa30 value="0.0002627945" flag="0"/>
    </comp>
  </station>
  <station code="VLS" name="VLS" netid="HL" insttype="120P," lat="38.1768" lon="20.5886">
    <comp name="--.HHN">
      <acc value="1.2385188977" flag="0"/>
      <vel value="0.1538074003" flag="0"/>
      <psa03 value="0.4792789905" flag="0"/>
      <psa10 value="0.0521844886" flag="0"/>
      <psa30 value="0.0039313173" flag="0"/>
    </comp>
    <comp name="--.HHE">
      <acc value="2.7407883951" flag="0"/>
      <vel value="0.2585674199" flag="0"/>
      <psa03 value="0.4450177971" flag="0"/>
      <psa10 value="0.0272327684" flag="0"/>
      <psa30 value="0.0027128924" flag="0"/>
    </comp>
    <comp name="--.HHZ">
      <acc value="2.1566359316" flag="0"/>
      <vel value="0.1835628463" flag="0"/>
      <psa03 value="0.2962966285" flag="0"/>
      <psa10 value="0.0207979315" flag="0"/>
      <psa30 value="0.0021259476" flag="0"/>
    </comp>
  </station>
  <station code="AMPL" name="AMPL" netid="HP" insttype="Compact," lat="38.9224" lon="21.2135">
    <comp name="--.HHE">
      <acc value="0.0072964248" flag="0"/>
      <vel value="0.0038538290" flag="0"/>
      <psa03 value="0.0203117741" flag="0"/>
      <psa10 value="0.0042766042" flag="0"/>
      <psa30 value="0.0003731347" flag="0"/>
    </comp>
    <comp name="--.HHZ">
      <acc value="0.0052334546" flag="0"/>
      <vel value="0.0025268849" flag="0"/>
      <psa03 value="0.0128950551" flag="0"/>
      <psa10 value="0.0046836515" flag="0"/>
      <psa30 value="0.0003046276" flag="0"/>
    </comp>
    <comp name="--.HHN">
      <acc value="0.0083808749" flag="0"/>
      <vel value="0.0032385113" flag="0"/>
      <psa03 value="0.0197709296" flag="0"/>
      <psa10 value="0.0054324198" flag="0"/>
      <psa30 value="0.0003645322" flag="0"/>
    </comp>
  </station>
  <station code="AMT" name="AMT" netid="HP" insttype="CMG-3T," lat="37.5324" lon="21.7089">
    <comp name="00.HHE">
      <acc value="0.0001096602" flag="0"/>
      <vel value="0.0000178667" flag="0"/>
      <psa03 value="0.0000338336" flag="0"/>
      <psa10 value="0.0000344757" flag="0"/>
      <psa30 value="0.0000121360" flag="0"/>
    </comp>
    <comp name="00.HHN">
      <acc value="0.0113042082" flag="0"/>
      <vel value="0.0081764626" flag="0"/>
      <psa03 value="0.0310013096" flag="0"/>
      <psa10 value="0.0128071290" flag="0"/>
      <psa30 value="0.0008268279" flag="0"/>
    </comp>
    <comp name="00.HHZ">
      <acc value="0.0076435285" flag="0"/>
      <vel value="0.0040534652" flag="0"/>
      <psa03 value="0.0303165199" flag="0"/>
      <psa10 value="0.0054121374" flag="0"/>
      <psa30 value="0.0003182503" flag="0"/>
    </comp>
  </station>
  <station code="ANX" name="ANX" netid="HP" insttype="120" lat="38.5933" lon="21.9209">
    <comp name="--.HHE">
      <acc value="0.0057302874" flag="0"/>
      <vel value="0.0039344190" flag="0"/>
      <psa03 value="0.0191178834" flag="0"/>
      <psa10 value="0.0045487315" flag="0"/>
      <psa30 value="0.0003937017" flag="0"/>
    </comp>
    <comp name="--.HHZ">
      <acc value="0.0028685715" flag="0"/>
      <vel value="0.0025229528" flag="0"/>
      <psa03 value="0.0091524402" flag="0"/>
      <psa10 value="0.0036858100" flag="0"/>
      <psa30 value="0.0002887272" flag="0"/>
    </comp>
    <comp name="--.HHN">
      <acc value="0.0065026069" flag="0"/>
      <vel value="0.0058340768" flag="0"/>
      <psa03 value="0.0135605269" flag="0"/>
      <psa10 value="0.0046688925" flag="0"/>
      <psa30 value="0.0004304944" flag="0"/>
    </comp>
  </station>
  <station code="AXS" name="AXS" netid="HP" insttype="40," lat="38.1962" lon="21.3763">
    <comp name="--.HHE">
      <acc value="0.0075671512" flag="0"/>
      <vel value="0.0033594012" flag="0"/>
      <psa03 value="0.0131951370" flag="0"/>
      <psa10 value="0.0049571105" flag="0"/>
      <psa30 value="0.0002567251" flag="0"/>
    </comp>
    <comp name="--.HHZ">
      <acc value="0.0056653533" flag="0"/>
      <vel value="0.0025497196" flag="0"/>
      <psa03 value="0.0133698952" flag="0"/>
      <psa10 value="0.0024426655" flag="0"/>
      <psa30 value="0.0002167814" flag="0"/>
    </comp>
    <comp name="--.HHN">
      <acc value="0.0076485010" flag="0"/>
      <vel value="0.0049363138" flag="0"/>
      <psa03 value="0.0195972593" flag="0"/>
      <psa10 value="0.0044919566" flag="0"/>
      <psa30 value="0.0004036971" flag="0"/>
    </comp>
  </station>
  <station code="DRO" name="DRO" netid="HP" insttype="120P," lat="37.952" lon="21.71">
    <comp name="--.HHN">
      <acc value="0.0160548151" flag="0"/>
      <vel value="0.0102398970" flag="0"/>
      <psa03 value="0.0439574313" flag="0"/>
      <psa10 value="0.0156487141" flag="0"/>
      <psa30 value="0.0006571948" flag="0"/>
    </comp>
    <comp name="--.HHZ">
      <acc value="0.0079214372" flag="0"/>
      <vel value="0.0041822949" flag="0"/>
      <psa03 value="0.0222792019" flag="0"/>
      <psa10 value="0.0056020659" flag="0"/>
      <psa30 value="0.0003498425" flag="0"/>
    </comp>
    <comp name="--.HHE">
      <acc value="0.0206242719" flag="0"/>
      <vel value="0.0151453213" flag="0"/>
      <psa03 value="0.0478588110" flag="0"/>
      <psa10 value="0.0290017562" flag="0"/>
      <psa30 value="0.0008929899" flag="0"/>
    </comp>
  </station>
  <station code="EFP" name="EFP" netid="HP" insttype="40," lat="38.4269" lon="21.9058">
    <comp name="--.HHN">
      <acc value="0.0054679105" flag="0"/>
      <vel value="0.0042451907" flag="0"/>
      <psa03 value="0.0190565194" flag="0"/>
      <psa10 value="0.0047237979" flag="0"/>
      <psa30 value="0.0005003326" flag="0"/>
    </comp>
    <comp name="--.HHE">
      <acc value="0.0065794231" flag="0"/>
      <vel value="0.0039598333" flag="0"/>
      <psa03 value="0.0203149441" flag="0"/>
      <psa10 value="0.0045618483" flag="0"/>
      <psa30 value="0.0003258721" flag="0"/>
    </comp>
    <comp name="--.HHZ">
      <acc value="0.0036859264" flag="0"/>
      <vel value="0.0023515590" flag="0"/>
      <psa03 value="0.0121880149" flag="0"/>
      <psa10 value="0.0032980147" flag="0"/>
      <psa30 value="0.0003891343" flag="0"/>
    </comp>
  </station>
  <station code="FSK" name="FSK" netid="HP" insttype="40," lat="38.4593" lon="20.5623">
    <comp name="--.HHN">
      <acc value="0.0503891944" flag="0"/>
      <vel value="0.0147571398" flag="0"/>
      <psa03 value="0.0585820729" flag="0"/>
      <psa10 value="0.0112144312" flag="0"/>
      <psa30 value="0.0013005858" flag="0"/>
    </comp>
    <comp name="--.HHE">
      <acc value="0.0963932299" flag="0"/>
      <vel value="0.0253201166" flag="0"/>
      <psa03 value="0.1129787516" flag="0"/>
      <psa10 value="0.0087298755" flag="0"/>
      <psa30 value="0.0014429542" flag="0"/>
    </comp>
    <comp name="--.HHZ">
      <acc value="0.0416787677" flag="0"/>
      <vel value="0.0114322662" flag="0"/>
      <psa03 value="0.0567615460" flag="0"/>
      <psa10 value="0.0074889910" flag="0"/>
      <psa30 value="0.0016528381" flag="0"/>
    </comp>
  </station>
  <station code="LTHK" name="LTHK" netid="HP" insttype="40," lat="37.7095" lon="20.8367">
    <comp name="--.HHE">
      <acc value="0.2023374866" flag="0"/>
      <vel value="0.0383753899" flag="0"/>
      <psa03 value="0.1935446091" flag="0"/>
      <psa10 value="0.0238138274" flag="0"/>
      <psa30 value="0.0013844010" flag="0"/>
    </comp>
    <comp name="--.HHN">
      <acc value="0.1666501862" flag="0"/>
      <vel value="0.0340817255" flag="0"/>
      <psa03 value="0.1804096048" flag="0"/>
      <psa10 value="0.0269676206" flag="0"/>
      <psa30 value="0.0017253389" flag="0"/>
    </comp>
    <comp name="--.HHZ">
      <acc value="0.0926549160" flag="0"/>
      <vel value="0.0187071304" flag="0"/>
      <psa03 value="0.1217852784" flag="0"/>
      <psa10 value="0.0127066916" flag="0"/>
      <psa30 value="0.0007781545" flag="0"/>
    </comp>
  </station>
  <station code="PLEV" name="PLEV" netid="HP" insttype="Compact," lat="38.4124" lon="21.4073">
    <comp name="--.HHZ">
      <acc value="0.0071268891" flag="0"/>
      <vel value="0.0034840137" flag="0"/>
      <psa03 value="0.0130200319" flag="0"/>
      <psa10 value="0.0044712951" flag="0"/>
      <psa30 value="0.0007276556" flag="0"/>
    </comp>
    <comp name="--.HHE">
      <acc value="0.0112295962" flag="0"/>
