<?xml version="1.0" encoding="UTF-8" standalone="yes"?>
<!DOCTYPE earthquake SYSTEM "stationlist.dtd">
<stationlist created="" xmlns="ch.ethz.sed.shakemap.usgs.xml">
  <station code="CHBY" name="CHBY" netid="KO" insttype="CMG-6T" lat="38.5823" lon="32.8902">
    <comp name="--.HHN">
      <acc value="0.0410793122" flag="0"/>
      <vel value="0.0430966656" flag="0"/>
      <psa03 value="0.1104049774" flag="0"/>
      <psa10 value="0.0644846249" flag="0"/>
      <psa30 value="0.0128348408" flag="0"/>
    </comp>
    <comp name="--.HHZ">
      <acc value="0.0322502180" flag="0"/>
      <vel value="0.0486042533" flag="0"/>
      <psa03 value="0.0507597105" flag="0"/>
      <psa10 value="0.0620216609" flag="0"/>
      <psa30 value="0.0088230350" flag="0"/>
    </comp>
    <comp name="--.HHE">
      <acc value="0.0554791557" flag="0"/>
      <vel value="0.0798895969" flag="0"/>
      <psa03 value="0.1268705689" flag="0"/>
      <psa10 value="0.1069650443" flag="0"/>
      <psa30 value="0.0137963928" flag="0"/>
    </comp>
  </station>
  <station code="CMRD" name="CMRD" netid="KO" insttype="CMG-5T" lat="37.6623" lon="34.9902">
    <comp name="--.HNE">
      <acc value="0.0649789948" flag="0"/>
      <vel value="0.0558055849" flag="0"/>
      <psa03 value="0.1694578875" flag="0"/>
      <psa10 value="0.0686955781" flag="0"/>
      <psa30 value="0.0222933081" flag="0"/>
    </comp>
    <comp name="--.HNN">
      <acc value="0.1080371725" flag="0"/>
      <vel value="0.0898447256" flag="0"/>
      <psa03 value="0.2468571907" flag="0"/>
      <psa10 value="0.1114648620" flag="0"/>
      <psa30 value="0.0272673923" flag="0"/>
    </comp>
    <comp name="--.HNZ">
      <acc value="0.0597374822" flag="0"/>
      <vel value="0.0600771589" flag="0"/>
      <psa03 value="0.2016352980" flag="0"/>
      <psa10 value="0.1092376134" flag="0"/>
      <psa30 value="0.0174324895" flag="0"/>
    </comp>
  </station>
  <station code="GULA" name="GULA" netid="KO" insttype="CMG-6T" lat="38.3444" lon="34.236">
    <comp name="--.HHN">
      <acc value="0.1558909681" flag="0"/>
      <vel value="0.0750375959" flag="0"/>
      <psa03 value="0.4458546468" flag="0"/>
      <psa10 value="0.0530029206" flag="0"/>
      <psa30 value="0.0195716655" flag="0"/>
    </comp>
    <comp name="--.HHZ">
      <acc value="0.1080786115" flag="0"/>
      <vel value="0.0444407363" flag="0"/>
      <psa03 value="0.2448110287" flag="0"/>
      <psa10 value="0.0317993526" flag="0"/>
      <psa30 value="0.0104025555" flag="0"/>
    </comp>
    <comp name="--.HHE">
      <acc value="0.2304267605" flag="0"/>
      <vel value="0.0942737615" flag="0"/>
      <psa03 value="0.6784256002" flag="0"/>
      <psa10 value="0.0565393441" flag="0"/>
      <psa30 value="0.0229542062" flag="0"/>
    </comp>
  </station>
  <station code="KAMT" name="KAMT" netid="KO" insttype="CMG-3T" lat="39.3692" lon="33.7124">
    <comp name="--.HHE">
      <acc value="0.0429275401" flag="0"/>
      <vel value="0.0472408520" flag="0"/>
      <psa03 value="0.1363511884" flag="0"/>
      <psa10 value="0.0622845142" flag="0"/>
      <psa30 value="0.0169305583" flag="0"/>
    </comp>
    <comp name="--.HHZ">
      <acc value="0.0271624563" flag="0"/>
      <vel value="0.0213130856" flag="0"/>
      <psa03 value="0.1436878910" flag="0"/>
      <psa10 value="0.0221523473" flag="0"/>
      <psa30 value="0.0150245760" flag="0"/>
    </comp>
    <comp name="--.HHN">
      <acc value="0.0289503105" flag="0"/>
      <vel value="0.0223718137" flag="0"/>
      <psa03 value="0.0861268920" flag="0"/>
      <psa10 value="0.0295990838" flag="0"/>
      <psa30 value="0.0102587763" flag="0"/>
    </comp>
  </station>
  <station code="KONT" name="KONT" netid="KO" insttype="CMG-3T" lat="37.957" lon="32.3563">
    <comp name="--.HHE">
      <acc value="0.0312610934" flag="0"/>
      <vel value="0.0440607931" flag="0"/>
      <psa03 value="0.0633806975" flag="0"/>
      <psa10 value="0.0449110967" flag="0"/>
      <psa30 value="0.0094157028" flag="0"/>
    </comp>
    <comp name="--.HHN">
      <acc value="0.0178578265" flag="0"/>
      <vel value="0.0305847549" flag="0"/>
      <psa03 value="0.0364567341" flag="0"/>
      <psa10 value="0.0456601964" flag="0"/>
      <psa30 value="0.0085735075" flag="0"/>
    </comp>
    <comp name="--.HHZ">
      <acc value="0.0144615815" flag="0"/>
      <vel value="0.0192154567" flag="0"/>
      <psa03 value="0.0302014772" flag="0"/>
      <psa10 value="0.0190180795" flag="0"/>
      <psa30 value="0.0061268678" flag="0"/>
    </comp>
  </station>
  <station code="KOZK" name="KOZK" netid="KO" insttype="CMG-5T" lat="39.2101" lon="34.868">
    <comp name="--.HNE">
      <acc value="0.0648324792" flag="0"/>
      <vel value="0.0934144533" flag="0"/>
      <psa03 value="0.1601768762" flag="0"/>
      <psa10 value="0.1655910896" flag="0"/>
      <psa30 value="0.0185908223" flag="0"/>
    </comp>
    <comp name="--.HNN">
      <acc value="0.0615921664" flag="0"/>
      <vel value="0.0710536248" flag="0"/>
      <psa03 value="0.1531564725" flag="0"/>
      <psa10 value="0.1479151168" flag="0"/>
      <psa30 value="0.0148904103" flag="0"/>
    </comp>
    <comp name="--.HNZ">
      <acc value="0.0402061575" flag="0"/>
      <vel value="0.0330901558" flag="0"/>
      <psa03 value="0.0968573315" flag="0"/>
      <psa10 value="0.0426893411" flag="0"/>
      <psa30 value="0.0068623572" flag="0"/>
    </comp>
  </station>
  <station code="KRMN" name="KRMN" netid="KO" insttype="CMG-5T" lat="37.174" lon="33.2636">
    <comp name="--.HNZ">
      <acc value="0.1290690867" flag="0"/>
      <vel value="0.0693005101" flag="0"/>
      <psa03 value="0.3205922219" flag="0"/>
      <psa10 value="0.0695486073" flag="0"/>
      <psa30 value="0.0116021449" flag="0"/>
    </comp>
    <comp name="--.HNE">
      <acc value="0.2021111815" flag="0"/>
      <vel value="0.1629384117" flag="0"/>
      <psa03 value="0.4919362331" flag="0"/>
      <psa10 value="0.1597572579" flag="0"/>
      <psa30 value="0.0175332446" flag="0"/>
    </comp>
    <comp name="--.HNN">
      <acc value="0.1310946731" flag="0"/>
      <vel value="0.0885018177" flag="0"/>
      <psa03 value="0.2789441596" flag="0"/>
      <psa10 value="0.1137575297" flag="0"/>
      <psa30 value="0.0114245927" flag="0"/>
    </comp>
  </station>
  <station code="KULU" name="KULU" netid="KO" insttype="CMG-6T" lat="39.0343" lon="33.0023">
    <comp name="--.HHN">
      <acc value="0.0071257365" flag="0"/>
      <vel value="0.0114301216" flag="0"/>
      <psa03 value="0.0179837838" flag="0"/>
      <psa10 value="0.0190211555" flag="0"/>
      <psa30 value="0.0042706427" flag="0"/>
    </comp>
    <comp name="--.HHE">
      <acc value="0.0060526432" flag="0"/>
      <vel value="0.0082699482" flag="0"/>
      <psa03 value="0.0126057911" flag="0"/>
      <psa10 value="0.0112516356" flag="0"/>
      <psa30 value="0.0038620772" flag="0"/>
    </comp>
    <comp name="--.HHZ">
      <acc value="0.0065443030" flag="0"/>
      <vel value="0.0081088835" flag="0"/>
      <psa03 value="0.0103876808" flag="0"/>
      <psa10 value="0.0124019888" flag="0"/>
      <psa30 value="0.0025054058" flag="0"/>
    </comp>
  </station>
  <station code="LADK" name="LADK" netid="KO" insttype="CMG-3T" lat="38.1999" lon="32.3648">
    <comp name="--.HHN">
      <acc value="0.0163690287" flag="0"/>
      <vel value="0.0183764703" flag="0"/>
      <psa03 value="0.0529625957" flag="0"/>
      <psa10 value="0.0231400486" flag="0"/>
      <psa30 value="0.0105559115" flag="0"/>
    </comp>
    <comp name="--.HHE">
      <acc value="0.0214632836" flag="0"/>
      <vel value="0.0270876499" flag="0"/>
      <psa03 value="0.0485288222" flag="0"/>
      <psa10 value="0.0355517040" flag="0"/>
      <psa30 value="0.0106883107" flag="0"/>
    </comp>
    <comp name="--.HHZ">
      <acc value="0.0175219980" flag="0"/>
      <vel value="0.0208052750" flag="0"/>
      <psa03 value="0.0358728662" flag="0"/>
      <psa10 value="0.0261767359" flag="0"/>
      <psa30 value="0.0081997674" flag="0"/>
    </comp>
  </station>
  <station code="MERS" name="MERS" netid="KO" insttype="CMG-3T" lat="36.8678" lon="34.522">
    <comp name="--.HHZ">
      <acc value="0.1008392583" flag="0"/>
      <vel value="0.1187593390" flag="0"/>
      <psa03 value="0.2504272153" flag="0"/>
      <psa10 value="0.1988802355" flag="0"/>
      <psa30 value="0.0157556050" flag="0"/>
    </comp>
    <comp name="--.HHN">
      <acc value="0.1509818268" flag="0"/>
      <vel value="0.1563132683" flag="0"/>
      <psa03 value="0.4265944294" flag="0"/>
      <psa10 value="0.2147875685" flag="0"/>
      <psa30 value="0.0497941675" flag="0"/>
    </comp>
    <comp name="--.HHE">
      <acc value="0.2090957775" flag="0"/>
      <vel value="0.2782069119" flag="0"/>
      <psa03 value="0.4142879600" flag="0"/>
      <psa10 value="0.3193904544" flag="0"/>
      <psa30 value="0.0527462574" flag="0"/>
    </comp>
  </station>
  <station code="SULT" name="SULT" netid="KO" insttype="CMG-3T" lat="38.1988" lon="33.5157">
    <comp name="--.HHZ">
      <acc value="0.1887795258" flag="0"/>
      <vel value="0.1665154366" flag="0"/>
      <psa03 value="0.4335434652" flag="0"/>
      <psa10 value="0.2121788670" flag="0"/>
      <psa30 value="0.0632204507" flag="0"/>
    </comp>
    <comp name="--.HHE">
      <acc value="0.3630200734" flag="0"/>
      <vel value="0.2631409758" flag="0"/>
      <psa03 value="0.8735157832" flag="0"/>
      <psa10 value="0.4095436735" flag="0"/>
      <psa30 value="0.1425985707" flag="0"/>
    </comp>
  </station>
</stationlist>
