<?xml version="1.0" encoding="UTF-8" standalone="yes"?>
<!DOCTYPE earthquake SYSTEM "stationlist.dtd">
<stationlist created="" xmlns="ch.ethz.sed.shakemap.usgs.xml">
  <station code="AGRP" name="AGRP" netid="CL" source="RESIF" insttype="60" lat="38.3959" lon="21.7228">
    <comp name="00.HHE">
      <acc value="0.0374676346" flag="0"/>
      <vel value="0.0829923043" flag="0"/>
      <psa03 value="0.1014633151" flag="0"/>
      <psa10 value="0.0866504234" flag="0"/>
      <psa30 value="0.0220437309" flag="0"/>
    </comp>
    <comp name="00.HHN">
      <acc value="0.0348568451" flag="0"/>
      <vel value="0.0734192758" flag="0"/>
      <psa03 value="0.0754663748" flag="0"/>
      <psa10 value="0.0826513044" flag="0"/>
      <psa30 value="0.0277106405" flag="0"/>
    </comp>
    <comp name="00.HHZ">
      <acc value="0.0209082327" flag="0"/>
      <vel value="0.0474472439" flag="0"/>
      <psa03 value="0.0371523090" flag="0"/>
      <psa10 value="0.0719443616" flag="0"/>
      <psa30 value="0.0179700338" flag="0"/>
    </comp>
  </station>
  <station code="MALA" name="MALA" netid="CL" source="RESIF" insttype="30" lat="38.3935" lon="21.8726">
    <comp name="00.HH2">
      <acc value="0.0517780909" flag="0"/>
      <vel value="0.1121930176" flag="0"/>
      <psa03 value="0.0693001215" flag="0"/>
      <psa10 value="0.1372886268" flag="0"/>
      <psa30 value="0.0628440894" flag="0"/>
    </comp>
    <comp name="00.HH3">
      <acc value="0.0451158129" flag="0"/>
      <vel value="0.1008291972" flag="0"/>
      <psa03 value="0.0685463017" flag="0"/>
      <psa10 value="0.0965619934" flag="0"/>
      <psa30 value="0.0499720119" flag="0"/>
    </comp>
    <comp name="00.HHZ">
      <acc value="0.0283529832" flag="0"/>
      <vel value="0.0666907128" flag="0"/>
      <psa03 value="0.0482673906" flag="0"/>
      <psa10 value="0.0851629399" flag="0"/>
      <psa30 value="0.0273298587" flag="0"/>
    </comp>
  </station>
  <station code="MG00" name="MG00" netid="CL" source="RESIF" insttype="40" lat="38.4145" lon="21.9467">
    <comp name="00.HHE">
      <acc value="0.0514739551" flag="0"/>
      <vel value="0.0658417314" flag="0"/>
      <psa03 value="0.2023552019" flag="0"/>
      <psa10 value="0.1117695694" flag="0"/>
      <psa30 value="0.0279276791" flag="0"/>
    </comp>
    <comp name="00.HHN">
      <acc value="0.0598530036" flag="0"/>
      <vel value="0.0903454268" flag="0"/>
      <psa03 value="0.1955590509" flag="0"/>
      <psa10 value="0.1517559352" flag="0"/>
      <psa30 value="0.0320397446" flag="0"/>
    </comp>
    <comp name="00.HHZ">
      <acc value="0.0337644968" flag="0"/>
      <vel value="0.0324988788" flag="0"/>
      <psa03 value="0.0741449162" flag="0"/>
      <psa10 value="0.0490721267" flag="0"/>
      <psa30 value="0.0224648482" flag="0"/>
    </comp>
  </station>
  <station code="MG02" name="MG02" netid="CL" source="RESIF" insttype="40" lat="38.415" lon="21.947">
    <comp name="02.HHE">
      <acc value="0.0570712977" flag="0"/>
      <vel value="0.0704167675" flag="0"/>
      <psa03 value="0.1226761671" flag="0"/>
      <psa10 value="0.1328669858" flag="0"/>
      <psa30 value="0.0261065069" flag="0"/>
    </comp>
    <comp name="02.HHN">
      <acc value="0.0464022877" flag="0"/>
      <vel value="0.0556320448" flag="0"/>
      <psa03 value="0.1177607776" flag="0"/>
      <psa10 value="0.0908281741" flag="0"/>
      <psa30 value="0.0232445586" flag="0"/>
    </comp>
    <comp name="02.HHZ">
      <acc value="0.0376178841" flag="0"/>
      <vel value="0.0351601988" flag="0"/>
      <psa03 value="0.1245056503" flag="0"/>
      <psa10 value="0.0683071031" flag="0"/>
      <psa30 value="0.0183563514" flag="0"/>
    </comp>
  </station>
  <station code="MG03" name="MG03" netid="CL" source="RESIF" insttype="40" lat="38.4141" lon="21.946">
    <comp name="03.HHE">
      <acc value="0.0352003000" flag="0"/>
      <vel value="0.0679248610" flag="0"/>
      <psa03 value="0.1247362153" flag="0"/>
      <psa10 value="0.1143721147" flag="0"/>
      <psa30 value="0.0294258272" flag="0"/>
    </comp>
    <comp name="03.HHN">
      <acc value="0.0249832922" flag="0"/>
      <vel value="0.0444452972" flag="0"/>
      <psa03 value="0.0556177327" flag="0"/>
      <psa10 value="0.0640537513" flag="0"/>
      <psa30 value="0.0143758442" flag="0"/>
    </comp>
    <comp name="03.HHZ">
      <acc value="0.0275797915" flag="0"/>
      <vel value="0.0304117476" flag="0"/>
      <psa03 value="0.0569746283" flag="0"/>
      <psa10 value="0.0471994727" flag="0"/>
      <psa30 value="0.0227598069" flag="0"/>
    </comp>
  </station>
  <station code="MG04" name="MG04" netid="CL" source="RESIF" insttype="40" lat="38.4142" lon="21.9481">
    <comp name="04.HHE">
      <acc value="0.0449564532" flag="0"/>
      <vel value="0.0804563845" flag="0"/>
      <psa03 value="0.1139669796" flag="0"/>
      <psa10 value="0.1266587201" flag="0"/>
      <psa30 value="0.0298838087" flag="0"/>
    </comp>
    <comp name="04.HHN">
      <acc value="0.0532806481" flag="0"/>
      <vel value="0.0907585922" flag="0"/>
      <psa03 value="0.1258776267" flag="0"/>
      <psa10 value="0.1527296570" flag="0"/>
      <psa30 value="0.0295138249" flag="0"/>
    </comp>
    <comp name="04.HHZ">
      <acc value="0.0282400300" flag="0"/>
      <vel value="0.0342309635" flag="0"/>
      <psa03 value="0.0588046405" flag="0"/>
      <psa10 value="0.0453355590" flag="0"/>
      <psa30 value="0.0223647115" flag="0"/>
    </comp>
  </station>
  <station code="MG05" name="MG05" netid="CL" source="RESIF" insttype="60" lat="38.4155" lon="21.9458">
    <comp name="05.HHE">
      <acc value="0.1358352060" flag="0"/>
      <vel value="0.1337576978" flag="0"/>
      <psa03 value="0.2449568551" flag="0"/>
      <psa10 value="0.2573354157" flag="0"/>
      <psa30 value="0.0411354062" flag="0"/>
    </comp>
    <comp name="05.HHN">
      <acc value="0.1207510275" flag="0"/>
      <vel value="0.1877679984" flag="0"/>
      <psa03 value="0.3090461758" flag="0"/>
      <psa10 value="0.3125015021" flag="0"/>
      <psa30 value="0.0627797869" flag="0"/>
    </comp>
    <comp name="05.HHZ">
      <acc value="0.0590240625" flag="0"/>
      <vel value="0.0711240500" flag="0"/>
      <psa03 value="0.2188708304" flag="0"/>
      <psa10 value="0.1214266833" flag="0"/>
      <psa30 value="0.0436862256" flag="0"/>
    </comp>
  </station>
  <station code="MG06" name="MG06" netid="CL" source="RESIF" insttype="40" lat="38.4129" lon="21.9462">
    <comp name="06.HHE">
      <acc value="0.0346552043" flag="0"/>
      <vel value="0.0810715265" flag="0"/>
      <psa03 value="0.0755392734" flag="0"/>
      <psa10 value="0.1158753052" flag="0"/>
      <psa30 value="0.0295640068" flag="0"/>
    </comp>
    <comp name="06.HHN">
      <acc value="0.0278986201" flag="0"/>
      <vel value="0.0643729600" flag="0"/>
      <psa03 value="0.0593636174" flag="0"/>
      <psa10 value="0.0963291312" flag="0"/>
      <psa30 value="0.0279316245" flag="0"/>
    </comp>
    <comp name="06.HHZ">
      <acc value="0.0175188182" flag="0"/>
      <vel value="0.0334811890" flag="0"/>
      <psa03 value="0.0412578012" flag="0"/>
      <psa10 value="0.0434714992" flag="0"/>
      <psa30 value="0.0223678576" flag="0"/>
    </comp>
  </station>
  <station code="MG07" name="MG07" netid="CL" source="RESIF" insttype="40" lat="38.4155" lon="21.9488">
    <comp name="07.HHE">
      <acc value="0.0707440405" flag="0"/>
      <vel value="0.0805787112" flag="0"/>
      <psa03 value="0.1135363991" flag="0"/>
      <psa10 value="0.1483289210" flag="0"/>
      <psa30 value="0.0285896859" flag="0"/>
    </comp>
    <comp name="07.HHN">
      <acc value="0.0755000609" flag="0"/>
      <vel value="0.0979653603" flag="0"/>
      <psa03 value="0.1636153192" flag="0"/>
      <psa10 value="0.1777022851" flag="0"/>
      <psa30 value="0.0311806921" flag="0"/>
    </comp>
    <comp name="07.HHZ">
      <acc value="0.0415172422" flag="0"/>
      <vel value="0.0421886908" flag="0"/>
      <psa03 value="0.1063010426" flag="0"/>
      <psa10 value="0.0631984965" flag="0"/>
      <psa30 value="0.0222363259" flag="0"/>
    </comp>
  </station>
  <station code="ROD3" name="ROD3" netid="CL" source="RESIF" insttype="60" lat="38.3081" lon="21.892">
    <comp name="00.HHE">
      <acc value="0.1020349680" flag="0"/>
      <vel value="0.1127625062" flag="0"/>
      <psa03 value="0.3194107624" flag="0"/>
      <psa10 value="0.1596342242" flag="0"/>
      <psa30 value="0.0311110786" flag="0"/>
    </comp>
    <comp name="00.HHN">
      <acc value="0.1069210745" flag="0"/>
      <vel value="0.1399546845" flag="0"/>
      <psa03 value="0.2481358296" flag="0"/>
      <psa10 value="0.1581760826" flag="0"/>
      <psa30 value="0.0355267340" flag="0"/>
    </comp>
    <comp name="00.HHZ">
      <acc value="0.0605066420" flag="0"/>
      <vel value="0.1025378320" flag="0"/>
      <psa03 value="0.1400022764" flag="0"/>
      <psa10 value="0.1097719691" flag="0"/>
      <psa30 value="0.0264687061" flag="0"/>
    </comp>
  </station>
  <station code="TRIZ" name="TRIZ" netid="CL" source="RESIF" insttype="generation" lat="38.3654" lon="22.0727">
    <comp name="00.HH2">
      <acc value="0.0199215741" flag="0"/>
      <vel value="0.0394663552" flag="0"/>
      <psa03 value="0.0327632145" flag="0"/>
      <psa10 value="0.0580365737" flag="0"/>
      <psa30 value="0.0143475591" flag="0"/>
    </comp>
    <comp name="00.HH3">
      <acc value="0.0258259934" flag="0"/>
      <vel value="0.0454097904" flag="0"/>
      <psa03 value="0.0764340267" flag="0"/>
      <psa10 value="0.0587175553" flag="0"/>
      <psa30 value="0.0151383097" flag="0"/>
    </comp>
    <comp name="00.HHZ">
      <acc value="0.0166333715" flag="0"/>
      <vel value="0.0387323579" flag="0"/>
      <psa03 value="0.0251107353" flag="0"/>
      <psa10 value="0.0317741789" flag="0"/>
      <psa30 value="0.0091329189" flag="0"/>
    </comp>
  </station>
  <station code="KALE" name="KALE" netid="HA" source="NOA" insttype="120" lat="38.3911" lon="22.1398">
    <comp name="--.HHE">
      <acc value="0.0361579927" flag="0"/>
      <vel value="0.0728099010" flag="0"/>
      <psa03 value="0.0710317007" flag="0"/>
      <psa10 value="0.0862843096" flag="0"/>
      <psa30 value="0.0372786309" flag="0"/>
    </comp>
    <comp name="--.HHN">
      <acc value="0.0313225760" flag="0"/>
      <vel value="0.0672149319" flag="0"/>
      <psa03 value="0.0784323774" flag="0"/>
      <psa10 value="0.0712746858" flag="0"/>
      <psa30 value="0.0259388448" flag="0"/>
    </comp>
    <comp name="--.HHZ">
      <acc value="0.0238960654" flag="0"/>
      <vel value="0.0484219300" flag="0"/>
      <psa03 value="0.0450250588" flag="0"/>
      <psa10 value="0.0280691939" flag="0"/>
      <psa30 value="0.0191293491" flag="0"/>
    </comp>
  </station>
  <station code="ANKY" name="ANKY" netid="HL" source="NOA" insttype="60" lat="35.867" lon="23.3012">
    <comp name="--.HHE">
      <acc value="0.0169423484" flag="0"/>
      <vel value="0.0242304865" flag="0"/>
      <psa03 value="0.0324766905" flag="0"/>
      <psa10 value="0.0445600056" flag="0"/>
      <psa30 value="0.0090807104" flag="0"/>
    </comp>
    <comp name="--.HHN">
      <acc value="0.0157991263" flag="0"/>
      <vel value="0.0224064170" flag="0"/>
      <psa03 value="0.0398998362" flag="0"/>
      <psa10 value="0.0331372957" flag="0"/>
      <psa30 value="0.0068732667" flag="0"/>
    </comp>
    <comp name="--.HHZ">
      <acc value="0.0085615217" flag="0"/>
      <vel value="0.0135792600" flag="0"/>
      <psa03 value="0.0294758778" flag="0"/>
      <psa10 value="0.0153617669" flag="0"/>
      <psa30 value="0.0041771931" flag="0"/>
    </comp>
  </station>
  <station code="ITM" name="ITM" netid="HL" source="NOA" insttype="DR24" lat="37.1787" lon="21.9252">
    <comp name="--.HHE">
      <acc value="0.2824269269" flag="0"/>
      <vel value="0.2648424963" flag="0"/>
      <psa03 value="0.9355151979" flag="0"/>
      <psa10 value="0.3052729946" flag="0"/>
      <psa30 value="0.1463509103" flag="0"/>
    </comp>
    <comp name="--.HHN">
      <acc value="0.3798367927" flag="0"/>
      <vel value="0.2569063911" flag="0"/>
      <psa03 value="0.7711245279" flag="0"/>
      <psa10 value="0.1896479508" flag="0"/>
      <psa30 value="0.1278501275" flag="0"/>
    </comp>
    <comp name="--.HHZ">
      <acc value="0.1899198795" flag="0"/>
      <vel value="0.1645226627" flag="0"/>
      <psa03 value="0.4411180843" flag="0"/>
      <psa10 value="0.2518206048" flag="0"/>
      <psa30 value="0.0822972910" flag="0"/>
    </comp>
  </station>
  <station code="KLV" name="KLV" netid="HL" source="NOA" insttype="120" lat="38.0435" lon="22.1504">
    <comp name="--.HHE">
      <acc value="0.0256616808" flag="0"/>
      <vel value="0.0554002094" flag="0"/>
      <psa03 value="0.0634275196" flag="0"/>
      <psa10 value="0.0750290496" flag="0"/>
      <psa30 value="0.0292488989" flag="0"/>
    </comp>
    <comp name="--.HHN">
      <acc value="0.0326140522" flag="0"/>
      <vel value="0.0643713998" flag="0"/>
      <psa03 value="0.0589843736" flag="0"/>
      <psa10 value="0.0717200491" flag="0"/>
      <psa30 value="0.0229565086" flag="0"/>
    </comp>
    <comp name="--.HHZ">
      <acc value="0.0322342553" flag="0"/>
      <vel value="0.0591058266" flag="0"/>
      <psa03 value="0.0591069079" flag="0"/>
      <psa10 value="0.0623961800" flag="0"/>
      <psa30 value="0.0243944466" flag="0"/>
    </comp>
  </station>
  <station code="RLS" name="RLS" netid="HL" source="NOA" insttype="120" lat="38.0559" lon="21.4647">
    <comp name="--.HHE">
      <acc value="0.0490106144" flag="0"/>
      <vel value="0.1010600480" flag="0"/>
      <psa03 value="0.1384235740" flag="0"/>
      <psa10 value="0.1582451671" flag="0"/>
      <psa30 value="0.0387695568" flag="0"/>
    </comp>
    <comp name="--.HHN">
      <acc value="0.0655780782" flag="0"/>
      <vel value="0.0927164643" flag="0"/>
      <psa03 value="0.1870456954" flag="0"/>
      <psa10 value="0.1148144550" flag="0"/>
      <psa30 value="0.0465556774" flag="0"/>
    </comp>
    <comp name="--.HHZ">
      <acc value="0.0432602221" flag="0"/>
      <vel value="0.0640551976" flag="0"/>
      <psa03 value="0.0806938965" flag="0"/>
      <psa10 value="0.1101248951" flag="0"/>
      <psa30 value="0.0484407548" flag="0"/>
    </comp>
  </station>
  <station code="VLI" name="VLI" netid="HL" source="NOA" insttype="60" lat="36.718" lon="22.9469">
    <comp name="--.HHE">
      <acc value="0.0569678425" flag="0"/>
      <vel value="0.0496928199" flag="0"/>
      <psa03 value="0.1400562126" flag="0"/>
      <psa10 value="0.1099717059" flag="0"/>
      <psa30 value="0.0151655640" flag="0"/>
    </comp>
    <comp name="--.HHN">
      <acc value="0.0600082998" flag="0"/>
      <vel value="0.0610593195" flag="0"/>
      <psa03 value="0.1257087339" flag="0"/>
      <psa10 value="0.1368893561" flag="0"/>
      <psa30 value="0.0168696448" flag="0"/>
    </comp>
    <comp name="--.HHZ">
      <acc value="0.0360130082" flag="0"/>
      <vel value="0.0310580039" flag="0"/>
      <psa03 value="0.0991614519" flag="0"/>
      <psa10 value="0.0431537560" flag="0"/>
      <psa30 value="0.0094619524" flag="0"/>
    </comp>
  </station>
  <station code="VLS" name="VLS" netid="HL" source="NOA" insttype="120P," lat="38.1768" lon="20.5886">
    <comp name="--.HHE">
      <acc value="0.0519764627" flag="0"/>
      <vel value="0.0642379599" flag="0"/>
      <psa03 value="0.1839670312" flag="0"/>
      <psa10 value="0.0970746156" flag="0"/>
      <psa30 value="0.0220485220" flag="0"/>
    </comp>
    <comp name="--.HHN">
      <acc value="0.0506909742" flag="0"/>
      <vel value="0.0520675018" flag="0"/>
      <psa03 value="0.1883379842" flag="0"/>
      <psa10 value="0.1360701836" flag="0"/>
      <psa30 value="0.0145866365" flag="0"/>
    </comp>
    <comp name="--.HHZ">
      <acc value="0.0353790355" flag="0"/>
      <vel value="0.0529380484" flag="0"/>
      <psa03 value="0.0791410138" flag="0"/>
      <psa10 value="0.0729863662" flag="0"/>
      <psa30 value="0.0227497981" flag="0"/>
    </comp>
  </station>
  <station code="GUR" name="GUR" netid="HP" source="NOA" insttype="40," lat="37.9363" lon="22.3423">
    <comp name="--.HHE">
      <acc value="0.0772416713" flag="0"/>
      <vel value="0.0718276494" flag="0"/>
      <psa03 value="0.2701227854" flag="0"/>
      <psa10 value="0.1158702480" flag="0"/>
      <psa30 value="0.0295880658" flag="0"/>
    </comp>
    <comp name="--.HHN">
      <acc value="0.0744843646" flag="0"/>
      <vel value="0.0919003010" flag="0"/>
      <psa03 value="0.2128585778" flag="0"/>
      <psa10 value="0.1075880357" flag="0"/>
      <psa30 value="0.0184808986" flag="0"/>
    </comp>
    <comp name="--.HHZ">
      <acc value="0.0476861238" flag="0"/>
      <vel value="0.0679201122" flag="0"/>
      <psa03 value="0.1126334622" flag="0"/>
      <psa10 value="0.0692626836" flag="0"/>
      <psa30 value="0.0276445625" flag="0"/>
    </comp>
  </station>
  <station code="LTHK" name="LTHK" netid="HP" source="NOA" insttype="40," lat="37.7095" lon="20.8367">
    <comp name="--.HHE">
      <acc value="0.1875381773" flag="0"/>
      <vel value="0.1710332193" flag="0"/>
      <psa03 value="0.6354375888" flag="0"/>
      <psa10 value="0.3971932906" flag="0"/>
      <psa30 value="0.0414692831" flag="0"/>
    </comp>
    <comp name="--.HHN">
      <acc value="0.2756619143" flag="0"/>
      <vel value="0.2811098784" flag="0"/>
      <psa03 value="0.7721189854" flag="0"/>
      <psa10 value="0.3806832361" flag="0"/>
      <psa30 value="0.0577140203" flag="0"/>
    </comp>
    <comp name="--.HHZ">
      <acc value="0.1093600259" flag="0"/>
      <vel value="0.1000722835" flag="0"/>
      <psa03 value="0.3068630061" flag="0"/>
      <psa10 value="0.1511972497" flag="0"/>
      <psa30 value="0.0241632151" flag="0"/>
    </comp>
  </station>
  <station code="PYL" name="PYL" netid="HP" source="NOA" insttype="120s" lat="36.8955" lon="21.742">
    <comp name="--.HHE">
      <acc value="0.5843650987" flag="0"/>
      <vel value="0.3032090672" flag="0"/>
      <psa03 value="0.8027611271" flag="0"/>
      <psa10 value="0.2816058808" flag="0"/>
      <psa30 value="0.0930497238" flag="0"/>
    </comp>
    <comp name="--.HHN">
      <acc value="0.0246807933" flag="0"/>
      <vel value="0.0198783120" flag="0"/>
      <psa03 value="0.0527028698" flag="0"/>
      <psa10 value="0.0149460658" flag="0"/>
      <psa30 value="0.0091226826" flag="0"/>
    </comp>
    <comp name="--.HHZ">
      <acc value="0.0195616266" flag="0"/>
      <vel value="0.0091311254" flag="0"/>
      <psa03 value="0.0315098888" flag="0"/>
      <psa10 value="0.0120690507" flag="0"/>
      <psa30 value="0.0012303279" flag="0"/>
    </comp>
  </station>
  <station code="DMLN" name="DMLN" netid="HT" source="NOA" insttype="1s-100Hz," lat="38.2385" lon="20.3734">
    <comp name="--.HHE">
      <acc value="0.1152286986" flag="0"/>
      <vel value="0.1658019227" flag="0"/>
      <psa03 value="0.2451613000" flag="0"/>
      <psa10 value="0.2715343078" flag="0"/>
      <psa30 value="0.0731223174" flag="0"/>
    </comp>
    <comp name="--.HHN">
      <acc value="0.1309783492" flag="0"/>
      <vel value="0.1533362254" flag="0"/>
      <psa03 value="0.4289240074" flag="0"/>
      <psa10 value="0.2795869231" flag="0"/>
      <psa30 value="0.0524453246" flag="0"/>
    </comp>
    <comp name="--.HHZ">
      <acc value="0.0584651474" flag="0"/>
      <vel value="0.0569592006" flag="0"/>
      <psa03 value="0.1257909112" flag="0"/>
      <psa10 value="0.0896538801" flag="0"/>
      <psa30 value="0.0179863441" flag="0"/>
    </comp>
  </station>
  <station code="KLV" name="KLV" netid="MN" source="INGV" insttype="" lat="38.0437" lon="22.1504">
    <comp name="--.HHE">
      <acc value="0.0259030947" flag="0"/>
      <vel value="0.0555502119" flag="0"/>
