<stationlist xmlns:esm="https://esm-db.eu/esmws/shakemap/1/" created="1780710890">
	<station code="ROD3" name="ROD3" netid="CL" source="Corinth Riff Laboratory (CRLNET)" insttype="" lat="38.30811" lon="21.89204" esm:processing="manual (Paolucci et al 2011)" esm:quality="good">
		<comp name="00.HNE" depth="0.0">
			<acc value="0.0798002538438083" flag="0"/>
			<vel value="0.113882032406661" flag="0"/>
			<psa03 value="0.250243161615994" flag="0"/>
			<psa10 value="0.139629241303972" flag="0"/>
			<psa30 value="0.0269325712738687" flag="0"/>
		</comp>
		<comp name="00.HNN" depth="0.0">
			<acc value="0.0882552081271248" flag="0"/>
			<vel value="0.118411305707513" flag="0"/>
			<psa03 value="0.235970397704765" flag="0"/>
			<psa10 value="0.134503126691716" flag="0"/>
			<psa30 value="0.0313329672947757" flag="0"/>
		</comp>
		<comp name="00.HNZ" depth="0.0">
			<acc value="0.0474596220347775" flag="0"/>
			<vel value="0.0842192445935922" flag="0"/>
			<psa03 value="0.113063556124373" flag="0"/>
			<psa10 value="0.0880338708979791" flag="0"/>
			<psa30 value="0.0205706769148166" flag="0"/>
		</comp>
	</station>
	<station code="AIG2" name="AIG2" netid="HI" source="ITSAK Strong Motion Network" insttype="" lat="38.2417" lon="22.0726" esm:processing="automatic (Paolucci et al 2011)" esm:quality="best">
		<comp name="--.HNE" depth="0.0">
			<acc value="0.0487381885039601" flag="0"/>
			<vel value="0.11931377135922" flag="0"/>
			<psa03 value="0.104291856740338" flag="0"/>
			<psa10 value="0.096675209258156" flag="0"/>
			<psa30 value="0.0470645744637439" flag="0"/>
		</comp>
		<comp name="--.HNN" depth="0.0">
			<acc value="0.0663059007218725" flag="0"/>
			<vel value="0.103479532889831" flag="0"/>
			<psa03 value="0.10989277985734" flag="0"/>
			<psa10 value="0.183013158723583" flag="0"/>
			<psa30 value="0.0446094551574723" flag="0"/>
		</comp>
		<comp name="--.HNZ" depth="0.0">
			<acc value="0.0434158510436256" flag="0"/>
			<vel value="0.073732019616209" flag="0"/>
			<psa03 value="0.0800219625206229" flag="0"/>
			<psa10 value="0.123213812310363" flag="0"/>
			<psa30 value="0.0283250330610949" flag="0"/>
		</comp>
	</station>
	<station code="AKR1" name="AKR1" netid="HI" source="ITSAK Strong Motion Network" insttype="" lat="38.153583" lon="22.31326" esm:processing="automatic (Paolucci et al 2011)" esm:quality="best">
		<comp name="--.HNE" depth="0.0">
			<acc value="0.0761249742267339" flag="0"/>
			<vel value="0.126063115653395" flag="0"/>
			<psa03 value="0.21928458902783" flag="0"/>
			<psa10 value="0.141066944992785" flag="0"/>
			<psa30 value="0.0484553799311137" flag="0"/>
		</comp>
		<comp name="--.HNN" depth="0.0">
			<acc value="0.0484495773975888" flag="0"/>
			<vel value="0.0869133406757094" flag="0"/>
			<psa03 value="0.14096623415452" flag="0"/>
			<psa10 value="0.121169604391621" flag="0"/>
			<psa30 value="0.0343497955053722" flag="0"/>
		</comp>
		<comp name="--.HNZ" depth="0.0">
			<acc value="0.0488710900654934" flag="0"/>
			<vel value="0.069056497256802" flag="0"/>
			<psa03 value="0.0950400042671839" flag="0"/>
			<psa10 value="0.100971913893751" flag="0"/>
			<psa30 value="0.0220015274932185" flag="0"/>
		</comp>
	</station>
	<station code="AOL1" name="AOL1" netid="HI" source="ITSAK Strong Motion Network" insttype="" lat="37.642378" lon="21.624555" esm:processing="automatic (Paolucci et al 2011)" esm:quality="best">
		<comp name="--.HNE" depth="0.0">
			<acc value="0.298998717523409" flag="0"/>
			<vel value="0.403413086843451" flag="0"/>
			<psa03 value="0.907633292917889" flag="0"/>
			<psa10 value="0.589967002418502" flag="0"/>
			<psa30 value="0.102689382667628" flag="0"/>
		</comp>
		<comp name="--.HNN" depth="0.0">
			<acc value="0.327662788300553" flag="0"/>
			<vel value="0.459891647322326" flag="0"/>
			<psa03 value="0.902043505955269" flag="0"/>
			<psa10 value="1.01681163878082" flag="0"/>
			<psa30 value="0.113523547044514" flag="0"/>
		</comp>
		<comp name="--.HNZ" depth="0.0">
			<acc value="0.210035081354581" flag="0"/>
			<vel value="0.195936842961937" flag="0"/>
			<psa03 value="0.6182070365155" flag="0"/>
			<psa10 value="0.267372162093544" flag="0"/>
			<psa30 value="0.0620539174341518" flag="0"/>
		</comp>
	</station>
	<station code="ARE2" name="ARE2" netid="HI" source="ITSAK Strong Motion Network" insttype="" lat="36.66629" lon="22.382635" esm:processing="automatic (Paolucci et al 2011)" esm:quality="best">
		<comp name="--.HNE" depth="0.0">
			<acc value="0.128354767501543" flag="0"/>
			<vel value="0.110153969448627" flag="0"/>
			<psa03 value="0.485616211357388" flag="0"/>
			<psa10 value="0.197966914336504" flag="0"/>
			<psa30 value="0.01208040610095" flag="0"/>
		</comp>
		<comp name="--.HNN" depth="0.0">
			<acc value="0.175976858322954" flag="0"/>
			<vel value="0.124706759820215" flag="0"/>
			<psa03 value="0.602965776856847" flag="0"/>
			<psa10 value="0.081372470526817" flag="0"/>
			<psa30 value="0.0182760807006521" flag="0"/>
		</comp>
		<comp name="--.HNZ" depth="0.0">
			<acc value="0.0812946596277161" flag="0"/>
			<vel value="0.0634655517289726" flag="0"/>
			<psa03 value="0.285621421017385" flag="0"/>
			<psa10 value="0.0973119564395318" flag="0"/>
			<psa30 value="0.00867038020346979" flag="0"/>
		</comp>
	</station>
	<station code="ARG2" name="ARG2" netid="HI" source="ITSAK Strong Motion Network" insttype="" lat="38.1783" lon="20.4878" esm:processing="manual (Paolucci et al 2011)" esm:quality="good">
		<comp name="--.HNE" depth="0.0">
			<acc value="0.0866059057345367" flag="0"/>
			<vel value="0.136796430215276" flag="0"/>
			<psa03 value="0.257178203641826" flag="0"/>
			<psa10 value="0.120546242759212" flag="0"/>
			<psa30 value="0.049809261517791" flag="0"/>
		</comp>
		<comp name="--.HNN" depth="0.0">
			<acc value="0.102507160490176" flag="0"/>
			<vel value="0.145926159216447" flag="0"/>
			<psa03 value="0.266753035858136" flag="0"/>
			<psa10 value="0.267375399952196" flag="0"/>
			<psa30 value="0.0361315689545853" flag="0"/>
		</comp>
		<comp name="--.HNZ" depth="0.0">
			<acc value="0.0658281646051452" flag="0"/>
			<vel value="0.0695072479178923" flag="0"/>
			<psa03 value="0.229751230984825" flag="0"/>
			<psa10 value="0.0767346740386008" flag="0"/>
			<psa30 value="0.0457529330657785" flag="0"/>
		</comp>
	</station>
	<station code="ARS1" name="ARS1" netid="HI" source="ITSAK Strong Motion Network" insttype="" lat="37.6349" lon="22.7293" esm:processing="manual (Paolucci et al 2011)" esm:quality="good">
		<comp name="--.HNE" depth="0.0">
			<acc value="0.0884309429529995" flag="0"/>
			<vel value="0.128944977854795" flag="0"/>
			<psa03 value="0.135479401640127" flag="0"/>
			<psa10 value="0.166065174084377" flag="0"/>
			<psa30 value="0.0346604452009766" flag="0"/>
		</comp>
		<comp name="--.HNN" depth="0.0">
			<acc value="0.0814490254057329" flag="0"/>
			<vel value="0.130958125700777" flag="0"/>
			<psa03 value="0.187201392490849" flag="0"/>
			<psa10 value="0.285673172770805" flag="0"/>
			<psa30 value="0.0473596257054406" flag="0"/>
		</comp>
		<comp name="--.HNZ" depth="0.0">
			<acc value="0.0434883545164098" flag="0"/>
			<vel value="0.0764119677570198" flag="0"/>
			<psa03 value="0.185501188639355" flag="0"/>
			<psa10 value="0.098624351204524" flag="0"/>
			<psa30 value="0.0416406768554932" flag="0"/>
		</comp>
	</station>
	<station code="AST1" name="AST1" netid="HI" source="ITSAK Strong Motion Network" insttype="" lat="38.5416" lon="21.0895" esm:processing="automatic (Paolucci et al 2011)" esm:quality="best">
		<comp name="--.HNE" depth="0.0">
			<acc value="0.0366547326306754" flag="0"/>
			<vel value="0.106158561262998" flag="0"/>
			<psa03 value="0.0728829114685273" flag="0"/>
			<psa10 value="0.115490490678209" flag="0"/>
			<psa30 value="0.0332770911106372" flag="0"/>
		</comp>
		<comp name="--.HNN" depth="0.0">
			<acc value="0.0316485541956038" flag="0"/>
			<vel value="0.0750155403737823" flag="0"/>
			<psa03 value="0.0785711268265452" flag="0"/>
			<psa10 value="0.0904222400296326" flag="0"/>
			<psa30 value="0.0206442459133084" flag="0"/>
		</comp>
		<comp name="--.HNZ" depth="0.0">
			<acc value="0.0319860054300977" flag="0"/>
			<vel value="0.0506842245144877" flag="0"/>
			<psa03 value="0.0704201337382561" flag="0"/>
			<psa10 value="0.0840523905583667" flag="0"/>
			<psa30 value="0.0207893788609872" flag="0"/>
		</comp>
	</station>
	<station code="GTH2" name="GTH2" netid="HI" source="ITSAK Strong Motion Network" insttype="" lat="36.7603" lon="22.5659" esm:processing="automatic (Paolucci et al 2011)" esm:quality="best">
		<comp name="--.HNE" depth="0.0">
			<acc value="0.21620819550192" flag="0"/>
			<vel value="0.155409379260626" flag="0"/>
			<psa03 value="0.521901073384754" flag="0"/>
			<psa10 value="0.217851916620314" flag="0"/>
			<psa30 value="0.0248631620624646" flag="0"/>
		</comp>
		<comp name="--.HNN" depth="0.0">
			<acc value="0.225347373094034" flag="0"/>
			<vel value="0.206766336898749" flag="0"/>
			<psa03 value="0.630121784142389" flag="0"/>
			<psa10 value="0.19698868453358" flag="0"/>
			<psa30 value="0.0211665238449915" flag="0"/>
		</comp>
		<comp name="--.HNZ" depth="0.0">
			<acc value="0.103313958362453" flag="0"/>
			<vel value="0.0810491062191728" flag="0"/>
			<psa03 value="0.288432419732254" flag="0"/>
			<psa10 value="0.11517866502129" flag="0"/>
			<psa30 value="0.0135664662118058" flag="0"/>
		</comp>
	</station>
	<station code="ITC1" name="ITC1" netid="HI" source="ITSAK Strong Motion Network" insttype="" lat="38.3647" lon="20.7156" esm:processing="automatic (Paolucci et al 2011)" esm:quality="best">
		<comp name="--.HNE" depth="0.0">
			<acc value="0.0380109544276017" flag="0"/>
			<vel value="0.0575542928308083" flag="0"/>
			<psa03 value="0.101163972450021" flag="0"/>
			<psa10 value="0.070804270435427" flag="0"/>
			<psa30 value="0.0221179035358935" flag="0"/>
		</comp>
		<comp name="--.HNN" depth="0.0">
			<acc value="0.0371535829587212" flag="0"/>
			<vel value="0.0507752900980173" flag="0"/>
			<psa03 value="0.0872310338362173" flag="0"/>
			<psa10 value="0.0940466976321608" flag="0"/>
			<psa30 value="0.0137425187077529" flag="0"/>
		</comp>
		<comp name="--.HNZ" depth="0.0">
			<acc value="0.0256419759564247" flag="0"/>
			<vel value="0.0442825529713145" flag="0"/>
			<psa03 value="0.0768404184256075" flag="0"/>
			<psa10 value="0.0457128245002762" flag="0"/>
			<psa30 value="0.0170120819669393" flag="0"/>
		</comp>
	</station>
	<station code="KAC1" name="KAC1" netid="HI" source="ITSAK Strong Motion Network" insttype="" lat="38.143412" lon="21.549694" esm:processing="manual (Paolucci et al 2011)" esm:quality="good">
		<comp name="--.HNE" depth="0.0">
			<acc value="0.201380494492918" flag="0"/>
			<vel value="0.314942866897961" flag="0"/>
			<psa03 value="0.470195606484663" flag="0"/>
			<psa10 value="0.43932303299485" flag="0"/>
			<psa30 value="0.119447899503789" flag="0"/>
		</comp>
		<comp name="--.HNN" depth="0.0">
			<acc value="0.156427620875202" flag="0"/>
			<vel value="0.282504266170107" flag="0"/>
			<psa03 value="0.429585916291989" flag="0"/>
			<psa10 value="0.466091226256282" flag="0"/>
			<psa30 value="0.18833408954247" flag="0"/>
		</comp>
		<comp name="--.HNZ" depth="0.0">
			<acc value="0.0895109726406595" flag="0"/>
			<vel value="0.204373583943639" flag="0"/>
			<psa03 value="0.161497031719098" flag="0"/>
			<psa10 value="0.307469728360521" flag="0"/>
			<psa30 value="0.0601391372560289" flag="0"/>
		</comp>
	</station>
	<station code="KAL3" name="KAL3" netid="HI" source="ITSAK Strong Motion Network" insttype="" lat="37.0246" lon="22.103" esm:processing="manual (Paolucci et al 2011)" esm:quality="good">
		<comp name="--.HNE" depth="0.0">
			<acc value="0.647859124802793" flag="0"/>
			<vel value="0.572611813710054" flag="0"/>
			<psa03 value="1.82319361096229" flag="0"/>
			<psa10 value="0.717612318294228" flag="0"/>
			<psa30 value="0.141555123998915" flag="0"/>
		</comp>
		<comp name="--.HNN" depth="0.0">
			<acc value="0.965153127788603" flag="0"/>
			<vel value="0.878728431219164" flag="0"/>
			<psa03 value="2.30128161527957" flag="0"/>
			<psa10 value="0.722337391307126" flag="0"/>
			<psa30 value="0.246025177960611" flag="0"/>
		</comp>
		<comp name="--.HNZ" depth="0.0">
			<acc value="0.265103984271178" flag="0"/>
			<vel value="0.247824367045289" flag="0"/>
			<psa03 value="0.964578148568438" flag="0"/>
			<psa10 value="0.381345122242804" flag="0"/>
			<psa30 value="0.0535557778074416" flag="0"/>
		</comp>
	</station>
	<station code="KLV1" name="KLV1" netid="HI" source="ITSAK Strong Motion Network" insttype="" lat="38.03256" lon="22.10797" esm:processing="manual (Paolucci et al 2011)" esm:quality="good">
		<comp name="--.HNE" depth="0.0">
			<acc value="0.0747268719864808" flag="0"/>
			<vel value="0.0942747886082701" flag="0"/>
			<psa03 value="0.241697400151904" flag="0"/>
			<psa10 value="0.136629276350216" flag="0"/>
			<psa30 value="0.0325325058542116" flag="0"/>
		</comp>
		<comp name="--.HNN" depth="0.0">
			<acc value="0.0858622779735355" flag="0"/>
			<vel value="0.09070891132264" flag="0"/>
			<psa03 value="0.243666057243108" flag="0"/>
			<psa10 value="0.135405129577141" flag="0"/>
			<psa30 value="0.0172687020663882" flag="0"/>
		</comp>
		<comp name="--.HNZ" depth="0.0">
			<acc value="0.0408542183132615" flag="0"/>
			<vel value="0.0764869733972856" flag="0"/>
			<psa03 value="0.106217998511777" flag="0"/>
			<psa10 value="0.0853278622417061" flag="0"/>
			<psa30 value="0.0177487859434022" flag="0"/>
		</comp>
	</station>
	<station code="KRI1" name="KRI1" netid="HI" source="ITSAK Strong Motion Network" insttype="" lat="37.6621" lon="20.8172" esm:processing="manual (Paolucci et al 2011)" esm:quality="good">
		<comp name="--.HNE" depth="0.0">
			<acc value="0.336013922114455" flag="0"/>
			<vel value="0.257102504947662" flag="0"/>
			<psa03 value="0.959093941069273" flag="0"/>
			<psa10 value="0.316204359722981" flag="0"/>
			<psa30 value="0.068625149089039" flag="0"/>
		</comp>
		<comp name="--.HNN" depth="0.0">
			<acc value="0.253988969738616" flag="0"/>
			<vel value="0.254455573298688" flag="0"/>
			<psa03 value="1.18848723440115" flag="0"/>
			<psa10 value="0.378974096231887" flag="0"/>
			<psa30 value="0.0492155324359666" flag="0"/>
		</comp>
		<comp name="--.HNZ" depth="0.0">
			<acc value="0.140006729604534" flag="0"/>
			<vel value="0.103059213515536" flag="0"/>
			<psa03 value="0.26742416895741" flag="0"/>
			<psa10 value="0.170273178616826" flag="0"/>
			<psa30 value="0.0197237069435327" flag="0"/>
		</comp>
	</station>
	<station code="KYP2" name="KYP2" netid="HI" source="ITSAK Strong Motion Network" insttype="" lat="37.2497" lon="21.667" esm:processing="manual (Paolucci et al 2011)" esm:quality="good">
		<comp name="--.HNE" depth="0.0">
			<acc value="0.705153848110047" flag="0"/>
			<vel value="0.455618238485792" flag="0"/>
			<psa03 value="1.32184339897124" flag="0"/>
			<psa10 value="0.322023212457417" flag="0"/>
			<psa30 value="0.12489115342598" flag="0"/>
		</comp>
		<comp name="--.HNN" depth="0.0">
			<acc value="0.658052869534959" flag="0"/>
			<vel value="0.39393400087055" flag="0"/>
			<psa03 value="1.66416790962337" flag="0"/>
			<psa10 value="0.416067712443995" flag="0"/>
			<psa30 value="0.0676180927001223" flag="0"/>
		</comp>
		<comp name="--.HNZ" depth="0.0">
			<acc value="0.97846195922855" flag="0"/>
			<vel value="0.216184033047305" flag="0"/>
			<psa03 value="0.785723717006786" flag="0"/>
			<psa10 value="0.189951748371095" flag="0"/>
			<psa30 value="0.0630412828422644" flag="0"/>
		</comp>
	</station>
	<station code="LEO1" name="LEO1" netid="HI" source="ITSAK Strong Motion Network" insttype="" lat="37.1689" lon="22.8637" esm:processing="automatic (Paolucci et al 2011)" esm:quality="best">
		<comp name="--.HNE" depth="0.0">
			<acc value="0.0423571788162511" flag="0"/>
			<vel value="0.0361216669883833" flag="0"/>
			<psa03 value="0.161394326998748" flag="0"/>
			<psa10 value="0.0438709162328931" flag="0"/>
			<psa30 value="0.0103443944320301" flag="0"/>
		</comp>
		<comp name="--.HNN" depth="0.0">
			<acc value="0.050746670665443" flag="0"/>
			<vel value="0.0632407437376713" flag="0"/>
			<psa03 value="0.131621010912677" flag="0"/>
			<psa10 value="0.0518370927029883" flag="0"/>
			<psa30 value="0.0209403071925818" flag="0"/>
		</comp>
		<comp name="--.HNZ" depth="0.0">
			<acc value="0.0417506658768846" flag="0"/>
			<vel value="0.0300161308408788" flag="0"/>
			<psa03 value="0.0894068185962794" flag="0"/>
			<psa10 value="0.0345563866910243" flag="0"/>
			<psa30 value="0.0100777084320581" flag="0"/>
		</comp>
	</station>
	<station code="LXR1" name="LXR1" netid="HI" source="ITSAK Strong Motion Network" insttype="" lat="38.201" lon="20.4374" esm:processing="manual (Paolucci et al 2011)" esm:quality="good">
		<comp name="--.HNE" depth="0.0">
			<acc value="0.178816982806535" flag="0"/>
			<vel value="0.234981793048389" flag="0"/>
			<psa03 value="0.591534352914447" flag="0"/>
			<psa10 value="0.421574487240799" flag="0"/>
			<psa30 value="0.102319664842304" flag="0"/>
		</comp>
		<comp name="--.HNN" depth="0.0">
			<acc value="0.167016946313108" flag="0"/>
			<vel value="0.255211111736805" flag="0"/>
			<psa03 value="0.533707105476439" flag="0"/>
			<psa10 value="0.349199072724788" flag="0"/>
			<psa30 value="0.117746280113189" flag="0"/>
		</comp>
		<comp name="--.HNZ" depth="0.0">
			<acc value="0.10979370745266" flag="0"/>
			<vel value="0.164634048419011" flag="0"/>
			<psa03 value="0.259395558682715" flag="0"/>
			<psa10 value="0.219031459759258" flag="0"/>
			<psa30 value="0.0562884354992692" flag="0"/>
		</comp>
	</station>
	<station code="MGP1" name="MGP1" netid="HI" source="ITSAK Strong Motion Network" insttype="" lat="37.403248" lon="22.140703" esm:processing="manual (Paolucci et al 2011)" esm:quality="good">
		<comp name="--.HNE" depth="0.0">
			<acc value="0.757042842814395" flag="0"/>
			<vel value="0.694293518139695" flag="0"/>
			<psa03 value="2.17020293196011" flag="0"/>
			<psa10 value="0.850448518040535" flag="0"/>
			<psa30 value="0.318124860877424" flag="0"/>
		</comp>
		<comp name="--.HNN" depth="0.0">
			<acc value="0.715008311015221" flag="0"/>
			<vel value="0.797843006250548" flag="0"/>
			<psa03 value="1.55245717600218" flag="0"/>
			<psa10 value="0.753189335096988" flag="0"/>
			<psa30 value="0.35108000399392" flag="0"/>
		</comp>
		<comp name="--.HNZ" depth="0.0">
			<acc value="0.227682011916468" flag="0"/>
			<vel value="0.386062018342521" flag="0"/>
			<psa03 value="0.585114094270488" flag="0"/>
			<psa10 value="0.384774949452024" flag="0"/>
			<psa30 value="0.130538660878966" flag="0"/>
		</comp>
	</station>
	<station code="MSL1" name="MSL1" netid="HI" source="ITSAK Strong Motion Network" insttype="" lat="38.3727" lon="21.4243" esm:processing="manual (Paolucci et al 2011)" esm:quality="good">
		<comp name="--.HNE" depth="0.0">
			<acc value="0.158938696661094" flag="0"/>
			<vel value="0.336112105076541" flag="0"/>
			<psa03 value="0.223666290884741" flag="0"/>
			<psa10 value="0.723587520047139" flag="0"/>
			<psa30 value="0.13505121872279" flag="0"/>
		</comp>
		<comp name="--.HNN" depth="0.0">
			<acc value="0.14795911633142" flag="0"/>
			<vel value="0.286489805909714" flag="0"/>
			<psa03 value="0.273867046710441" flag="0"/>
			<psa10 value="0.442613621237452" flag="0"/>
			<psa30 value="0.110987070315219" flag="0"/>
		</comp>
		<comp name="--.HNZ" depth="0.0">
			<acc value="0.0572549545910311" flag="0"/>
			<vel value="0.0875026976232989" flag="0"/>
			<psa03 value="0.0991487298660902" flag="0"/>
			<psa10 value="0.247760863992812" flag="0"/>
			<psa30 value="0.0250422130442467" flag="0"/>
		</comp>
	</station>
	<station code="NMA1" name="NMA1" netid="HI" source="ITSAK Strong Motion Network" insttype="" lat="37.81873" lon="22.662702" esm:processing="automatic (Paolucci et al 2011)" esm:quality="best">
		<comp name="--.HNE" depth="0.0">
