<?xml version="1.0" encoding="UTF-8" standalone="yes"?>
<!DOCTYPE earthquake SYSTEM "stationlist.dtd">
<stationlist created="" xmlns="ch.ethz.sed.shakemap.usgs.xml">
  <station code="AGRB" name="AGRB" netid="KO" insttype="120s," lat="39.5755" lon="42.992">
    <comp name="--.HHE">
      <acc value="0.0280367779" flag="0"/>
      <vel value="0.0175803660" flag="0"/>
      <psa03 value="0.0454399802" flag="0"/>
      <psa10 value="0.0149985118" flag="0"/>
      <psa30 value="0.0014376640" flag="0"/>
    </comp>
    <comp name="--.HHZ">
      <acc value="0.0151316231" flag="0"/>
      <vel value="0.0095433592" flag="0"/>
      <psa03 value="0.0258245908" flag="0"/>
      <psa10 value="0.0148491051" flag="0"/>
      <psa30 value="0.0016140958" flag="0"/>
    </comp>
    <comp name="--.HHN">
      <acc value="0.0214918055" flag="0"/>
      <vel value="0.0105161280" flag="0"/>
      <psa03 value="0.0335715770" flag="0"/>
      <psa10 value="0.0108540190" flag="0"/>
      <psa30 value="0.0020225409" flag="0"/>
    </comp>
  </station>
  <station code="AKDM" name="AKDM" netid="KO" insttype="30s," lat="38.3285" lon="42.98">
    <comp name="--.HHE">
      <acc value="0.0507176689" flag="0"/>
      <vel value="0.0163626896" flag="0"/>
      <psa03 value="0.0620726922" flag="0"/>
      <psa10 value="0.0174485274" flag="0"/>
      <psa30 value="0.0019827290" flag="0"/>
    </comp>
    <comp name="--.HHN">
      <acc value="0.0437522169" flag="0"/>
      <vel value="0.0131572803" flag="0"/>
      <psa03 value="0.0453855626" flag="0"/>
      <psa10 value="0.0070213173" flag="0"/>
      <psa30 value="0.0011867767" flag="0"/>
    </comp>
  </station>
  <station code="GURO" name="GURO" netid="KO" insttype="120s," lat="38.5509" lon="42.0322">
    <comp name="--.HHE">
      <acc value="0.0812827500" flag="0"/>
      <vel value="0.0214413791" flag="0"/>
      <psa03 value="0.1017437184" flag="0"/>
      <psa10 value="0.0116406284" flag="0"/>
      <psa30 value="0.0009676243" flag="0"/>
    </comp>
    <comp name="--.HHN">
      <acc value="0.1321476086" flag="0"/>
      <vel value="0.0242933442" flag="0"/>
      <psa03 value="0.1214005370" flag="0"/>
      <psa10 value="0.0099199665" flag="0"/>
      <psa30 value="0.0010610517" flag="0"/>
    </comp>
    <comp name="--.HHZ">
      <acc value="0.0812359033" flag="0"/>
      <vel value="0.0209701330" flag="0"/>
      <psa03 value="0.0962148110" flag="0"/>
      <psa10 value="0.0105844737" flag="0"/>
      <psa30 value="0.0008669324" flag="0"/>
    </comp>
  </station>
  <station code="VANB" name="VANB" netid="KO" insttype="360s," lat="38.509" lon="43.4058">
    <comp name="--.HHN">
      <acc value="0.0146058214" flag="0"/>
      <vel value="0.0118744424" flag="0"/>
      <psa03 value="0.0448630043" flag="0"/>
      <psa10 value="0.0208943400" flag="0"/>
      <psa30 value="0.0019806804" flag="0"/>
    </comp>
    <comp name="--.HHE">
      <acc value="0.0148556816" flag="0"/>
      <vel value="0.0116051631" flag="0"/>
      <psa03 value="0.0541304552" flag="0"/>
      <psa10 value="0.0226078018" flag="0"/>
      <psa30 value="0.0023946435" flag="0"/>
    </comp>
    <comp name="--.HHZ">
      <acc value="0.0109869792" flag="0"/>
      <vel value="0.0073037099" flag="0"/>
      <psa03 value="0.0190707746" flag="0"/>
      <psa10 value="0.0216431844" flag="0"/>
      <psa30 value="0.0021619802" flag="0"/>
    </comp>
  </station>
</stationlist>
