<stationlist created="1668085221">
	<station code="ERCV" name="ERCV" netid="KO" source="Bogazici University Kandilli Observatory And Earthquake Research Institute (KOERI)" insttype="" lat="39.0198" lon="43.3381">
		<comp name=".HNE" depth="0.0">
			<acc value="0.0719818717871" flag="0"/>
			<vel value="0.0341155552434" flag="0"/>
			<psa03 value="0.195433384003" flag="0"/>
			<psa10 value="0.0457402650682" flag="0"/>
			<psa30 value="0.00927840714892" flag="0"/>
		</comp>
		<comp name=".HNN" depth="0.0">
			<acc value="0.0927465708881" flag="0"/>
			<vel value="0.0453758511984" flag="0"/>
			<psa03 value="0.190982005787" flag="0"/>
			<psa10 value="0.0405538777453" flag="0"/>
			<psa30 value="0.0126765330915" flag="0"/>
		</comp>
		<comp name=".HNZ" depth="0.0">
			<acc value="0.0413725817561" flag="0"/>
			<vel value="0.0194226434612" flag="0"/>
			<psa03 value="0.0606000717489" flag="0"/>
			<psa10 value="0.0192204620113" flag="0"/>
			<psa30 value="0.00232694185681" flag="0"/>
		</comp>
	</station>
</stationlist>
