<?xml version="1.0" encoding="UTF-8" standalone="yes"?>
<!DOCTYPE earthquake SYSTEM "stationlist.dtd">
<stationlist created="" xmlns="ch.ethz.sed.shakemap.usgs.xml">
  <station code="APE" name="APE" netid="GE" insttype="STS-2/N" lat="37.0727" lon="25.523">
    <comp name="--.HHE">
      <acc value="0.1248806635" flag="0"/>
      <vel value="0.0466508009" flag="0"/>
      <psa03 value="0.2686497041" flag="0"/>
      <psa10 value="0.0156510733" flag="0"/>
      <psa30 value="0.0031055692" flag="0"/>
    </comp>
    <comp name="--.HHZ">
      <acc value="0.0672245397" flag="0"/>
      <vel value="0.0156362073" flag="0"/>
      <psa03 value="0.0743238693" flag="0"/>
      <psa10 value="0.0067847549" flag="0"/>
      <psa30 value="0.0029009470" flag="0"/>
    </comp>
    <comp name="--.HHN">
      <acc value="0.1642948401" flag="0"/>
      <vel value="0.0412473850" flag="0"/>
      <psa03 value="0.1586444894" flag="0"/>
      <psa10 value="0.0125522733" flag="0"/>
      <psa30 value="0.0035738311" flag="0"/>
    </comp>
  </station>
  <station code="THERA" name="THERA" netid="GE" insttype="STS-2/N" lat="36.367" lon="25.4753">
    <comp name="--.HHZ">
      <acc value="0.2161543136" flag="0"/>
      <vel value="0.0399017887" flag="0"/>
      <psa03 value="0.1775274408" flag="0"/>
      <psa10 value="0.0320692739" flag="0"/>
      <psa30 value="0.0032404595" flag="0"/>
    </comp>
    <comp name="--.HHN">
      <acc value="0.1845342744" flag="0"/>
      <vel value="0.0503179844" flag="0"/>
      <psa03 value="0.2342241117" flag="0"/>
      <psa10 value="0.0217404120" flag="0"/>
      <psa30 value="0.0037076879" flag="0"/>
    </comp>
    <comp name="--.HHE">
      <acc value="0.2732232676" flag="0"/>
      <vel value="0.1033817961" flag="0"/>
      <psa03 value="0.4021352861" flag="0"/>
      <psa10 value="0.0319602123" flag="0"/>
      <psa30 value="0.0064143815" flag="0"/>
    </comp>
  </station>
</stationlist>
