<stationlist created="1738834331">
	<station code="BODA" name="BODA" netid="KO" source="Bogazici University Kandilli Observatory And Earthquake Research Institute (KOERI)" insttype="" lat="37.0348" lon="27.4304">
		<comp name=".HNE" depth="0.0">
			<acc value="0.0069429878577588" flag="0"/>
			<vel value="0.00275909244483" flag="0"/>
			<psa03 value="0.019556989564987" flag="0"/>
			<psa10 value="0.0016415456193423" flag="0"/>
			<psa30 value="0.000480274836684789" flag="0"/>
		</comp>
		<comp name=".HNN" depth="0.0">
			<acc value="0.0072893386616928" flag="0"/>
			<vel value="0.00307589027126" flag="0"/>
			<psa03 value="0.0141177490336899" flag="0"/>
			<psa10 value="0.00309360149841621" flag="0"/>
			<psa30 value="0.000364470758982499" flag="0"/>
		</comp>
		<comp name=".HNZ" depth="0.0">
			<acc value="0.0092438800627194" flag="0"/>
			<vel value="0.00209999450114" flag="0"/>
			<psa03 value="0.00493507952898009" flag="0"/>
			<psa10 value="0.00148094380838406" flag="0"/>
			<psa30 value="0.000601296812127999" flag="0"/>
		</comp>
	</station>
	<station code="BODM" name="BODM" netid="KO" source="Bogazici University Kandilli Observatory And Earthquake Research Institute (KOERI)" insttype="" lat="37.031" lon="27.4247">
		<comp name=".HNE" depth="0.0">
			<acc value="0.0064503992480892" flag="0"/>
			<vel value="0.00342925163725" flag="0"/>
			<psa03 value="0.0219323852045378" flag="0"/>
			<psa10 value="0.00193502365457124" flag="0"/>
			<psa30 value="0.000558013580246427" flag="0"/>
		</comp>
		<comp name=".HNN" depth="0.0">
			<acc value="0.0076436366004498" flag="0"/>
			<vel value="0.00416019394529" flag="0"/>
			<psa03 value="0.0157295380984678" flag="0"/>
			<psa10 value="0.00360423509101073" flag="0"/>
			<psa30 value="0.000480702052485907" flag="0"/>
		</comp>
		<comp name=".HNZ" depth="0.0">
			<acc value="0.012027156769626" flag="0"/>
			<vel value="0.00170179481567" flag="0"/>
			<psa03 value="0.00442922505504614" flag="0"/>
			<psa10 value="0.00136015440042931" flag="0"/>
			<psa30 value="0.000520036793635549" flag="0"/>
		</comp>
	</station>
	<station code="CESE" name="CESE" netid="KO" source="Bogazici University Kandilli Observatory And Earthquake Research Institute (KOERI)" insttype="" lat="38.3306" lon="26.2997">
		<comp name=".HNE" depth="0.0">
			<acc value="0.057668186988378" flag="0"/>
			<vel value="0.00466326761323" flag="0"/>
			<psa03 value="0.00347312786413596" flag="0"/>
			<psa10 value="0.00206999673650035" flag="0"/>
			<psa30 value="0.000647914014873478" flag="0"/>
		</comp>
		<comp name=".HNN" depth="0.0">
			<acc value="0.042674808953982" flag="0"/>
			<vel value="0.00318501991382" flag="0"/>
			<psa03 value="0.00711279084892892" flag="0"/>
			<psa10 value="0.0018057537629491" flag="0"/>
			<psa30 value="0.000676342929400519" flag="0"/>
		</comp>
		<comp name=".HNZ" depth="0.0">
			<acc value="0.0082996800205218" flag="0"/>
			<vel value="0.00221814712316" flag="0"/>
			<psa03 value="0.00294432916194171" flag="0"/>
			<psa10 value="0.00145916658450174" flag="0"/>
			<psa30 value="0.00082882521810496" flag="0"/>
		</comp>
	</station>
	<station code="DATC" name="DATC" netid="KO" source="Bogazici University Kandilli Observatory And Earthquake Research Institute (KOERI)" insttype="" lat="36.7584" lon="27.6602">
		<comp name=".HNE" depth="0.0">
			<acc value="0.18724190166456" flag="0"/>
			<vel value="0.0160666364002" flag="0"/>
			<psa03 value="0.0183288287782668" flag="0"/>
			<psa10 value="0.00749283042575166" flag="0"/>
			<psa30 value="0.00104590761958198" flag="0"/>
		</comp>
		<comp name=".HNN" depth="0.0">
			<acc value="0.25695764245008" flag="0"/>
			<vel value="0.0215403921386" flag="0"/>
			<psa03 value="0.0207559986809435" flag="0"/>
			<psa10 value="0.00898227253148226" flag="0"/>
			<psa30 value="0.00112056329431954" flag="0"/>
		</comp>
		<comp name=".HNZ" depth="0.0">
			<acc value="0.17662805756538" flag="0"/>
			<vel value="0.0283656476866" flag="0"/>
			<psa03 value="0.0289728854573101" flag="0"/>
			<psa10 value="0.00714891295539002" flag="0"/>
			<psa30 value="0.000765853754887793" flag="0"/>
		</comp>
	</station>
	<station code="DIDI" name="DIDI" netid="KO" source="Bogazici University Kandilli Observatory And Earthquake Research Institute (KOERI)" insttype="" lat="37.3767" lon="27.2398">
		<comp name=".HNE" depth="0.0">
			<acc value="0.045817416279972" flag="0"/>
			<vel value="0.00791107561583" flag="0"/>
			<psa03 value="0.0392177698597947" flag="0"/>
			<psa10 value="0.0111243366201875" flag="0"/>
			<psa30 value="0.00185338569437094" flag="0"/>
		</comp>
		<comp name=".HNN" depth="0.0">
			<acc value="0.044970041393724" flag="0"/>
			<vel value="0.0108701655718" flag="0"/>
			<psa03 value="0.041225947162514" flag="0"/>
			<psa10 value="0.00949038337884199" flag="0"/>
			<psa30 value="0.00199144359003172" flag="0"/>
		</comp>
		<comp name=".HNZ" depth="0.0">
			<acc value="0.06995140854549" flag="0"/>
			<vel value="0.0102934612941" flag="0"/>
			<psa03 value="0.0285828882677495" flag="0"/>
			<psa10 value="0.0048164445345465" flag="0"/>
			<psa30 value="0.00099788277150464" flag="0"/>
		</comp>
	</station>
	<station code="GMLD" name="GMLD" netid="KO" source="Bogazici University Kandilli Observatory And Earthquake Research Institute (KOERI)" insttype="" lat="38.0766" lon="26.9157">
		<comp name=".HNE" depth="0.0">
			<acc value="0.014556628630596" flag="0"/>
			<vel value="0.0061104140583" flag="0"/>
			<psa03 value="0.0326228772513591" flag="0"/>
			<psa10 value="0.00540910660802615" flag="0"/>
			<psa30 value="0.000616989726705989" flag="0"/>
		</comp>
		<comp name=".HNN" depth="0.0">
			<acc value="0.021495190303068" flag="0"/>
			<vel value="0.00798992606906" flag="0"/>
			<psa03 value="0.032508968663809" flag="0"/>
			<psa10 value="0.00871465105286118" flag="0"/>
			<psa30 value="0.000611716929494113" flag="0"/>
		</comp>
		<comp name=".HNZ" depth="0.0">
			<acc value="0.026956028721678" flag="0"/>
			<vel value="0.00499295209359" flag="0"/>
			<psa03 value="0.0231101012432939" flag="0"/>
			<psa10 value="0.00293175366741693" flag="0"/>
			<psa30 value="0.000856666802052609" flag="0"/>
		</comp>
	</station>
	<station code="KUSD" name="KUSD" netid="KO" source="Bogazici University Kandilli Observatory And Earthquake Research Institute (KOERI)" insttype="" lat="37.8606" lon="27.2868">
		<comp name=".HNE" depth="0.0">
			<acc value="0.0057272190053598" flag="0"/>
			<vel value="0.00273596652151" flag="0"/>
			<psa03 value="0.00741589881900696" flag="0"/>
			<psa10 value="0.00234450554636011" flag="0"/>
			<psa30 value="0.000712254631290529" flag="0"/>
		</comp>
		<comp name=".HNN" depth="0.0">
			<acc value="0.014233803033222" flag="0"/>
			<vel value="0.00234403943274" flag="0"/>
			<psa03 value="0.00884547594334165" flag="0"/>
			<psa10 value="0.00271456107634976" flag="0"/>
			<psa30 value="0.000609818991263557" flag="0"/>
		</comp>
		<comp name=".HNZ" depth="0.0">
			<acc value="0.0031723823274276" flag="0"/>
			<vel value="0.0019893709693" flag="0"/>
			<psa03 value="0.00427699459292106" flag="0"/>
			<psa10 value="0.00127298069591221" flag="0"/>
			<psa30 value="0.000621141407985904" flag="0"/>
		</comp>
	</station>
	<station code="YKAV" name="YKAV" netid="KO" source="Bogazici University Kandilli Observatory And Earthquake Research Institute (KOERI)" insttype="" lat="37.1246" lon="27.2801">
		<comp name=".HNE" depth="0.0">
			<acc value="0.010834131209994" flag="0"/>
			<vel value="0.00472979658106" flag="0"/>
			<psa03 value="0.0185998831926448" flag="0"/>
			<psa10 value="0.00459831367822156" flag="0"/>
			<psa30 value="0.00132167567952509" flag="0"/>
		</comp>
		<comp name=".HNN" depth="0.0">
			<acc value="0.008195939305974" flag="0"/>
			<vel value="0.00296868894018" flag="0"/>
			<psa03 value="0.0125985038598747" flag="0"/>
			<psa10 value="0.00386428317729374" flag="0"/>
			<psa30 value="0.000539163685698855" flag="0"/>
		</comp>
		<comp name=".HNZ" depth="0.0">
			<acc value="0.0076437044152518" flag="0"/>
			<vel value="0.00289931240713" flag="0"/>
			<psa03 value="0.0087208192479305" flag="0"/>
			<psa10 value="0.00310402695467745" flag="0"/>
			<psa30 value="0.000726860859297209" flag="0"/>
		</comp>
	</station>
</stationlist>
