<?xml version="1.0" encoding="UTF-8" standalone="yes"?>
<!DOCTYPE earthquake SYSTEM "stationlist.dtd">
<stationlist created="" xmlns="ch.ethz.sed.shakemap.usgs.xml">
  <station code="APE" name="APE" netid="GE" insttype="STS-2/N" lat="37.0727" lon="25.523">
    <comp name="--.HHE">
      <acc value="0.1248806629" flag="0"/>
      <vel value="0.0466507889" flag="0"/>
      <psa03 value="0.2686497041" flag="0"/>
      <psa10 value="0.0156510727" flag="0"/>
      <psa30 value="0.0031063724" flag="0"/>
    </comp>
    <comp name="--.HHN">
      <acc value="0.1642948387" flag="0"/>
      <vel value="0.0412473910" flag="0"/>
      <psa03 value="0.1586444894" flag="0"/>
      <psa10 value="0.0125522750" flag="0"/>
      <psa30 value="0.0035739177" flag="0"/>
    </comp>
    <comp name="--.HHZ">
      <acc value="0.0672245391" flag="0"/>
      <vel value="0.0156362221" flag="0"/>
      <psa03 value="0.0743238693" flag="0"/>
      <psa10 value="0.0067847555" flag="0"/>
      <psa30 value="0.0029011359" flag="0"/>
    </comp>
  </station>
  <station code="THERA" name="THERA" netid="GE" insttype="STS-2/N" lat="36.367" lon="25.4753">
    <comp name="--.HHE">
      <acc value="0.2732232688" flag="0"/>
      <vel value="0.1033817947" flag="0"/>
      <psa03 value="0.4021352861" flag="0"/>
      <psa10 value="0.0319601997" flag="0"/>
      <psa30 value="0.0064148397" flag="0"/>
    </comp>
    <comp name="--.HHN">
      <acc value="0.1845342748" flag="0"/>
      <vel value="0.0503179776" flag="0"/>
      <psa03 value="0.2342241117" flag="0"/>
      <psa10 value="0.0217404117" flag="0"/>
      <psa30 value="0.0037083842" flag="0"/>
    </comp>
    <comp name="--.HHZ">
      <acc value="0.2161543138" flag="0"/>
      <vel value="0.0399017886" flag="0"/>
      <psa03 value="0.1775274408" flag="0"/>
      <psa10 value="0.0320692836" flag="0"/>
      <psa30 value="0.0032402636" flag="0"/>
    </comp>
  </station>
</stationlist>
