<?xml version="1.0" encoding="UTF-8" standalone="yes"?>
<!DOCTYPE earthquake SYSTEM "stationlist.dtd">
<stationlist created="" xmlns="ch.ethz.sed.shakemap.usgs.xml">
  <station code="APE" name="APE" netid="GE" insttype="STS-2/N" lat="37.0727" lon="25.523">
    <comp name="--.HHE">
      <acc value="0.1248806635" flag="0"/>
      <vel value="0.0466507932" flag="0"/>
      <psa03 value="0.2686497041" flag="0"/>
      <psa10 value="0.0156510735" flag="0"/>
      <psa30 value="0.0031054518" flag="0"/>
    </comp>
    <comp name="--.HHZ">
      <acc value="0.0672245397" flag="0"/>
      <vel value="0.0156362091" flag="0"/>
      <psa03 value="0.0743238693" flag="0"/>
      <psa10 value="0.0067847549" flag="0"/>
      <psa30 value="0.0029009260" flag="0"/>
    </comp>
    <comp name="--.HHN">
      <acc value="0.1642948401" flag="0"/>
      <vel value="0.0412473858" flag="0"/>
      <psa03 value="0.1586444894" flag="0"/>
      <psa10 value="0.0125522735" flag="0"/>
      <psa30 value="0.0035738284" flag="0"/>
    </comp>
  </station>
  <station code="THERA" name="THERA" netid="GE" insttype="STS-2/N" lat="36.367" lon="25.4753">
    <comp name="--.HHE">
      <acc value="0.2732232675" flag="0"/>
      <vel value="0.1033817940" flag="0"/>
      <psa03 value="0.4021352861" flag="0"/>
      <psa10 value="0.0319602155" flag="0"/>
      <psa30 value="0.0064142927" flag="0"/>
    </comp>
    <comp name="--.HHN">
      <acc value="0.1845342744" flag="0"/>
      <vel value="0.0503179851" flag="0"/>
      <psa03 value="0.2342241117" flag="0"/>
      <psa10 value="0.0217404120" flag="0"/>
      <psa30 value="0.0037075828" flag="0"/>
    </comp>
    <comp name="--.HHZ">
      <acc value="0.2161543136" flag="0"/>
      <vel value="0.0399017891" flag="0"/>
      <psa03 value="0.1775274408" flag="0"/>
      <psa10 value="0.0320692720" flag="0"/>
      <psa30 value="0.0032404340" flag="0"/>
    </comp>
  </station>
  <station code="SERI" name="SERI" netid="HA" insttype="30" lat="37.1609" lon="24.4853">
    <comp name="--.HHE">
      <acc value="0.0416623628" flag="0"/>
      <vel value="0.0097432209" flag="0"/>
      <psa03 value="0.0482470511" flag="0"/>
      <psa10 value="0.0059248168" flag="0"/>
      <psa30 value="0.0013562461" flag="0"/>
    </comp>
    <comp name="--.HHZ">
      <acc value="0.0350705698" flag="0"/>
      <vel value="0.0118718678" flag="0"/>
      <psa03 value="0.0374685518" flag="0"/>
      <psa10 value="0.0109293253" flag="0"/>
      <psa30 value="0.0021194831" flag="0"/>
    </comp>
    <comp name="--.HHN">
      <acc value="0.0512973833" flag="0"/>
      <vel value="0.0124869848" flag="0"/>
      <psa03 value="0.0587965837" flag="0"/>
      <psa10 value="0.0088647757" flag="0"/>
      <psa30 value="0.0013650772" flag="0"/>
    </comp>
  </station>
  <station code="SNT1" name="SNT1" netid="HA" insttype="30" lat="36.4159" lon="25.4282">
    <comp name="--.HHE">
      <acc value="0.2327510329" flag="0"/>
      <vel value="0.0841625732" flag="0"/>
      <psa03 value="0.2332757548" flag="0"/>
      <psa10 value="0.0908906343" flag="0"/>
      <psa30 value="0.0096401741" flag="0"/>
    </comp>
    <comp name="--.HHZ">
      <acc value="0.2447558820" flag="0"/>
      <vel value="0.0631791389" flag="0"/>
      <psa03 value="0.1882556057" flag="0"/>
      <psa10 value="0.0382698179" flag="0"/>
      <psa30 value="0.0044651070" flag="0"/>
    </comp>
    <comp name="--.HHN">
      <acc value="0.2498419623" flag="0"/>
      <vel value="0.0848962732" flag="0"/>
      <psa03 value="0.2979498255" flag="0"/>
      <psa10 value="0.0974522129" flag="0"/>
      <psa30 value="0.0092806417" flag="0"/>
    </comp>
  </station>
  <station code="NAX1" name="NAX1" netid="HI" insttype="CMG-5TD,ACCELEROMETER,GURALP" lat="37.1014" lon="25.3741">
    <comp name="--.HNE">
      <acc value="0.1584222719" flag="0"/>
      <vel value="0.0548711825" flag="0"/>
      <psa03 value="0.5060768824" flag="0"/>
      <psa10 value="0.0171550360" flag="0"/>
      <psa30 value="0.0023268358" flag="0"/>
    </comp>
    <comp name="--.HNN">
      <acc value="0.1563316573" flag="0"/>
      <vel value="0.0411202284" flag="0"/>
      <psa03 value="0.1429065628" flag="0"/>
      <psa10 value="0.0152819275" flag="0"/>
      <psa30 value="0.0027573842" flag="0"/>
    </comp>
    <comp name="--.HNZ">
      <acc value="0.0958117052" flag="0"/>
      <vel value="0.0290640256" flag="0"/>
      <psa03 value="0.1747368200" flag="0"/>
      <psa10 value="0.0170562720" flag="0"/>
      <psa30 value="0.0032749922" flag="0"/>
    </comp>
  </station>
  <station code="SFR2" name="SFR2" netid="HI" insttype="unknown" lat="36.3998" lon="25.4382">
    <comp name="--.HNZ">
      <acc value="0.6572034209" flag="0"/>
      <vel value="0.1479303950" flag="0"/>
      <psa03 value="0.6993870489" flag="0"/>
      <psa10 value="0.0884848059" flag="0"/>
      <psa30 value="0.0074349750" flag="0"/>
    </comp>
    <comp name="--.HNE">
      <acc value="0.6077001851" flag="0"/>
      <vel value="0.1908939898" flag="0"/>
      <psa03 value="0.6953959759" flag="0"/>
      <psa10 value="0.1301060689" flag="0"/>
      <psa30 value="0.0135800160" flag="0"/>
    </comp>
    <comp name="--.HNN">
      <acc value="0.8187494048" flag="0"/>
      <vel value="0.2177975876" flag="0"/>
      <psa03 value="0.6739752827" flag="0"/>
      <psa10 value="0.2238675270" flag="0"/>
      <psa30 value="0.0089676366" flag="0"/>
    </comp>
  </station>
  <station code="AMGA" name="AMGA" netid="HL" insttype="SMART24" lat="36.8316" lon="25.8938">
    <comp name="--.HHE">
      <acc value="0.3407695643" flag="0"/>
      <vel value="0.0745523793" flag="0"/>
      <psa03 value="0.3242764814" flag="0"/>
      <psa10 value="0.0389559055" flag="0"/>
      <psa30 value="0.0092865906" flag="0"/>
    </comp>
    <comp name="--.HHN">
      <acc value="0.4657508094" flag="0"/>
      <vel value="0.1053992734" flag="0"/>
      <psa03 value="0.4194259604" flag="0"/>
      <psa10 value="0.0331163952" flag="0"/>
      <psa30 value="0.0051445784" flag="0"/>
    </comp>
    <comp name="--.HHZ">
      <acc value="0.2841487299" flag="0"/>
      <vel value="0.0685102822" flag="0"/>
      <psa03 value="0.3784541442" flag="0"/>
      <psa10 value="0.0390611730" flag="0"/>
      <psa30 value="0.0040860999" flag="0"/>
    </comp>
  </station>
  <station code="APE" name="APE" netid="HL" insttype="120" lat="37.0727" lon="25.523">
    <comp name="--.HHN">
      <acc value="0.1551134708" flag="0"/>
      <vel value="0.0400931913" flag="0"/>
      <psa03 value="0.1542576964" flag="0"/>
      <psa10 value="0.0124434310" flag="0"/>
      <psa30 value="0.0035705890" flag="0"/>
    </comp>
    <comp name="--.HHE">
      <acc value="0.1211079376" flag="0"/>
      <vel value="0.0451866829" flag="0"/>
      <psa03 value="0.2627776246" flag="0"/>
      <psa10 value="0.0153999774" flag="0"/>
      <psa30 value="0.0030975402" flag="0"/>
    </comp>
    <comp name="--.HHZ">
      <acc value="0.0620425972" flag="0"/>
      <vel value="0.0151362562" flag="0"/>
      <psa03 value="0.0726500944" flag="0"/>
      <psa10 value="0.0066946774" flag="0"/>
      <psa30 value="0.0028942697" flag="0"/>
    </comp>
  </station>
  <station code="MHLO" name="MHLO" netid="HL" insttype="20" lat="36.6898" lon="24.4017">
    <comp name="--.HHE">
      <acc value="0.1127270732" flag="0"/>
      <vel value="0.0942509379" flag="0"/>
      <psa03 value="0.3130813208" flag="0"/>
      <psa10 value="0.1158564065" flag="0"/>
      <psa30 value="0.0056334134" flag="0"/>
    </comp>
    <comp name="--.HHZ">
      <acc value="0.0497612965" flag="0"/>
      <vel value="0.0383309082" flag="0"/>
      <psa03 value="0.1032894887" flag="0"/>
      <psa10 value="0.0506482977" flag="0"/>
      <psa30 value="0.0031111782" flag="0"/>
    </comp>
    <comp name="--.HHN">
      <acc value="0.1098455514" flag="0"/>
      <vel value="0.0893284860" flag="0"/>
      <psa03 value="0.2522612497" flag="0"/>
      <psa10 value="0.1693127713" flag="0"/>
      <psa30 value="0.0059914981" flag="0"/>
    </comp>
  </station>
  <station code="MILA" name="MILA" netid="HL" insttype="CMG-5" lat="36.7429" lon="24.4282">
    <comp name="00.HNE">
      <acc value="0.1809023735" flag="0"/>
      <vel value="0.0896543230" flag="0"/>
      <psa03 value="0.2878614719" flag="0"/>
      <psa10 value="0.0907970621" flag="0"/>
      <psa30 value="0.0061794270" flag="0"/>
    </comp>
    <comp name="00.HNZ">
      <acc value="0.1163719178" flag="0"/>
      <vel value="0.0692749120" flag="0"/>
      <psa03 value="0.2048213243" flag="0"/>
      <psa10 value="0.0873422715" flag="0"/>
      <psa30 value="0.0052831469" flag="0"/>
    </comp>
    <comp name="00.HNN">
      <acc value="0.2100671678" flag="0"/>
      <vel value="0.1491301556" flag="0"/>
      <psa03 value="0.3554338872" flag="0"/>
      <psa10 value="0.0857814999" flag="0"/>
      <psa30 value="0.0071368607" flag="0"/>
    </comp>
  </station>
  <station code="SANT" name="SANT" netid="HL" insttype="30" lat="36.3705" lon="25.4593">
    <comp name="--.HHE">
      <acc value="0.7767026461" flag="0"/>
      <vel value="0.1863648525" flag="0"/>
      <psa03 value="0.4532541682" flag="0"/>
      <psa10 value="0.0643313427" flag="0"/>
      <psa30 value="0.0059358405" flag="0"/>
    </comp>
    <comp name="--.HHN">
      <acc value="0.6050686125" flag="0"/>
      <vel value="0.0910944569" flag="0"/>
      <psa03 value="0.2653231606" flag="0"/>
      <psa10 value="0.0435172712" flag="0"/>
      <psa30 value="0.0056724672" flag="0"/>
    </comp>
    <comp name="--.HHZ">
      <acc value="0.6861983484" flag="0"/>
      <vel value="0.1090614232" flag="0"/>
      <psa03 value="0.3492907485" flag="0"/>
      <psa10 value="0.0349353205" flag="0"/>
      <psa30 value="0.0033191887" flag="0"/>
    </comp>
  </station>
  <station code="SAP3" name="SAP3" netid="HL" insttype="65535" lat="36.4356" lon="25.3454">
    <comp name="--.HHE">
      <acc value="0.4463860731" flag="0"/>
      <vel value="0.1464116209" flag="0"/>
      <psa03 value="0.5072346329" flag="0"/>
      <psa10 value="0.0900730821" flag="0"/>
      <psa30 value="0.0107707527" flag="0"/>
    </comp>
    <comp name="--.HHN">
      <acc value="0.3934915212" flag="0"/>
      <vel value="0.1394529441" flag="0"/>
      <psa03 value="0.7544924863" flag="0"/>
      <psa10 value="0.0685060195" flag="0"/>
      <psa30 value="0.0114839774" flag="0"/>
    </comp>
    <comp name="--.HHZ">
      <acc value="0.3379673451" flag="0"/>
      <vel value="0.0799789595" flag="0"/>
      <psa03 value="0.4507016464" flag="0"/>
      <psa10 value="0.0421849880" flag="0"/>
      <psa30 value="0.0044118187" flag="0"/>
    </comp>
  </station>
  <station code="THERA" name="THERA" netid="HL" insttype="120" lat="36.367" lon="25.4753">
    <comp name="--.HHE">
      <acc value="0.2673062928" flag="0"/>
      <vel value="0.1017408508" flag="0"/>
      <psa03 value="0.3902959420" flag="0"/>
      <psa10 value="0.0316634164" flag="0"/>
      <psa30 value="0.0064089989" flag="0"/>
    </comp>
    <comp name="--.HHN">
      <acc value="0.3699236852" flag="0"/>
      <vel value="0.0978776061" flag="0"/>
      <psa03 value="0.4550849651" flag="0"/>
      <psa10 value="0.0430342844" flag="0"/>
      <psa30 value="0.0074118118" flag="0"/>
    </comp>
    <comp name="--.HHZ">
      <acc value="0.2203322512" flag="0"/>
      <vel value="0.0389070500" flag="0"/>
      <psa03 value="0.1719914206" flag="0"/>
      <psa10 value="0.0318258495" flag="0"/>
      <psa30 value="0.0032423612" flag="0"/>
    </comp>
  </station>
  <station code="THRA" name="THRA" netid="HL" insttype="CMG-5" lat="36.415" lon="25.4324">
    <comp name="00.HNE">
      <acc value="1.0193402162" flag="0"/>
      <vel value="0.3938269420" flag="0"/>
      <psa03 value="2.1604178743" flag="0"/>
      <psa10 value="0.2285497801" flag="0"/>
      <psa30 value="0.0176054400" flag="0"/>
    </comp>
    <comp name="00.HNN">
      <acc value="0.8673555859" flag="0"/>
      <vel value="0.2769163182" flag="0"/>
      <psa03 value="0.9903532066" flag="0"/>
      <psa10 value="0.2914379052" flag="0"/>
      <psa30 value="0.0166344752" flag="0"/>
    </comp>
    <comp name="00.HNZ">
      <acc value="0.8956852602" flag="0"/>
      <vel value="0.2407230053" flag="0"/>
      <psa03 value="0.7204872871" flag="0"/>
      <psa10 value="0.1229654409" flag="0"/>
      <psa30 value="0.0091426281" flag="0"/>
    </comp>
  </station>
  <station code="AKRO" name="AKRO" netid="HT" insttype="Compact," lat="36.3584" lon="25.3967">
    <comp name="--.HHE">
      <acc value="1.1145338234" flag="0"/>
      <vel value="0.2278165709" flag="0"/>
      <psa03 value="0.9718684058" flag="0"/>
      <psa10 value="0.1188447853" flag="0"/>
      <psa30 value="0.0087303137" flag="0"/>
    </comp>
    <comp name="--.HHN">
      <acc value="0.6517215112" flag="0"/>
      <vel value="0.1995135034" flag="0"/>
      <psa03 value="0.7175600756" flag="0"/>
      <psa10 value="0.1181166272" flag="0"/>
      <psa30 value="0.0077224969" flag="0"/>
    </comp>
    <comp name="--.HHZ">
      <acc value="0.5745456970" flag="0"/>
      <vel value="0.1428201707" flag="0"/>
      <psa03 value="0.4978457385" flag="0"/>
      <psa10 value="0.0473178492" flag="0"/>
      <psa30 value="0.0046690048" flag="0"/>
    </comp>
  </station>
  <station code="CMBO" name="CMBO" netid="HT" insttype="120P," lat="36.4709" lon="25.4056">
    <comp name="--.HHE">
      <acc value="0.2982674513" flag="0"/>
      <vel value="0.1500819359" flag="0"/>
      <psa03 value="0.5069551031" flag="0"/>
      <psa10 value="0.1248638659" flag="0"/>
      <psa30 value="0.0102829824" flag="0"/>
    </comp>
    <comp name="--.HHN">
      <acc value="0.5063288705" flag="0"/>
      <vel value="0.3161206897" flag="0"/>
      <psa03 value="0.8186534724" flag="0"/>
      <psa10 value="0.2540403862" flag="0"/>
      <psa30 value="0.0139401922" flag="0"/>
    </comp>
    <comp name="--.HHZ">
      <acc value="0.3660064365" flag="0"/>
      <vel value="0.1019371309" flag="0"/>
      <psa03 value="0.9463863664" flag="0"/>
      <psa10 value="0.0648749593" flag="0"/>
      <psa30 value="0.0091683369" flag="0"/>
    </comp>
  </station>
</stationlist>
