<stationlist created="1775699742">
	<station code="SRN" name="SRN" netid="AC" source="Albanian Seismological Network (AC)" insttype="" lat="39.880001" lon="20.0005">
		<comp name="01.HNE" depth="0.0">
			<acc value="0.102343842075208" flag="0"/>
			<vel value="0.117758568354691" flag="0"/>
			<psa03 value="0.173378297961343" flag="0"/>
			<psa10 value="0.12840832642143" flag="0"/>
			<psa30 value="0.0390149578828176" flag="0"/>
		</comp>
		<comp name="01.HNN" depth="0.0">
			<acc value="0.109380568677095" flag="0"/>
			<vel value="0.119308359892467" flag="0"/>
			<psa03 value="0.245638168156444" flag="0"/>
			<psa10 value="0.108803242680849" flag="0"/>
			<psa30 value="0.0622806057844758" flag="0"/>
		</comp>
		<comp name="01.HNZ" depth="0.0">
			<acc value="0.112152981553601" flag="0"/>
			<vel value="0.14192269475394" flag="0"/>
			<psa03 value="0.230148787894353" flag="0"/>
			<psa10 value="0.237366814386517" flag="0"/>
			<psa30 value="0.0633390025647348" flag="0"/>
		</comp>
	</station>
</stationlist>
