<stationlist created="1775453127">
	<station code="SRN" name="SRN" netid="AC" source="Albanian Seismological Network (AC)" insttype="" lat="39.880001" lon="20.0005">
		<comp name="01.HNE" depth="0.0">
			<acc value="0.102343820358179" flag="0"/>
			<vel value="0.117779803791452" flag="0"/>
			<psa03 value="0.173378266709273" flag="0"/>
			<psa10 value="0.128408296419443" flag="0"/>
			<psa30 value="0.0390137878053057" flag="0"/>
		</comp>
		<comp name="01.HNN" depth="0.0">
			<acc value="0.109380605010684" flag="0"/>
			<vel value="0.119294152156672" flag="0"/>
			<psa03 value="0.245638105652303" flag="0"/>
			<psa10 value="0.108803302684824" flag="0"/>
			<psa30 value="0.062279579049793" flag="0"/>
		</comp>
		<comp name="01.HNZ" depth="0.0">
			<acc value="0.112153067653648" flag="0"/>
			<vel value="0.141934739161035" flag="0"/>
			<psa03 value="0.230148933737348" flag="0"/>
			<psa10 value="0.237366814386517" flag="0"/>
			<psa30 value="0.06333878255016" flag="0"/>
		</comp>
	</station>
</stationlist>
