<?xml version="1.0" encoding="UTF-8" standalone="yes"?>
<!DOCTYPE earthquake SYSTEM "stationlist.dtd">
<stationlist created="" xmlns="ch.ethz.sed.shakemap.usgs.xml">
  <station code="JAN2" name="JAN2" netid="HI" insttype="unknown" commtype="DIG" lat="39.664" lon="20.8522">
    <comp name="--.HNZ">
      <acc value="0.8204060643" flag="0"/>
      <vel value="0.3820891623" flag="0"/>
      <psa03 value="1.6366561417" flag="0"/>
      <psa10 value="0.3485421637" flag="0"/>
      <psa30 value="0.0224842239" flag="0"/>
    </comp>
    <comp name="--.HNE">
      <acc value="1.4269011803" flag="0"/>
      <vel value="0.8946194129" flag="0"/>
      <psa03 value="5.9610148752" flag="0"/>
      <psa10 value="0.5215997268" flag="0"/>
      <psa30 value="0.0720375402" flag="0"/>
    </comp>
    <comp name="--.HNN">
      <acc value="1.1412674560" flag="0"/>
      <vel value="0.5550281273" flag="0"/>
      <psa03 value="4.5811072424" flag="0"/>
      <psa10 value="0.5104158856" flag="0"/>
      <psa30 value="0.0420285473" flag="0"/>
    </comp>
  </station>
  <station code="JAN3" name="JAN3" netid="HI" insttype="unknown" commtype="DIG" lat="39.684" lon="20.8379">
    <comp name="--.HNE">
      <acc value="1.9960086536" flag="0"/>
      <vel value="0.5848339698" flag="0"/>
      <psa03 value="2.7722885879" flag="0"/>
      <psa10 value="0.4297908492" flag="0"/>
      <psa30 value="0.0290424860" flag="0"/>
    </comp>
    <comp name="--.HNN">
      <acc value="1.0330560670" flag="0"/>
      <vel value="0.5983817406" flag="0"/>
      <psa03 value="3.1843019120" flag="0"/>
      <psa10 value="0.3775972693" flag="0"/>
      <psa30 value="0.0460179494" flag="0"/>
    </comp>
    <comp name="--.HNZ">
      <acc value="1.3459290823" flag="0"/>
      <vel value="0.3727595171" flag="0"/>
      <psa03 value="1.5186116725" flag="0"/>
      <psa10 value="0.4948684678" flag="0"/>
      <psa30 value="0.0259179968" flag="0"/>
    </comp>
  </station>
  <station code="KNS1" name="KNS1" netid="HI" insttype="unknown" commtype="DIG" lat="40.048" lon="20.7524">
    <comp name="--.HNN">
      <acc value="0.1561429320" flag="0"/>
      <vel value="0.1103142206" flag="0"/>
      <psa03 value="0.3072915251" flag="0"/>
      <psa10 value="0.1253129927" flag="0"/>
      <psa30 value="0.0277303787" flag="0"/>
    </comp>
    <comp name="--.HNE">
      <acc value="0.1762073431" flag="0"/>
      <vel value="0.1391030622" flag="0"/>
      <psa03 value="0.3463160766" flag="0"/>
      <psa10 value="0.1304964165" flag="0"/>
      <psa30 value="0.0518432982" flag="0"/>
    </comp>
    <comp name="--.HNZ">
      <acc value="0.1114560316" flag="0"/>
      <vel value="0.0980350371" flag="0"/>
      <psa03 value="0.3211142383" flag="0"/>
      <psa10 value="0.0890231184" flag="0"/>
      <psa30 value="0.0422284112" flag="0"/>
    </comp>
  </station>
  <station code="KRK1" name="KRK1" netid="HI" insttype="CMG-5TD,ACCELEROMETER,GURALP" commtype="DIG" lat="39.6189" lon="19.9202">
    <comp name="--.HNE">
      <acc value="0.0548133066" flag="0"/>
      <vel value="0.0343637031" flag="0"/>
      <psa03 value="0.1324532300" flag="0"/>
      <psa10 value="0.0187118809" flag="0"/>
      <psa30 value="0.0077053945" flag="0"/>
    </comp>
    <comp name="--.HNN">
      <acc value="0.0523615546" flag="0"/>
      <vel value="0.0383656338" flag="0"/>
      <psa03 value="0.1024095721" flag="0"/>
      <psa10 value="0.0257987477" flag="0"/>
      <psa30 value="0.0065566430" flag="0"/>
    </comp>
    <comp name="--.HNZ">
      <acc value="0.0268111966" flag="0"/>
      <vel value="0.0186851777" flag="0"/>
      <psa03 value="0.0559287420" flag="0"/>
      <psa10 value="0.0091059762" flag="0"/>
      <psa30 value="0.0077229289" flag="0"/>
    </comp>
  </station>
  <station code="LEF2" name="LEF2" netid="HI" insttype="unknown" commtype="DIG" lat="38.8301" lon="20.7083">
    <comp name="--.HNE">
      <acc value="0.0541210473" flag="0"/>
      <vel value="0.0476053704" flag="0"/>
      <psa03 value="0.1260833707" flag="0"/>
      <psa10 value="0.0833610859" flag="0"/>
      <psa30 value="0.0065960440" flag="0"/>
    </comp>
    <comp name="--.HNN">
      <acc value="0.0389793115" flag="0"/>
      <vel value="0.0392624365" flag="0"/>
      <psa03 value="0.1006072357" flag="0"/>
      <psa10 value="0.0780379865" flag="0"/>
      <psa30 value="0.0063900073" flag="0"/>
    </comp>
    <comp name="--.HNZ">
      <acc value="0.0334382066" flag="0"/>
      <vel value="0.0306085040" flag="0"/>
      <psa03 value="0.0732984012" flag="0"/>
      <psa10 value="0.0388980180" flag="0"/>
      <psa30 value="0.0030910501" flag="0"/>
    </comp>
  </station>
  <station code="PRE2" name="PRE2" netid="HI" insttype="unknown" commtype="DIG" lat="38.9577" lon="20.7548">
    <comp name="--.HNE">
      <acc value="0.0648907692" flag="0"/>
      <vel value="0.0556756583" flag="0"/>
      <psa03 value="0.1764116266" flag="0"/>
      <psa10 value="0.1213215989" flag="0"/>
      <psa30 value="0.0102572528" flag="0"/>
    </comp>
    <comp name="--.HNN">
      <acc value="0.0550644362" flag="0"/>
      <vel value="0.0544475691" flag="0"/>
      <psa03 value="0.1492019917" flag="0"/>
      <psa10 value="0.0768911932" flag="0"/>
      <psa30 value="0.0081033889" flag="0"/>
    </comp>
    <comp name="--.HNZ">
      <acc value="0.0315154554" flag="0"/>
      <vel value="0.0162056366" flag="0"/>
      <psa03 value="0.0847669345" flag="0"/>
      <psa10 value="0.0362953932" flag="0"/>
      <psa30 value="0.0025116476" flag="0"/>
    </comp>
  </station>
  <station code="ARTB" name="ARTB" netid="HL" insttype="CMG-5" commtype="DIG" lat="39.157" lon="20.9785">
    <comp name="00.HNE">
      <acc value="0.0553674101" flag="0"/>
      <vel value="0.0246989834" flag="0"/>
      <psa03 value="0.1734603458" flag="0"/>
      <psa10 value="0.0191153592" flag="0"/>
      <psa30 value="0.0044246864" flag="0"/>
    </comp>
    <comp name="00.HNN">
      <acc value="0.0465728672" flag="0"/>
      <vel value="0.0197875865" flag="0"/>
      <psa03 value="0.1821703644" flag="0"/>
      <psa10 value="0.0210414565" flag="0"/>
      <psa30 value="0.0058937366" flag="0"/>
    </comp>
    <comp name="00.HNZ">
      <acc value="0.0402548783" flag="0"/>
      <vel value="0.0154513907" flag="0"/>
      <psa03 value="0.0816800301" flag="0"/>
      <psa10 value="0.0142756448" flag="0"/>
      <psa30 value="0.0048688365" flag="0"/>
    </comp>
  </station>
  <station code="EVR" name="EVR" netid="HL" insttype="DR24" commtype="DIG" lat="38.9166" lon="21.8105">
    <comp name="--.HHE">
      <acc value="0.0076001840" flag="0"/>
      <vel value="0.0065841067" flag="0"/>
      <psa03 value="0.0161562628" flag="0"/>
      <psa10 value="0.0175658455" flag="0"/>
      <psa30 value="0.0022320791" flag="0"/>
    </comp>
    <comp name="--.HHN">
      <acc value="0.0056663449" flag="0"/>
      <vel value="0.0075747925" flag="0"/>
      <psa03 value="0.0176631178" flag="0"/>
      <psa10 value="0.0130243378" flag="0"/>
      <psa30 value="0.0040684130" flag="0"/>
    </comp>
    <comp name="--.HHZ">
      <acc value="0.0056467342" flag="0"/>
      <vel value="0.0053958301" flag="0"/>
      <psa03 value="0.0141942734" flag="0"/>
      <psa10 value="0.0096387699" flag="0"/>
      <psa30 value="0.0020699716" flag="0"/>
    </comp>
  </station>
  <station code="JAN" name="JAN" netid="HL" insttype="CMG3EPSC60_DR24" commtype="DIG" lat="39.6562" lon="20.8487">
    <comp name="--.HHE">
      <acc value="1.4579541091" flag="0"/>
      <vel value="0.7446785515" flag="0"/>
      <psa03 value="4.0716645986" flag="0"/>
      <psa10 value="0.4073751530" flag="0"/>
      <psa30 value="0.0466338404" flag="0"/>
    </comp>
    <comp name="--.HHN">
      <acc value="0.8350583821" flag="0"/>
      <vel value="0.3756706421" flag="0"/>
      <psa03 value="3.1162537490" flag="0"/>
      <psa10 value="0.4225608347" flag="0"/>
      <psa30 value="0.0452920838" flag="0"/>
    </comp>
    <comp name="--.HHZ">
      <acc value="0.4276316612" flag="0"/>
      <vel value="0.2883629986" flag="0"/>
      <psa03 value="0.9915346733" flag="0"/>
      <psa10 value="0.4105191425" flag="0"/>
      <psa30 value="0.0192580336" flag="0"/>
    </comp>
  </station>
  <station code="KEK" name="KEK" netid="HL" insttype="120" commtype="DIG" lat="39.7127" lon="19.7962">
    <comp name="--.HHZ">
      <acc value="0.0113467075" flag="0"/>
      <vel value="0.0109112446" flag="0"/>
      <psa03 value="0.0226820922" flag="0"/>
      <psa10 value="0.0178928486" flag="0"/>
      <psa30 value="0.0029579558" flag="0"/>
    </comp>
    <comp name="--.HHE">
      <acc value="0.0162710967" flag="0"/>
      <vel value="0.0146973113" flag="0"/>
      <psa03 value="0.0378666778" flag="0"/>
      <psa10 value="0.0187868410" flag="0"/>
      <psa30 value="0.0037689450" flag="0"/>
    </comp>
    <comp name="--.HHN">
      <acc value="0.0131606039" flag="0"/>
      <vel value="0.0160639605" flag="0"/>
      <psa03 value="0.0404925046" flag="0"/>
      <psa10 value="0.0267791861" flag="0"/>
      <psa30 value="0.0068318677" flag="0"/>
    </comp>
  </station>
  <station code="KZN" name="KZN" netid="HL" insttype="120" commtype="DIG" lat="40.3033" lon="21.7821">
    <comp name="--.HHE">
      <acc value="0.0085793253" flag="0"/>
      <vel value="0.0082665255" flag="0"/>
      <psa03 value="0.0196012825" flag="0"/>
      <psa10 value="0.0072889806" flag="0"/>
      <psa30 value="0.0040698374" flag="0"/>
    </comp>
    <comp name="--.HHZ">
      <acc value="0.0034501205" flag="0"/>
      <vel value="0.0043766988" flag="0"/>
      <psa03 value="0.0102071094" flag="0"/>
      <psa10 value="0.0031825044" flag="0"/>
      <psa30 value="0.0029381297" flag="0"/>
    </comp>
    <comp name="--.HHN">
      <acc value="0.0069176582" flag="0"/>
      <vel value="0.0072249149" flag="0"/>
      <psa03 value="0.0158334178" flag="0"/>
      <psa10 value="0.0063913066" flag="0"/>
      <psa30 value="0.0055832531" flag="0"/>
    </comp>
  </station>
  <station code="PENT" name="PENT" netid="HL" insttype="Horizon,120s,1200" commtype="DIG" lat="40.1961" lon="21.1381">
    <comp name="--.HHZ">
      <acc value="0.0142996324" flag="0"/>
      <vel value="0.0113333496" flag="0"/>
      <psa03 value="0.0353273726" flag="0"/>
      <psa10 value="0.0165627272" flag="0"/>
      <psa30 value="0.0052156627" flag="0"/>
    </comp>
    <comp name="--.HHN">
      <acc value="0.0199892292" flag="0"/>
      <vel value="0.0129572682" flag="0"/>
      <psa03 value="0.0443126031" flag="0"/>
      <psa10 value="0.0213696733" flag="0"/>
      <psa30 value="0.0035697051" flag="0"/>
    </comp>
    <comp name="--.HHE">
      <acc value="0.0186217486" flag="0"/>
      <vel value="0.0179978914" flag="0"/>
      <psa03 value="0.0507712920" flag="0"/>
      <psa10 value="0.0172441385" flag="0"/>
      <psa30 value="0.0104406585" flag="0"/>
    </comp>
  </station>
  <station code="PRGA" name="PRGA" netid="HL" insttype="CMG-5" commtype="DIG" lat="39.2856" lon="20.4016">
    <comp name="00.HNN">
      <acc value="0.0495550601" flag="0"/>
      <vel value="0.0452383040" flag="0"/>
      <psa03 value="0.1249634055" flag="0"/>
      <psa10 value="0.0400540391" flag="0"/>
      <psa30 value="0.0164126414" flag="0"/>
    </comp>
    <comp name="00.HNE">
      <acc value="0.0540368669" flag="0"/>
      <vel value="0.0264289100" flag="0"/>
      <psa03 value="0.1885386116" flag="0"/>
      <psa10 value="0.0316579859" flag="0"/>
      <psa30 value="0.0058379839" flag="0"/>
    </comp>
    <comp name="00.HNZ">
      <acc value="0.0418717181" flag="0"/>
      <vel value="0.0133312751" flag="0"/>
      <psa03 value="0.0337457227" flag="0"/>
      <psa10 value="0.0123921727" flag="0"/>
      <psa30 value="0.0072807726" flag="0"/>
    </comp>
  </station>
  <station code="TETR" name="TETR" netid="HL" insttype="60" commtype="DIG" lat="39.3445" lon="21.2747">
    <comp name="--.HHZ">
      <acc value="0.0478398714" flag="0"/>
      <vel value="0.0312002916" flag="0"/>
      <psa03 value="0.1112998326" flag="0"/>
      <psa10 value="0.0336504021" flag="0"/>
      <psa30 value="0.0066136986" flag="0"/>
    </comp>
    <comp name="--.HHE">
      <acc value="0.1167236312" flag="0"/>
      <vel value="0.0532231870" flag="0"/>
      <psa03 value="0.3582909703" flag="0"/>
      <psa10 value="0.0493096585" flag="0"/>
      <psa30 value="0.0105179454" flag="0"/>
    </comp>
    <comp name="--.HHN">
      <acc value="0.1012652255" flag="0"/>
      <vel value="0.0451057088" flag="0"/>
      <psa03 value="0.2866998988" flag="0"/>
      <psa10 value="0.0326749968" flag="0"/>
      <psa30 value="0.0098704596" flag="0"/>
    </comp>
  </station>
  <station code="THL" name="THL" netid="HL" insttype="120" commtype="DIG" lat="39.5647" lon="22.0144">
    <comp name="--.HHE">
      <acc value="0.0045078511" flag="0"/>
      <vel value="0.0040943902" flag="0"/>
      <psa03 value="0.0152310638" flag="0"/>
      <psa10 value="0.0058043311" flag="0"/>
      <psa30 value="0.0025798997" flag="0"/>
    </comp>
    <comp name="--.HHN">
      <acc value="0.0033193935" flag="0"/>
      <vel value="0.0049168910" flag="0"/>
      <psa03 value="0.0107715316" flag="0"/>
      <psa10 value="0.0051076036" flag="0"/>
      <psa30 value="0.0039277034" flag="0"/>
    </comp>
    <comp name="--.HHZ">
      <acc value="0.0031397564" flag="0"/>
      <vel value="0.0029221653" flag="0"/>
      <psa03 value="0.0063692099" flag="0"/>
      <psa10 value="0.0041802528" flag="0"/>
      <psa30 value="0.0016300566" flag="0"/>
    </comp>
  </station>
  <station code="AMPL" name="AMPL" netid="HP" insttype="Compact," commtype="DIG" lat="38.9224" lon="21.2135">
    <comp name="--.HHN">
      <acc value="0.0125733639" flag="0"/>
      <vel value="0.0110646578" flag="0"/>
      <psa03 value="0.0333891778" flag="0"/>
      <psa10 value="0.0135038086" flag="0"/>
      <psa30 value="0.0020754002" flag="0"/>
    </comp>
    <comp name="--.HHE">
      <acc value="0.0131810024" flag="0"/>
      <vel value="0.0097279976" flag="0"/>
      <psa03 value="0.0460117687" flag="0"/>
      <psa10 value="0.0158328000" flag="0"/>
      <psa30 value="0.0027151098" flag="0"/>
    </comp>
    <comp name="--.HHZ">
      <acc value="0.0089953915" flag="0"/>
      <vel value="0.0073921795" flag="0"/>
      <psa03 value="0.0247287507" flag="0"/>
      <psa10 value="0.0134257851" flag="0"/>
      <psa30 value="0.0021311883" flag="0"/>
    </comp>
  </station>
  <station code="FSK" name="FSK" netid="HP" insttype="40," commtype="DIG" lat="38.4593" lon="20.5623">
    <comp name="--.HHE">
      <acc value="0.0096078362" flag="0"/>
      <vel value="0.0097463376" flag="0"/>
      <psa03 value="0.0339563192" flag="0"/>
      <psa10 value="0.0107717956" flag="0"/>
      <psa30 value="0.0037766269" flag="0"/>
    </comp>
    <comp name="--.HHN">
      <acc value="0.0056274873" flag="0"/>
      <vel value="0.0053135932" flag="0"/>
      <psa03 value="0.0130124770" flag="0"/>
      <psa10 value="0.0104197423" flag="0"/>
      <psa30 value="0.0018397755" flag="0"/>
    </comp>
    <comp name="--.HHZ">
      <acc value="0.0048222624" flag="0"/>
      <vel value="0.0055338190" flag="0"/>
      <psa03 value="0.0144920488" flag="0"/>
      <psa10 value="0.0052046891" flag="0"/>
      <psa30 value="0.0012058256" flag="0"/>
    </comp>
  </station>
  <station code="KSTR" name="KSTR" netid="HP" insttype="Compact," commtype="DIG" lat="39.2492" lon="20.576">
    <comp name="--.HHN">
      <acc value="0.0150038745" flag="0"/>
      <vel value="0.0155546866" flag="0"/>
      <psa03 value="0.0293250100" flag="0"/>
      <psa10 value="0.0179597511" flag="0"/>
      <psa30 value="0.0067962526" flag="0"/>
    </comp>
    <comp name="--.HHE">
      <acc value="0.0213455590" flag="0"/>
      <vel value="0.0151804488" flag="0"/>
      <psa03 value="0.0423523206" flag="0"/>
      <psa10 value="0.0191256305" flag="0"/>
      <psa30 value="0.0064219610" flag="0"/>
    </comp>
    <comp name="--.HHZ">
      <acc value="0.0180861496" flag="0"/>
      <vel value="0.0138026274" flag="0"/>
      <psa03 value="0.0389148489" flag="0"/>
      <psa10 value="0.0172431311" flag="0"/>
      <psa30 value="0.0029952878" flag="0"/>
    </comp>
  </station>
  <station code="PDO" name="PDO" netid="HP" insttype="120s" commtype="DIG" lat="38.5986" lon="21.1833">
    <comp name="--.HHZ">
      <acc value="0.0050504528" flag="0"/>
      <vel value="0.0038744162" flag="0"/>
      <psa03 value="0.0102800435" flag="0"/>
      <psa10 value="0.0067831325" flag="0"/>
      <psa30 value="0.0018640583" flag="0"/>
    </comp>
    <comp name="--.HHN">
      <acc value="0.0127714183" flag="0"/>
      <vel value="0.0106545779" flag="0"/>
      <psa03 value="0.0283295258" flag="0"/>
      <psa10 value="0.0102667340" flag="0"/>
      <psa30 value="0.0016518666" flag="0"/>
    </comp>
    <comp name="--.HHE">
      <acc value="0.0120199308" flag="0"/>
      <vel value="0.0104638187" flag="0"/>
      <psa03 value="0.0359934887" flag="0"/>
      <psa10 value="0.0205173886" flag="0"/>
      <psa30 value="0.0013539567" flag="0"/>
    </comp>
  </station>
  <station code="PRMD" name="PRMD" netid="HP" insttype="120P," commtype="DIG" lat="39.5299" lon="21.0965">
    <comp name="--.HHN">
      <acc value="0.1950946890" flag="0"/>
      <vel value="0.0877345920" flag="0"/>
      <psa03 value="0.5643363363" flag="0"/>
      <psa10 value="0.0995697966" flag="0"/>
      <psa30 value="0.0153237600" flag="0"/>
    </comp>
    <comp name="--.HHE">
      <acc value="0.1258064146" flag="0"/>
      <vel value="0.0749780381" flag="0"/>
      <psa03 value="0.4463827649" flag="0"/>
      <psa10 value="0.0866905585" flag="0"/>
      <psa30 value="0.0121186972" flag="0"/>
    </comp>
    <comp name="--.HHZ">
      <acc value="0.1379196562" flag="0"/>
      <vel value="0.0575866700" flag="0"/>
      <psa03 value="0.3032464574" flag="0"/>
      <psa10 value="0.0405140690" flag="0"/>
      <psa30 value="0.0076575332" flag="0"/>
    </comp>
  </station>
  <station code="PVO" name="PVO" netid="HP" insttype="120P," commtype="DIG" lat="38.616" lon="21.525">
    <comp name="--.HHN">
      <acc value="0.0077276677" flag="0"/>
      <vel value="0.0096404767" flag="0"/>
      <psa03 value="0.0150382060" flag="0"/>
      <psa10 value="0.0180495341" flag="0"/>
      <psa30 value="0.0022108614" flag="0"/>
    </comp>
    <comp name="--.HHE">
      <acc value="0.0072377604" flag="0"/>
      <vel value="0.0094519784" flag="0"/>
      <psa03 value="0.0160832192" flag="0"/>
      <psa10 value="0.0120682461" flag="0"/>
      <psa30 value="0.0027554608" flag="0"/>
    </comp>
    <comp name="--.HHZ">
      <acc value="0.0050485018" flag="0"/>
      <vel value="0.0065765935" flag="0"/>
      <psa03 value="0.0104669180" flag="0"/>
      <psa10 value="0.0090552911" flag="0"/>
      <psa30 value="0.0031875596" flag="0"/>
    </comp>
  </station>
  <station code="DRAG" name="DRAG" netid="HT" insttype="30" commtype="DIG" lat="38.6839" lon="20.5746">
    <comp name="--.HHE">
      <acc value="0.0361507875" flag="0"/>
      <vel value="0.0229208400" flag="0"/>
      <psa03 value="0.1265061582" flag="0"/>
      <psa10 value="0.0284290025" flag="0"/>
      <psa30 value="0.0016848166" flag="0"/>
    </comp>
    <comp name="--.HHN">
      <acc value="0.0261814964" flag="0"/>
      <vel value="0.0197828243" flag="0"/>
      <psa03 value="0.0691802946" flag="0"/>
      <psa10 value="0.0298472339" flag="0"/>
      <psa30 value="0.0026347459" flag="0"/>
    </comp>
    <comp name="--.HHZ">
      <acc value="0.0118979262" flag="0"/>
      <vel value="0.0066131021" flag="0"/>
      <psa03 value="0.0258892450" flag="0"/>
      <psa10 value="0.0079975585" flag="0"/>
      <psa30 value="0.0013850932" flag="0"/>
    </comp>
  </station>
  <station code="EVGI" name="EVGI" netid="HT" insttype="30" commtype="DIG" lat="38.621" lon="20.656">
    <comp name="--.HHN">
