<?xml version="1.0" encoding="UTF-8" standalone="yes"?>
<!DOCTYPE earthquake SYSTEM "stationlist.dtd">
<stationlist created="" xmlns="ch.ethz.sed.shakemap.usgs.xml">
  <station code="ZKR" name="ZKR" netid="GE" insttype="STS-2/N" lat="35.1147" lon="26.2169">
    <comp name="--.HHE">
      <acc value="0.0042417077" flag="0"/>
      <vel value="0.0034998317" flag="0"/>
      <psa03 value="0.0100866450" flag="0"/>
      <psa10 value="0.0061922788" flag="0"/>
      <psa30 value="0.0008521118" flag="0"/>
    </comp>
    <comp name="--.HHN">
      <acc value="0.0029022621" flag="0"/>
      <vel value="0.0018805661" flag="0"/>
      <psa03 value="0.0073531905" flag="0"/>
      <psa10 value="0.0030734778" flag="0"/>
      <psa30 value="0.0003584797" flag="0"/>
    </comp>
    <comp name="--.HHZ">
      <acc value="0.0029358194" flag="0"/>
      <vel value="0.0025888714" flag="0"/>
      <psa03 value="0.0095514332" flag="0"/>
      <psa10 value="0.0046418361" flag="0"/>
      <psa30 value="0.0005895707" flag="0"/>
    </comp>
  </station>
  <station code="STIA" name="STIA" netid="HC" insttype="120" lat="35.2021" lon="26.0909">
    <comp name="--.HHE">
      <acc value="0.0046497809" flag="0"/>
      <vel value="0.0046729379" flag="0"/>
      <psa03 value="0.0167356542" flag="0"/>
      <psa10 value="0.0071532930" flag="0"/>
      <psa30 value="0.0009001737" flag="0"/>
    </comp>
    <comp name="--.HHN">
      <acc value="0.0054782835" flag="0"/>
      <vel value="0.0046182508" flag="0"/>
      <psa03 value="0.0163223194" flag="0"/>
      <psa10 value="0.0086697083" flag="0"/>
      <psa30 value="0.0006638724" flag="0"/>
    </comp>
    <comp name="--.HHZ">
      <acc value="0.0043211047" flag="0"/>
      <vel value="0.0029200749" flag="0"/>
      <psa03 value="0.0143810166" flag="0"/>
      <psa10 value="0.0039401625" flag="0"/>
      <psa30 value="0.0005870604" flag="0"/>
    </comp>
  </station>
  <station code="IDI" name="IDI" netid="HL" insttype="120" lat="35.288" lon="24.89">
    <comp name="--.HHE">
      <acc value="0.0016353586" flag="0"/>
      <vel value="0.0016606806" flag="0"/>
      <psa03 value="0.0044950617" flag="0"/>
      <psa10 value="0.0027311338" flag="0"/>
      <psa30 value="0.0002730752" flag="0"/>
    </comp>
    <comp name="--.HHN">
      <acc value="0.0015442280" flag="0"/>
      <vel value="0.0014769464" flag="0"/>
      <psa03 value="0.0035726973" flag="0"/>
      <psa10 value="0.0018244982" flag="0"/>
      <psa30 value="0.0002261110" flag="0"/>
    </comp>
    <comp name="--.HHZ">
      <acc value="0.0010721826" flag="0"/>
      <vel value="0.0012664363" flag="0"/>
      <psa03 value="0.0033866637" flag="0"/>
      <psa10 value="0.0019279441" flag="0"/>
      <psa30 value="0.0003491105" flag="0"/>
    </comp>
  </station>
  <station code="NPS" name="NPS" netid="HL" insttype="CMG3ESPC-120s" lat="35.2613" lon="25.6104">
    <comp name="--.HHE">
      <acc value="0.0014232347" flag="0"/>
      <vel value="0.0012234354" flag="0"/>
      <psa03 value="0.0058994783" flag="0"/>
      <psa10 value="0.0024860869" flag="0"/>
      <psa30 value="0.0003074260" flag="0"/>
    </comp>
    <comp name="--.HHN">
      <acc value="0.0028760015" flag="0"/>
      <vel value="0.0024554363" flag="0"/>
      <psa03 value="0.0068417052" flag="0"/>
      <psa10 value="0.0041388843" flag="0"/>
      <psa30 value="0.0005328035" flag="0"/>
    </comp>
    <comp name="--.HHZ">
      <acc value="0.0020723080" flag="0"/>
      <vel value="0.0021923468" flag="0"/>
      <psa03 value="0.0045419577" flag="0"/>
      <psa10 value="0.0038682828" flag="0"/>
      <psa30 value="0.0005127443" flag="0"/>
    </comp>
  </station>
  <station code="ZKR" name="ZKR" netid="HL" insttype="120" lat="35.1147" lon="26.2169">
    <comp name="--.HHE">
      <acc value="0.0041617727" flag="0"/>
      <vel value="0.0034473096" flag="0"/>
      <psa03 value="0.0098389528" flag="0"/>
      <psa10 value="0.0061419167" flag="0"/>
      <psa30 value="0.0008526032" flag="0"/>
    </comp>
    <comp name="--.HHZ">
      <acc value="0.0028762277" flag="0"/>
      <vel value="0.0025607417" flag="0"/>
      <psa03 value="0.0092861033" flag="0"/>
      <psa10 value="0.0046159807" flag="0"/>
      <psa30 value="0.0005893553" flag="0"/>
    </comp>
    <comp name="--.HHN">
      <acc value="0.0028368127" flag="0"/>
      <vel value="0.0018601972" flag="0"/>
      <psa03 value="0.0071656676" flag="0"/>
      <psa10 value="0.0030558137" flag="0"/>
      <psa30 value="0.0003580256" flag="0"/>
    </comp>
  </station>
  <station code="IDI" name="IDI" netid="MN" insttype="" lat="35.288" lon="24.89">
    <comp name="--.HHE">
      <acc value="0.0016499009" flag="0"/>
      <vel value="0.0016502417" flag="0"/>
      <psa03 value="0.0045340690" flag="0"/>
      <psa10 value="0.0027105181" flag="0"/>
      <psa30 value="0.0002700435" flag="0"/>
    </comp>
    <comp name="--.HHN">
      <acc value="0.0015534888" flag="0"/>
      <vel value="0.0014722719" flag="0"/>
      <psa03 value="0.0035943931" flag="0"/>
      <psa10 value="0.0018097277" flag="0"/>
      <psa30 value="0.0002236694" flag="0"/>
    </comp>
    <comp name="--.HHZ">
      <acc value="0.0010669352" flag="0"/>
      <vel value="0.0012588756" flag="0"/>
      <psa03 value="0.0034342038" flag="0"/>
      <psa10 value="0.0019153143" flag="0"/>
      <psa30 value="0.0003453042" flag="0"/>
    </comp>
  </station>
</stationlist>
