<stationlist created="1778069458">
	<station code="KARP" name="KARP" netid="GE" source="GEOFON" insttype="" lat="35.5471" lon="27.16106">
		<comp name="--.HNE" depth="0.0">
			<acc value="0.00129885710423185" flag="0"/>
			<vel value="0.00143851898389305" flag="0"/>
			<psa03 value="0.00322143887651557" flag="0"/>
			<psa10 value="0.00200937249922658" flag="0"/>
			<psa30 value="0.000345857257159241" flag="0"/>
		</comp>
		<comp name="--.HNN" depth="0.0">
			<acc value="0.00117541422114878" flag="0"/>
			<vel value="0.00138436800759724" flag="0"/>
			<psa03 value="0.0020581415044405" flag="0"/>
			<psa10 value="0.00219057843603058" flag="0"/>
			<psa30 value="0.000495743649330451" flag="0"/>
		</comp>
		<comp name="--.HNZ" depth="0.0">
			<acc value="0.00115891394731106" flag="0"/>
			<vel value="0.00128543072116579" flag="0"/>
			<psa03 value="0.00272927460371458" flag="0"/>
			<psa10 value="0.00126441475903236" flag="0"/>
			<psa30 value="0.000329750062776663" flag="0"/>
		</comp>
	</station>
	<station code="SIT2" name="SIT2" netid="HI" source="ITSAK Strong Motion Network" insttype="" lat="35.2059" lon="26.107">
		<comp name="--.HNE" depth="0.0">
			<acc value="0.0167395596374762" flag="0"/>
			<vel value="0.0164801032330546" flag="0"/>
			<psa03 value="0.0452343708910727" flag="0"/>
			<psa10 value="0.01408976828616" flag="0"/>
			<psa30 value="0.00121833028621554" flag="0"/>
		</comp>
		<comp name="--.HNN" depth="0.0">
			<acc value="0.0218417347565098" flag="0"/>
			<vel value="0.0158643206859274" flag="0"/>
			<psa03 value="0.0561514693059311" flag="0"/>
			<psa10 value="0.0132320601852877" flag="0"/>
			<psa30 value="0.000821019491445287" flag="0"/>
		</comp>
		<comp name="--.HNZ" depth="0.0">
			<acc value="0.00628614004131244" flag="0"/>
			<vel value="0.00414526250264512" flag="0"/>
			<psa03 value="0.0202234773914588" flag="0"/>
			<psa10 value="0.0032697604596633" flag="0"/>
			<psa30 value="0.000758827824245889" flag="0"/>
		</comp>
	</station>
</stationlist>
