<stationlist created="1778637323">
	<station code="KALB" name="KALB" netid="BS" source="National Seismic Network of Bulgaria (BS)" insttype="" lat="43.4059" lon="28.4162">
		<comp name="--.HNE" depth="0.0">
			<acc value="0.00015337425490305" flag="0"/>
			<vel value="9.53878991526102e-05" flag="0"/>
			<psa03 value="0.000165394460803018" flag="0"/>
			<psa10 value="8.99798938319e-05" flag="0"/>
			<psa30 value="6.0518833294381e-05" flag="0"/>
		</comp>
		<comp name="--.HNN" depth="0.0">
			<acc value="0.000161771835983011" flag="0"/>
			<vel value="9.64042727767628e-05" flag="0"/>
			<psa03 value="0.000184515722609949" flag="0"/>
			<psa10 value="0.000109813031410284" flag="0"/>
			<psa30 value="5.53149664284757e-05" flag="0"/>
		</comp>
		<comp name="--.HNZ" depth="0.0">
			<acc value="0.000154138544000059" flag="0"/>
			<vel value="9.69344058503432e-05" flag="0"/>
			<psa03 value="0.000185050466693154" flag="0"/>
			<psa10 value="0.000105407690750005" flag="0"/>
			<psa30 value="6.14889887084648e-05" flag="0"/>
		</comp>
	</station>
	<station code="MYT1" name="MYT1" netid="HI" source="ITSAK Strong Motion Network" insttype="" lat="39.085" lon="26.5694">
		<comp name="--.HNE" depth="0.0">
			<acc value="0.0748822358774127" flag="0"/>
			<vel value="0.105891335143398" flag="0"/>
			<psa03 value="0.221698269755682" flag="0"/>
			<psa10 value="0.11063447399106" flag="0"/>
			<psa30 value="0.0286031381508727" flag="0"/>
		</comp>
		<comp name="--.HNN" depth="0.0">
			<acc value="0.0988265412287576" flag="0"/>
			<vel value="0.0811119000821359" flag="0"/>
			<psa03 value="0.192502148155974" flag="0"/>
			<psa10 value="0.0917335894000137" flag="0"/>
			<psa30 value="0.0239401475839612" flag="0"/>
		</comp>
		<comp name="--.HNZ" depth="0.0">
			<acc value="0.0448207875395854" flag="0"/>
			<vel value="0.0505460626309008" flag="0"/>
			<psa03 value="0.150853909997763" flag="0"/>
			<psa10 value="0.0557035425863149" flag="0"/>
			<psa30 value="0.00961596784403218" flag="0"/>
		</comp>
	</station>
	<station code="KOMA" name="KOMA" netid="HL" source="National Observatory of Athens Seismic Network" insttype="" lat="41.11278" lon="25.39647">
		<comp name="00.HNE" depth="0.0">
			<acc value="0.0579452609020595" flag="0"/>
			<vel value="0.0430351269680479" flag="0"/>
			<psa03 value="0.18260657595597" flag="0"/>
			<psa10 value="0.0628390765302699" flag="0"/>
			<psa30 value="0.00875905107749479" flag="0"/>
		</comp>
		<comp name="00.HNN" depth="0.0">
			<acc value="0.0369603049846791" flag="0"/>
			<vel value="0.0439101384559794" flag="0"/>
			<psa03 value="0.162490868389189" flag="0"/>
			<psa10 value="0.0713807061216002" flag="0"/>
			<psa30 value="0.00949968680764277" flag="0"/>
		</comp>
		<comp name="00.HNZ" depth="0.0">
			<acc value="0.0604928527941585" flag="0"/>
			<vel value="0.0153577550439069" flag="0"/>
			<psa03 value="0.0733528592669513" flag="0"/>
			<psa10 value="0.0270778043966599" flag="0"/>
			<psa30 value="0.0061681936125552" flag="0"/>
		</comp>
	</station>
	<station code="PRK" name="PRK" netid="HL" source="National Observatory of Athens Seismic Network" insttype="" lat="39.24565" lon="26.26499">
		<comp name="--.HNE" depth="0.0">
			<acc value="0.086542670221214" flag="0"/>
			<vel value="0.065869059499393" flag="0"/>
			<psa03 value="0.235943505099467" flag="0"/>
			<psa10 value="0.11077086302619" flag="0"/>
			<psa30 value="0.00607738468025059" flag="0"/>
		</comp>
		<comp name="--.HNN" depth="0.0">
			<acc value="0.0918282284665543" flag="0"/>
			<vel value="0.0631875723187479" flag="0"/>
			<psa03 value="0.265014743426098" flag="0"/>
			<psa10 value="0.105410550431765" flag="0"/>
			<psa30 value="0.0134483075510298" flag="0"/>
		</comp>
		<comp name="--.HNZ" depth="0.0">
			<acc value="0.049555767533687" flag="0"/>
			<vel value="0.0449447968544657" flag="0"/>
			<psa03 value="0.124616640657601" flag="0"/>
			<psa10 value="0.0424875208398372" flag="0"/>
			<psa30 value="0.0044187810558919" flag="0"/>
		</comp>
	</station>
	<station code="LES3" name="LES3" netid="HT" source="Aristotle University of Thessaloniki Seismological Network" insttype="" lat="39.303248" lon="26.180664">
		<comp name="--.HNE" depth="0.0">
			<acc value="0.102133845365494" flag="0"/>
			<vel value="0.0538262537803328" flag="0"/>
			<psa03 value="0.315294074184876" flag="0"/>
			<psa10 value="0.0514069992115523" flag="0"/>
			<psa30 value="0.00957326334837403" flag="0"/>
		</comp>
		<comp name="--.HNN" depth="0.0">
			<acc value="0.0962841897134391" flag="0"/>
			<vel value="0.0578632861565497" flag="0"/>
			<psa03 value="0.231141166134325" flag="0"/>
			<psa10 value="0.104879515253152" flag="0"/>
			<psa30 value="0.0124565726868047" flag="0"/>
		</comp>
		<comp name="--.HNZ" depth="0.0">
			<acc value="0.0635875832056799" flag="0"/>
			<vel value="0.0385684683306314" flag="0"/>
			<psa03 value="0.205136922647743" flag="0"/>
			<psa10 value="0.0538379102472133" flag="0"/>
			<psa30 value="0.014050312430895" flag="0"/>
		</comp>
	</station>
	<station code="AKS" name="AKS" netid="KO" source="Bogazici University Kandilli Observatory And Earthquake Research Institute (KOERI)" insttype="" lat="38.8785" lon="27.8129">
		<comp name="--.HNE" depth="0.0">
			<acc value="0.0537353008645051" flag="0"/>
			<vel value="0.0426385306148584" flag="0"/>
			<psa03 value="0.143078905358606" flag="0"/>
			<psa10 value="0.0533522680758931" flag="0"/>
			<psa30 value="0.00438884740626789" flag="0"/>
		</comp>
		<comp name="--.HNN" depth="0.0">
			<acc value="0.0646149943890248" flag="0"/>
			<vel value="0.0406582200362769" flag="0"/>
			<psa03 value="0.203118893129739" flag="0"/>
			<psa10 value="0.0538116285061887" flag="0"/>
			<psa30 value="0.0103905524897963" flag="0"/>
		</comp>
		<comp name="--.HNZ" depth="0.0">
			<acc value="0.0277898007311063" flag="0"/>
			<vel value="0.0216285272807145" flag="0"/>
			<psa03 value="0.083525830051381" flag="0"/>
			<psa10 value="0.0202463443459373" flag="0"/>
			<psa30 value="0.00584075733818459" flag="0"/>
		</comp>
	</station>
	<station code="ALT" name="ALT" netid="KO" source="Bogazici University Kandilli Observatory And Earthquake Research Institute (KOERI)" insttype="" lat="39.0541" lon="30.1104">
		<comp name="--.HNE" depth="0.0">
			<acc value="0.0509432610622076" flag="0"/>
			<vel value="0.0313365090422733" flag="0"/>
			<psa03 value="0.0757744415600492" flag="0"/>
			<psa10 value="0.0564000649774421" flag="0"/>
			<psa30 value="0.00705619243813285" flag="0"/>
		</comp>
		<comp name="--.HNN" depth="0.0">
			<acc value="0.0361358009939449" flag="0"/>
			<vel value="0.0249547468750605" flag="0"/>
			<psa03 value="0.112545580592478" flag="0"/>
			<psa10 value="0.0245872906623241" flag="0"/>
			<psa30 value="0.00598069494170277" flag="0"/>
		</comp>
		<comp name="--.HNZ" depth="0.0">
			<acc value="0.0253371134401251" flag="0"/>
			<vel value="0.0179148669199447" flag="0"/>
			<psa03 value="0.0505070906385297" flag="0"/>
			<psa10 value="0.0208376741436386" flag="0"/>
			<psa30 value="0.0033187031811297" flag="0"/>
		</comp>
	</station>
	<station code="AVCI" name="AVCI" netid="KO" source="Bogazici University Kandilli Observatory And Earthquake Research Institute (KOERI)" insttype="" lat="40.9958" lon="28.7225">
		<comp name="--.HNE" depth="0.0">
			<acc value="0.19722619505865" flag="0"/>
			<vel value="0.208069245461836" flag="0"/>
			<psa03 value="0.287779688992001" flag="0"/>
			<psa10 value="0.321261071969366" flag="0"/>
			<psa30 value="0.0648470491321144" flag="0"/>
		</comp>
		<comp name="--.HNN" depth="0.0">
			<acc value="0.152147438969226" flag="0"/>
			<vel value="0.138873164049702" flag="0"/>
			<psa03 value="0.247559295421853" flag="0"/>
			<psa10 value="0.246499314369839" flag="0"/>
			<psa30 value="0.0683203458874004" flag="0"/>
		</comp>
		<comp name="--.HNZ" depth="0.0">
			<acc value="0.127498518295007" flag="0"/>
			<vel value="0.0909705278007069" flag="0"/>
			<psa03 value="0.311541117236686" flag="0"/>
			<psa10 value="0.133843501475186" flag="0"/>
			<psa30 value="0.0188556824297562" flag="0"/>
		</comp>
	</station>
	<station code="BALB" name="BALB" netid="KO" source="Bogazici University Kandilli Observatory And Earthquake Research Institute (KOERI)" insttype="" lat="39.6507" lon="27.8642">
		<comp name="--.HNE" depth="0.0">
			<acc value="0.653041982229348" flag="0"/>
			<vel value="0.303078481770586" flag="0"/>
			<psa03 value="0.873725713375188" flag="0"/>
			<psa10 value="0.232123187021874" flag="0"/>
			<psa30 value="0.0211004944708757" flag="0"/>
		</comp>
		<comp name="--.HNN" depth="0.0">
			<acc value="0.359990686111499" flag="0"/>
			<vel value="0.168962863560802" flag="0"/>
			<psa03 value="1.1299756886751" flag="0"/>
			<psa10 value="0.158036234124903" flag="0"/>
			<psa30 value="0.017276971181196" flag="0"/>
		</comp>
		<comp name="--.HNZ" depth="0.0">
			<acc value="0.231568913703389" flag="0"/>
			<vel value="0.0962993516151315" flag="0"/>
			<psa03 value="0.513917877869736" flag="0"/>
			<psa10 value="0.0748062730486152" flag="0"/>
			<psa30 value="0.0153897894980443" flag="0"/>
		</comp>
	</station>
	<station code="BASM" name="BASM" netid="KO" source="Bogazici University Kandilli Observatory And Earthquake Research Institute (KOERI)" insttype="" lat="37.9194" lon="30.035">
		<comp name="--.HNE" depth="0.0">
			<acc value="0.0198794052433328" flag="0"/>
			<vel value="0.0306159713140564" flag="0"/>
			<psa03 value="0.0421595064020642" flag="0"/>
			<psa10 value="0.0447021100454359" flag="0"/>
			<psa30 value="0.00842333217106939" flag="0"/>
		</comp>
		<comp name="--.HNN" depth="0.0">
			<acc value="0.0205113751378596" flag="0"/>
			<vel value="0.0389324513895185" flag="0"/>
			<psa03 value="0.0366234573743226" flag="0"/>
			<psa10 value="0.0654758424530356" flag="0"/>
			<psa30 value="0.00869944712901365" flag="0"/>
		</comp>
		<comp name="--.HNZ" depth="0.0">
			<acc value="0.011240624310406" flag="0"/>
			<vel value="0.0159483779618131" flag="0"/>
			<psa03 value="0.0222375512536154" flag="0"/>
			<psa10 value="0.0264786009523497" flag="0"/>
			<psa30 value="0.00466874636486121" flag="0"/>
		</comp>
	</station>
	<station code="BIGA" name="BIGA" netid="KO" source="Bogazici University Kandilli Observatory And Earthquake Research Institute (KOERI)" insttype="" lat="40.28134" lon="27.15048">
		<comp name="--.HNE" depth="0.0">
			<acc value="0.594739219881663" flag="0"/>
			<vel value="0.183244173793612" flag="0"/>
			<psa03 value="1.04221654173104" flag="0"/>
			<psa10 value="0.0645632569987559" flag="0"/>
			<psa30 value="0.00748391577269548" flag="0"/>
		</comp>
		<comp name="--.HNN" depth="0.0">
			<acc value="0.598391394319386" flag="0"/>
			<vel value="0.231577778001682" flag="0"/>
			<psa03 value="1.31339675608916" flag="0"/>
			<psa10 value="0.11251357347203" flag="0"/>
			<psa30 value="0.0163253381402151" flag="0"/>
		</comp>
		<comp name="--.HNZ" depth="0.0">
			<acc value="0.218413366001398" flag="0"/>
			<vel value="0.0669766368601071" flag="0"/>
			<psa03 value="0.398605405651696" flag="0"/>
			<psa10 value="0.0377166910456711" flag="0"/>
			<psa30 value="0.00473363816364908" flag="0"/>
		</comp>
	</station>
	<station code="BMYO" name="BMYO" netid="KO" source="Bogazici University Kandilli Observatory And Earthquake Research Institute (KOERI)" insttype="" lat="39.8098" lon="26.6009">
		<comp name="--.HNE" depth="0.0">
			<acc value="0.211482986214782" flag="0"/>
			<vel value="0.106388452708986" flag="0"/>
			<psa03 value="0.606035605215813" flag="0"/>
			<psa10 value="0.104357195652051" flag="0"/>
			<psa30 value="0.0172335199694736" flag="0"/>
		</comp>
		<comp name="--.HNN" depth="0.0">
			<acc value="0.231828095002536" flag="0"/>
			<vel value="0.166347917387559" flag="0"/>
			<psa03 value="0.948588506001874" flag="0"/>
			<psa10 value="0.156651627401657" flag="0"/>
			<psa30 value="0.0206270181053961" flag="0"/>
		</comp>
		<comp name="--.HNZ" depth="0.0">
			<acc value="0.067217651891537" flag="0"/>
			<vel value="0.0504742189163998" flag="0"/>
			<psa03 value="0.285628004787058" flag="0"/>
			<psa10 value="0.0656828786683531" flag="0"/>
			<psa30 value="0.00980374778350034" flag="0"/>
		</comp>
	</station>
	<station code="BOTS" name="BOTS" netid="KO" source="Bogazici University Kandilli Observatory And Earthquake Research Institute (KOERI)" insttype="" lat="40.9902" lon="27.981">
		<comp name="--.HNE" depth="0.0">
			<acc value="0.306160260126912" flag="0"/>
			<vel value="0.189970258675923" flag="0"/>
			<psa03 value="0.523577351097251" flag="0"/>
			<psa10 value="0.217464140932047" flag="0"/>
			<psa30 value="0.0151951716055279" flag="0"/>
		</comp>
		<comp name="--.HNN" depth="0.0">
			<acc value="0.289308626521512" flag="0"/>
			<vel value="0.178964574478727" flag="0"/>
			<psa03 value="0.575318695372889" flag="0"/>
			<psa10 value="0.199824847415437" flag="0"/>
			<psa30 value="0.0166156623727452" flag="0"/>
		</comp>
		<comp name="--.HNZ" depth="0.0">
			<acc value="0.0926044727223248" flag="0"/>
			<vel value="0.037127544787826" flag="0"/>
			<psa03 value="0.202476329729817" flag="0"/>
			<psa10 value="0.0316716130889191" flag="0"/>
			<psa30 value="0.00544548156975258" flag="0"/>
		</comp>
	</station>
	<station code="BRGA" name="BRGA" netid="KO" source="Bogazici University Kandilli Observatory And Earthquake Research Institute (KOERI)" insttype="" lat="40.8846" lon="29.065">
		<comp name="--.HNE" depth="0.0">
			<acc value="0.145325045510855" flag="0"/>
			<vel value="0.0894058381683603" flag="0"/>
			<psa03 value="0.41440070201261" flag="0"/>
			<psa10 value="0.124720129596674" flag="0"/>
			<psa30 value="0.00902830058060924" flag="0"/>
		</comp>
		<comp name="--.HNN" depth="0.0">
			<acc value="0.202922647617666" flag="0"/>
			<vel value="0.115763549346953" flag="0"/>
			<psa03 value="0.335933774797146" flag="0"/>
			<psa10 value="0.198143776052737" flag="0"/>
			<psa30 value="0.0119918744028045" flag="0"/>
		</comp>
		<comp name="--.HNZ" depth="0.0">
			<acc value="0.216095101513754" flag="0"/>
			<vel value="0.0697998163069395" flag="0"/>
			<psa03 value="0.217071838277384" flag="0"/>
			<psa10 value="0.0652563029096908" flag="0"/>
			<psa30 value="0.0172848200345151" flag="0"/>
		</comp>
	</station>
	<station code="BUYK" name="BUYK" netid="KO" source="Bogazici University Kandilli Observatory And Earthquake Research Institute (KOERI)" insttype="" lat="41.0168" lon="28.5828">
		<comp name="--.HNE" depth="0.0">
			<acc value="0.216561713658028" flag="0"/>
			<vel value="0.299296444457734" flag="0"/>
			<psa03 value="0.47819292793675" flag="0"/>
			<psa10 value="0.481241329878121" flag="0"/>
			<psa30 value="0.0420301309565884" flag="0"/>
		</comp>
		<comp name="--.HNN" depth="0.0">
			<acc value="0.208145114927097" flag="0"/>
			<vel value="0.191551493292264" flag="0"/>
			<psa03 value="0.410952806939994" flag="0"/>
			<psa10 value="0.361768825409358" flag="0"/>
			<psa30 value="0.0371649053259222" flag="0"/>
		</comp>
		<comp name="--.HNZ" depth="0.0">
			<acc value="0.15977790049822" flag="0"/>
			<vel value="0.107696999367573" flag="0"/>
			<psa03 value="0.262564976974558" flag="0"/>
			<psa10 value="0.214111913863562" flag="0"/>
			<psa30 value="0.0138962313904559" flag="0"/>
		</comp>
	</station>
	<station code="CANM" name="CANM" netid="KO" source="Bogazici University Kandilli Observatory And Earthquake Research Institute (KOERI)" insttype="" lat="40.0113" lon="27.0529">
		<comp name="--.HNE" depth="0.0">
			<acc value="0.567324685727747" flag="0"/>
			<vel value="0.251927976535492" flag="0"/>
			<psa03 value="1.50330758674879" flag="0"/>
			<psa10 value="0.06938906918525" flag="0"/>
			<psa30 value="0.0145028690772287" flag="0"/>
		</comp>
		<comp name="--.HNN" depth="0.0">
			<acc value="0.565878545601166" flag="0"/>
			<vel value="0.229921097731729" flag="0"/>
			<psa03 value="1.69907472202735" flag="0"/>
			<psa10 value="0.110570329741883" flag="0"/>
			<psa30 value="0.0206852769647587" flag="0"/>
		</comp>
		<comp name="--.HNZ" depth="0.0">
			<acc value="0.483232347822726" flag="0"/>
			<vel value="0.183607366513539" flag="0"/>
			<psa03 value="1.69499245159651" flag="0"/>
			<psa10 value="0.0480682467852507" flag="0"/>
			<psa30 value="0.0075439047466563" flag="0"/>
		</comp>
	</station>
	<station code="CESE" name="CESE" netid="KO" source="Bogazici University Kandilli Observatory And Earthquake Research Institute (KOERI)" insttype="" lat="38.3306" lon="26.2997">
		<comp name="--.HNE" depth="0.0">
			<acc value="0.011994623874781" flag="0"/>
			<vel value="0.0142387233514802" flag="0"/>
			<psa03 value="0.0291519233593521" flag="0"/>
			<psa10 value="0.0186006884543248" flag="0"/>
			<psa30 value="0.00676956636723226" flag="0"/>
		</comp>
		<comp name="--.HNN" depth="0.0">
			<acc value="0.0174463566405038" flag="0"/>
			<vel value="0.0121057912082631" flag="0"/>
			<psa03 value="0.0408672306909705" flag="0"/>
			<psa10 value="0.0170822222383716" flag="0"/>
			<psa30 value="0.00211781258635662" flag="0"/>
		</comp>
		<comp name="--.HNZ" depth="0.0">
			<acc value="0.00830815143478658" flag="0"/>
			<vel value="0.0178854961421164" flag="0"/>
			<psa03 value="0.0232460217056875" flag="0"/>
			<psa10 value="0.0104763330681587" flag="0"/>
			<psa30 value="0.0108291998813502" flag="0"/>
		</comp>
	</station>
	<station code="CRLU" name="CRLU" netid="KO" source="Bogazici University Kandilli Observatory And Earthquake Research Institute (KOERI)" insttype="" lat="41.1428" lon="27.8215">
		<comp name="--.HNE" depth="0.0">
			<acc value="1.68621807834263" flag="0"/>
			<vel value="1.93582459171812" flag="0"/>
			<psa03 value="9.02487118675718" flag="0"/>
			<psa10 value="1.67277509314096" flag="0"/>
			<psa30 value="0.258417732239682" flag="0"/>
		</comp>
		<comp name="--.HNN" depth="0.0">
			<acc value="2.13664011467015" flag="0"/>
			<vel value="1.63873677909084" flag="0"/>
			<psa03 value="6.96705086626028" flag="0"/>
			<psa10 value="3.32230680652085" flag="0"/>
			<psa30 value="0.384284123603911" flag="0"/>
		</comp>
		<comp name="--.HNZ" depth="0.0">
			<acc value="1.08682987347342" flag="0"/>
			<vel value="0.355584536087539" flag="0"/>
			<psa03 value="2.14583431765836" flag="0"/>
			<psa10 value="0.588427780451622" flag="0"/>
			<psa30 value="0.151880261321797" flag="0"/>
		</comp>
	</station>
	<station code="CTYL" name="CTYL" netid="KO" source="Bogazici University Kandilli Observatory And Earthquake Research Institute (KOERI)" insttype="" lat="41.476" lon="28.2897">
		<comp name="--.HNE" depth="0.0">
			<acc value="0.23991889860169" flag="0"/>
			<vel value="0.202061875682372" flag="0"/>
			<psa03 value="0.455891575580106" flag="0"/>
			<psa10 value="0.212664152956487" flag="0"/>
			<psa30 value="0.0216071380334974" flag="0"/>
		</comp>
		<comp name="--.HNN" depth="0.0">
			<acc value="0.275805824353396" flag="0"/>
			<vel value="0.113073262201488" flag="0"/>
			<psa03 value="0.271209070436668" flag="0"/>
			<psa10 value="0.137159501143666" flag="0"/>
			<psa30 value="0.0137541328104825" flag="0"/>
		</comp>
		<comp name="--.HNZ" depth="0.0">
			<acc value="0.176068791552983" flag="0"/>
			<vel value="0.118113655436724" flag="0"/>
			<psa03 value="0.324484182984647" flag="0"/>
			<psa10 value="0.109405532579768" flag="0"/>
			<psa30 value="0.00832653325862918" flag="0"/>
		</comp>
	</station>
	<station code="DOGC" name="DOGC" netid="KO" source="Bogazici University Kandilli Observatory And Earthquake Research Institute (KOERI)" insttype="" lat="41.3949" lon="26.9852">
		<comp name="--.HNE" depth="0.0">
			<acc value="0.123817169722887" flag="0"/>
			<vel value="0.0703737648729145" flag="0"/>
			<psa03 value="0.392695264134184" flag="0"/>
			<psa10 value="0.0995241679877017" flag="0"/>
			<psa30 value="0.0111278104961821" flag="0"/>
		</comp>
		<comp name="--.HNN" depth="0.0">
			<acc value="0.10090708853826" flag="0"/>
			<vel value="0.0857366926331812" flag="0"/>
			<psa03 value="0.355901868418586" flag="0"/>
