<?xml version="1.0" encoding="UTF-8" standalone="yes"?>
<!DOCTYPE earthquake SYSTEM "stationlist.dtd">
<stationlist created="" xmlns="ch.ethz.sed.shakemap.usgs.xml">
  <station code="ADVT" name="ADVT" netid="KO" insttype="CMG-3ESP" lat="40.4332" lon="29.7383">
    <comp name="--.HHE">
      <acc value="0.1150350534" flag="0"/>
      <vel value="0.0481553547" flag="0"/>
      <psa03 value="0.2068361264" flag="0"/>
      <psa10 value="0.0428243132" flag="0"/>
      <psa30 value="0.0043497992" flag="0"/>
    </comp>
    <comp name="--.HHZ">
      <acc value="0.0635688715" flag="0"/>
      <vel value="0.0314770918" flag="0"/>
      <psa03 value="0.1172298210" flag="0"/>
      <psa10 value="0.0221138351" flag="0"/>
      <psa30 value="0.0054347684" flag="0"/>
    </comp>
    <comp name="--.HHN">
      <acc value="0.1131747953" flag="0"/>
      <vel value="0.0590022311" flag="0"/>
      <psa03 value="0.3342160530" flag="0"/>
      <psa10 value="0.0451839974" flag="0"/>
      <psa30 value="0.0103401199" flag="0"/>
    </comp>
  </station>
  <station code="AVCI" name="AVCI" netid="KO" insttype="CMG-5T" lat="40.9958" lon="28.7225">
    <comp name="--.HNE">
      <acc value="0.1976626379" flag="0"/>
      <vel value="0.2074896274" flag="0"/>
      <psa03 value="0.2809341755" flag="0"/>
      <psa10 value="0.3212203204" flag="0"/>
      <psa30 value="0.0650770568" flag="0"/>
    </comp>
    <comp name="--.HNZ">
      <acc value="0.1289104413" flag="0"/>
      <vel value="0.0916028173" flag="0"/>
      <psa03 value="0.3030372939" flag="0"/>
      <psa10 value="0.1338602251" flag="0"/>
      <psa30 value="0.0186483268" flag="0"/>
    </comp>
    <comp name="--.HNN">
      <acc value="0.1533156585" flag="0"/>
      <vel value="0.1421404900" flag="0"/>
      <psa03 value="0.2467481885" flag="0"/>
      <psa10 value="0.2462859065" flag="0"/>
      <psa30 value="0.0678298151" flag="0"/>
    </comp>
  </station>
  <station code="BALB" name="BALB" netid="KO" insttype="CMG-5T" lat="39.6507" lon="27.8642">
    <comp name="--.HNE">
      <acc value="0.6485426497" flag="0"/>
      <vel value="0.3020925147" flag="0"/>
      <psa03 value="0.8722042808" flag="0"/>
      <psa10 value="0.2320632584" flag="0"/>
      <psa30 value="0.0209793593" flag="0"/>
    </comp>
    <comp name="--.HNN">
      <acc value="0.3591328296" flag="0"/>
      <vel value="0.1693880563" flag="0"/>
      <psa03 value="1.1333493378" flag="0"/>
      <psa10 value="0.1577815466" flag="0"/>
      <psa30 value="0.0170007195" flag="0"/>
    </comp>
    <comp name="--.HNZ">
      <acc value="0.2320001966" flag="0"/>
      <vel value="0.0955814220" flag="0"/>
      <psa03 value="0.5174974264" flag="0"/>
      <psa10 value="0.0748534385" flag="0"/>
      <psa30 value="0.0152518467" flag="0"/>
    </comp>
  </station>
  <station code="BGKT" name="BGKT" netid="KO" insttype="CMG-3ESP" lat="41.181" lon="28.773">
    <comp name="--.HHZ">
      <acc value="0.0702685460" flag="0"/>
      <vel value="0.0360448922" flag="0"/>
      <psa03 value="0.1041514711" flag="0"/>
      <psa10 value="0.0429957068" flag="0"/>
      <psa30 value="0.0093461000" flag="0"/>
    </comp>
    <comp name="--.HHE">
      <acc value="0.1464689804" flag="0"/>
      <vel value="0.0642333689" flag="0"/>
      <psa03 value="0.1684407494" flag="0"/>
      <psa10 value="0.0845861915" flag="0"/>
      <psa30 value="0.0121440447" flag="0"/>
    </comp>
    <comp name="--.HHN">
      <acc value="0.1532075095" flag="0"/>
      <vel value="0.0530871225" flag="0"/>
      <psa03 value="0.2193567875" flag="0"/>
      <psa10 value="0.0387352984" flag="0"/>
      <psa30 value="0.0071562196" flag="0"/>
    </comp>
  </station>
  <station code="BIGA" name="BIGA" netid="KO" insttype="CMG-5T" lat="40.2813" lon="27.1505">
    <comp name="--.HNN">
      <acc value="0.5993265924" flag="0"/>
      <vel value="0.2239492288" flag="0"/>
      <psa03 value="1.3056080388" flag="0"/>
      <psa10 value="0.1125508457" flag="0"/>
      <psa30 value="0.0164652202" flag="0"/>
    </comp>
    <comp name="--.HNZ">
      <acc value="0.2180742687" flag="0"/>
      <vel value="0.0668507823" flag="0"/>
      <psa03 value="0.4006388282" flag="0"/>
      <psa10 value="0.0376005210" flag="0"/>
      <psa30 value="0.0046767183" flag="0"/>
    </comp>
    <comp name="--.HNE">
      <acc value="0.5957248305" flag="0"/>
      <vel value="0.1805190703" flag="0"/>
      <psa03 value="1.0396165250" flag="0"/>
      <psa10 value="0.0645831046" flag="0"/>
      <psa30 value="0.0074842191" flag="0"/>
    </comp>
  </station>
  <station code="BOTS" name="BOTS" netid="KO" insttype="CMG-5T" lat="40.9902" lon="27.981">
    <comp name="--.HNE">
      <acc value="0.3084189922" flag="0"/>
      <vel value="0.1896127666" flag="0"/>
      <psa03 value="0.5221733481" flag="0"/>
      <psa10 value="0.2169678001" flag="0"/>
      <psa30 value="0.0153317604" flag="0"/>
    </comp>
    <comp name="--.HNN">
      <acc value="0.2893051341" flag="0"/>
      <vel value="0.1772164280" flag="0"/>
      <psa03 value="0.5767450915" flag="0"/>
      <psa10 value="0.1995645173" flag="0"/>
      <psa30 value="0.0165110385" flag="0"/>
    </comp>
    <comp name="--.HNZ">
      <acc value="0.0951500202" flag="0"/>
      <vel value="0.0366564862" flag="0"/>
      <psa03 value="0.1997909851" flag="0"/>
      <psa10 value="0.0316244078" flag="0"/>
      <psa30 value="0.0054512062" flag="0"/>
    </comp>
  </station>
  <station code="BRGA" name="BRGA" netid="KO" insttype="CMG-5T" lat="40.8846" lon="29.065">
    <comp name="--.HNZ">
      <acc value="0.2268931266" flag="0"/>
      <vel value="0.0637543974" flag="0"/>
      <psa03 value="0.2133217881" flag="0"/>
      <psa10 value="0.0654826010" flag="0"/>
      <psa30 value="0.0169569315" flag="0"/>
    </comp>
    <comp name="--.HNN">
      <acc value="0.2045775868" flag="0"/>
      <vel value="0.1212205682" flag="0"/>
      <psa03 value="0.3353903726" flag="0"/>
      <psa10 value="0.1979924842" flag="0"/>
      <psa30 value="0.0120756216" flag="0"/>
    </comp>
    <comp name="--.HNE">
      <acc value="0.1450890335" flag="0"/>
      <vel value="0.0847150749" flag="0"/>
      <psa03 value="0.4105288106" flag="0"/>
      <psa10 value="0.1246214565" flag="0"/>
      <psa30 value="0.0086752741" flag="0"/>
    </comp>
  </station>
  <station code="BUYK" name="BUYK" netid="KO" insttype="ACEBOX" lat="41.0168" lon="28.5828">
    <comp name="--.HNE">
      <acc value="0.2158876663" flag="0"/>
      <vel value="0.3033083332" flag="0"/>
      <psa03 value="0.4717629370" flag="0"/>
      <psa10 value="0.4811949712" flag="0"/>
      <psa30 value="0.0419695916" flag="0"/>
    </comp>
    <comp name="--.HNN">
      <acc value="0.2071386554" flag="0"/>
      <vel value="0.1878155935" flag="0"/>
      <psa03 value="0.4077875322" flag="0"/>
      <psa10 value="0.3617045953" flag="0"/>
      <psa30 value="0.0374559189" flag="0"/>
    </comp>
    <comp name="--.HNZ">
      <acc value="0.1578038231" flag="0"/>
      <vel value="0.1029847366" flag="0"/>
      <psa03 value="0.2605045269" flag="0"/>
      <psa10 value="0.2142777859" flag="0"/>
      <psa30 value="0.0139446793" flag="0"/>
    </comp>
  </station>
  <station code="CANM" name="CANM" netid="KO" insttype="CMG-5T" lat="40.0113" lon="27.0529">
    <comp name="--.HNE">
      <acc value="0.5691980713" flag="0"/>
      <vel value="0.2482773362" flag="0"/>
      <psa03 value="1.4830353152" flag="0"/>
      <psa10 value="0.0693406041" flag="0"/>
      <psa30 value="0.0143329369" flag="0"/>
    </comp>
    <comp name="--.HNN">
      <acc value="0.5667977786" flag="0"/>
      <vel value="0.2259978395" flag="0"/>
      <psa03 value="1.6850997625" flag="0"/>
      <psa10 value="0.1102394349" flag="0"/>
      <psa30 value="0.0203779030" flag="0"/>
    </comp>
    <comp name="--.HNZ">
      <acc value="0.4855448659" flag="0"/>
      <vel value="0.1817092848" flag="0"/>
      <psa03 value="1.6794501060" flag="0"/>
      <psa10 value="0.0479432871" flag="0"/>
      <psa30 value="0.0076061916" flag="0"/>
    </comp>
  </station>
  <station code="CRLT" name="CRLT" netid="KO" insttype="CMG-3ESP" lat="41.129" lon="27.736">
    <comp name="--.HHN">
      <acc value="0.1178346443" flag="0"/>
      <vel value="0.0999047247" flag="0"/>
      <psa03 value="0.1690205763" flag="0"/>
      <psa10 value="0.1176141508" flag="0"/>
      <psa30 value="0.0219384292" flag="0"/>
    </comp>
    <comp name="--.HHZ">
      <acc value="0.0898052190" flag="0"/>
      <vel value="0.0964124811" flag="0"/>
      <psa03 value="0.2116766532" flag="0"/>
      <psa10 value="0.2233370964" flag="0"/>
      <psa30 value="0.0203979142" flag="0"/>
    </comp>
    <comp name="--.HHE">
      <acc value="0.1410284503" flag="0"/>
      <vel value="0.1125833095" flag="0"/>
      <psa03 value="0.4381748150" flag="0"/>
      <psa10 value="0.1593762133" flag="0"/>
      <psa30 value="0.0232589661" flag="0"/>
    </comp>
  </station>
  <station code="CTYL" name="CTYL" netid="KO" insttype="CMG-3T" lat="41.476" lon="28.2897">
    <comp name="--.HHE">
      <acc value="0.2386233518" flag="0"/>
      <vel value="0.2023467570" flag="0"/>
      <psa03 value="0.4441686397" flag="0"/>
      <psa10 value="0.2129814600" flag="0"/>
      <psa30 value="0.0219696288" flag="0"/>
    </comp>
    <comp name="--.HHN">
      <acc value="0.2767930127" flag="0"/>
      <vel value="0.1105611075" flag="0"/>
      <psa03 value="0.2800389594" flag="0"/>
      <psa10 value="0.1283573114" flag="0"/>
      <psa30 value="0.0126748158" flag="0"/>
    </comp>
    <comp name="--.HHZ">
      <acc value="0.1914450181" flag="0"/>
      <vel value="0.1141361770" flag="0"/>
      <psa03 value="0.3317805965" flag="0"/>
      <psa10 value="0.1088483752" flag="0"/>
      <psa30 value="0.0080674803" flag="0"/>
    </comp>
  </station>
  <station code="DST" name="DST" netid="KO" insttype="CMG-5T" lat="39.6041" lon="28.6267">
    <comp name="--.HNE">
      <acc value="0.6853909507" flag="0"/>
      <vel value="0.3872297893" flag="0"/>
      <psa03 value="1.1419871906" flag="0"/>
      <psa10 value="0.4094922938" flag="0"/>
      <psa30 value="0.0247844769" flag="0"/>
    </comp>
    <comp name="--.HNZ">
      <acc value="0.3896285112" flag="0"/>
      <vel value="0.1462133103" flag="0"/>
      <psa03 value="1.1264054241" flag="0"/>
      <psa10 value="0.1146421534" flag="0"/>
      <psa30 value="0.0107375789" flag="0"/>
    </comp>
  </station>
  <station code="EDC" name="EDC" netid="KO" insttype="CMG-3T" lat="40.3465" lon="27.8618">
    <comp name="--.HHE">
      <acc value="1.4896118293" flag="0"/>
      <vel value="0.2773361691" flag="0"/>
      <psa03 value="2.5472841515" flag="0"/>
      <psa10 value="0.2226380748" flag="0"/>
      <psa30 value="0.0119152615" flag="0"/>
    </comp>
    <comp name="--.HHZ">
      <acc value="0.6694125867" flag="0"/>
      <vel value="0.1754468524" flag="0"/>
      <psa03 value="0.7911488149" flag="0"/>
      <psa10 value="0.0556812539" flag="0"/>
      <psa30 value="0.0069780514" flag="0"/>
    </comp>
  </station>
  <station code="ESKY" name="ESKY" netid="KO" insttype="CMG-5T" lat="40.5918" lon="28.9071">
    <comp name="--.HNE">
      <acc value="1.7632441135" flag="0"/>
      <vel value="0.8002538205" flag="0"/>
      <psa03 value="2.8788138127" flag="0"/>
      <psa10 value="1.1875171472" flag="0"/>
      <psa30 value="0.0914057407" flag="0"/>
    </comp>
    <comp name="--.HNZ">
      <acc value="1.3139630743" flag="0"/>
      <vel value="1.0097508835" flag="0"/>
      <psa03 value="3.4893611791" flag="0"/>
      <psa10 value="1.4082543795" flag="0"/>
      <psa30 value="0.1080707039" flag="0"/>
    </comp>
    <comp name="--.HNN">
      <acc value="2.3076258319" flag="0"/>
      <vel value="1.3611289166" flag="0"/>
      <psa03 value="2.6886285973" flag="0"/>
      <psa10 value="2.1718640009" flag="0"/>
      <psa30 value="0.1623112787" flag="0"/>
    </comp>
  </station>
  <station code="GAZK" name="GAZK" netid="KO" insttype="CMG-6T" lat="40.7479" lon="27.3275">
    <comp name="--.HHE">
      <acc value="0.6577343166" flag="0"/>
      <vel value="0.2165401306" flag="0"/>
      <psa03 value="1.1425269011" flag="0"/>
      <psa10 value="0.1329546406" flag="0"/>
      <psa30 value="0.0136863157" flag="0"/>
    </comp>
    <comp name="--.HHZ">
      <acc value="0.1992760005" flag="0"/>
      <vel value="0.0898739495" flag="0"/>
      <psa03 value="0.6619784800" flag="0"/>
      <psa10 value="0.0640678073" flag="0"/>
      <psa30 value="0.0073127204" flag="0"/>
    </comp>
    <comp name="--.HHN">
      <acc value="0.4092467893" flag="0"/>
      <vel value="0.1937961915" flag="0"/>
      <psa03 value="1.0008039213" flag="0"/>
      <psa10 value="0.1478704274" flag="0"/>
      <psa30 value="0.0156180549" flag="0"/>
    </comp>
  </station>
  <station code="GEDZ" name="GEDZ" netid="KO" insttype="CMG-6T" lat="39.0445" lon="29.4105">
    <comp name="--.HHE">
      <acc value="0.1641009554" flag="0"/>
      <vel value="0.1422506979" flag="0"/>
      <psa03 value="0.6913671691" flag="0"/>
      <psa10 value="0.3192212074" flag="0"/>
      <psa30 value="0.0202080000" flag="0"/>
    </comp>
    <comp name="--.HHN">
      <acc value="0.2269282968" flag="0"/>
      <vel value="0.1836205778" flag="0"/>
      <psa03 value="0.9273073472" flag="0"/>
      <psa10 value="0.2929197660" flag="0"/>
      <psa30 value="0.0210881205" flag="0"/>
    </comp>
    <comp name="--.HHZ">
      <acc value="0.0682794307" flag="0"/>
      <vel value="0.0510229677" flag="0"/>
      <psa03 value="0.1915753033" flag="0"/>
      <psa10 value="0.1541748958" flag="0"/>
      <psa30 value="0.0084036149" flag="0"/>
    </comp>
  </station>
  <station code="GONE" name="GONE" netid="KO" insttype="CMG-5T" lat="40.0466" lon="27.686">
    <comp name="--.HNE">
      <acc value="0.7734192587" flag="0"/>
      <vel value="0.2941676934" flag="0"/>
      <psa03 value="1.7808598533" flag="0"/>
      <psa10 value="0.1010220153" flag="0"/>
      <psa30 value="0.0192664674" flag="0"/>
    </comp>
    <comp name="--.HNN">
      <acc value="0.9776068456" flag="0"/>
      <vel value="0.3797833043" flag="0"/>
      <psa03 value="3.1820007311" flag="0"/>
      <psa10 value="0.1625854466" flag="0"/>
      <psa30 value="0.0172672562" flag="0"/>
    </comp>
    <comp name="--.HNZ">
      <acc value="0.2493054313" flag="0"/>
      <vel value="0.0829782769" flag="0"/>
      <psa03 value="0.4373546303" flag="0"/>
      <psa10 value="0.0642901989" flag="0"/>
      <psa30 value="0.0081899303" flag="0"/>
    </comp>
  </station>
  <station code="GPA" name="GPA" netid="KO" insttype="CMG-5T" lat="40.2911" lon="30.3171">
    <comp name="--.HNE">
      <acc value="0.1075628586" flag="0"/>
      <vel value="0.1008098913" flag="0"/>
      <psa03 value="0.2804692193" flag="0"/>
      <psa10 value="0.1045718947" flag="0"/>
      <psa30 value="0.0101614448" flag="0"/>
    </comp>
    <comp name="--.HNZ">
      <acc value="0.0628602166" flag="0"/>
      <vel value="0.0433319552" flag="0"/>
      <psa03 value="0.1328198872" flag="0"/>
      <psa10 value="0.0463349209" flag="0"/>
      <psa30 value="0.0102059784" flag="0"/>
    </comp>
  </station>
  <station code="GULT" name="GULT" netid="KO" insttype="CMG-3ESP" lat="40.432" lon="30.5152">
    <comp name="--.HHN">
      <acc value="0.2186452487" flag="0"/>
      <vel value="0.1868345473" flag="0"/>
      <psa03 value="0.7222410219" flag="0"/>
      <psa10 value="0.1445608557" flag="0"/>
      <psa30 value="0.0355845797" flag="0"/>
    </comp>
  </station>
  <station code="HRTX" name="HRTX" netid="KO" insttype="CMG-3ESP" lat="40.8009" lon="29.6729">
    <comp name="--.HHE">
      <acc value="0.1302909610" flag="0"/>
      <vel value="0.0572815011" flag="0"/>
      <psa03 value="0.3271997557" flag="0"/>
      <psa10 value="0.0389999513" flag="0"/>
      <psa30 value="0.0053575986" flag="0"/>
    </comp>
    <comp name="--.HHN">
      <acc value="0.1042717251" flag="0"/>
      <vel value="0.0588874037" flag="0"/>
      <psa03 value="0.1786737951" flag="0"/>
      <psa10 value="0.0597849776" flag="0"/>
      <psa30 value="0.0079459777" flag="0"/>
    </comp>
    <comp name="--.HHZ">
      <acc value="0.0694019596" flag="0"/>
      <vel value="0.0223342813" flag="0"/>
      <psa03 value="0.1165035238" flag="0"/>
      <psa10 value="0.0196030444" flag="0"/>
      <psa30 value="0.0032785041" flag="0"/>
    </comp>
  </station>
  <station code="HVHR" name="HVHR" netid="KO" insttype="CMG-5T" lat="40.9908" lon="28.6678">
    <comp name="--.HNN">
      <acc value="0.6247848895" flag="0"/>
      <vel value="0.4512142973" flag="0"/>
      <psa03 value="2.4150863118" flag="0"/>
      <psa10 value="0.2607948385" flag="0"/>
      <psa30 value="0.0625129851" flag="0"/>
    </comp>
  </station>
  <station code="ISK" name="ISK" netid="KO" insttype="CMG-3T" lat="41.0615" lon="29.0592">
    <comp name="--.HHE">
      <acc value="0.1236334704" flag="0"/>
      <vel value="0.0372477292" flag="0"/>
      <psa03 value="0.1820182181" flag="0"/>
      <psa10 value="0.0335299888" flag="0"/>
      <psa30 value="0.0071544193" flag="0"/>
    </comp>
    <comp name="--.HHN">
      <acc value="0.1660358663" flag="0"/>
      <vel value="0.0304045584" flag="0"/>
      <psa03 value="0.1498001729" flag="0"/>
      <psa10 value="0.0240072658" flag="0"/>
      <psa30 value="0.0057641413" flag="0"/>
    </comp>
    <comp name="--.HHZ">
      <acc value="0.2431942432" flag="0"/>
      <vel value="0.0332487433" flag="0"/>
      <psa03 value="0.1334954910" flag="0"/>
      <psa10 value="0.0300102673" flag="0"/>
      <psa30 value="0.0106865388" flag="0"/>
    </comp>
  </station>
  <station code="IZI" name="IZI" netid="KO" insttype="CMG-5T" lat="40.3483" lon="29.4612">
    <comp name="--.HNE">
      <acc value="0.4691278481" flag="0"/>
      <vel value="0.1734683769" flag="0"/>
      <psa03 value="0.6818417398" flag="0"/>
      <psa10 value="0.1384838177" flag="0"/>
      <psa30 value="0.0156696556" flag="0"/>
    </comp>
    <comp name="--.HNN">
      <acc value="0.5253764581" flag="0"/>
      <vel value="0.2375765553" flag="0"/>
      <psa03 value="1.4821252601" flag="0"/>
      <psa10 value="0.2089354552" flag="0"/>
      <psa30 value="0.0218090189" flag="0"/>
    </comp>
    <comp name="--.HNZ">
      <acc value="0.3652809605" flag="0"/>
      <vel value="0.1736958896" flag="0"/>
      <psa03 value="1.1476230737" flag="0"/>
      <psa10 value="0.0904518795" flag="0"/>
      <psa30 value="0.0265345847" flag="0"/>
    </comp>
  </station>
  <station code="KAVV" name="KAVV" netid="KO" insttype="CMG-3ESPC" lat="41.0638" lon="29.06">
    <comp name="--.HHN">
      <acc value="0.2487051209" flag="0"/>
      <vel value="0.0746521174" flag="0"/>
      <psa03 value="0.4708594877" flag="0"/>
      <psa10 value="0.0268294899" flag="0"/>
      <psa30 value="0.0057814936" flag="0"/>
    </comp>
    <comp name="--.HHE">
      <acc value="0.3452353462" flag="0"/>
      <vel value="0.1164562931" flag="0"/>
      <psa03 value="0.4958975091" flag="0"/>
      <psa10 value="0.0438878057" flag="0"/>
      <psa30 value="0.0082093773" flag="0"/>
    </comp>
    <comp name="--.HHZ">
      <acc value="0.2311115359" flag="0"/>
      <vel value="0.0486949533" flag="0"/>
      <psa03 value="0.2165573397" flag="0"/>
      <psa10 value="0.0299575211" flag="0"/>
      <psa30 value="0.0108287922" flag="0"/>
    </comp>
  </station>
  <station code="KCTX" name="KCTX" netid="KO" insttype="CMG-5T" lat="40.2626" lon="28.3353">
    <comp name="--.HNE">
      <acc value="1.0479027915" flag="0"/>
      <vel value="0.4407001763" flag="0"/>
      <psa03 value="1.9733596076" flag="0"/>
      <psa10 value="0.2178110855" flag="0"/>
      <psa30 value="0.0140500783" flag="0"/>
    </comp>
    <comp name="--.HNZ">
      <acc value="0.6983717145" flag="0"/>
      <vel value="0.3670724459" flag="0"/>
      <psa03 value="1.7020894091" flag="0"/>
