<?xml version="1.0" encoding="UTF-8" standalone="yes"?>
<!DOCTYPE earthquake SYSTEM "stationlist.dtd">
<stationlist created="" xmlns="ch.ethz.sed.shakemap.usgs.xml">
  <station code="ADVT" name="ADVT" netid="KO" insttype="CMG-3ESP" commtype="DIG" lat="40.4332" lon="29.7383">
    <comp name="--.HHZ">
      <acc value="0.0635634474" flag="0"/>
      <vel value="0.0314744047" flag="0"/>
      <psa03 value="0.1172198183" flag="0"/>
      <psa10 value="0.0221119482" flag="0"/>
      <psa30 value="0.0054343245" flag="0"/>
    </comp>
    <comp name="--.HHN">
      <acc value="0.1131651347" flag="0"/>
      <vel value="0.0589971970" flag="0"/>
      <psa03 value="0.3341875245" flag="0"/>
      <psa10 value="0.0451801405" flag="0"/>
      <psa30 value="0.0103392440" flag="0"/>
    </comp>
    <comp name="--.HHE">
      <acc value="0.1150252344" flag="0"/>
      <vel value="0.0481512442" flag="0"/>
      <psa03 value="0.2068184716" flag="0"/>
      <psa10 value="0.0428206579" flag="0"/>
      <psa30 value="0.0043494215" flag="0"/>
    </comp>
  </station>
  <station code="AVCI" name="AVCI" netid="KO" insttype="CMG-5T" commtype="DIG" lat="40.9958" lon="28.7225">
    <comp name="--.HNE">
      <acc value="0.1975257007" flag="0"/>
      <vel value="0.2073458802" flag="0"/>
      <psa03 value="0.2807395491" flag="0"/>
      <psa10 value="0.3209977845" flag="0"/>
      <psa30 value="0.0650319743" flag="0"/>
    </comp>
    <comp name="--.HNN">
      <acc value="0.1532094528" flag="0"/>
      <vel value="0.1420420251" flag="0"/>
      <psa03 value="0.2465772603" flag="0"/>
      <psa10 value="0.2461152984" flag="0"/>
      <psa30 value="0.0677828120" flag="0"/>
    </comp>
    <comp name="--.HNZ">
      <acc value="0.1288211429" flag="0"/>
      <vel value="0.0915393654" flag="0"/>
      <psa03 value="0.3028273781" flag="0"/>
      <psa10 value="0.1337674993" flag="0"/>
      <psa30 value="0.0186358137" flag="0"/>
    </comp>
  </station>
  <station code="BALB" name="BALB" netid="KO" insttype="CMG-5T" commtype="DIG" lat="39.6507" lon="27.8642">
    <comp name="--.HNE">
      <acc value="0.6485744343" flag="0"/>
      <vel value="0.3021073194" flag="0"/>
      <psa03 value="0.8722470270" flag="0"/>
      <psa10 value="0.2320746317" flag="0"/>
      <psa30 value="0.0209804017" flag="0"/>
    </comp>
    <comp name="--.HNN">
      <acc value="0.3591504349" flag="0"/>
      <vel value="0.1693963590" flag="0"/>
      <psa03 value="1.1334048970" flag="0"/>
      <psa10 value="0.1577892814" flag="0"/>
      <psa30 value="0.0170015468" flag="0"/>
    </comp>
    <comp name="--.HNZ">
      <acc value="0.2320115645" flag="0"/>
      <vel value="0.0955861058" flag="0"/>
      <psa03 value="0.5175227836" flag="0"/>
      <psa10 value="0.0748571063" flag="0"/>
      <psa30 value="0.0152525778" flag="0"/>
    </comp>
  </station>
  <station code="BGKT" name="BGKT" netid="KO" insttype="CMG-3ESP" commtype="DIG" lat="41.181" lon="28.773">
    <comp name="--.HHZ">
      <acc value="0.0702626089" flag="0"/>
      <vel value="0.0360418283" flag="0"/>
      <psa03 value="0.1041426712" flag="0"/>
      <psa10 value="0.0429920743" flag="0"/>
      <psa30 value="0.0093452900" flag="0"/>
    </comp>
    <comp name="--.HHE">
      <acc value="0.1464565668" flag="0"/>
      <vel value="0.0642279224" flag="0"/>
      <psa03 value="0.1684264735" flag="0"/>
      <psa10 value="0.0845790227" flag="0"/>
      <psa30 value="0.0121430154" flag="0"/>
    </comp>
    <comp name="--.HHN">
      <acc value="0.1531945277" flag="0"/>
      <vel value="0.0530826696" flag="0"/>
      <psa03 value="0.2193382005" flag="0"/>
      <psa10 value="0.0387320163" flag="0"/>
      <psa30 value="0.0071556307" flag="0"/>
    </comp>
  </station>
  <station code="BIGA" name="BIGA" netid="KO" insttype="CMG-5T" commtype="DIG" lat="40.2813" lon="27.1505">
    <comp name="--.HNN">
      <acc value="0.5989114320" flag="0"/>
      <vel value="0.2237940983" flag="0"/>
      <psa03 value="1.3047036296" flag="0"/>
      <psa10 value="0.1124728804" flag="0"/>
      <psa30 value="0.0164538156" flag="0"/>
    </comp>
    <comp name="--.HNE">
      <acc value="0.5953121512" flag="0"/>
      <vel value="0.1803940179" flag="0"/>
      <psa03 value="1.0388963459" flag="0"/>
      <psa10 value="0.0645383656" flag="0"/>
      <psa30 value="0.0074789719" flag="0"/>
    </comp>
    <comp name="--.HNZ">
      <acc value="0.2179231900" flag="0"/>
      <vel value="0.0668044692" flag="0"/>
      <psa03 value="0.4003612724" flag="0"/>
      <psa10 value="0.0375744720" flag="0"/>
      <psa30 value="0.0046735091" flag="0"/>
    </comp>
  </station>
  <station code="BOTS" name="BOTS" netid="KO" insttype="CMG-5T" commtype="DIG" lat="40.9902" lon="27.981">
    <comp name="--.HNN">
      <acc value="0.2891047235" flag="0"/>
      <vel value="0.1770936638" flag="0"/>
      <psa03 value="0.5763455646" flag="0"/>
      <psa10 value="0.1994262738" flag="0"/>
      <psa30 value="0.0164998356" flag="0"/>
    </comp>
    <comp name="--.HNE">
      <acc value="0.3082053250" flag="0"/>
      <vel value="0.1894814077" flag="0"/>
      <psa03 value="0.5218115950" flag="0"/>
      <psa10 value="0.2168174885" flag="0"/>
      <psa30 value="0.0153211903" flag="0"/>
    </comp>
    <comp name="--.HNZ">
      <acc value="0.0950840949" flag="0"/>
      <vel value="0.0366310815" flag="0"/>
      <psa03 value="0.1996525590" flag="0"/>
      <psa10 value="0.0316024967" flag="0"/>
      <psa30 value="0.0054490953" flag="0"/>
    </comp>
  </station>
  <station code="BRGA" name="BRGA" netid="KO" insttype="CMG-5T" commtype="DIG" lat="40.8846" lon="29.065">
    <comp name="--.HNE">
      <acc value="0.1449885340" flag="0"/>
      <vel value="0.0846564003" flag="0"/>
      <psa03 value="0.4102444478" flag="0"/>
      <psa10 value="0.1245351344" flag="0"/>
      <psa30 value="0.0086708674" flag="0"/>
    </comp>
    <comp name="--.HNN">
      <acc value="0.2044358648" flag="0"/>
      <vel value="0.1211365926" flag="0"/>
      <psa03 value="0.3351580297" flag="0"/>
      <psa10 value="0.1978553238" flag="0"/>
      <psa30 value="0.0120667740" flag="0"/>
    </comp>
    <comp name="--.HNZ">
      <acc value="0.2267359133" flag="0"/>
      <vel value="0.0637102172" flag="0"/>
      <psa03 value="0.2131739781" flag="0"/>
      <psa10 value="0.0654372290" flag="0"/>
      <psa30 value="0.0169451220" flag="0"/>
    </comp>
  </station>
  <station code="BUYK" name="BUYK" netid="KO" insttype="SA10" commtype="DIG" lat="41.0168" lon="28.5828">
    <comp name="--.HNZ">
      <acc value="0.1580404983" flag="0"/>
      <vel value="0.1031391953" flag="0"/>
      <psa03 value="0.2608952331" flag="0"/>
      <psa10 value="0.2145991610" flag="0"/>
      <psa30 value="0.0139655083" flag="0"/>
    </comp>
    <comp name="--.HNE">
      <acc value="0.2162114560" flag="0"/>
      <vel value="0.3037632361" flag="0"/>
      <psa03 value="0.4724704899" flag="0"/>
      <psa10 value="0.4819166693" flag="0"/>
      <psa30 value="0.0420317028" flag="0"/>
    </comp>
    <comp name="--.HNN">
      <acc value="0.2074493235" flag="0"/>
      <vel value="0.1880972788" flag="0"/>
      <psa03 value="0.4083991343" flag="0"/>
      <psa10 value="0.3622470821" flag="0"/>
      <psa30 value="0.0375120086" flag="0"/>
    </comp>
  </station>
  <station code="CANM" name="CANM" netid="KO" insttype="CMG-5T" commtype="DIG" lat="40.0113" lon="27.0529">
    <comp name="--.HNE">
      <acc value="0.5692259766" flag="0"/>
      <vel value="0.2482895086" flag="0"/>
      <psa03 value="1.4831080220" flag="0"/>
      <psa10 value="0.0693440036" flag="0"/>
      <psa30 value="0.0143336276" flag="0"/>
    </comp>
    <comp name="--.HNZ">
      <acc value="0.4855686818" flag="0"/>
      <vel value="0.1817181976" flag="0"/>
      <psa03 value="1.6795324824" flag="0"/>
      <psa10 value="0.0479456387" flag="0"/>
      <psa30 value="0.0076065614" flag="0"/>
    </comp>
    <comp name="--.HNN">
      <acc value="0.5668255424" flag="0"/>
      <vel value="0.2260089092" flag="0"/>
      <psa03 value="1.6851823042" flag="0"/>
      <psa10 value="0.1102448348" flag="0"/>
      <psa30 value="0.0203789056" flag="0"/>
    </comp>
  </station>
  <station code="CRLT" name="CRLT" netid="KO" insttype="CMG-3ESP" commtype="DIG" lat="41.129" lon="27.736">
    <comp name="--.HHE">
      <acc value="0.1410165171" flag="0"/>
      <vel value="0.1125738507" flag="0"/>
      <psa03 value="0.4381377394" flag="0"/>
      <psa10 value="0.1593627280" flag="0"/>
      <psa30 value="0.0232570076" flag="0"/>
    </comp>
    <comp name="--.HHN">
      <acc value="0.1178246911" flag="0"/>
      <vel value="0.0998962212" flag="0"/>
      <psa03 value="0.1690062991" flag="0"/>
      <psa10 value="0.1176042161" flag="0"/>
      <psa30 value="0.0219365730" flag="0"/>
    </comp>
    <comp name="--.HHZ">
      <acc value="0.0897976224" flag="0"/>
      <vel value="0.0964044101" flag="0"/>
      <psa03 value="0.2116587468" flag="0"/>
      <psa10 value="0.2233182034" flag="0"/>
      <psa30 value="0.0203961631" flag="0"/>
    </comp>
  </station>
  <station code="CTYL" name="CTYL" netid="KO" insttype="CMG-3T" commtype="DIG" lat="41.476" lon="28.2897">
    <comp name="--.HHE">
      <acc value="0.2388621188" flag="0"/>
      <vel value="0.2025492253" flag="0"/>
      <psa03 value="0.4446130756" flag="0"/>
      <psa10 value="0.2131945696" flag="0"/>
      <psa30 value="0.0219916020" flag="0"/>
    </comp>
    <comp name="--.HHN">
      <acc value="0.2770699743" flag="0"/>
      <vel value="0.1106717355" flag="0"/>
      <psa03 value="0.2803191689" flag="0"/>
      <psa10 value="0.1284857469" flag="0"/>
      <psa30 value="0.0126875210" flag="0"/>
    </comp>
    <comp name="--.HHZ">
      <acc value="0.1916365769" flag="0"/>
      <vel value="0.1142503816" flag="0"/>
      <psa03 value="0.3321125744" flag="0"/>
      <psa10 value="0.1089572883" flag="0"/>
      <psa30 value="0.0080755579" flag="0"/>
    </comp>
  </station>
  <station code="DST" name="DST" netid="KO" insttype="CMG-5T" commtype="DIG" lat="39.6041" lon="28.6267">
    <comp name="--.HNE">
      <acc value="0.6849161769" flag="0"/>
      <vel value="0.3869615526" flag="0"/>
      <psa03 value="1.1411961302" flag="0"/>
      <psa10 value="0.4092086362" flag="0"/>
      <psa30 value="0.0247668378" flag="0"/>
    </comp>
    <comp name="--.HNZ">
      <acc value="0.3893585770" flag="0"/>
      <vel value="0.1461120136" flag="0"/>
      <psa03 value="1.1256250518" flag="0"/>
      <psa10 value="0.1145627295" flag="0"/>
      <psa30 value="0.0107301125" flag="0"/>
    </comp>
  </station>
  <station code="EDC" name="EDC" netid="KO" insttype="CMG-3T" commtype="DIG" lat="40.3465" lon="27.8618">
    <comp name="--.HHE">
      <acc value="1.4894847167" flag="0"/>
      <vel value="0.2773124993" flag="0"/>
      <psa03 value="2.5470667834" flag="0"/>
      <psa10 value="0.2226190764" flag="0"/>
      <psa30 value="0.0119142073" flag="0"/>
    </comp>
    <comp name="--.HHZ">
      <acc value="0.6693555176" flag="0"/>
      <vel value="0.1754318951" flag="0"/>
      <psa03 value="0.7910813677" flag="0"/>
      <psa10 value="0.0556765069" flag="0"/>
      <psa30 value="0.0069774559" flag="0"/>
    </comp>
  </station>
  <station code="ESKY" name="ESKY" netid="KO" insttype="CMG-5T" commtype="DIG" lat="40.5918" lon="28.9071">
    <comp name="--.HNE">
      <acc value="1.7620225074" flag="0"/>
      <vel value="0.7996993933" flag="0"/>
      <psa03 value="2.8768193332" flag="0"/>
      <psa10 value="1.1866944139" flag="0"/>
      <psa30 value="0.0913419237" flag="0"/>
    </comp>
    <comp name="--.HNZ">
      <acc value="1.3130528710" flag="0"/>
      <vel value="1.0090514053" flag="0"/>
      <psa03 value="3.4869440395" flag="0"/>
      <psa10 value="1.4072788604" flag="0"/>
      <psa30 value="0.1079996104" flag="0"/>
    </comp>
    <comp name="--.HNN">
      <acc value="2.3060273574" flag="0"/>
      <vel value="1.3601860752" flag="0"/>
      <psa03 value="2.6867662028" flag="0"/>
      <psa10 value="2.1703595573" flag="0"/>
      <psa30 value="0.1621979448" flag="0"/>
    </comp>
  </station>
  <station code="GAZK" name="GAZK" netid="KO" insttype="CMG-6T" commtype="DIG" lat="40.7479" lon="27.3275">
    <comp name="--.HHE">
      <acc value="0.6572353685" flag="0"/>
      <vel value="0.2163758692" flag="0"/>
      <psa03 value="1.1416601961" flag="0"/>
      <psa10 value="0.1328537830" flag="0"/>
      <psa30 value="0.0136759143" flag="0"/>
    </comp>
    <comp name="--.HHN">
      <acc value="0.4089363399" flag="0"/>
      <vel value="0.1936492540" flag="0"/>
      <psa03 value="1.0000447253" flag="0"/>
      <psa10 value="0.1477582548" flag="0"/>
      <psa30 value="0.0156062193" flag="0"/>
    </comp>
    <comp name="--.HHZ">
      <acc value="0.1991248329" flag="0"/>
      <vel value="0.0898057723" flag="0"/>
      <psa03 value="0.6614763124" flag="0"/>
      <psa10 value="0.0640192063" flag="0"/>
      <psa30 value="0.0073071789" flag="0"/>
    </comp>
  </station>
  <station code="GEDZ" name="GEDZ" netid="KO" insttype="CMG-6T" commtype="DIG" lat="39.0445" lon="29.4105">
    <comp name="--.HHE">
      <acc value="0.1639764729" flag="0"/>
      <vel value="0.1421427674" flag="0"/>
      <psa03 value="0.6908427165" flag="0"/>
      <psa10 value="0.3189790547" flag="0"/>
      <psa30 value="0.0201926681" flag="0"/>
    </comp>
    <comp name="--.HHZ">
      <acc value="0.0682276340" flag="0"/>
      <vel value="0.0509842816" flag="0"/>
      <psa03 value="0.1914299755" flag="0"/>
      <psa10 value="0.1540579397" flag="0"/>
      <psa30 value="0.0083972406" flag="0"/>
    </comp>
    <comp name="--.HHN">
      <acc value="0.2267561391" flag="0"/>
      <vel value="0.1834813011" flag="0"/>
      <psa03 value="0.9266038524" flag="0"/>
      <psa10 value="0.2926975447" flag="0"/>
      <psa30 value="0.0210721273" flag="0"/>
    </comp>
  </station>
  <station code="GONE" name="GONE" netid="KO" insttype="CMG-5T" commtype="DIG" lat="40.0466" lon="27.686">
    <comp name="--.HNE">
      <acc value="0.7735057969" flag="0"/>
      <vel value="0.2942006079" flag="0"/>
      <psa03 value="1.7810591152" flag="0"/>
      <psa10 value="0.1010333187" flag="0"/>
      <psa30 value="0.0192685875" flag="0"/>
    </comp>
    <comp name="--.HNN">
      <acc value="0.9777162546" flag="0"/>
      <vel value="0.3798258079" flag="0"/>
      <psa03 value="3.1823568443" flag="0"/>
      <psa10 value="0.1626036423" flag="0"/>
      <psa30 value="0.0172691582" flag="0"/>
    </comp>
    <comp name="--.HNZ">
      <acc value="0.2493332890" flag="0"/>
      <vel value="0.0829875490" flag="0"/>
      <psa03 value="0.4374035007" flag="0"/>
      <psa10 value="0.0642973841" flag="0"/>
      <psa30 value="0.0081908430" flag="0"/>
    </comp>
  </station>
  <station code="GPA" name="GPA" netid="KO" insttype="CMG-5T" commtype="DIG" lat="40.2911" lon="30.3171">
    <comp name="--.HNE">
      <acc value="0.1075021927" flag="0"/>
      <vel value="0.1007530341" flag="0"/>
      <psa03 value="0.2803110335" flag="0"/>
      <psa10 value="0.1045129156" flag="0"/>
      <psa30 value="0.0101557486" flag="0"/>
    </comp>
    <comp name="--.HNZ">
      <acc value="0.0628247507" flag="0"/>
      <vel value="0.0433075050" flag="0"/>
      <psa03 value="0.1327449503" flag="0"/>
      <psa10 value="0.0463087788" flag="0"/>
      <psa30 value="0.0102001839" flag="0"/>
    </comp>
  </station>
  <station code="GULT" name="GULT" netid="KO" insttype="CMG-3ESP" commtype="DIG" lat="40.432" lon="30.5152">
    <comp name="--.HHN">
      <acc value="0.2186267801" flag="0"/>
      <vel value="0.1868187632" flag="0"/>
      <psa03 value="0.7221800150" flag="0"/>
      <psa10 value="0.1445486448" flag="0"/>
      <psa30 value="0.0355815803" flag="0"/>
    </comp>
  </station>
  <station code="GUZE" name="GUZE" netid="KO" insttype="CMG-5T" commtype="DIG" lat="40.9998" lon="28.5074">
    <comp name="--.HNE">
      <acc value="1.1837384933" flag="0"/>
      <vel value="0.6093583050" flag="0"/>
      <psa03 value="1.9685970917" flag="0"/>
      <psa10 value="0.5075772530" flag="0"/>
      <psa30 value="0.0303901099" flag="0"/>
    </comp>
    <comp name="--.HNN">
      <acc value="0.8361050171" flag="0"/>
      <vel value="0.4171241204" flag="0"/>
      <psa03 value="2.0118222445" flag="0"/>
      <psa10 value="0.2785226433" flag="0"/>
      <psa30 value="0.0248548837" flag="0"/>
    </comp>
    <comp name="--.HNZ">
      <acc value="0.2476823893" flag="0"/>
      <vel value="0.0833650351" flag="0"/>
      <psa03 value="0.3520853684" flag="0"/>
      <psa10 value="0.0632818825" flag="0"/>
      <psa30 value="0.0163174349" flag="0"/>
    </comp>
  </station>
  <station code="HRTX" name="HRTX" netid="KO" insttype="CMG-3ESP" commtype="DIG" lat="40.8009" lon="29.6729">
    <comp name="--.HHE">
      <acc value="0.1302799423" flag="0"/>
      <vel value="0.0572766586" flag="0"/>
      <psa03 value="0.3271720845" flag="0"/>
      <psa10 value="0.0389966531" flag="0"/>
      <psa30 value="0.0053571493" flag="0"/>
    </comp>
    <comp name="--.HHN">
      <acc value="0.1042629174" flag="0"/>
      <vel value="0.0588824329" flag="0"/>
      <psa03 value="0.1786587027" flag="0"/>
      <psa10 value="0.0597799276" flag="0"/>
      <psa30 value="0.0079452986" flag="0"/>
    </comp>
    <comp name="--.HHZ">
      <acc value="0.0693960842" flag="0"/>
      <vel value="0.0223323842" flag="0"/>
      <psa03 value="0.1164936608" flag="0"/>
      <psa10 value="0.0196013848" flag="0"/>
      <psa30 value="0.0032782508" flag="0"/>
    </comp>
  </station>
  <station code="HVHR" name="HVHR" netid="KO" insttype="CMG-5T" commtype="DIG" lat="40.9699" lon="28.8445">
    <comp name="--.HNN">
      <acc value="0.6243521212" flag="0"/>
      <vel value="0.4509017353" flag="0"/>
      <psa03 value="2.4134133554" flag="0"/>
      <psa10 value="0.2606141754" flag="0"/>
      <psa30 value="0.0624688563" flag="0"/>
    </comp>
  </station>
  <station code="ISK" name="ISK" netid="KO" insttype="CMG-3T" commtype="DIG" lat="41.0615" lon="29.0592">
    <comp name="--.HHE">
      <acc value="0.1236229360" flag="0"/>
      <vel value="0.0372445591" flag="0"/>
      <psa03 value="0.1820027090" flag="0"/>
      <psa10 value="0.0335271318" flag="0"/>
      <psa30 value="0.0071538020" flag="0"/>
    </comp>
    <comp name="--.HHN">
      <acc value="0.1660217181" flag="0"/>
      <vel value="0.0304019677" flag="0"/>
      <psa03 value="0.1497874082" flag="0"/>
      <psa10 value="0.0240052201" flag="0"/>
      <psa30 value="0.0057636577" flag="0"/>
    </comp>
    <comp name="--.HHZ">
      <acc value="0.2431734800" flag="0"/>
      <vel value="0.0332459049" flag="0"/>
      <psa03 value="0.1334840936" flag="0"/>
      <psa10 value="0.0300077052" flag="0"/>
      <psa30 value="0.0106856166" flag="0"/>
    </comp>
  </station>
  <station code="IZI" name="IZI" netid="KO" insttype="CMG-5T" commtype="DIG" lat="40.3483" lon="29.4612">
    <comp name="--.HNE">
      <acc value="0.4688028670" flag="0"/>
      <vel value="0.1733482079" flag="0"/>
      <psa03 value="0.6813694040" flag="0"/>
      <psa10 value="0.1383878859" flag="0"/>
      <psa30 value="0.0156586345" flag="0"/>
    </comp>
    <comp name="--.HNN">
      <acc value="0.5250125711" flag="0"/>
      <vel value="0.2374120053" flag="0"/>
      <psa03 value="1.4810987093" flag="0"/>
      <psa10 value="0.2087907429" flag="0"/>
      <psa30 value="0.0217940493" flag="0"/>
    </comp>
    <comp name="--.HNZ">
      <acc value="0.3650278955" flag="0"/>
      <vel value="0.1735755534" flag="0"/>
      <psa03 value="1.1468280064" flag="0"/>
      <psa10 value="0.0903892161" flag="0"/>
      <psa30 value="0.0265166525" flag="0"/>
    </comp>
  </station>
  <station code="KAVV" name="KAVV" netid="KO" insttype="CMG-3ESPC" commtype="DIG" lat="41.0638" lon="29.06">
    <comp name="--.HHE">
