<?xml version="1.0" encoding="UTF-8" standalone="yes"?>
<!DOCTYPE earthquake SYSTEM "stationlist.dtd">
<stationlist created="" xmlns="ch.ethz.sed.shakemap.usgs.xml">
  <station code="ADVT" name="ADVT" netid="KO" insttype="CMG-3ESP" lat="40.4332" lon="29.7383">
    <comp name="--.HHE">
      <acc value="0.1148540882" flag="0"/>
      <vel value="0.0462032320" flag="0"/>
      <psa03 value="0.2066110086" flag="0"/>
      <psa10 value="0.0427013310" flag="0"/>
      <psa30 value="0.0044001606" flag="0"/>
    </comp>
    <comp name="--.HHN">
      <acc value="0.1134081988" flag="0"/>
      <vel value="0.0587391079" flag="0"/>
      <psa03 value="0.3341336639" flag="0"/>
      <psa10 value="0.0450128832" flag="0"/>
      <psa30 value="0.0088876542" flag="0"/>
    </comp>
    <comp name="--.HHZ">
      <acc value="0.0636185645" flag="0"/>
      <vel value="0.0310655969" flag="0"/>
      <psa03 value="0.1173274605" flag="0"/>
      <psa10 value="0.0223079739" flag="0"/>
      <psa30 value="0.0050886260" flag="0"/>
    </comp>
  </station>
  <station code="AVCI" name="AVCI" netid="KO" insttype="CMG-5T" lat="40.9958" lon="28.7225">
    <comp name="--.HNE">
      <acc value="0.1970325418" flag="0"/>
      <vel value="0.2017568840" flag="0"/>
      <psa03 value="0.2805739192" flag="0"/>
      <psa10 value="0.3222767367" flag="0"/>
      <psa30 value="0.0606820922" flag="0"/>
    </comp>
    <comp name="--.HNZ">
      <acc value="0.1286192576" flag="0"/>
      <vel value="0.0914787720" flag="0"/>
      <psa03 value="0.3028791602" flag="0"/>
      <psa10 value="0.1332268606" flag="0"/>
      <psa30 value="0.0167523215" flag="0"/>
    </comp>
    <comp name="--.HNN">
      <acc value="0.1535502059" flag="0"/>
      <vel value="0.1410140929" flag="0"/>
      <psa03 value="0.2455505188" flag="0"/>
      <psa10 value="0.2456463633" flag="0"/>
      <psa30 value="0.0583879510" flag="0"/>
    </comp>
  </station>
  <station code="BALB" name="BALB" netid="KO" insttype="CMG-5T" lat="39.6507" lon="27.8642">
    <comp name="--.HNE">
      <acc value="0.6489278055" flag="0"/>
      <vel value="0.3039949878" flag="0"/>
      <psa03 value="0.8718766800" flag="0"/>
      <psa10 value="0.2319167511" flag="0"/>
      <psa30 value="0.0205725838" flag="0"/>
    </comp>
    <comp name="--.HNN">
      <acc value="0.3590090641" flag="0"/>
      <vel value="0.1690830786" flag="0"/>
      <psa03 value="1.1334381591" flag="0"/>
      <psa10 value="0.1573109575" flag="0"/>
      <psa30 value="0.0151431746" flag="0"/>
    </comp>
    <comp name="--.HNZ">
      <acc value="0.2315908749" flag="0"/>
      <vel value="0.0957009000" flag="0"/>
      <psa03 value="0.5174393988" flag="0"/>
      <psa10 value="0.0751564631" flag="0"/>
      <psa30 value="0.0136787678" flag="0"/>
    </comp>
  </station>
  <station code="BGKT" name="BGKT" netid="KO" insttype="CMG-3ESP" lat="41.181" lon="28.773">
    <comp name="--.HHZ">
      <acc value="0.0706986385" flag="0"/>
      <vel value="0.0355964125" flag="0"/>
      <psa03 value="0.1038833168" flag="0"/>
      <psa10 value="0.0425283333" flag="0"/>
      <psa30 value="0.0080172428" flag="0"/>
    </comp>
    <comp name="--.HHN">
      <acc value="0.1533991049" flag="0"/>
      <vel value="0.0527501827" flag="0"/>
      <psa03 value="0.2192629579" flag="0"/>
      <psa10 value="0.0388566273" flag="0"/>
      <psa30 value="0.0063079130" flag="0"/>
    </comp>
    <comp name="--.HHE">
      <acc value="0.1464043187" flag="0"/>
      <vel value="0.0629018531" flag="0"/>
      <psa03 value="0.1685545581" flag="0"/>
      <psa10 value="0.0846353614" flag="0"/>
      <psa30 value="0.0109095241" flag="0"/>
    </comp>
  </station>
  <station code="BIGA" name="BIGA" netid="KO" insttype="CMG-5T" lat="40.2813" lon="27.1505">
    <comp name="--.HNZ">
      <acc value="0.2182305768" flag="0"/>
      <vel value="0.0661472045" flag="0"/>
      <psa03 value="0.4008496011" flag="0"/>
      <psa10 value="0.0375729730" flag="0"/>
      <psa30 value="0.0041809326" flag="0"/>
    </comp>
    <comp name="--.HNN">
      <acc value="0.5989756302" flag="0"/>
      <vel value="0.2174448988" flag="0"/>
      <psa03 value="1.3053240865" flag="0"/>
      <psa10 value="0.1126639255" flag="0"/>
      <psa30 value="0.0135586055" flag="0"/>
    </comp>
    <comp name="--.HNE">
      <acc value="0.5958399580" flag="0"/>
      <vel value="0.1793739427" flag="0"/>
      <psa03 value="1.0396487607" flag="0"/>
      <psa10 value="0.0647748918" flag="0"/>
      <psa30 value="0.0072801840" flag="0"/>
    </comp>
  </station>
  <station code="BOTS" name="BOTS" netid="KO" insttype="CMG-5T" lat="40.9902" lon="27.981">
    <comp name="--.HNE">
      <acc value="0.3080636887" flag="0"/>
      <vel value="0.1892416970" flag="0"/>
      <psa03 value="0.5225355351" flag="0"/>
      <psa10 value="0.2165701141" flag="0"/>
      <psa30 value="0.0154845044" flag="0"/>
    </comp>
    <comp name="--.HNN">
      <acc value="0.2892061966" flag="0"/>
      <vel value="0.1779980789" flag="0"/>
      <psa03 value="0.5766571293" flag="0"/>
      <psa10 value="0.1992779439" flag="0"/>
      <psa30 value="0.0157029325" flag="0"/>
    </comp>
    <comp name="--.HNZ">
      <acc value="0.0950111989" flag="0"/>
      <vel value="0.0359408171" flag="0"/>
      <psa03 value="0.1996622476" flag="0"/>
      <psa10 value="0.0317554514" flag="0"/>
      <psa30 value="0.0049074304" flag="0"/>
    </comp>
  </station>
  <station code="BRGA" name="BRGA" netid="KO" insttype="CMG-5T" lat="40.8846" lon="29.065">
    <comp name="--.HNE">
      <acc value="0.1449427814" flag="0"/>
      <vel value="0.0858115539" flag="0"/>
      <psa03 value="0.4105708179" flag="0"/>
      <psa10 value="0.1247164185" flag="0"/>
      <psa30 value="0.0079809116" flag="0"/>
    </comp>
    <comp name="--.HNN">
      <acc value="0.2047652609" flag="0"/>
      <vel value="0.1199623896" flag="0"/>
      <psa03 value="0.3360501859" flag="0"/>
      <psa10 value="0.1983285106" flag="0"/>
      <psa30 value="0.0108011228" flag="0"/>
    </comp>
    <comp name="--.HNZ">
      <acc value="0.2266425561" flag="0"/>
      <vel value="0.0622262309" flag="0"/>
      <psa03 value="0.2129353452" flag="0"/>
      <psa10 value="0.0657506875" flag="0"/>
      <psa30 value="0.0145035532" flag="0"/>
    </comp>
  </station>
  <station code="BUYK" name="BUYK" netid="KO" insttype="ACEBOX" lat="41.0168" lon="28.5828">
    <comp name="--.HNE">
      <acc value="0.2156081380" flag="0"/>
      <vel value="0.3010172673" flag="0"/>
      <psa03 value="0.4718291437" flag="0"/>
      <psa10 value="0.4812928205" flag="0"/>
      <psa30 value="0.0412830961" flag="0"/>
    </comp>
    <comp name="--.HNZ">
      <acc value="0.1580176232" flag="0"/>
      <vel value="0.1029633394" flag="0"/>
      <psa03 value="0.2604470229" flag="0"/>
      <psa10 value="0.2145241234" flag="0"/>
      <psa30 value="0.0133999884" flag="0"/>
    </comp>
    <comp name="--.HNN">
      <acc value="0.2071084483" flag="0"/>
      <vel value="0.1875486657" flag="0"/>
      <psa03 value="0.4079101307" flag="0"/>
      <psa10 value="0.3614580303" flag="0"/>
      <psa30 value="0.0349054137" flag="0"/>
    </comp>
  </station>
  <station code="CRLT" name="CRLT" netid="KO" insttype="CMG-3ESP" lat="41.129" lon="27.736">
    <comp name="--.HHE">
      <acc value="0.1408921773" flag="0"/>
      <vel value="0.1097746478" flag="0"/>
      <psa03 value="0.4383737112" flag="0"/>
      <psa10 value="0.1595045620" flag="0"/>
      <psa30 value="0.0204148525" flag="0"/>
    </comp>
    <comp name="--.HHZ">
      <acc value="0.0896906629" flag="0"/>
      <vel value="0.0956716032" flag="0"/>
      <psa03 value="0.2119042654" flag="0"/>
      <psa10 value="0.2233598410" flag="0"/>
      <psa30 value="0.0178947625" flag="0"/>
    </comp>
    <comp name="--.HHN">
      <acc value="0.1165620090" flag="0"/>
      <vel value="0.0960276355" flag="0"/>
      <psa03 value="0.1699942233" flag="0"/>
      <psa10 value="0.1161917980" flag="0"/>
      <psa30 value="0.0184663185" flag="0"/>
    </comp>
  </station>
  <station code="CRLU" name="CRLU" netid="KO" insttype="ACEBOX" lat="41.1428" lon="27.8215">
    <comp name="--.HNZ">
      <acc value="1.2903715614" flag="0"/>
      <vel value="0.7052437321" flag="0"/>
      <psa03 value="2.6417346508" flag="0"/>
      <psa10 value="1.4617905226" flag="0"/>
      <psa30 value="0.1556159125" flag="0"/>
    </comp>
  </station>
  <station code="CTYL" name="CTYL" netid="KO" insttype="CMG-3T" lat="41.476" lon="28.2897">
    <comp name="--.HHN">
      <acc value="0.2765985191" flag="0"/>
      <vel value="0.1109045034" flag="0"/>
      <psa03 value="0.2800315059" flag="0"/>
      <psa10 value="0.1280201965" flag="0"/>
      <psa30 value="0.0122241122" flag="0"/>
    </comp>
    <comp name="--.HHE">
      <acc value="0.2384819437" flag="0"/>
      <vel value="0.1968134256" flag="0"/>
      <psa03 value="0.4442900690" flag="0"/>
      <psa10 value="0.2123041665" flag="0"/>
      <psa30 value="0.0206524695" flag="0"/>
    </comp>
    <comp name="--.HHZ">
      <acc value="0.1913329363" flag="0"/>
      <vel value="0.1133619483" flag="0"/>
      <psa03 value="0.3319253242" flag="0"/>
      <psa10 value="0.1087709554" flag="0"/>
      <psa30 value="0.0081888797" flag="0"/>
    </comp>
  </station>
  <station code="DST" name="DST" netid="KO" insttype="CMG-5T" lat="39.6041" lon="28.6267">
    <comp name="--.HNE">
      <acc value="0.6854214710" flag="0"/>
      <vel value="0.3906460634" flag="0"/>
      <psa03 value="1.1419490697" flag="0"/>
      <psa10 value="0.4097890554" flag="0"/>
      <psa30 value="0.0243501276" flag="0"/>
    </comp>
    <comp name="--.HNZ">
      <acc value="0.3897144918" flag="0"/>
      <vel value="0.1467115556" flag="0"/>
      <psa03 value="1.1263936240" flag="0"/>
      <psa10 value="0.1145240468" flag="0"/>
      <psa30 value="0.0092524395" flag="0"/>
    </comp>
  </station>
  <station code="EDC" name="EDC" netid="KO" insttype="CMG-3T" lat="40.3465" lon="27.8618">
    <comp name="--.HHE">
      <acc value="1.4898761191" flag="0"/>
      <vel value="0.2793703033" flag="0"/>
      <psa03 value="2.5470959199" flag="0"/>
      <psa10 value="0.2228557714" flag="0"/>
      <psa30 value="0.0111097431" flag="0"/>
    </comp>
    <comp name="--.HHZ">
      <acc value="0.6694794918" flag="0"/>
      <vel value="0.1728984257" flag="0"/>
      <psa03 value="0.7907596446" flag="0"/>
      <psa10 value="0.0557248262" flag="0"/>
      <psa30 value="0.0062210995" flag="0"/>
    </comp>
  </station>
  <station code="ESKY" name="ESKY" netid="KO" insttype="CMG-5T" lat="40.5918" lon="28.9071">
    <comp name="--.HNN">
      <acc value="2.3053588001" flag="0"/>
      <vel value="1.3408483771" flag="0"/>
      <psa03 value="2.6870011559" flag="0"/>
      <psa10 value="2.1744990550" flag="0"/>
      <psa30 value="0.1622783565" flag="0"/>
    </comp>
    <comp name="--.HNE">
      <acc value="1.7650234217" flag="0"/>
      <vel value="0.7975504616" flag="0"/>
      <psa03 value="2.8784809665" flag="0"/>
      <psa10 value="1.1880711550" flag="0"/>
      <psa30 value="0.0859540024" flag="0"/>
    </comp>
    <comp name="--.HNZ">
      <acc value="1.3160149868" flag="0"/>
      <vel value="1.0220686423" flag="0"/>
      <psa03 value="3.4878330294" flag="0"/>
      <psa10 value="1.4082056009" flag="0"/>
      <psa30 value="0.1073057192" flag="0"/>
    </comp>
  </station>
  <station code="GAZK" name="GAZK" netid="KO" insttype="CMG-6T" lat="40.7479" lon="27.3275">
    <comp name="--.HHE">
      <acc value="0.6574547970" flag="0"/>
      <vel value="0.2166407754" flag="0"/>
      <psa03 value="1.1423550849" flag="0"/>
      <psa10 value="0.1329758259" flag="0"/>
      <psa30 value="0.0126133538" flag="0"/>
    </comp>
    <comp name="--.HHN">
      <acc value="0.4094678901" flag="0"/>
      <vel value="0.1929354256" flag="0"/>
      <psa03 value="1.0009770715" flag="0"/>
      <psa10 value="0.1474321673" flag="0"/>
      <psa30 value="0.0141052212" flag="0"/>
    </comp>
    <comp name="--.HHZ">
      <acc value="0.1990510108" flag="0"/>
      <vel value="0.0906760323" flag="0"/>
      <psa03 value="0.6617773660" flag="0"/>
      <psa10 value="0.0638945832" flag="0"/>
      <psa30 value="0.0066294915" flag="0"/>
    </comp>
  </station>
  <station code="GONE" name="GONE" netid="KO" insttype="CMG-5T" lat="40.0466" lon="27.686">
    <comp name="--.HNE">
      <acc value="0.7731255643" flag="0"/>
      <vel value="0.2910772652" flag="0"/>
      <psa03 value="1.7809861637" flag="0"/>
      <psa10 value="0.1009209378" flag="0"/>
      <psa30 value="0.0190071432" flag="0"/>
    </comp>
    <comp name="--.HNN">
      <acc value="0.9777002040" flag="0"/>
      <vel value="0.3776312647" flag="0"/>
      <psa03 value="3.1822852056" flag="0"/>
      <psa10 value="0.1630473750" flag="0"/>
      <psa30 value="0.0149628667" flag="0"/>
    </comp>
    <comp name="--.HNZ">
      <acc value="0.2493508114" flag="0"/>
      <vel value="0.0832142817" flag="0"/>
      <psa03 value="0.4374166705" flag="0"/>
      <psa10 value="0.0643448986" flag="0"/>
      <psa30 value="0.0076526852" flag="0"/>
    </comp>
  </station>
  <station code="GPA" name="GPA" netid="KO" insttype="CMG-5T" lat="40.2911" lon="30.3171">
    <comp name="--.HNE">
      <acc value="0.1072413126" flag="0"/>
      <vel value="0.0991157715" flag="0"/>
      <psa03 value="0.2800039649" flag="0"/>
      <psa10 value="0.1044398279" flag="0"/>
      <psa30 value="0.0108680068" flag="0"/>
    </comp>
    <comp name="--.HNZ">
      <acc value="0.0629124575" flag="0"/>
      <vel value="0.0409214357" flag="0"/>
      <psa03 value="0.1324333971" flag="0"/>
      <psa10 value="0.0461061993" flag="0"/>
      <psa30 value="0.0088619662" flag="0"/>
    </comp>
  </station>
  <station code="GULT" name="GULT" netid="KO" insttype="CMG-3ESP" lat="40.432" lon="30.5152">
    <comp name="--.HHN">
      <acc value="0.2189489920" flag="0"/>
      <vel value="0.1794497289" flag="0"/>
      <psa03 value="0.7224163407" flag="0"/>
      <psa10 value="0.1441590918" flag="0"/>
      <psa30 value="0.0327738132" flag="0"/>
    </comp>
  </station>
  <station code="HRTX" name="HRTX" netid="KO" insttype="CMG-3ESP" lat="40.8009" lon="29.6729">
    <comp name="--.HHE">
      <acc value="0.1302165617" flag="0"/>
      <vel value="0.0569701294" flag="0"/>
      <psa03 value="0.3272093739" flag="0"/>
      <psa10 value="0.0388498420" flag="0"/>
      <psa30 value="0.0048959454" flag="0"/>
    </comp>
    <comp name="--.HHN">
      <acc value="0.1046590406" flag="0"/>
      <vel value="0.0592536063" flag="0"/>
      <psa03 value="0.1782516730" flag="0"/>
      <psa10 value="0.0598582558" flag="0"/>
      <psa30 value="0.0069071915" flag="0"/>
    </comp>
    <comp name="--.HHZ">
      <acc value="0.0692386878" flag="0"/>
      <vel value="0.0224299063" flag="0"/>
      <psa03 value="0.1165191682" flag="0"/>
      <psa10 value="0.0196121066" flag="0"/>
      <psa30 value="0.0029769304" flag="0"/>
    </comp>
  </station>
  <station code="HVHR" name="HVHR" netid="KO" insttype="CMG-5T" lat="40.9908" lon="28.6678">
    <comp name="--.HNN">
      <acc value="0.6267898084" flag="0"/>
      <vel value="0.4436543752" flag="0"/>
      <psa03 value="2.4127065493" flag="0"/>
      <psa10 value="0.2632766616" flag="0"/>
      <psa30 value="0.0546682487" flag="0"/>
    </comp>
  </station>
  <station code="ISK" name="ISK" netid="KO" insttype="CMG-3T" lat="41.0615" lon="29.0592">
    <comp name="--.HHE">
      <acc value="0.1237165711" flag="0"/>
      <vel value="0.0374352173" flag="0"/>
      <psa03 value="0.1819341862" flag="0"/>
      <psa10 value="0.0336202381" flag="0"/>
      <psa30 value="0.0064287704" flag="0"/>
    </comp>
    <comp name="--.HHN">
      <acc value="0.1658634273" flag="0"/>
      <vel value="0.0284106256" flag="0"/>
      <psa03 value="0.1496703344" flag="0"/>
      <psa10 value="0.0238543821" flag="0"/>
      <psa30 value="0.0048999438" flag="0"/>
    </comp>
    <comp name="--.HHZ">
      <acc value="0.2430247781" flag="0"/>
      <vel value="0.0310553582" flag="0"/>
      <psa03 value="0.1330282016" flag="0"/>
      <psa10 value="0.0303015980" flag="0"/>
      <psa30 value="0.0088642817" flag="0"/>
    </comp>
  </station>
  <station code="IZI" name="IZI" netid="KO" insttype="CMG-5T" lat="40.3483" lon="29.4612">
    <comp name="--.HNE">
      <acc value="0.4689889825" flag="0"/>
      <vel value="0.1717826264" flag="0"/>
      <psa03 value="0.6815405390" flag="0"/>
      <psa10 value="0.1386451048" flag="0"/>
      <psa30 value="0.0143351413" flag="0"/>
    </comp>
    <comp name="--.HNN">
      <acc value="0.5252771695" flag="0"/>
      <vel value="0.2362720310" flag="0"/>
      <psa03 value="1.4821919756" flag="0"/>
      <psa10 value="0.2087554021" flag="0"/>
      <psa30 value="0.0194442507" flag="0"/>
    </comp>
    <comp name="--.HNZ">
      <acc value="0.3647947335" flag="0"/>
      <vel value="0.1711420768" flag="0"/>
      <psa03 value="1.1470252653" flag="0"/>
      <psa10 value="0.0899391785" flag="0"/>
      <psa30 value="0.0247467773" flag="0"/>
    </comp>
  </station>
  <station code="KAVV" name="KAVV" netid="KO" insttype="CMG-3ESPC" lat="41.0638" lon="29.06">
    <comp name="--.HHE">
      <acc value="0.3451817650" flag="0"/>
      <vel value="0.1167443135" flag="0"/>
      <psa03 value="0.4958256503" flag="0"/>
      <psa10 value="0.0438517598" flag="0"/>
      <psa30 value="0.0074521080" flag="0"/>
    </comp>
    <comp name="--.HHN">
      <acc value="0.2485848580" flag="0"/>
      <vel value="0.0725470820" flag="0"/>
      <psa03 value="0.4710752866" flag="0"/>
      <psa10 value="0.0266830849" flag="0"/>
      <psa30 value="0.0048723680" flag="0"/>
    </comp>
    <comp name="--.HHZ">
      <acc value="0.2312659482" flag="0"/>
      <vel value="0.0476176301" flag="0"/>
      <psa03 value="0.2160741495" flag="0"/>
      <psa10 value="0.0300183744" flag="0"/>
      <psa30 value="0.0089487305" flag="0"/>
    </comp>
  </station>
  <station code="KCTX" name="KCTX" netid="KO" insttype="CMG-5T" lat="40.2626" lon="28.3353">
    <comp name="--.HNE">
      <acc value="1.0476253932" flag="0"/>
      <vel value="0.4376571828" flag="0"/>
      <psa03 value="1.9735240633" flag="0"/>
      <psa10 value="0.2181101912" flag="0"/>
      <psa30 value="0.0132293149" flag="0"/>
    </comp>
    <comp name="--.HNN">
      <acc value="1.5768690583" flag="0"/>
      <vel value="0.7241570017" flag="0"/>
      <psa03 value="2.7556426976" flag="0"/>
      <psa10 value="0.3988841828" flag="0"/>
      <psa30 value="0.0430085474" flag="0"/>
    </comp>
    <comp name="--.HNZ">
      <acc value="0.6989312713" flag="0"/>
      <vel value="0.3641876029" flag="0"/>
      <psa03 value="1.7016014179" flag="0"/>
      <psa10 value="0.2236752991" flag="0"/>
      <psa30 value="0.0142965066" flag="0"/>
    </comp>
  </station>
  <station code="KOUK" name="KOUK" netid="KO" insttype="CMG-5T" lat="40.6572" lon="29.1918">
    <comp name="--.HNN">
      <acc value="0.6780059469" flag="0"/>
      <vel value="0.8899976883" flag="0"/>
      <psa03 value="1.5390700542" flag="0"/>
      <psa10 value="1.9479629424" flag="0"/>
      <psa30 value="0.1529520708" flag="0"/>
    </comp>
    <comp name="--.HNZ">
      <acc value="0.3838689382" flag="0"/>
      <vel value="0.3555176899" flag="0"/>
      <psa03 value="0.7091722993" flag="0"/>
      <psa10 value="0.4649037141" flag="0"/>
      <psa30 value="0.0924518060" flag="0"/>
    </comp>
    <comp name="--.HNE">
      <acc value="0.7507949945" flag="0"/>
      <vel value="0.7751305780" flag="0"/>
      <psa03 value="1.1500095520" flag="0"/>
      <psa10 value="1.0586666361" flag="0"/>
      <psa30 value="0.0768479603" flag="0"/>
    </comp>
  </station>
  <station code="KRBG" name="KRBG" netid="KO" insttype="CMG-3ESP" lat="40.3932" lon="27.2977">
    <comp name="--.HHN">
      <acc value="0.3384499616" flag="0"/>
