<?xml version="1.0" encoding="UTF-8" standalone="yes"?>
<!DOCTYPE earthquake SYSTEM "stationlist.dtd">
<stationlist created="" xmlns="ch.ethz.sed.shakemap.usgs.xml">
  <station code="BNN" name="BNN" netid="KO" insttype="CMG-3T" lat="38.8521" lon="35.8472">
    <comp name="--.HHE">
      <acc value="0.0078005891" flag="0"/>
      <vel value="0.0072963679" flag="0"/>
      <psa03 value="0.0151875072" flag="0"/>
      <psa10 value="0.0208235419" flag="0"/>
      <psa30 value="0.0008513621" flag="0"/>
    </comp>
    <comp name="--.HHZ">
      <acc value="0.0042772805" flag="0"/>
      <vel value="0.0036496917" flag="0"/>
      <psa03 value="0.0096063486" flag="0"/>
      <psa10 value="0.0075130392" flag="0"/>
      <psa30 value="0.0004377986" flag="0"/>
    </comp>
    <comp name="--.HHN">
      <acc value="0.0060697107" flag="0"/>
      <vel value="0.0058406165" flag="0"/>
      <psa03 value="0.0132415584" flag="0"/>
      <psa10 value="0.0071329516" flag="0"/>
      <psa30 value="0.0005158434" flag="0"/>
    </comp>
  </station>
  <station code="CEYT" name="CEYT" netid="KO" insttype="CMG-3ESP" lat="37.0105" lon="35.7478">
    <comp name="--.HHE">
      <acc value="0.0106131151" flag="0"/>
      <vel value="0.0080583698" flag="0"/>
      <psa03 value="0.0358699968" flag="0"/>
      <psa10 value="0.0113260833" flag="0"/>
      <psa30 value="0.0012236793" flag="0"/>
    </comp>
    <comp name="--.HHN">
      <acc value="0.0062021488" flag="0"/>
      <vel value="0.0046065606" flag="0"/>
      <psa03 value="0.0163035821" flag="0"/>
      <psa10 value="0.0080240446" flag="0"/>
      <psa30 value="0.0006135499" flag="0"/>
    </comp>
    <comp name="--.HHZ">
      <acc value="0.0042446381" flag="0"/>
      <vel value="0.0042918496" flag="0"/>
      <psa03 value="0.0102470499" flag="0"/>
      <psa10 value="0.0065998433" flag="0"/>
      <psa30 value="0.0006537411" flag="0"/>
    </comp>
  </station>
  <station code="CMRD" name="CMRD" netid="KO" insttype="CMG-5T" lat="37.6623" lon="34.9902">
    <comp name="--.HNN">
      <acc value="0.0081364979" flag="0"/>
      <vel value="0.0050274894" flag="0"/>
      <psa03 value="0.0220236890" flag="0"/>
      <psa10 value="0.0087770710" flag="0"/>
      <psa30 value="0.0005859504" flag="0"/>
    </comp>
    <comp name="--.HNZ">
      <acc value="0.0056577010" flag="0"/>
      <vel value="0.0038038033" flag="0"/>
      <psa03 value="0.0123210597" flag="0"/>
      <psa10 value="0.0030871068" flag="0"/>
      <psa30 value="0.0004358240" flag="0"/>
    </comp>
    <comp name="--.HNE">
      <acc value="0.0063807804" flag="0"/>
      <vel value="0.0038723539" flag="0"/>
      <psa03 value="0.0167568791" flag="0"/>
      <psa10 value="0.0054108662" flag="0"/>
      <psa30 value="0.0004812122" flag="0"/>
    </comp>
  </station>
  <station code="KHMN" name="KHMN" netid="KO" insttype="CMG-5T" lat="37.3916" lon="37.1574">
    <comp name="--.HNE">
      <acc value="0.0737315091" flag="0"/>
      <vel value="0.0276598844" flag="0"/>
      <psa03 value="0.0759167447" flag="0"/>
      <psa10 value="0.0174039732" flag="0"/>
      <psa30 value="0.0013728578" flag="0"/>
    </comp>
    <comp name="--.HNN">
      <acc value="0.0494384148" flag="0"/>
      <vel value="0.0227733990" flag="0"/>
      <psa03 value="0.0847188497" flag="0"/>
      <psa10 value="0.0162211335" flag="0"/>
      <psa30 value="0.0011463095" flag="0"/>
    </comp>
    <comp name="--.HNZ">
      <acc value="0.0311376570" flag="0"/>
      <vel value="0.0102696165" flag="0"/>
      <psa03 value="0.0411834274" flag="0"/>
      <psa10 value="0.0049202990" flag="0"/>
      <psa30 value="0.0006192671" flag="0"/>
    </comp>
  </station>
  <station code="ANDN" name="ANDN" netid="TU" insttype="T" lat="37.58" lon="36.3452">
    <comp name="--.HHN">
      <acc value="0.7527844281" flag="0"/>
      <vel value="0.2361224569" flag="0"/>
      <psa03 value="1.1516063321" flag="0"/>
      <psa10 value="0.1855330758" flag="0"/>
      <psa30 value="0.0098294761" flag="0"/>
    </comp>
    <comp name="--.HHZ">
      <acc value="0.3173747532" flag="0"/>
      <vel value="0.1121392296" flag="0"/>
      <psa03 value="0.6321126056" flag="0"/>
      <psa10 value="0.2846106743" flag="0"/>
      <psa30 value="0.0086196559" flag="0"/>
    </comp>
    <comp name="--.HHE">
      <acc value="0.6545082687" flag="0"/>
      <vel value="0.2691559867" flag="0"/>
      <psa03 value="0.8205902027" flag="0"/>
      <psa10 value="0.1905791821" flag="0"/>
      <psa30 value="0.0142882707" flag="0"/>
    </comp>
  </station>
</stationlist>
