<stationlist created="1686236453">
	<station code="CMRD" name="CMRD" netid="KO" source="Bogazici University Kandilli Observatory And Earthquake Research Institute (KOERI)" insttype="" lat="37.6623" lon="34.9902">
		<comp name=".HNE" depth="0.0">
			<acc value="0.00632950924549" flag="0"/>
			<vel value="0.00394462814067" flag="0"/>
			<psa03 value="0.0169432187593" flag="0"/>
			<psa10 value="0.00540022601972" flag="0"/>
			<psa30 value="0.00050662538436" flag="0"/>
		</comp>
		<comp name=".HNN" depth="0.0">
			<acc value="0.00806156410296" flag="0"/>
			<vel value="0.00520846162207" flag="0"/>
			<psa03 value="0.0222510000612" flag="0"/>
			<psa10 value="0.00878751275459" flag="0"/>
			<psa30 value="0.000644516185619" flag="0"/>
		</comp>
		<comp name=".HNZ" depth="0.0">
			<acc value="0.00555973916859" flag="0"/>
			<vel value="0.00369217901074" flag="0"/>
			<psa03 value="0.01242103377" flag="0"/>
			<psa10 value="0.0030828804757" flag="0"/>
			<psa30 value="0.000526497221609" flag="0"/>
		</comp>
	</station>
	<station code="KHMN" name="KHMN" netid="KO" source="Bogazici University Kandilli Observatory And Earthquake Research Institute (KOERI)" insttype="" lat="37.3916" lon="37.1574">
		<comp name=".HNE" depth="0.0">
			<acc value="0.0737862079594" flag="0"/>
			<vel value="0.0276206995372" flag="0"/>
			<psa03 value="0.0762707869402" flag="0"/>
			<psa10 value="0.017425895005" flag="0"/>
			<psa30 value="0.00141712377333" flag="0"/>
		</comp>
		<comp name=".HNN" depth="0.0">
			<acc value="0.0492743857381" flag="0"/>
			<vel value="0.0227847952026" flag="0"/>
			<psa03 value="0.0861963819621" flag="0"/>
			<psa10 value="0.016221836492" flag="0"/>
			<psa30 value="0.00135147932054" flag="0"/>
		</comp>
		<comp name=".HNZ" depth="0.0">
			<acc value="0.0316861340663" flag="0"/>
			<vel value="0.0103579735134" flag="0"/>
			<psa03 value="0.0410043725884" flag="0"/>
			<psa10 value="0.00493037333179" flag="0"/>
			<psa30 value="0.000716239634862" flag="0"/>
		</comp>
	</station>
</stationlist>
