<?xml version="1.0" encoding="UTF-8" standalone="yes"?>
<!DOCTYPE earthquake SYSTEM "stationlist.dtd">
<stationlist created="" xmlns="ch.ethz.sed.shakemap.usgs.xml">
  <station code="CEYT" name="CEYT" netid="KO" insttype="CMG-3ESP" lat="37.0105" lon="35.7478">
    <comp name="--.HHE">
      <acc value="0.0106131150" flag="0"/>
      <vel value="0.0080583699" flag="0"/>
      <psa03 value="0.0358699968" flag="0"/>
      <psa10 value="0.0113260833" flag="0"/>
      <psa30 value="0.0012236639" flag="0"/>
    </comp>
    <comp name="--.HHZ">
      <acc value="0.0042446382" flag="0"/>
      <vel value="0.0042918503" flag="0"/>
      <psa03 value="0.0102470499" flag="0"/>
      <psa10 value="0.0065998433" flag="0"/>
      <psa30 value="0.0006537547" flag="0"/>
    </comp>
    <comp name="--.HHN">
      <acc value="0.0062021485" flag="0"/>
      <vel value="0.0046065615" flag="0"/>
      <psa03 value="0.0163035821" flag="0"/>
      <psa10 value="0.0080240446" flag="0"/>
      <psa30 value="0.0006135369" flag="0"/>
    </comp>
  </station>
  <station code="ANDN" name="ANDN" netid="TU" insttype="T" lat="37.58" lon="36.3452">
    <comp name="--.HHE">
      <acc value="0.6545082689" flag="0"/>
      <vel value="0.2691559867" flag="0"/>
      <psa03 value="0.8205902027" flag="0"/>
      <psa10 value="0.1905791802" flag="0"/>
      <psa30 value="0.0142884213" flag="0"/>
    </comp>
    <comp name="--.HHN">
      <acc value="0.7527844279" flag="0"/>
      <vel value="0.2361224570" flag="0"/>
      <psa03 value="1.1516063321" flag="0"/>
      <psa10 value="0.1855330780" flag="0"/>
      <psa30 value="0.0098292408" flag="0"/>
    </comp>
    <comp name="--.HHZ">
      <acc value="0.3173747535" flag="0"/>
      <vel value="0.1121392180" flag="0"/>
      <psa03 value="0.6321126056" flag="0"/>
      <psa10 value="0.2846106744" flag="0"/>
      <psa30 value="0.0086196683" flag="0"/>
    </comp>
  </station>
</stationlist>
