<?xml version="1.0" encoding="UTF-8" standalone="yes"?>
<!DOCTYPE earthquake SYSTEM "stationlist.dtd">
<stationlist created="" xmlns="ch.ethz.sed.shakemap.usgs.xml">
  <station code="CEYT" name="CEYT" netid="KO" insttype="CMG-3ESP" lat="37.0105" lon="35.7478">
    <comp name="--.HHE">
      <acc value="0.0430840255" flag="0"/>
      <vel value="0.0360240308" flag="0"/>
      <psa03 value="0.1408677209" flag="0"/>
      <psa10 value="0.0387971587" flag="0"/>
      <psa30 value="0.0055987871" flag="0"/>
    </comp>
    <comp name="--.HHN">
      <acc value="0.0330064143" flag="0"/>
      <vel value="0.0235837405" flag="0"/>
      <psa03 value="0.0751034626" flag="0"/>
      <psa10 value="0.0411052318" flag="0"/>
      <psa30 value="0.0058005975" flag="0"/>
    </comp>
    <comp name="--.HHZ">
      <acc value="0.0321960364" flag="0"/>
      <vel value="0.0333126243" flag="0"/>
      <psa03 value="0.0694722376" flag="0"/>
      <psa10 value="0.0392182020" flag="0"/>
      <psa30 value="0.0053672207" flag="0"/>
    </comp>
  </station>
  <station code="GAZ" name="GAZ" netid="KO" insttype="CMG-3T" lat="37.1721" lon="37.2096">
    <comp name="--.HHN">
      <acc value="0.0202551091" flag="0"/>
      <vel value="0.0125909818" flag="0"/>
      <psa03 value="0.0484222174" flag="0"/>
      <psa10 value="0.0136103626" flag="0"/>
      <psa30 value="0.0016725060" flag="0"/>
    </comp>
    <comp name="--.HHE">
      <acc value="0.0207878111" flag="0"/>
      <vel value="0.0163550106" flag="0"/>
      <psa03 value="0.0594027216" flag="0"/>
      <psa10 value="0.0167744603" flag="0"/>
      <psa30 value="0.0013425281" flag="0"/>
    </comp>
    <comp name="--.HHZ">
      <acc value="0.0129124728" flag="0"/>
      <vel value="0.0095623009" flag="0"/>
      <psa03 value="0.0365734881" flag="0"/>
      <psa10 value="0.0096212273" flag="0"/>
      <psa30 value="0.0011822259" flag="0"/>
    </comp>
  </station>
  <station code="TAHT" name="TAHT" netid="KO" insttype="CMG-3ESPC" lat="36.3755" lon="36.1855">
    <comp name="--.HHZ">
      <acc value="0.0161361367" flag="0"/>
      <vel value="0.0105630128" flag="0"/>
      <psa03 value="0.0329218997" flag="0"/>
      <psa10 value="0.0197388470" flag="0"/>
      <psa30 value="0.0010800044" flag="0"/>
    </comp>
    <comp name="--.HHN">
      <acc value="0.0176765236" flag="0"/>
      <vel value="0.0117202534" flag="0"/>
      <psa03 value="0.0532179600" flag="0"/>
      <psa10 value="0.0158536110" flag="0"/>
      <psa30 value="0.0012113397" flag="0"/>
    </comp>
  </station>
  <station code="ANDN" name="ANDN" netid="TU" insttype="T" lat="37.58" lon="36.3452">
    <comp name="--.HHE">
      <acc value="0.6906294153" flag="0"/>
      <vel value="0.3012701158" flag="0"/>
      <psa03 value="1.8681341856" flag="0"/>
      <psa10 value="0.2253458065" flag="0"/>
      <psa30 value="0.0115370160" flag="0"/>
    </comp>
    <comp name="--.HHZ">
      <acc value="0.3190802069" flag="0"/>
      <vel value="0.1736676563" flag="0"/>
      <psa03 value="0.8153399638" flag="0"/>
      <psa10 value="0.3232844102" flag="0"/>
      <psa30 value="0.0108381316" flag="0"/>
    </comp>
    <comp name="--.HHN">
      <acc value="0.7016083892" flag="0"/>
      <vel value="0.4185706660" flag="0"/>
      <psa03 value="2.5022473757" flag="0"/>
      <psa10 value="0.3751047340" flag="0"/>
      <psa30 value="0.0303976445" flag="0"/>
    </comp>
  </station>
</stationlist>
