<?xml version="1.0" encoding="UTF-8" standalone="yes"?>
<!DOCTYPE earthquake SYSTEM "stationlist.dtd">
<stationlist created="" xmlns="ch.ethz.sed.shakemap.usgs.xml">
  <station code="EVR" name="EVR" netid="HL" insttype="DR24" lat="38.9166" lon="21.8105">
    <comp name="--.HHE">
      <acc value="0.0031723354" flag="0"/>
      <vel value="0.0018557081" flag="0"/>
      <psa03 value="0.0086556702" flag="0"/>
      <psa10 value="0.0018226967" flag="0"/>
      <psa30 value="0.0001858884" flag="0"/>
    </comp>
    <comp name="--.HHN">
      <acc value="0.0037841820" flag="0"/>
      <vel value="0.0023433053" flag="0"/>
      <psa03 value="0.0073072959" flag="0"/>
      <psa10 value="0.0015301101" flag="0"/>
      <psa30 value="0.0002568179" flag="0"/>
    </comp>
    <comp name="--.HHZ">
      <acc value="0.0025531886" flag="0"/>
      <vel value="0.0018619571" flag="0"/>
      <psa03 value="0.0084063446" flag="0"/>
      <psa10 value="0.0024070024" flag="0"/>
      <psa30 value="0.0001572631" flag="0"/>
    </comp>
  </station>
  <station code="KZN" name="KZN" netid="HL" insttype="120" lat="40.3033" lon="21.7821">
    <comp name="--.HHE">
      <acc value="0.0145213845" flag="0"/>
      <vel value="0.0047430197" flag="0"/>
      <psa03 value="0.0387323166" flag="0"/>
      <psa10 value="0.0037123560" flag="0"/>
      <psa30 value="0.0004426642" flag="0"/>
    </comp>
    <comp name="--.HHN">
      <acc value="0.0081643409" flag="0"/>
      <vel value="0.0031701292" flag="0"/>
      <psa03 value="0.0163842876" flag="0"/>
      <psa10 value="0.0021220479" flag="0"/>
      <psa30 value="0.0005941940" flag="0"/>
    </comp>
    <comp name="--.HHZ">
      <acc value="0.0041927904" flag="0"/>
      <vel value="0.0016752625" flag="0"/>
      <psa03 value="0.0092009962" flag="0"/>
      <psa10 value="0.0016082969" flag="0"/>
      <psa30 value="0.0003657111" flag="0"/>
    </comp>
  </station>
  <station code="TETR" name="TETR" netid="HL" insttype="60" lat="39.3445" lon="21.2747">
    <comp name="--.HHN">
      <acc value="0.0186948583" flag="0"/>
      <vel value="0.0062100625" flag="0"/>
      <psa03 value="0.0250959064" flag="0"/>
      <psa10 value="0.0028852783" flag="0"/>
      <psa30 value="0.0004438128" flag="0"/>
    </comp>
    <comp name="--.HHE">
      <acc value="0.0222685927" flag="0"/>
      <vel value="0.0072559629" flag="0"/>
      <psa03 value="0.0537276606" flag="0"/>
      <psa10 value="0.0055762576" flag="0"/>
      <psa30 value="0.0005961628" flag="0"/>
    </comp>
    <comp name="--.HHZ">
      <acc value="0.0063134976" flag="0"/>
      <vel value="0.0025698255" flag="0"/>
      <psa03 value="0.0146383792" flag="0"/>
      <psa10 value="0.0020393693" flag="0"/>
      <psa30 value="0.0002848352" flag="0"/>
    </comp>
  </station>
  <station code="THL" name="THL" netid="HL" insttype="120" lat="39.5647" lon="22.0144">
    <comp name="--.HHZ">
      <acc value="0.0094758634" flag="0"/>
      <vel value="0.0044744697" flag="0"/>
      <psa03 value="0.0169940637" flag="0"/>
      <psa10 value="0.0040720293" flag="0"/>
      <psa30 value="0.0005014728" flag="0"/>
    </comp>
    <comp name="--.HHE">
      <acc value="0.0172607573" flag="0"/>
      <vel value="0.0082559159" flag="0"/>
      <psa03 value="0.0252277399" flag="0"/>
      <psa10 value="0.0068909125" flag="0"/>
      <psa30 value="0.0011588882" flag="0"/>
    </comp>
    <comp name="--.HHN">
      <acc value="0.0151166299" flag="0"/>
      <vel value="0.0087350275" flag="0"/>
      <psa03 value="0.0433185621" flag="0"/>
      <psa10 value="0.0076000232" flag="0"/>
      <psa30 value="0.0010835744" flag="0"/>
    </comp>
  </station>
  <station code="PRMD" name="PRMD" netid="HP" insttype="120P," lat="39.5299" lon="21.0965">
    <comp name="--.HHN">
      <acc value="0.0065880571" flag="0"/>
      <vel value="0.0037225763" flag="0"/>
      <psa03 value="0.0170437318" flag="0"/>
      <psa10 value="0.0053864324" flag="0"/>
      <psa30 value="0.0003458153" flag="0"/>
    </comp>
    <comp name="--.HHE">
      <acc value="0.0073335050" flag="0"/>
      <vel value="0.0035972625" flag="0"/>
      <psa03 value="0.0212628599" flag="0"/>
      <psa10 value="0.0020358091" flag="0"/>
      <psa30 value="0.0006746111" flag="0"/>
    </comp>
    <comp name="--.HHZ">
      <acc value="0.0058480570" flag="0"/>
      <vel value="0.0025369557" flag="0"/>
      <psa03 value="0.0132572006" flag="0"/>
      <psa10 value="0.0015838767" flag="0"/>
      <psa30 value="0.0003996412" flag="0"/>
    </comp>
  </station>
  <station code="AGG" name="AGG" netid="HT" insttype="120P," lat="39.0211" lon="22.336">
    <comp name="--.HHE">
      <acc value="0.0064349958" flag="0"/>
      <vel value="0.0031129457" flag="0"/>
      <psa03 value="0.0224810137" flag="0"/>
      <psa10 value="0.0031237940" flag="0"/>
      <psa30 value="0.0001845645" flag="0"/>
    </comp>
    <comp name="--.HHN">
      <acc value="0.0044997101" flag="0"/>
      <vel value="0.0028673168" flag="0"/>
      <psa03 value="0.0186751091" flag="0"/>
      <psa10 value="0.0018155679" flag="0"/>
      <psa30 value="0.0001916307" flag="0"/>
    </comp>
    <comp name="--.HHZ">
      <acc value="0.0028268188" flag="0"/>
      <vel value="0.0018091589" flag="0"/>
      <psa03 value="0.0074576198" flag="0"/>
      <psa10 value="0.0017176268" flag="0"/>
      <psa30 value="0.0000991199" flag="0"/>
    </comp>
  </station>
  <station code="LIT" name="LIT" netid="HT" insttype="100" lat="40.1033" lon="22.4892">
    <comp name="--.HHN">
      <acc value="0.0199294465" flag="0"/>
      <vel value="0.0065577415" flag="0"/>
      <psa03 value="0.0412629781" flag="0"/>
      <psa10 value="0.0039887066" flag="0"/>
      <psa30 value="0.0011735676" flag="0"/>
    </comp>
    <comp name="--.HHE">
      <acc value="0.0126278431" flag="0"/>
      <vel value="0.0049520403" flag="0"/>
      <psa03 value="0.0409344582" flag="0"/>
      <psa10 value="0.0042013891" flag="0"/>
      <psa30 value="0.0003514327" flag="0"/>
    </comp>
    <comp name="--.HHZ">
      <acc value="0.0064694882" flag="0"/>
      <vel value="0.0031085512" flag="0"/>
      <psa03 value="0.0227868841" flag="0"/>
      <psa10 value="0.0024159585" flag="0"/>
      <psa30 value="0.0005078693" flag="0"/>
    </comp>
  </station>
  <station code="NEST" name="NEST" netid="HT" insttype="120P," lat="40.4147" lon="21.0489">
    <comp name="--.HHZ">
      <acc value="0.0019154383" flag="0"/>
      <vel value="0.0010420990" flag="0"/>
      <psa03 value="0.0064598501" flag="0"/>
      <psa10 value="0.0009744389" flag="0"/>
      <psa30 value="0.0001477233" flag="0"/>
    </comp>
    <comp name="--.HHE">
      <acc value="0.0022529464" flag="0"/>
      <vel value="0.0010757908" flag="0"/>
      <psa03 value="0.0052435848" flag="0"/>
      <psa10 value="0.0006761340" flag="0"/>
      <psa30 value="0.0002458914" flag="0"/>
    </comp>
    <comp name="--.HHN">
      <acc value="0.0015638870" flag="0"/>
      <vel value="0.0008060434" flag="0"/>
      <psa03 value="0.0028325455" flag="0"/>
      <psa10 value="0.0010811204" flag="0"/>
      <psa30 value="0.0002727557" flag="0"/>
    </comp>
  </station>
  <station code="TYRN" name="TYRN" netid="HT" insttype="120P," lat="39.711" lon="22.2325">
    <comp name="--.HHE">
      <acc value="0.0132278148" flag="0"/>
      <vel value="0.0078481482" flag="0"/>
      <psa03 value="0.0310377910" flag="0"/>
      <psa10 value="0.0064644901" flag="0"/>
      <psa30 value="0.0010098891" flag="0"/>
    </comp>
    <comp name="--.HHN">
      <acc value="0.0085065367" flag="0"/>
      <vel value="0.0047283660" flag="0"/>
      <psa03 value="0.0192156367" flag="0"/>
      <psa10 value="0.0068214467" flag="0"/>
      <psa30 value="0.0009521784" flag="0"/>
    </comp>
    <comp name="--.HHZ">
      <acc value="0.0152743858" flag="0"/>
      <vel value="0.0069080613" flag="0"/>
      <psa03 value="0.0259906281" flag="0"/>
      <psa10 value="0.0067645443" flag="0"/>
      <psa30 value="0.0010952603" flag="0"/>
    </comp>
  </station>
  <station code="THL" name="THL" netid="MN" insttype="" lat="39.5647" lon="22.0144">
    <comp name="--.HHE">
      <acc value="0.0172607573" flag="0"/>
      <vel value="0.0082559159" flag="0"/>
      <psa03 value="0.0252277399" flag="0"/>
      <psa10 value="0.0068909125" flag="0"/>
      <psa30 value="0.0011588882" flag="0"/>
    </comp>
    <comp name="--.HHN">
      <acc value="0.0151166299" flag="0"/>
      <vel value="0.0087350275" flag="0"/>
      <psa03 value="0.0433185621" flag="0"/>
      <psa10 value="0.0076000232" flag="0"/>
      <psa30 value="0.0010835744" flag="0"/>
    </comp>
    <comp name="--.HHZ">
      <acc value="0.0094758634" flag="0"/>
      <vel value="0.0044744697" flag="0"/>
      <psa03 value="0.0169940637" flag="0"/>
      <psa10 value="0.0040720293" flag="0"/>
      <psa30 value="0.0005014728" flag="0"/>
    </comp>
  </station>
</stationlist>
