<?xml version="1.0" encoding="UTF-8" standalone="yes"?>
<!DOCTYPE earthquake SYSTEM "stationlist.dtd">
<stationlist created="" xmlns="ch.ethz.sed.shakemap.usgs.xml">
  <station code="SPA0" name="SPA0" netid="NO" insttype="CMG-3T" lat="78.1777" lon="16.37">
    <comp name="00.HHZ">
      <acc value="0.0028059570" flag="0"/>
      <vel value="0.0016574130" flag="0"/>
      <psa03 value="0.0060463683" flag="0"/>
      <psa10 value="0.0025016765" flag="0"/>
      <psa30 value="0.0001596539" flag="0"/>
    </comp>
    <comp name="00.HHN">
      <acc value="0.0035364575" flag="0"/>
      <vel value="0.0028155355" flag="0"/>
      <psa03 value="0.0104987944" flag="0"/>
      <psa10 value="0.0043556295" flag="0"/>
      <psa30 value="0.0002255730" flag="0"/>
    </comp>
    <comp name="00.HHE">
      <acc value="0.0039550324" flag="0"/>
      <vel value="0.0023215745" flag="0"/>
      <psa03 value="0.0129056093" flag="0"/>
      <psa10 value="0.0032479475" flag="0"/>
      <psa30 value="0.0002289148" flag="0"/>
    </comp>
  </station>
  <station code="SPA1" name="SPA1" netid="NO" insttype="CMG-3T" lat="78.1797" lon="16.3755">
    <comp name="00.HHZ">
      <acc value="0.0032205413" flag="0"/>
      <vel value="0.0016315249" flag="0"/>
      <psa03 value="0.0051592751" flag="0"/>
      <psa10 value="0.0021455136" flag="0"/>
      <psa30 value="0.0001488076" flag="0"/>
    </comp>
  </station>
  <station code="SPA2" name="SPA2" netid="NO" insttype="CMG-3T" lat="78.1759" lon="16.3766">
    <comp name="00.HHZ">
      <acc value="0.0035840045" flag="0"/>
      <vel value="0.0016924211" flag="0"/>
      <psa03 value="0.0056932879" flag="0"/>
      <psa10 value="0.0027471680" flag="0"/>
      <psa30 value="0.0001537127" flag="0"/>
    </comp>
  </station>
  <station code="SPA3" name="SPA3" netid="NO" insttype="CMG-3T" lat="78.1773" lon="16.3588">
    <comp name="00.HHZ">
      <acc value="0.0029298043" flag="0"/>
      <vel value="0.0017300221" flag="0"/>
      <psa03 value="0.0063198706" flag="0"/>
      <psa10 value="0.0023284577" flag="0"/>
      <psa30 value="0.0001590654" flag="0"/>
    </comp>
  </station>
  <station code="SPB1" name="SPB1" netid="NO" insttype="CMG-3T" lat="78.1796" lon="16.3906">
    <comp name="00.HHZ">
      <acc value="0.0038205859" flag="0"/>
      <vel value="0.0017548508" flag="0"/>
      <psa03 value="0.0057205576" flag="0"/>
      <psa10 value="0.0024391741" flag="0"/>
      <psa30 value="0.0001419203" flag="0"/>
    </comp>
    <comp name="00.HHE">
      <acc value="0.0038462829" flag="0"/>
      <vel value="0.0030159969" flag="0"/>
      <psa03 value="0.0115444155" flag="0"/>
      <psa10 value="0.0030394211" flag="0"/>
      <psa30 value="0.0002595727" flag="0"/>
    </comp>
    <comp name="00.HHN">
      <acc value="0.0059748778" flag="0"/>
      <vel value="0.0035893326" flag="0"/>
      <psa03 value="0.0116247187" flag="0"/>
      <psa10 value="0.0036104994" flag="0"/>
      <psa30 value="0.0001833177" flag="0"/>
    </comp>
  </station>
  <station code="SPB2" name="SPB2" netid="NO" insttype="CMG-3T" lat="78.1742" lon="16.3846">
    <comp name="00.HHE">
      <acc value="0.0063985909" flag="0"/>
      <vel value="0.0036535949" flag="0"/>
      <psa03 value="0.0204981495" flag="0"/>
      <psa10 value="0.0033267508" flag="0"/>
      <psa30 value="0.0002078363" flag="0"/>
    </comp>
    <comp name="00.HHN">
      <acc value="0.0055562840" flag="0"/>
      <vel value="0.0029608282" flag="0"/>
      <psa03 value="0.0144025899" flag="0"/>
      <psa10 value="0.0031124472" flag="0"/>
      <psa30 value="0.0001799682" flag="0"/>
    </comp>
    <comp name="00.HHZ">
      <acc value="0.0035331047" flag="0"/>
      <vel value="0.0016499913" flag="0"/>
      <psa03 value="0.0078158700" flag="0"/>
      <psa10 value="0.0028851758" flag="0"/>
      <psa30 value="0.0001520135" flag="0"/>
    </comp>
  </station>
  <station code="SPB3" name="SPB3" netid="NO" insttype="CMG-3T" lat="78.1737" lon="16.3584">
    <comp name="00.HHE">
      <acc value="0.0034767735" flag="0"/>
      <vel value="0.0026798016" flag="0"/>
      <psa03 value="0.0127309507" flag="0"/>
      <psa10 value="0.0037650288" flag="0"/>
      <psa30 value="0.0001865294" flag="0"/>
    </comp>
    <comp name="00.HHN">
      <acc value="0.0045864685" flag="0"/>
      <vel value="0.0026263209" flag="0"/>
      <psa03 value="0.0128219663" flag="0"/>
      <psa10 value="0.0039477056" flag="0"/>
      <psa30 value="0.0002184961" flag="0"/>
    </comp>
    <comp name="00.HHZ">
      <acc value="0.0030945661" flag="0"/>
      <vel value="0.0016503261" flag="0"/>
      <psa03 value="0.0054268821" flag="0"/>
      <psa10 value="0.0028984850" flag="0"/>
      <psa30 value="0.0001594394" flag="0"/>
    </comp>
  </station>
  <station code="SPB4" name="SPB4" netid="NO" insttype="CMG-3T" lat="78.1789" lon="16.3482">
    <comp name="00.HHN">
      <acc value="0.0019041440" flag="0"/>
      <vel value="0.0012644794" flag="0"/>
      <psa03 value="0.0047379202" flag="0"/>
      <psa10 value="0.0017512494" flag="0"/>
      <psa30 value="0.0000650218" flag="0"/>
    </comp>
    <comp name="00.HHZ">
      <acc value="0.0031942935" flag="0"/>
      <vel value="0.0017883811" flag="0"/>
      <psa03 value="0.0055497938" flag="0"/>
      <psa10 value="0.0022127419" flag="0"/>
      <psa30 value="0.0001559704" flag="0"/>
    </comp>
    <comp name="00.HHE">
      <acc value="0.0020320055" flag="0"/>
      <vel value="0.0008131469" flag="0"/>
      <psa03 value="0.0032719659" flag="0"/>
      <psa10 value="0.0012347193" flag="0"/>
      <psa30 value="0.0000612688" flag="0"/>
    </comp>
  </station>
  <station code="SPB5" name="SPB5" netid="NO" insttype="CMG-3T" lat="78.1823" lon="16.3683">
    <comp name="00.HHE">
      <acc value="0.0031020631" flag="0"/>
      <vel value="0.0023858194" flag="0"/>
      <psa03 value="0.0109644428" flag="0"/>
      <psa10 value="0.0033356140" flag="0"/>
      <psa30 value="0.0002228797" flag="0"/>
    </comp>
    <comp name="00.HHN">
      <acc value="0.0029565914" flag="0"/>
      <vel value="0.0017316991" flag="0"/>
      <psa03 value="0.0101236969" flag="0"/>
      <psa10 value="0.0029407218" flag="0"/>
      <psa30 value="0.0001752946" flag="0"/>
    </comp>
    <comp name="00.HHZ">
      <acc value="0.0038039320" flag="0"/>
      <vel value="0.0024558219" flag="0"/>
      <psa03 value="0.0101673835" flag="0"/>
      <psa10 value="0.0024791510" flag="0"/>
      <psa30 value="0.0001430938" flag="0"/>
    </comp>
  </station>
</stationlist>
