<?xml version="1.0" encoding="UTF-8" standalone="yes"?>
<!DOCTYPE earthquake SYSTEM "stationlist.dtd">
<stationlist created="" xmlns="ch.ethz.sed.shakemap.usgs.xml">
  <station code="ALT" name="ALT" netid="KO" insttype="CMG-5T" commtype="DIG" lat="39.0541" lon="30.1104">
    <comp name="--.HNN">
      <acc value="0.1066203684" flag="0"/>
      <vel value="0.0189175044" flag="0"/>
      <psa03 value="0.1100814833" flag="0"/>
      <psa10 value="0.0048804975" flag="0"/>
      <psa30 value="0.0010619502" flag="0"/>
    </comp>
    <comp name="--.HNE">
      <acc value="0.0931104407" flag="0"/>
      <vel value="0.0171644482" flag="0"/>
      <psa03 value="0.0387567737" flag="0"/>
      <psa10 value="0.0048168211" flag="0"/>
      <psa30 value="0.0015593437" flag="0"/>
    </comp>
    <comp name="--.HNZ">
      <acc value="0.0743614989" flag="0"/>
      <vel value="0.0108935009" flag="0"/>
      <psa03 value="0.0266589518" flag="0"/>
      <psa10 value="0.0040151997" flag="0"/>
      <psa30 value="0.0007635524" flag="0"/>
    </comp>
  </station>
  <station code="BAKL" name="BAKL" netid="KO" insttype="CMG-6T" commtype="DIG" lat="37.9793" lon="29.6135">
    <comp name="--.HHE">
      <acc value="0.0065428240" flag="0"/>
      <vel value="0.0054818013" flag="0"/>
      <psa03 value="0.0148341626" flag="0"/>
      <psa10 value="0.0075981326" flag="0"/>
      <psa30 value="0.0004860407" flag="0"/>
    </comp>
    <comp name="--.HHN">
      <acc value="0.0072169976" flag="0"/>
      <vel value="0.0095415152" flag="0"/>
      <psa03 value="0.0119297928" flag="0"/>
      <psa10 value="0.0085435652" flag="0"/>
      <psa30 value="0.0007464442" flag="0"/>
    </comp>
    <comp name="--.HHZ">
      <acc value="0.0039779957" flag="0"/>
      <vel value="0.0042981830" flag="0"/>
      <psa03 value="0.0108436912" flag="0"/>
      <psa10 value="0.0053006216" flag="0"/>
      <psa30 value="0.0005605844" flag="0"/>
    </comp>
  </station>
  <station code="BLVD" name="BLVD" netid="KO" insttype="CMG-6T" commtype="DIG" lat="38.7946" lon="31.095">
    <comp name="--.HHE">
      <acc value="0.0021445421" flag="0"/>
      <vel value="0.0009147066" flag="0"/>
      <psa03 value="0.0044032221" flag="0"/>
      <psa10 value="0.0012004858" flag="0"/>
      <psa30 value="0.0002014780" flag="0"/>
    </comp>
    <comp name="--.HHN">
      <acc value="0.0019556033" flag="0"/>
      <vel value="0.0010865847" flag="0"/>
      <psa03 value="0.0025245842" flag="0"/>
      <psa10 value="0.0016130179" flag="0"/>
      <psa30 value="0.0001909773" flag="0"/>
    </comp>
    <comp name="--.HHZ">
      <acc value="0.0015226819" flag="0"/>
      <vel value="0.0010306817" flag="0"/>
      <psa03 value="0.0015582626" flag="0"/>
      <psa10 value="0.0011872776" flag="0"/>
      <psa30 value="0.0002485405" flag="0"/>
    </comp>
  </station>
  <station code="DST" name="DST" netid="KO" insttype="CMG-5T" commtype="DIG" lat="39.6041" lon="28.6267">
    <comp name="--.HNE">
      <acc value="0.0148282522" flag="0"/>
      <vel value="0.0096877679" flag="0"/>
      <psa03 value="0.0259633704" flag="0"/>
      <psa10 value="0.0155901790" flag="0"/>
      <psa30 value="0.0006840711" flag="0"/>
    </comp>
    <comp name="--.HNZ">
      <acc value="0.0169889644" flag="0"/>
      <vel value="0.0088683506" flag="0"/>
      <psa03 value="0.0510833598" flag="0"/>
      <psa10 value="0.0053452689" flag="0"/>
      <psa30 value="0.0004373781" flag="0"/>
    </comp>
    <comp name="--.HNN">
      <acc value="0.0164350978" flag="0"/>
      <vel value="0.0091047541" flag="0"/>
      <psa03 value="0.0269376051" flag="0"/>
      <psa10 value="0.0188311058" flag="0"/>
      <psa30 value="0.0006550135" flag="0"/>
    </comp>
  </station>
  <station code="KHL" name="KHL" netid="KO" insttype="CMG-5T" commtype="DIG" lat="38.3231" lon="29.5286">
    <comp name="--.HNZ">
      <acc value="0.0159786819" flag="0"/>
      <vel value="0.0042740074" flag="0"/>
      <psa03 value="0.0317022707" flag="0"/>
      <psa10 value="0.0039387324" flag="0"/>
      <psa30 value="0.0005217046" flag="0"/>
    </comp>
    <comp name="--.HNE">
      <acc value="0.0246725931" flag="0"/>
      <vel value="0.0068466365" flag="0"/>
      <psa03 value="0.0428799580" flag="0"/>
      <psa10 value="0.0065920229" flag="0"/>
      <psa30 value="0.0003959791" flag="0"/>
    </comp>
    <comp name="--.HNN">
      <acc value="0.0251300508" flag="0"/>
      <vel value="0.0058366519" flag="0"/>
      <psa03 value="0.0385500537" flag="0"/>
      <psa10 value="0.0032492768" flag="0"/>
      <psa30 value="0.0010440464" flag="0"/>
    </comp>
  </station>
  <station code="KULA" name="KULA" netid="KO" insttype="CMG-3T" commtype="DIG" lat="38.5145" lon="28.6607">
    <comp name="--.HHE">
      <acc value="0.0124336865" flag="0"/>
      <vel value="0.0053054139" flag="0"/>
      <psa03 value="0.0155645673" flag="0"/>
      <psa10 value="0.0054671236" flag="0"/>
      <psa30 value="0.0004484654" flag="0"/>
    </comp>
    <comp name="--.HHN">
      <acc value="0.0118167068" flag="0"/>
      <vel value="0.0052676526" flag="0"/>
      <psa03 value="0.0140318372" flag="0"/>
      <psa10 value="0.0058099441" flag="0"/>
      <psa30 value="0.0005708780" flag="0"/>
    </comp>
    <comp name="--.HHZ">
      <acc value="0.0133739710" flag="0"/>
      <vel value="0.0059001303" flag="0"/>
      <psa03 value="0.0138485994" flag="0"/>
      <psa10 value="0.0066361899" flag="0"/>
      <psa30 value="0.0006727932" flag="0"/>
    </comp>
  </station>
  <station code="SDAG" name="SDAG" netid="KO" insttype="CMG-6T" commtype="DIG" lat="38.4396" lon="30.9175">
    <comp name="--.HHE">
      <acc value="0.0020332860" flag="0"/>
      <vel value="0.0015194739" flag="0"/>
      <psa03 value="0.0054072414" flag="0"/>
      <psa10 value="0.0042446729" flag="0"/>
      <psa30 value="0.0003792424" flag="0"/>
    </comp>
    <comp name="--.HHN">
      <acc value="0.0021847181" flag="0"/>
      <vel value="0.0016599322" flag="0"/>
      <psa03 value="0.0067745848" flag="0"/>
      <psa10 value="0.0013437408" flag="0"/>
      <psa30 value="0.0001801798" flag="0"/>
    </comp>
    <comp name="--.HHZ">
      <acc value="0.0025660748" flag="0"/>
      <vel value="0.0008453622" flag="0"/>
      <psa03 value="0.0044986453" flag="0"/>
      <psa10 value="0.0013330304" flag="0"/>
      <psa30 value="0.0002048291" flag="0"/>
    </comp>
  </station>
  <station code="SHAP" name="SHAP" netid="KO" insttype="CMG-5T" commtype="DIG" lat="39.0231" lon="29.222">
    <comp name="--.HNE">
      <acc value="0.1192041741" flag="0"/>
      <vel value="0.0216092272" flag="0"/>
      <psa03 value="0.0903665076" flag="0"/>
      <psa10 value="0.0075435365" flag="0"/>
      <psa30 value="0.0007988972" flag="0"/>
    </comp>
    <comp name="--.HNN">
      <acc value="0.2551291056" flag="0"/>
      <vel value="0.0353303342" flag="0"/>
      <psa03 value="0.0605352422" flag="0"/>
      <psa10 value="0.0063860830" flag="0"/>
      <psa30 value="0.0008424817" flag="0"/>
    </comp>
    <comp name="--.HNZ">
      <acc value="0.1376688059" flag="0"/>
      <vel value="0.0171392060" flag="0"/>
      <psa03 value="0.0564375703" flag="0"/>
      <psa10 value="0.0049727375" flag="0"/>
      <psa30 value="0.0004751012" flag="0"/>
    </comp>
  </station>
  <station code="SHUT" name="SHUT" netid="KO" insttype="CMG-3T" commtype="DIG" lat="38.553" lon="30.551">
    <comp name="--.HHN">
      <acc value="0.0120854131" flag="0"/>
      <vel value="0.0052357684" flag="0"/>
      <psa03 value="0.0219550491" flag="0"/>
      <psa10 value="0.0050681924" flag="0"/>
      <psa30 value="0.0006612450" flag="0"/>
    </comp>
    <comp name="--.HHE">
      <acc value="0.0000135521" flag="0"/>
      <vel value="0.0000042703" flag="0"/>
      <psa03 value="0.0000236030" flag="0"/>
      <psa10 value="0.0000057575" flag="0"/>
      <psa30 value="0.0000003690" flag="0"/>
    </comp>
    <comp name="--.HHZ">
      <acc value="0.0085808678" flag="0"/>
      <vel value="0.0031242215" flag="0"/>
      <psa03 value="0.0133692596" flag="0"/>
      <psa10 value="0.0037199610" flag="0"/>
      <psa30 value="0.0006615639" flag="0"/>
    </comp>
  </station>
  <station code="SMAA" name="SMAA" netid="KO" insttype="CMG-5T" commtype="DIG" lat="39.1005" lon="28.9805">
    <comp name="--.HNZ">
      <acc value="0.0658066052" flag="0"/>
      <vel value="0.0096705093" flag="0"/>
      <psa03 value="0.0205450374" flag="0"/>
      <psa10 value="0.0097206679" flag="0"/>
      <psa30 value="0.0007067633" flag="0"/>
    </comp>
    <comp name="--.HNE">
      <acc value="0.0578348513" flag="0"/>
      <vel value="0.0272553474" flag="0"/>
      <psa03 value="0.1525334938" flag="0"/>
      <psa10 value="0.0219214028" flag="0"/>
      <psa30 value="0.0021330367" flag="0"/>
    </comp>
    <comp name="--.HNN">
      <acc value="0.0643635161" flag="0"/>
      <vel value="0.0402427192" flag="0"/>
      <psa03 value="0.1406090563" flag="0"/>
      <psa10 value="0.0244375685" flag="0"/>
      <psa30 value="0.0019359582" flag="0"/>
    </comp>
  </station>
  <station code="TVSB" name="TVSB" netid="KO" insttype="CMG-3T" commtype="DIG" lat="39.4497" lon="29.4615">
    <comp name="--.HHN">
      <acc value="0.1470098055" flag="0"/>
      <vel value="0.0386627729" flag="0"/>
      <psa03 value="0.0801009325" flag="0"/>
      <psa10 value="0.0150960687" flag="0"/>
      <psa30 value="0.0012651057" flag="0"/>
    </comp>
    <comp name="--.HHZ">
      <acc value="0.0892316961" flag="0"/>
      <vel value="0.0183324642" flag="0"/>
      <psa03 value="0.0421668257" flag="0"/>
      <psa10 value="0.0095478325" flag="0"/>
      <psa30 value="0.0008229276" flag="0"/>
    </comp>
    <comp name="--.HHE">
      <acc value="0.1083041256" flag="0"/>
      <vel value="0.0266144260" flag="0"/>
      <psa03 value="0.0999744366" flag="0"/>
      <psa10 value="0.0111446336" flag="0"/>
      <psa30 value="0.0011878581" flag="0"/>
    </comp>
  </station>
  <station code="BORA" name="BORA" netid="TU" insttype="T" commtype="DIG" lat="39.8801" lon="30.4534">
    <comp name="--.HHZ">
      <acc value="0.0150356842" flag="0"/>
      <vel value="0.0027888203" flag="0"/>
      <psa03 value="0.0050163235" flag="0"/>
      <psa10 value="0.0016405806" flag="0"/>
      <psa30 value="0.0004985230" flag="0"/>
    </comp>
    <comp name="--.HHN">
      <acc value="0.0078763055" flag="0"/>
      <vel value="0.0042734724" flag="0"/>
      <psa03 value="0.0168416339" flag="0"/>
      <psa10 value="0.0037766054" flag="0"/>
      <psa30 value="0.0004263612" flag="0"/>
    </comp>
    <comp name="--.HHE">
      <acc value="0.0074567189" flag="0"/>
      <vel value="0.0037233482" flag="0"/>
      <psa03 value="0.0200789027" flag="0"/>
      <psa10 value="0.0034998581" flag="0"/>
      <psa30 value="0.0002572543" flag="0"/>
    </comp>
  </station>
</stationlist>
