<stationlist created="1778069533">
	<station code="IMMV" name="IMMV" netid="GE" source="GEOFON" insttype="" lat="35.4606" lon="23.9811">
		<comp name="--.HNE" depth="0.0">
			<acc value="0.00165569069632232" flag="0"/>
			<vel value="0.00229043835628192" flag="0"/>
			<psa03 value="0.00581648686037533" flag="0"/>
			<psa10 value="0.00474356874566917" flag="0"/>
			<psa30 value="0.000812965894253998" flag="0"/>
		</comp>
		<comp name="--.HNN" depth="0.0">
			<acc value="0.00190789601967268" flag="0"/>
			<vel value="0.00248302894146376" flag="0"/>
			<psa03 value="0.00416102521549927" flag="0"/>
			<psa10 value="0.00304425973830721" flag="0"/>
			<psa30 value="0.000716770150024713" flag="0"/>
		</comp>
		<comp name="--.HNZ" depth="0.0">
			<acc value="0.00119301728416482" flag="0"/>
			<vel value="0.00164188198343668" flag="0"/>
			<psa03 value="0.00344514990960693" flag="0"/>
			<psa10 value="0.00345901999365859" flag="0"/>
			<psa30 value="0.000430867449733957" flag="0"/>
		</comp>
	</station>
	<station code="SIT2" name="SIT2" netid="HI" source="ITSAK Strong Motion Network" insttype="" lat="35.2059" lon="26.107">
		<comp name="--.HNE" depth="0.0">
			<acc value="0.0230716131943555" flag="0"/>
			<vel value="0.017466733327033" flag="0"/>
			<psa03 value="0.0772697908297553" flag="0"/>
			<psa10 value="0.0164494722632076" flag="0"/>
			<psa30 value="0.00153152573254344" flag="0"/>
		</comp>
		<comp name="--.HNN" depth="0.0">
			<acc value="0.0344095629270173" flag="0"/>
			<vel value="0.0253441822040732" flag="0"/>
			<psa03 value="0.0773592752429919" flag="0"/>
			<psa10 value="0.0175487882798185" flag="0"/>
			<psa30 value="0.00327602436858986" flag="0"/>
		</comp>
		<comp name="--.HNZ" depth="0.0">
			<acc value="0.0156489539605989" flag="0"/>
			<vel value="0.00744014833410884" flag="0"/>
			<psa03 value="0.0355253120549078" flag="0"/>
			<psa10 value="0.00492880148106882" flag="0"/>
			<psa30 value="0.00227648347273767" flag="0"/>
		</comp>
	</station>
	<station code="IACM" name="IACM" netid="HL" source="National Observatory of Athens Seismic Network" insttype="" lat="35.3058" lon="25.0709">
		<comp name="--.HNE" depth="0.0">
			<acc value="0.0188473354367125" flag="0"/>
			<vel value="0.0213595105314807" flag="0"/>
			<psa03 value="0.0310958335996989" flag="0"/>
			<psa10 value="0.0326653902078678" flag="0"/>
			<psa30 value="0.00398563576555565" flag="0"/>
		</comp>
		<comp name="--.HNN" depth="0.0">
			<acc value="0.0139728197469009" flag="0"/>
			<vel value="0.0173354628599002" flag="0"/>
			<psa03 value="0.0314090290460268" flag="0"/>
			<psa10 value="0.0265003615579362" flag="0"/>
			<psa30 value="0.00293195679969535" flag="0"/>
		</comp>
		<comp name="--.HNZ" depth="0.0">
			<acc value="0.0102486783099445" flag="0"/>
			<vel value="0.00952601663862592" flag="0"/>
			<psa03 value="0.0325723264181018" flag="0"/>
			<psa10 value="0.0108039006321141" flag="0"/>
			<psa30 value="0.00130691985531972" flag="0"/>
		</comp>
	</station>
</stationlist>
