<?xml version="1.0" encoding="UTF-8" standalone="yes"?>
<!DOCTYPE earthquake SYSTEM "stationlist.dtd">
<stationlist created="" xmlns="ch.ethz.sed.shakemap.usgs.xml">
  <station code="ZKR" name="ZKR" netid="GE" insttype="STS-2/N" lat="35.1147" lon="26.2169">
    <comp name="--.HHE">
      <acc value="0.0121569989" flag="0"/>
      <vel value="0.0067677675" flag="0"/>
      <psa03 value="0.0236621911" flag="0"/>
      <psa10 value="0.0102744641" flag="0"/>
      <psa30 value="0.0004876405" flag="0"/>
    </comp>
    <comp name="--.HHN">
      <acc value="0.0072892980" flag="0"/>
      <vel value="0.0037666856" flag="0"/>
      <psa03 value="0.0156791580" flag="0"/>
      <psa10 value="0.0034034973" flag="0"/>
      <psa30 value="0.0003455298" flag="0"/>
    </comp>
    <comp name="--.HHZ">
      <acc value="0.0099184370" flag="0"/>
      <vel value="0.0031046917" flag="0"/>
      <psa03 value="0.0083877481" flag="0"/>
      <psa10 value="0.0046780114" flag="0"/>
      <psa30 value="0.0004316702" flag="0"/>
    </comp>
  </station>
  <station code="IDI" name="IDI" netid="MN" insttype="" lat="35.288" lon="24.89">
    <comp name="--.HHN">
      <acc value="0.0649009507" flag="0"/>
      <vel value="0.0165820242" flag="0"/>
      <psa03 value="0.1231928666" flag="0"/>
      <psa10 value="0.0102945038" flag="0"/>
      <psa30 value="0.0007095666" flag="0"/>
    </comp>
    <comp name="--.HHZ">
      <acc value="0.0506863411" flag="0"/>
      <vel value="0.0137409613" flag="0"/>
      <psa03 value="0.1426965533" flag="0"/>
      <psa10 value="0.0074134212" flag="0"/>
      <psa30 value="0.0006428487" flag="0"/>
    </comp>
    <comp name="--.HHE">
      <acc value="0.0645794404" flag="0"/>
      <vel value="0.0162624154" flag="0"/>
      <psa03 value="0.0995424143" flag="0"/>
      <psa10 value="0.0105485815" flag="0"/>
      <psa30 value="0.0005935538" flag="0"/>
    </comp>
  </station>
</stationlist>
