<stationlist created="1720276283">
	<station code="ABEA" name="ABEA" netid="HC" source="Seismological Network of Crete (HC)" insttype="" lat="35.5163" lon="24.0113">
		<comp name=".HNE" depth="0.0">
			<acc value="0.0018641884226802" flag="0"/>
			<vel value="0.00133383513763" flag="0"/>
			<psa03 value="0.00106250674653537" flag="0"/>
			<psa10 value="0.000778481023671271" flag="0"/>
			<psa30 value="0.000636430285382378" flag="0"/>
		</comp>
		<comp name=".HNN" depth="0.0">
			<acc value="0.0014470781571834" flag="0"/>
			<vel value="0.00142560684835" flag="0"/>
			<psa03 value="0.0013935784830979" flag="0"/>
			<psa10 value="0.00120860533761019" flag="0"/>
			<psa30 value="0.000796329211233755" flag="0"/>
		</comp>
		<comp name=".HNZ" depth="0.0">
			<acc value="0.0018229346641338" flag="0"/>
			<vel value="0.00106177028248" flag="0"/>
			<psa03 value="0.000993406384469911" flag="0"/>
			<psa10 value="0.000722884645372369" flag="0"/>
			<psa30 value="0.000635244008882777" flag="0"/>
		</comp>
	</station>
	<station code="ATEI" name="ATEI" netid="HC" source="Seismological Network of Crete (HC)" insttype="" lat="35.5193" lon="24.0432">
		<comp name=".HNE" depth="0.0">
			<acc value="0.011081150620446" flag="0"/>
			<vel value="0.00798771577069" flag="0"/>
			<psa03 value="0.0367048820391198" flag="0"/>
			<psa10 value="0.0115684138506355" flag="0"/>
			<psa30 value="0.00117632875933844" flag="0"/>
		</comp>
		<comp name=".HNN" depth="0.0">
			<acc value="0.01508607529341" flag="0"/>
			<vel value="0.00878127852577" flag="0"/>
			<psa03 value="0.028410655504016" flag="0"/>
			<psa10 value="0.0122510050064433" flag="0"/>
			<psa30 value="0.00115891260560759" flag="0"/>
		</comp>
		<comp name=".HNZ" depth="0.0">
			<acc value="0.0093295933301316" flag="0"/>
			<vel value="0.00523765010881" flag="0"/>
			<psa03 value="0.0264866582569473" flag="0"/>
			<psa10 value="0.00640047493757128" flag="0"/>
			<psa30 value="0.000897389551819446" flag="0"/>
		</comp>
	</station>
	<station code="G0LD" name="G0LD" netid="HC" source="Seismological Network of Crete (HC)" insttype="" lat="35.4955" lon="24.0306">
		<comp name=".HNE" depth="0.0">
			<acc value="0.002129617678329" flag="0"/>
			<vel value="0.00237155967682" flag="0"/>
			<psa03 value="0.00223998058173169" flag="0"/>
			<psa10 value="0.00173508607374875" flag="0"/>
			<psa30 value="0.00142133040616458" flag="0"/>
		</comp>
		<comp name=".HNN" depth="0.0">
			<acc value="0.002446349714307" flag="0"/>
			<vel value="0.00216865062864" flag="0"/>
			<psa03 value="0.00134752001203102" flag="0"/>
			<psa10 value="0.00163836271317537" flag="0"/>
			<psa30 value="0.0014657620995468" flag="0"/>
		</comp>
		<comp name=".HNZ" depth="0.0">
			<acc value="0.003104023056435" flag="0"/>
			<vel value="0.00436786158631" flag="0"/>
			<psa03 value="0.00283150365394916" flag="0"/>
			<psa10 value="0.00255229298313524" flag="0"/>
			<psa30 value="0.00174789412274202" flag="0"/>
		</comp>
	</station>
	<station code="LENT" name="LENT" netid="HC" source="Seismological Network of Crete (HC)" insttype="" lat="35.5074" lon="24.0402">
		<comp name=".HNE" depth="0.0">
			<acc value="0.00309059683698" flag="0"/>
			<vel value="0.00160560619907" flag="0"/>
			<psa03 value="0.00121267799021557" flag="0"/>
			<psa10 value="0.00114447597216598" flag="0"/>
			<psa30 value="0.000663263885892981" flag="0"/>
		</comp>
		<comp name=".HNN" depth="0.0">
			<acc value="0.0024856626332244" flag="0"/>
			<vel value="0.00148043335843" flag="0"/>
			<psa03 value="0.00118414240846484" flag="0"/>
			<psa10 value="0.000946871866240374" flag="0"/>
			<psa30 value="0.00102157559103763" flag="0"/>
		</comp>
		<comp name=".HNZ" depth="0.0">
			<acc value="0.0046249636868166" flag="0"/>
			<vel value="0.00139554087646" flag="0"/>
			<psa03 value="0.00154857328850427" flag="0"/>
			<psa10 value="0.00104237944314567" flag="0"/>
			<psa30 value="0.0005523398710559" flag="0"/>
		</comp>
	</station>
	<station code="PASK" name="PASK" netid="HC" source="Seismological Network of Crete (HC)" insttype="" lat="35.4996" lon="24.0121">
		<comp name=".HNE" depth="0.0">
			<acc value="0.037479610383852" flag="0"/>
			<vel value="0.0204817016863" flag="0"/>
			<psa03 value="0.0808138378949861" flag="0"/>
			<psa10 value="0.015337187575925" flag="0"/>
			<psa30 value="0.00191524708405511" flag="0"/>
		</comp>
		<comp name=".HNN" depth="0.0">
			<acc value="0.024262715030706" flag="0"/>
			<vel value="0.0195663057734" flag="0"/>
			<psa03 value="0.0789764401348115" flag="0"/>
			<psa10 value="0.0148905067354903" flag="0"/>
			<psa30 value="0.00135113502689582" flag="0"/>
		</comp>
		<comp name=".HNZ" depth="0.0">
			<acc value="0.017523909900684" flag="0"/>
			<vel value="0.0105922485992" flag="0"/>
			<psa03 value="0.0572210979087304" flag="0"/>
			<psa10 value="0.0103051482905135" flag="0"/>
			<psa30 value="0.000913063610984599" flag="0"/>
		</comp>
	</station>
	<station code="POLY" name="POLY" netid="HC" source="Seismological Network of Crete (HC)" insttype="" lat="35.5226" lon="24.0602">
		<comp name=".HNE" depth="0.0">
			<acc value="0.00092138837274732" flag="0"/>
			<vel value="0.00148412868652" flag="0"/>
			<psa03 value="0.00127894312214107" flag="0"/>
			<psa10 value="0.000967515811925647" flag="0"/>
			<psa30 value="0.000833536832306703" flag="0"/>
		</comp>
		<comp name=".HNN" depth="0.0">
			<acc value="0.00092680362899436" flag="0"/>
			<vel value="0.00163227950352" flag="0"/>
			<psa03 value="0.00123054172242689" flag="0"/>
			<psa10 value="0.000810137573890131" flag="0"/>
			<psa30 value="0.000677801203085005" flag="0"/>
		</comp>
		<comp name=".HNZ" depth="0.0">
			<acc value="0.001424459596065" flag="0"/>
			<vel value="0.00159733774676" flag="0"/>
			<psa03 value="0.00134661573663075" flag="0"/>
			<psa10 value="0.000870540891719224" flag="0"/>
			<psa30 value="0.000755919138431607" flag="0"/>
		</comp>
	</station>
	<station code="AGN1" name="AGN1" netid="HI" source="ITSAK Strong Motion Network" insttype="" lat="35.1879" lon="25.7155">
		<comp name=".HNE" depth="0.0">
			<acc value="0.044160628630326" flag="0"/>
			<vel value="0.0145901817397" flag="0"/>
			<psa03 value="0.0668651482381197" flag="0"/>
			<psa10 value="0.00885646107209822" flag="0"/>
			<psa30 value="0.000761048280297088" flag="0"/>
		</comp>
		<comp name=".HNN" depth="0.0">
			<acc value="0.049728963935832" flag="0"/>
			<vel value="0.0168524882226" flag="0"/>
			<psa03 value="0.0657571894244893" flag="0"/>
			<psa10 value="0.0107338007491033" flag="0"/>
			<psa30 value="0.00114604925347291" flag="0"/>
		</comp>
		<comp name=".HNZ" depth="0.0">
			<acc value="0.026334956091264" flag="0"/>
			<vel value="0.00750848814343" flag="0"/>
			<psa03 value="0.0274915607643027" flag="0"/>
			<psa10 value="0.00533343315753641" flag="0"/>
			<psa30 value="0.000669435336387355" flag="0"/>
		</comp>
	</station>
	<station code="ARK1" name="ARK1" netid="HI" source="ITSAK Strong Motion Network" insttype="" lat="35.148777" lon="25.264194">
		<comp name=".HNE" depth="0.0">
			<acc value="0.19065619899198" flag="0"/>
			<vel value="0.0571940519309" flag="0"/>
			<psa03 value="0.212934668376938" flag="0"/>
			<psa10 value="0.043777347534485" flag="0"/>
			<psa30 value="0.00312459636417306" flag="0"/>
		</comp>
		<comp name=".HNN" depth="0.0">
			<acc value="0.25673166988548" flag="0"/>
			<vel value="0.0701997623351" flag="0"/>
			<psa03 value="0.275154040104587" flag="0"/>
			<psa10 value="0.0386628899766937" flag="0"/>
			<psa30 value="0.00297061137175732" flag="0"/>
		</comp>
		<comp name=".HNZ" depth="0.0">
			<acc value="0.12747220870566" flag="0"/>
			<vel value="0.0297879090883" flag="0"/>
			<psa03 value="0.17631511751143" flag="0"/>
			<psa10 value="0.0263876124248277" flag="0"/>
			<psa30 value="0.00170283259597044" flag="0"/>
		</comp>
	</station>
	<station code="CH01" name="CH01" netid="HI" source="ITSAK Strong Motion Network" insttype="" lat="35.517" lon="24.0208">
		<comp name=".HNE" depth="0.0">
			<acc value="0.017455963938924" flag="0"/>
			<vel value="0.00893926778893" flag="0"/>
			<psa03 value="0.038583527323472" flag="0"/>
			<psa10 value="0.0204946220431272" flag="0"/>
			<psa30 value="0.00144933851156286" flag="0"/>
		</comp>
		<comp name=".HNN" depth="0.0">
			<acc value="0.0162864960906" flag="0"/>
			<vel value="0.0103341664719" flag="0"/>
			<psa03 value="0.0415069423395539" flag="0"/>
			<psa10 value="0.0131295241415254" flag="0"/>
			<psa30 value="0.00134410633211619" flag="0"/>
		</comp>
		<comp name=".HNZ" depth="0.0">
			<acc value="0.0099651887909868" flag="0"/>
			<vel value="0.00697444848768" flag="0"/>
			<psa03 value="0.0241955741922266" flag="0"/>
			<psa10 value="0.0113388423926735" flag="0"/>
			<psa30 value="0.000610645608524059" flag="0"/>
		</comp>
	</station>
	<station code="GOR1" name="GOR1" netid="HI" source="ITSAK Strong Motion Network" insttype="" lat="35.0582" lon="24.9628">
		<comp name=".HNE" depth="0.0">
			<acc value="0.32884068351858" flag="0"/>
			<vel value="0.135870997224" flag="0"/>
			<psa03 value="0.584897079892219" flag="0"/>
			<psa10 value="0.068480616504838" flag="0"/>
			<psa30 value="0.004845468488498" flag="0"/>
		</comp>
		<comp name=".HNN" depth="0.0">
			<acc value="0.32823258410976" flag="0"/>
			<vel value="0.137296466743" flag="0"/>
			<psa03 value="1.04939076698953" flag="0"/>
			<psa10 value="0.118355072942708" flag="0"/>
			<psa30 value="0.00474467306131418" flag="0"/>
		</comp>
		<comp name=".HNZ" depth="0.0">
			<acc value="0.38526442085448" flag="0"/>
			<vel value="0.125132312829" flag="0"/>
			<psa03 value="1.11780863267012" flag="0"/>
			<psa10 value="0.0628551313440564" flag="0"/>
			<psa30 value="0.00321794546476261" flag="0"/>
		</comp>
	</station>
	<station code="HER1" name="HER1" netid="HI" source="ITSAK Strong Motion Network" insttype="" lat="35.317672" lon="25.10217">
		<comp name=".HNE" depth="0.0">
			<acc value="0.143229142866" flag="0"/>
			<vel value="0.0904713582149" flag="0"/>
			<psa03 value="0.418758240678257" flag="0"/>
			<psa10 value="0.182735985362123" flag="0"/>
			<psa30 value="0.00608746284788436" flag="0"/>
		</comp>
		<comp name=".HNN" depth="0.0">
			<acc value="0.16061093763018" flag="0"/>
			<vel value="0.0836199777168" flag="0"/>
			<psa03 value="0.459565735642107" flag="0"/>
			<psa10 value="0.167201661289565" flag="0"/>
			<psa30 value="0.0067965919075319" flag="0"/>
		</comp>
		<comp name=".HNZ" depth="0.0">
			<acc value="0.090367679853852" flag="0"/>
			<vel value="0.063699128238" flag="0"/>
			<psa03 value="0.220472001021266" flag="0"/>
			<psa10 value="0.0926908403133071" flag="0"/>
			<psa30 value="0.00328392629400044" flag="0"/>
		</comp>
	</station>
	<station code="HER3" name="HER3" netid="HI" source="ITSAK Strong Motion Network" insttype="" lat="35.3296" lon="25.1065">
		<comp name=".HNE" depth="0.0">
			<acc value="0.14910693952386" flag="0"/>
			<vel value="0.0808241115922" flag="0"/>
			<psa03 value="0.443034473859662" flag="0"/>
			<psa10 value="0.0919519288639553" flag="0"/>
			<psa30 value="0.00308700720740965" flag="0"/>
		</comp>
		<comp name=".HNN" depth="0.0">
			<acc value="0.23199070058844" flag="0"/>
			<vel value="0.0932862626336" flag="0"/>
			<psa03 value="0.788449980940598" flag="0"/>
			<psa10 value="0.149346173451067" flag="0"/>
			<psa30 value="0.00409534671328888" flag="0"/>
		</comp>
		<comp name=".HNZ" depth="0.0">
			<acc value="0.081872939542026" flag="0"/>
			<vel value="0.0399989499973" flag="0"/>
			<psa03 value="0.251125865022628" flag="0"/>
			<psa10 value="0.0418183452602453" flag="0"/>
			<psa30 value="0.001826784765527" flag="0"/>
		</comp>
	</station>
	<station code="KSS1" name="KSS1" netid="HI" source="ITSAK Strong Motion Network" insttype="" lat="35.4189" lon="26.9207">
		<comp name=".HNE" depth="0.0">
			<acc value="0.0014427245481606" flag="0"/>
			<vel value="0.00145568504635" flag="0"/>
			<psa03 value="0.00464605029103078" flag="0"/>
			<psa10 value="0.00229115568406926" flag="0"/>
			<psa30 value="0.000460778388889498" flag="0"/>
		</comp>
		<comp name=".HNN" depth="0.0">
			<acc value="0.002086438037811" flag="0"/>
			<vel value="0.00178211878583" flag="0"/>
			<psa03 value="0.00609585629452828" flag="0"/>
			<psa10 value="0.0020656623868694" flag="0"/>
			<psa30 value="0.000551223182495035" flag="0"/>
		</comp>
		<comp name=".HNZ" depth="0.0">
			<acc value="0.0016666703675178" flag="0"/>
			<vel value="0.00148423051578" flag="0"/>
			<psa03 value="0.00251010410759757" flag="0"/>
			<psa10 value="0.00286016517502998" flag="0"/>
			<psa30 value="0.000337256195734465" flag="0"/>
		</comp>
	</station>
	<station code="KTL1" name="KTL1" netid="HI" source="ITSAK Strong Motion Network" insttype="" lat="35.20778" lon="25.34272">
		<comp name=".HNE" depth="0.0">
			<acc value="0.066063290432634" flag="0"/>
			<vel value="0.0265661820473" flag="0"/>
			<psa03 value="0.115083477882463" flag="0"/>
			<psa10 value="0.0241275064538786" flag="0"/>
			<psa30 value="0.0013682581403856" flag="0"/>
		</comp>
		<comp name=".HNN" depth="0.0">
			<acc value="0.081906256065084" flag="0"/>
			<vel value="0.028517384343" flag="0"/>
			<psa03 value="0.186288965729883" flag="0"/>
			<psa10 value="0.018613113027393" flag="0"/>
			<psa30 value="0.00122488520513395" flag="0"/>
		</comp>
		<comp name=".HNZ" depth="0.0">
			<acc value="0.044168414502078" flag="0"/>
			<vel value="0.0129715015978" flag="0"/>
			<psa03 value="0.0708907117868947" flag="0"/>
			<psa10 value="0.00986581606190853" flag="0"/>
			<psa30 value="0.000685705424620886" flag="0"/>
		</comp>
	</station>
	<station code="RTH1" name="RTH1" netid="HI" source="ITSAK Strong Motion Network" insttype="" lat="35.365393" lon="24.471773">
		<comp name=".HNE" depth="0.0">
			<acc value="0.035482531204368" flag="0"/>
			<vel value="0.0146445381922" flag="0"/>
			<psa03 value="0.120418060438769" flag="0"/>
			<psa10 value="0.0148605122485099" flag="0"/>
			<psa30 value="0.000693858516806452" flag="0"/>
		</comp>
		<comp name=".HNN" depth="0.0">
			<acc value="0.040692783318732" flag="0"/>
			<vel value="0.0158249376541" flag="0"/>
			<psa03 value="0.116778965199796" flag="0"/>
			<psa10 value="0.00770637894727287" flag="0"/>
			<psa30 value="0.00084398861843932" flag="0"/>
		</comp>
		<comp name=".HNZ" depth="0.0">
			<acc value="0.03241595844585" flag="0"/>
			<vel value="0.00950965914196" flag="0"/>
			<psa03 value="0.0663978516569119" flag="0"/>
			<psa10 value="0.00640402829792592" flag="0"/>
			<psa30 value="0.000540821608026394" flag="0"/>
		</comp>
	</station>
	<station code="ANKY" name="ANKY" netid="HL" source="National Observatory of Athens Seismic Network" insttype="" lat="35.86704" lon="23.30117">
		<comp name="00.HNE" depth="0.0">
			<acc value="0.0039352893939462" flag="0"/>
			<vel value="0.0025215606304" flag="0"/>
			<psa03 value="0.00929404146587543" flag="0"/>
			<psa10 value="0.00510124121343589" flag="0"/>
			<psa30 value="0.000352820976824998" flag="0"/>
		</comp>
		<comp name="00.HNN" depth="0.0">
			<acc value="0.0039856527628842" flag="0"/>
			<vel value="0.00211458744023" flag="0"/>
			<psa03 value="0.0139178165182937" flag="0"/>
			<psa10 value="0.00348320027617389" flag="0"/>
			<psa30 value="0.000276324398885444" flag="0"/>
		</comp>
		<comp name="00.HNZ" depth="0.0">
			<acc value="0.0043644101889312" flag="0"/>
			<vel value="0.00229788447755" flag="0"/>
			<psa03 value="0.0105197007848161" flag="0"/>
			<psa10 value="0.00238508698468158" flag="0"/>
			<psa30 value="0.000159898717505266" flag="0"/>
		</comp>
	</station>
	<station code="IACM" name="IACM" netid="HL" source="National Observatory of Athens Seismic Network" insttype="" lat="35.3058" lon="25.0709">
		<comp name=".HNE" depth="0.0">
			<acc value="0.1577105007804" flag="0"/>
			<vel value="0.091099990152" flag="0"/>
			<psa03 value="0.406292623225572" flag="0"/>
			<psa10 value="0.121285592075395" flag="0"/>
			<psa30 value="0.00546098843034301" flag="0"/>
		</comp>
		<comp name=".HNN" depth="0.0">
			<acc value="0.156391521267" flag="0"/>
			<vel value="0.0724979167019" flag="0"/>
			<psa03 value="0.421284491363361" flag="0"/>
			<psa10 value="0.0778120821684599" flag="0"/>
			<psa30 value="0.00351276061981755" flag="0"/>
		</comp>
		<comp name=".HNZ" depth="0.0">
			<acc value="0.148562308593" flag="0"/>
			<vel value="0.0531407471355" flag="0"/>
			<psa03 value="0.293241884168917" flag="0"/>
			<psa10 value="0.0471205477551352" flag="0"/>
			<psa30 value="0.00245370192071051" flag="0"/>
		</comp>
	</station>
	<station code="IMMV" name="IMMV" netid="HL" source="National Observatory of Athens Seismic Network" insttype="" lat="35.4606" lon="23.9811">
		<comp name=".HNE" depth="0.0">
			<acc value="0.0220651171662" flag="0"/>
			<vel value="0.0112553909269" flag="0"/>
			<psa03 value="0.109284864585992" flag="0"/>
			<psa10 value="0.0103289501797701" flag="0"/>
			<psa30 value="0.000644363727601504" flag="0"/>
		</comp>
		<comp name=".HNN" depth="0.0">
			<acc value="0.021305679088398" flag="0"/>
			<vel value="0.0117109623758" flag="0"/>
			<psa03 value="0.0923752235719544" flag="0"/>
			<psa10 value="0.00818105164200265" flag="0"/>
			<psa30 value="0.000714099336827525" flag="0"/>
		</comp>
		<comp name=".HNZ" depth="0.0">
			<acc value="0.025577545320276" flag="0"/>
			<vel value="0.010124349412" flag="0"/>
			<psa03 value="0.0702709832329628" flag="0"/>
			<psa10 value="0.00613938217270719" flag="0"/>
			<psa30 value="0.000408867892782769" flag="0"/>
		</comp>
	</station>
	<station code="SIVA" name="SIVA" netid="HL" source="National Observatory of Athens Seismic Network" insttype="" lat="35.01777" lon="24.81204">
		<comp name="00.HNE" depth="0.0">
			<acc value="0.64612320621888" flag="0"/>
			<vel value="0.270095159034" flag="0"/>
			<psa03 value="2.03656324565442" flag="0"/>
			<psa10 value="0.0827967023750261" flag="0"/>
			<psa30 value="0.00601612603884042" flag="0"/>
		</comp>
		<comp name="00.HNN" depth="0.0">
			<acc value="0.45214672355856" flag="0"/>
			<vel value="0.15797541442" flag="0"/>
			<psa03 value="0.796472679074511" flag="0"/>
			<psa10 value="0.0661315658917918" flag="0"/>
			<psa30 value="0.00408212042044561" flag="0"/>
		</comp>
		<comp name="00.HNZ" depth="0.0">
			<acc value="0.30864598937358" flag="0"/>
			<vel value="0.112802865224" flag="0"/>
			<psa03 value="0.453465248180026" flag="0"/>
			<psa10 value="0.0507306269048931" flag="0"/>
			<psa30 value="0.00352976257944751" flag="0"/>
		</comp>
	</station>
</stationlist>
