<stationlist created="1778138348">
	<station code="KRL1" name="KRL1" netid="HI" source="ITSAK Strong Motion Network" insttype="" lat="37.7951" lon="26.7065">
		<comp name="--.HNE" depth="0.0">
			<acc value="0.0361190766859713" flag="0"/>
			<vel value="0.0405676226221121" flag="0"/>
			<psa03 value="0.110230614737085" flag="0"/>
			<psa10 value="0.0668431755323041" flag="0"/>
			<psa30 value="0.00707825389960067" flag="0"/>
		</comp>
		<comp name="--.HNN" depth="0.0">
			<acc value="0.0331861260787221" flag="0"/>
			<vel value="0.0352786383250022" flag="0"/>
			<psa03 value="0.059635408886326" flag="0"/>
			<psa10 value="0.0346606585985328" flag="0"/>
			<psa30 value="0.00563952025722324" flag="0"/>
		</comp>
		<comp name="--.HNZ" depth="0.0">
			<acc value="0.0140381166844328" flag="0"/>
			<vel value="0.0158037487693684" flag="0"/>
			<psa03 value="0.0468729019748986" flag="0"/>
			<psa10 value="0.0154888166830842" flag="0"/>
			<psa30 value="0.00326739103195197" flag="0"/>
		</comp>
	</station>
	<station code="KSS1" name="KSS1" netid="HI" source="ITSAK Strong Motion Network" insttype="" lat="35.4189" lon="26.9207">
		<comp name="--.HNE" depth="0.0">
			<acc value="0.0307659966230918" flag="0"/>
			<vel value="0.0129271520702995" flag="0"/>
			<psa03 value="0.150836429673113" flag="0"/>
			<psa10 value="0.0109731641057614" flag="0"/>
			<psa30 value="0.00338535092955183" flag="0"/>
		</comp>
		<comp name="--.HNN" depth="0.0">
			<acc value="0.0237950800872616" flag="0"/>
			<vel value="0.0137303866350694" flag="0"/>
			<psa03 value="0.10775671126998" flag="0"/>
			<psa10 value="0.0162227328014368" flag="0"/>
			<psa30 value="0.00138995270254679" flag="0"/>
		</comp>
		<comp name="--.HNZ" depth="0.0">
			<acc value="0.0111135851599479" flag="0"/>
			<vel value="0.00951966022827246" flag="0"/>
			<psa03 value="0.028575202862767" flag="0"/>
			<psa10 value="0.00965355012530993" flag="0"/>
			<psa30 value="0.0016256112304318" flag="0"/>
		</comp>
	</station>
	<station code="NAX1" name="NAX1" netid="HI" source="ITSAK Strong Motion Network" insttype="" lat="37.101394" lon="25.374103">
		<comp name="--.HNE" depth="0.0">
			<acc value="0.0109523746723878" flag="0"/>
			<vel value="0.0102364710997216" flag="0"/>
			<psa03 value="0.0264831371903854" flag="0"/>
			<psa10 value="0.0152034452786404" flag="0"/>
			<psa30 value="0.00149756139359071" flag="0"/>
		</comp>
		<comp name="--.HNN" depth="0.0">
			<acc value="0.013893970308098" flag="0"/>
			<vel value="0.0149110686647591" flag="0"/>
			<psa03 value="0.0423027789140058" flag="0"/>
			<psa10 value="0.0162661494275498" flag="0"/>
			<psa30 value="0.00226090477384552" flag="0"/>
		</comp>
		<comp name="--.HNZ" depth="0.0">
			<acc value="0.0115098560649257" flag="0"/>
			<vel value="0.0107258427923613" flag="0"/>
			<psa03 value="0.0214358692398897" flag="0"/>
			<psa10 value="0.013658859519902" flag="0"/>
			<psa30 value="0.0025570466834592" flag="0"/>
		</comp>
	</station>
	<station code="SIT2" name="SIT2" netid="HI" source="ITSAK Strong Motion Network" insttype="" lat="35.2059" lon="26.107">
		<comp name="--.HNE" depth="0.0">
			<acc value="0.0541941457281874" flag="0"/>
			<vel value="0.0399457328621059" flag="0"/>
			<psa03 value="0.138132046403478" flag="0"/>
			<psa10 value="0.0334586139689596" flag="0"/>
			<psa30 value="0.00226820567416107" flag="0"/>
		</comp>
		<comp name="--.HNN" depth="0.0">
			<acc value="0.0554984574929943" flag="0"/>
			<vel value="0.0433238080359259" flag="0"/>
			<psa03 value="0.164157343368493" flag="0"/>
			<psa10 value="0.0329841587886417" flag="0"/>
			<psa30 value="0.00236696179960247" flag="0"/>
		</comp>
		<comp name="--.HNZ" depth="0.0">
			<acc value="0.0210388503342524" flag="0"/>
			<vel value="0.0098295746480894" flag="0"/>
			<psa03 value="0.0662597748014994" flag="0"/>
			<psa10 value="0.0115152334526924" flag="0"/>
			<psa30 value="0.00142031148449738" flag="0"/>
		</comp>
	</station>
	<station code="KARP" name="KARP" netid="HL" source="National Observatory of Athens Seismic Network" insttype="" lat="35.5471" lon="27.16106">
		<comp name="--.HNE" depth="0.0">
			<acc value="0.0655935798384231" flag="0"/>
			<vel value="0.0547755730740184" flag="0"/>
			<psa03 value="0.107033132086301" flag="0"/>
			<psa10 value="0.0804281279687188" flag="0"/>
			<psa30 value="0.00449137836510079" flag="0"/>
		</comp>
		<comp name="--.HNN" depth="0.0">
			<acc value="0.0685200219782359" flag="0"/>
			<vel value="0.0697725620535584" flag="0"/>
			<psa03 value="0.165616481695675" flag="0"/>
			<psa10 value="0.127586286965411" flag="0"/>
			<psa30 value="0.00388945015698424" flag="0"/>
		</comp>
		<comp name="--.HNZ" depth="0.0">
			<acc value="0.0428526760612918" flag="0"/>
			<vel value="0.0192350141663037" flag="0"/>
			<psa03 value="0.0729712298191895" flag="0"/>
			<psa10 value="0.0263346664174082" flag="0"/>
			<psa30 value="0.00194888993772547" flag="0"/>
		</comp>
	</station>
	<station code="KLNA" name="KLNA" netid="HL" source="National Observatory of Athens Seismic Network" insttype="" lat="36.95708" lon="26.97274">
		<comp name="00.HNE" depth="0.0">
			<acc value="0.133445008243167" flag="0"/>
			<vel value="0.0530559464909735" flag="0"/>
			<psa03 value="0.281650366287808" flag="0"/>
			<psa10 value="0.0239113383838186" flag="0"/>
			<psa30 value="0.00431641302451135" flag="0"/>
		</comp>
		<comp name="00.HNN" depth="0.0">
			<acc value="0.171072268022887" flag="0"/>
			<vel value="0.0628181817694285" flag="0"/>
			<psa03 value="0.464181749761566" flag="0"/>
			<psa10 value="0.0347254478905093" flag="0"/>
			<psa30 value="0.0022632611799461" flag="0"/>
		</comp>
		<comp name="00.HNZ" depth="0.0">
			<acc value="0.149972782159064" flag="0"/>
			<vel value="0.0371278965336438" flag="0"/>
			<psa03 value="0.175768747983724" flag="0"/>
			<psa10 value="0.0155895708575553" flag="0"/>
			<psa30 value="0.00323122321934473" flag="0"/>
		</comp>
	</station>
	<station code="NISR" name="NISR" netid="HL" source="National Observatory of Athens Seismic Network" insttype="" lat="36.6106" lon="27.131">
		<comp name="--.HNE" depth="0.0">
			<acc value="16.0897618175837" flag="0"/>
			<vel value="6.32551274474904" flag="0"/>
			<psa03 value="34.4933570156218" flag="0"/>
			<psa10 value="1.11137442310173" flag="0"/>
			<psa30 value="0.122131250595825" flag="0"/>
		</comp>
		<comp name="--.HNN" depth="0.0">
			<acc value="13.229398983801" flag="0"/>
			<vel value="4.50435039492679" flag="0"/>
			<psa03 value="13.786453284854" flag="0"/>
			<psa10 value="0.622572742389575" flag="0"/>
			<psa30 value="0.104121210852545" flag="0"/>
		</comp>
		<comp name="--.HNZ" depth="0.0">
			<acc value="5.92364712990925" flag="0"/>
			<vel value="1.99558043943279" flag="0"/>
			<psa03 value="5.27476476061364" flag="0"/>
			<psa10 value="0.319875760199189" flag="0"/>
			<psa30 value="0.0367870402942284" flag="0"/>
		</comp>
	</station>
	<station code="CAME" name="CAME" netid="KO" source="Bogazici University Kandilli Observatory And Earthquake Research Institute (KOERI)" insttype="" lat="36.9435" lon="29.3023">
		<comp name="--.HNE" depth="0.0">
			<acc value="0.00583816489030524" flag="0"/>
			<vel value="0.00553123403125814" flag="0"/>
			<psa03 value="0.0279003560741701" flag="0"/>
			<psa10 value="0.0121073770543095" flag="0"/>
			<psa30 value="0.00263513081448482" flag="0"/>
		</comp>
		<comp name="--.HNN" depth="0.0">
			<acc value="0.0064123837809148" flag="0"/>
			<vel value="0.00440647505332816" flag="0"/>
			<psa03 value="0.0254320831881774" flag="0"/>
			<psa10 value="0.00659555114162838" flag="0"/>
			<psa30 value="0.00243694081036981" flag="0"/>
		</comp>
		<comp name="--.HNZ" depth="0.0">
			<acc value="0.00291837120203885" flag="0"/>
			<vel value="0.00354277727936687" flag="0"/>
			<psa03 value="0.0119361344603241" flag="0"/>
			<psa10 value="0.00561130781534405" flag="0"/>
			<psa30 value="0.0022399446353373" flag="0"/>
		</comp>
	</station>
</stationlist>
