<?xml version="1.0" encoding="UTF-8" standalone="yes"?>
<!DOCTYPE earthquake SYSTEM "stationlist.dtd">
<stationlist created="" xmlns="ch.ethz.sed.shakemap.usgs.xml">
  <station code="KARP" name="KARP" netid="GE" insttype="STS-2/N" lat="35.5471" lon="27.1611">
    <comp name="--.HHE">
      <acc value="0.0835861150" flag="0"/>
      <vel value="0.0630008638" flag="0"/>
      <psa03 value="0.1444278373" flag="0"/>
      <psa10 value="0.0885903397" flag="0"/>
      <psa30 value="0.0058738765" flag="0"/>
    </comp>
    <comp name="--.HHN">
      <acc value="0.0923569582" flag="0"/>
      <vel value="0.0843725232" flag="0"/>
      <psa03 value="0.1854551428" flag="0"/>
      <psa10 value="0.1581161922" flag="0"/>
      <psa30 value="0.0045711086" flag="0"/>
    </comp>
    <comp name="--.HHZ">
      <acc value="0.0575625268" flag="0"/>
      <vel value="0.0235091132" flag="0"/>
      <psa03 value="0.0906241557" flag="0"/>
      <psa10 value="0.0342563640" flag="0"/>
      <psa30 value="0.0033386618" flag="0"/>
    </comp>
  </station>
  <station code="THERA" name="THERA" netid="GE" insttype="STS-2/N" lat="36.367" lon="25.4753">
    <comp name="--.HHE">
      <acc value="0.0248197079" flag="0"/>
      <vel value="0.0176909092" flag="0"/>
      <psa03 value="0.0683681465" flag="0"/>
      <psa10 value="0.0228172359" flag="0"/>
      <psa30 value="0.0021700406" flag="0"/>
    </comp>
    <comp name="--.HHN">
      <acc value="0.0175246234" flag="0"/>
      <vel value="0.0114586093" flag="0"/>
      <psa03 value="0.0366817210" flag="0"/>
      <psa10 value="0.0139540994" flag="0"/>
      <psa30 value="0.0023555429" flag="0"/>
    </comp>
    <comp name="--.HHZ">
      <acc value="0.0186653740" flag="0"/>
      <vel value="0.0160745897" flag="0"/>
      <psa03 value="0.0396121256" flag="0"/>
      <psa10 value="0.0132904465" flag="0"/>
      <psa30 value="0.0030575004" flag="0"/>
    </comp>
  </station>
  <station code="SNT1" name="SNT1" netid="HA" insttype="30" lat="36.4159" lon="25.4282">
    <comp name="--.HHE">
      <acc value="0.0195343614" flag="0"/>
      <vel value="0.0314685307" flag="0"/>
      <psa03 value="0.0541695966" flag="0"/>
      <psa10 value="0.0492846527" flag="0"/>
      <psa30 value="0.0067312423" flag="0"/>
    </comp>
    <comp name="--.HHZ">
      <acc value="0.0158398865" flag="0"/>
      <vel value="0.0146265314" flag="0"/>
      <psa03 value="0.0412028081" flag="0"/>
      <psa10 value="0.0221202857" flag="0"/>
      <psa30 value="0.0017428164" flag="0"/>
    </comp>
    <comp name="--.HHN">
      <acc value="0.0243799871" flag="0"/>
      <vel value="0.0352274427" flag="0"/>
      <psa03 value="0.0539438490" flag="0"/>
      <psa10 value="0.0434287935" flag="0"/>
      <psa30 value="0.0095875886" flag="0"/>
    </comp>
  </station>
  <station code="ARG" name="ARG" netid="HL" insttype="LE3D20_DR24" lat="36.2136" lon="28.1212">
    <comp name="--.HHE">
      <acc value="0.1055608668" flag="0"/>
      <vel value="0.0711842076" flag="0"/>
      <psa03 value="0.2729390443" flag="0"/>
      <psa10 value="0.0537153769" flag="0"/>
      <psa30 value="0.0081368894" flag="0"/>
    </comp>
    <comp name="--.HHN">
      <acc value="0.0719421060" flag="0"/>
      <vel value="0.0252574682" flag="0"/>
      <psa03 value="0.1234301395" flag="0"/>
      <psa10 value="0.0533843541" flag="0"/>
      <psa30 value="0.0052807123" flag="0"/>
    </comp>
    <comp name="--.HHZ">
      <acc value="0.0349622256" flag="0"/>
      <vel value="0.0161942057" flag="0"/>
      <psa03 value="0.0718928512" flag="0"/>
      <psa10 value="0.0354579302" flag="0"/>
      <psa30 value="0.0048629725" flag="0"/>
    </comp>
  </station>
  <station code="KARP" name="KARP" netid="HL" insttype="120" lat="35.5471" lon="27.1611">
    <comp name="--.HHE">
      <acc value="0.0814866173" flag="0"/>
      <vel value="0.0624866187" flag="0"/>
      <psa03 value="0.1417333180" flag="0"/>
      <psa10 value="0.0879697027" flag="0"/>
      <psa30 value="0.0058464328" flag="0"/>
    </comp>
    <comp name="--.HHZ">
      <acc value="0.0534563354" flag="0"/>
      <vel value="0.0232277767" flag="0"/>
      <psa03 value="0.0880964762" flag="0"/>
      <psa10 value="0.0339940153" flag="0"/>
      <psa30 value="0.0033343844" flag="0"/>
    </comp>
    <comp name="--.HHN">
      <acc value="0.0859906791" flag="0"/>
      <vel value="0.0833672247" flag="0"/>
      <psa03 value="0.1816919779" flag="0"/>
      <psa10 value="0.1570214518" flag="0"/>
      <psa30 value="0.0045492286" flag="0"/>
    </comp>
  </station>
  <station code="KLNA" name="KLNA" netid="HL" insttype="CMG-5" lat="36.9571" lon="26.9727">
    <comp name="00.HNN">
      <acc value="0.1732030161" flag="0"/>
      <vel value="0.0625231506" flag="0"/>
      <psa03 value="0.4647558090" flag="0"/>
      <psa10 value="0.0347054502" flag="0"/>
      <psa30 value="0.0023401948" flag="0"/>
    </comp>
    <comp name="00.HNE">
      <acc value="0.1334758338" flag="0"/>
      <vel value="0.0530883790" flag="0"/>
      <psa03 value="0.2803809270" flag="0"/>
      <psa10 value="0.0239357594" flag="0"/>
      <psa30 value="0.0047092906" flag="0"/>
    </comp>
    <comp name="00.HNZ">
      <acc value="0.1529715836" flag="0"/>
      <vel value="0.0367489534" flag="0"/>
      <psa03 value="0.1753947032" flag="0"/>
      <psa10 value="0.0156373367" flag="0"/>
      <psa30 value="0.0035138726" flag="0"/>
    </comp>
  </station>
  <station code="NISR" name="NISR" netid="HL" insttype="0" lat="36.6106" lon="27.131">
    <comp name="--.HNZ">
      <acc value="5.9645171930" flag="0"/>
      <vel value="1.9380361258" flag="0"/>
      <psa03 value="5.1738775626" flag="0"/>
      <psa10 value="0.3156347669" flag="0"/>
      <psa30 value="0.0313751782" flag="0"/>
    </comp>
    <comp name="--.HNE">
      <acc value="15.8916978577" flag="0"/>
      <vel value="6.2034368575" flag="0"/>
      <psa03 value="33.7268864362" flag="0"/>
      <psa10 value="1.0946562333" flag="0"/>
      <psa30 value="0.1135815289" flag="0"/>
    </comp>
    <comp name="--.HNN">
      <acc value="13.0983641739" flag="0"/>
      <vel value="4.4093594782" flag="0"/>
      <psa03 value="13.6084520773" flag="0"/>
      <psa10 value="0.6101373802" flag="0"/>
      <psa30 value="0.0808965599" flag="0"/>
    </comp>
  </station>
  <station code="SMG" name="SMG" netid="HL" insttype="120" lat="37.7043" lon="26.8377">
    <comp name="--.HHZ">
      <acc value="0.0139741912" flag="0"/>
      <vel value="0.0082184005" flag="0"/>
      <psa03 value="0.0395195087" flag="0"/>
      <psa10 value="0.0110706047" flag="0"/>
      <psa30 value="0.0016489233" flag="0"/>
    </comp>
    <comp name="--.HHE">
      <acc value="0.0334965337" flag="0"/>
      <vel value="0.0166599234" flag="0"/>
      <psa03 value="0.0854674632" flag="0"/>
      <psa10 value="0.0204832587" flag="0"/>
      <psa30 value="0.0054601523" flag="0"/>
    </comp>
    <comp name="--.HHN">
      <acc value="0.0310588771" flag="0"/>
      <vel value="0.0175690972" flag="0"/>
      <psa03 value="0.0822319407" flag="0"/>
      <psa10 value="0.0119245605" flag="0"/>
      <psa30 value="0.0032528644" flag="0"/>
    </comp>
  </station>
  <station code="THERA" name="THERA" netid="HL" insttype="120" lat="36.367" lon="25.4753">
    <comp name="--.HHZ">
      <acc value="0.0183091468" flag="0"/>
      <vel value="0.0158509288" flag="0"/>
      <psa03 value="0.0386418703" flag="0"/>
      <psa10 value="0.0131705587" flag="0"/>
      <psa30 value="0.0030588884" flag="0"/>
    </comp>
    <comp name="--.HHN">
      <acc value="0.0171664252" flag="0"/>
      <vel value="0.0113007923" flag="0"/>
      <psa03 value="0.0356923649" flag="0"/>
      <psa10 value="0.0138575647" flag="0"/>
      <psa30 value="0.0023559910" flag="0"/>
    </comp>
    <comp name="--.HHE">
      <acc value="0.0242803698" flag="0"/>
      <vel value="0.0173713134" flag="0"/>
      <psa03 value="0.0666140305" flag="0"/>
      <psa10 value="0.0226809854" flag="0"/>
      <psa30 value="0.0021714317" flag="0"/>
    </comp>
  </station>
  <station code="THT1" name="THT1" netid="HT" insttype="30" lat="36.3858" lon="25.4296">
    <comp name="--.HHE">
      <acc value="0.0180997506" flag="0"/>
      <vel value="0.0116565714" flag="0"/>
      <psa03 value="0.0354808186" flag="0"/>
      <psa10 value="0.0129115892" flag="0"/>
      <psa30 value="0.0027289290" flag="0"/>
    </comp>
    <comp name="--.HHZ">
      <acc value="0.0079060334" flag="0"/>
      <vel value="0.0059828853" flag="0"/>
      <psa03 value="0.0196430888" flag="0"/>
      <psa10 value="0.0075004210" flag="0"/>
      <psa30 value="0.0016206682" flag="0"/>
    </comp>
    <comp name="--.HHN">
      <acc value="0.0195319606" flag="0"/>
      <vel value="0.0190469943" flag="0"/>
      <psa03 value="0.0433275001" flag="0"/>
      <psa10 value="0.0206226541" flag="0"/>
      <psa30 value="0.0038627221" flag="0"/>
    </comp>
  </station>
</stationlist>
