<?xml version="1.0" encoding="UTF-8" standalone="yes"?>
<!DOCTYPE earthquake SYSTEM "stationlist.dtd">
<stationlist created="" xmlns="ch.ethz.sed.shakemap.usgs.xml">
  <station code="GVD" name="GVD" netid="GE" insttype="STS-2/N" lat="34.8391" lon="24.0874">
    <comp name="--.HHN">
      <acc value="1.1641118788" flag="0"/>
      <vel value="0.3730862624" flag="0"/>
      <psa03 value="2.9822695123" flag="0"/>
      <psa10 value="0.1652904126" flag="0"/>
      <psa30 value="0.0131732304" flag="0"/>
    </comp>
    <comp name="--.HHZ">
      <acc value="0.7694209739" flag="0"/>
      <vel value="0.2093107921" flag="0"/>
      <psa03 value="1.2243617334" flag="0"/>
      <psa10 value="0.0674005941" flag="0"/>
      <psa30 value="0.0078228129" flag="0"/>
    </comp>
    <comp name="--.HHE">
      <acc value="0.1899111751" flag="0"/>
      <vel value="0.0443335172" flag="0"/>
      <psa03 value="0.6377597175" flag="0"/>
      <psa10 value="0.0730108701" flag="0"/>
      <psa30 value="0.0084597420" flag="0"/>
    </comp>
  </station>
  <station code="IMMV" name="IMMV" netid="GE" insttype="STS-2/N" lat="35.4606" lon="23.9811">
    <comp name="--.HHN">
      <acc value="0.4193425541" flag="0"/>
      <vel value="0.1836269611" flag="0"/>
      <psa03 value="1.0431234583" flag="0"/>
      <psa10 value="0.1205099274" flag="0"/>
      <psa30 value="0.0117855829" flag="0"/>
    </comp>
    <comp name="--.HHE">
      <acc value="0.3881357413" flag="0"/>
      <vel value="0.2247785185" flag="0"/>
      <psa03 value="1.5168581925" flag="0"/>
      <psa10 value="0.1304809218" flag="0"/>
      <psa30 value="0.0130500539" flag="0"/>
    </comp>
    <comp name="--.HHZ">
      <acc value="0.3762227449" flag="0"/>
      <vel value="0.1399431132" flag="0"/>
      <psa03 value="0.7827068145" flag="0"/>
      <psa10 value="0.0846855704" flag="0"/>
      <psa30 value="0.0062590475" flag="0"/>
    </comp>
  </station>
  <station code="THERA" name="THERA" netid="GE" insttype="STS-2/N" lat="36.367" lon="25.4753">
    <comp name="--.HHE">
      <acc value="0.0315782654" flag="0"/>
      <vel value="0.0176217123" flag="0"/>
      <psa03 value="0.0800673794" flag="0"/>
      <psa10 value="0.0236410923" flag="0"/>
      <psa30 value="0.0039956079" flag="0"/>
    </comp>
    <comp name="--.HHN">
      <acc value="0.0207890701" flag="0"/>
      <vel value="0.0100579734" flag="0"/>
      <psa03 value="0.0592410563" flag="0"/>
      <psa10 value="0.0108415764" flag="0"/>
      <psa30 value="0.0021092049" flag="0"/>
    </comp>
    <comp name="--.HHZ">
      <acc value="0.0239779369" flag="0"/>
      <vel value="0.0172965215" flag="0"/>
      <psa03 value="0.0712714238" flag="0"/>
      <psa10 value="0.0202618600" flag="0"/>
      <psa30 value="0.0023222531" flag="0"/>
    </comp>
  </station>
  <station code="ZKR" name="ZKR" netid="GE" insttype="STS-2/N" lat="35.1147" lon="26.2169">
    <comp name="--.HHE">
      <acc value="0.0627899469" flag="0"/>
      <vel value="0.0575212477" flag="0"/>
      <psa03 value="0.1247807376" flag="0"/>
      <psa10 value="0.1267052953" flag="0"/>
      <psa30 value="0.0071023393" flag="0"/>
    </comp>
    <comp name="--.HHN">
      <acc value="0.0322737406" flag="0"/>
      <vel value="0.0198268905" flag="0"/>
      <psa03 value="0.1055370436" flag="0"/>
      <psa10 value="0.0261671762" flag="0"/>
      <psa30 value="0.0041837990" flag="0"/>
    </comp>
    <comp name="--.HHZ">
      <acc value="0.0304464544" flag="0"/>
      <vel value="0.0265489076" flag="0"/>
      <psa03 value="0.0691902812" flag="0"/>
      <psa10 value="0.0526996431" flag="0"/>
      <psa30 value="0.0035081333" flag="0"/>
    </comp>
  </station>
</stationlist>
