<?xml version="1.0" encoding="UTF-8" standalone="yes"?>
<!DOCTYPE earthquake SYSTEM "stationlist.dtd">
<stationlist created="" xmlns="ch.ethz.sed.shakemap.usgs.xml">
  <station code="GVD" name="GVD" netid="GE" insttype="STS-2/N" lat="34.8391" lon="24.0874">
    <comp name="--.HHE">
      <acc value="0.1899111754" flag="0"/>
      <vel value="0.0443334258" flag="0"/>
      <psa03 value="0.6377848085" flag="0"/>
      <psa10 value="0.0728373897" flag="0"/>
      <psa30 value="0.0084721073" flag="0"/>
    </comp>
    <comp name="--.HHN">
      <acc value="1.1641118789" flag="0"/>
      <vel value="0.3730862618" flag="0"/>
      <psa03 value="2.9822695123" flag="0"/>
      <psa10 value="0.1652904125" flag="0"/>
      <psa30 value="0.0131731026" flag="0"/>
    </comp>
    <comp name="--.HHZ">
      <acc value="0.7694209740" flag="0"/>
      <vel value="0.2093107928" flag="0"/>
      <psa03 value="1.2243617334" flag="0"/>
      <psa10 value="0.0674005942" flag="0"/>
      <psa30 value="0.0078227994" flag="0"/>
    </comp>
  </station>
  <station code="IMMV" name="IMMV" netid="GE" insttype="STS-2/N" lat="35.4606" lon="23.9811">
    <comp name="--.HHE">
      <acc value="0.3881357413" flag="0"/>
      <vel value="0.2247785188" flag="0"/>
      <psa03 value="1.5168581925" flag="0"/>
      <psa10 value="0.1304809218" flag="0"/>
      <psa30 value="0.0130500564" flag="0"/>
    </comp>
    <comp name="--.HHN">
      <acc value="0.4193425542" flag="0"/>
      <vel value="0.1836269613" flag="0"/>
      <psa03 value="1.0431234583" flag="0"/>
      <psa10 value="0.1205099274" flag="0"/>
      <psa30 value="0.0117855817" flag="0"/>
    </comp>
    <comp name="--.HHZ">
      <acc value="0.3762227449" flag="0"/>
      <vel value="0.1399431132" flag="0"/>
      <psa03 value="0.7827068145" flag="0"/>
      <psa10 value="0.0846855704" flag="0"/>
      <psa30 value="0.0062590474" flag="0"/>
    </comp>
  </station>
  <station code="THERA" name="THERA" netid="GE" insttype="STS-2/N" lat="36.367" lon="25.4753">
    <comp name="--.HHE">
      <acc value="0.0315782654" flag="0"/>
      <vel value="0.0176217113" flag="0"/>
      <psa03 value="0.0800673794" flag="0"/>
      <psa10 value="0.0236410923" flag="0"/>
      <psa30 value="0.0039956148" flag="0"/>
    </comp>
    <comp name="--.HHN">
      <acc value="0.0207890701" flag="0"/>
      <vel value="0.0100579735" flag="0"/>
      <psa03 value="0.0592410563" flag="0"/>
      <psa10 value="0.0108415764" flag="0"/>
      <psa30 value="0.0021092044" flag="0"/>
    </comp>
    <comp name="--.HHZ">
      <acc value="0.0239779369" flag="0"/>
      <vel value="0.0172965214" flag="0"/>
      <psa03 value="0.0712714238" flag="0"/>
      <psa10 value="0.0202618600" flag="0"/>
      <psa30 value="0.0023222531" flag="0"/>
    </comp>
  </station>
  <station code="ZKR" name="ZKR" netid="GE" insttype="STS-2/N" lat="35.1147" lon="26.2169">
    <comp name="--.HHE">
      <acc value="0.0627899469" flag="0"/>
      <vel value="0.0575212477" flag="0"/>
      <psa03 value="0.1247807376" flag="0"/>
      <psa10 value="0.1267052953" flag="0"/>
      <psa30 value="0.0071023393" flag="0"/>
    </comp>
    <comp name="--.HHN">
      <acc value="0.0322737406" flag="0"/>
      <vel value="0.0198268905" flag="0"/>
      <psa03 value="0.1055370436" flag="0"/>
      <psa10 value="0.0261671762" flag="0"/>
      <psa30 value="0.0041837990" flag="0"/>
    </comp>
    <comp name="--.HHZ">
      <acc value="0.0304464544" flag="0"/>
      <vel value="0.0265489076" flag="0"/>
      <psa03 value="0.0691902812" flag="0"/>
      <psa10 value="0.0526996431" flag="0"/>
      <psa30 value="0.0035081333" flag="0"/>
    </comp>
  </station>
  <station code="SNT5" name="SNT5" netid="HA" insttype="1s-100Hz," lat="36.4037" lon="25.3953">
    <comp name="--.HHN">
      <acc value="0.0509921979" flag="0"/>
      <vel value="0.0395297518" flag="0"/>
      <psa03 value="0.1758601598" flag="0"/>
      <psa10 value="0.0440724458" flag="0"/>
      <psa30 value="0.0148376898" flag="0"/>
    </comp>
    <comp name="--.HHZ">
      <acc value="0.0268206320" flag="0"/>
      <vel value="0.0225620661" flag="0"/>
      <psa03 value="0.0434007813" flag="0"/>
      <psa10 value="0.0218432357" flag="0"/>
      <psa30 value="0.0037159725" flag="0"/>
    </comp>
    <comp name="--.HHE">
      <acc value="0.0988649731" flag="0"/>
      <vel value="0.0425930916" flag="0"/>
      <psa03 value="0.1921041781" flag="0"/>
      <psa10 value="0.0360198111" flag="0"/>
      <psa30 value="0.0166186796" flag="0"/>
    </comp>
  </station>
  <station code="ABEA" name="ABEA" netid="HC" insttype="DC" lat="35.5163" lon="24.0113">
    <comp name="--.HNN">
      <acc value="0.1950786221" flag="0"/>
      <vel value="0.2259622425" flag="0"/>
      <psa03 value="0.6078788263" flag="0"/>
      <psa10 value="0.2018585663" flag="0"/>
      <psa30 value="0.0280306411" flag="0"/>
    </comp>
    <comp name="--.HNZ">
      <acc value="0.1391737990" flag="0"/>
      <vel value="0.0645524781" flag="0"/>
      <psa03 value="0.2151063746" flag="0"/>
      <psa10 value="0.1410167539" flag="0"/>
      <psa30 value="0.0138258631" flag="0"/>
    </comp>
    <comp name="--.HNE">
      <acc value="0.1430861698" flag="0"/>
      <vel value="0.1317354569" flag="0"/>
      <psa03 value="0.4812777990" flag="0"/>
      <psa10 value="0.1848293536" flag="0"/>
      <psa30 value="0.0293954421" flag="0"/>
    </comp>
  </station>
  <station code="ATEI" name="ATEI" netid="HC" insttype="DC" lat="35.5193" lon="24.0432">
    <comp name="--.HNN">
      <acc value="0.1587530875" flag="0"/>
      <vel value="0.0894725215" flag="0"/>
      <psa03 value="0.3451496445" flag="0"/>
      <psa10 value="0.1570224441" flag="0"/>
      <psa30 value="0.0225124217" flag="0"/>
    </comp>
    <comp name="--.HNE">
      <acc value="0.1110542833" flag="0"/>
      <vel value="0.1101220649" flag="0"/>
      <psa03 value="0.3797783399" flag="0"/>
      <psa10 value="0.1583784107" flag="0"/>
      <psa30 value="0.0170075987" flag="0"/>
    </comp>
    <comp name="--.HNZ">
      <acc value="0.1290396771" flag="0"/>
      <vel value="0.0904908974" flag="0"/>
      <psa03 value="0.2789111803" flag="0"/>
      <psa10 value="0.1342891871" flag="0"/>
      <psa30 value="0.0078601457" flag="0"/>
    </comp>
  </station>
  <station code="CHAN" name="CHAN" netid="HC" insttype="120" lat="35.5193" lon="24.0428">
    <comp name="--.HHE">
      <acc value="0.2043491082" flag="0"/>
      <vel value="0.2283145569" flag="0"/>
      <psa03 value="0.8106906968" flag="0"/>
      <psa10 value="0.3240152569" flag="0"/>
      <psa30 value="0.0302255629" flag="0"/>
    </comp>
    <comp name="--.HHN">
      <acc value="0.2961245963" flag="0"/>
      <vel value="0.1793108574" flag="0"/>
      <psa03 value="0.6503729899" flag="0"/>
      <psa10 value="0.2999697043" flag="0"/>
      <psa30 value="0.0426133052" flag="0"/>
    </comp>
    <comp name="--.HHZ">
      <acc value="0.2441665672" flag="0"/>
      <vel value="0.1722700803" flag="0"/>
      <psa03 value="0.5130884153" flag="0"/>
      <psa10 value="0.2551561358" flag="0"/>
      <psa30 value="0.0149611662" flag="0"/>
    </comp>
  </station>
  <station code="DEYA" name="DEYA" netid="HC" insttype="DC" lat="35.4825" lon="24.014">
    <comp name="--.HNZ">
      <acc value="0.0261055568" flag="0"/>
      <vel value="0.0129919771" flag="0"/>
      <psa03 value="0.0587598471" flag="0"/>
      <psa10 value="0.0149708034" flag="0"/>
      <psa30 value="0.0011503734" flag="0"/>
    </comp>
    <comp name="--.HNE">
      <acc value="0.0538011630" flag="0"/>
      <vel value="0.0255547498" flag="0"/>
      <psa03 value="0.1426751450" flag="0"/>
      <psa10 value="0.0334350180" flag="0"/>
      <psa30 value="0.0032622199" flag="0"/>
    </comp>
    <comp name="--.HNN">
      <acc value="0.0458591835" flag="0"/>
      <vel value="0.0209299898" flag="0"/>
      <psa03 value="0.1776934992" flag="0"/>
      <psa10 value="0.0281976680" flag="0"/>
      <psa30 value="0.0018415205" flag="0"/>
    </comp>
  </station>
  <station code="GVDS" name="GVDS" netid="HC" insttype="60" lat="34.8389" lon="24.0585">
    <comp name="--.HHE">
      <acc value="0.9474292469" flag="0"/>
      <vel value="0.2393447276" flag="0"/>
      <psa03 value="0.9652648243" flag="0"/>
      <psa10 value="0.1443292729" flag="0"/>
      <psa30 value="0.0110822178" flag="0"/>
    </comp>
    <comp name="--.HHZ">
      <acc value="0.6136680147" flag="0"/>
      <vel value="0.1486582411" flag="0"/>
      <psa03 value="0.4691567618" flag="0"/>
      <psa10 value="0.0583521219" flag="0"/>
      <psa30 value="0.0072886353" flag="0"/>
    </comp>
    <comp name="--.HHN">
      <acc value="1.0022956183" flag="0"/>
      <vel value="0.3152795035" flag="0"/>
      <psa03 value="1.4089483452" flag="0"/>
      <psa10 value="0.1616693513" flag="0"/>
      <psa30 value="0.0120166867" flag="0"/>
    </comp>
  </station>
  <station code="IPPL" name="IPPL" netid="HC" insttype="60" lat="35.3486" lon="24.4632">
    <comp name="--.HHE">
      <acc value="0.4486714134" flag="0"/>
      <vel value="0.2654490108" flag="0"/>
      <psa03 value="1.2518405169" flag="0"/>
      <psa10 value="0.3168874344" flag="0"/>
      <psa30 value="0.0395249498" flag="0"/>
    </comp>
    <comp name="--.HHZ">
      <acc value="0.2687208955" flag="0"/>
      <vel value="0.1494293440" flag="0"/>
      <psa03 value="0.5904488407" flag="0"/>
      <psa10 value="0.0885675866" flag="0"/>
      <psa30 value="0.0153454741" flag="0"/>
    </comp>
    <comp name="--.HHN">
      <acc value="0.5321249531" flag="0"/>
      <vel value="0.3287810006" flag="0"/>
      <psa03 value="1.5049296520" flag="0"/>
      <psa10 value="0.2728069914" flag="0"/>
      <psa30 value="0.0259277678" flag="0"/>
    </comp>
  </station>
  <station code="KNDR" name="KNDR" netid="HC" insttype="120" lat="35.2348" lon="23.6248">
    <comp name="--.HHN">
      <acc value="0.2459744682" flag="0"/>
      <vel value="0.1107819350" flag="0"/>
      <psa03 value="0.6184401836" flag="0"/>
      <psa10 value="0.1332956569" flag="0"/>
      <psa30 value="0.0056220746" flag="0"/>
    </comp>
    <comp name="--.HHZ">
      <acc value="0.2151972281" flag="0"/>
      <vel value="0.0673111652" flag="0"/>
      <psa03 value="0.3859608340" flag="0"/>
      <psa10 value="0.0352808182" flag="0"/>
      <psa30 value="0.0029076663" flag="0"/>
    </comp>
    <comp name="--.HHE">
      <acc value="0.2214873609" flag="0"/>
      <vel value="0.1190003251" flag="0"/>
      <psa03 value="0.5623064765" flag="0"/>
      <psa10 value="0.1578384606" flag="0"/>
      <psa30 value="0.0078533313" flag="0"/>
    </comp>
  </station>
  <station code="KNSS" name="KNSS" netid="HC" insttype="60" lat="35.3042" lon="25.1802">
    <comp name="--.HHZ">
      <acc value="0.2373008010" flag="0"/>
      <vel value="0.0863386650" flag="0"/>
      <psa03 value="0.5700576863" flag="0"/>
      <psa10 value="0.0627272623" flag="0"/>
      <psa30 value="0.0159421079" flag="0"/>
    </comp>
    <comp name="--.HHE">
      <acc value="0.2916847079" flag="0"/>
      <vel value="0.1231896879" flag="0"/>
      <psa03 value="0.9570178879" flag="0"/>
      <psa10 value="0.1218518923" flag="0"/>
      <psa30 value="0.0207426722" flag="0"/>
    </comp>
    <comp name="--.HHN">
      <acc value="0.2462377453" flag="0"/>
      <vel value="0.1239764313" flag="0"/>
      <psa03 value="0.7980356131" flag="0"/>
      <psa10 value="0.1038580923" flag="0"/>
      <psa30 value="0.0192139434" flag="0"/>
    </comp>
  </station>
  <station code="PASK" name="PASK" netid="HC" insttype="DC" lat="35.4996" lon="24.0121">
    <comp name="--.HNZ">
      <acc value="0.1655446572" flag="0"/>
      <vel value="0.1081926889" flag="0"/>
      <psa03 value="0.4605981686" flag="0"/>
      <psa10 value="0.1440642586" flag="0"/>
      <psa30 value="0.0129901738" flag="0"/>
    </comp>
    <comp name="--.HNN">
      <acc value="0.2343172237" flag="0"/>
      <vel value="0.1810913793" flag="0"/>
      <psa03 value="0.6433825142" flag="0"/>
      <psa10 value="0.2363983862" flag="0"/>
      <psa30 value="0.0306457924" flag="0"/>
    </comp>
    <comp name="--.HNE">
      <acc value="0.3901119705" flag="0"/>
      <vel value="0.2380300726" flag="0"/>
      <psa03 value="0.8085437214" flag="0"/>
      <psa10 value="0.3014698048" flag="0"/>
      <psa30 value="0.0257493746" flag="0"/>
    </comp>
  </station>
  <station code="PFKS" name="PFKS" netid="HC" insttype="120" lat="35.0429" lon="25.4733">
    <comp name="--.HHZ">
      <acc value="0.3046486831" flag="0"/>
      <vel value="0.1474078956" flag="0"/>
      <psa03 value="0.4348702419" flag="0"/>
      <psa10 value="0.1778772015" flag="0"/>
      <psa30 value="0.0056874027" flag="0"/>
    </comp>
    <comp name="--.HHE">
      <acc value="0.7301503749" flag="0"/>
      <vel value="0.3119438970" flag="0"/>
      <psa03 value="1.1917567519" flag="0"/>
      <psa10 value="0.1272404260" flag="0"/>
      <psa30 value="0.0100675782" flag="0"/>
    </comp>
    <comp name="--.HHN">
      <acc value="0.5590661579" flag="0"/>
      <vel value="0.2071484570" flag="0"/>
      <psa03 value="1.1745891167" flag="0"/>
      <psa10 value="0.2508847618" flag="0"/>
      <psa30 value="0.0117893243" flag="0"/>
    </comp>
  </station>
  <station code="POLY" name="POLY" netid="HC" insttype="DC" lat="35.5226" lon="24.0602">
    <comp name="--.HNZ">
      <acc value="0.0735927587" flag="0"/>
      <vel value="0.0607494556" flag="0"/>
      <psa03 value="0.2143437699" flag="0"/>
      <psa10 value="0.0778041310" flag="0"/>
      <psa30 value="0.0077289709" flag="0"/>
    </comp>
    <comp name="--.HNN">
      <acc value="0.1838824579" flag="0"/>
      <vel value="0.1145872186" flag="0"/>
      <psa03 value="0.5250083632" flag="0"/>
      <psa10 value="0.2274565060" flag="0"/>
      <psa30 value="0.0155375545" flag="0"/>
    </comp>
    <comp name="--.HNE">
      <acc value="0.1444598285" flag="0"/>
      <vel value="0.1231576383" flag="0"/>
      <psa03 value="0.3559721490" flag="0"/>
      <psa10 value="0.1241333312" flag="0"/>
      <psa30 value="0.0282103845" flag="0"/>
    </comp>
  </station>
  <station code="RODP" name="RODP" netid="HC" insttype="120" lat="35.5604" lon="23.7577">
    <comp name="--.HHE">
      <acc value="0.1873257941" flag="0"/>
      <vel value="0.1021526386" flag="0"/>
      <psa03 value="0.5657917919" flag="0"/>
      <psa10 value="0.1265749924" flag="0"/>
      <psa30 value="0.0123037340" flag="0"/>
    </comp>
    <comp name="--.HHZ">
      <acc value="0.0604535536" flag="0"/>
      <vel value="0.0399194802" flag="0"/>
      <psa03 value="0.1861216961" flag="0"/>
      <psa10 value="0.0401324771" flag="0"/>
      <psa30 value="0.0087103139" flag="0"/>
    </comp>
    <comp name="--.HHN">
      <acc value="0.1411757462" flag="0"/>
      <vel value="0.0949340515" flag="0"/>
      <psa03 value="0.5888070499" flag="0"/>
      <psa10 value="0.0897435787" flag="0"/>
      <psa30 value="0.0105936468" flag="0"/>
    </comp>
  </station>
  <station code="STIA" name="STIA" netid="HC" insttype="120" lat="35.2021" lon="26.0909">
    <comp name="--.HHN">
      <acc value="0.0616708546" flag="0"/>
      <vel value="0.0370065485" flag="0"/>
      <psa03 value="0.1588690714" flag="0"/>
      <psa10 value="0.0835365504" flag="0"/>
      <psa30 value="0.0047509155" flag="0"/>
    </comp>
    <comp name="--.HHE">
      <acc value="0.0550742955" flag="0"/>
      <vel value="0.0459877261" flag="0"/>
      <psa03 value="0.1339749196" flag="0"/>
      <psa10 value="0.1046106846" flag="0"/>
      <psa30 value="0.0085534291" flag="0"/>
    </comp>
    <comp name="--.HHZ">
      <acc value="0.0422400133" flag="0"/>
      <vel value="0.0259687513" flag="0"/>
      <psa03 value="0.1165689129" flag="0"/>
      <psa10 value="0.0343032440" flag="0"/>
      <psa30 value="0.0085693324" flag="0"/>
    </comp>
  </station>
  <station code="TEFL" name="TEFL" netid="HC" insttype="GEOtiny," lat="35.0933" lon="25.1634">
    <comp name="--.HHE">
      <acc value="2.3434475209" flag="0"/>
      <vel value="0.4671485851" flag="0"/>
      <psa03 value="2.4474344188" flag="0"/>
      <psa10 value="0.5255612654" flag="0"/>
      <psa30 value="0.0445233176" flag="0"/>
    </comp>
    <comp name="--.HHZ">
      <acc value="1.1052859339" flag="0"/>
      <vel value="0.3307935148" flag="0"/>
      <psa03 value="1.3751966929" flag="0"/>
      <psa10 value="0.2164126121" flag="0"/>
      <psa30 value="0.0233962305" flag="0"/>
    </comp>
    <comp name="--.HHN">
      <acc value="2.1981586645" flag="0"/>
      <vel value="0.5740572291" flag="0"/>
      <psa03 value="3.0999793028" flag="0"/>
      <psa10 value="0.5296746368" flag="0"/>
      <psa30 value="0.0619136653" flag="0"/>
    </comp>
  </station>
  <station code="ANKY" name="ANKY" netid="HL" insttype="60" lat="35.867" lon="23.3012">
    <comp name="--.HHE">
      <acc value="0.0390898158" flag="0"/>
      <vel value="0.0482633328" flag="0"/>
      <psa03 value="0.1037738428" flag="0"/>
      <psa10 value="0.0960338549" flag="0"/>
      <psa30 value="0.0079866509" flag="0"/>
    </comp>
    <comp name="--.HHN">
      <acc value="0.0271194908" flag="0"/>
      <vel value="0.0248162066" flag="0"/>
      <psa03 value="0.0805328379" flag="0"/>
      <psa10 value="0.0382834648" flag="0"/>
      <psa30 value="0.0042965972" flag="0"/>
    </comp>
    <comp name="--.HHZ">
      <acc value="0.0210296070" flag="0"/>
      <vel value="0.0191595466" flag="0"/>
      <psa03 value="0.0736761141" flag="0"/>
      <psa10 value="0.0215595816" flag="0"/>
      <psa30 value="0.0047988840" flag="0"/>
    </comp>
  </station>
  <station code="GVD" name="GVD" netid="HL" insttype="120" lat="34.8391" lon="24.0874">
    <comp name="--.HHZ">
      <acc value="0.7418956383" flag="0"/>
      <vel value="0.2039892493" flag="0"/>
      <psa03 value="1.1893831575" flag="0"/>
      <psa10 value="0.0663037808" flag="0"/>
      <psa30 value="0.0078174069" flag="0"/>
    </comp>
    <comp name="--.HHE">
      <acc value="0.1921672468" flag="0"/>
      <vel value="0.0431132082" flag="0"/>
      <psa03 value="0.6200247048" flag="0"/>
      <psa10 value="0.0717628894" flag="0"/>
      <psa30 value="0.0083098949" flag="0"/>
    </comp>
    <comp name="--.HHN">
      <acc value="1.1541713508" flag="0"/>
      <vel value="0.3653824249" flag="0"/>
      <psa03 value="2.8954344140" flag="0"/>
      <psa10 value="0.1631172892" flag="0"/>
      <psa30 value="0.0130320453" flag="0"/>
    </comp>
  </station>
  <station code="IACM" name="IACM" netid="HL" insttype="120" lat="35.3058" lon="25.0709">
    <comp name="--.HHE">
      <acc value="1.1856686196" flag="0"/>
      <vel value="0.5657745804" flag="0"/>
      <psa03 value="3.0526202218" flag="0"/>
      <psa10 value="0.7072343463" flag="0"/>
      <psa30 value="0.0627237100" flag="0"/>
    </comp>
    <comp name="--.HHN">
      <acc value="0.8310986374" flag="0"/>
      <vel value="0.5087611369" flag="0"/>
      <psa03 value="2.4702345843" flag="0"/>
      <psa10 value="0.7142526558" flag="0"/>
      <psa30 value="0.0383744148" flag="0"/>
    </comp>
    <comp name="--.HHZ">
      <acc value="0.8111365984" flag="0"/>
      <vel value="0.2640483534" flag="0"/>
      <psa03 value="1.1476539365" flag="0"/>
      <psa10 value="0.2747956732" flag="0"/>
      <psa30 value="0.0188622097" flag="0"/>
    </comp>
  </station>
  <station code="IMMV" name="IMMV" netid="HL" insttype="120" lat="35.4606" lon="23.9811">
    <comp name="--.HHN">
      <acc value="0.4065372345" flag="0"/>
      <vel value="0.1785285069" flag="0"/>
      <psa03 value="1.0122248655" flag="0"/>
      <psa10 value="0.1196175561" flag="0"/>
      <psa30 value="0.0117694178" flag="0"/>
    </comp>
    <comp name="--.HHE">
      <acc value="0.3797813291" flag="0"/>
      <vel value="0.2185226482" flag="0"/>
      <psa03 value="1.4746904845" flag="0"/>
