<?xml version="1.0" encoding="UTF-8" standalone="yes"?>
<!DOCTYPE earthquake SYSTEM "stationlist.dtd">
<stationlist created="" xmlns="ch.ethz.sed.shakemap.usgs.xml">
  <station code="BAKL" name="BAKL" netid="KO" insttype="30s," lat="37.9793" lon="29.6135">
    <comp name="--.HHN">
      <acc value="0.0573070873" flag="0"/>
      <vel value="0.0325996514" flag="0"/>
      <psa03 value="0.2170958174" flag="0"/>
      <psa10 value="0.0300280060" flag="0"/>
      <psa30 value="0.0019204791" flag="0"/>
    </comp>
    <comp name="--.HHZ">
      <acc value="0.0477617669" flag="0"/>
      <vel value="0.0370190159" flag="0"/>
      <psa03 value="0.1233462283" flag="0"/>
      <psa10 value="0.0295143037" flag="0"/>
      <psa30 value="0.0014135550" flag="0"/>
    </comp>
    <comp name="--.HHE">
      <acc value="0.1038252425" flag="0"/>
      <vel value="0.0621293901" flag="0"/>
      <psa03 value="0.2633451419" flag="0"/>
      <psa10 value="0.0270278341" flag="0"/>
      <psa30 value="0.0022525368" flag="0"/>
    </comp>
  </station>
  <station code="SERH" name="SERH" netid="KO" insttype="30s," lat="37.582" lon="29.2588">
    <comp name="--.HHN">
      <acc value="0.0783567196" flag="0"/>
      <vel value="0.0208621213" flag="0"/>
      <psa03 value="0.0762244251" flag="0"/>
      <psa10 value="0.0094714408" flag="0"/>
      <psa30 value="0.0007033988" flag="0"/>
    </comp>
    <comp name="--.HHE">
      <acc value="0.0617876558" flag="0"/>
      <vel value="0.0212770113" flag="0"/>
      <psa03 value="0.1119706293" flag="0"/>
      <psa10 value="0.0116583023" flag="0"/>
      <psa30 value="0.0009702831" flag="0"/>
    </comp>
    <comp name="--.HHZ">
      <acc value="0.0273085856" flag="0"/>
      <vel value="0.0079851067" flag="0"/>
      <psa03 value="0.0393254953" flag="0"/>
      <psa10 value="0.0122495271" flag="0"/>
      <psa30 value="0.0013616693" flag="0"/>
    </comp>
  </station>
</stationlist>
