<?xml version="1.0" encoding="UTF-8" standalone="yes"?>
<!DOCTYPE earthquake SYSTEM "stationlist.dtd">
<stationlist created="" xmlns="ch.ethz.sed.shakemap.usgs.xml">
  <station code="ANTB" name="ANTB" netid="KO" insttype="CMG-3T" lat="36.8998" lon="30.6538">
    <comp name="--.HHN">
      <acc value="0.0277308521" flag="0"/>
      <vel value="0.0154351306" flag="0"/>
      <psa03 value="0.0712013160" flag="0"/>
      <psa10 value="0.0135681774" flag="0"/>
      <psa30 value="0.0021525038" flag="0"/>
    </comp>
    <comp name="--.HHZ">
      <acc value="0.0223616691" flag="0"/>
      <vel value="0.0178183883" flag="0"/>
      <psa03 value="0.0569242366" flag="0"/>
      <psa10 value="0.0206871928" flag="0"/>
      <psa30 value="0.0034190719" flag="0"/>
    </comp>
    <comp name="--.HHE">
      <acc value="0.0225400791" flag="0"/>
      <vel value="0.0162680126" flag="0"/>
      <psa03 value="0.0760232113" flag="0"/>
      <psa10 value="0.0283374323" flag="0"/>
      <psa30 value="0.0013900105" flag="0"/>
    </comp>
  </station>
  <station code="ELL" name="ELL" netid="KO" insttype="CMG-3T" lat="36.7483" lon="29.9085">
    <comp name="--.HHZ">
      <acc value="0.0941649056" flag="0"/>
      <vel value="0.0354803371" flag="0"/>
      <psa03 value="0.2521885915" flag="0"/>
      <psa10 value="0.0187464846" flag="0"/>
      <psa30 value="0.0021984421" flag="0"/>
    </comp>
  </station>
  <station code="FETY" name="FETY" netid="KO" insttype="CMG-3ESP" lat="36.6353" lon="29.0835">
    <comp name="--.HHZ">
      <acc value="0.0046744910" flag="0"/>
      <vel value="0.0026552112" flag="0"/>
      <psa03 value="0.0127330878" flag="0"/>
      <psa10 value="0.0045992329" flag="0"/>
      <psa30 value="0.0003801511" flag="0"/>
    </comp>
  </station>
  <station code="KEMT" name="KEMT" netid="KO" insttype="CMG-5T" lat="36.6037" lon="30.5558">
    <comp name="--.HNE">
      <acc value="0.1790106639" flag="0"/>
      <vel value="0.0570368604" flag="0"/>
      <psa03 value="0.6558984011" flag="0"/>
      <psa10 value="0.0293492073" flag="0"/>
      <psa30 value="0.0018291190" flag="0"/>
    </comp>
    <comp name="--.HNZ">
      <acc value="0.0851738231" flag="0"/>
      <vel value="0.0321555639" flag="0"/>
      <psa03 value="0.1472720669" flag="0"/>
      <psa10 value="0.0100008695" flag="0"/>
      <psa30 value="0.0014547233" flag="0"/>
    </comp>
    <comp name="--.HNN">
      <acc value="0.2317850519" flag="0"/>
      <vel value="0.1121207136" flag="0"/>
      <psa03 value="1.0948957601" flag="0"/>
      <psa10 value="0.0383861577" flag="0"/>
      <psa30 value="0.0031094462" flag="0"/>
    </comp>
  </station>
</stationlist>
