<?xml version="1.0" encoding="UTF-8" standalone="yes"?>
<!DOCTYPE earthquake SYSTEM "stationlist.dtd">
<stationlist created="" xmlns="ch.ethz.sed.shakemap.usgs.xml">
  <station code="KOSP" name="KOSP" netid="HC" insttype="60" lat="36.881" lon="27.281">
    <comp name="--.HHZ">
      <acc value="0.0719652953" flag="0"/>
      <vel value="0.0150756703" flag="0"/>
      <psa03 value="0.0532228474" flag="0"/>
      <psa10 value="0.0100103731" flag="0"/>
      <psa30 value="0.0008034237" flag="0"/>
    </comp>
    <comp name="--.HHN">
      <acc value="0.0565800048" flag="0"/>
      <vel value="0.0274528498" flag="0"/>
      <psa03 value="0.0753943274" flag="0"/>
      <psa10 value="0.0232333616" flag="0"/>
      <psa30 value="0.0013943311" flag="0"/>
    </comp>
    <comp name="--.HHE">
      <acc value="0.0476973906" flag="0"/>
      <vel value="0.0270233378" flag="0"/>
      <psa03 value="0.1487599689" flag="0"/>
      <psa10 value="0.0207696771" flag="0"/>
      <psa30 value="0.0015569449" flag="0"/>
    </comp>
  </station>
  <station code="RDI1" name="RDI1" netid="HI" insttype="CMG-5TD,ACCELEROMETER,GURALP" lat="36.4514" lon="28.224">
    <comp name="--.HNE">
      <acc value="1.5627445588" flag="0"/>
      <vel value="0.6924702068" flag="0"/>
      <psa03 value="5.1663014112" flag="0"/>
      <psa10 value="0.2758601884" flag="0"/>
      <psa30 value="0.0231109077" flag="0"/>
    </comp>
    <comp name="--.HNN">
      <acc value="1.2362804193" flag="0"/>
      <vel value="0.6124923720" flag="0"/>
      <psa03 value="2.3112076352" flag="0"/>
      <psa10 value="0.3894372036" flag="0"/>
      <psa30 value="0.0277513475" flag="0"/>
    </comp>
    <comp name="--.HNZ">
      <acc value="0.9072438136" flag="0"/>
      <vel value="0.3601984142" flag="0"/>
      <psa03 value="1.4760141349" flag="0"/>
      <psa10 value="0.0948922043" flag="0"/>
      <psa30 value="0.0081389933" flag="0"/>
    </comp>
  </station>
  <station code="ARG" name="ARG" netid="HL" insttype="LE3D20_DR24" lat="36.2136" lon="28.1212">
    <comp name="--.HHN">
      <acc value="0.4874188775" flag="0"/>
      <vel value="0.1517887082" flag="0"/>
      <psa03 value="0.7008298314" flag="0"/>
      <psa10 value="0.0699952538" flag="0"/>
      <psa30 value="0.0074886558" flag="0"/>
    </comp>
    <comp name="--.HHE">
      <acc value="0.7656410014" flag="0"/>
      <vel value="0.3143601484" flag="0"/>
      <psa03 value="2.2926428128" flag="0"/>
      <psa10 value="0.1412055523" flag="0"/>
      <psa30 value="0.0096491332" flag="0"/>
    </comp>
    <comp name="--.HHZ">
      <acc value="0.5906753139" flag="0"/>
      <vel value="0.1555103492" flag="0"/>
      <psa03 value="0.4934800209" flag="0"/>
      <psa10 value="0.0472746074" flag="0"/>
      <psa30 value="0.0044727868" flag="0"/>
    </comp>
  </station>
  <station code="NISR2" name="NISR2" netid="HL" insttype="120" lat="36.5744" lon="27.1767">
    <comp name="--.HHZ">
      <acc value="0.0635029533" flag="0"/>
      <vel value="0.0226805356" flag="0"/>
      <psa03 value="0.1305216826" flag="0"/>
      <psa10 value="0.0176138235" flag="0"/>
      <psa30 value="0.0010435897" flag="0"/>
    </comp>
    <comp name="--.HHE">
      <acc value="0.0220778304" flag="0"/>
      <vel value="-100.0000000000" flag="0"/>
      <psa03 value="0.0003284171" flag="0"/>
      <psa10 value="0.0002917758" flag="0"/>
      <psa30 value="0.0002036397" flag="0"/>
    </comp>
    <comp name="--.HHN">
      <acc value="0.1542120165" flag="0"/>
      <vel value="0.0827585532" flag="0"/>
      <psa03 value="0.4565790720" flag="0"/>
      <psa10 value="0.0629034811" flag="0"/>
      <psa30 value="0.0035810250" flag="0"/>
    </comp>
  </station>
  <station code="RODB" name="RODB" netid="HL" insttype="CMG-5" lat="36.4471" lon="28.2212">
    <comp name="00.HNE">
      <acc value="1.1872728971" flag="0"/>
      <vel value="0.5132212388" flag="0"/>
      <psa03 value="3.6343726702" flag="0"/>
      <psa10 value="0.2703225072" flag="0"/>
      <psa30 value="0.0242466132" flag="0"/>
    </comp>
    <comp name="00.HNZ">
      <acc value="0.9366022404" flag="0"/>
      <vel value="0.2594850202" flag="0"/>
      <psa03 value="1.7691245383" flag="0"/>
      <psa10 value="0.1077551533" flag="0"/>
      <psa30 value="0.0055373966" flag="0"/>
    </comp>
    <comp name="00.HNN">
      <acc value="1.4989936344" flag="0"/>
      <vel value="0.8551794423" flag="0"/>
      <psa03 value="5.1704854931" flag="0"/>
      <psa10 value="0.3615354449" flag="0"/>
      <psa30 value="0.0256285081" flag="0"/>
    </comp>
  </station>
  <station code="AYDB" name="AYDB" netid="KO" insttype="CMG-3ESPC" lat="37.9467" lon="27.8908">
    <comp name="--.HHE">
      <acc value="0.0292984711" flag="0"/>
      <vel value="0.0180972637" flag="0"/>
      <psa03 value="0.0719394325" flag="0"/>
      <psa10 value="0.0177135654" flag="0"/>
      <psa30 value="0.0013492102" flag="0"/>
    </comp>
    <comp name="--.HHZ">
      <acc value="0.0407441192" flag="0"/>
      <vel value="0.0132255745" flag="0"/>
      <psa03 value="0.0741985576" flag="0"/>
      <psa10 value="0.0079197552" flag="0"/>
      <psa30 value="0.0006792858" flag="0"/>
    </comp>
  </station>
  <station code="BODA" name="BODA" netid="KO" insttype="ACEBOX" lat="37.0348" lon="27.4304">
    <comp name="--.HNN">
      <acc value="0.0950770687" flag="0"/>
      <vel value="0.0214866611" flag="0"/>
      <psa03 value="0.1202580125" flag="0"/>
      <psa10 value="0.0110386681" flag="0"/>
      <psa30 value="0.0009452296" flag="0"/>
    </comp>
    <comp name="--.HNZ">
      <acc value="0.0682375510" flag="0"/>
      <vel value="0.0110916008" flag="0"/>
      <psa03 value="0.0296171836" flag="0"/>
      <psa10 value="0.0036770641" flag="0"/>
      <psa30 value="0.0003192309" flag="0"/>
    </comp>
    <comp name="--.HNE">
      <acc value="0.0769655988" flag="0"/>
      <vel value="0.0235809549" flag="0"/>
      <psa03 value="0.2031243839" flag="0"/>
      <psa10 value="0.0071198648" flag="0"/>
      <psa30 value="0.0007651192" flag="0"/>
    </comp>
  </station>
  <station code="BODT" name="BODT" netid="KO" insttype="CMG-3ESP" lat="37.0622" lon="27.3103">
    <comp name="--.HHE">
      <acc value="0.1763751299" flag="0"/>
      <vel value="0.0524166461" flag="0"/>
      <psa03 value="0.1246621836" flag="0"/>
      <psa10 value="0.0395767599" flag="0"/>
      <psa30 value="0.0024461690" flag="0"/>
    </comp>
    <comp name="--.HHN">
      <acc value="0.1020434520" flag="0"/>
      <vel value="0.0271492710" flag="0"/>
      <psa03 value="0.0882265679" flag="0"/>
      <psa10 value="0.0189043664" flag="0"/>
      <psa30 value="0.0012427928" flag="0"/>
    </comp>
    <comp name="--.HHZ">
      <acc value="0.0929380990" flag="0"/>
      <vel value="0.0204456552" flag="0"/>
      <psa03 value="0.0725098299" flag="0"/>
      <psa10 value="0.0083886505" flag="0"/>
      <psa30 value="0.0005174631" flag="0"/>
    </comp>
  </station>
  <station code="CAME" name="CAME" netid="KO" insttype="CMG-5T" lat="36.9435" lon="29.3023">
    <comp name="--.HNN">
      <acc value="0.0582372781" flag="0"/>
      <vel value="0.0279215154" flag="0"/>
      <psa03 value="0.3022252053" flag="0"/>
      <psa10 value="0.0127262249" flag="0"/>
      <psa30 value="0.0013243739" flag="0"/>
    </comp>
    <comp name="--.HNZ">
      <acc value="0.0366176120" flag="0"/>
      <vel value="0.0144636380" flag="0"/>
      <psa03 value="0.0699924214" flag="0"/>
      <psa10 value="0.0147172596" flag="0"/>
      <psa30 value="0.0013500361" flag="0"/>
    </comp>
  </station>
  <station code="DAT" name="DAT" netid="KO" insttype="CMG-3T" lat="36.7308" lon="27.5767">
    <comp name="--.HHE">
      <acc value="0.1715340210" flag="0"/>
      <vel value="0.0439028142" flag="0"/>
      <psa03 value="0.2127999558" flag="0"/>
      <psa10 value="0.0176971444" flag="0"/>
      <psa30 value="0.0013104650" flag="0"/>
    </comp>
    <comp name="--.HHZ">
      <acc value="0.0000295775" flag="0"/>
      <vel value="0.0000028690" flag="0"/>
      <psa03 value="0.0000147088" flag="0"/>
      <psa10 value="0.0000028928" flag="0"/>
      <psa30 value="0.0000006575" flag="0"/>
    </comp>
    <comp name="--.HHN">
      <acc value="0.1580790060" flag="0"/>
      <vel value="0.0444373044" flag="0"/>
      <psa03 value="0.2740161981" flag="0"/>
      <psa10 value="0.0357423511" flag="0"/>
      <psa30 value="0.0017954383" flag="0"/>
    </comp>
  </station>
  <station code="FETY" name="FETY" netid="KO" insttype="CMG-3ESP" lat="36.6353" lon="29.0835">
    <comp name="--.HHE">
      <acc value="0.2104548127" flag="0"/>
      <vel value="0.0549710765" flag="0"/>
      <psa03 value="0.2183686833" flag="0"/>
      <psa10 value="0.0259959485" flag="0"/>
      <psa30 value="0.0027198211" flag="0"/>
    </comp>
    <comp name="--.HHZ">
      <acc value="0.0720011102" flag="0"/>
      <vel value="0.0231709291" flag="0"/>
      <psa03 value="0.1143023162" flag="0"/>
      <psa10 value="0.0142062760" flag="0"/>
      <psa30 value="0.0010334867" flag="0"/>
    </comp>
  </station>
  <station code="MLSB" name="MLSB" netid="KO" insttype="CMG-3ESP" lat="37.2953" lon="27.7767">
    <comp name="--.HHE">
      <acc value="0.1584123307" flag="0"/>
      <vel value="0.0740964269" flag="0"/>
      <psa03 value="0.1863742313" flag="0"/>
      <psa10 value="0.0435453232" flag="0"/>
      <psa30 value="0.0030739850" flag="0"/>
    </comp>
    <comp name="--.HHZ">
      <acc value="0.0450057249" flag="0"/>
      <vel value="0.0153963962" flag="0"/>
      <psa03 value="0.0895647474" flag="0"/>
      <psa10 value="0.0120171999" flag="0"/>
      <psa30 value="0.0008667060" flag="0"/>
    </comp>
    <comp name="--.HHN">
      <acc value="0.1269959559" flag="0"/>
      <vel value="0.0558129563" flag="0"/>
      <psa03 value="0.1124072349" flag="0"/>
      <psa10 value="0.0381403884" flag="0"/>
      <psa30 value="0.0023307765" flag="0"/>
    </comp>
  </station>
  <station code="NAZL" name="NAZL" netid="KO" insttype="CMG-5T" lat="37.9641" lon="28.2922">
    <comp name="--.HNE">
      <acc value="0.0233313762" flag="0"/>
      <vel value="0.0114047587" flag="0"/>
      <psa03 value="0.0773462558" flag="0"/>
      <psa10 value="0.0141218287" flag="0"/>
      <psa30 value="0.0008047076" flag="0"/>
    </comp>
    <comp name="--.HNN">
      <acc value="0.0198925786" flag="0"/>
      <vel value="0.0126614602" flag="0"/>
      <psa03 value="0.0689762803" flag="0"/>
      <psa10 value="0.0175029827" flag="0"/>
      <psa30 value="0.0007465414" flag="0"/>
    </comp>
    <comp name="--.HNZ">
      <acc value="0.0125230262" flag="0"/>
      <vel value="0.0060200589" flag="0"/>
      <psa03 value="0.0312473532" flag="0"/>
      <psa10 value="0.0066161950" flag="0"/>
      <psa30 value="0.0006232846" flag="0"/>
    </comp>
  </station>
  <station code="YER" name="YER" netid="KO" insttype="CMG-3T" lat="37.1336" lon="28.284">
    <comp name="--.HHE">
      <acc value="0.2363267681" flag="0"/>
      <vel value="0.1423864252" flag="0"/>
      <psa03 value="0.4361831067" flag="0"/>
      <psa10 value="0.0544583502" flag="0"/>
      <psa30 value="0.0066973914" flag="0"/>
    </comp>
    <comp name="--.HHN">
      <acc value="0.2136601562" flag="0"/>
      <vel value="0.1240406617" flag="0"/>
      <psa03 value="0.5382055181" flag="0"/>
      <psa10 value="0.0760123793" flag="0"/>
      <psa30 value="0.0096858447" flag="0"/>
    </comp>
    <comp name="--.HHZ">
      <acc value="0.0921702365" flag="0"/>
      <vel value="0.0422671316" flag="0"/>
      <psa03 value="0.1943829475" flag="0"/>
      <psa10 value="0.0308969032" flag="0"/>
      <psa30 value="0.0029637955" flag="0"/>
    </comp>
  </station>
</stationlist>
