<?xml version="1.0" encoding="UTF-8" standalone="yes"?>
<!DOCTYPE earthquake SYSTEM "stationlist.dtd">
<stationlist created="" xmlns="ch.ethz.sed.shakemap.usgs.xml">
  <station code="AYDB" name="AYDB" netid="KO" insttype="CMG-3ESPC" lat="37.9467" lon="27.8908">
    <comp name="--.HHZ">
      <acc value="0.0407441191" flag="0"/>
      <vel value="0.0132255745" flag="0"/>
      <psa03 value="0.0741985576" flag="0"/>
      <psa10 value="0.0079197593" flag="0"/>
      <psa30 value="0.0006792901" flag="0"/>
    </comp>
    <comp name="--.HHE">
      <acc value="0.0292984712" flag="0"/>
      <vel value="0.0180972627" flag="0"/>
      <psa03 value="0.0719394325" flag="0"/>
      <psa10 value="0.0177135654" flag="0"/>
      <psa30 value="0.0013492392" flag="0"/>
    </comp>
  </station>
  <station code="BODA" name="BODA" netid="KO" insttype="ACEBOX" lat="37.0348" lon="27.4304">
    <comp name="--.HNE">
      <acc value="0.0769655990" flag="0"/>
      <vel value="0.0235809545" flag="0"/>
      <psa03 value="0.2031243839" flag="0"/>
      <psa10 value="0.0071198648" flag="0"/>
      <psa30 value="0.0007650846" flag="0"/>
    </comp>
    <comp name="--.HNN">
      <acc value="0.0950770689" flag="0"/>
      <vel value="0.0214866607" flag="0"/>
      <psa03 value="0.1202580125" flag="0"/>
      <psa10 value="0.0110386685" flag="0"/>
      <psa30 value="0.0009452922" flag="0"/>
    </comp>
    <comp name="--.HNZ">
      <acc value="0.0682375506" flag="0"/>
      <vel value="0.0110916007" flag="0"/>
      <psa03 value="0.0296171836" flag="0"/>
      <psa10 value="0.0036770641" flag="0"/>
      <psa30 value="0.0003192275" flag="0"/>
    </comp>
  </station>
  <station code="BODT" name="BODT" netid="KO" insttype="CMG-3ESP" lat="37.0622" lon="27.3103">
    <comp name="--.HHE">
      <acc value="0.1763751300" flag="0"/>
      <vel value="0.0524166439" flag="0"/>
      <psa03 value="0.1246621836" flag="0"/>
      <psa10 value="0.0395767595" flag="0"/>
      <psa30 value="0.0024462209" flag="0"/>
    </comp>
    <comp name="--.HHZ">
      <acc value="0.0929380990" flag="0"/>
      <vel value="0.0204456546" flag="0"/>
      <psa03 value="0.0725098299" flag="0"/>
      <psa10 value="0.0083886499" flag="0"/>
      <psa30 value="0.0005173853" flag="0"/>
    </comp>
    <comp name="--.HHN">
      <acc value="0.1020434520" flag="0"/>
      <vel value="0.0271492709" flag="0"/>
      <psa03 value="0.0882265679" flag="0"/>
      <psa10 value="0.0189043662" flag="0"/>
      <psa30 value="0.0012428599" flag="0"/>
    </comp>
  </station>
  <station code="CAME" name="CAME" netid="KO" insttype="CMG-5T" lat="36.9435" lon="29.3023">
    <comp name="--.HNN">
      <acc value="0.0582372811" flag="0"/>
      <vel value="0.0279215166" flag="0"/>
      <psa03 value="0.3022252053" flag="0"/>
      <psa10 value="0.0127262251" flag="0"/>
      <psa30 value="0.0013244621" flag="0"/>
    </comp>
    <comp name="--.HNZ">
      <acc value="0.0366176134" flag="0"/>
      <vel value="0.0144636407" flag="0"/>
      <psa03 value="0.0699924214" flag="0"/>
      <psa10 value="0.0147172596" flag="0"/>
      <psa30 value="0.0013494451" flag="0"/>
    </comp>
  </station>
  <station code="DAT" name="DAT" netid="KO" insttype="CMG-3T" lat="36.7308" lon="27.5767">
    <comp name="--.HHE">
      <acc value="0.1715340208" flag="0"/>
      <vel value="0.0439028143" flag="0"/>
      <psa03 value="0.2127999558" flag="0"/>
      <psa10 value="0.0176971452" flag="0"/>
      <psa30 value="0.0013105285" flag="0"/>
    </comp>
    <comp name="--.HHN">
      <acc value="0.1580790058" flag="0"/>
      <vel value="0.0444373047" flag="0"/>
      <psa03 value="0.2740161981" flag="0"/>
      <psa10 value="0.0357423517" flag="0"/>
      <psa30 value="0.0017954214" flag="0"/>
    </comp>
    <comp name="--.HHZ">
      <acc value="0.0000295780" flag="0"/>
      <vel value="0.0000028690" flag="0"/>
      <psa03 value="0.0000147088" flag="0"/>
      <psa10 value="0.0000028928" flag="0"/>
      <psa30 value="0.0000006458" flag="0"/>
    </comp>
  </station>
  <station code="ELL" name="ELL" netid="KO" insttype="CMG-3T" lat="36.7483" lon="29.9085">
    <comp name="--.HHZ">
      <acc value="0.0082684999" flag="0"/>
      <vel value="0.0041901539" flag="0"/>
      <psa03 value="0.0251385626" flag="0"/>
      <psa10 value="0.0022715358" flag="0"/>
      <psa30 value="0.0001398661" flag="0"/>
    </comp>
  </station>
  <station code="FETY" name="FETY" netid="KO" insttype="CMG-3ESP" lat="36.6353" lon="29.0835">
    <comp name="--.HHE">
      <acc value="0.2104548124" flag="0"/>
      <vel value="0.0549710743" flag="0"/>
      <psa03 value="0.2183686833" flag="0"/>
      <psa10 value="0.0259959475" flag="0"/>
      <psa30 value="0.0027198427" flag="0"/>
    </comp>
    <comp name="--.HHZ">
      <acc value="0.0720011102" flag="0"/>
      <vel value="0.0231709278" flag="0"/>
      <psa03 value="0.1143023162" flag="0"/>
      <psa10 value="0.0142062761" flag="0"/>
      <psa30 value="0.0010334562" flag="0"/>
    </comp>
  </station>
  <station code="MLSB" name="MLSB" netid="KO" insttype="CMG-3ESP" lat="37.2953" lon="27.7767">
    <comp name="--.HHE">
      <acc value="0.1584123306" flag="0"/>
      <vel value="0.0740964297" flag="0"/>
      <psa03 value="0.1863742313" flag="0"/>
      <psa10 value="0.0435453233" flag="0"/>
      <psa30 value="0.0030739845" flag="0"/>
    </comp>
    <comp name="--.HHN">
      <acc value="0.1269959559" flag="0"/>
      <vel value="0.0558129555" flag="0"/>
      <psa03 value="0.1124072349" flag="0"/>
      <psa10 value="0.0381403885" flag="0"/>
      <psa30 value="0.0023307729" flag="0"/>
    </comp>
    <comp name="--.HHZ">
      <acc value="0.0450057249" flag="0"/>
      <vel value="0.0153963964" flag="0"/>
      <psa03 value="0.0895647474" flag="0"/>
      <psa10 value="0.0120171999" flag="0"/>
      <psa30 value="0.0008666812" flag="0"/>
    </comp>
  </station>
  <station code="NAZL" name="NAZL" netid="KO" insttype="CMG-5T" lat="37.9641" lon="28.2922">
    <comp name="--.HNE">
      <acc value="0.0233313760" flag="0"/>
      <vel value="0.0114047588" flag="0"/>
      <psa03 value="0.0773462558" flag="0"/>
      <psa10 value="0.0141218287" flag="0"/>
      <psa30 value="0.0008047169" flag="0"/>
    </comp>
    <comp name="--.HNZ">
      <acc value="0.0125230261" flag="0"/>
      <vel value="0.0060200592" flag="0"/>
      <psa03 value="0.0312473532" flag="0"/>
      <psa10 value="0.0066161950" flag="0"/>
      <psa30 value="0.0006233161" flag="0"/>
    </comp>
    <comp name="--.HNN">
      <acc value="0.0198925785" flag="0"/>
      <vel value="0.0126614585" flag="0"/>
      <psa03 value="0.0689762803" flag="0"/>
      <psa10 value="0.0175029827" flag="0"/>
      <psa30 value="0.0007465360" flag="0"/>
    </comp>
  </station>
  <station code="YER" name="YER" netid="KO" insttype="CMG-3T" lat="37.1336" lon="28.284">
    <comp name="--.HHE">
      <acc value="0.2363267681" flag="0"/>
      <vel value="0.1423864255" flag="0"/>
      <psa03 value="0.4361831067" flag="0"/>
      <psa10 value="0.0544583501" flag="0"/>
      <psa30 value="0.0066972810" flag="0"/>
    </comp>
    <comp name="--.HHN">
      <acc value="0.2136601558" flag="0"/>
      <vel value="0.1240406614" flag="0"/>
      <psa03 value="0.5382055181" flag="0"/>
      <psa10 value="0.0760123791" flag="0"/>
      <psa30 value="0.0096857119" flag="0"/>
    </comp>
    <comp name="--.HHZ">
      <acc value="0.0921702376" flag="0"/>
      <vel value="0.0422671321" flag="0"/>
      <psa03 value="0.1943829475" flag="0"/>
      <psa10 value="0.0308969032" flag="0"/>
      <psa30 value="0.0029638336" flag="0"/>
    </comp>
  </station>
</stationlist>
