<?xml version="1.0" encoding="UTF-8" standalone="yes"?>
<!DOCTYPE earthquake SYSTEM "stationlist.dtd">
<stationlist created="" xmlns="ch.ethz.sed.shakemap.usgs.xml">
  <station code="ATHR" name="ATHR" netid="HA" insttype="GEOtiny," lat="38.3172" lon="20.4165">
    <comp name="--.HHE">
      <acc value="0.2753176123" flag="0"/>
      <vel value="0.1135518558" flag="0"/>
      <psa03 value="0.6762411343" flag="0"/>
      <psa10 value="0.0893901870" flag="0"/>
      <psa30 value="0.0075563395" flag="0"/>
    </comp>
    <comp name="--.HHN">
      <acc value="0.1896320542" flag="0"/>
      <vel value="0.0826829242" flag="0"/>
      <psa03 value="0.3251305896" flag="0"/>
      <psa10 value="0.0757910980" flag="0"/>
      <psa30 value="0.0080720609" flag="0"/>
    </comp>
    <comp name="--.HHZ">
      <acc value="0.3454768482" flag="0"/>
      <vel value="0.0814083500" flag="0"/>
      <psa03 value="0.2692990110" flag="0"/>
      <psa10 value="0.0986134722" flag="0"/>
      <psa30 value="0.0095183276" flag="0"/>
    </comp>
  </station>
  <station code="HAVD" name="HAVD" netid="HA" insttype="GEOtiny," lat="38.2036" lon="20.3848">
    <comp name="--.HHZ">
      <acc value="0.3686716991" flag="0"/>
      <vel value="0.0642186858" flag="0"/>
      <psa03 value="0.4252557633" flag="0"/>
      <psa10 value="0.0368757352" flag="0"/>
      <psa30 value="0.0057878921" flag="0"/>
    </comp>
    <comp name="--.HHN">
      <acc value="0.3006206418" flag="0"/>
      <vel value="0.1122261627" flag="0"/>
      <psa03 value="0.4644666983" flag="0"/>
      <psa10 value="0.1352875409" flag="0"/>
      <psa30 value="0.0074428741" flag="0"/>
    </comp>
    <comp name="--.HHE">
      <acc value="0.3287421455" flag="0"/>
      <vel value="0.1044081485" flag="0"/>
      <psa03 value="0.4325819883" flag="0"/>
      <psa10 value="0.0981318450" flag="0"/>
      <psa30 value="0.0051385377" flag="0"/>
    </comp>
  </station>
  <station code="ARG2" name="ARG2" netid="HI" insttype="CMG-5TD,ACCELEROMETER,GURALP" lat="38.1783" lon="20.4878">
    <comp name="--.HNE">
      <acc value="0.8307024554" flag="0"/>
      <vel value="0.1706479910" flag="0"/>
      <psa03 value="0.9202316968" flag="0"/>
      <psa10 value="0.0730206321" flag="0"/>
      <psa30 value="0.0044366848" flag="0"/>
    </comp>
    <comp name="--.HNN">
      <acc value="0.6641382627" flag="0"/>
      <vel value="0.1287019006" flag="0"/>
      <psa03 value="0.5894663884" flag="0"/>
      <psa10 value="0.0831631011" flag="0"/>
      <psa30 value="0.0055275532" flag="0"/>
    </comp>
    <comp name="--.HNZ">
      <acc value="0.4399106119" flag="0"/>
      <vel value="0.1487355484" flag="0"/>
      <psa03 value="0.7822177722" flag="0"/>
      <psa10 value="0.0488023295" flag="0"/>
      <psa30 value="0.0063594556" flag="0"/>
    </comp>
  </station>
  <station code="ART2" name="ART2" netid="HI" insttype="CMG-5TD,ACCELEROMETER,GURALP" lat="39.1474" lon="20.9937">
    <comp name="--.HNE">
      <acc value="0.0269131596" flag="0"/>
      <vel value="0.0112894641" flag="0"/>
      <psa03 value="0.0402203901" flag="0"/>
      <psa10 value="0.0128010159" flag="0"/>
      <psa30 value="0.0007523593" flag="0"/>
    </comp>
    <comp name="--.HNN">
      <acc value="0.0360555088" flag="0"/>
      <vel value="0.0131086201" flag="0"/>
      <psa03 value="0.0644220262" flag="0"/>
      <psa10 value="0.0105544037" flag="0"/>
      <psa30 value="0.0009462634" flag="0"/>
    </comp>
    <comp name="--.HNZ">
      <acc value="0.0251360910" flag="0"/>
      <vel value="0.0076629148" flag="0"/>
      <psa03 value="0.0489160245" flag="0"/>
      <psa10 value="0.0052612206" flag="0"/>
      <psa30 value="0.0008978350" flag="0"/>
    </comp>
  </station>
  <station code="MSL1" name="MSL1" netid="HI" insttype="CMG-5TD,ACCELEROMETER,GURALP" lat="38.3727" lon="21.4243">
    <comp name="--.HNE">
      <acc value="0.2404590277" flag="0"/>
      <vel value="0.1586703881" flag="0"/>
      <psa03 value="0.7685640758" flag="0"/>
      <psa10 value="0.2032148362" flag="0"/>
      <psa30 value="0.0055211582" flag="0"/>
    </comp>
    <comp name="--.HNN">
      <acc value="0.2135796629" flag="0"/>
      <vel value="0.1608097972" flag="0"/>
      <psa03 value="0.4616846994" flag="0"/>
      <psa10 value="0.1427701624" flag="0"/>
      <psa30 value="0.0080228077" flag="0"/>
    </comp>
    <comp name="--.HNZ">
      <acc value="0.1114085460" flag="0"/>
      <vel value="0.0627230360" flag="0"/>
      <psa03 value="0.1951785578" flag="0"/>
      <psa10 value="0.0886579359" flag="0"/>
      <psa30 value="0.0043194831" flag="0"/>
    </comp>
  </station>
  <station code="VAS2" name="VAS2" netid="HI" insttype="CMG-5TD,ACCELEROMETER,GURALP" lat="38.6306" lon="20.6081">
    <comp name="--.HNE">
      <acc value="0.8230017266" flag="0"/>
      <vel value="0.2417020657" flag="0"/>
      <psa03 value="1.3129939283" flag="0"/>
      <psa10 value="0.3430065671" flag="0"/>
      <psa30 value="0.0124999599" flag="0"/>
    </comp>
    <comp name="--.HNN">
      <acc value="0.9973157894" flag="0"/>
      <vel value="0.2949459199" flag="0"/>
      <psa03 value="1.3555227414" flag="0"/>
      <psa10 value="0.3369108955" flag="0"/>
      <psa30 value="0.0231707028" flag="0"/>
    </comp>
    <comp name="--.HNZ">
      <acc value="0.6265250572" flag="0"/>
      <vel value="0.2038177186" flag="0"/>
      <psa03 value="0.5745181578" flag="0"/>
      <psa10 value="0.1073218710" flag="0"/>
      <psa30 value="0.0071464509" flag="0"/>
    </comp>
  </station>
  <station code="EVR" name="EVR" netid="HL" insttype="DR24" lat="38.9166" lon="21.8105">
    <comp name="--.HHE">
      <acc value="0.0119885385" flag="0"/>
      <vel value="0.0067294387" flag="0"/>
      <psa03 value="0.0373041405" flag="0"/>
      <psa10 value="0.0093238606" flag="0"/>
      <psa30 value="0.0009614730" flag="0"/>
    </comp>
    <comp name="--.HHN">
      <acc value="0.0108405659" flag="0"/>
      <vel value="0.0070755275" flag="0"/>
      <psa03 value="0.0304093744" flag="0"/>
      <psa10 value="0.0135110627" flag="0"/>
      <psa30 value="0.0010075395" flag="0"/>
    </comp>
    <comp name="--.HHZ">
      <acc value="0.0080567966" flag="0"/>
      <vel value="0.0067337050" flag="0"/>
      <psa03 value="0.0255353926" flag="0"/>
      <psa10 value="0.0169757134" flag="0"/>
      <psa30 value="0.0008182035" flag="0"/>
    </comp>
  </station>
  <station code="LXRA" name="LXRA" netid="HL" insttype="CMG-5" lat="38.2001" lon="20.4372">
    <comp name="00.HNN">
      <acc value="0.7237012223" flag="0"/>
      <vel value="0.2393763161" flag="0"/>
      <psa03 value="1.3194766041" flag="0"/>
      <psa10 value="0.2035079890" flag="0"/>
      <psa30 value="0.0167858783" flag="0"/>
    </comp>
    <comp name="00.HNE">
      <acc value="0.7977806728" flag="0"/>
      <vel value="0.1841230140" flag="0"/>
      <psa03 value="1.3446702210" flag="0"/>
      <psa10 value="0.2082583337" flag="0"/>
      <psa30 value="0.0117021857" flag="0"/>
    </comp>
    <comp name="00.HNZ">
      <acc value="0.9699565546" flag="0"/>
      <vel value="0.1319561998" flag="0"/>
      <psa03 value="0.4292592437" flag="0"/>
      <psa10 value="0.0797040825" flag="0"/>
      <psa30 value="0.0131107860" flag="0"/>
    </comp>
  </station>
  <station code="ORTH" name="ORTH" netid="HL" insttype="30" lat="37.8511" lon="20.6963">
    <comp name="--.HHN">
      <acc value="0.1620355682" flag="0"/>
      <vel value="0.0782926140" flag="0"/>
      <psa03 value="0.4255710733" flag="0"/>
      <psa10 value="0.0706479489" flag="0"/>
      <psa30 value="0.0053063285" flag="0"/>
    </comp>
    <comp name="--.HHE">
      <acc value="0.1347782362" flag="0"/>
      <vel value="0.0700294163" flag="0"/>
      <psa03 value="0.3841792432" flag="0"/>
      <psa10 value="0.0496687128" flag="0"/>
      <psa30 value="0.0024045655" flag="0"/>
    </comp>
    <comp name="--.HHZ">
      <acc value="0.0822632578" flag="0"/>
      <vel value="0.0271559498" flag="0"/>
      <psa03 value="0.1672457558" flag="0"/>
      <psa10 value="0.0199828554" flag="0"/>
      <psa30 value="0.0015341498" flag="0"/>
    </comp>
  </station>
  <station code="RLS" name="RLS" netid="HL" insttype="CMG3ESPC-120s" lat="38.0559" lon="21.4647">
    <comp name="--.HHE">
      <acc value="0.0278638432" flag="0"/>
      <vel value="0.0105493089" flag="0"/>
      <psa03 value="0.0848106662" flag="0"/>
      <psa10 value="0.0114882703" flag="0"/>
      <psa30 value="0.0010894695" flag="0"/>
    </comp>
    <comp name="--.HHN">
      <acc value="0.0305669778" flag="0"/>
      <vel value="0.0131295226" flag="0"/>
      <psa03 value="0.0712317430" flag="0"/>
      <psa10 value="0.0113187623" flag="0"/>
      <psa30 value="0.0009099676" flag="0"/>
    </comp>
    <comp name="--.HHZ">
      <acc value="0.0145225330" flag="0"/>
      <vel value="0.0082747153" flag="0"/>
      <psa03 value="0.0360971881" flag="0"/>
      <psa10 value="0.0062992988" flag="0"/>
      <psa30 value="0.0006064128" flag="0"/>
    </comp>
  </station>
  <station code="TETR" name="TETR" netid="HL" insttype="60" lat="39.3445" lon="21.2747">
    <comp name="--.HHE">
      <acc value="0.0670981527" flag="0"/>
      <vel value="0.0301575061" flag="0"/>
      <psa03 value="0.1762585758" flag="0"/>
      <psa10 value="0.0239635619" flag="0"/>
      <psa30 value="0.0012447038" flag="0"/>
    </comp>
    <comp name="--.HHN">
      <acc value="0.0431243621" flag="0"/>
      <vel value="0.0168211426" flag="0"/>
      <psa03 value="0.1046447730" flag="0"/>
      <psa10 value="0.0199891182" flag="0"/>
      <psa30 value="0.0013298885" flag="0"/>
    </comp>
    <comp name="--.HHZ">
      <acc value="0.0205061090" flag="0"/>
      <vel value="0.0109724676" flag="0"/>
      <psa03 value="0.0550183068" flag="0"/>
      <psa10 value="0.0188026796" flag="0"/>
      <psa30 value="0.0014941185" flag="0"/>
    </comp>
  </station>
  <station code="VLS" name="VLS" netid="HL" insttype="120P," lat="38.1768" lon="20.5886">
    <comp name="--.HHE">
      <acc value="2.1159247265" flag="0"/>
      <vel value="0.2676556143" flag="0"/>
      <psa03 value="1.1525496424" flag="0"/>
      <psa10 value="0.0679149703" flag="0"/>
      <psa30 value="0.0057664591" flag="0"/>
    </comp>
    <comp name="--.HHN">
      <acc value="1.8204886588" flag="0"/>
      <vel value="0.2695881427" flag="0"/>
      <psa03 value="0.7108813102" flag="0"/>
      <psa10 value="0.0718077471" flag="0"/>
      <psa30 value="0.0045511436" flag="0"/>
    </comp>
    <comp name="--.HHZ">
      <acc value="0.6534887345" flag="0"/>
      <vel value="0.1118611786" flag="0"/>
      <psa03 value="0.4687943137" flag="0"/>
      <psa10 value="0.0899613074" flag="0"/>
      <psa30 value="0.0063653819" flag="0"/>
    </comp>
  </station>
  <station code="AMPL" name="AMPL" netid="HP" insttype="Compact," lat="38.9224" lon="21.2135">
    <comp name="--.HHE">
      <acc value="0.0832185543" flag="0"/>
      <vel value="0.0322141071" flag="0"/>
      <psa03 value="0.1830542859" flag="0"/>
      <psa10 value="0.0219802287" flag="0"/>
      <psa30 value="0.0014288037" flag="0"/>
    </comp>
    <comp name="--.HHN">
      <acc value="0.0575835033" flag="0"/>
      <vel value="0.0224213629" flag="0"/>
      <psa03 value="0.0919738064" flag="0"/>
      <psa10 value="0.0137523604" flag="0"/>
      <psa30 value="0.0010436910" flag="0"/>
    </comp>
    <comp name="--.HHZ">
      <acc value="0.0424294328" flag="0"/>
      <vel value="0.0153563616" flag="0"/>
      <psa03 value="0.1297331485" flag="0"/>
      <psa10 value="0.0129883086" flag="0"/>
      <psa30 value="0.0014610374" flag="0"/>
    </comp>
  </station>
  <station code="ANX" name="ANX" netid="HP" insttype="120" lat="38.5933" lon="21.9209">
    <comp name="--.HHN">
      <acc value="0.0273129373" flag="0"/>
      <vel value="0.0225312261" flag="0"/>
      <psa03 value="0.0604540227" flag="0"/>
      <psa10 value="0.0438672824" flag="0"/>
      <psa30 value="0.0023370189" flag="0"/>
    </comp>
    <comp name="--.HHE">
      <acc value="0.0245056634" flag="0"/>
      <vel value="0.0228813714" flag="0"/>
      <psa03 value="0.0565174760" flag="0"/>
      <psa10 value="0.0218395321" flag="0"/>
      <psa30 value="0.0018224393" flag="0"/>
    </comp>
    <comp name="--.HHZ">
      <acc value="0.0166840655" flag="0"/>
      <vel value="0.0127112279" flag="0"/>
      <psa03 value="0.0321963970" flag="0"/>
      <psa10 value="0.0216320235" flag="0"/>
      <psa30 value="0.0010654958" flag="0"/>
    </comp>
  </station>
  <station code="AXS" name="AXS" netid="HP" insttype="Compact," lat="38.1962" lon="21.3763">
    <comp name="--.HHZ">
      <acc value="0.0177246259" flag="0"/>
      <vel value="0.0066600419" flag="0"/>
      <psa03 value="0.0405790911" flag="0"/>
      <psa10 value="0.0096626007" flag="0"/>
      <psa30 value="0.0004203422" flag="0"/>
    </comp>
    <comp name="--.HHE">
      <acc value="0.0304207567" flag="0"/>
      <vel value="0.0097468110" flag="0"/>
      <psa03 value="0.0541156928" flag="0"/>
      <psa10 value="0.0096647731" flag="0"/>
      <psa30 value="0.0006322213" flag="0"/>
    </comp>
    <comp name="--.HHN">
      <acc value="0.0364881071" flag="0"/>
      <vel value="0.0186761103" flag="0"/>
      <psa03 value="0.0711256221" flag="0"/>
      <psa10 value="0.0233713915" flag="0"/>
      <psa30 value="0.0015567061" flag="0"/>
    </comp>
  </station>
  <station code="DRO" name="DRO" netid="HP" insttype="120P," lat="37.952" lon="21.71">
    <comp name="--.HHE">
      <acc value="0.0385678054" flag="0"/>
      <vel value="0.0214922100" flag="0"/>
      <psa03 value="0.1147771657" flag="0"/>
      <psa10 value="0.0183636076" flag="0"/>
      <psa30 value="0.0011956512" flag="0"/>
    </comp>
    <comp name="--.HHN">
      <acc value="0.0596356037" flag="0"/>
      <vel value="0.0277112944" flag="0"/>
      <psa03 value="0.1288394276" flag="0"/>
      <psa10 value="0.0234775041" flag="0"/>
      <psa30 value="0.0010210359" flag="0"/>
    </comp>
    <comp name="--.HHZ">
      <acc value="0.0192122171" flag="0"/>
      <vel value="0.0093402605" flag="0"/>
      <psa03 value="0.0497216330" flag="0"/>
      <psa10 value="0.0087457183" flag="0"/>
      <psa30 value="0.0005616812" flag="0"/>
    </comp>
  </station>
  <station code="EFP" name="EFP" netid="HP" insttype="40," lat="38.4269" lon="21.9058">
    <comp name="--.HHE">
      <acc value="0.0504816060" flag="0"/>
      <vel value="0.0330028812" flag="0"/>
      <psa03 value="0.1362704255" flag="0"/>
      <psa10 value="0.0275367326" flag="0"/>
      <psa30 value="0.0017251416" flag="0"/>
    </comp>
    <comp name="--.HHZ">
      <acc value="0.0227575159" flag="0"/>
      <vel value="0.0141277885" flag="0"/>
      <psa03 value="0.0646415212" flag="0"/>
      <psa10 value="0.0101502574" flag="0"/>
      <psa30 value="0.0007329084" flag="0"/>
    </comp>
    <comp name="--.HHN">
      <acc value="0.0290589269" flag="0"/>
      <vel value="0.0193591033" flag="0"/>
      <psa03 value="0.1004288599" flag="0"/>
      <psa10 value="0.0157032465" flag="0"/>
      <psa30 value="0.0026479306" flag="0"/>
    </comp>
  </station>
  <station code="FSK" name="FSK" netid="HP" insttype="40," lat="38.4593" lon="20.5623">
    <comp name="--.HHN">
      <acc value="1.6532375728" flag="0"/>
      <vel value="0.5454723866" flag="0"/>
      <psa03 value="2.2244977055" flag="0"/>
      <psa10 value="0.3881050598" flag="0"/>
      <psa30 value="0.0338490505" flag="0"/>
    </comp>
    <comp name="--.HHZ">
      <acc value="0.9993671346" flag="0"/>
      <vel value="0.2491497691" flag="0"/>
      <psa03 value="0.7785599672" flag="0"/>
      <psa10 value="0.1584581224" flag="0"/>
      <psa30 value="0.0089093902" flag="0"/>
    </comp>
    <comp name="--.HHE">
      <acc value="2.5788919703" flag="0"/>
      <vel value="0.5187562037" flag="0"/>
      <psa03 value="2.3200298967" flag="0"/>
      <psa10 value="0.1707903993" flag="0"/>
      <psa30 value="0.0185088154" flag="0"/>
    </comp>
  </station>
  <station code="KSTR" name="KSTR" netid="HP" insttype="Compact," lat="39.2492" lon="20.576">
    <comp name="--.HHN">
      <acc value="0.0505936579" flag="0"/>
      <vel value="0.0188000135" flag="0"/>
      <psa03 value="0.1383099490" flag="0"/>
      <psa10 value="0.0091445638" flag="0"/>
      <psa30 value="0.0006052350" flag="0"/>
    </comp>
    <comp name="--.HHZ">
      <acc value="0.0580997473" flag="0"/>
      <vel value="0.0143280658" flag="0"/>
      <psa03 value="0.0930101389" flag="0"/>
      <psa10 value="0.0044551857" flag="0"/>
      <psa30 value="0.0004360029" flag="0"/>
    </comp>
    <comp name="--.HHE">
      <acc value="0.0629260598" flag="0"/>
      <vel value="0.0277504630" flag="0"/>
      <psa03 value="0.1657102529" flag="0"/>
      <psa10 value="0.0181664231" flag="0"/>
      <psa30 value="0.0010385802" flag="0"/>
    </comp>
  </station>
  <station code="LTHK" name="LTHK" netid="HP" insttype="40," lat="37.7095" lon="20.8367">
    <comp name="--.HHE">
      <acc value="0.0820124146" flag="0"/>
      <vel value="0.0388285954" flag="0"/>
      <psa03 value="0.2138734335" flag="0"/>
      <psa10 value="0.0247836700" flag="0"/>
      <psa30 value="0.0018248515" flag="0"/>
    </comp>
    <comp name="--.HHZ">
      <acc value="0.0518020573" flag="0"/>
      <vel value="0.0203837845" flag="0"/>
      <psa03 value="0.1542456462" flag="0"/>
      <psa10 value="0.0184914829" flag="0"/>
      <psa30 value="0.0011921982" flag="0"/>
    </comp>
    <comp name="--.HHN">
      <acc value="0.0906141228" flag="0"/>
      <vel value="0.0423868650" flag="0"/>
      <psa03 value="0.2877902023" flag="0"/>
      <psa10 value="0.0413685912" flag="0"/>
      <psa30 value="0.0018770708" flag="0"/>
    </comp>
  </station>
  <station code="PDO" name="PDO" netid="HP" insttype="120s" lat="38.5986" lon="21.1833">
    <comp name="--.HHE">
      <acc value="0.1355123609" flag="0"/>
      <vel value="0.0389419752" flag="0"/>
      <psa03 value="0.2399479918" flag="0"/>
      <psa10 value="0.0215531462" flag="0"/>
      <psa30 value="0.0017017439" flag="0"/>
    </comp>
    <comp name="--.HHZ">
      <acc value="0.0843207711" flag="0"/>
      <vel value="0.0301390151" flag="0"/>
      <psa03 value="0.1629383258" flag="0"/>
      <psa10 value="0.0172420269" flag="0"/>
      <psa30 value="0.0013941309" flag="0"/>
    </comp>
    <comp name="--.HHN">
      <acc value="0.1066994276" flag="0"/>
      <vel value="0.0466201469" flag="0"/>
      <psa03 value="0.4092712664" flag="0"/>
      <psa10 value="0.0301749999" flag="0"/>
      <psa30 value="0.0022311041" flag="0"/>
    </comp>
  </station>
  <station code="PLEV" name="PLEV" netid="HP" insttype="Compact," lat="38.4124" lon="21.4073">
    <comp name="--.HHN">
      <acc value="0.0578083956" flag="0"/>
      <vel value="0.0271107378" flag="0"/>
      <psa03 value="0.1291540900" flag="0"/>
      <psa10 value="0.0259467618" flag="0"/>
      <psa30 value="0.0013898135" flag="0"/>
    </comp>
    <comp name="--.HHE">
      <acc value="0.0471952406" flag="0"/>
      <vel value="0.0241727583" flag="0"/>
      <psa03 value="0.1234648639" flag="0"/>
      <psa10 value="0.0200223221" flag="0"/>
      <psa30 value="0.0009300793" flag="0"/>
    </comp>
    <comp name="--.HHZ">
      <acc value="0.0340184004" flag="0"/>
      <vel value="0.0128746642" flag="0"/>
      <psa03 value="0.0820757446" flag="0"/>
      <psa10 value="0.0144107635" flag="0"/>
      <psa30 value="0.0009774180" flag="0"/>
    </comp>
  </station>
  <station code="PVO" name="PVO" netid="HP" insttype="120P," lat="38.616" lon="21.525">
    <comp name="--.HHE">
      <acc value="0.0591391348" flag="0"/>
      <vel value="0.0315492340" flag="0"/>
      <psa03 value="0.1329182452" flag="0"/>
      <psa10 value="0.0329729453" flag="0"/>
      <psa30 value="0.0017275963" flag="0"/>
    </comp>
    <comp name="--.HHN">
      <acc value="0.0749062065" flag="0"/>
