<stationlist created="1729240291">
	<station code="MALA" name="MALA" netid="CL" source="Corinth Riff Laboratory (CRLNET)" insttype="" lat="38.39341" lon="21.87263">
		<comp name="00.HNE" depth="0.0">
			<acc value="0.048007601868228" flag="0"/>
			<vel value="0.0497380107414" flag="0"/>
			<psa03 value="0.161049606246015" flag="0"/>
			<psa10 value="0.0585903413226394" flag="0"/>
			<psa30 value="0.00432800920936881" flag="0"/>
		</comp>
		<comp name="00.HNN" depth="0.0">
			<acc value="0.035848360062636" flag="0"/>
			<vel value="0.0305727307518" flag="0"/>
			<psa03 value="0.100120892934573" flag="0"/>
			<psa10 value="0.0519993171994811" flag="0"/>
			<psa30 value="0.00461127922461651" flag="0"/>
		</comp>
		<comp name="00.HNZ" depth="0.0">
			<acc value="0.017530842509694" flag="0"/>
			<vel value="0.0152528311882" flag="0"/>
			<psa03 value="0.0329406196543671" flag="0"/>
			<psa10 value="0.0189422348301043" flag="0"/>
			<psa30 value="0.00163236511534352" flag="0"/>
		</comp>
	</station>
	<station code="TRIZ" name="TRIZ" netid="CL" source="Corinth Riff Laboratory (CRLNET)" insttype="" lat="38.36543" lon="22.07272">
		<comp name="00.HNE" depth="0.0">
			<acc value="0.024939915420012" flag="0"/>
			<vel value="0.0183837605907" flag="0"/>
			<psa03 value="0.0526725465895231" flag="0"/>
			<psa10 value="0.015655557416337" flag="0"/>
			<psa30 value="0.00198312387222224" flag="0"/>
		</comp>
		<comp name="00.HNN" depth="0.0">
			<acc value="0.051303524154918" flag="0"/>
			<vel value="0.0313967845065" flag="0"/>
			<psa03 value="0.157427699645614" flag="0"/>
			<psa10 value="0.0274940388451384" flag="0"/>
			<psa30 value="0.00130406805477378" flag="0"/>
		</comp>
		<comp name="00.HNZ" depth="0.0">
			<acc value="0.014659058756946" flag="0"/>
			<vel value="0.00890587954539" flag="0"/>
			<psa03 value="0.0241963554939717" flag="0"/>
			<psa10 value="0.0201685173152773" flag="0"/>
			<psa30 value="0.000921097789042568" flag="0"/>
		</comp>
	</station>
	<station code="AIG2" name="AIG2" netid="HI" source="ITSAK Strong Motion Network" insttype="" lat="38.2417" lon="22.0726">
		<comp name=".HNE" depth="0.0">
			<acc value="0.014728462732512" flag="0"/>
			<vel value="0.0106190586777" flag="0"/>
			<psa03 value="0.0338765306122159" flag="0"/>
			<psa10 value="0.0143726068021532" flag="0"/>
			<psa30 value="0.00128718339458334" flag="0"/>
		</comp>
		<comp name=".HNN" depth="0.0">
			<acc value="0.011267508094566" flag="0"/>
			<vel value="0.00817336904931" flag="0"/>
			<psa03 value="0.0323748165476924" flag="0"/>
			<psa10 value="0.0114530505833813" flag="0"/>
			<psa30 value="0.00134553392668704" flag="0"/>
		</comp>
		<comp name=".HNZ" depth="0.0">
			<acc value="0.0090741746775678" flag="0"/>
			<vel value="0.0063154574917" flag="0"/>
			<psa03 value="0.0226195453088852" flag="0"/>
			<psa10 value="0.0156268277006483" flag="0"/>
			<psa30 value="0.000815956136422008" flag="0"/>
		</comp>
	</station>
	<station code="AOL1" name="AOL1" netid="HI" source="ITSAK Strong Motion Network" insttype="" lat="37.642378" lon="21.624555">
		<comp name=".HNE" depth="0.0">
			<acc value="0.027780242082978" flag="0"/>
			<vel value="0.0178585348744" flag="0"/>
			<psa03 value="0.0694181559037077" flag="0"/>
			<psa10 value="0.0258079684012415" flag="0"/>
			<psa30 value="0.00210658621766658" flag="0"/>
		</comp>
		<comp name=".HNN" depth="0.0">
			<acc value="0.019635757177416" flag="0"/>
			<vel value="0.0193746992906" flag="0"/>
			<psa03 value="0.0638507402150604" flag="0"/>
			<psa10 value="0.0233586661469944" flag="0"/>
			<psa30 value="0.00303472061868041" flag="0"/>
		</comp>
		<comp name=".HNZ" depth="0.0">
			<acc value="0.016152619998282" flag="0"/>
			<vel value="0.0113130641506" flag="0"/>
			<psa03 value="0.0479144188868655" flag="0"/>
			<psa10 value="0.0179823268658913" flag="0"/>
			<psa30 value="0.000977094623555424" flag="0"/>
		</comp>
	</station>
	<station code="ARG2" name="ARG2" netid="HI" source="ITSAK Strong Motion Network" insttype="" lat="38.1783" lon="20.4878">
		<comp name=".HNE" depth="0.0">
			<acc value="0.78796737139254" flag="0"/>
			<vel value="0.170542180232" flag="0"/>
			<psa03 value="0.922588200275554" flag="0"/>
			<psa10 value="0.0729144377238105" flag="0"/>
			<psa30 value="0.00472643518645354" flag="0"/>
		</comp>
		<comp name=".HNN" depth="0.0">
			<acc value="0.66043714312848" flag="0"/>
			<vel value="0.129483441199" flag="0"/>
			<psa03 value="0.590124801205626" flag="0"/>
			<psa10 value="0.0832962879703018" flag="0"/>
			<psa30 value="0.00585641420870044" flag="0"/>
		</comp>
		<comp name=".HNZ" depth="0.0">
			<acc value="0.42879645081234" flag="0"/>
			<vel value="0.15112540775" flag="0"/>
			<psa03 value="0.788065122112218" flag="0"/>
			<psa10 value="0.0489777157833201" flag="0"/>
			<psa30 value="0.00671618116404421" flag="0"/>
		</comp>
	</station>
	<station code="ARS1" name="ARS1" netid="HI" source="ITSAK Strong Motion Network" insttype="" lat="37.6349" lon="22.7293">
		<comp name=".HNE" depth="0.0">
			<acc value="0.0096231035367726" flag="0"/>
			<vel value="0.00774085317754" flag="0"/>
			<psa03 value="0.0184314618793292" flag="0"/>
			<psa10 value="0.0112790128042333" flag="0"/>
			<psa30 value="0.000744308890145597" flag="0"/>
		</comp>
		<comp name=".HNN" depth="0.0">
			<acc value="0.0098746446370698" flag="0"/>
			<vel value="0.00961728931903" flag="0"/>
			<psa03 value="0.0309011746553131" flag="0"/>
			<psa10 value="0.0175419239413784" flag="0"/>
			<psa30 value="0.000886407157626001" flag="0"/>
		</comp>
		<comp name=".HNZ" depth="0.0">
			<acc value="0.0048869557428546" flag="0"/>
			<vel value="0.00369605580656" flag="0"/>
			<psa03 value="0.0141728959160292" flag="0"/>
			<psa10 value="0.00236576312644456" flag="0"/>
			<psa30 value="0.000499600648173715" flag="0"/>
		</comp>
	</station>
	<station code="ART2" name="ART2" netid="HI" source="ITSAK Strong Motion Network" insttype="" lat="39.1474" lon="20.9937">
		<comp name=".HNE" depth="0.0">
			<acc value="0.027054565948056" flag="0"/>
			<vel value="0.0112972372022" flag="0"/>
			<psa03 value="0.0409881657856523" flag="0"/>
			<psa10 value="0.0128228982040797" flag="0"/>
			<psa30 value="0.000802212830164465" flag="0"/>
		</comp>
		<comp name=".HNN" depth="0.0">
			<acc value="0.036077251388958" flag="0"/>
			<vel value="0.0134711087311" flag="0"/>
			<psa03 value="0.0650202343545645" flag="0"/>
			<psa10 value="0.0105753039994754" flag="0"/>
			<psa30 value="0.00105910297287618" flag="0"/>
		</comp>
		<comp name=".HNZ" depth="0.0">
			<acc value="0.025036494387762" flag="0"/>
			<vel value="0.00810687396775" flag="0"/>
			<psa03 value="0.0487988837284036" flag="0"/>
			<psa10 value="0.0052758434049836" flag="0"/>
			<psa30 value="0.00100117642719298" flag="0"/>
		</comp>
	</station>
	<station code="ITC1" name="ITC1" netid="HI" source="ITSAK Strong Motion Network" insttype="" lat="38.3647" lon="20.7156">
		<comp name=".HNE" depth="0.0">
			<acc value="2.4149744612772" flag="0"/>
			<vel value="0.621583866786" flag="0"/>
			<psa03 value="2.72761752460761" flag="0"/>
			<psa10 value="0.179433471586702" flag="0"/>
			<psa30 value="0.0140948703826635" flag="0"/>
		</comp>
		<comp name=".HNN" depth="0.0">
			<acc value="1.708509900987" flag="0"/>
			<vel value="0.514855601404" flag="0"/>
			<psa03 value="3.65672457339075" flag="0"/>
			<psa10 value="0.201871583001535" flag="0"/>
			<psa30 value="0.0197918677807753" flag="0"/>
		</comp>
		<comp name=".HNZ" depth="0.0">
			<acc value="1.2041647856892" flag="0"/>
			<vel value="0.280880934786" flag="0"/>
			<psa03 value="1.40637433206591" flag="0"/>
			<psa10 value="0.0560197410330869" flag="0"/>
			<psa30 value="0.00530779578207585" flag="0"/>
		</comp>
	</station>
	<station code="KOR2" name="KOR2" netid="HI" source="ITSAK Strong Motion Network" insttype="" lat="37.9401" lon="22.9495">
		<comp name=".HNE" depth="0.0">
			<acc value="0.0091010638211574" flag="0"/>
			<vel value="0.00832614010393" flag="0"/>
			<psa03 value="0.0246912085880683" flag="0"/>
			<psa10 value="0.015736083688296" flag="0"/>
			<psa30 value="0.00152432983353815" flag="0"/>
		</comp>
		<comp name=".HNN" depth="0.0">
			<acc value="0.0080243916379182" flag="0"/>
			<vel value="0.00828878662039" flag="0"/>
			<psa03 value="0.0155372389012353" flag="0"/>
			<psa10 value="0.0173304380564724" flag="0"/>
			<psa30 value="0.00145422310597648" flag="0"/>
		</comp>
		<comp name=".HNZ" depth="0.0">
			<acc value="0.0069384101574084" flag="0"/>
			<vel value="0.00458024546276" flag="0"/>
			<psa03 value="0.0154786803345015" flag="0"/>
			<psa10 value="0.00949828890251479" flag="0"/>
			<psa30 value="0.000653312132889785" flag="0"/>
		</comp>
	</station>
	<station code="KYP2" name="KYP2" netid="HI" source="ITSAK Strong Motion Network" insttype="" lat="37.2497" lon="21.667">
		<comp name=".HNE" depth="0.0">
			<acc value="0.013275845787414" flag="0"/>
			<vel value="0.00683346313678" flag="0"/>
			<psa03 value="0.030982760789186" flag="0"/>
			<psa10 value="0.00721760484966801" flag="0"/>
			<psa30 value="0.000538816579369039" flag="0"/>
		</comp>
		<comp name=".HNN" depth="0.0">
			<acc value="0.013188770305524" flag="0"/>
			<vel value="0.00722894591027" flag="0"/>
			<psa03 value="0.024794621688654" flag="0"/>
			<psa10 value="0.00635711409635027" flag="0"/>
			<psa30 value="0.000779120102466711" flag="0"/>
		</comp>
		<comp name=".HNZ" depth="0.0">
			<acc value="0.0086470973491446" flag="0"/>
			<vel value="0.00425452633983" flag="0"/>
			<psa03 value="0.015062394945155" flag="0"/>
			<psa10 value="0.00483892164854113" flag="0"/>
			<psa30 value="0.000728915109965672" flag="0"/>
		</comp>
	</station>
	<station code="LAM2" name="LAM2" netid="HI" source="ITSAK Strong Motion Network" insttype="" lat="38.90203" lon="22.431301">
		<comp name=".HNE" depth="0.0">
			<acc value="0.0083473579445166" flag="0"/>
			<vel value="0.00480373622018" flag="0"/>
			<psa03 value="0.0244739754474439" flag="0"/>
			<psa10 value="0.00722393901924133" flag="0"/>
			<psa30 value="0.00110064228714848" flag="0"/>
		</comp>
		<comp name=".HNN" depth="0.0">
			<acc value="0.0098630185075662" flag="0"/>
			<vel value="0.00655754784626" flag="0"/>
			<psa03 value="0.0248254310213053" flag="0"/>
			<psa10 value="0.0109138070486466" flag="0"/>
			<psa30 value="0.00116295422751105" flag="0"/>
		</comp>
		<comp name=".HNZ" depth="0.0">
			<acc value="0.0054568078975248" flag="0"/>
			<vel value="0.00374415581404" flag="0"/>
			<psa03 value="0.0100435826557463" flag="0"/>
			<psa10 value="0.0067393773881839" flag="0"/>
			<psa30 value="0.000927082560505238" flag="0"/>
		</comp>
	</station>
	<station code="LXR2" name="LXR2" netid="HI" source="ITSAK Strong Motion Network" insttype="" lat="38.206718" lon="20.436386">
		<comp name=".HNE" depth="0.0">
			<acc value="0.61726149708348" flag="0"/>
			<vel value="0.200372117648" flag="0"/>
			<psa03 value="1.15929313081322" flag="0"/>
			<psa10 value="0.192910784392667" flag="0"/>
			<psa30 value="0.0149672681747464" flag="0"/>
		</comp>
		<comp name=".HNN" depth="0.0">
			<acc value="0.81169219755132" flag="0"/>
			<vel value="0.255810354541" flag="0"/>
			<psa03 value="1.02875573335003" flag="0"/>
			<psa10 value="0.297230020030054" flag="0"/>
			<psa30 value="0.0215011610130653" flag="0"/>
		</comp>
		<comp name=".HNZ" depth="0.0">
			<acc value="0.55775704748376" flag="0"/>
			<vel value="0.147064640022" flag="0"/>
			<psa03 value="0.504239236709545" flag="0"/>
			<psa10 value="0.103347313752262" flag="0"/>
			<psa30 value="0.0152092542051283" flag="0"/>
		</comp>
	</station>
	<station code="MGP1" name="MGP1" netid="HI" source="ITSAK Strong Motion Network" insttype="" lat="37.403248" lon="22.140703">
		<comp name=".HNE" depth="0.0">
			<acc value="0.014346989175036" flag="0"/>
			<vel value="0.0129636560774" flag="0"/>
			<psa03 value="0.0397158549388191" flag="0"/>
			<psa10 value="0.0257221008379356" flag="0"/>
			<psa30 value="0.00323264456350538" flag="0"/>
		</comp>
		<comp name=".HNN" depth="0.0">
			<acc value="0.013440651496506" flag="0"/>
			<vel value="0.0119581157528" flag="0"/>
			<psa03 value="0.0327533181840745" flag="0"/>
			<psa10 value="0.0255865631092229" flag="0"/>
			<psa30 value="0.00416493465648157" flag="0"/>
		</comp>
		<comp name=".HNZ" depth="0.0">
			<acc value="0.0059411720779764" flag="0"/>
			<vel value="0.00868891427043" flag="0"/>
			<psa03 value="0.0139016214350497" flag="0"/>
			<psa10 value="0.0128188582489666" flag="0"/>
			<psa30 value="0.00329021129368284" flag="0"/>
		</comp>
	</station>
	<station code="MSL1" name="MSL1" netid="HI" source="ITSAK Strong Motion Network" insttype="" lat="38.3727" lon="21.4243">
		<comp name=".HNE" depth="0.0">
			<acc value="0.24034614817404" flag="0"/>
			<vel value="0.158603096866" flag="0"/>
			<psa03 value="0.769048112331239" flag="0"/>
			<psa10 value="0.203231273074521" flag="0"/>
			<psa30 value="0.00560249655457442" flag="0"/>
		</comp>
		<comp name=".HNN" depth="0.0">
			<acc value="0.2128652104968" flag="0"/>
			<vel value="0.161887247766" flag="0"/>
			<psa03 value="0.453626967225912" flag="0"/>
			<psa10 value="0.142770877869936" flag="0"/>
			<psa30 value="0.00825040488216092" flag="0"/>
		</comp>
		<comp name=".HNZ" depth="0.0">
			<acc value="0.11171460677886" flag="0"/>
			<vel value="0.0628899079472" flag="0"/>
			<psa03 value="0.196767826569474" flag="0"/>
			<psa10 value="0.0885461857500523" flag="0"/>
			<psa30 value="0.00441670883528572" flag="0"/>
		</comp>
	</station>
	<station code="NMA1" name="NMA1" netid="HI" source="ITSAK Strong Motion Network" insttype="" lat="37.81873" lon="22.662702">
		<comp name=".HNE" depth="0.0">
			<acc value="0.014488983713778" flag="0"/>
			<vel value="0.00798729331733" flag="0"/>
			<psa03 value="0.0265062376789992" flag="0"/>
			<psa10 value="0.00799696788488509" flag="0"/>
			<psa30 value="0.00167282217042455" flag="0"/>
		</comp>
		<comp name=".HNN" depth="0.0">
			<acc value="0.015680580119484" flag="0"/>
			<vel value="0.00792943113565" flag="0"/>
			<psa03 value="0.0328119835287108" flag="0"/>
			<psa10 value="0.0117465262747195" flag="0"/>
			<psa30 value="0.00101259114169167" flag="0"/>
		</comp>
		<comp name=".HNZ" depth="0.0">
			<acc value="0.0080575526409744" flag="0"/>
			<vel value="0.00495744419338" flag="0"/>
			<psa03 value="0.0163059617003557" flag="0"/>
			<psa10 value="0.00640377328105273" flag="0"/>
			<psa30 value="0.000784040376329281" flag="0"/>
		</comp>
	</station>
	<station code="PAT4" name="PAT4" netid="HI" source="ITSAK Strong Motion Network" insttype="" lat="38.2338" lon="21.74795">
		<comp name=".HNE" depth="0.0">
			<acc value="0.048555724516536" flag="0"/>
			<vel value="0.0418248090519" flag="0"/>
			<psa03 value="0.126801045780515" flag="0"/>
			<psa10 value="0.0788269819006362" flag="0"/>
			<psa30 value="0.0037844277831" flag="0"/>
		</comp>
		<comp name=".HNN" depth="0.0">
			<acc value="0.041527335999486" flag="0"/>
			<vel value="0.0391996546766" flag="0"/>
			<psa03 value="0.144319112516321" flag="0"/>
			<psa10 value="0.065150343390486" flag="0"/>
			<psa30 value="0.00476709704677958" flag="0"/>
		</comp>
		<comp name=".HNZ" depth="0.0">
			<acc value="0.031828020338976" flag="0"/>
			<vel value="0.0235290797868" flag="0"/>
			<psa03 value="0.0595566745041047" flag="0"/>
			<psa10 value="0.0444253979644897" flag="0"/>
			<psa30 value="0.00217937812310327" flag="0"/>
		</comp>
	</station>
	<station code="PET1" name="PET1" netid="HI" source="ITSAK Strong Motion Network" insttype="" lat="36.963862" lon="21.92538">
		<comp name=".HNE" depth="0.0">
			<acc value="0.022786054372248" flag="0"/>
			<vel value="0.0189116600957" flag="0"/>
			<psa03 value="0.063231688789236" flag="0"/>
			<psa10 value="0.0210023681788282" flag="0"/>
			<psa30 value="0.0015065708445909" flag="0"/>
		</comp>
		<comp name=".HNN" depth="0.0">
			<acc value="0.022001076889908" flag="0"/>
			<vel value="0.0148643704854" flag="0"/>
			<psa03 value="0.0714108660360664" flag="0"/>
			<psa10 value="0.0159546387915306" flag="0"/>
			<psa30 value="0.000822231291704879" flag="0"/>
		</comp>
		<comp name=".HNZ" depth="0.0">
			<acc value="0.0090710975891304" flag="0"/>
			<vel value="0.00697668451473" flag="0"/>
			<psa03 value="0.0313312265816435" flag="0"/>
			<psa10 value="0.0078144906404093" flag="0"/>
			<psa30 value="0.000839163142525229" flag="0"/>
		</comp>
	</station>
	<station code="PYL1" name="PYL1" netid="HI" source="ITSAK Strong Motion Network" insttype="" lat="36.914188" lon="21.695161">
		<comp name=".HNE" depth="0.0">
			<acc value="0.002856617583174" flag="0"/>
			<vel value="0.0024212247433" flag="0"/>
			<psa03 value="0.0104246515194977" flag="0"/>
			<psa10 value="0.00490958898615767" flag="0"/>
			<psa30 value="0.000454273843413929" flag="0"/>
		</comp>
		<comp name=".HNN" depth="0.0">
			<acc value="0.0020930525111874" flag="0"/>
			<vel value="0.00223898416225" flag="0"/>
			<psa03 value="0.00693453034214529" flag="0"/>
			<psa10 value="0.00279394539767219" flag="0"/>
			<psa30 value="0.00067668529583045" flag="0"/>
		</comp>
		<comp name=".HNZ" depth="0.0">
			<acc value="0.0015623444165868" flag="0"/>
			<vel value="0.00153491570186" flag="0"/>
			<psa03 value="0.00389389271690632" flag="0"/>
			<psa10 value="0.00263747284463076" flag="0"/>
			<psa30 value="0.000399525477018657" flag="0"/>
		</comp>
	</station>
	<station code="PYR2" name="PYR2" netid="HI" source="ITSAK Strong Motion Network" insttype="" lat="37.6671" lon="21.4506">
		<comp name=".HNE" depth="0.0">
			<acc value="0.047587158493182" flag="0"/>
			<vel value="0.0301530984397" flag="0"/>
			<psa03 value="0.137380840389968" flag="0"/>
			<psa10 value="0.0290909790095902" flag="0"/>
			<psa30 value="0.00297453163145439" flag="0"/>
		</comp>
		<comp name=".HNN" depth="0.0">
			<acc value="0.030262934290542" flag="0"/>
			<vel value="0.026704394836" flag="0"/>
			<psa03 value="0.0826117851254263" flag="0"/>
			<psa10 value="0.0554468530820647" flag="0"/>
			<psa30 value="0.0032140358307669" flag="0"/>
		</comp>
		<comp name=".HNZ" depth="0.0">
			<acc value="0.016733946673848" flag="0"/>
			<vel value="0.0112306726127" flag="0"/>
			<psa03 value="0.036042622021826" flag="0"/>
			<psa10 value="0.0181861753698712" flag="0"/>
			<psa30 value="0.00193653474425393" flag="0"/>
		</comp>
	</station>
	<station code="VAS2" name="VAS2" netid="HI" source="ITSAK Strong Motion Network" insttype="" lat="38.630558" lon="20.608081">
		<comp name=".HNE" depth="0.0">
			<acc value="0.82062208882158" flag="0"/>
			<vel value="0.24189782259" flag="0"/>
			<psa03 value="1.30521129717656" flag="0"/>
			<psa10 value="0.343207735828082" flag="0"/>
			<psa30 value="0.0125571893521842" flag="0"/>
		</comp>
		<comp name=".HNN" depth="0.0">
			<acc value="0.9966546216483" flag="0"/>
			<vel value="0.295700854089" flag="0"/>
			<psa03 value="1.37900435226883" flag="0"/>
			<psa10 value="0.337082560065197" flag="0"/>
			<psa30 value="0.0242294617495886" flag="0"/>
		</comp>
		<comp name=".HNZ" depth="0.0">
			<acc value="0.61424871067824" flag="0"/>
			<vel value="0.20627662735" flag="0"/>
			<psa03 value="0.569624234809571" flag="0"/>
			<psa10 value="0.107524257954275" flag="0"/>
			<psa30 value="0.00724951607820741" flag="0"/>
		</comp>
	</station>
	<station code="VSK1" name="VSK1" netid="HI" source="ITSAK Strong Motion Network" insttype="" lat="38.4091" lon="20.564">
		<comp name=".HNE" depth="0.0">
			<acc value="1.1079759694386" flag="0"/>
			<vel value="0.547860957843" flag="0"/>
			<psa03 value="0.898896964178207" flag="0"/>
			<psa10 value="0.447696527696756" flag="0"/>
			<psa30 value="0.0362904173953933" flag="0"/>
		</comp>
		<comp name=".HNN" depth="0.0">
			<acc value="1.4576942396022" flag="0"/>
			<vel value="0.417010953962" flag="0"/>
			<psa03 value="1.19882666638323" flag="0"/>
			<psa10 value="0.352397434600607" flag="0"/>
			<psa30 value="0.0335656835618092" flag="0"/>
		</comp>
