<?xml version="1.0" encoding="UTF-8" standalone="yes"?>
<!DOCTYPE earthquake SYSTEM "stationlist.dtd">
<stationlist created="" xmlns="ch.ethz.sed.shakemap.usgs.xml">
  <station code="VJF" name="VJF" netid="HE" insttype="STS-2/N" lat="60.5388" lon="27.555">
    <comp name="--.HHE">
      <acc value="0.0088611717" flag="0"/>
      <vel value="0.0005558183" flag="0"/>
      <psa03 value="0.0016811901" flag="0"/>
      <psa10 value="0.0001948450" flag="0"/>
      <psa30 value="0.0000106019" flag="0"/>
    </comp>
    <comp name="--.HHN">
      <acc value="0.0096193484" flag="0"/>
      <vel value="0.0010858891" flag="0"/>
      <psa03 value="0.0038531188" flag="0"/>
      <psa10 value="0.0006210701" flag="0"/>
      <psa30 value="0.0000204081" flag="0"/>
    </comp>
    <comp name="--.HHZ">
      <acc value="0.0052051779" flag="0"/>
      <vel value="0.0010926366" flag="0"/>
      <psa03 value="0.0036481989" flag="0"/>
      <psa10 value="0.0009821930" flag="0"/>
      <psa30 value="0.0000371397" flag="0"/>
    </comp>
  </station>
</stationlist>
