<?xml version="1.0" encoding="UTF-8" standalone="yes"?>
<!DOCTYPE earthquake SYSTEM "stationlist.dtd">
<stationlist created="" xmlns="ch.ethz.sed.shakemap.usgs.xml">
  <station code="ARBS" name="ARBS" netid="CA" insttype="CMG3TB" lat="42.4345" lon="1.53375">
    <comp name="--.HH2">
      <acc value="0.0277616244" flag="0"/>
      <vel value="0.0082132657" flag="0"/>
      <psa03 value="0.0406436181" flag="0"/>
      <psa10 value="0.0041249790" flag="0"/>
      <psa30 value="0.0001688866" flag="0"/>
    </comp>
    <comp name="--.HH1">
      <acc value="0.0274972600" flag="0"/>
      <vel value="0.0068836028" flag="0"/>
      <psa03 value="0.0410900118" flag="0"/>
      <psa10 value="0.0028603496" flag="0"/>
      <psa30 value="0.0001465642" flag="0"/>
    </comp>
    <comp name="--.HHZ">
      <acc value="0.0169615572" flag="0"/>
      <vel value="0.0054182403" flag="0"/>
      <psa03 value="0.0214589041" flag="0"/>
      <psa10 value="0.0011273454" flag="0"/>
      <psa30 value="0.0001257675" flag="0"/>
    </comp>
  </station>
  <station code="CARA" name="CARA" netid="CA" insttype="Trillium120BH" lat="42.7076" lon="0.818132">
    <comp name="--.HHZ">
      <acc value="0.1612206617" flag="0"/>
      <vel value="0.0430214957" flag="0"/>
      <psa03 value="0.1599339089" flag="0"/>
      <psa10 value="0.0089814373" flag="0"/>
      <psa30 value="0.0008748240" flag="0"/>
    </comp>
    <comp name="--.HH1">
      <acc value="0.2017420788" flag="0"/>
      <vel value="0.0563559670" flag="0"/>
      <psa03 value="0.3406186184" flag="0"/>
      <psa10 value="0.0158841136" flag="0"/>
      <psa30 value="0.0011547619" flag="0"/>
    </comp>
    <comp name="--.HH2">
      <acc value="0.1489252868" flag="0"/>
      <vel value="0.0504685223" flag="0"/>
      <psa03 value="0.3856353526" flag="0"/>
      <psa10 value="0.0143654048" flag="0"/>
      <psa30 value="0.0011821889" flag="0"/>
    </comp>
  </station>
  <station code="CAVN" name="CAVN" netid="CA" insttype="Trillium120QA" lat="41.8816" lon="0.750608">
    <comp name="--.HHE">
      <acc value="0.0956274662" flag="0"/>
      <vel value="0.0214529643" flag="0"/>
      <psa03 value="0.0650601057" flag="0"/>
      <psa10 value="0.0082482224" flag="0"/>
      <psa30 value="0.0003661870" flag="0"/>
    </comp>
    <comp name="--.HHN">
      <acc value="0.0883620081" flag="0"/>
      <vel value="0.0194606458" flag="0"/>
      <psa03 value="0.0925963893" flag="0"/>
      <psa10 value="0.0065695117" flag="0"/>
      <psa30 value="0.0004926473" flag="0"/>
    </comp>
    <comp name="--.HHZ">
      <acc value="0.0518845827" flag="0"/>
      <vel value="0.0110109405" flag="0"/>
      <psa03 value="0.0395100700" flag="0"/>
      <psa10 value="0.0021135577" flag="0"/>
      <psa30 value="0.0001410484" flag="0"/>
    </comp>
  </station>
  <station code="CEST" name="CEST" netid="CA" insttype="CMG3T" lat="42.5987" lon="1.25406">
    <comp name="--.HHE">
      <acc value="0.0803294948" flag="0"/>
      <vel value="0.0123675691" flag="0"/>
      <psa03 value="0.0549291546" flag="0"/>
      <psa10 value="0.0033311582" flag="0"/>
      <psa30 value="0.0002256262" flag="0"/>
    </comp>
    <comp name="--.HHZ">
      <acc value="0.0744297310" flag="0"/>
      <vel value="0.0151667683" flag="0"/>
      <psa03 value="0.0403693052" flag="0"/>
      <psa10 value="0.0024897871" flag="0"/>
      <psa30 value="0.0001585402" flag="0"/>
    </comp>
    <comp name="--.HHN">
      <acc value="0.0860152767" flag="0"/>
      <vel value="0.0178177630" flag="0"/>
      <psa03 value="0.0780730351" flag="0"/>
      <psa10 value="0.0043453955" flag="0"/>
      <psa30 value="0.0003802589" flag="0"/>
    </comp>
  </station>
  <station code="CORG" name="CORG" netid="CA" insttype="STS2.5" lat="42.2291" lon="1.31653">
    <comp name="--.HHZ">
      <acc value="0.0189134119" flag="0"/>
      <vel value="0.0050032583" flag="0"/>
      <psa03 value="0.0255764608" flag="0"/>
      <psa10 value="0.0016625252" flag="0"/>
      <psa30 value="0.0001183764" flag="0"/>
    </comp>
    <comp name="--.HHN">
      <acc value="0.0155077858" flag="0"/>
      <vel value="0.0034307756" flag="0"/>
      <psa03 value="0.0148369630" flag="0"/>
      <psa10 value="0.0014366324" flag="0"/>
      <psa30 value="0.0000852757" flag="0"/>
    </comp>
    <comp name="--.HHE">
      <acc value="0.0150898904" flag="0"/>
      <vel value="0.0046508102" flag="0"/>
      <psa03 value="0.0258138639" flag="0"/>
      <psa10 value="0.0016785908" flag="0"/>
      <psa30 value="0.0001126335" flag="0"/>
    </comp>
  </station>
  <station code="CSOR" name="CSOR" netid="CA" insttype="STS2" lat="42.3744" lon="1.13274">
    <comp name="--.HHE">
      <acc value="0.0295260193" flag="0"/>
      <vel value="0.0087144235" flag="0"/>
      <psa03 value="0.0455432209" flag="0"/>
      <psa10 value="0.0030721440" flag="0"/>
      <psa30 value="0.0001613953" flag="0"/>
    </comp>
    <comp name="--.HHN">
      <acc value="0.0290267310" flag="0"/>
      <vel value="0.0107001261" flag="0"/>
      <psa03 value="0.0548888648" flag="0"/>
      <psa10 value="0.0027927639" flag="0"/>
      <psa30 value="0.0001836701" flag="0"/>
    </comp>
    <comp name="--.HHZ">
      <acc value="0.0176750447" flag="0"/>
      <vel value="0.0049921577" flag="0"/>
      <psa03 value="0.0310127676" flag="0"/>
      <psa10 value="0.0015844372" flag="0"/>
      <psa30 value="0.0001270794" flag="0"/>
    </comp>
  </station>
  <station code="CTRE" name="CTRE" netid="CA" insttype="CMG3T" lat="42.3223" lon="0.77236">
    <comp name="--.HHE">
      <acc value="0.0126954997" flag="0"/>
      <vel value="0.0033763869" flag="0"/>
      <psa03 value="0.0205110077" flag="0"/>
      <psa10 value="0.0020896859" flag="0"/>
      <psa30 value="0.0001124635" flag="0"/>
    </comp>
    <comp name="--.HHN">
      <acc value="0.0149532553" flag="0"/>
      <vel value="0.0034107487" flag="0"/>
      <psa03 value="0.0168225526" flag="0"/>
      <psa10 value="0.0013365638" flag="0"/>
      <psa30 value="0.0001384062" flag="0"/>
    </comp>
    <comp name="--.HHZ">
      <acc value="0.0107178606" flag="0"/>
      <vel value="0.0025619850" flag="0"/>
      <psa03 value="0.0112148296" flag="0"/>
      <psa10 value="0.0011329639" flag="0"/>
      <psa30 value="0.0001126621" flag="0"/>
    </comp>
  </station>
  <station code="VIER" name="VIER" netid="CA" insttype="TitanSMA" lat="42.7065" lon="0.786306">
    <comp name="--.HNE">
      <acc value="0.4512900322" flag="0"/>
      <vel value="0.1583962826" flag="0"/>
      <psa03 value="0.6494327162" flag="0"/>
      <psa10 value="0.0256422174" flag="0"/>
      <psa30 value="0.0026624667" flag="0"/>
    </comp>
    <comp name="--.HNZ">
      <acc value="0.2566427527" flag="0"/>
      <vel value="0.0736056937" flag="0"/>
      <psa03 value="0.3845861353" flag="0"/>
      <psa10 value="0.0123339774" flag="0"/>
      <psa30 value="0.0011921899" flag="0"/>
    </comp>
    <comp name="--.HNN">
      <acc value="0.7054179804" flag="0"/>
      <vel value="0.1678832323" flag="0"/>
      <psa03 value="0.8363949654" flag="0"/>
      <psa10 value="0.0221549004" flag="0"/>
      <psa30 value="0.0023101041" flag="0"/>
    </comp>
  </station>
  <station code="VIES" name="VIES" netid="CA" insttype="CMG5TD" lat="42.7016" lon="0.7969">
    <comp name="--.HNE">
      <acc value="0.4358804873" flag="0"/>
      <vel value="0.1698133054" flag="0"/>
      <psa03 value="1.2435333002" flag="0"/>
      <psa10 value="0.0312686384" flag="0"/>
      <psa30 value="0.0031127279" flag="0"/>
    </comp>
    <comp name="--.HNZ">
      <acc value="0.2881210274" flag="0"/>
      <vel value="0.0595101459" flag="0"/>
      <psa03 value="0.4552391609" flag="0"/>
      <psa10 value="0.0122500407" flag="0"/>
      <psa30 value="0.0011643782" flag="0"/>
    </comp>
    <comp name="--.HNN">
      <acc value="0.3008779062" flag="0"/>
      <vel value="0.0915938006" flag="0"/>
      <psa03 value="0.6541223251" flag="0"/>
      <psa10 value="0.0161271093" flag="0"/>
      <psa30 value="0.0015259796" flag="0"/>
    </comp>
  </station>
  <station code="EXSEU" name="EXSEU" netid="ES" insttype="" lat="42.358" lon="1.45986">
    <comp name="--.HNE">
      <acc value="0.0335444426" flag="0"/>
      <vel value="0.0094987232" flag="0"/>
      <psa03 value="0.0497300171" flag="0"/>
      <psa10 value="0.0039718531" flag="0"/>
      <psa30 value="0.0002442265" flag="0"/>
    </comp>
    <comp name="--.HNN">
      <acc value="0.0228440499" flag="0"/>
      <vel value="0.0083188770" flag="0"/>
      <psa03 value="0.0298192197" flag="0"/>
      <psa10 value="0.0057206076" flag="0"/>
      <psa30 value="0.0002940197" flag="0"/>
    </comp>
    <comp name="--.HNZ">
      <acc value="0.0242717908" flag="0"/>
      <vel value="0.0079956456" flag="0"/>
      <psa03 value="0.0484121218" flag="0"/>
      <psa10 value="0.0031333937" flag="0"/>
      <psa30 value="0.0001758493" flag="0"/>
    </comp>
  </station>
  <station code="EXVI3" name="EXVI3" netid="ES" insttype="" lat="42.6214" lon="0.76514">
    <comp name="--.HNE">
      <acc value="0.4157341968" flag="0"/>
      <vel value="0.0749941006" flag="0"/>
      <psa03 value="0.1244938908" flag="0"/>
      <psa10 value="0.0082567919" flag="0"/>
      <psa30 value="0.0008324109" flag="0"/>
    </comp>
    <comp name="--.HNN">
      <acc value="0.4772531294" flag="0"/>
      <vel value="0.0895893631" flag="0"/>
      <psa03 value="0.1570505576" flag="0"/>
      <psa10 value="0.0093588177" flag="0"/>
      <psa30 value="0.0010741742" flag="0"/>
    </comp>
    <comp name="--.HNZ">
      <acc value="0.2323023442" flag="0"/>
      <vel value="0.0379489288" flag="0"/>
      <psa03 value="0.0546718248" flag="0"/>
      <psa10 value="0.0038644129" flag="0"/>
      <psa30 value="0.0003941351" flag="0"/>
    </comp>
  </station>
  <station code="PYOR" name="PYOR" netid="RA" insttype="" lat="42.7827" lon="1.50669">
    <comp name="00.HNN">
      <acc value="0.0971814405" flag="0"/>
      <vel value="0.0261420969" flag="0"/>
      <psa03 value="0.0879639088" flag="0"/>
      <psa10 value="0.0043091815" flag="0"/>
      <psa30 value="0.0003705750" flag="0"/>
    </comp>
    <comp name="00.HNZ">
      <acc value="0.1248010344" flag="0"/>
      <vel value="0.0223011651" flag="0"/>
      <psa03 value="0.0702036725" flag="0"/>
      <psa10 value="0.0033983439" flag="0"/>
      <psa30 value="0.0002273272" flag="0"/>
    </comp>
    <comp name="00.HNE">
      <acc value="0.1392122015" flag="0"/>
      <vel value="0.0254074722" flag="0"/>
      <psa03 value="0.0919697068" flag="0"/>
      <psa10 value="0.0032774916" flag="0"/>
      <psa30 value="0.0003210188" flag="0"/>
    </comp>
  </station>
</stationlist>
